{"type":"Feature","properties":{"speciesId":1000,"category":"VU","source":"IUCN Red List","simplifyTol":0.01,"clippedToSubcontinent":true},"geometry":{"type":"Polygon","coordinates":[[[77.3577,10.0868],[77.3465,9.9923],[77.2679,9.8641],[77.2472,9.7938],[77.2788,9.6565],[77.3423,9.7235],[77.4457,9.798],[77.5069,9.7926],[77.4966,9.6865],[77.5871,9.7548],[77.6187,9.7395],[77.6159,9.7024],[77.5615,9.6367],[77.5054,9.5307],[77.2413,9.4926],[77.0545,9.5242],[77.0012,9.5807],[77.0487,9.6863],[77.0322,9.7566],[76.9908,9.7856],[76.8626,10.013],[76.8752,10.4117],[76.9536,10.4513],[77.0955,10.4921],[77.2265,10.4348],[77.3217,10.4183],[77.3671,10.3645],[77.4705,10.348],[77.5656,10.3728],[77.6525,10.3645],[77.7311,10.4183],[77.7946,10.4145],[77.8096,10.3769],[77.8014,10.2777],[77.7517,10.2198],[77.5491,10.1577],[77.4783,10.1076],[77.392,10.104],[77.3577,10.0868]]]}}