{"type":"Feature","properties":{"speciesId":1001,"category":"NT","source":"IUCN Red List","simplifyTol":0.01,"clippedToSubcontinent":true},"geometry":{"type":"Polygon","coordinates":[[[75.2368,12.4835],[75.1678,12.5693],[75.0526,12.868],[74.913,13.4924],[74.8754,13.5538],[74.7683,13.6353],[74.7707,13.7831],[74.6479,14.051],[74.649,14.1169],[74.6708,14.1409],[74.9962,14.1399],[75.0708,14.1046],[75.3652,13.7972],[75.4384,13.629],[75.5547,13.4894],[75.6471,13.324],[75.6566,13.2451],[75.6143,13.1201],[75.7436,12.9966],[75.7718,12.9141],[75.771,12.6748],[75.7517,12.5829],[75.6977,12.5338],[75.4896,12.4674],[75.3371,12.4578],[75.2368,12.4835]]]}}