{"type":"Feature","properties":{"speciesId":1010,"category":"VU","source":"IUCN Red List","simplifyTol":0.01,"clippedToSubcontinent":true},"geometry":{"type":"MultiPolygon","coordinates":[[[[77.1517,8.6414],[77.1113,8.6688],[77.1125,8.751],[77.1457,8.8041],[77.2194,8.8646],[77.2288,8.798],[77.217,8.7188],[77.1892,8.6702],[77.1517,8.6414]]],[[[77.1113,9.5075],[77.0761,9.5305],[77.0703,9.5745],[77.1494,9.846],[77.1701,9.8751],[77.1908,9.816],[77.1852,9.6347],[77.1427,9.528],[77.1113,9.5075]]],[[[77.001,10.1132],[76.9832,10.1308],[77.001,10.1488],[77.0188,10.1312],[77.001,10.1132]]],[[[76.4908,10.4134],[76.4729,10.4311],[76.4908,10.4491],[76.5086,10.4314],[76.4908,10.4134]]]]}}