{"type":"Feature","properties":{"speciesId":1019,"category":"EN","source":"IUCN Red List","simplifyTol":0.01,"clippedToSubcontinent":true},"geometry":{"type":"MultiPolygon","coordinates":[[[[77.3693,9.6829],[77.4178,9.6759],[77.4313,9.6347],[77.3738,9.5509],[77.336,9.5455],[77.2992,9.5856],[77.3693,9.6829]]],[[[77.0277,10.4107],[77.0431,10.397],[77.1621,10.3869],[77.1516,10.3384],[77.2008,10.3319],[77.2184,10.2897],[77.2638,10.2651],[77.2556,10.2425],[77.3155,10.2523],[77.3039,10.0945],[77.2627,10.0884],[77.2346,10.1038],[77.2647,10.0455],[77.2668,9.9955],[77.2532,9.975],[77.1681,9.9742],[77.0836,9.9964],[77.0329,10.0743],[76.9856,10.1145],[76.9966,10.1927],[77.021,10.1985],[77.0035,10.22],[77.0281,10.249],[76.9875,10.2448],[77.0162,10.2926],[76.9751,10.2866],[76.9937,10.3299],[76.9866,10.3696],[76.9487,10.4005],[77.0277,10.4107]]]]}}