{"type":"Feature","properties":{"speciesId":1020,"category":"VU","source":"IUCN Red List","simplifyTol":0.01,"clippedToSubcontinent":true},"geometry":{"type":"Polygon","coordinates":[[[75.5744,13.2729],[75.6763,12.9058],[75.7527,12.7345],[75.8336,12.4948],[75.8538,12.3745],[75.8489,12.2168],[75.8668,12.1536],[76.1166,11.816],[76.2613,11.7005],[76.2761,11.6626],[76.2075,11.5219],[76.1138,11.4645],[76.0411,11.4626],[76.0277,11.476],[75.981,11.6329],[75.943,11.6952],[75.8948,11.9481],[75.8316,12.0717],[75.7216,12.1457],[75.4728,12.2318],[75.3723,12.3405],[75.36,12.4217],[75.3822,12.4878],[75.5491,12.4201],[75.6362,12.4724],[75.6873,12.5564],[75.6839,12.6714],[75.59,12.9264],[75.4893,13.0608],[75.3848,13.1258],[75.2824,13.0895],[75.2484,13.0916],[75.1663,13.1696],[75.1134,13.302],[75.1183,13.4382],[75.0761,13.5217],[75.1024,13.604],[75.1459,13.598],[75.2932,13.4952],[75.4305,13.4288],[75.5145,13.3608],[75.5744,13.2729]]]}}