{"type":"Feature","properties":{"speciesId":1021,"category":"LC","source":"IUCN Red List","simplifyTol":0.01,"clippedToSubcontinent":true},"geometry":{"type":"Polygon","coordinates":[[[75.7795,12.4511],[75.8091,12.302],[75.8686,12.199],[76.4872,11.6307],[76.6248,11.4536],[76.7445,11.0334],[76.7791,10.8036],[76.8143,10.6954],[76.9166,10.5101],[77.068,10.3665],[77.106,10.2971],[77.1169,10.1903],[77.1031,10.0714],[77.0697,9.9794],[77.0231,9.9304],[76.9296,9.9316],[76.8453,9.9748],[76.7995,10.0336],[76.7805,10.0925],[76.8342,10.2023],[76.6911,10.1847],[76.648,10.1948],[76.4397,10.4771],[76.4503,10.4998],[76.5721,10.5067],[76.6144,10.5305],[76.6594,10.6359],[76.6821,10.7708],[76.6594,10.8429],[76.5745,10.8908],[76.5928,10.9678],[76.5845,10.9907],[76.445,11.035],[76.3763,11.0763],[76.3485,11.111],[76.345,11.2205],[76.4394,11.3192],[76.4198,11.3784],[76.3352,11.455],[76.2328,11.4898],[76.217,11.4709],[76.2105,11.35],[76.1488,11.3186],[76.0948,11.3206],[76.0539,11.4575],[76.0002,11.4986],[75.9324,11.4951],[75.9105,11.5108],[75.8571,11.6402],[75.6952,11.7842],[75.7047,11.8213],[75.8419,11.8963],[75.8361,11.9465],[75.7952,12.016],[75.678,12.0986],[75.532,12.1213],[75.469,12.1521],[75.3637,12.2433],[75.2983,12.3414],[75.2944,12.394],[75.3333,12.4288],[75.4321,12.4625],[75.5407,12.4542],[75.6722,12.5463],[75.5691,12.8964],[75.5386,12.9336],[75.4256,13.0094],[75.387,13.0878],[75.3785,13.1431],[75.3955,13.3088],[75.5868,13.5936],[75.6335,13.6106],[75.727,13.6106],[75.7908,13.5639],[75.8163,13.5298],[75.871,13.3308],[75.8539,13.1329],[75.7672,12.9459],[75.7483,12.8673],[75.7795,12.4511]]]}}