{"type":"Feature","properties":{"speciesId":1026,"category":"EN","source":"IUCN Red List","simplifyTol":0.01,"clippedToSubcontinent":true},"geometry":{"type":"MultiPolygon","coordinates":[[[[77.238,10.0687],[77.1679,10.0702],[77.1474,10.0962],[77.179,10.1237],[77.211,10.1241],[77.238,10.0687]]],[[[77.1241,10.3203],[77.1633,10.3178],[77.1162,10.265],[77.1328,10.2446],[77.0959,10.1626],[77.1017,10.1376],[77.0734,10.1266],[77.0217,10.1372],[77.0131,10.1824],[77.049,10.1961],[77.0259,10.2198],[77.0561,10.2654],[77.0419,10.2934],[77.0534,10.3299],[77.1219,10.3513],[77.1398,10.3437],[77.1241,10.3203]]]]}}