{"type":"Feature","properties":{"speciesId":1028,"category":"LC","source":"IUCN Red List","simplifyTol":0.01,"clippedToSubcontinent":true},"geometry":{"type":"Polygon","coordinates":[[[85.9675,22.9906],[86.036,23.0141],[86.152,23.0157],[86.344,22.9532],[86.4953,22.8424],[86.6152,22.6566],[86.6876,22.4597],[86.7059,22.3399],[86.6531,21.9422],[86.6596,21.7086],[86.6305,21.5789],[86.576,21.4584],[86.5001,21.3486],[86.4144,21.2632],[86.3049,21.1891],[86.2272,21.167],[86.134,21.2625],[86.1122,21.2634],[86.0955,21.0679],[86.1038,20.7894],[86.0751,20.6821],[86.0192,20.5777],[85.8584,20.3972],[85.4747,20.0824],[85.3339,19.9478],[84.7942,19.2357],[84.5956,19.0073],[84.3386,18.7931],[83.9319,18.5701],[83.5154,18.0554],[83.31,17.8734],[83.0292,17.7259],[82.5444,17.4263],[82.3483,17.3267],[82.2874,17.3112],[82.2504,17.3191],[82.2377,17.3505],[82.2491,17.4052],[81.9962,17.2562],[81.8888,17.2128],[81.806,17.2063],[81.6705,17.2542],[81.6254,17.2535],[81.6,17.2192],[81.5589,17.0751],[81.4648,16.9401],[81.4204,16.928],[81.2786,16.9456],[81.0954,16.873],[80.8891,16.7254],[80.7778,16.5712],[80.7265,16.5284],[80.5655,16.4967],[80.504,16.5094],[80.462,16.5405],[80.4077,16.6356],[80.3883,16.7058],[80.4579,16.8706],[80.3791,16.9409],[80.3176,16.9421],[80.2434,16.9017],[80.2115,16.8655],[80.1791,16.7737],[80.0079,16.8148],[80.1287,16.7037],[80.1563,16.6599],[80.1455,16.6128],[80.0768,16.5022],[80.0742,16.4654],[80.2055,16.4058],[80.2432,16.3596],[80.23,16.2949],[80.1615,16.2139],[79.6329,15.8294],[79.14,15.3433],[78.9101,15.1746],[78.7857,15.1312],[78.674,15.1358],[78.5421,15.2011],[78.4045,15.3114],[78.2969,15.4609],[78.2728,15.6433],[78.3311,15.9174],[78.3922,16.071],[78.4525,16.1735],[78.6138,16.3567],[78.9354,16.6395],[79.0969,16.7435],[79.4957,16.9585],[79.6677,17.0834],[79.8227,17.2751],[79.9593,17.5344],[80.0209,17.7379],[80.029,17.9038],[79.9991,18.0578],[79.8639,18.5092],[79.8184,18.8674],[79.7993,19.1678],[79.818,19.556],[79.9034,19.9729],[80.0433,20.3813],[80.2357,20.7873],[80.4094,21.054],[80.6578,21.342],[81.0398,22.1547],[81.1552,22.3297],[81.3512,22.5576],[81.4992,22.6758],[81.6993,22.7562],[81.9022,22.7907],[82.164,22.7812],[82.4104,22.7398],[82.714,22.657],[82.8863,22.5771],[83.3168,22.3343],[83.5693,22.25],[84.3255,22.2244],[85.6483,22.1088],[86.2046,22.1033],[86.2398,22.1416],[86.2632,22.2422],[86.2472,22.3174],[86.1965,22.4284],[86.1337,22.5027],[85.938,22.6467],[85.8844,22.7324],[85.8705,22.8111],[85.8799,22.8725],[85.9154,22.9414],[85.9675,22.9906]]]}}