{"type":"Feature","properties":{"speciesId":1037,"category":"EN","source":"IUCN Red List","simplifyTol":0.01,"clippedToSubcontinent":true},"geometry":{"type":"MultiPolygon","coordinates":[[[[77.4241,9.6355],[77.3234,9.4173],[77.2371,9.4],[77.1551,9.3139],[77.1255,9.3233],[77.0333,9.498],[77.0456,9.5221],[77.0378,9.5604],[77.0559,9.5817],[77.1113,9.5997],[77.261,9.5755],[77.3944,9.6625],[77.4241,9.6355]]],[[[76.9121,9.643],[76.8858,9.7034],[76.9323,9.723],[76.9498,9.6667],[76.9121,9.643]]],[[[77.2767,9.9686],[77.2422,9.9707],[77.2616,10.0139],[77.2767,9.9686]]]]}}