{"type":"Feature","properties":{"speciesId":1038,"category":"LC","source":"IUCN Red List","simplifyTol":0.01,"clippedToSubcontinent":true},"geometry":{"type":"MultiPolygon","coordinates":[[[[75.007,14.5161],[75.1424,14.3859],[75.5377,13.8493],[75.6863,13.7119],[75.8533,13.6124],[75.8883,13.5693],[75.9542,13.2764],[75.9575,13.3041],[76.0771,13.0265],[76.0693,12.8954],[75.9229,12.6547],[75.9084,12.5474],[75.9188,12.4403],[75.9438,12.3845],[75.9916,12.3324],[76.2733,12.136],[76.4224,11.9215],[76.4582,11.8213],[76.47,11.6838],[76.4326,11.5894],[76.3716,11.537],[76.239,11.4803],[76.0616,11.4996],[76.0231,11.5305],[75.9768,11.623],[75.9913,11.6254],[75.7698,11.701],[75.6718,11.7813],[75.578,11.9622],[75.4145,12.1693],[75.3138,12.4121],[75.3069,12.5706],[75.4037,12.7582],[75.4224,12.8495],[75.411,12.9116],[75.2864,13.0372],[75.1447,13.1335],[75.074,13.2166],[74.9713,13.409],[74.8765,13.6989],[74.756,13.8509],[74.4834,14.1112],[74.4125,14.2935],[74.3952,14.4191],[74.3763,14.4169],[74.3516,14.5156],[74.3019,14.5278],[74.3564,14.5921],[74.4081,14.6254],[74.514,14.6584],[74.5999,14.6656],[74.8046,14.6283],[75.007,14.5161]]],[[[74.3997,14.3126],[74.3923,14.3098],[74.3923,14.3121],[74.3997,14.3126]]],[[[73.6561,15.9836],[73.5941,15.9965],[73.547,16.0265],[73.4891,16.1641],[73.4932,16.2434],[73.5492,16.448],[73.5574,16.5402],[73.4459,17.0934],[73.4671,17.1686],[73.5202,17.1916],[73.5913,17.1708],[73.6678,17.0839],[73.8178,16.6014],[73.8472,16.4598],[73.8424,16.2555],[73.7936,16.0741],[73.7466,16.0082],[73.6561,15.9836]]],[[[73.1791,17.884],[73.122,17.9074],[73.1001,18.0008],[73.1573,18.18],[73.1579,18.2356],[73.066,18.3729],[72.9909,18.5391],[73.0027,18.6301],[73.042,18.6573],[73.0858,18.6503],[73.1458,18.6],[73.19,18.4913],[73.252,18.0349],[73.2201,17.9142],[73.1791,17.884]]]]}}