{"type":"Feature","properties":{"speciesId":104,"category":"VU","source":"IUCN Red List","simplifyTol":0.01,"clippedToSubcontinent":true},"geometry":{"type":"Polygon","coordinates":[[[91.354,25.7918],[91.1563,26.1837],[91.0179,26.5486],[90.9334,26.8147],[90.9334,26.8326],[90.9549,26.8434],[91.0322,26.8416],[91.3091,26.7068],[91.8502,26.403],[92.1109,26.3221],[92.2493,26.3077],[92.4596,26.3814],[92.8821,26.581],[93.0313,26.6313],[93.096,26.6331],[93.1176,26.6151],[93.1284,26.563],[93.0744,26.4983],[92.8803,26.3994],[92.1882,26.0758],[91.6776,25.923],[91.4241,25.7882],[91.354,25.7918]]]}}