{"type":"Feature","properties":{"speciesId":1041,"category":"LC","source":"IUCN Red List","simplifyTol":0.01,"clippedToSubcontinent":true},"geometry":{"type":"MultiPolygon","coordinates":[[[[98.0,17.4776],[97.9394,17.652],[97.8736,17.7684],[97.4714,18.3083],[97.2778,18.6148],[97.0848,18.8105],[96.9751,18.9609],[96.7528,19.3782],[96.618,19.686],[96.4895,20.1409],[96.4656,20.3232],[96.4611,20.5364],[96.4832,20.7336],[96.5335,20.8905],[96.5857,20.9671],[96.6785,21.0212],[96.7753,21.0362],[96.9011,21.0099],[96.999,20.9644],[97.1135,20.8763],[97.2112,20.7668],[97.6176,20.1894],[97.76,20.0565],[98.0,19.8776],[98.0,17.4776]]],[[[94.4106,24.2704],[94.2066,23.8432],[94.0991,23.5091],[93.9579,22.5304],[93.9283,22.1813],[93.926,21.9513],[93.973,21.5845],[94.0993,21.046],[94.5171,19.6993],[94.8183,18.8871],[94.9594,18.402],[94.9771,18.1803],[94.9511,17.9731],[94.9166,17.9251],[94.8555,17.8793],[94.7051,17.8282],[94.6159,17.8414],[94.566,17.915],[94.4185,18.6643],[94.2226,19.3549],[94.0909,19.696],[93.9292,19.9487],[93.791,20.0975],[92.7896,20.9855],[92.699,21.1224],[92.647,21.274],[92.6142,21.2421],[92.5936,21.2452],[92.5546,21.3763],[92.4946,21.3496],[92.4384,21.3632],[92.4238,21.3792],[92.4222,21.4276],[92.3889,21.4704],[92.3667,21.4722],[92.3202,21.4175],[92.27,21.4231],[92.2559,21.358],[92.1986,21.323],[92.2184,21.2543],[92.1893,21.1765],[92.1954,21.1269],[92.255,21.0615],[92.2695,20.9134],[92.2123,20.9243],[92.1847,21.0139],[92.0474,21.1766],[92.0496,21.2642],[92.0289,21.3402],[91.9529,21.4548],[91.9993,21.5054],[92.0221,21.4864],[91.9954,21.5518],[92.0389,21.6476],[92.0405,21.6722],[92.0251,21.6822],[92.0352,21.7006],[92.0181,21.7165],[92.0192,21.6685],[91.9818,21.656],[91.9796,21.7042],[91.9667,21.6781],[91.9481,21.7453],[91.9764,21.7418],[91.9924,21.7678],[91.9716,21.7472],[91.9545,21.7539],[91.9706,21.7862],[91.9424,21.8042],[91.9308,21.7855],[91.8912,21.7773],[91.9199,21.8473],[91.9095,21.9079],[91.9274,21.9345],[91.8949,21.9689],[91.8548,22.1276],[91.8345,22.1221],[91.8141,22.1798],[91.842,22.2605],[91.8138,22.3017],[91.8666,22.3221],[91.9129,22.4086],[92.0019,22.4046],[92.0221,22.4167],[92.0349,22.4459],[92.0815,22.4371],[92.1417,22.4616],[92.1439,22.4703],[92.0873,22.4443],[92.0331,22.4505],[92.0029,22.4124],[91.8964,22.4094],[91.8723,22.3498],[91.7955,22.2927],[91.7952,22.2778],[91.829,22.2566],[91.798,22.2196],[91.7818,22.2343],[91.7421,22.4091],[91.5992,22.6334],[91.5351,22.6975],[91.5518,22.9919],[91.5753,22.9632],[91.6045,22.9674],[91.6124,22.958],[91.5995,22.9526],[91.6204,22.9291],[91.6424,22.9753],[91.7177,22.9855],[91.7792,23.0298],[91.7756,23.0642],[91.81,23.0652],[91.8279,23.0906],[91.8138,23.1011],[91.7704,23.2676],[91.8421,23.3999],[91.9016,23.4345],[91.9358,23.4298],[91.9416,23.463],[91.9666,23.4871],[91.9388,23.6541],[91.9538,23.7264],[91.9795,23.7215],[92.0297,23.6394],[92.0741,23.6452],[92.0846,23.6741],[92.1689,23.7349],[92.2114,23.6963],[92.209,23.6541],[92.2208,23.6518],[92.2425,23.7181],[92.2879,23.7291],[92.1742,23.9843],[92.1065,24.0953],[91.9333,24.2808],[91.9002,24.142],[91.8805,24.1446],[91.839,24.1932],[91.8435,24.2246],[91.8096,24.2114],[91.7523,24.2365],[91.7423,24.2248],[91.7538,24.138],[91.694,24.1582],[91.6531,24.2274],[91.6379,24.1053],[91.5881,24.0752],[91.5324,24.0715],[91.3827,24.1126],[91.3651,24.1544],[91.3694,24.2029],[91.4948,24.241],[91.5252,24.2709],[91.5319,24.4428],[91.5568,24.5005],[91.3965,24.5758],[91.2892,24.649],[91.0512,24.9244],[90.858,25.1026],[90.5386,25.2297],[90.4554,25.2822],[90.1655,25.7849],[89.7859,26.2129],[89.1075,26.4148],[88.4197,26.5887],[88.2433,26.6813],[88.2999,26.8752],[88.5987,27.0448],[90.3755,27.1417],[91.4011,27.174],[92.2088,27.2386],[93.5817,27.4647],[94.2971,27.7572],[94.4541,28.1978],[94.4557,28.4685],[94.4909,28.6374],[94.551,28.8065],[94.6297,28.9524],[94.8501,29.214],[95.2047,29.5258],[95.3422,29.6024],[95.536,29.6369],[95.5595,29.592],[95.6411,29.5616],[95.7277,29.4947],[95.8695,29.3193],[95.9944,29.0406],[96.212,28.6379],[96.267,28.4144],[96.4323,28.2071],[96.6018,28.0867],[96.9859,27.8855],[97.3127,27.7614],[97.3713,27.7131],[97.423,27.6269],[97.579,27.6079],[97.6664,27.5773],[98.0,27.386],[98.0,25.62],[97.774,25.4429],[97.4964,25.2623],[97.2824,25.1483],[97.0906,25.0765],[96.9341,25.0455],[96.5394,25.005],[95.9148,24.8848],[95.4073,24.8306],[94.8497,24.6949],[94.6766,24.6689],[94.5934,24.6061],[94.4106,24.2704]]]]}}