{"type":"Feature","properties":{"speciesId":1042,"category":"VU","source":"IUCN Red List","simplifyTol":0.01,"clippedToSubcontinent":true},"geometry":{"type":"Polygon","coordinates":[[[76.8902,10.1371],[76.9577,10.1331],[76.8748,10.1969],[76.8472,10.249],[76.8281,10.385],[76.8478,10.4618],[76.9287,10.4787],[76.9976,10.444],[77.0127,10.5273],[77.0569,10.4942],[77.0531,10.4496],[77.0978,10.4805],[77.1551,10.46],[77.2018,10.4799],[77.223,10.4727],[77.2343,10.4534],[77.2012,10.3786],[77.1998,10.3169],[77.2601,10.282],[77.2604,10.3294],[77.3003,10.3392],[77.3055,10.1943],[77.2304,9.771],[77.1858,9.6359],[77.2855,9.5801],[77.331,9.7178],[77.4161,9.7631],[77.4635,9.7482],[77.4386,9.6973],[77.4502,9.6652],[77.4872,9.652],[77.5381,9.6797],[77.5511,9.6629],[77.5559,9.5603],[77.3835,9.4019],[77.3273,9.2387],[77.1877,8.9646],[77.2198,8.9111],[77.2973,8.8841],[77.2901,8.7929],[77.3095,8.7233],[77.2605,8.7016],[77.2569,8.6845],[77.2802,8.5968],[77.3578,8.6037],[77.4147,8.5676],[77.427,8.4978],[77.414,8.4641],[77.3899,8.4498],[77.3718,8.4512],[77.3184,8.5281],[77.2433,8.5506],[77.1504,8.7178],[77.1521,8.7455],[77.188,8.7881],[77.1294,8.8384],[77.1185,8.8758],[77.2275,8.8491],[77.142,8.9721],[77.0837,9.0089],[77.0745,9.0404],[77.1498,9.3165],[77.1582,9.4741],[77.0713,9.6597],[77.0035,9.9488],[76.9607,10.0028],[76.8726,10.0496],[76.8684,10.0967],[76.8902,10.1371]]]}}