{"type":"Feature","properties":{"speciesId":1045,"category":"VU","source":"IUCN Red List","simplifyTol":0.01,"clippedToSubcontinent":true},"geometry":{"type":"Polygon","coordinates":[[[76.85,10.443],[76.8546,10.4684],[76.9202,10.4718],[77.2217,10.4011],[77.2076,10.3701],[77.1794,10.3539],[77.2147,10.3389],[77.1874,10.2995],[77.1902,10.2742],[77.2216,10.2983],[77.2908,10.2685],[77.2801,10.3269],[77.2922,10.3432],[77.3455,10.3511],[77.3829,10.3297],[77.3724,10.2979],[77.3361,10.3022],[77.3345,10.2057],[77.3036,10.2471],[77.2588,10.2398],[77.238,10.2515],[77.2167,10.242],[77.1937,10.1999],[77.1462,10.2107],[77.1209,10.1756],[77.1308,10.1571],[77.1111,10.1478],[77.0993,10.1703],[77.1245,10.2114],[77.1318,10.2895],[77.1615,10.2999],[77.1618,10.3258],[77.139,10.3298],[77.1603,10.3911],[77.0991,10.3931],[77.0968,10.3575],[77.0838,10.3768],[77.0303,10.3587],[77.0267,10.3186],[77.0508,10.307],[77.0732,10.2554],[77.0533,10.2564],[77.0349,10.2322],[77.047,10.1905],[77.0025,10.1838],[76.9949,10.1673],[77.0167,10.162],[77.0263,10.1394],[77.067,10.1455],[77.0931,10.0985],[77.1691,10.1452],[77.209,10.1503],[77.1288,10.0943],[77.1509,10.0776],[77.1376,10.0617],[77.1538,10.0461],[77.2378,10.0531],[77.2492,10.0707],[77.2319,10.1097],[77.2878,10.1031],[77.3952,10.1446],[77.4873,10.2029],[77.4528,10.1559],[77.3739,10.1077],[77.25,10.0786],[77.2934,10.0384],[77.2926,9.977],[77.2281,9.8981],[77.2516,9.8605],[77.2518,9.8117],[77.1824,9.6328],[77.254,9.5981],[77.2787,9.6031],[77.2828,9.6271],[77.3043,9.6336],[77.3893,9.6221],[77.416,9.6045],[77.3957,9.5672],[77.4348,9.5751],[77.4557,9.6014],[77.4992,9.5715],[77.481,9.5297],[77.4304,9.5294],[77.4061,9.4545],[77.3175,9.3889],[77.2785,9.382],[77.2342,9.3972],[77.1607,9.5058],[77.1727,9.522],[77.2578,9.525],[77.1539,9.5692],[77.1437,9.5931],[77.1422,9.7423],[77.1734,9.8171],[77.2167,9.8101],[77.1664,9.8492],[77.1559,9.9074],[77.1756,9.9187],[77.0798,10.0221],[77.0052,10.0394],[77.0107,10.1379],[76.8737,10.234],[76.949,10.2294],[76.9565,10.2413],[76.9143,10.2445],[76.7963,10.2949],[76.8723,10.2966],[76.7957,10.3221],[76.7864,10.3485],[76.8388,10.3569],[76.8775,10.3426],[76.9365,10.3919],[76.85,10.443]]]}}