{"type":"Feature","properties":{"speciesId":1047,"category":"LC","source":"IUCN Red List","simplifyTol":0.01,"clippedToSubcontinent":true},"geometry":{"type":"MultiPolygon","coordinates":[[[[97.9991,20.4243],[97.7557,20.3999],[97.6378,20.3465],[97.5851,20.3568],[97.5316,20.4108],[97.4548,20.416],[97.422,20.5067],[97.314,20.5073],[97.25,20.5643],[97.2389,20.6133],[97.2501,20.7118],[97.2101,20.7948],[97.2322,20.8552],[97.1799,20.8993],[97.1289,20.8054],[97.0742,20.7834],[97.0178,20.7097],[97.0001,20.5777],[97.014,20.5372],[96.9971,20.5287],[97.015,20.5252],[97.0121,20.5047],[96.969,20.4844],[96.9457,20.5025],[96.9572,20.5189],[96.9846,20.5189],[96.9583,20.5745],[96.9833,20.5818],[96.995,20.6224],[96.9746,20.668],[96.9977,20.6559],[97.0022,20.667],[96.9772,20.6824],[97.028,20.7763],[97.0593,20.8007],[97.0882,20.7965],[97.1307,20.8425],[97.1235,20.9621],[97.1523,20.9775],[97.2361,20.9503],[97.2825,20.8972],[97.2943,20.8499],[97.2608,20.7671],[97.4028,20.8258],[97.4598,20.7905],[97.5195,20.6473],[97.5022,20.5321],[97.5729,20.5663],[97.6224,20.6683],[97.6517,20.6233],[97.7243,20.7189],[97.7813,20.731],[97.8193,20.709],[97.8428,20.6555],[97.7725,20.5677],[97.779,20.5291],[97.8512,20.4696],[97.9415,20.4738],[97.9488,20.4943],[97.8891,20.5865],[97.9742,20.6071],[97.9847,20.6841],[97.9545,20.7652],[97.9461,20.8438],[97.8613,20.873],[97.8523,20.9],[97.8877,20.9695],[98.0,21.0051],[97.9991,20.4243]]],[[[97.9999,22.2397],[97.7039,22.9841],[97.588,23.3579],[97.4977,23.7678],[97.4922,23.9622],[97.4324,24.0698],[97.4119,24.1474],[97.3932,24.7779],[97.3764,24.9225],[97.3016,25.1377],[97.169,25.3741],[96.8227,25.8598],[96.7032,25.987],[96.296,26.3001],[96.2118,26.3395],[96.095,26.3589],[96.0323,26.405],[95.978,26.4887],[95.8646,26.734],[95.5841,27.1525],[95.4236,27.3567],[95.1986,27.5905],[94.7342,28.0237],[94.6606,28.0699],[94.4727,28.1316],[94.4502,28.1592],[94.4561,28.2067],[94.3434,28.2371],[94.2374,28.2904],[94.0087,28.4541],[93.8725,28.5808],[93.8734,28.6403],[93.9008,28.7046],[93.9699,28.7837],[94.0457,28.8372],[94.2846,28.9464],[94.8926,29.1574],[94.9068,29.2143],[95.044,29.3236],[95.1608,29.5006],[95.2092,29.617],[95.2642,29.8662],[95.4279,29.8345],[95.5789,29.7622],[95.6534,29.7076],[95.7418,29.5231],[95.9565,29.2845],[96.1952,28.896],[96.283,28.7975],[96.408,28.6942],[96.7443,28.4726],[97.0228,28.3149],[97.3851,28.1343],[97.8236,27.9619],[98.0,27.8561],[97.9999,22.2397]]]]}}