{"type":"Feature","properties":{"speciesId":1049,"category":"NT","source":"IUCN Red List","simplifyTol":0.01,"clippedToSubcontinent":true},"geometry":{"type":"MultiPolygon","coordinates":[[[[92.403,27.0868],[92.3828,27.0984],[92.3931,27.1212],[92.4133,27.1096],[92.403,27.0868]]],[[[95.7694,28.2601],[95.7484,28.3009],[95.7629,28.3189],[95.7804,28.3037],[95.7694,28.2601]]],[[[95.8393,28.4261],[95.8884,28.4084],[95.8807,28.3856],[95.8903,28.4],[95.9136,28.3881],[95.8989,28.3565],[95.9126,28.3463],[95.9194,28.3788],[95.9251,28.3697],[95.9184,28.3136],[95.8981,28.297],[95.8924,28.3242],[95.8555,28.3449],[95.8628,28.3637],[95.8107,28.3723],[95.808,28.351],[95.8665,28.32],[95.8335,28.2915],[95.8118,28.3026],[95.8119,28.2708],[95.8327,28.2794],[95.8532,28.2629],[95.8491,28.2788],[95.8672,28.2901],[95.8898,28.2623],[95.8123,28.2059],[95.7879,28.226],[95.8453,28.2326],[95.8255,28.247],[95.7838,28.2432],[95.7956,28.3],[95.7855,28.333],[95.8174,28.3226],[95.7822,28.3502],[95.7768,28.3752],[95.7928,28.3998],[95.814,28.3923],[95.807,28.4073],[95.8272,28.4238],[95.8374,28.4102],[95.8393,28.4261]]],[[[95.6262,28.4041],[95.7661,28.3535],[95.7653,28.3376],[95.6941,28.3223],[95.6788,28.3461],[95.6663,28.3229],[95.6424,28.3661],[95.6733,28.3697],[95.6421,28.3702],[95.6262,28.4041]]],[[[95.8818,28.5806],[95.8608,28.5809],[95.8872,28.5495],[95.8677,28.5343],[95.8927,28.5256],[95.8979,28.5005],[95.8732,28.4948],[95.9066,28.4696],[95.8971,28.4611],[95.9202,28.3994],[95.8879,28.4428],[95.8508,28.4435],[95.8612,28.4732],[95.8306,28.4966],[95.8343,28.5139],[95.8521,28.5169],[95.8235,28.5141],[95.8559,28.5592],[95.8338,28.5817],[95.874,28.6049],[95.8818,28.5806]]],[[[95.5268,28.7803],[95.5698,28.7685],[95.6739,28.7041],[95.6916,28.6768],[95.7179,28.7011],[95.7287,28.6751],[95.7141,28.6659],[95.7549,28.6404],[95.7696,28.6486],[95.7837,28.6207],[95.7961,28.6394],[95.8303,28.6147],[95.8035,28.6466],[95.8332,28.6641],[95.7912,28.6826],[95.8184,28.6973],[95.7874,28.7087],[95.8462,28.7267],[95.8711,28.6136],[95.8503,28.6435],[95.8569,28.6109],[95.8354,28.586],[95.8187,28.5988],[95.7611,28.6039],[95.8166,28.5923],[95.8322,28.5657],[95.8266,28.5372],[95.8014,28.5273],[95.8083,28.5028],[95.7422,28.5408],[95.6361,28.5426],[95.7104,28.5215],[95.7501,28.527],[95.829,28.4702],[95.8283,28.4332],[95.7968,28.4467],[95.7592,28.4378],[95.7939,28.4124],[95.7595,28.3875],[95.7607,28.3673],[95.6828,28.4041],[95.6278,28.4078],[95.6115,28.4501],[95.6279,28.4472],[95.6235,28.4306],[95.6375,28.4504],[95.6562,28.4255],[95.7278,28.4015],[95.7413,28.4125],[95.6511,28.4456],[95.6816,28.4615],[95.62,28.4766],[95.6921,28.485],[95.7194,28.4662],[95.7553,28.4629],[95.7574,28.4779],[95.7839,28.4792],[95.7563,28.4895],[95.7272,28.4707],[95.666,28.5084],[95.6112,28.4909],[95.6118,28.5234],[95.5954,28.5085],[95.5741,28.5858],[95.5855,28.5708],[95.5946,28.586],[95.6328,28.5722],[95.6176,28.5998],[95.6599,28.6014],[95.659,28.5807],[95.683,28.5677],[95.6997,28.5794],[95.7895,28.546],[95.7757,28.5605],[95.801,28.5732],[95.7641,28.5656],[95.727,28.5873],[95.7419,28.5989],[95.7262,28.6091],[95.698,28.5969],[95.7027,28.6102],[95.6844,28.6137],[95.6972,28.6308],[95.6581,28.6348],[95.6761,28.6502],[95.6198,28.6542],[95.6386,28.6845],[95.6135,28.6986],[95.6095,28.721],[95.5803,28.7309],[95.5689,28.7171],[95.5268,28.7803]]],[[[95.6862,29.0224],[95.7909,28.9835],[95.8144,28.8722],[95.8039,28.8466],[95.7212,28.9046],[95.7477,28.917],[95.7808,28.8757],[95.7957,28.8762],[95.7802,28.8911],[95.793,28.8979],[95.7818,28.9159],[95.7915,28.9122],[95.7928,28.9491],[95.7477,28.9671],[95.74,28.9946],[95.6862,29.0224]]],[[[95.5359,29.5408],[95.5435,29.4878],[95.5887,29.4677],[95.6026,29.4794],[95.6094,29.4556],[95.7012,29.4525],[95.6623,29.427],[95.5463,29.445],[95.4782,29.5005],[95.479,29.463],[95.4565,29.437],[95.4692,29.4262],[95.403,29.388],[95.4448,29.3815],[95.4861,29.3513],[95.4883,29.319],[95.4193,29.3465],[95.405,29.3419],[95.4171,29.3173],[95.4054,29.3124],[95.3869,29.3377],[95.3844,29.3971],[95.4484,29.4647],[95.4436,29.4727],[95.4294,29.4832],[95.4449,29.4668],[95.3886,29.4197],[95.4038,29.4636],[95.4865,29.5361],[95.5091,29.5403],[95.5126,29.5231],[95.5359,29.5408]]]]}}