{"type":"Feature","properties":{"speciesId":1050,"category":"DD","source":"IUCN Red List","simplifyTol":0.01,"clippedToSubcontinent":true},"geometry":{"type":"MultiPolygon","coordinates":[[[[95.7166,26.9945],[94.7936,26.8635],[94.9453,26.9415],[95.0905,26.9598],[95.1725,27.0404],[95.3197,27.1051],[95.5508,27.2402],[95.895,27.3105],[95.9685,27.31],[96.0085,27.2792],[96.0187,27.2149],[96.0088,27.1605],[95.9121,27.0728],[95.7166,26.9945]]],[[[95.4351,29.514],[95.543,29.5297],[95.5323,29.5046],[95.5502,29.4781],[95.5849,29.4636],[95.6016,29.4801],[95.6072,29.456],[95.6612,29.4262],[95.5376,29.4456],[95.4778,29.5053],[95.4667,29.4732],[95.4802,29.4643],[95.4489,29.4362],[95.4787,29.4293],[95.4457,29.4071],[95.4314,29.4137],[95.3974,29.3811],[95.4401,29.3847],[95.461,29.3516],[95.4906,29.3519],[95.4801,29.3403],[95.4893,29.3183],[95.407,29.3459],[95.4206,29.3117],[95.3388,29.2901],[95.3843,29.2672],[95.2752,29.2609],[95.3158,29.2336],[95.3464,29.2329],[95.3231,29.2195],[95.3586,29.201],[95.2733,29.1837],[95.2757,29.1653],[95.253,29.1522],[95.2266,29.1938],[95.2016,29.1791],[95.1773,29.1906],[95.1708,29.1719],[95.2152,29.14],[95.1857,29.1235],[95.1657,29.1296],[95.1576,29.112],[95.129,29.1248],[95.1335,29.1451],[95.1091,29.1388],[95.1249,29.1485],[95.1192,29.1735],[95.0977,29.1487],[95.0724,29.1461],[95.0937,29.1308],[95.052,29.102],[95.0729,29.0923],[95.0476,29.0793],[95.0498,29.0648],[95.0126,29.087],[94.9966,29.0266],[94.9692,29.0114],[95.0104,29.017],[95.0229,29.0441],[95.0611,29.0675],[95.0706,29.0276],[95.1075,29.0683],[95.1329,29.0669],[95.1275,29.0518],[95.1573,29.0142],[95.0506,28.9779],[95.1127,28.9818],[95.1024,28.9441],[95.0728,28.9456],[95.0712,28.9291],[95.1177,28.9054],[95.1218,28.9265],[95.1444,28.9232],[95.1588,28.9013],[95.1422,28.8966],[95.1531,28.8762],[95.1406,28.8663],[95.1831,28.8663],[95.188,28.8405],[95.2124,28.8579],[95.2314,28.8183],[95.252,28.8174],[95.257,28.7951],[95.3105,28.7535],[95.2339,28.7734],[95.2181,28.761],[95.2029,28.7844],[95.1727,28.7759],[95.1602,28.8018],[95.1425,28.7952],[95.1271,28.8098],[95.1012,28.7897],[95.0737,28.8231],[95.0177,28.8354],[95.0085,28.8718],[94.9754,28.8749],[94.9763,28.9014],[94.9464,28.8631],[94.993,28.845],[94.9961,28.8053],[95.0317,28.7984],[95.0096,28.7655],[95.0349,28.7628],[95.0396,28.741],[95.0594,28.7478],[95.1052,28.7288],[95.0775,28.7081],[95.0842,28.6852],[95.1463,28.6887],[95.195,28.6201],[95.2087,28.6228],[95.1962,28.6611],[95.2041,28.6961],[95.2456,28.6945],[95.27,28.656],[95.3013,28.6808],[95.339,28.654],[95.2964,28.6],[95.3324,28.6081],[95.3381,28.5668],[95.2753,28.5169],[95.3609,28.5277],[95.3315,28.4648],[95.3738,28.4754],[95.4438,28.4311],[95.3958,28.4888],[95.4147,28.5009],[95.448,28.4932],[95.4648,28.5239],[95.5309,28.4849],[95.5607,28.4862],[95.5818,28.4406],[95.6091,28.462],[95.6679,28.4564],[95.6191,28.472],[95.6195,28.4866],[95.4785,28.5691],[95.4348,28.6225],[95.4229,28.6735],[95.58,28.6019],[95.6564,28.6078],[95.7493,28.5707],[95.6177,28.6532],[95.5926,28.7097],[95.4923,28.7744],[95.4815,28.868],[95.528,28.7982],[95.6942,28.6924],[95.723,28.7048],[95.7397,28.6633],[95.7835,28.6421],[95.7984,28.6598],[95.7859,28.7226],[95.8384,28.727],[95.8999,28.5835],[95.8863,28.5769],[95.8964,28.5578],[95.8824,28.5395],[95.9031,28.5391],[95.9116,28.508],[95.8949,28.4895],[95.9105,28.4341],[95.89,28.3235],[95.842,28.3595],[95.823,28.3549],[95.8691,28.3193],[95.8381,28.2888],[95.873,28.2819],[95.8606,28.2605],[95.7891,28.2036],[95.5317,28.1576],[95.2172,28.0193],[94.8399,27.8889],[94.741,27.8224],[94.5147,27.6013],[94.1486,27.4558],[94.0005,27.2999],[93.9753,27.3066],[93.9179,27.3699],[93.9132,27.4335],[93.9375,27.4336],[93.9525,27.4631],[93.9834,27.4572],[94.0136,27.4781],[94.0281,27.5359],[94.0743,27.535],[94.0649,27.5713],[94.0942,27.6038],[94.0778,27.6716],[94.1174,27.6793],[94.1234,27.7021],[94.0771,27.7121],[94.027,27.6713],[94.0304,27.6341],[93.9908,27.6156],[93.9644,27.6289],[94.0558,27.8225],[94.1002,27.8493],[94.1743,27.8637],[94.1663,27.8976],[94.0803,27.8758],[94.2323,28.1678],[94.2393,28.1194],[94.297,28.1117],[94.3053,28.1503],[94.3223,28.1562],[94.3583,28.1527],[94.3908,28.1124],[94.3992,28.1473],[94.4235,28.153],[94.4097,28.1742],[94.4159,28.2012],[94.4834,28.1542],[94.4993,28.1688],[94.5036,28.2115],[94.55,28.2305],[94.5439,28.2512],[94.4945,28.2462],[94.512,28.2657],[94.4437,28.284],[94.5153,28.3113],[94.4861,28.3459],[94.4892,28.367],[94.5385,28.3335],[94.5499,28.3584],[94.5363,28.3812],[94.5814,28.3881],[94.5599,28.4385],[94.5796,28.4505],[94.5889,28.4998],[94.5087,28.5047],[94.4864,28.4536],[94.4589,28.495],[94.4339,28.501],[94.4504,28.5367],[94.4963,28.5327],[94.5229,28.5693],[94.5725,28.5717],[94.5809,28.5984],[94.6113,28.599],[94.6101,28.6262],[94.5516,28.6582],[94.6342,28.6822],[94.6214,28.7287],[94.5954,28.7294],[94.6111,28.7567],[94.5792,28.7769],[94.5904,28.7971],[94.6627,28.7613],[94.6836,28.722],[94.6911,28.7407],[94.7184,28.7359],[94.6931,28.7608],[94.7006,28.8109],[94.6561,28.7855],[94.6053,28.8231],[94.6481,28.8929],[94.7045,28.8896],[94.6926,28.9204],[94.6713,28.9269],[94.7004,28.967],[94.7207,28.9546],[94.7454,28.9707],[94.7546,28.9579],[94.7684,28.9733],[94.7548,29.0014],[94.7922,29.0021],[94.7665,29.0252],[94.7738,29.0598],[94.808,29.0671],[94.807,29.0421],[94.8371,29.0272],[94.8728,29.0543],[94.8622,29.0775],[94.9051,29.0789],[94.902,29.119],[94.8703,29.1187],[94.8846,29.1537],[94.9273,29.129],[94.9371,29.1575],[94.9571,29.1617],[94.8965,29.1963],[94.9115,29.2117],[94.9775,29.1993],[95.017,29.2124],[95.0057,29.234],[95.0199,29.2547],[95.0601,29.2379],[95.1249,29.2635],[95.1082,29.2982],[95.1369,29.3055],[95.0968,29.3394],[95.1477,29.3324],[95.1308,29.3614],[95.1735,29.3578],[95.2122,29.4151],[95.2201,29.387],[95.1992,29.3369],[95.2155,29.3311],[95.1995,29.3077],[95.2484,29.3154],[95.2585,29.3472],[95.3302,29.3815],[95.3107,29.3972],[95.356,29.4279],[95.3632,29.4604],[95.3989,29.4643],[95.3806,29.4819],[95.3975,29.508],[95.3083,29.4623],[95.2936,29.4671],[95.3004,29.4917],[95.2527,29.5044],[95.2318,29.5301],[95.3151,29.5148],[95.3583,29.5524],[95.4351,29.514]]]]}}