{"type":"Feature","properties":{"speciesId":1052,"category":"LC","source":"IUCN Red List","simplifyTol":0.01,"clippedToSubcontinent":true},"geometry":{"type":"Polygon","coordinates":[[[94.0912,25.3667],[94.0719,25.2047],[94.0376,25.1425],[93.8431,24.9463],[93.5822,24.6058],[93.3675,24.2114],[93.2544,23.9073],[93.1088,23.3449],[92.9947,22.4371],[92.9507,22.3315],[92.9179,22.2925],[92.85,22.2812],[92.7642,22.3012],[92.7032,22.3707],[92.6286,22.6221],[92.5934,23.0637],[92.5858,23.3773],[92.5735,23.4074],[92.4951,23.4454],[92.3056,23.4687],[92.2898,23.5995],[92.2533,23.7006],[92.2167,23.7423],[92.1489,23.7645],[92.0528,23.764],[91.9823,23.7366],[91.9265,23.6616],[91.8855,23.555],[91.8617,23.5363],[91.7391,23.5301],[91.6137,23.5544],[91.5494,23.5923],[91.4978,23.6603],[91.4799,23.738],[91.4905,23.8129],[91.5463,23.8596],[91.7236,23.913],[91.867,23.9865],[92.2124,24.1222],[92.4232,24.1881],[92.4374,24.1514],[92.4809,24.1413],[92.4859,24.1622],[92.5315,24.1774],[92.5488,24.2431],[92.608,24.2501],[92.6192,24.2844],[92.7293,24.3597],[92.7991,24.4333],[92.8314,24.4005],[92.8327,24.3764],[92.8629,24.3995],[92.9052,24.3945],[92.9115,24.4129],[92.9357,24.3955],[93.0392,24.4111],[93.0485,24.4755],[93.0358,24.4969],[93.0727,24.5611],[93.0611,24.5748],[93.107,24.5836],[93.0754,24.5962],[93.1047,24.6753],[93.0759,24.7104],[93.1072,24.7419],[93.1098,24.8097],[93.1227,24.8198],[93.1529,24.7898],[93.1974,24.8113],[93.1972,24.8565],[93.2291,24.8773],[93.239,24.915],[93.2533,24.9188],[93.24,24.9388],[93.2624,24.9514],[93.2515,24.9814],[93.2633,25.0042],[93.2469,25.0036],[93.2488,25.0188],[93.2682,25.0497],[93.3046,25.048],[93.3358,25.0958],[93.3531,25.1818],[93.3887,25.2459],[93.474,25.3093],[93.4519,25.3442],[93.4782,25.3799],[93.4521,25.445],[93.7597,25.526],[93.9743,25.5119],[94.0243,25.486],[94.0676,25.429],[94.0912,25.3667]]]}}