{"type":"Feature","properties":{"speciesId":1055,"category":"LC","source":"IUCN Red List","simplifyTol":0.01,"clippedToSubcontinent":true},"geometry":{"type":"Polygon","coordinates":[[[86.4289,27.5953],[86.2378,27.6477],[86.0827,27.7329],[85.9604,27.8588],[85.8719,28.058],[85.8281,28.1213],[85.7097,28.1949],[85.5768,28.2312],[85.4703,28.2169],[85.3046,28.121],[84.322,27.6742],[83.9666,27.5391],[83.7371,27.502],[83.5071,27.5086],[83.2672,27.5521],[82.7182,27.7754],[82.0973,27.9297],[81.8234,27.9809],[81.7067,28.0212],[81.6296,28.0735],[81.5561,28.1623],[81.4838,28.2928],[81.4472,28.4058],[81.3949,28.723],[81.2679,29.263],[81.2405,29.4838],[81.2488,29.5912],[81.2799,29.6644],[81.3295,29.7018],[81.4185,29.7177],[81.3688,29.8711],[81.2237,30.0157],[81.206,30.0909],[81.2163,30.1542],[81.2987,30.2619],[81.3594,30.374],[81.47,30.4542],[81.6111,30.4741],[81.9632,30.4379],[82.0796,30.3976],[82.1414,30.3586],[82.2111,30.2072],[82.3169,30.1008],[82.5083,30.0219],[82.8953,29.7604],[83.0681,29.6694],[83.1521,29.6448],[83.1917,29.6617],[83.2323,29.7753],[83.2938,29.852],[83.3766,29.9007],[83.4847,29.9271],[83.763,29.9189],[84.5602,29.7595],[84.8899,29.7381],[85.268,29.7811],[85.6842,29.8503],[87.5305,30.2338],[87.9899,30.2955],[88.4151,30.3194],[88.9774,30.305],[89.614,30.241],[90.2454,30.1444],[91.83,29.864],[92.6867,29.7583],[93.1356,29.7353],[93.5518,29.7421],[93.9415,29.7788],[94.3061,29.8451],[94.6422,29.9386],[95.3077,30.1748],[95.4661,30.2892],[95.577,30.4727],[95.7515,30.9199],[95.8297,31.3373],[95.8473,31.7796],[95.8193,32.8228],[95.859,33.3066],[95.9061,33.519],[95.9727,33.7118],[96.1904,34.1043],[96.2582,34.1538],[96.3642,34.1827],[96.6066,34.2116],[96.8394,34.2091],[97.2049,34.1703],[98.0,34.0016],[98.0,29.4765],[97.3143,29.5138],[96.556,29.5123],[95.7516,29.4753],[94.3757,29.3748],[92.0693,29.3797],[91.5158,29.3517],[91.0411,29.295],[90.6765,29.2196],[90.3532,29.1179],[90.0312,28.9669],[89.9312,28.9047],[89.922,28.8697],[90.0261,28.7229],[90.2628,28.5771],[90.838,28.2552],[91.3292,28.0587],[91.377,28.008],[91.4101,27.9408],[91.4045,27.9093],[91.3646,27.8857],[91.2464,27.8549],[91.1631,27.8515],[90.8475,27.9196],[90.4804,27.9752],[90.3195,27.9842],[90.1702,27.9686],[89.8976,27.9026],[89.6343,27.8047],[89.1204,27.5767],[88.9888,27.48],[86.4289,27.5953]]]}}