{"type":"Feature","properties":{"speciesId":1056,"category":"LC","source":"IUCN Red List","simplifyTol":0.01,"clippedToSubcontinent":true},"geometry":{"type":"Polygon","coordinates":[[[73.7738,35.1982],[73.9859,35.2292],[74.0653,35.2027],[74.1514,35.1498],[74.1778,35.0902],[74.2109,35.0968],[74.33,35.024],[74.3499,35.024],[74.3764,35.0571],[74.4426,35.0505],[74.4955,35.0836],[74.5882,35.0042],[74.6742,35.0306],[74.7338,35.2093],[74.608,35.0637],[74.6345,35.1829],[74.5617,35.1961],[74.5882,35.2292],[74.7139,35.302],[74.7338,35.3615],[74.5551,35.3218],[74.5286,35.4145],[74.5815,35.4211],[74.6212,35.3748],[74.6411,35.3748],[74.6543,35.441],[74.7404,35.4013],[74.747,35.4608],[74.7999,35.4277],[74.8264,35.3748],[74.8793,35.3814],[74.9323,35.4079],[74.9257,35.4674],[74.8793,35.4741],[74.8264,35.5138],[74.833,35.5468],[74.8793,35.5468],[74.9389,35.5799],[75.0117,35.5601],[75.111,35.5866],[75.1308,35.4079],[75.0779,35.4741],[75.0779,35.5071],[75.0249,35.527],[74.972,35.5336],[74.9389,35.4741],[75.0051,35.3946],[75.0911,35.3549],[75.1573,35.2623],[75.0647,35.3483],[74.9852,35.3814],[75.0051,35.3218],[74.9852,35.3086],[74.9389,35.3615],[74.8727,35.3285],[74.8992,35.2623],[74.9455,35.2424],[75.0183,35.2689],[75.0977,35.2424],[75.1441,35.1829],[75.1705,35.1762],[75.2566,35.2093],[75.3029,35.2557],[75.3161,35.3417],[75.3559,35.3814],[75.3625,35.3351],[75.4088,35.3086],[75.336,35.2292],[75.1838,35.1498],[75.1838,35.1233],[75.2367,35.0968],[75.336,35.1233],[75.4419,35.1762],[75.5081,35.1498],[75.5544,35.1564],[75.5544,35.2027],[75.4684,35.3351],[75.4948,35.3483],[75.4419,35.4476],[75.4816,35.5733],[75.3823,35.666],[75.3889,35.4608],[75.2632,35.4211],[75.2566,35.5799],[75.1507,35.752],[75.2235,35.7255],[75.2169,35.805],[75.0977,35.9373],[75.2036,35.9241],[75.2632,35.8447],[75.3294,35.6924],[75.3426,35.7851],[75.2327,36.0056],[75.336,35.9969],[75.3625,35.8976],[75.4353,35.977],[75.422,35.7123],[75.5147,35.7454],[75.5742,35.8711],[75.6272,35.8314],[75.647,35.7652],[75.8791,35.655],[75.8873,35.6367],[75.7794,35.6196],[75.647,35.7123],[75.5213,35.6395],[75.6272,35.5402],[75.7397,35.5005],[75.7728,35.3946],[75.6934,35.2954],[75.6073,35.2226],[75.5941,35.1233],[75.614,35.0703],[75.7463,35.1299],[75.7728,35.2358],[75.8191,35.2887],[76.0574,35.1829],[76.1169,35.2689],[76.0441,35.3946],[75.8721,35.4476],[76.0508,35.4542],[76.1434,35.3748],[76.1765,35.2689],[76.3552,35.1829],[76.3883,35.2159],[76.3353,35.5336],[76.4214,35.2755],[76.514,35.2292],[76.6464,35.3417],[76.6993,35.2821],[76.6001,35.2093],[76.8185,35.1431],[76.6795,35.1101],[76.6067,35.1564],[76.4809,35.1564],[76.5802,34.9578],[76.7589,34.9512],[76.8515,34.8917],[77.017,34.8453],[77.4803,34.6071],[77.5861,34.6071],[77.4312,34.9337],[77.443,34.9406],[77.5994,34.7064],[77.6634,34.5436],[77.6538,34.5232],[77.5001,34.5409],[77.2155,34.7064],[77.0302,34.7924],[76.5736,34.9247],[76.4346,35.1167],[76.2228,35.1895],[76.0309,35.1299],[76.1302,35.024],[75.8654,35.1034],[75.7596,35.1034],[75.7,35.0836],[75.6669,35.0373],[75.5941,35.0108],[75.614,34.9909],[75.7,34.9909],[75.6073,34.9645],[75.5875,34.9247],[75.5544,34.9512],[75.5213,34.9446],[75.5081,34.885],[75.647,34.8519],[75.8125,34.66],[75.8456,34.66],[75.8721,34.7527],[75.9184,34.7064],[75.9316,34.6468],[75.9647,34.6468],[76.064,34.66],[76.0706,34.7196],[76.0508,34.8122],[76.1037,34.938],[76.2096,34.9777],[76.3287,34.9446],[76.2625,34.8784],[76.2361,34.8122],[76.3221,34.7527],[76.2228,34.713],[76.2758,34.7064],[76.3684,34.66],[76.4875,34.6468],[76.567,34.5938],[76.6001,34.5938],[76.6133,34.6137],[76.653,34.4747],[76.8846,34.349],[76.964,34.349],[77.3082,34.2431],[77.6589,34.0776],[77.6791,34.012],[77.6643,34.0065],[77.5729,34.071],[77.295,34.2034],[76.8714,34.3026],[76.6001,34.4681],[76.567,34.5674],[76.4147,34.6137],[76.3419,34.6137],[76.3155,34.5806],[76.2361,34.5475],[76.2493,34.5144],[76.4147,34.5475],[76.4412,34.5343],[76.4875,34.5475],[76.5339,34.4019],[76.5802,34.3357],[76.5339,34.349],[76.4809,34.4482],[76.4478,34.4681],[76.3089,34.4681],[76.289,34.4284],[76.3949,34.4019],[76.428,34.349],[76.4147,34.3357],[76.3486,34.3688],[76.2361,34.3622],[76.2361,34.4482],[76.2096,34.4813],[76.1566,34.4813],[76.1236,34.4218],[76.1831,34.349],[76.1302,34.349],[76.064,34.3887],[76.011,34.3821],[75.9846,34.3159],[76.0838,34.2629],[76.2228,34.2166],[76.2361,34.1769],[76.0243,34.2365],[75.978,34.21],[75.9647,34.1703],[75.9912,34.1041],[76.2691,34.0512],[76.3155,34.0975],[76.3817,34.0379],[76.3618,33.9651],[76.2096,34.0115],[76.8515,33.5151],[76.9111,33.5283],[76.9111,33.4555],[76.9881,33.319],[76.6795,33.6276],[76.4942,33.7004],[76.4611,33.8063],[76.3552,33.846],[76.0905,34.0578],[76.0044,34.0644],[75.9052,34.0445],[75.9052,34.1306],[75.786,34.1901],[75.9184,34.1703],[75.9184,34.2166],[75.9515,34.2563],[75.8654,34.3093],[75.9449,34.3556],[76.0508,34.4615],[76.0971,34.521],[76.1037,34.5475],[76.0905,34.5674],[76.0044,34.574],[75.9581,34.4549],[75.9052,34.4019],[75.7198,34.3821],[75.6801,34.3291],[75.614,34.3622],[75.5875,34.3291],[75.5941,34.2696],[75.6272,34.2365],[75.5809,34.2431],[75.5279,34.2828],[75.4684,34.2365],[75.4882,34.1968],[75.647,34.1835],[75.5279,34.1637],[75.5345,34.1173],[75.6206,34.157],[75.6404,34.1173],[75.6801,34.0909],[75.7926,34.071],[75.8588,34.0843],[75.8059,34.0445],[75.7132,34.0445],[75.7066,34.0181],[75.786,33.9982],[75.6603,33.9916],[75.6272,34.0115],[75.6073,33.9916],[75.6801,33.9387],[75.7662,33.9122],[76.0772,33.9519],[76.069,33.9271],[75.9978,33.932],[75.8721,33.8923],[75.882,33.8692],[75.8257,33.8659],[75.7993,33.8377],[75.8572,33.8245],[75.9052,33.8328],[75.925,33.8659],[76.0706,33.9122],[76.1186,33.9254],[76.1384,33.9138],[76.0838,33.8973],[76.1136,33.8659],[76.0706,33.8659],[76.0226,33.8427],[76.0044,33.8692],[76.0028,33.8212],[75.9614,33.8394],[75.9449,33.8063],[75.925,33.76],[76.0673,33.7881],[76.0342,33.7533],[76.0441,33.7037],[76.0061,33.7451],[75.978,33.7335],[75.9035,33.7567],[75.925,33.707],[75.8456,33.6541],[75.839,33.6144],[75.8787,33.6144],[75.9912,33.6607],[76.1963,33.6805],[76.0177,33.621],[75.9912,33.5813],[76.1302,33.5151],[76.2162,33.5019],[76.2427,33.5747],[76.3604,33.3942],[76.2758,33.396],[76.3022,33.4357],[75.9912,33.5349],[75.9846,33.5019],[76.0441,33.4688],[75.9647,33.4688],[75.9581,33.4489],[76.0177,33.3761],[76.0441,33.3695],[76.0772,33.3894],[76.15,33.396],[76.1236,33.3364],[76.15,33.2768],[76.2096,33.2702],[76.3022,33.1379],[76.4147,33.0783],[76.5405,32.9592],[76.4478,32.9658],[76.3419,32.8533],[76.3419,32.7673],[76.3949,32.6481],[76.2824,32.6481],[76.3353,32.7077],[76.2956,32.7739],[76.3022,32.8268],[76.2758,32.8798],[76.2096,32.9128],[76.1368,32.9261],[76.0441,32.8136],[75.9052,32.7805],[75.6868,32.7805],[75.6272,32.7937],[75.4882,32.8798],[75.4551,32.9393],[75.3625,33.0055],[75.3294,33.0783],[75.1838,33.1114],[75.1838,33.1842],[75.2301,33.1908],[75.475,33.0055],[75.7198,33.0055],[75.7926,33.0982],[75.8919,33.1379],[75.7728,33.3166],[75.7728,33.3364],[75.8919,33.2967],[75.8919,33.3496],[75.8257,33.396],[75.7198,33.4224],[75.6801,33.3761],[75.6735,33.3099],[75.7529,33.2107],[75.7132,33.204],[75.6537,33.2173],[75.4551,33.1974],[75.2235,33.2835],[75.2103,33.3033],[75.2963,33.3232],[75.3161,33.343],[75.1838,33.3629],[75.1705,33.3232],[75.0911,33.3033],[74.9985,33.3033],[74.9389,33.2438],[74.8992,33.4555],[74.8132,33.4423],[74.661,33.4754],[74.5815,33.4489],[74.5154,33.4489],[74.4955,33.5349],[74.4028,33.6276],[74.3764,33.6938],[74.3168,33.7401],[74.3234,33.8063],[74.2837,33.8592],[74.2242,33.8659],[74.2903,33.9188],[74.2705,34.0048],[74.158,34.0247],[74.0455,34.0181],[74.1911,34.0975],[74.33,34.1173],[74.4161,34.0445],[74.5087,34.0048],[74.5286,33.985],[74.5352,33.9122],[74.6345,33.8526],[74.694,33.8394],[74.7139,33.76],[74.7536,33.6872],[74.8066,33.6607],[74.833,33.6607],[74.8198,33.7732],[74.8529,33.8328],[74.8992,33.846],[74.9323,33.8129],[74.9124,33.7666],[75.0249,33.7203],[74.9919,33.6872],[75.0382,33.6276],[75.0845,33.6011],[75.1226,33.6028],[75.2169,33.4423],[75.2963,33.5019],[75.4154,33.5548],[75.422,33.5945],[75.3823,33.6342],[75.2698,33.6408],[75.2433,33.6607],[75.2963,33.6938],[75.3956,33.707],[75.4088,33.7269],[75.3757,33.7533],[75.3095,33.7666],[75.336,33.8791],[75.2764,33.9122],[75.2615,33.8543],[75.2351,33.8394],[75.1937,33.841],[75.1904,33.8857],[75.1408,33.8659],[75.0944,33.8692],[75.1358,33.894],[75.1689,33.9486],[75.1308,33.9767],[75.0647,33.9651],[75.0398,33.9751],[75.058,34.0346],[75.0283,34.0809],[74.9025,34.0627],[74.8595,34.071],[74.8231,34.1173],[74.8413,34.1488],[74.9191,34.1438],[74.9455,34.1835],[74.8926,34.2034],[74.8661,34.2629],[74.9191,34.3688],[74.8926,34.4152],[74.7338,34.3291],[74.6543,34.2166],[74.694,34.349],[74.6345,34.3821],[74.5749,34.3357],[74.5352,34.21],[74.5154,34.2696],[74.5749,34.3953],[74.6146,34.4218],[74.5484,34.4482],[74.3698,34.4085],[74.33,34.488],[74.4293,34.4813],[74.4227,34.5343],[74.3698,34.5475],[74.2639,34.5012],[74.2771,34.574],[74.2506,34.5872],[74.1183,34.5674],[74.0719,34.5409],[74.0455,34.4681],[74.0719,34.4152],[74.1911,34.3093],[74.3168,34.2431],[74.3631,34.1901],[74.2308,34.1769],[74.1315,34.1968],[74.0455,34.1504],[73.9859,34.1372],[73.8668,34.2166],[73.7741,34.2431],[73.7344,34.296],[73.7741,34.3556],[73.7543,34.4416],[73.7212,34.5144],[73.6881,34.5078],[73.6285,34.5872],[73.7013,34.6534],[73.741,34.7858],[73.8535,34.8453],[73.9528,34.9314],[73.9925,35.0439],[73.9396,35.0571],[73.7079,34.9247],[73.6749,34.8387],[73.6418,34.8387],[73.6815,34.9049],[73.655,34.9645],[73.4896,34.8453],[73.43,34.7792],[73.3959,34.764],[73.3719,34.7754],[73.377,34.8519],[73.4432,34.9181],[73.4966,34.9292],[73.7681,35.0666],[73.7874,35.1167],[73.7548,35.1763],[73.7738,35.1982]]]}}