{"type":"Feature","properties":{"speciesId":1057,"category":"LC","source":"IUCN Red List","simplifyTol":0.01,"clippedToSubcontinent":true},"geometry":{"type":"MultiPolygon","coordinates":[[[[91.5635,25.3061],[91.3352,25.3],[91.1836,25.3854],[91.1107,25.4775],[91.1053,25.6218],[91.1606,25.6637],[91.2513,25.6862],[91.6022,25.7069],[91.7349,25.6671],[91.7802,25.5805],[91.7695,25.4793],[91.6731,25.3576],[91.5635,25.3061]]],[[[89.6589,27.8681],[89.3224,27.4667],[89.2371,27.4178],[89.016,27.3342],[88.942,27.2846],[88.8841,27.1558],[88.7624,26.9943],[88.6779,26.841],[88.6033,26.7581],[88.5351,26.7182],[88.2407,26.6845],[87.9948,26.6882],[87.6279,26.7299],[87.1779,26.8165],[86.7165,26.8491],[86.5279,26.8965],[86.047,27.0612],[85.2519,27.2553],[84.6018,27.4608],[83.2658,27.8136],[82.7871,27.9707],[82.2512,28.1827],[82.012,28.294],[81.8153,28.4065],[81.2029,28.8719],[80.847,29.0844],[80.7876,29.1455],[80.7553,29.2104],[80.7454,29.2938],[80.756,29.4019],[80.8375,29.6796],[80.9799,29.9102],[81.1051,30.0382],[81.2233,30.1277],[81.33,30.1754],[81.4233,30.1806],[81.5306,30.1399],[82.4046,29.6459],[83.4511,29.0984],[83.7931,28.9397],[84.1547,28.8102],[84.2695,28.7296],[84.502,28.5094],[84.6258,28.4263],[84.8346,28.3212],[85.4447,28.0613],[85.5906,28.0512],[85.8073,28.1052],[85.8498,28.1345],[85.9527,28.2758],[86.0345,28.2906],[86.165,28.2411],[86.1496,28.144],[86.2301,28.0755],[86.3601,27.9089],[86.4414,27.8546],[86.5471,27.8175],[87.3314,27.7221],[87.7878,27.7206],[87.7746,27.7513],[87.808,27.7705],[88.082,27.8067],[88.4129,27.9235],[88.5753,27.9367],[88.6551,27.9094],[88.7439,27.7787],[88.8992,27.6613],[88.9579,27.579],[88.9879,27.5703],[89.1128,27.6096],[89.1625,27.6425],[89.367,27.9436],[89.4981,28.0557],[89.5929,28.1631],[89.6479,28.1925],[89.7702,28.1836],[89.9619,28.2027],[90.0903,28.1374],[90.1471,28.1942],[90.2205,28.1452],[90.3199,28.1312],[90.4228,28.0557],[90.8494,28.0632],[90.9538,28.0355],[91.0704,27.9626],[91.1118,27.977],[91.2174,28.0647],[91.3225,28.0803],[91.354,28.0679],[91.438,27.984],[91.5822,27.9509],[91.7293,27.9845],[91.7569,28.0083],[91.7766,28.0796],[91.8048,28.1109],[91.8756,28.1474],[91.95,28.1576],[92.0301,28.1294],[92.0819,28.0806],[92.0672,27.9834],[92.1009,27.876],[92.0794,27.8112],[92.0091,27.7626],[91.9039,27.7564],[91.791,27.7757],[91.636,27.8383],[91.6064,27.7318],[91.5561,27.6451],[91.5537,27.5997],[91.5767,27.5347],[91.6163,27.5024],[91.8065,27.4748],[91.9551,27.4784],[92.0335,27.4284],[92.0582,27.3757],[91.9973,27.2968],[91.9106,27.2586],[91.6275,27.2312],[91.4775,27.24],[91.3707,27.2815],[91.2588,27.366],[91.1744,27.4557],[91.0798,27.6151],[90.9937,27.7194],[90.9063,27.8009],[90.8227,27.8466],[90.2624,27.8972],[90.0315,27.9636],[89.9104,27.98],[89.7814,27.9503],[89.6589,27.8681]]]]}}