{"type":"Feature","properties":{"speciesId":1059,"category":"LC","source":"IUCN Red List","simplifyTol":0.01,"clippedToSubcontinent":true},"geometry":{"type":"MultiPolygon","coordinates":[[[[79.8317,10.8631],[79.7674,10.8778],[79.7172,10.9162],[79.6878,10.9676],[79.6763,11.0365],[79.6875,11.1061],[79.7192,11.1593],[79.7632,11.1941],[79.8298,11.2105],[79.857,11.1971],[79.8617,11.1214],[79.8561,10.875],[79.8317,10.8631]]],[[[76.62,32.7414],[77.3681,32.731],[77.5101,32.6945],[77.6573,32.5821],[77.7582,32.4295],[77.7846,32.2678],[77.7794,31.9109],[77.7347,31.6754],[77.6456,31.4286],[77.635,31.2936],[77.6558,31.1532],[77.7068,30.9802],[77.7637,30.8648],[77.8474,30.7445],[78.0147,30.56],[78.3425,30.2499],[78.5618,30.0784],[78.8191,29.9087],[79.5829,29.4973],[80.0496,29.3782],[80.1879,29.3114],[80.2285,29.2606],[80.2692,29.1417],[80.2288,29.1173],[80.1764,29.1364],[80.1464,29.1032],[80.1267,28.9867],[80.0907,28.9733],[80.0568,28.9196],[80.0653,28.8367],[80.1203,28.8266],[80.213,28.7561],[80.2573,28.7529],[80.2576,28.715],[80.3158,28.6989],[80.3227,28.6691],[80.3621,28.6348],[80.4426,28.6323],[80.4694,28.5856],[80.5162,28.5541],[80.5265,28.5697],[80.5001,28.6642],[80.5328,28.6876],[80.5763,28.686],[80.5919,28.6478],[80.6636,28.6379],[80.7039,28.5725],[80.7519,28.5705],[80.8427,28.4924],[80.8735,28.509],[80.8983,28.5005],[80.9046,28.4611],[80.9557,28.4472],[80.9734,28.4595],[80.9716,28.4337],[81.0095,28.4506],[81.012,28.4305],[81.0298,28.4315],[81.0165,28.4118],[81.0285,28.3944],[81.0371,28.4078],[81.2017,28.3674],[81.2334,28.3236],[81.2421,28.2636],[81.3265,28.1889],[81.4407,28.1646],[81.4823,28.1163],[81.4831,28.0773],[81.6404,27.997],[81.6994,27.9901],[81.7727,27.9246],[81.8862,27.8599],[81.9205,27.8624],[81.9642,27.9295],[82.0551,27.9291],[82.1229,27.8627],[82.159,27.8685],[82.2049,27.8454],[82.4412,27.6874],[82.7048,27.721],[82.7218,27.6904],[82.7138,27.6646],[82.7378,27.6452],[82.7567,27.589],[82.7561,27.5593],[82.7403,27.5618],[82.7607,27.5069],[82.8092,27.4956],[82.9224,27.5045],[82.9598,27.466],[82.9983,27.4572],[83.1892,27.4539],[83.2685,27.3889],[83.2726,27.3573],[83.2971,27.3333],[83.3481,27.3383],[83.3866,27.3747],[83.4087,27.4117],[83.3832,27.4356],[83.4,27.4542],[83.3932,27.4838],[83.6358,27.4652],[83.8659,27.3515],[83.8826,27.3786],[83.8366,27.4243],[83.8468,27.4432],[83.9412,27.449],[84.0252,27.435],[84.0573,27.4485],[84.1021,27.5201],[84.1544,27.5203],[84.1482,27.4919],[84.2077,27.4677],[84.2127,27.4392],[84.2564,27.4455],[84.2891,27.3877],[84.6295,27.3269],[84.6908,27.2134],[84.6748,27.0994],[84.6447,27.0487],[84.7438,27.0112],[84.7755,27.0194],[84.7915,27.0016],[84.8253,27.0231],[84.8737,26.9801],[84.9619,26.9621],[84.9758,26.9426],[84.9677,26.9172],[85.0545,26.8908],[85.029,26.8748],[85.027,26.8556],[85.0664,26.8539],[85.1051,26.8766],[85.1862,26.8753],[85.1795,26.8075],[85.2073,26.767],[85.3316,26.7472],[85.4033,26.7944],[85.462,26.7913],[85.5687,26.8644],[85.5931,26.8545],[85.6237,26.8807],[85.7236,26.8156],[85.7329,26.6559],[85.8197,26.6081],[85.8451,26.6115],[85.8572,26.5976],[85.8506,26.5679],[85.9492,26.6143],[85.9691,26.6562],[86.0357,26.6703],[86.1333,26.6308],[86.1407,26.614],[86.1956,26.618],[86.2204,26.5934],[86.2518,26.6188],[86.3389,26.6233],[86.3428,26.6081],[86.5388,26.5388],[86.5685,26.5002],[86.7245,26.4274],[86.766,26.4627],[86.8372,26.4437],[86.8853,26.4652],[86.8955,26.4937],[86.9247,26.4938],[86.9296,26.5175],[87.008,26.534],[87.041,26.5885],[87.087,26.6029],[87.0792,26.6498],[87.0017,26.8051],[87.0072,26.8558],[87.0883,26.8847],[87.3934,26.9233],[87.5896,26.9208],[87.752,26.8879],[87.9084,26.8138],[88.0542,26.7034],[88.169,26.5736],[88.1873,26.5033],[88.1705,26.3952],[88.0714,26.1283],[88.038,25.955],[88.0405,25.7121],[88.1004,25.4393],[88.1088,25.3186],[88.0839,25.0827],[88.0158,24.7399],[88.0586,24.5893],[88.2294,24.3096],[88.3575,24.0614],[88.4592,23.7599],[88.4737,23.6247],[88.4614,23.5047],[88.4243,23.4038],[88.3449,23.2823],[88.3301,23.1944],[88.3516,23.0862],[88.4701,22.7591],[88.5261,22.3477],[88.5211,22.1467],[88.4948,22.05],[88.4231,21.8958],[88.4002,21.8978],[88.4163,21.9239],[88.4048,21.9531],[88.3902,21.9659],[88.4108,21.9789],[88.4127,21.9945],[88.3877,21.9685],[88.4115,21.9228],[88.396,21.9069],[88.4038,21.8777],[88.3793,21.8411],[88.361,21.85],[88.3533,21.8073],[88.3303,21.7886],[88.281,21.7972],[88.2778,21.8098],[88.3148,21.8297],[88.3237,21.8508],[88.3061,21.8664],[88.2686,21.8651],[88.3175,21.8491],[88.2585,21.8007],[88.2892,21.7574],[88.2845,21.6909],[88.2598,21.6496],[88.2408,21.6577],[88.2416,21.6783],[88.2111,21.6866],[88.2311,21.7009],[88.2165,21.7909],[88.2376,21.7644],[88.2404,21.7784],[88.212,21.8018],[88.2011,21.8507],[88.1645,21.8907],[88.1736,21.9305],[88.1487,21.9593],[88.2329,22.0686],[88.2142,22.1574],[88.1755,22.1964],[88.0454,22.2224],[88.0317,22.2019],[88.1448,22.1864],[88.1936,22.1276],[88.1956,22.1033],[88.1618,22.0645],[88.062,22.0134],[88.0491,21.9632],[87.9766,21.8497],[87.9352,21.8113],[87.8866,21.8031],[87.891,21.779],[87.831,21.7238],[87.7876,21.6997],[87.7555,21.7011],[87.7032,21.6602],[87.6638,21.6495],[87.6514,21.6656],[87.6367,21.6471],[87.3716,21.578],[87.3705,21.5618],[87.1956,21.5494],[87.1966,21.5382],[87.1237,21.5148],[87.066,21.473],[86.8944,21.3134],[86.8167,21.1383],[86.9295,20.9011],[86.9724,20.8446],[86.9742,20.7699],[86.9993,20.761],[87.0138,20.7259],[86.9957,20.6995],[87.0253,20.6897],[87.0517,20.7024],[86.7662,20.5058],[86.7365,20.452],[86.7403,20.4123],[86.7226,20.3935],[86.7418,20.3778],[86.7282,20.3617],[86.7785,20.3974],[86.77,20.3672],[86.7856,20.366],[86.7633,20.3356],[86.8019,20.3649],[86.8077,20.3953],[86.8055,20.3607],[86.7207,20.2997],[86.6841,20.3174],[86.6954,20.2818],[86.765,20.3143],[86.5374,20.1809],[86.4261,20.0256],[86.423,20.0496],[86.4009,20.0054],[86.429,19.9944],[86.4155,19.9756],[86.1578,19.8714],[86.0759,19.8488],[86.0873,19.8592],[86.0496,19.8556],[86.0658,19.8436],[85.9328,19.8215],[85.684,19.7444],[85.3729,19.5944],[85.1231,19.4203],[85.088,19.3695],[85.0094,19.3289],[84.8728,19.2167],[84.8235,19.1473],[84.8082,19.1465],[84.8021,19.112],[84.6903,18.9544],[84.7565,19.111],[84.6633,19.1475],[84.4203,18.9494],[84.3441,18.8119],[84.1514,18.7758],[83.9227,18.8085],[83.6233,19.1536],[83.4804,19.0665],[83.4623,18.9592],[83.3078,18.9909],[83.4018,18.8671],[83.2699,18.7598],[83.1508,18.7587],[83.0115,18.639],[83.0552,18.4881],[83.0395,18.3701],[82.9027,18.3559],[82.7992,18.4394],[82.7464,18.3199],[82.6269,18.2287],[82.5965,18.3409],[82.4992,18.5018],[82.367,18.4172],[82.3344,18.3171],[82.3363,18.0473],[82.2417,17.9798],[82.1193,18.0512],[82.0016,18.0448],[81.8468,17.9508],[81.5539,17.8164],[81.3841,17.8035],[81.1764,17.8491],[81.056,17.7828],[80.9623,18.0315],[80.9737,18.1681],[80.862,18.1327],[80.8189,18.231],[80.7346,18.1717],[80.7453,18.3051],[80.601,18.545],[80.482,18.6279],[80.3597,18.6022],[80.2779,18.711],[80.1005,18.685],[79.9501,18.7799],[79.9313,18.9748],[79.8611,19.06],[79.9424,19.1759],[79.9645,19.3507],[79.9329,19.4691],[79.7933,19.5801],[79.6397,19.575],[79.5827,19.5031],[79.3807,19.5559],[79.2439,19.6126],[79.2207,19.4756],[78.9656,19.6045],[78.8617,19.7059],[78.5953,19.8173],[78.4446,19.8192],[78.3284,19.9161],[78.2941,19.8496],[78.3608,19.754],[78.2876,19.6545],[78.312,19.4659],[78.1822,19.4118],[78.1833,19.2415],[78.0476,19.2556],[77.9263,19.3319],[77.7602,19.0226],[77.9452,18.8321],[77.8232,18.7685],[77.7281,18.6642],[77.7279,18.5515],[77.6014,18.5219],[77.4654,18.26],[77.3588,18.3107],[77.3373,18.4354],[77.2402,18.4086],[77.1089,18.1527],[76.951,18.1725],[76.9506,18.0583],[76.9132,17.9372],[76.766,17.8984],[76.7436,17.7808],[76.6883,17.6785],[76.6144,17.7683],[76.4864,17.7135],[76.373,17.5979],[76.3308,17.4688],[76.4106,17.3477],[75.8937,17.3536],[75.6776,17.458],[75.5841,17.3513],[75.6628,17.2279],[75.6536,17.1131],[75.6784,16.9639],[75.338,16.9535],[75.23,16.8409],[75.0303,16.9415],[74.9285,16.9352],[74.9238,16.77],[74.6956,16.6858],[74.5815,16.555],[74.4701,16.6552],[74.2764,16.5445],[74.3595,16.404],[74.3371,16.2657],[74.5132,16.1992],[74.4891,16.0873],[74.371,16.0596],[74.4352,15.9512],[74.3755,15.7967],[74.2501,15.7412],[74.1306,15.7179],[74.2525,15.6238],[74.3226,15.3573],[74.2787,15.2372],[74.2898,15.0216],[74.0978,14.8767],[74.0746,14.9091],[74.0376,14.9169],[74.0487,14.9568],[74.0297,14.9813],[74.0467,14.9864],[73.9852,15.023],[73.9808,15.0479],[73.9501,15.0728],[73.9052,15.0869],[73.946,15.1422],[73.8868,15.3344],[73.865,15.3686],[73.8344,15.3615],[73.7794,15.4082],[73.874,15.398],[73.8896,15.4203],[73.8746,15.4342],[73.8584,15.4258],[73.8456,15.4489],[73.7827,15.456],[73.8202,15.5012],[73.7577,15.4933],[73.731,15.618],[73.6866,15.7177],[73.6499,15.7398],[73.6549,15.7739],[73.6204,15.8507],[73.5846,15.9071],[73.5003,15.9454],[73.5095,15.9918],[73.4953,15.9853],[73.4818,16.0342],[73.4562,16.0582],[73.4839,16.0695],[73.4591,16.0769],[73.4724,16.1102],[73.4617,16.1155],[73.4576,16.0962],[73.4374,16.1916],[73.4522,16.2251],[73.4279,16.2045],[73.411,16.2607],[73.4396,16.289],[73.4057,16.2811],[73.3868,16.362],[73.3701,16.3623],[73.3708,16.3888],[73.3965,16.3907],[73.4085,16.4087],[73.3682,16.4005],[73.3578,16.4336],[73.3816,16.4481],[73.352,16.4476],[73.3154,16.5182],[73.3155,16.5517],[73.3376,16.56],[73.3591,16.5173],[73.3491,16.5085],[73.3714,16.5137],[73.352,16.537],[73.3562,16.5663],[73.3168,16.5979],[73.3478,16.5966],[73.3593,16.6255],[73.3365,16.621],[73.3215,16.6383],[73.327,16.6786],[73.343,16.6907],[73.3167,16.6952],[73.3004,16.7516],[73.3179,16.8011],[73.2946,16.8134],[73.2847,16.8773],[73.3047,16.8852],[73.2761,16.8895],[73.2818,16.9474],[73.3058,16.9731],[73.2683,16.9866],[73.2784,17.0048],[73.2531,17.0391],[73.2701,17.0396],[73.2896,17.0061],[73.2815,17.0367],[73.3265,17.0301],[73.2796,17.0447],[73.2914,17.0702],[73.2682,17.148],[73.2315,17.1953],[73.244,17.2156],[73.1893,17.3025],[73.2207,17.3081],[73.2573,17.2598],[73.2631,17.2879],[73.2972,17.2843],[73.2369,17.291],[73.2076,17.3815],[73.1714,17.4022],[73.1979,17.4384],[73.1903,17.4813],[73.1405,17.5551],[73.1716,17.5844],[73.135,17.6294],[73.1193,17.6889],[73.1355,17.7136],[73.1276,17.7483],[73.0559,17.925],[73.0342,17.9437],[73.0415,17.9769],[73.0062,18.0163],[73.0312,18.0228],[73.0447,18.0395],[73.025,18.0294],[73.0279,18.0458],[73.0162,18.0249],[72.9934,18.0556],[72.9978,18.0775],[72.9722,18.123],[72.9884,18.1524],[72.9805,18.1943],[72.9314,18.2183],[72.943,18.2318],[72.9378,18.2773],[72.9666,18.2716],[72.9803,18.2399],[73.0525,18.2258],[73.0698,18.1969],[73.0782,18.2298],[73.0525,18.2857],[73.0463,18.2676],[73.025,18.2652],[72.9103,18.3543],[72.9275,18.3803],[72.8896,18.4594],[72.9069,18.4942],[72.9046,18.5381],[72.9214,18.5286],[72.962,18.5413],[72.9161,18.5524],[72.8839,18.6308],[72.8976,18.6325],[72.8689,18.6405],[72.8569,18.6749],[72.8687,18.8021],[72.9152,18.7926],[72.9364,18.8239],[72.9895,18.7753],[72.9863,18.8054],[73.0574,18.8017],[72.9878,18.8125],[72.983,18.8621],[72.9406,18.8459],[72.907,18.8927],[72.9249,18.9098],[72.9393,18.8912],[72.9543,18.9158],[72.9458,18.9422],[72.9776,18.9464],[72.9533,18.9698],[73.091,18.9989],[73.0667,19.0145],[73.0846,19.0316],[73.0644,19.0294],[73.0907,19.0446],[73.0055,19.0055],[72.9845,19.0706],[72.995,19.0879],[72.9753,19.1115],[72.9765,19.1707],[72.9666,19.1368],[72.9526,19.1392],[72.9572,19.1082],[72.9308,19.0909],[72.9483,19.0693],[72.9137,19.0746],[72.9518,19.0434],[72.9043,18.9941],[72.8785,19.0226],[72.8563,19.0086],[72.8298,18.9171],[72.8027,18.8985],[72.8211,18.9287],[72.8143,18.9502],[72.7919,18.9448],[72.8111,19.0178],[72.8597,19.06],[72.8162,19.0495],[72.8248,19.087],[72.8097,19.1416],[72.7856,19.1404],[72.7807,19.1655],[72.8011,19.1971],[72.778,19.1928],[72.786,19.3038],[72.85,19.3163],[72.9155,19.2925],[72.8533,19.3425],[72.8019,19.3316],[72.7584,19.3754],[72.7663,19.3959],[72.7441,19.4601],[72.7576,19.4797],[72.7167,19.5831],[72.745,19.6032],[72.7284,19.6105],[72.7085,19.6706],[72.7003,19.728],[72.715,19.7465],[72.6906,19.7529],[72.706,19.8088],[72.6858,19.8044],[72.6593,19.8393],[72.6859,19.8708],[72.6717,19.937],[72.6995,19.9622],[72.7257,19.9667],[72.7607,19.9238],[72.7449,19.9686],[72.7216,19.9802],[72.7066,20.0662],[72.7327,20.0998],[72.7443,20.1949],[72.7795,20.2077],[72.7395,20.2075],[72.7489,20.2815],[72.7819,20.342],[72.8173,20.3634],[72.8253,20.4409],[72.8872,20.5054],[72.8755,20.5207],[72.8947,20.5298],[72.8825,20.546],[72.8925,20.5852],[72.8732,20.6438],[72.9029,20.5965],[72.8863,20.6377],[72.9016,20.6431],[72.8967,20.7025],[72.9089,20.7118],[72.891,20.721],[72.9225,20.755],[72.953,20.7589],[72.9394,20.777],[72.9187,20.7689],[72.9205,20.7892],[72.8779,20.7948],[72.8961,20.8129],[72.8742,20.8278],[72.8945,20.8667],[72.826,20.83],[72.8549,20.8594],[72.8242,20.8832],[72.8352,20.9066],[72.8491,20.9042],[72.824,20.9215],[72.8826,20.9549],[72.8766,20.9728],[72.8934,20.9848],[72.8327,20.9728],[72.8374,20.9867],[72.8052,20.9869],[72.827,21.014],[72.765,21.0038],[72.7424,20.9795],[72.764,20.9279],[72.7512,20.9397],[72.7225,21.0278],[72.7213,21.057],[72.7458,21.0279],[72.7864,21.0463],[72.807,21.0247],[72.8569,21.0389],[72.8419,21.0534],[72.8553,21.0673],[72.8322,21.0546],[72.8386,21.0696],[72.8226,21.0884],[72.8436,21.1114],[72.8179,21.0979],[72.8304,21.1147],[72.8082,21.1301],[72.8316,21.1672],[72.8081,21.1533],[72.8019,21.1242],[72.7902,21.1444],[72.7877,21.11],[72.7637,21.1227],[72.7572,21.1045],[72.7456,21.1275],[72.7185,21.1023],[72.7294,21.0776],[72.7021,21.0929],[72.7042,21.134],[72.7278,21.144],[72.7056,21.1614],[72.6691,21.1556],[72.6471,21.0848],[72.6254,21.0903],[72.6173,21.1381],[72.6309,21.1283],[72.6467,21.1489],[72.63,21.1334],[72.6223,21.1441],[72.6179,21.2071],[72.6819,21.2197],[72.6435,21.2497],[72.6298,21.2411],[72.6502,21.2826],[72.6207,21.293],[72.6196,21.3109],[72.656,21.3191],[72.6708,21.3425],[72.7367,21.3242],[72.6963,21.3548],[72.7011,21.3728],[72.675,21.3486],[72.6647,21.3689],[72.653,21.3495],[72.6462,21.3618],[72.6943,21.4655],[72.6696,21.4456],[72.6379,21.4508],[72.7386,21.5639],[72.8134,21.61],[72.8355,21.6638],[72.919,21.6477],[73.0366,21.7003],[73.0956,21.7067],[73.1086,21.7289],[73.0676,21.7341],[72.9406,21.6747],[72.8736,21.6883],[72.7814,21.66],[72.738,21.6862],[72.5411,21.6576],[72.5306,21.719],[72.5459,21.6942],[72.5767,21.7063],[72.5619,21.7192],[72.5657,21.7327],[72.5998,21.7156],[72.5853,21.7282],[72.6034,21.7569],[72.5985,21.7937],[72.6403,21.8188],[72.655,21.8922],[72.675,21.8871],[72.6787,21.912],[72.6874,21.8861],[72.7223,21.8841],[72.717,21.93],[72.7788,21.9529],[72.7458,21.9874],[72.7717,22.0012],[72.7753,22.017],[72.7343,21.9912],[72.7201,22.0211],[72.7088,21.981],[72.6924,21.9839],[72.6999,21.9716],[72.6481,21.9605],[72.6492,21.9871],[72.6365,22.003],[72.6401,21.9549],[72.6283,21.9707],[72.6325,21.9536],[72.5483,21.9024],[72.5267,21.9052],[72.5043,21.942],[72.5164,21.9602],[72.5079,21.9995],[72.5474,22.158],[72.6122,22.2155],[72.6617,22.2115],[72.7411,22.1759],[72.7673,22.193],[72.7579,22.2166],[72.7126,22.2441],[72.6128,22.2669],[72.6493,22.2639],[72.6354,22.2747],[72.5678,22.2653],[72.6254,22.2804],[72.5982,22.2825],[72.5615,22.268],[72.5412,22.2407],[72.4987,22.2385],[72.4792,22.2204],[72.4925,22.2642],[72.4592,22.2132],[72.415,22.2147],[72.4247,22.2005],[72.4099,22.1529],[72.3809,22.1541],[72.3883,22.1926],[72.3716,22.1821],[72.3686,22.1448],[72.364,22.1815],[72.3914,22.1987],[72.3686,22.1947],[72.3822,22.2286],[72.3706,22.2858],[72.4013,22.3246],[72.3866,22.3303],[72.3573,22.3118],[72.342,22.2572],[72.3385,22.3067],[72.3295,22.2957],[72.3466,22.2219],[72.3193,22.2089],[72.3203,22.1905],[72.2992,22.1977],[72.3031,22.231],[72.2938,22.2218],[72.2944,22.1955],[72.3205,22.1349],[72.2782,22.0847],[72.2936,22.0757],[72.242,22.0036],[72.2542,21.8165],[72.2398,21.7952],[72.2194,21.816],[72.208,21.8071],[72.2487,21.7165],[72.2826,21.6847],[72.3024,21.6237],[72.2671,21.5693],[72.2544,21.4969],[72.2136,21.4249],[72.1139,21.3046],[72.0758,21.3229],[72.1087,21.293],[72.0985,21.2799],[72.0867,21.289],[72.0982,21.2641],[72.0773,21.253],[72.1069,21.2036],[72.0018,21.1392],[71.8965,21.1145],[71.8779,21.0922],[71.8087,21.0697],[71.7914,21.0517],[71.8046,21.0393],[71.6482,20.9981],[71.6318,20.9884],[71.6363,20.9739],[71.5649,20.9506],[71.522,20.9513],[71.4826,20.9166],[71.4893,20.9052],[71.4691,20.8822],[71.3946,20.8617],[71.3826,20.8715],[71.3796,20.8514],[71.2134,20.8039],[71.1421,20.7545],[71.0915,20.7529],[71.0521,20.7314],[71.0017,20.7356],[70.9851,20.7222],[70.9924,20.705],[70.8529,20.7056],[70.8302,20.6874],[70.6936,20.7416],[70.6756,20.7557],[70.6812,20.7777],[70.6588,20.7575],[70.644,20.7751],[70.6111,20.7679],[70.4384,20.8526],[70.4112,20.8724],[70.4253,20.8807],[70.3419,20.9116],[70.1397,21.0608],[70.1483,21.08],[70.0236,21.1766],[69.7326,21.5041],[69.5946,21.6332],[69.5996,21.6523],[69.5748,21.6385],[69.3719,21.8197],[69.3886,21.8521],[69.3512,21.8353],[69.2148,21.9585],[69.2039,21.9978],[69.1945,21.9818],[69.1511,22.0238],[68.9548,22.2407],[68.9348,22.3055],[68.9568,22.3744],[68.9883,22.4154],[69.0699,22.474],[69.0834,22.4645],[69.0443,22.4324],[69.058,22.3959],[69.092,22.3899],[69.1105,22.4075],[69.1374,22.3989],[69.1917,22.4169],[69.2014,22.3984],[69.1785,22.3749],[69.1599,22.3108],[69.1856,22.2773],[69.231,22.2596],[69.3153,22.2894],[69.3325,22.3265],[69.4119,22.3175],[69.4473,22.3335],[69.4542,22.3156],[69.4955,22.3659],[69.5197,22.3725],[69.5136,22.4255],[69.5499,22.3992],[69.5551,22.3781],[69.5382,22.3778],[69.5586,22.3601],[69.5903,22.3594],[69.5761,22.3409],[69.5866,22.3334],[69.6006,22.3544],[69.6196,22.3467],[69.6216,22.365],[69.6444,22.3556],[69.6695,22.3967],[69.694,22.3964],[69.7225,22.4761],[69.7319,22.4396],[69.7489,22.4297],[69.7533,22.4415],[69.7936,22.3995],[69.8199,22.4559],[69.8667,22.4508],[69.9033,22.4692],[69.9275,22.5092],[69.9581,22.4968],[69.9446,22.5222],[69.9659,22.5364],[70.0382,22.5544],[70.1157,22.5457],[70.1746,22.5577],[70.2414,22.6825],[70.2654,22.6886],[70.2379,22.6947],[70.2557,22.7095],[70.2503,22.7313],[70.2962,22.7441],[70.3113,22.8052],[70.3602,22.8827],[70.4537,22.9767],[70.4883,23.0863],[70.407,23.0357],[70.4022,23.0611],[70.3723,23.0596],[70.3624,23.0403],[70.3944,23.0064],[70.2961,22.9446],[70.2295,22.9729],[70.211,22.947],[70.1563,22.942],[70.121,22.9588],[70.1318,22.9824],[70.121,22.9852],[70.1032,22.9609],[70.1328,22.9344],[70.0938,22.9024],[70.0646,22.9131],[69.8093,22.8468],[69.7917,22.8211],[69.7346,22.7995],[69.7167,22.7538],[69.6953,22.7657],[69.7105,22.7461],[69.6887,22.7537],[69.7081,22.7369],[69.6485,22.7603],[69.6287,22.8024],[69.6364,22.7689],[69.6022,22.7736],[69.6062,22.7561],[69.5653,22.7655],[69.554,22.7988],[69.5426,22.7849],[69.5027,22.7942],[69.5156,22.786],[69.5039,22.7837],[69.4543,22.8002],[69.4929,22.776],[69.4677,22.7707],[69.3634,22.8159],[69.3609,22.8321],[69.2788,22.8225],[69.1969,22.8336],[68.9337,22.9835],[68.8538,23.0371],[68.8517,23.0543],[68.8375,23.0444],[68.81,23.0734],[68.8007,23.0647],[68.749,23.0855],[68.7742,23.1218],[68.7657,23.1316],[68.7323,23.1036],[68.6424,23.1574],[68.6334,23.1772],[68.6804,23.1421],[68.7255,23.1477],[68.6558,23.1671],[68.6516,23.1936],[68.6235,23.1864],[68.5835,23.2233],[68.585,23.2403],[68.6458,23.2582],[68.6213,23.2879],[68.6508,23.2988],[68.615,23.2988],[68.6114,23.2717],[68.5867,23.2509],[68.5407,23.2656],[68.5429,23.2869],[68.5594,23.2881],[68.5518,23.3114],[68.5853,23.3054],[68.5853,23.3205],[68.6187,23.3268],[68.6179,23.351],[68.6132,23.3273],[68.5595,23.3456],[68.5178,23.318],[68.4996,23.3496],[68.4781,23.3489],[68.5051,23.3959],[68.4944,23.4008],[68.5192,23.4176],[68.4915,23.421],[68.4737,23.3863],[68.4303,23.4226],[68.4364,23.389],[68.389,23.4289],[68.3916,23.4575],[68.4474,23.4756],[68.4183,23.5337],[68.4551,23.5693],[68.439,23.5689],[68.4675,23.6015],[68.4749,23.642],[68.547,23.7138],[68.6228,23.7511],[68.6568,23.7984],[68.6803,23.7918],[68.72,23.8277],[68.7663,23.8424],[68.7801,23.8674],[68.7639,23.8779],[68.7713,23.8574],[68.7278,23.8369],[68.6562,23.8401],[68.5265,23.7461],[68.5188,23.7733],[68.4908,23.7329],[68.4287,23.7319],[68.3774,23.6257],[68.3831,23.6083],[68.3086,23.5669],[68.2651,23.5687],[68.2712,23.6207],[68.2585,23.6399],[68.2249,23.6455],[68.2678,23.6598],[68.325,23.7288],[68.2916,23.7254],[68.2882,23.7039],[68.2389,23.6712],[68.187,23.7265],[68.2116,23.7719],[68.2067,23.8365],[68.2229,23.8315],[68.2402,23.8494],[68.2547,23.8354],[68.2671,23.8366],[68.2573,23.8761],[68.2747,23.9179],[68.3189,23.9153],[68.3349,23.9654],[68.3708,23.9818],[68.3849,23.9642],[68.7493,23.9621],[68.7641,24.2841],[68.8264,24.3084],[68.8525,24.2057],[68.8736,24.2143],[68.8973,24.2769],[68.9267,24.2939],[68.9706,24.2375],[69.0005,24.2259],[69.0929,24.2691],[69.1998,24.2352],[69.3103,24.2767],[69.5042,24.263],[69.5901,24.2868],[69.7246,24.1751],[69.9787,24.1651],[70.0241,24.1694],[70.0593,24.1928],[70.119,24.2907],[70.5601,24.4186],[70.5959,24.4002],[70.5614,24.3584],[70.5874,24.3101],[70.5723,24.2936],[70.5878,24.2854],[70.5742,24.2523],[70.6553,24.2251],[70.7258,24.2209],[70.8057,24.2227],[70.8941,24.2571],[70.9041,24.2651],[70.8658,24.2843],[70.8727,24.3049],[70.9809,24.3634],[71.0382,24.3561],[71.1244,24.4094],[71.1074,24.4332],[71.0202,24.4333],[71.0007,24.4489],[70.9894,24.6032],[71.0081,24.6357],[71.065,24.6626],[71.0861,24.6934],[70.9556,24.9017],[70.9179,24.9864],[70.8812,25.1459],[70.7525,25.2717],[70.7372,25.3257],[70.6659,25.396],[70.6724,25.6715],[70.6593,25.7015],[70.6048,25.7185],[70.5265,25.6885],[70.3746,25.6813],[70.2754,25.7113],[70.0961,25.9443],[70.0826,26.0739],[70.1452,26.1662],[70.1727,26.2451],[70.1646,26.2909],[70.1839,26.4868],[70.1677,26.5508],[70.0662,26.5993],[69.8793,26.5811],[69.8154,26.5922],[69.7219,26.6538],[69.5076,26.7484],[69.4837,26.8062],[69.5132,27.0169],[69.5867,27.178],[69.862,27.4028],[69.9362,27.5021],[70.0163,27.556],[70.1078,27.7669],[70.1569,27.8341],[70.3662,28.0082],[70.4791,28.0338],[70.5626,28.0198],[70.6721,27.9143],[70.6784,27.8391],[70.7577,27.7172],[70.8655,27.7051],[71.2441,27.8494],[71.6749,27.8855],[71.8996,27.9642],[71.9223,28.114],[71.992,28.2036],[72.1844,28.358],[72.3019,28.6648],[72.3962,28.7746],[72.7302,28.9501],[72.9444,29.0341],[73.0009,29.1509],[73.0966,29.2554],[73.2748,29.5562],[73.3965,29.939],[73.5782,30.0101],[73.8039,30.0699],[73.9652,30.1913],[73.9437,30.3059],[73.8712,30.3686],[73.9034,30.4168],[73.9279,30.4209],[73.9353,30.463],[73.9627,30.4576],[73.9836,30.5005],[74.032,30.5358],[74.0665,30.5202],[74.0776,30.5294],[74.1042,30.6129],[74.1861,30.6594],[74.2322,30.7196],[74.2818,30.7302],[74.2622,30.768],[74.2962,30.7785],[74.3196,30.8436],[74.363,30.8458],[74.3655,30.8854],[74.4161,30.906],[74.4706,30.966],[74.5022,30.9648],[74.5485,30.9928],[74.5584,31.0675],[74.6391,31.0211],[74.6564,31.053],[74.6857,31.0615],[74.6644,31.1067],[74.6176,31.1191],[74.5741,31.11],[74.5359,31.1542],[74.5502,31.2947],[74.6411,31.4647],[74.6117,31.5062],[74.5785,31.6234],[74.5173,31.7229],[74.5171,31.7604],[74.5455,31.7576],[74.5438,31.8223],[74.573,31.823],[74.7032,31.9249],[74.7092,31.9579],[74.7364,31.9371],[74.7984,31.9441],[74.8317,32.0],[74.9325,32.0603],[75.0049,32.0288],[75.0736,32.0628],[75.1719,32.0661],[75.2121,32.1191],[75.2278,32.0846],[75.2392,32.0871],[75.3142,32.1592],[75.3228,32.2013],[75.3747,32.2243],[75.3808,32.265],[75.3399,32.2886],[75.3425,32.3283],[75.4531,32.3354],[75.6187,32.237],[75.694,32.1646],[75.7486,32.0563],[75.7672,32.0482],[76.163,32.5279],[76.2552,32.6149],[76.3484,32.6755],[76.4687,32.7186],[76.62,32.7414]]]]}}