{"type":"Feature","properties":{"speciesId":106,"category":"DD","source":"IUCN Red List","simplifyTol":0.01,"clippedToSubcontinent":true},"geometry":{"type":"MultiPolygon","coordinates":[[[[77.3222,8.6356],[77.3978,8.6631],[77.4941,8.5944],[77.4734,8.56],[77.5147,8.4775],[77.5009,8.4431],[77.5284,8.3881],[77.5078,8.285],[77.4666,8.3675],[77.3978,8.45],[77.3153,8.4913],[77.1847,8.6288],[77.1641,8.6975],[77.1847,8.89],[77.2947,8.89],[77.3153,8.78],[77.2809,8.7181],[77.3222,8.6356]]],[[[76.9441,10.4369],[77.2053,10.4163],[77.1984,10.3819],[77.1778,10.3681],[77.1847,10.3131],[77.2122,10.2856],[77.3153,10.3269],[77.5284,10.3544],[77.6453,10.3956],[77.6934,10.4025],[77.7209,10.3613],[77.7003,10.2925],[77.5697,10.1963],[77.4666,10.1481],[77.3703,10.1344],[77.2878,10.0794],[77.2672,10.0175],[77.2809,10.0175],[77.2259,9.8869],[77.2672,9.825],[77.2672,9.7631],[77.1984,9.6256],[77.2397,9.6119],[77.3153,9.6325],[77.3497,9.6875],[77.3497,9.7563],[77.4116,9.7631],[77.4872,9.7013],[77.5627,9.5848],[77.5771,9.4842],[77.443,9.4459],[77.4142,9.4171],[77.3566,9.4194],[77.3566,9.3438],[77.3291,9.275],[77.3222,9.1719],[77.2741,9.1031],[77.1709,9.0275],[77.1984,9.0756],[77.1228,9.2406],[77.1091,9.3575],[77.0678,9.4813],[76.9097,9.6325],[76.9234,9.7081],[77.0059,9.7906],[77.0541,9.8938],[77.0403,9.9831],[76.9372,10.0519],[76.9784,10.2169],[76.9097,10.2169],[76.8547,10.2925],[76.9441,10.4369]]],[[[76.9578,11.5438],[77.0334,11.4613],[77.0266,11.4338],[76.9234,11.3719],[76.8822,11.3169],[76.8203,11.31],[76.6897,11.1931],[76.5522,11.1106],[76.4147,11.1038],[76.3734,11.2],[76.3803,11.2756],[76.4353,11.3375],[76.4284,11.4063],[76.2497,11.4888],[76.2153,11.5369],[76.1878,11.5094],[76.1947,11.3925],[76.1328,11.2756],[76.0641,11.4681],[76.0091,11.5231],[75.9197,11.5231],[75.8372,11.7363],[75.9197,11.7775],[76.0503,11.7706],[76.3872,11.6263],[76.8891,11.5644],[76.9578,11.5438]]]]}}