{"type":"Feature","properties":{"speciesId":1060,"category":"LC","source":"IUCN Red List","simplifyTol":0.01,"clippedToSubcontinent":true},"geometry":{"type":"Polygon","coordinates":[[[76.1421,11.9027],[75.602,12.441],[75.29,12.6483],[74.8616,12.8497],[74.8292,12.8891],[74.8083,12.9493],[74.7921,13.1693],[74.8158,13.3838],[74.6682,14.1354],[74.2709,14.9662],[73.9097,15.5802],[73.691,16.0287],[73.5485,16.5314],[73.4976,17.0455],[73.404,17.5428],[73.2855,17.8128],[73.0634,18.0886],[72.9623,18.2439],[72.9099,18.4348],[73.0307,19.4933],[72.9585,20.0833],[73.0548,20.4084],[73.2806,20.6657],[73.393,20.6782],[73.5178,20.5783],[74.0045,19.5799],[74.042,18.9434],[74.0544,17.9824],[74.1543,17.2959],[74.8407,15.4238],[75.315,14.4129],[75.602,13.689],[76.0638,12.7031],[76.3134,12.4036],[76.3633,12.1539],[76.3259,11.9543],[76.2856,11.8841],[76.2261,11.8669],[76.1421,11.9027]]]}}