{"type":"Feature","properties":{"speciesId":1062,"category":"LC","source":"IUCN Red List","simplifyTol":0.01,"clippedToSubcontinent":true},"geometry":{"type":"MultiPolygon","coordinates":[[[[74.7693,14.8158],[74.7093,14.8379],[74.649,14.908],[74.5822,15.0312],[74.5526,15.1482],[74.5796,15.2605],[74.7314,15.5302],[74.743,15.6101],[74.731,15.6989],[74.6476,15.8742],[74.3398,16.2672],[74.236,16.4519],[74.1564,16.6983],[74.1213,16.8631],[74.1153,16.995],[74.1484,17.1795],[74.1266,17.2688],[74.0553,17.373],[73.8628,17.5844],[73.1456,18.1545],[73.0584,18.2897],[73.0063,18.4681],[73.0047,18.598],[73.0364,18.8459],[73.2199,19.5138],[73.2706,20.1505],[73.3282,20.4052],[73.4142,20.5628],[73.5483,20.6909],[73.7206,20.7933],[73.8996,20.8511],[74.0113,20.8463],[74.1225,20.7883],[74.1841,20.7243],[74.2108,20.6388],[74.1832,20.4566],[74.0129,20.0359],[73.9633,19.8562],[73.9621,19.7163],[74.0292,19.4787],[74.078,19.412],[74.1547,19.3564],[74.563,19.1789],[74.8502,18.9317],[74.9792,18.7832],[75.0755,18.6338],[75.1415,18.4778],[75.1875,18.2974],[75.1932,18.1681],[75.1628,17.8475],[75.1657,17.7047],[75.1976,17.5763],[75.3299,17.2506],[75.3414,17.037],[75.3256,16.9754],[75.2884,16.9323],[75.0104,16.8103],[74.9643,16.7726],[74.9424,16.7271],[74.9359,16.6321],[74.9606,16.3603],[75.107,15.75],[75.1079,15.4873],[75.0439,15.1322],[74.9855,14.9567],[74.8987,14.852],[74.7693,14.8158]]],[[[79.2579,20.6156],[79.8344,20.636],[80.0009,20.6098],[80.1095,20.5754],[80.1735,20.5222],[80.2088,20.4256],[80.2117,20.2901],[80.18,20.1701],[80.1145,20.0833],[80.0095,20.0031],[79.8823,19.9434],[79.7728,19.9235],[79.048,19.8911],[78.8095,19.8974],[78.5172,19.9548],[78.1934,20.0703],[77.9624,20.1904],[77.7202,20.3525],[77.2587,20.7265],[77.1271,20.8587],[77.0571,20.9811],[77.0155,21.1508],[76.9888,21.4181],[77.0195,21.5655],[77.0839,21.6746],[77.1641,21.7312],[77.2977,21.7604],[77.4156,21.7368],[77.4616,21.6915],[77.4293,21.5639],[77.4382,21.4977],[77.5399,21.2891],[77.7211,21.1015],[78.04,20.8669],[78.259,20.7568],[78.5087,20.6854],[78.8606,20.6364],[79.2579,20.6156]]],[[[70.5462,21.4279],[70.4763,21.4612],[70.4588,21.5282],[70.4928,21.5957],[70.5607,21.6164],[70.6183,21.5865],[70.6369,21.5225],[70.6119,21.4544],[70.5462,21.4279]]],[[[80.0377,24.5149],[79.924,24.5392],[79.8283,24.6052],[79.7651,24.7029],[79.7441,24.8172],[79.7685,24.9309],[79.8345,25.0266],[79.9321,25.0898],[80.0465,25.1108],[80.1601,25.0864],[80.2559,25.0204],[80.319,24.9228],[80.34,24.8084],[80.3157,24.6947],[80.2497,24.599],[80.152,24.5359],[80.0377,24.5149]]],[[[84.2901,27.5259],[84.0855,27.5507],[83.7631,27.5507],[83.6825,27.6065],[83.6639,27.7181],[83.7073,27.8049],[83.8375,27.8359],[84.0979,27.8421],[84.5257,27.7243],[85.0776,27.5035],[85.2742,27.4768],[85.4196,27.3937],[85.7521,27.2968],[86.2023,27.2414],[87.0472,27.179],[87.4697,27.2206],[87.7883,27.2067],[87.9683,27.1444],[88.003,27.089],[87.9891,26.9713],[87.9475,26.902],[87.8783,26.8327],[87.7883,26.7912],[87.6567,26.7843],[87.0126,26.8397],[86.784,26.8743],[85.7036,26.9574],[85.1288,27.0751],[84.8481,27.1539],[84.6373,27.3771],[84.2901,27.5259]]],[[[78.9031,30.8049],[79.3842,30.8434],[79.5331,30.8346],[79.6868,30.8047],[79.788,30.774],[79.8491,30.7336],[79.8953,30.6528],[79.8997,30.5797],[79.8394,30.4677],[79.7243,30.3596],[78.9153,29.9681],[78.2215,29.7794],[78.005,29.7669],[77.8786,29.788],[77.7862,29.83],[77.7637,29.8772],[77.7848,29.9434],[77.9212,30.1839],[77.9252,30.2491],[77.8937,30.3257],[77.8198,30.3677],[77.5945,30.4052],[77.401,30.4892],[77.1491,30.6323],[76.9204,30.8032],[76.702,31.0128],[76.5908,31.1566],[76.5088,31.3634],[76.5032,31.5165],[76.5398,31.5847],[76.6072,31.6522],[76.8119,31.7658],[77.0145,31.8091],[77.2141,31.7808],[77.331,31.7307],[77.446,31.6498],[77.8778,31.2231],[78.2563,30.9829],[78.419,30.8989],[78.5663,30.8456],[78.7291,30.8155],[78.9031,30.8049]]],[[[72.3271,35.1284],[72.3937,35.1135],[72.4504,35.0737],[72.4874,35.0151],[72.499,34.9479],[72.4838,34.8803],[72.4445,34.8245],[72.3859,34.7874],[72.3176,34.7758],[72.2511,34.7909],[72.1945,34.8309],[72.1577,34.8896],[72.1463,34.9569],[72.1618,35.0244],[72.2012,35.0801],[72.2589,35.1166],[72.3271,35.1284]]]]}}