{"type":"Feature","properties":{"speciesId":1064,"category":"LC","source":"IUCN Red List","simplifyTol":0.01,"clippedToSubcontinent":true},"geometry":{"type":"Polygon","coordinates":[[[80.2121,9.8351],[80.2512,9.8256],[80.3552,9.672],[80.5728,9.485],[80.4345,9.2295],[80.3366,8.9648],[80.2535,8.7961],[80.2193,8.669],[80.2259,8.6033],[80.2739,8.5571],[80.4365,8.4813],[80.6861,8.3243],[81.1621,7.9474],[81.3327,7.7261],[81.4766,7.4962],[81.599,7.2318],[81.6325,7.1097],[81.575,6.8223],[81.4748,6.5819],[81.2286,6.2629],[81.0832,6.1114],[81.0167,6.1071],[80.8744,6.0558],[80.8654,6.0406],[80.8216,6.0401],[80.7199,5.9606],[80.6631,5.9571],[80.5884,5.9165],[80.5462,5.9428],[80.449,5.9431],[80.4516,5.9606],[80.432,5.97],[80.4161,5.9543],[80.382,5.9597],[80.2439,6.0071],[80.2298,6.0349],[80.2183,6.0221],[80.0987,6.1287],[80.0312,6.2661],[80.0251,6.3369],[79.9748,6.4621],[79.9867,6.4775],[79.9794,6.5155],[79.8677,6.8085],[79.8434,6.9264],[79.8697,6.9965],[79.8188,7.1918],[79.8397,7.223],[79.844,7.2687],[79.8592,7.2755],[79.8422,7.2788],[79.803,7.4804],[79.7912,7.5891],[79.8062,7.6519],[79.7823,7.8094],[79.7065,8.0443],[79.6981,8.1222],[79.7039,8.1385],[79.7087,8.1141],[79.6989,8.2159],[79.7227,8.2228],[79.7376,8.2792],[79.7574,8.3166],[79.781,8.3498],[79.7565,8.3096],[79.7507,8.2625],[79.7651,8.2743],[79.7574,8.2569],[79.7768,8.2515],[79.7684,8.215],[79.7558,8.22],[79.7405,8.2014],[79.7492,8.1832],[79.7299,8.1345],[79.7316,8.0834],[79.7541,8.0588],[79.7441,7.9979],[79.8182,7.9731],[79.8104,7.8837],[79.8339,8.0085],[79.7887,8.0672],[79.8086,8.061],[79.7944,8.0785],[79.8339,8.1386],[79.8133,8.1777],[79.8198,8.1965],[79.7945,8.2192],[79.8097,8.2203],[79.7897,8.23],[79.811,8.2386],[79.8342,8.2919],[79.8472,8.2743],[79.8584,8.2846],[79.8347,8.3079],[79.8487,8.3572],[79.8442,8.4279],[79.8647,8.4533],[79.8697,8.5341],[79.9263,8.5587],[79.9187,8.5891],[79.9438,8.62],[79.96,8.7239],[79.9192,8.8159],[79.9327,8.8912],[79.8925,8.9504],[79.9079,8.9345],[79.909,8.9297],[79.921,8.9119],[79.9265,8.9066],[79.9134,8.9407],[79.9034,8.9409],[79.9104,8.9556],[79.9141,8.9411],[79.9444,8.9464],[79.9845,8.97],[79.9912,8.9945],[80.0377,9.0152],[80.0672,9.0618],[80.076,9.1263],[80.1183,9.2122],[80.1094,9.2748],[80.1225,9.2965],[80.0634,9.3315],[80.0552,9.3917],[80.1425,9.4352],[80.1859,9.487],[80.1413,9.5415],[80.0518,9.599],[80.0625,9.6108],[80.1731,9.5431],[80.2309,9.5307],[80.2804,9.495],[80.2599,9.4953],[80.2541,9.5014],[80.2493,9.5002],[80.2777,9.4757],[80.2489,9.4703],[80.284,9.4513],[80.3904,9.4824],[80.3904,9.4768],[80.3955,9.4717],[80.3931,9.5142],[80.2935,9.5939],[80.17,9.6559],[80.1559,9.6465],[80.1586,9.6317],[80.1732,9.6368],[80.1613,9.6243],[80.1832,9.6232],[80.1751,9.6073],[80.124,9.6082],[80.0519,9.6475],[80.0198,9.6492],[79.9982,9.6871],[79.9798,9.6856],[79.9662,9.7062],[79.944,9.6907],[79.906,9.7605],[79.9852,9.8112],[80.1025,9.8096],[80.2121,9.8351]],[[80.6719,7.6123],[80.6195,7.5134],[80.5481,7.158],[80.4142,6.9469],[80.4046,6.8873],[80.4157,6.8253],[80.4429,6.7793],[80.5023,6.7353],[80.6646,6.6788],[80.8274,6.6687],[81.0011,6.7039],[81.1289,6.7705],[81.1946,6.8703],[81.23,7.0197],[81.2066,7.1726],[81.1416,7.2906],[80.9896,7.4682],[80.8989,7.6092],[80.834,7.6447],[80.7664,7.6595],[80.7206,7.6488],[80.6719,7.6123]],[[80.4295,6.5293],[80.4147,6.4647],[80.3812,6.4801],[80.3595,6.4731],[80.3798,6.4185],[80.4554,6.3726],[80.4503,6.3281],[80.4984,6.2806],[80.5278,6.2786],[80.5638,6.3067],[80.62,6.3032],[80.6286,6.2562],[80.6054,6.1984],[80.6184,6.1998],[80.666,6.2873],[80.6996,6.3028],[80.6957,6.4056],[80.7173,6.4209],[80.7153,6.4373],[80.6636,6.4673],[80.5467,6.4945],[80.4924,6.5362],[80.4807,6.5295],[80.4949,6.5028],[80.471,6.5066],[80.3311,6.6444],[80.3563,6.59],[80.4295,6.5293]]]}}