{"type":"Feature","properties":{"speciesId":1066,"category":"LC","source":"IUCN Red List","simplifyTol":0.01,"clippedToSubcontinent":true},"geometry":{"type":"MultiPolygon","coordinates":[[[[96.3326,28.1191],[96.4281,28.0517],[96.5036,28.0328],[96.5428,27.9615],[96.5447,27.7372],[96.5121,27.6377],[96.4619,27.5587],[96.364,27.4925],[96.0963,27.3963],[95.5998,27.1628],[94.8702,26.917],[94.7021,26.8213],[94.5285,26.6876],[94.3549,26.5258],[94.2828,26.4002],[94.2494,26.2174],[94.2815,25.869],[94.275,25.7761],[94.2218,25.6242],[94.0737,25.3904],[93.7706,24.9853],[93.6592,24.8724],[93.4698,24.7855],[93.2203,24.7456],[92.9988,24.7568],[92.8313,24.7894],[92.2801,25.0469],[91.9694,25.1323],[91.4801,25.2039],[91.1174,25.2366],[90.8392,25.2359],[90.7213,25.2613],[90.6207,25.3238],[90.2963,25.6058],[90.048,25.9493],[89.8994,26.0901],[89.7492,26.1589],[89.2474,26.307],[88.833,26.5529],[88.6691,26.6213],[88.4399,26.6538],[88.0636,26.6527],[87.0642,26.5706],[86.7204,26.5644],[86.36,26.6162],[85.8582,26.7584],[85.0449,27.0634],[84.3594,27.4443],[84.152,27.5351],[84.0961,27.5753],[84.0595,27.6255],[84.0183,27.7772],[84.0251,27.8116],[84.0528,27.8239],[84.1998,27.8088],[84.4198,27.8371],[84.5806,27.8299],[85.3086,27.5814],[85.9934,27.3999],[86.6536,27.1778],[86.8716,27.1285],[87.2288,27.0845],[87.4804,27.0766],[87.701,27.0955],[87.8552,27.132],[88.1858,27.2467],[88.3925,27.2947],[88.8246,27.3619],[89.1209,27.3811],[89.646,27.353],[90.8999,27.1888],[91.6009,27.1541],[92.0029,27.1514],[92.4377,27.1743],[92.8203,27.2142],[93.1614,27.272],[93.4954,27.3536],[94.272,27.6173],[94.7132,27.8409],[95.0312,27.9789],[95.4426,28.1119],[96.0325,28.186],[96.219,28.1719],[96.3326,28.1191]]],[[[95.27,29.0378],[95.1127,29.0612],[94.9518,29.1214],[94.8693,29.1829],[94.8715,29.2437],[94.9376,29.3216],[95.062,29.4159],[95.4433,29.6247],[95.5384,29.6335],[95.6621,29.5712],[95.7297,29.5075],[95.7694,29.4416],[95.7719,29.3925],[95.7427,29.3355],[95.477,29.0833],[95.3936,29.0504],[95.27,29.0378]]]]}}