{"type":"Feature","properties":{"speciesId":1069,"category":"LC","source":"IUCN Red List","simplifyTol":0.01,"clippedToSubcontinent":true},"geometry":{"type":"MultiPolygon","coordinates":[[[[93.5773,21.192],[93.4942,21.2281],[93.4611,21.3124],[93.4975,21.3953],[93.581,21.4281],[93.6641,21.3921],[93.6972,21.3078],[93.6608,21.2248],[93.5773,21.192]]],[[[97.5745,24.8116],[97.6407,24.7822],[97.667,24.7139],[97.6375,24.6478],[97.5699,24.6216],[97.503,24.6513],[97.477,24.7189],[97.5062,24.7852],[97.5745,24.8116]]],[[[96.2435,24.965],[96.1771,24.994],[96.1506,25.0622],[96.1798,25.1285],[96.248,25.1549],[96.3142,25.1256],[96.3405,25.0573],[96.311,24.9911],[96.2435,24.965]]],[[[97.4308,27.0517],[97.3407,27.0906],[97.3046,27.1818],[97.3434,27.2718],[97.4346,27.308],[97.5246,27.2691],[97.5608,27.1779],[97.5219,27.0879],[97.4308,27.0517]]]]}}