{"type":"Feature","properties":{"speciesId":1071,"category":"DD","source":"IUCN Red List","simplifyTol":0.01,"clippedToSubcontinent":true},"geometry":{"type":"MultiPolygon","coordinates":[[[[97.5246,24.5079],[97.5167,24.52],[97.525,24.525],[97.5246,24.5079]]],[[[97.5399,24.5179],[97.5192,24.5457],[97.5459,24.6304],[97.5624,24.5606],[97.5399,24.5179]]],[[[97.7114,24.9721],[97.7299,24.9591],[97.7302,24.9119],[97.7838,24.8814],[97.7979,24.8554],[97.7661,24.8285],[97.7051,24.8493],[97.6518,24.7955],[97.6128,24.7944],[97.6317,24.8055],[97.6359,24.8478],[97.6636,24.86],[97.6618,24.8964],[97.7076,24.8972],[97.7114,24.9721]],[[97.7588,24.8426],[97.7664,24.8489],[97.7583,24.85],[97.7588,24.8426]]],[[[97.7083,24.975],[97.7065,24.9749],[97.7084,24.9762],[97.7083,24.975]]],[[[95.1224,26.1292],[95.1147,26.1209],[95.1174,26.1399],[95.1224,26.1292]]],[[[95.4912,26.1664],[95.4329,26.1255],[95.35,26.1422],[95.3617,26.1651],[95.4347,26.1674],[95.4588,26.183],[95.4833,26.1833],[95.4912,26.1664]]],[[[98.0,26.2524],[97.9992,26.2534],[98.0,26.2547],[98.0,26.2524]]],[[[97.997,26.3136],[97.9903,26.2135],[97.9789,26.2096],[97.9433,26.2798],[97.997,26.3136]]],[[[95.3084,26.5751],[95.3378,26.573],[95.3491,26.5517],[95.331,26.5107],[95.2924,26.4779],[95.315,26.4376],[95.2476,26.4085],[95.2127,26.4319],[95.1861,26.4307],[95.1902,26.3705],[95.119,26.3227],[95.1166,26.254],[95.156,26.2522],[95.2873,26.3648],[95.3875,26.3974],[95.4447,26.3843],[95.474,26.4163],[95.4911,26.3993],[95.4478,26.3356],[95.3886,26.3322],[95.3609,26.3135],[95.3651,26.3009],[95.3978,26.306],[95.4145,26.2775],[95.3739,26.2116],[95.2777,26.1398],[95.3402,26.0712],[95.3311,26.019],[95.2766,25.9927],[95.2373,26.0066],[95.2389,25.953],[95.1809,25.9108],[95.159,25.913],[95.144,25.8875],[95.2211,25.9018],[95.2806,25.9486],[95.3852,25.9651],[95.3987,25.9373],[95.3585,25.8978],[95.3818,25.8454],[95.3397,25.7951],[95.3024,25.806],[95.2445,25.7638],[95.2227,25.7273],[95.1591,25.7049],[95.1532,25.6943],[95.1884,25.6688],[95.0879,25.5849],[95.0332,25.5875],[95.0254,25.6077],[95.0403,25.6363],[95.0115,25.6449],[94.9958,25.6732],[94.9975,25.6458],[94.978,25.6375],[94.9969,25.628],[94.9696,25.5966],[94.9802,25.5783],[94.9538,25.5263],[94.9363,25.5446],[94.9401,25.579],[94.9122,25.5688],[94.9029,25.5871],[94.9226,25.6041],[94.9048,25.6018],[94.9182,25.6327],[94.965,25.6127],[94.9421,25.6429],[94.9797,25.7073],[95.0822,25.6674],[95.1199,25.6764],[95.1214,25.6896],[95.078,25.712],[95.084,25.7214],[95.1485,25.7567],[95.1794,25.7519],[95.1677,25.785],[95.185,25.8068],[95.2291,25.8103],[95.3159,25.8722],[95.3149,25.8961],[95.2991,25.8995],[95.1627,25.835],[95.1351,25.8387],[95.0862,25.7842],[95.048,25.8141],[95.0363,25.8071],[95.0299,25.8501],[95.0602,25.9045],[95.1083,25.9125],[95.1268,25.9482],[95.1729,25.9792],[95.1934,26.04],[95.2314,26.0584],[95.2849,26.0422],[95.3,26.0605],[95.2738,26.0967],[95.206,26.1394],[95.1447,26.1368],[95.1896,26.1858],[95.1814,26.2061],[95.1543,26.2164],[95.1178,26.2052],[95.0953,26.2185],[95.0708,26.3079],[95.0983,26.4047],[95.0727,26.4716],[95.1087,26.5066],[95.1165,26.545],[95.1457,26.5646],[95.1409,26.6032],[95.1647,26.6266],[95.2027,26.6429],[95.3084,26.5751]],[[95.35,26.2583],[95.3342,26.2656],[95.3341,26.2595],[95.35,26.2583]]],[[[96.1081,26.9517],[96.0502,26.8743],[96.0967,26.8397],[96.0888,26.8178],[95.9508,26.7863],[95.9444,26.7686],[95.9836,26.7187],[95.9595,26.6697],[95.9571,26.6138],[95.9189,26.5894],[95.9072,26.5389],[95.885,26.5278],[95.8823,26.4638],[95.8533,26.4488],[95.8147,26.3704],[95.7947,26.3609],[95.7505,26.4261],[95.7736,26.4635],[95.7764,26.5298],[95.824,26.572],[95.7927,26.5931],[95.8269,26.6877],[95.8895,26.7111],[95.8664,26.7666],[95.8905,26.8054],[95.8937,26.8545],[95.9389,26.8528],[95.9346,26.8944],[95.9635,26.9031],[95.9787,26.9403],[96.0199,26.9347],[96.047,26.9572],[96.094,26.9586],[96.1081,26.9517]],[[95.8255,26.4866],[95.8495,26.4793],[95.8461,26.4994],[95.8255,26.4866]]],[[[96.0749,27.0163],[96.0746,27.0166],[96.075,27.0167],[96.0749,27.0163]]],[[[96.1089,27.0249],[96.1085,27.0246],[96.1083,27.025],[96.1089,27.0249]]],[[[95.9958,27.0427],[95.9937,27.049],[95.9952,27.0508],[95.9958,27.0427]]],[[[96.108,27.0251],[96.0785,27.018],[96.0611,27.0446],[96.0887,27.0603],[96.093,27.1054],[96.1136,27.1043],[96.1045,27.0689],[96.1615,27.1055],[96.1891,27.0969],[96.1881,27.0773],[96.1455,27.0733],[96.1101,27.0484],[96.108,27.0251]]],[[[96.0112,27.1146],[96.0835,27.1005],[95.9699,27.056],[96.0139,27.0045],[95.9808,26.9776],[95.9608,26.9797],[95.9477,26.9523],[95.902,26.9371],[95.9203,27.0139],[95.8321,26.9283],[95.7933,26.915],[95.7291,26.8184],[95.675,26.8462],[95.6737,26.7973],[95.6428,26.7783],[95.6566,26.7371],[95.5971,26.6694],[95.5622,26.6682],[95.5279,26.6989],[95.5127,26.6922],[95.5402,26.6122],[95.5115,26.5676],[95.4875,26.6065],[95.47,26.5992],[95.4514,26.5699],[95.4568,26.5204],[95.4308,26.4937],[95.4021,26.5021],[95.4077,26.5512],[95.3836,26.584],[95.4058,26.6555],[95.3446,26.6262],[95.285,26.6205],[95.2759,26.6435],[95.3018,26.659],[95.4344,26.698],[95.512,26.8119],[95.5487,26.8216],[95.5985,26.8092],[95.6518,26.889],[95.731,26.8924],[95.8019,27.0079],[95.9234,27.0324],[96.0247,27.1767],[96.0793,27.2065],[96.0112,27.1146]],[[95.5967,26.776],[95.6074,26.7861],[95.6061,26.7989],[95.5923,26.7874],[95.5967,26.776]],[[95.409,26.5969],[95.4247,26.5863],[95.4223,26.5996],[95.409,26.5969]]],[[[96.375,27.2833],[96.3506,27.2755],[96.3359,27.2789],[96.3511,27.2917],[96.375,27.2833]]],[[[97.6327,27.3856],[97.6242,27.3864],[97.6305,27.3935],[97.6327,27.3856]]],[[[96.9478,27.4748],[96.9396,27.4675],[96.9327,27.4709],[96.9478,27.4748]]],[[[97.7001,28.1677],[97.7404,28.1782],[97.7098,28.1462],[97.7123,28.11],[97.7541,28.1307],[97.7968,28.1203],[97.67,28.0491],[97.6954,28.0269],[97.7225,28.0302],[97.7118,28.0105],[97.644,28.0408],[97.6091,28.032],[97.6884,27.9655],[97.7112,27.9277],[97.7807,27.9218],[97.7888,27.9116],[97.7692,27.8944],[97.7862,27.8773],[97.825,27.9073],[97.8513,27.9064],[97.8851,27.876],[97.8765,27.9196],[97.9032,27.9474],[97.9284,27.9007],[97.9471,27.8942],[97.9682,27.9743],[97.9893,27.9562],[98.0,27.9079],[98.0,27.7181],[97.827,27.7456],[97.8468,27.7262],[97.9346,27.7242],[98.0,27.7007],[98.0,27.5501],[97.9611,27.536],[97.957,27.628],[97.9202,27.6283],[97.9238,27.6612],[97.9048,27.6735],[97.8341,27.6586],[97.9234,27.538],[97.8959,27.4941],[97.8106,27.5774],[97.8158,27.6219],[97.7708,27.6185],[97.7554,27.6646],[97.7373,27.6352],[97.7111,27.6359],[97.7241,27.703],[97.6807,27.7397],[97.6604,27.7379],[97.6554,27.6946],[97.6175,27.6781],[97.6182,27.6455],[97.6408,27.6166],[97.6111,27.593],[97.6338,27.5753],[97.688,27.5819],[97.7075,27.5614],[97.6692,27.4946],[97.8291,27.4145],[97.8561,27.3726],[97.8573,27.3388],[97.8367,27.3011],[97.7958,27.3142],[97.7594,27.3029],[97.6983,27.4233],[97.5928,27.4616],[97.5683,27.4956],[97.5645,27.5395],[97.511,27.5361],[97.517,27.6125],[97.4712,27.5946],[97.4337,27.6255],[97.449,27.6583],[97.4351,27.6958],[97.472,27.7114],[97.5075,27.7738],[97.4973,27.7822],[97.4736,27.7663],[97.4696,27.9058],[97.5509,27.8287],[97.5791,27.8251],[97.6005,27.775],[97.6312,27.7854],[97.644,27.8393],[97.6811,27.8781],[97.6278,27.8777],[97.626,27.9113],[97.6466,27.9325],[97.605,27.9805],[97.5694,27.9694],[97.5807,28.0138],[97.519,28.0274],[97.4861,28.0709],[97.5459,28.0586],[97.5733,28.0738],[97.6549,28.0683],[97.6644,28.0801],[97.6432,28.1105],[97.6654,28.1116],[97.6822,28.1449],[97.635,28.1876],[97.7001,28.1677]],[[97.9628,27.7749],[97.9742,27.783],[97.9646,27.806],[97.9273,27.8212],[97.9628,27.7749]],[[97.5517,27.7335],[97.5658,27.7449],[97.5639,27.7571],[97.5428,27.7462],[97.5517,27.7335]],[[97.5504,27.6831],[97.5585,27.7014],[97.5478,27.7085],[97.5416,27.6908],[97.5504,27.6831]],[[97.9807,27.6748],[97.969,27.6669],[97.9832,27.6689],[97.9807,27.6748]]],[[[97.9995,25.3556],[97.9606,25.3395],[97.9483,25.2705],[97.9168,25.2142],[97.8756,25.2617],[97.8397,25.2727],[97.808,25.1949],[97.7559,25.1438],[97.6934,25.1875],[97.6931,25.2128],[97.7309,25.2524],[97.7444,25.2994],[97.8887,25.3594],[97.8951,25.4236],[97.9642,25.4479],[98.0,25.4163],[97.9995,25.3556]]],[[[98.0,25.4834],[97.9927,25.4935],[98.0,25.4995],[98.0,25.4834]]],[[[97.9989,25.5257],[97.9443,25.5614],[97.9704,25.5985],[98.0,25.5959],[97.9989,25.5257]]],[[[97.9986,25.6509],[97.9777,25.6627],[97.9958,25.6881],[98.0,25.6822],[97.9986,25.6509]]],[[[97.999,25.8385],[97.9553,25.8343],[97.9259,25.8566],[97.9415,25.8857],[97.9355,25.9479],[97.9918,25.9606],[97.9898,25.9874],[97.9423,26.0487],[97.9432,26.0881],[97.9624,26.1059],[98.0,26.0878],[97.999,25.8385]],[[97.9671,25.8592],[97.9747,25.8656],[97.9667,25.8667],[97.9671,25.8592]]],[[[97.9997,26.8071],[97.9863,26.8224],[97.9629,26.7931],[97.9302,26.801],[97.9169,26.8626],[97.8536,26.8682],[97.8332,26.8979],[97.8346,26.97],[97.8602,26.9965],[97.9335,26.9759],[97.9641,26.9935],[97.9104,27.0357],[97.9087,27.0637],[97.9713,27.0767],[97.996,27.0974],[97.9997,26.8071]]],[[[98.0,27.1129],[97.9941,27.1208],[98.0,27.1285],[98.0,27.1129]]],[[[97.9999,27.1508],[97.9303,27.1427],[97.8932,27.1787],[97.9016,27.2546],[97.9328,27.2904],[97.9176,27.3404],[97.9277,27.3556],[97.9739,27.3385],[98.0,27.2918],[97.9999,27.1508]],[[97.9891,27.225],[97.9992,27.2602],[97.9818,27.2825],[97.9439,27.2446],[97.9553,27.2177],[97.9891,27.225]]],[[[97.998,27.4229],[97.9832,27.448],[97.9962,27.489],[98.0,27.4873],[97.998,27.4229]]],[[[98.0,27.5294],[97.9947,27.537],[98.0,27.5404],[98.0,27.5294]]],[[[97.6331,28.2076],[97.625,28.1967],[97.6292,28.2167],[97.6331,28.2076]]]]}}