{"type":"Feature","properties":{"speciesId":1072,"category":"LC","source":"IUCN Red List","simplifyTol":0.01,"clippedToSubcontinent":true},"geometry":{"type":"MultiPolygon","coordinates":[[[[77.1097,8.5574],[77.0316,8.5917],[77.0023,8.669],[77.0068,8.7974],[77.0617,9.0546],[77.0757,9.1993],[77.0588,9.2337],[76.9823,9.2776],[76.9716,9.4536],[76.85,10.1058],[76.7802,10.2394],[76.6672,10.3111],[76.6395,10.3954],[76.6345,10.495],[76.6508,10.5986],[76.7569,10.9799],[76.7753,11.0095],[76.8181,11.0224],[76.8809,11.0067],[76.9366,10.9379],[76.9992,10.8039],[77.113,10.4501],[77.2001,10.3081],[77.2265,10.1374],[77.2337,9.8766],[77.3155,9.5524],[77.3185,9.1819],[77.2802,8.8822],[77.2014,8.6449],[77.1517,8.5704],[77.1097,8.5574]]],[[[75.6985,13.0014],[75.7521,12.9899],[75.7964,12.9594],[75.8262,12.9135],[75.8362,12.8597],[75.8247,12.8062],[75.7942,12.7619],[75.7484,12.732],[75.6945,12.7221],[75.641,12.7336],[75.5967,12.764],[75.5668,12.8099],[75.5569,12.8637],[75.5684,12.9172],[75.5988,12.9615],[75.6447,12.9914],[75.6985,13.0014]]]]}}