{"type":"Feature","properties":{"speciesId":1075,"category":"NT","source":"IUCN Red List","simplifyTol":0.01,"clippedToSubcontinent":true},"geometry":{"type":"Polygon","coordinates":[[[76.0914,11.9598],[76.1085,11.9371],[76.1165,11.843],[76.184,11.8638],[76.2029,11.8501],[76.2143,11.8042],[76.258,11.8],[76.3423,11.6804],[76.5302,11.6177],[76.618,11.5515],[76.6858,11.475],[76.719,11.477],[76.822,11.5417],[76.8581,11.4797],[76.9354,11.4582],[76.92,11.3989],[76.7363,11.1432],[76.7206,11.0717],[76.746,11.0017],[76.8511,10.9634],[76.8788,10.938],[76.9196,10.7323],[76.9755,10.5917],[77.022,10.5322],[77.0972,10.481],[77.1716,10.462],[77.4116,10.5243],[77.5632,10.53],[77.6711,10.4911],[77.7296,10.4355],[77.7333,10.3656],[77.6985,10.242],[77.6046,10.0762],[77.553,9.9183],[77.5655,9.8966],[77.6357,9.8972],[77.6918,9.8493],[77.7685,9.8294],[77.7818,9.7852],[77.7673,9.7096],[77.7199,9.6178],[77.5645,9.5059],[77.4235,9.3582],[77.3379,9.2129],[77.3048,9.0939],[77.3182,9.0095],[77.4136,8.8125],[77.5065,8.5229],[77.5995,8.3475],[77.6043,8.3169],[77.5908,8.3015],[77.5231,8.2969],[77.4393,8.3149],[77.3131,8.4133],[76.9895,8.9467],[76.9452,9.064],[76.9143,9.3754],[76.868,9.5614],[76.7243,9.8034],[76.527,10.3092],[76.3722,10.5712],[76.2461,10.9281],[76.1586,11.0445],[76.1099,11.1993],[76.0144,11.317],[75.9731,11.5074],[75.8888,11.6686],[75.8847,11.7621],[75.9075,11.8506],[75.9557,11.9309],[75.9982,11.9236],[76.0914,11.9598]]]}}