{"type":"Feature","properties":{"speciesId":1076,"category":"LC","source":"IUCN Red List","simplifyTol":0.01,"clippedToSubcontinent":true},"geometry":{"type":"MultiPolygon","coordinates":[[[[74.7205,13.2233],[74.7189,13.2204],[74.7186,13.223],[74.7205,13.2233]]],[[[74.7259,13.2249],[74.7246,13.2233],[74.725,13.2255],[74.7259,13.2249]]],[[[74.7113,13.2373],[74.7128,13.2349],[74.7114,13.2353],[74.7113,13.2373]]],[[[74.6867,13.2607],[74.6851,13.2612],[74.6862,13.2627],[74.6867,13.2607]]],[[[74.6834,13.2649],[74.681,13.2648],[74.6825,13.2664],[74.6834,13.2649]]],[[[74.6959,13.2784],[74.6925,13.2756],[74.6928,13.2788],[74.6959,13.2784]]],[[[74.6917,13.2829],[74.6931,13.2806],[74.6918,13.2808],[74.6917,13.2829]]],[[[74.6858,13.3272],[74.6866,13.3247],[74.6849,13.3265],[74.6858,13.3272]]],[[[74.6786,13.3401],[74.6783,13.3377],[74.6772,13.3399],[74.6786,13.3401]]],[[[74.6735,13.361],[74.6722,13.3594],[74.6722,13.3616],[74.6735,13.361]]],[[[74.667,13.3762],[74.6677,13.3725],[74.6647,13.3749],[74.667,13.3762]]],[[[74.4768,14.0108],[74.4728,14.0107],[74.4763,14.0124],[74.4768,14.0108]]],[[[74.3304,14.0195],[74.3231,14.0163],[74.3238,14.0211],[74.3304,14.0195]]],[[[74.4836,14.0249],[74.4799,14.0239],[74.4815,14.0259],[74.4836,14.0249]]],[[[74.4662,14.0864],[74.4645,14.0834],[74.4634,14.086],[74.4662,14.0864]]],[[[74.4779,14.096],[74.475,14.0929],[74.4746,14.0957],[74.4779,14.096]]],[[[74.4708,14.1059],[74.4667,14.1078],[74.4689,14.1095],[74.4708,14.1059]]],[[[74.3972,14.3137],[74.3964,14.3082],[74.3919,14.3111],[74.3972,14.3137]]],[[[74.2485,14.7015],[74.2461,14.6997],[74.246,14.702],[74.2485,14.7015]]],[[[74.235,14.7102],[74.232,14.7076],[74.2317,14.7098],[74.235,14.7102]]],[[[74.1433,14.7234],[74.1435,14.7199],[74.142,14.7207],[74.1433,14.7234]]],[[[74.1517,14.7394],[74.1494,14.7347],[74.1487,14.7388],[74.1517,14.7394]]],[[[74.1149,14.7549],[74.1045,14.7528],[74.1049,14.7619],[74.1149,14.7549]]],[[[74.0833,14.7936],[74.082,14.7907],[74.0815,14.7938],[74.0833,14.7936]]],[[[74.0567,14.8189],[74.0495,14.8143],[74.0506,14.8179],[74.0567,14.8189]]],[[[74.0975,14.8414],[74.0919,14.8413],[74.0917,14.8454],[74.0975,14.8414]]],[[[74.1004,14.8639],[74.0988,14.8624],[74.0992,14.8645],[74.1004,14.8639]]],[[[74.0912,14.8776],[74.0892,14.8747],[74.0887,14.8772],[74.0912,14.8776]]],[[[73.7605,15.3574],[73.7575,15.3543],[73.7568,15.3572],[73.7605,15.3574]]],[[[73.7748,15.3585],[73.7687,15.3526],[73.7667,15.3558],[73.7748,15.3585]]],[[[73.791,15.3735],[73.7859,15.3764],[73.7904,15.3776],[73.791,15.3735]]],[[[73.4448,15.8907],[73.4442,15.889],[73.4433,15.8897],[73.4448,15.8907]]],[[[73.4541,15.8933],[73.4558,15.8923],[73.4551,15.8914],[73.4541,15.8933]]],[[[73.5395,15.9267],[73.5394,15.9241],[73.5379,15.9248],[73.5395,15.9267]]],[[[73.4573,15.9328],[73.4558,15.9312],[73.4559,15.9337],[73.4573,15.9328]]],[[[73.471,15.9736],[73.4688,15.9731],[73.4701,15.9747],[73.471,15.9736]]],[[[73.4517,15.9897],[73.4501,15.9899],[73.4512,15.9917],[73.4517,15.9897]]],[[[73.4979,15.973],[73.4864,15.981],[73.4829,15.9997],[73.4876,16.0001],[73.4979,15.973]]],[[[72.8053,18.702],[72.8143,18.6943],[72.8108,18.6915],[72.8053,18.702]]],[[[72.8355,18.7102],[72.8396,18.7009],[72.8344,18.7011],[72.8355,18.7102]]],[[[72.8407,18.773],[72.8408,18.764],[72.8349,18.7678],[72.8407,18.773]]],[[[72.8517,18.7944],[72.8435,18.7876],[72.8476,18.7971],[72.8517,18.7944]]],[[[72.9388,18.9652],[72.9334,18.9534],[72.925,18.9541],[72.9237,18.9647],[72.9388,18.9652]]],[[[73.0603,19.0146],[73.0492,19.007],[73.0562,19.0171],[73.0603,19.0146]]],[[[72.8562,19.3369],[72.8619,19.3262],[72.838,19.3358],[72.8562,19.3369]]],[[[72.7285,19.4694],[72.7378,19.4659],[72.7319,19.461],[72.7285,19.4694]]],[[[72.8815,20.6466],[72.8702,20.6533],[72.8778,20.6648],[72.8745,20.6578],[72.8815,20.6466]]],[[[73.9942,21.3494],[74.0496,20.5897],[74.0476,20.1582],[74.005,19.8632],[73.8193,19.0643],[73.8014,18.8668],[73.8014,18.4553],[73.8338,18.1784],[73.8973,17.9785],[74.003,17.8097],[74.3321,17.3951],[74.4017,17.2685],[74.4397,17.1483],[74.4569,16.9203],[74.4361,16.6757],[74.402,16.5517],[74.265,16.2401],[74.2507,16.1515],[74.2611,16.0573],[74.3517,15.8566],[74.6704,15.4081],[75.3806,14.0015],[75.6651,13.4883],[75.8841,13.1969],[75.9301,13.0731],[75.9255,12.9846],[75.8991,12.8894],[75.8658,12.836],[75.8121,12.795],[75.7155,12.7579],[75.4382,12.7036],[75.0673,12.593],[74.9853,12.5946],[74.9295,12.6231],[74.8256,12.8265],[74.7736,13.0537],[74.7774,13.0933],[74.7699,13.0782],[74.6895,13.3543],[74.6657,13.6379],[74.6425,13.6719],[74.6048,13.8409],[74.6171,13.8573],[74.5965,13.8728],[74.5675,13.9452],[74.5447,13.9485],[74.5078,13.9926],[74.4659,14.1823],[74.4407,14.2092],[74.4034,14.3294],[74.3952,14.419],[74.3762,14.417],[74.3515,14.5157],[74.3054,14.5193],[74.2912,14.5934],[74.2635,14.6241],[74.2946,14.64],[74.2743,14.6485],[74.2767,14.6754],[74.2537,14.7068],[74.2633,14.7093],[74.265,14.7197],[74.2217,14.7473],[74.1961,14.7185],[74.1708,14.7485],[74.1476,14.7464],[74.1385,14.7759],[74.1045,14.7835],[74.0914,14.8037],[74.118,14.8041],[74.1251,14.84],[74.1076,14.8454],[74.0928,14.8922],[74.0754,14.9084],[74.0377,14.9167],[74.0487,14.9568],[74.0297,14.9813],[74.0471,14.9859],[73.9852,15.023],[73.9808,15.0479],[73.9501,15.0728],[73.9052,15.0869],[73.946,15.1422],[73.8868,15.3344],[73.865,15.3686],[73.8344,15.3615],[73.7794,15.4082],[73.874,15.398],[73.8895,15.4205],[73.8746,15.4342],[73.8584,15.4258],[73.8456,15.4489],[73.7826,15.4562],[73.8199,15.5017],[73.7579,15.493],[73.731,15.618],[73.6866,15.7177],[73.6499,15.7398],[73.6549,15.7739],[73.6207,15.8501],[73.5844,15.9073],[73.5415,15.9326],[73.503,15.9413],[73.5095,15.9918],[73.4953,15.9853],[73.4818,16.0342],[73.4564,16.0574],[73.4839,16.0695],[73.4591,16.0769],[73.4724,16.1102],[73.4617,16.1155],[73.4576,16.0962],[73.4374,16.1916],[73.4523,16.225],[73.4277,16.2047],[73.4104,16.2654],[73.4396,16.289],[73.4057,16.2811],[73.3868,16.362],[73.37,16.363],[73.3708,16.3888],[73.3965,16.3907],[73.4085,16.4086],[73.3679,16.4008],[73.3578,16.4336],[73.3817,16.448],[73.3479,16.4526],[73.3116,16.5393],[73.3392,16.5597],[73.3591,16.5171],[73.349,16.5086],[73.3714,16.5137],[73.352,16.537],[73.3562,16.5663],[73.3168,16.5976],[73.3479,16.5967],[73.3593,16.6254],[73.3365,16.621],[73.3215,16.6383],[73.327,16.6786],[73.343,16.6907],[73.3167,16.6952],[73.3004,16.7516],[73.3179,16.8011],[73.2946,16.8134],[73.2847,16.8773],[73.3047,16.8852],[73.2761,16.8895],[73.2818,16.9474],[73.3058,16.973],[73.2682,16.9867],[73.2784,17.0048],[73.2531,17.0391],[73.2701,17.0396],[73.2896,17.0061],[73.2815,17.0367],[73.3264,17.0304],[73.2796,17.0447],[73.2914,17.0702],[73.2682,17.148],[73.2315,17.1953],[73.244,17.2156],[73.1893,17.3025],[73.2207,17.3081],[73.2573,17.2598],[73.2631,17.2879],[73.2972,17.2844],[73.2369,17.291],[73.2076,17.3815],[73.1714,17.4022],[73.1979,17.4384],[73.1903,17.4813],[73.1405,17.5551],[73.1716,17.5844],[73.135,17.6294],[73.1193,17.6889],[73.1355,17.7136],[73.1276,17.7483],[73.0559,17.925],[73.0342,17.9437],[73.0415,17.9769],[73.0062,18.0163],[73.0312,18.0228],[73.0447,18.0395],[73.025,18.0294],[73.0279,18.0458],[73.0162,18.0249],[72.9934,18.0556],[72.9978,18.0775],[72.9722,18.123],[72.9884,18.1524],[72.9805,18.1943],[72.9314,18.2183],[72.943,18.2318],[72.9378,18.2773],[72.9666,18.2716],[72.9803,18.2399],[73.0525,18.2258],[73.0698,18.1969],[73.0782,18.2298],[73.0525,18.2857],[73.0463,18.2676],[73.025,18.2652],[72.9103,18.3543],[72.9275,18.3803],[72.8896,18.4594],[72.9069,18.4942],[72.9046,18.5381],[72.9214,18.5286],[72.962,18.5413],[72.9164,18.552],[72.8839,18.6308],[72.8976,18.6325],[72.869,18.6403],[72.8573,18.671],[72.8686,18.8021],[72.9152,18.7926],[72.9364,18.8239],[72.9895,18.7753],[72.9863,18.8054],[73.0574,18.8017],[72.9878,18.8125],[72.983,18.8621],[72.9406,18.8459],[72.907,18.8927],[72.9249,18.9098],[72.9393,18.8912],[72.9543,18.9158],[72.9458,18.9422],[72.9776,18.9464],[72.9533,18.9698],[73.091,18.9989],[73.0667,19.0145],[73.0846,19.0316],[73.0644,19.0294],[73.0907,19.0446],[73.0055,19.0055],[72.9845,19.0706],[72.995,19.0879],[72.9753,19.1115],[72.9765,19.1707],[72.9666,19.1368],[72.9526,19.1392],[72.9572,19.1082],[72.9308,19.0909],[72.9483,19.0693],[72.9137,19.0746],[72.9518,19.0434],[72.9043,18.9941],[72.8785,19.0226],[72.8563,19.0086],[72.8298,18.9171],[72.8027,18.8985],[72.8211,18.9287],[72.8143,18.9502],[72.7919,18.9448],[72.8111,19.0178],[72.8597,19.06],[72.8162,19.0495],[72.8248,19.087],[72.8097,19.1416],[72.7856,19.1404],[72.7807,19.1655],[72.8011,19.1971],[72.778,19.1928],[72.786,19.3038],[72.85,19.3163],[72.9155,19.2925],[72.8533,19.3425],[72.8019,19.3316],[72.7584,19.3754],[72.7663,19.3959],[72.7441,19.4601],[72.7576,19.4797],[72.7167,19.5831],[72.745,19.6032],[72.7284,19.6105],[72.7085,19.6706],[72.7003,19.728],[72.715,19.7465],[72.6906,19.7529],[72.706,19.8088],[72.6858,19.8044],[72.6593,19.8395],[72.6859,19.8708],[72.6717,19.937],[72.6995,19.9622],[72.7257,19.9667],[72.7607,19.9241],[72.7449,19.9686],[72.7215,19.9804],[72.707,20.073],[72.7326,20.0994],[72.7443,20.1949],[72.7795,20.2077],[72.7393,20.2081],[72.7505,20.2863],[72.7823,20.3424],[72.815,20.3591],[72.8238,20.4383],[72.886,20.5027],[72.8785,20.5301],[72.8947,20.5298],[72.8732,20.6436],[72.9029,20.5965],[72.8863,20.6376],[72.9017,20.6435],[72.8993,20.7178],[72.9258,20.7498],[72.9521,20.7551],[73.018,20.8602],[73.2091,21.2819],[73.3982,21.5755],[73.4983,21.6598],[73.6249,21.7249],[73.764,21.754],[73.8591,21.7417],[73.9491,21.6871],[73.9959,21.6233],[74.0059,21.5495],[73.9942,21.3494]]]]}}