{"type":"Feature","properties":{"speciesId":1078,"category":"LC","source":"IUCN Red List","simplifyTol":0.01,"clippedToSubcontinent":true},"geometry":{"type":"MultiPolygon","coordinates":[[[[78.5892,9.0978],[78.5753,9.0966],[78.5884,9.1038],[78.5892,9.0978]]],[[[80.2393,9.8235],[80.3689,9.6573],[80.8117,9.2909],[80.8842,9.1211],[81.0005,8.9388],[80.9929,8.9181],[81.0102,8.929],[81.0132,8.8909],[81.021,8.9048],[81.0578,8.8602],[81.0875,8.8584],[81.1073,8.8033],[81.2267,8.6475],[81.2195,8.6107],[81.2314,8.5782],[81.2451,8.5793],[81.2471,8.5458],[81.2257,8.5323],[81.2282,8.568],[81.1931,8.5685],[81.2119,8.5077],[81.1895,8.5036],[81.1984,8.4603],[81.2624,8.4569],[81.3038,8.4325],[81.304,8.4583],[81.2958,8.4465],[81.2809,8.4568],[81.2831,8.5032],[81.3222,8.5224],[81.353,8.4909],[81.3937,8.3567],[81.4078,8.2417],[81.4731,8.0424],[81.556,7.9355],[81.5874,7.921],[81.5671,7.8957],[81.5928,7.8302],[81.6268,7.8247],[81.6544,7.7729],[81.6999,7.7536],[81.7713,7.6448],[81.8718,7.3159],[81.8586,7.0908],[81.8813,7.0267],[81.8704,6.9789],[81.8489,6.989],[81.8592,6.9657],[81.8729,6.9669],[81.8366,6.8873],[81.8518,6.8884],[81.8483,6.8675],[81.8397,6.8542],[81.8201,6.8601],[81.8444,6.8344],[81.8237,6.812],[81.8249,6.7653],[81.8084,6.7651],[81.8279,6.7586],[81.7761,6.6644],[81.7664,6.592],[81.7316,6.5661],[81.7003,6.482],[81.6518,6.4367],[81.5981,6.425],[81.6135,6.4056],[81.56,6.3612],[81.5105,6.3453],[81.4869,6.3055],[81.4386,6.2842],[81.4064,6.2438],[81.3479,6.2199],[81.3285,6.1945],[81.2222,6.1589],[81.1946,6.1576],[81.2043,6.1721],[81.194,6.177],[81.178,6.1441],[81.1336,6.1174],[81.0167,6.1071],[80.8744,6.0558],[80.8659,6.0408],[80.8227,6.0405],[80.7202,5.9607],[80.6631,5.9571],[80.5868,5.9168],[80.5462,5.9428],[80.4489,5.9431],[80.4516,5.9606],[80.432,5.97],[80.4179,5.955],[80.3828,5.9595],[80.2442,6.0069],[80.2298,6.0349],[80.2186,6.022],[80.0986,6.1289],[80.0314,6.2656],[80.0251,6.3369],[79.9746,6.464],[79.9867,6.4775],[79.9794,6.5155],[79.8687,6.8057],[79.8431,6.9333],[79.8706,6.9722],[79.8697,6.9965],[79.819,7.1934],[79.8456,7.2706],[79.8592,7.2755],[79.8445,7.2761],[79.8027,7.4826],[79.7916,7.5936],[79.8062,7.6519],[79.7823,7.8094],[79.7064,8.0445],[79.699,8.1154],[79.7095,8.135],[79.6984,8.2138],[79.7229,8.2231],[79.7381,8.28],[79.7664,8.3309],[79.7812,8.3497],[79.7565,8.3096],[79.7507,8.2624],[79.7655,8.2739],[79.7575,8.2566],[79.7766,8.2541],[79.7688,8.2156],[79.7405,8.2013],[79.7492,8.1829],[79.7299,8.1345],[79.7316,8.0834],[79.7541,8.0582],[79.7441,7.9979],[79.8186,7.9719],[79.8105,7.8837],[79.8339,8.0085],[79.7896,8.0682],[79.8086,8.061],[79.7948,8.0793],[79.8339,8.1386],[79.8132,8.1779],[79.82,8.1962],[79.7946,8.2203],[79.8097,8.2203],[79.7897,8.2301],[79.811,8.2386],[79.8342,8.2919],[79.8472,8.2743],[79.8584,8.2846],[79.8362,8.3011],[79.8445,8.4289],[79.8647,8.4533],[79.8709,8.5352],[79.9263,8.5587],[79.9193,8.5846],[79.943,8.6197],[79.956,8.7187],[79.9248,8.7907],[79.9398,8.808],[79.9184,8.8083],[79.9307,8.8147],[79.919,8.8188],[79.9358,8.8916],[79.9122,8.9299],[80.0403,9.0133],[80.0667,9.0573],[80.0859,9.0993],[80.0761,9.1203],[80.1178,9.2094],[80.1116,9.2768],[80.128,9.2917],[80.0676,9.3287],[80.0549,9.3914],[80.147,9.435],[80.1861,9.483],[80.1548,9.5291],[80.054,9.5979],[80.0862,9.6279],[80.0176,9.6509],[79.9709,9.7078],[79.948,9.6871],[79.9099,9.7587],[79.9528,9.7921],[80.0224,9.8126],[80.1053,9.8059],[80.2147,9.8314],[80.2393,9.8235]],[[80.5625,8.181],[80.4656,8.0471],[80.3613,7.9913],[80.2885,7.8592],[80.2738,7.6363],[80.2819,7.385],[80.2556,7.2751],[80.1914,7.2025],[80.1593,7.1332],[80.1383,6.7932],[80.1603,6.6689],[80.2275,6.5048],[80.2581,6.3554],[80.3039,6.2582],[80.4193,6.164],[80.5829,6.117],[80.6538,6.135],[80.8085,6.2239],[80.9571,6.4181],[81.0413,6.4973],[81.2792,6.5821],[81.5032,6.706],[81.5637,6.7747],[81.6585,6.9302],[81.6893,7.0548],[81.6708,7.3276],[81.6296,7.4139],[81.5485,7.5083],[81.4732,7.5499],[81.3676,7.5609],[81.267,7.5213],[81.1564,7.4176],[81.1184,7.4158],[81.0641,7.4398],[81.0132,7.4926],[80.9761,7.5636],[80.9272,7.898],[80.8934,7.9755],[80.6803,8.2094],[80.6192,8.2122],[80.5625,8.181]]],[[[74.7216,13.2204],[74.7182,13.2214],[74.7202,13.2234],[74.7216,13.2204]]],[[[74.7261,13.2235],[74.7246,13.2251],[74.7253,13.2255],[74.7261,13.2235]]],[[[74.7132,13.2372],[74.7113,13.2373],[74.7126,13.2378],[74.7132,13.2372]]],[[[74.6866,13.26],[74.6851,13.2615],[74.6864,13.2627],[74.6866,13.26]]],[[[74.6824,13.2632],[74.6813,13.2659],[74.6826,13.2664],[74.6824,13.2632]]],[[[74.6958,13.2754],[74.6923,13.2776],[74.6953,13.2789],[74.6958,13.2754]]],[[[74.693,13.2828],[74.6916,13.281],[74.6919,13.283],[74.693,13.2828]]],[[[74.6866,13.3263],[74.685,13.3266],[74.6858,13.3272],[74.6866,13.3263]]],[[[74.6783,13.3402],[74.6771,13.3389],[74.6772,13.3399],[74.6783,13.3402]]],[[[74.6725,13.3593],[74.6723,13.3617],[74.6735,13.361],[74.6725,13.3593]]],[[[74.6668,13.3763],[74.6665,13.373],[74.6652,13.3757],[74.6668,13.3763]]],[[[74.4756,14.0091],[74.4729,14.011],[74.4764,14.0124],[74.4756,14.0091]]],[[[74.3309,14.0178],[74.3226,14.0179],[74.327,14.0217],[74.3309,14.0178]]],[[[74.4835,14.0238],[74.4799,14.0248],[74.4835,14.0253],[74.4835,14.0238]]],[[[74.4666,14.084],[74.4634,14.0859],[74.4654,14.0868],[74.4666,14.084]]],[[[74.4786,14.0953],[74.4748,14.0931],[74.4746,14.0957],[74.4786,14.0953]]],[[[74.4706,14.1051],[74.4668,14.1079],[74.4689,14.1094],[74.4706,14.1051]]],[[[74.3985,14.3133],[74.3938,14.3089],[74.3921,14.3117],[74.3985,14.3133]]],[[[74.2486,14.6996],[74.246,14.702],[74.2488,14.7011],[74.2486,14.6996]]],[[[74.2345,14.7079],[74.2316,14.7096],[74.2353,14.7098],[74.2345,14.7079]]],[[[74.1451,14.7215],[74.1419,14.7216],[74.1435,14.7234],[74.1451,14.7215]]],[[[74.1524,14.7386],[74.1492,14.7349],[74.1488,14.7389],[74.1524,14.7386]]],[[[74.1152,14.754],[74.1034,14.7558],[74.1052,14.7621],[74.1152,14.754]]],[[[74.0833,14.7935],[74.0817,14.791],[74.0817,14.7939],[74.0833,14.7935]]],[[[74.0529,14.817],[74.0499,14.8172],[74.0567,14.8188],[74.0529,14.817]]],[[[74.0961,14.8432],[74.0918,14.8414],[74.0919,14.8455],[74.0961,14.8432]]],[[[74.1,14.8622],[74.0991,14.8645],[74.0999,14.8645],[74.1,14.8622]]],[[[74.0919,14.8759],[74.0891,14.8748],[74.0899,14.8778],[74.0919,14.8759]]],[[[73.7607,15.3543],[73.7569,15.3573],[73.7605,15.3574],[73.7607,15.3543]]],[[[73.7765,15.3544],[73.7666,15.3553],[73.774,15.3587],[73.7765,15.3544]]],[[[73.7896,15.3719],[73.7865,15.3772],[73.7904,15.3776],[73.7896,15.3719]]],[[[73.4455,15.8897],[73.4446,15.8907],[73.4458,15.8903],[73.4455,15.8897]]],[[[73.4558,15.8935],[73.4541,15.8933],[73.4547,15.8939],[73.4558,15.8935]]],[[[73.5407,15.925],[73.5379,15.9247],[73.5395,15.9267],[73.5407,15.925]]],[[[73.4576,15.9313],[73.4554,15.9319],[73.456,15.9337],[73.4576,15.9313]]],[[[73.4707,15.9724],[73.4688,15.9732],[73.4701,15.9747],[73.4707,15.9724]]],[[[73.4516,15.9891],[73.4503,15.9909],[73.4513,15.9917],[73.4516,15.9891]]],[[[73.4957,15.9712],[73.4863,15.9812],[73.4838,16.0],[73.4877,16.0],[73.4957,15.9712]]],[[[72.8151,18.7014],[72.8047,18.7003],[72.8072,18.7045],[72.8151,18.7014]]],[[[72.8424,18.7075],[72.8332,18.7041],[72.84,18.7114],[72.8424,18.7075]]],[[[72.8456,18.7691],[72.8349,18.7678],[72.8432,18.7728],[72.8456,18.7691]]],[[[72.8502,18.7868],[72.844,18.7916],[72.8501,18.7971],[72.8502,18.7868]]],[[[72.9321,18.9527],[72.9223,18.9629],[72.9424,18.9688],[72.9389,18.9654],[72.9321,18.9527]]],[[[73.0594,19.0065],[73.0493,19.0066],[73.0566,19.0171],[73.0594,19.0065]]],[[[72.8672,19.3274],[72.8447,19.3312],[72.838,19.3354],[72.8516,19.3378],[72.8672,19.3274]]],[[[72.7371,19.4707],[72.7327,19.4608],[72.7286,19.4696],[72.7371,19.4707]]],[[[72.9361,20.7636],[72.932,20.7705],[72.9412,20.7674],[72.9361,20.7636]]],[[[72.807,21.6431],[72.7991,21.6238],[72.7696,21.6143],[72.751,21.6395],[72.807,21.6431]]],[[[72.8784,21.6802],[72.8683,21.6724],[72.8578,21.6764],[72.8784,21.6802]]],[[[72.6615,22.2445],[72.7191,22.2376],[72.7317,22.2225],[72.6615,22.2445]]],[[[90.6184,23.4883],[90.618,23.4884],[90.6187,23.4885],[90.6184,23.4883]]],[[[88.536,25.523],[88.491,25.5787],[88.4436,25.6057],[88.4469,25.6682],[88.4022,25.6741],[88.3721,25.7147],[88.2734,25.7806],[88.2603,25.8154],[88.2043,25.7891],[88.1866,25.8036],[88.144,25.7801],[88.1404,25.7987],[88.1147,25.8021],[88.1121,25.8671],[88.0892,25.8792],[88.0865,25.9314],[88.121,25.9504],[88.1094,25.9629],[88.1276,25.9941],[88.1842,26.0281],[88.1719,26.0432],[88.1854,26.068],[88.1597,26.0811],[88.1804,26.1447],[88.2333,26.1715],[88.2279,26.1865],[88.27,26.1831],[88.3516,26.2186],[88.3465,26.2805],[88.3588,26.3013],[88.4088,26.3157],[88.4005,26.3273],[88.433,26.3433],[88.4539,26.3773],[88.4784,26.3482],[88.5264,26.3726],[88.483,26.4609],[88.365,26.4852],[88.3538,26.4507],[88.3321,26.4845],[88.3732,26.5815],[88.3981,26.6022],[88.3946,26.6292],[88.408,26.6319],[88.4293,26.5536],[88.4794,26.5435],[88.4876,26.5124],[88.5154,26.5121],[88.5234,26.485],[88.556,26.4859],[88.5599,26.4666],[88.6184,26.4764],[88.6255,26.4344],[88.6831,26.4144],[88.6746,26.4037],[88.6951,26.3966],[88.6838,26.3913],[88.7086,26.3474],[88.745,26.3538],[88.7391,26.3359],[88.7539,26.3269],[88.6912,26.3135],[88.7016,26.2855],[88.6641,26.3001],[88.6729,26.2696],[88.7147,26.2835],[88.7176,26.299],[88.7453,26.2922],[88.7451,26.3117],[88.7956,26.3121],[88.8142,26.2947],[88.8067,26.2562],[88.857,26.2318],[88.8717,26.2352],[88.8579,26.2639],[88.8787,26.2887],[88.9116,26.2885],[88.966,26.2344],[89.0034,26.2289],[89.0646,26.257],[89.0555,26.2893],[89.0254,26.2898],[89.0245,26.3109],[88.9864,26.2979],[88.9806,26.3149],[88.997,26.3367],[88.9824,26.3354],[88.9818,26.3502],[88.9459,26.3441],[88.9494,26.3679],[88.9154,26.3635],[88.915,26.4035],[88.9011,26.4069],[88.9332,26.4188],[88.9247,26.4387],[88.9372,26.4303],[88.9572,26.462],[88.9913,26.4206],[89.0493,26.397],[89.1002,26.396],[89.0841,26.3663],[89.1036,26.355],[89.0906,26.3257],[89.1386,26.3151],[89.1312,26.2991],[89.1026,26.3113],[89.105,26.2836],[89.1446,26.2335],[89.1405,26.1844],[89.177,26.1289],[89.2299,26.1203],[89.2671,26.0894],[89.2624,26.0603],[89.3574,26.0083],[89.3845,26.0055],[89.4304,26.0397],[89.4691,26.0004],[89.5323,26.0038],[89.5563,25.9602],[89.5804,25.9712],[89.5834,26.0364],[89.64,26.0705],[89.6296,26.1032],[89.6008,26.0869],[89.5988,26.1073],[89.6299,26.1179],[89.6009,26.1179],[89.5901,26.1504],[89.6152,26.175],[89.6517,26.1736],[89.6235,26.1879],[89.6439,26.2257],[89.6753,26.2288],[89.6875,26.2129],[89.6856,26.1554],[89.7441,26.1567],[89.7852,26.0934],[89.7845,26.0394],[90.0101,26.1844],[90.2209,26.2839],[90.5617,26.4015],[90.9099,26.4872],[91.1963,26.5306],[91.5264,26.5554],[92.1464,26.579],[92.3999,26.5539],[92.5407,26.5033],[92.692,26.4118],[92.8455,26.2834],[92.9884,26.1293],[93.1022,25.9671],[93.1899,25.7971],[93.2455,25.6303],[93.2647,25.4801],[93.2504,25.3576],[93.2088,25.2194],[92.985,24.7333],[92.7127,24.013],[92.5791,23.7278],[92.3709,23.3621],[92.3856,23.2652],[92.3688,23.2627],[92.3514,23.2256],[91.9536,22.7649],[91.8342,22.5921],[91.7019,22.4733],[91.5992,22.6334],[91.4576,22.7511],[91.4859,22.7668],[91.4692,22.7787],[91.4778,22.7633],[91.4547,22.7602],[91.4369,22.7772],[91.4746,22.8241],[91.4356,22.8048],[91.4836,22.8741],[91.4566,22.8989],[91.4884,22.9029],[91.4452,22.9007],[91.441,22.8836],[91.464,22.8832],[91.4647,22.869],[91.4204,22.8087],[91.4086,22.7609],[91.3301,22.8335],[91.3506,22.8515],[91.3427,22.8832],[91.3158,22.8394],[91.3525,22.7861],[91.3451,22.7758],[91.2963,22.8102],[91.1869,22.7977],[91.1164,22.8119],[91.1127,22.8262],[91.0958,22.82],[91.099,22.8052],[91.0404,22.797],[90.9375,22.8561],[90.8246,22.8647],[90.8016,22.9088],[90.7578,22.9387],[90.7992,22.8841],[90.7954,22.8634],[90.776,22.8608],[90.7333,22.8875],[90.6819,22.9866],[90.6235,23.0044],[90.5673,23.1188],[90.6524,23.2423],[90.6389,23.3166],[90.6776,23.3183],[90.6754,23.3407],[90.6978,23.3457],[90.6795,23.3644],[90.6972,23.3775],[90.6701,23.3584],[90.6616,23.3375],[90.6738,23.3213],[90.5987,23.3393],[90.5796,23.3948],[90.6007,23.4314],[90.5856,23.4669],[90.6303,23.4903],[90.7039,23.4901],[90.7178,23.5428],[90.7443,23.5443],[90.7254,23.5534],[90.7084,23.5386],[90.7057,23.5618],[90.7392,23.6216],[90.7646,23.629],[90.7414,23.6621],[90.7578,23.721],[90.7425,23.6938],[90.7403,23.7242],[90.7315,23.7102],[90.7156,23.7414],[90.6818,23.6867],[90.6429,23.6899],[90.6324,23.6392],[90.5531,23.5715],[90.5147,23.5814],[90.505,23.6033],[90.4839,23.5866],[90.4539,23.6149],[90.4703,23.6298],[90.4427,23.6684],[90.368,23.7186],[90.3837,23.7022],[90.3658,23.7034],[90.3421,23.7401],[90.3176,23.735],[90.3128,23.7642],[90.2548,23.7303],[90.2571,23.7757],[90.2298,23.8877],[90.2396,23.827],[90.194,23.8405],[90.1518,23.8291],[90.1319,23.8674],[90.1117,23.8736],[90.1104,23.8573],[90.0572,23.8201],[90.047,23.8255],[90.0625,23.8769],[90.0468,23.8894],[90.0262,23.8817],[90.0227,23.9072],[89.9481,23.9709],[89.9523,23.9846],[89.9328,23.9846],[89.9487,23.9598],[89.9378,23.9554],[90.0192,23.8936],[90.0144,23.8769],[90.0547,23.8732],[90.0409,23.8278],[90.0466,23.8174],[90.0691,23.8163],[90.0887,23.83],[90.1247,23.8071],[90.1837,23.8023],[90.2068,23.8157],[90.2226,23.8004],[90.2415,23.8149],[90.2059,23.7537],[90.221,23.7216],[90.2524,23.721],[90.2746,23.6862],[90.2557,23.7074],[90.2383,23.7112],[90.2208,23.7081],[90.1813,23.7401],[90.1924,23.7203],[90.1626,23.7198],[90.1492,23.7107],[90.1219,23.7371],[90.0698,23.7579],[90.0232,23.7635],[90.0245,23.7952],[90.0021,23.816],[90.0195,23.7627],[90.1205,23.7334],[90.1497,23.7043],[90.1739,23.7165],[90.2205,23.7031],[90.2477,23.7076],[90.276,23.6548],[90.3797,23.6165],[90.4018,23.5883],[90.3789,23.5678],[90.4098,23.5802],[90.4377,23.5451],[90.5054,23.5721],[90.5302,23.5669],[90.5701,23.4832],[90.538,23.4837],[90.5539,23.4263],[90.5281,23.3907],[90.4858,23.4204],[90.4204,23.4161],[90.2542,23.4608],[90.1641,23.5242],[90.1103,23.6129],[89.97,23.6581],[89.9179,23.7216],[89.8638,23.7451],[89.7915,23.8077],[89.7742,23.8995],[89.7688,23.8876],[89.7046,23.9579],[89.7275,23.9776],[89.7208,24.0],[89.7153,23.9718],[89.6983,23.9645],[89.7051,23.9991],[89.6707,24.0],[89.6557,23.9361],[89.7033,23.8749],[89.7513,23.8659],[89.7708,23.8359],[89.7571,23.8473],[89.7242,23.8344],[89.6802,23.8626],[89.7179,23.8319],[89.6297,23.8456],[89.5468,23.8241],[89.4497,23.8706],[89.3865,23.9431],[89.3288,23.9487],[89.2808,23.9875],[89.3161,23.9479],[89.2889,23.9467],[89.2414,23.9813],[89.1733,24.0],[89.0914,23.9991],[89.0608,23.9839],[89.0936,23.9665],[89.1225,23.9203],[89.1241,23.9541],[89.1671,23.9259],[89.2341,23.9194],[89.3047,23.8696],[89.4078,23.8978],[89.4594,23.8119],[89.5057,23.7768],[89.5362,23.7953],[89.5929,23.7975],[89.6397,23.7768],[89.7017,23.7769],[89.8567,23.6605],[89.9485,23.6357],[90.0246,23.5566],[90.0179,23.5823],[90.0954,23.567],[90.1529,23.4988],[90.1557,23.431],[90.2067,23.3338],[90.17,23.3466],[90.1639,23.3639],[90.1862,23.3591],[90.1608,23.3676],[90.1665,23.3332],[90.1253,23.3055],[90.1205,23.3356],[90.1417,23.3597],[90.1445,23.3786],[90.1279,23.351],[90.0995,23.359],[90.1208,23.3473],[90.1189,23.3041],[90.093,23.3005],[90.0871,23.2728],[90.1245,23.2685],[90.1287,23.2416],[90.2023,23.2256],[90.1987,23.2096],[90.1681,23.2041],[90.1774,23.1665],[90.219,23.1829],[90.2485,23.1621],[90.2336,23.1421],[90.2452,23.1232],[90.3091,23.1128],[90.3167,23.0671],[90.2678,23.0431],[90.2726,23.0254],[90.3072,23.0209],[90.3206,22.9865],[90.2739,22.9687],[90.3537,22.9212],[90.3456,22.884],[90.3205,22.8726],[90.3213,22.8502],[90.3726,22.7652],[90.3682,22.7366],[90.4195,22.7331],[90.4167,22.7138],[90.3964,22.729],[90.3831,22.7054],[90.4003,22.7234],[90.4204,22.7086],[90.4297,22.7305],[90.4193,22.7453],[90.378,22.7401],[90.3825,22.7586],[90.4366,22.761],[90.4832,22.7098],[90.4769,22.6561],[90.4961,22.6723],[90.5133,22.6529],[90.5042,22.5879],[90.5187,22.5991],[90.5798,22.5261],[90.6132,22.3275],[90.5912,22.2573],[90.5587,22.2382],[90.5212,22.184],[90.5066,22.1851],[90.4373,22.0668],[90.4221,22.1192],[90.4427,22.1513],[90.4269,22.1517],[90.4192,22.1262],[90.4192,22.0904],[90.3882,22.0901],[90.3847,22.1054],[90.4039,22.1682],[90.4261,22.1813],[90.3999,22.2179],[90.4165,22.2649],[90.4035,22.2838],[90.4191,22.2895],[90.3788,22.2931],[90.4149,22.3388],[90.3641,22.2952],[90.4059,22.2709],[90.395,22.204],[90.4179,22.1836],[90.3986,22.1722],[90.3831,22.1366],[90.3408,22.1621],[90.3872,22.1955],[90.3873,22.2114],[90.3562,22.1794],[90.3438,22.1957],[90.3498,22.1792],[90.3338,22.1633],[90.3784,22.1309],[90.3751,22.1053],[90.3331,22.1088],[90.2616,22.0404],[90.2751,22.0358],[90.278,21.9971],[90.2568,21.9557],[90.211,21.9826],[90.2135,22.0022],[90.1962,21.9784],[90.2287,21.9716],[90.2343,21.9583],[90.2176,21.9508],[90.2685,21.9463],[90.2409,21.8994],[90.2606,21.8846],[90.2549,21.8666],[90.2241,21.8543],[90.2042,21.8874],[90.2401,21.9344],[90.1969,21.8906],[90.2199,21.8528],[90.2631,21.8583],[90.2478,21.8376],[90.2163,21.8373],[90.2556,21.8273],[90.2116,21.8183],[90.1756,21.7891],[90.1319,21.7907],[90.092,21.8147],[90.0824,21.841],[90.1222,21.8485],[90.1003,21.8554],[90.1103,21.884],[90.1543,21.8854],[90.1589,21.8603],[90.1728,21.8697],[90.1519,21.8956],[90.1886,21.9228],[90.144,21.8906],[90.1158,21.8993],[90.1162,21.9159],[90.15,21.9227],[90.1372,21.9485],[90.1685,21.9805],[90.1406,21.9702],[90.128,21.9914],[90.1418,21.9247],[90.1114,21.9219],[90.0988,21.8944],[90.0991,21.9412],[90.0725,22.0004],[90.0992,22.0506],[90.1633,22.1145],[90.2134,22.1143],[90.2283,22.1641],[90.2542,22.1638],[90.2717,22.1772],[90.2864,22.2071],[90.2723,22.2089],[90.2588,22.1722],[90.229,22.1724],[90.2401,22.1932],[90.2206,22.219],[90.2077,22.3093],[90.2269,22.3379],[90.2896,22.3505],[90.2973,22.3714],[90.2696,22.3586],[90.2657,22.3711],[90.2809,22.4069],[90.3137,22.4635],[90.3413,22.4589],[90.3619,22.4905],[90.3405,22.4664],[90.3148,22.4741],[90.2586,22.3754],[90.2548,22.3443],[90.2223,22.3421],[90.1991,22.3026],[90.2097,22.2143],[90.2298,22.1915],[90.2032,22.1238],[90.1608,22.1241],[90.0879,22.0556],[90.0515,21.9702],[90.0298,21.9971],[90.0275,21.9782],[90.0,21.9882],[89.993,22.0361],[90.0307,22.0628],[90.0436,22.1336],[90.0717,22.1533],[90.1399,22.1551],[90.0801,22.1586],[90.0257,22.189],[90.081,22.2209],[90.1116,22.2858],[90.1016,22.3424],[90.176,22.4215],[90.2018,22.4859],[90.206,22.5118],[90.1876,22.5224],[90.2028,22.5725],[90.1858,22.6255],[90.2519,22.6212],[90.2832,22.6302],[90.2942,22.6556],[90.2487,22.6279],[90.181,22.6276],[90.1975,22.5676],[90.1819,22.5223],[90.1989,22.509],[90.1936,22.4802],[90.1724,22.4297],[90.095,22.3491],[90.1048,22.3039],[90.0669,22.2145],[90.025,22.1966],[90.0234,22.1724],[90.0632,22.1618],[90.0153,22.1191],[90.0183,22.0663],[89.9809,22.0416],[89.9896,21.991],[89.9644,21.9769],[89.9092,22.0731],[89.9175,22.136],[89.8787,22.2524],[89.9197,22.3718],[89.9847,22.4388],[90.0,22.4869],[90.025,22.4901],[90.033,22.5719],[90.065,22.6087],[90.0571,22.6225],[90.0268,22.599],[90.0327,22.6527],[90.0038,22.6772],[90.028,22.6463],[90.0132,22.5988],[90.0307,22.5814],[90.0179,22.4944],[89.9546,22.5055],[89.9855,22.4867],[89.9782,22.4521],[89.9057,22.3863],[89.8834,22.4052],[89.8834,22.4302],[89.8774,22.4139],[89.8987,22.3721],[89.8448,22.2487],[89.8905,22.1211],[89.8528,22.0679],[89.8188,22.066],[89.8534,22.0483],[89.8854,21.9055],[89.8584,21.8784],[89.8456,21.8859],[89.8408,21.856],[89.7715,21.8311],[89.7896,21.879],[89.7542,21.8561],[89.7334,21.8909],[89.7493,21.8346],[89.7143,21.8341],[89.7023,21.8494],[89.6756,21.8377],[89.6586,21.8922],[89.6795,21.9049],[89.6554,21.9134],[89.6339,21.8679],[89.7121,21.7853],[89.7124,21.7662],[89.6592,21.7511],[89.6548,21.765],[89.6067,21.7601],[89.6137,21.8111],[89.5627,21.8637],[89.5901,21.9386],[89.5607,21.9692],[89.5603,21.9911],[89.5152,21.9904],[89.5251,21.9563],[89.5123,21.8993],[89.4971,21.9081],[89.4607,21.8522],[89.4337,21.8477],[89.4627,21.8461],[89.4712,21.8204],[89.4581,21.8139],[89.4796,21.8006],[89.4783,21.7724],[89.4257,21.7147],[89.3906,21.7084],[89.3654,21.7459],[89.3557,21.8089],[89.3899,21.9021],[89.3671,21.9046],[89.3181,21.8611],[89.3072,21.8207],[89.2867,21.8053],[89.2927,21.7564],[89.2312,21.7683],[89.2193,21.7572],[89.197,21.8047],[89.1643,21.79],[89.1079,21.8105],[89.1121,21.8547],[89.0887,21.908],[89.0948,21.9381],[89.0836,21.9386],[89.0634,21.9273],[89.0679,21.8858],[89.0904,21.8542],[89.089,21.803],[89.1372,21.7724],[89.1522,21.7414],[89.1374,21.7198],[89.1154,21.7204],[89.0518,21.7859],[89.0656,21.8667],[89.0397,21.9077],[88.9994,21.9024],[88.997,21.8897],[89.0372,21.8577],[89.0318,21.7616],[89.0801,21.7081],[89.1033,21.645],[89.0968,21.6249],[89.0595,21.6116],[89.0302,21.6623],[89.0064,21.655],[89.0292,21.6541],[89.043,21.6175],[89.0167,21.6008],[88.9949,21.6468],[88.9946,21.6095],[88.9523,21.6406],[88.928,21.6302],[88.8989,21.6496],[88.8754,21.701],[88.893,21.7372],[88.8799,21.7675],[88.8504,21.7306],[88.8491,21.681],[88.8692,21.6433],[88.8493,21.6302],[88.8529,21.6161],[88.8139,21.631],[88.8225,21.6607],[88.7594,21.6566],[88.7243,21.6805],[88.6993,21.7411],[88.725,21.8021],[88.6998,21.8403],[88.7311,21.9353],[88.7291,21.976],[88.749,21.9774],[88.7689,22.0149],[88.7903,22.0193],[88.7667,22.0237],[88.7594,22.0502],[88.7746,22.0531],[88.7488,22.066],[88.7158,22.0501],[88.7415,22.0282],[88.735,22.0071],[88.6685,22.0226],[88.6343,22.1207],[88.6205,22.1069],[88.6438,22.0459],[88.6091,21.9766],[88.6202,21.9377],[88.5852,21.9852],[88.5785,21.9648],[88.611,21.9322],[88.6096,21.9095],[88.5835,21.886],[88.559,21.8118],[88.5405,21.8535],[88.5031,21.8849],[88.5314,21.9299],[88.5095,21.9704],[88.5527,21.9853],[88.5652,22.0228],[88.5449,21.9865],[88.5054,21.9739],[88.5103,21.9217],[88.485,21.8966],[88.4664,21.9001],[88.4688,21.9487],[88.46,21.9388],[88.4526,21.9079],[88.465,21.8952],[88.4841,21.8913],[88.5001,21.8489],[88.4564,21.8174],[88.469,21.7932],[88.448,21.8016],[88.4295,21.7672],[88.4363,21.7042],[88.4164,21.6527],[88.4412,21.6244],[88.4191,21.6062],[88.4177,21.5818],[88.3929,21.6083],[88.4046,21.6192],[88.3891,21.6672],[88.4116,21.7195],[88.3795,21.7303],[88.3974,21.7345],[88.4075,21.7637],[88.3915,21.7795],[88.4084,21.7989],[88.4001,21.8346],[88.4217,21.8888],[88.3996,21.8993],[88.4163,21.9239],[88.4049,21.9529],[88.3903,21.9667],[88.4103,21.9783],[88.413,21.9941],[88.3871,21.9663],[88.4114,21.9216],[88.3959,21.9062],[88.3979,21.8947],[88.4077,21.8854],[88.3975,21.8744],[88.3953,21.7943],[88.3717,21.8007],[88.3648,21.8529],[88.3642,21.8014],[88.3296,21.7886],[88.2816,21.7969],[88.2765,21.8073],[88.3148,21.8297],[88.3237,21.8508],[88.3061,21.8664],[88.2686,21.8651],[88.3175,21.8502],[88.2584,21.7991],[88.2892,21.7581],[88.285,21.7157],[88.3067,21.6718],[88.2955,21.6068],[88.3254,21.5806],[88.3064,21.5615],[88.2626,21.5575],[88.2265,21.6188],[88.2493,21.6474],[88.2433,21.6759],[88.2116,21.6855],[88.2311,21.7008],[88.2186,21.7919],[88.2376,21.7644],[88.2402,21.7795],[88.2115,21.8029],[88.2011,21.8507],[88.166,21.888],[88.1735,21.9311],[88.1487,21.9596],[88.2329,22.0686],[88.2144,22.1569],[88.1731,22.1973],[88.0806,22.211],[88.0779,22.223],[88.034,22.2181],[88.0319,22.2018],[88.1438,22.1871],[88.1902,22.1329],[88.1961,22.1048],[88.1618,22.0645],[88.062,22.0134],[87.9805,21.8551],[87.9519,21.8236],[87.8866,21.8031],[87.8924,21.7812],[87.8286,21.7222],[87.7556,21.7012],[87.7498,21.6855],[87.6786,21.6537],[87.6621,21.6499],[87.6514,21.6656],[87.6369,21.6472],[87.3716,21.578],[87.366,21.5609],[87.1956,21.5494],[87.066,21.473],[86.8943,21.3133],[86.8167,21.1383],[86.9295,20.9009],[86.9701,20.8491],[86.9742,20.7699],[87.0013,20.7584],[87.0139,20.7253],[86.9957,20.6995],[87.0254,20.6897],[87.052,20.7035],[86.7661,20.5057],[86.7365,20.452],[86.7409,20.4177],[86.7226,20.3936],[86.7414,20.3757],[86.7282,20.3617],[86.7785,20.3974],[86.7703,20.3662],[86.7859,20.3717],[86.7633,20.3356],[86.8019,20.3649],[86.8079,20.3953],[86.8074,20.3638],[86.7191,20.2992],[86.6841,20.3174],[86.6956,20.2818],[86.7649,20.3146],[86.5374,20.1809],[86.4254,20.0257],[86.423,20.0496],[86.4009,20.0053],[86.4288,19.9947],[86.4181,19.9776],[86.1519,19.8703],[86.0496,19.8556],[86.0654,19.8472],[85.8421,19.7975],[85.6847,19.7446],[85.4344,19.6256],[85.2434,19.5097],[85.1224,19.4198],[85.0869,19.3687],[84.9108,19.2519],[84.8083,19.1466],[84.8041,19.1159],[84.6929,18.9579],[84.5984,18.8653],[84.5635,18.7904],[84.4576,18.6872],[84.4484,18.6543],[84.386,18.6003],[84.3651,18.5534],[84.1702,18.383],[84.1375,18.3437],[84.1411,18.3142],[83.9623,18.2157],[83.9344,18.2254],[83.9453,18.21],[83.8113,18.1604],[83.6741,18.0857],[83.5753,18.0094],[83.5411,17.9497],[83.4723,17.8985],[83.4687,17.9203],[83.4438,17.934],[83.4672,17.8865],[83.4137,17.8405],[83.4172,17.8083],[83.3574,17.7571],[83.3507,17.7279],[83.2944,17.6912],[83.3009,17.6774],[83.2427,17.6342],[83.2152,17.5903],[83.0272,17.5114],[82.9939,17.4732],[82.8869,17.4246],[82.8831,17.4381],[82.8655,17.4155],[82.647,17.3109],[82.4943,17.2126],[82.3006,17.0409],[82.2792,17.0006],[82.2777,16.9443],[82.2526,16.9201],[82.2666,16.8866],[82.2567,16.8644],[82.2721,16.8873],[82.2758,16.8549],[82.2921,16.8749],[82.304,16.8567],[82.3193,16.8678],[82.3209,16.8372],[82.3419,16.8605],[82.3691,16.8561],[82.3673,16.8111],[82.3744,16.9262],[82.3489,16.9698],[82.3717,16.953],[82.3799,16.9037],[82.3559,16.7128],[82.3201,16.6424],[82.3214,16.6135],[82.302,16.6078],[82.3175,16.5846],[81.9554,16.3972],[81.8674,16.3788],[81.7322,16.3135],[81.5102,16.3597],[81.3267,16.3133],[81.2581,16.2645],[81.2018,16.1791],[81.1881,16.1455],[81.2125,16.1759],[81.2069,16.1316],[81.1488,16.0028],[81.1551,15.9707],[81.048,15.9041],[80.9932,15.8326],[81.0017,15.7717],[81.0318,15.7592],[80.9388,15.7079],[80.8981,15.716],[80.8151,15.6995],[80.7824,15.8485],[80.8089,15.7778],[80.8096,15.8397],[80.7694,15.8686],[80.6991,15.8811],[80.6199,15.8787],[80.5324,15.8541],[80.395,15.7869],[80.2989,15.7108],[80.2457,15.6251],[80.1996,15.4623],[80.0955,15.329],[80.0826,15.2594],[80.091,15.2043],[80.065,15.1919],[80.0736,15.1742],[80.0438,15.0829],[80.0872,14.8059],[80.1343,14.715],[80.1543,14.6372],[80.1961,14.5712],[80.1695,14.3491],[80.1257,14.2028],[80.1383,14.0837],[80.2558,13.78],[80.2333,13.7157],[80.2335,13.6423],[80.3233,13.4439],[80.3464,13.304],[80.2957,13.1259],[80.3049,13.0927],[80.261,13.0129],[80.2741,13.0056],[80.2482,12.8702],[80.2476,12.7533],[80.1758,12.5813],[80.1868,12.5753],[80.1569,12.4775],[80.1353,12.4585],[80.1454,12.4454],[80.0463,12.3104],[80.0668,12.3455],[80.0577,12.3516],[79.8848,12.0566],[79.8342,11.9097],[79.8187,11.9073],[79.8333,11.902],[79.7982,11.7882],[79.7759,11.7701],[79.794,11.7694],[79.7932,11.7502],[79.7585,11.5466],[79.7717,11.4916],[79.8186,11.4263],[79.8483,11.2505],[79.8252,11.2304],[79.8497,11.2282],[79.8597,11.1777],[79.8528,10.6787],[79.8761,10.2956],[79.8349,10.2732],[79.7673,10.2707],[79.5302,10.3132],[79.4001,10.3202],[79.3038,10.2641],[79.273,10.2341],[79.2771,10.2105],[79.2447,10.1815],[79.2302,10.1427],[79.2329,10.0812],[79.2669,10.0338],[79.1657,9.9348],[79.1254,9.8805],[79.1204,9.8444],[78.9899,9.6909],[78.934,9.592],[78.9182,9.4896],[78.9021,9.4851],[78.9603,9.3817],[79.0724,9.2933],[79.2019,9.2801],[79.2664,9.2891],[79.2922,9.3161],[79.3255,9.3206],[79.3367,9.3084],[79.3204,9.2691],[79.4423,9.1539],[79.3131,9.2389],[79.2237,9.2513],[79.2074,9.2764],[79.0889,9.2567],[78.9759,9.2697],[78.9264,9.2632],[78.9115,9.2451],[78.8655,9.2509],[78.7351,9.2039],[78.7216,9.183],[78.6512,9.1917],[78.6449,9.1654],[78.6619,9.1519],[78.5829,9.1271],[78.492,9.1252],[78.4912,9.1361],[78.4198,9.1097],[78.2767,8.9996],[78.2658,9.0126],[78.2681,8.9925],[78.1937,8.9249],[78.1703,8.8671],[78.1539,8.7474],[78.1786,8.7594],[78.1952,8.7499],[78.2012,8.7785],[78.2055,8.7605],[78.1959,8.7407],[78.1629,8.7296],[78.1322,8.6694],[78.133,8.4883],[78.0647,8.4057],[78.0697,8.3666],[77.8041,8.2336],[77.7838,8.1982],[77.7383,8.1691],[77.5938,8.1399],[77.5609,8.1154],[77.5526,8.069],[77.3183,8.1173],[76.9771,8.3876],[76.6206,8.8431],[76.5464,8.8985],[76.5204,8.9993],[76.4617,9.1312],[76.497,9.067],[76.4753,9.1197],[76.4848,9.1159],[76.4921,9.1672],[76.4748,9.1621],[76.4709,9.1412],[76.4405,9.2326],[76.4196,9.2432],[76.4551,9.1423],[76.3263,9.4527],[76.2446,9.9545],[76.2184,9.9982],[76.1029,10.3754],[76.0478,10.4918],[76.0639,10.4735],[76.0463,10.5317],[76.0266,10.5323],[75.9113,10.799],[75.9104,10.7838],[75.8326,11.1235],[75.8054,11.1508],[75.7296,11.3316],[75.7333,11.354],[75.6782,11.4458],[75.6174,11.4744],[75.5851,11.5587],[75.597,11.5363],[75.5912,11.562],[75.6041,11.561],[75.5822,11.5708],[75.5294,11.6966],[75.5386,11.7048],[75.4917,11.7339],[75.4716,11.769],[75.451,11.7697],[75.3893,11.8467],[75.3522,11.8601],[75.3004,11.9467],[75.2377,12.0138],[75.2249,12.0211],[75.2004,12.0032],[75.1677,12.067],[75.0648,12.3407],[75.0296,12.3922],[75.0386,12.4111],[75.0229,12.3997],[75.0063,12.4371],[75.0154,12.4444],[74.9979,12.4456],[74.983,12.475],[74.8249,12.8316],[74.776,13.0949],[74.7699,13.0782],[74.6921,13.3488],[74.6657,13.6381],[74.6428,13.6709],[74.6058,13.8523],[74.6169,13.8576],[74.565,13.9466],[74.5278,13.9626],[74.505,14.0011],[74.464,14.1872],[74.4092,14.308],[74.3953,14.4186],[74.3765,14.4165],[74.3538,14.5117],[74.3052,14.5196],[74.2912,14.5931],[74.2635,14.6245],[74.2946,14.6402],[74.2751,14.6467],[74.2756,14.6779],[74.2537,14.7068],[74.2633,14.7094],[74.2647,14.7201],[74.2582,14.7122],[74.2215,14.7472],[74.1993,14.7176],[74.1765,14.7446],[74.1477,14.7464],[74.1341,14.7778],[74.1039,14.7843],[74.0911,14.8021],[74.1171,14.8034],[74.1249,14.8405],[74.1079,14.8451],[74.0912,14.8945],[74.0388,14.9156],[74.0487,14.9568],[74.0298,14.9815],[74.0476,14.9848],[73.9857,15.0225],[73.9786,15.0504],[73.95,15.0729],[73.9051,15.0871],[73.9458,15.1408],[73.8821,15.3452],[73.862,15.3694],[73.8357,15.361],[73.8032,15.377],[73.7794,15.4089],[73.8757,15.3984],[73.8899,15.4192],[73.8764,15.4337],[73.8584,15.4258],[73.845,15.4491],[73.7822,15.4597],[73.8153,15.5064],[73.7574,15.4939],[73.731,15.6146],[73.6841,15.7202],[73.6509,15.7384],[73.655,15.7734],[73.6238,15.8436],[73.5838,15.9077],[73.5376,15.9339],[73.5041,15.94],[73.5097,15.9913],[73.4955,15.985],[73.4774,16.0393],[73.4563,16.0581],[73.4839,16.0698],[73.4595,16.0759],[73.4705,16.113],[73.4608,16.0941],[73.4377,16.1936],[73.4522,16.2253],[73.428,16.2044],[73.4118,16.2564],[73.4119,16.2734],[73.4392,16.2897],[73.4061,16.2808],[73.3862,16.363],[73.3699,16.3641],[73.3717,16.3896],[73.3948,16.3901],[73.4084,16.4088],[73.3688,16.3999],[73.3586,16.4351],[73.3812,16.4487],[73.3485,16.4519],[73.3116,16.5403],[73.3372,16.5601],[73.3585,16.5193],[73.3494,16.5081],[73.3708,16.5129],[73.352,16.5379],[73.356,16.5666],[73.3167,16.5992],[73.3479,16.5967],[73.3593,16.6253],[73.3362,16.6211],[73.3218,16.6378],[73.3276,16.6797],[73.3429,16.6911],[73.3158,16.6968],[73.3005,16.7511],[73.3179,16.8014],[73.2954,16.8117],[73.2847,16.8776],[73.3048,16.8844],[73.276,16.8926],[73.2826,16.9486],[73.3057,16.9717],[73.2683,16.9866],[73.2792,17.0002],[73.2564,17.0211],[73.2575,17.0443],[73.2902,17.0061],[73.2813,17.0365],[73.3264,17.0286],[73.2797,17.0446],[73.2914,17.0704],[73.2688,17.1461],[73.2314,17.1954],[73.2439,17.2159],[73.1893,17.3016],[73.2207,17.3081],[73.2569,17.2599],[73.2657,17.2889],[73.297,17.2812],[73.2909,17.2948],[73.238,17.2903],[73.2066,17.3828],[73.1711,17.4039],[73.1979,17.4394],[73.1845,17.4957],[73.1424,17.5465],[73.1696,17.5888],[73.1475,17.6041],[73.1202,17.6824],[73.135,17.7114],[73.1285,17.7446],[73.056,17.9248],[73.0362,17.9399],[73.0418,17.9741],[73.0061,18.017],[73.0225,18.0197],[73.0444,18.04],[73.0247,18.0295],[73.0296,18.0465],[73.016,18.025],[72.9955,18.0527],[72.9721,18.1247],[72.9884,18.1524],[72.9804,18.1945],[72.9313,18.2186],[72.9422,18.2792],[72.9667,18.2715],[72.9802,18.24],[73.063,18.2177],[73.0702,18.1968],[73.0672,18.2708],[73.0525,18.2857],[73.0458,18.2672],[73.0234,18.2662],[72.9142,18.349],[72.9106,18.3676],[72.9275,18.3799],[72.8901,18.458],[72.9047,18.5384],[72.9213,18.5286],[72.9616,18.5423],[72.9202,18.5479],[72.884,18.6304],[72.898,18.631],[72.8664,18.644],[72.8563,18.6884],[72.8701,18.8028],[72.9142,18.7924],[72.9356,18.8241],[72.9886,18.7759],[72.999,18.7794],[72.9859,18.8052],[73.0578,18.8027],[72.9898,18.8116],[72.9821,18.8626],[72.9381,18.847],[72.9069,18.8865],[72.9247,18.9098],[72.942,18.8943],[72.9495,18.9458],[72.9772,18.9461],[72.9539,18.9701],[73.0908,18.9988],[73.0667,19.0143],[73.0847,19.0314],[73.0644,19.0292],[73.0904,19.0457],[73.0061,19.005],[72.9844,19.0708],[72.9952,19.0869],[72.9764,19.1069],[72.9764,19.1707],[72.9642,19.1353],[72.9522,19.1374],[72.9569,19.1077],[72.9307,19.0904],[72.9472,19.068],[72.9137,19.0744],[72.9517,19.0432],[72.9034,18.9938],[72.8784,19.0226],[72.8573,19.0094],[72.8371,18.9334],[72.8032,18.898],[72.8212,18.9319],[72.8128,18.9508],[72.792,18.9442],[72.8126,19.0202],[72.8597,19.0602],[72.8179,19.0482],[72.8248,19.087],[72.808,19.1435],[72.7863,19.1386],[72.7814,19.1669],[72.8011,19.1976],[72.7783,19.1922],[72.787,19.3062],[72.8517,19.316],[72.9155,19.2908],[72.8509,19.3431],[72.8024,19.3314],[72.7583,19.3757],[72.7663,19.3956],[72.7441,19.4603],[72.7564,19.4738],[72.7169,19.5799],[72.7187,19.5967],[72.7449,19.6026],[72.7289,19.6097],[72.7078,19.6822],[72.7005,19.7289],[72.7146,19.747],[72.701,19.742],[72.6902,19.7581],[72.7061,19.8084],[72.6859,19.8043],[72.6594,19.8391],[72.686,19.8742],[72.6716,19.9365],[72.7035,19.9651],[72.7249,19.9671],[72.76,19.9233],[72.7451,19.9679],[72.7216,19.9802],[72.7068,20.0701],[72.731,20.0951],[72.7448,20.1954],[72.7794,20.207],[72.7456,20.203],[72.749,20.2818],[72.778,20.3364],[72.8183,20.3657],[72.8262,20.4424],[72.8869,20.5046],[72.8837,20.6174],[72.9035,20.5969],[72.8883,20.6339],[72.9015,20.6429],[72.9207,20.7531],[72.9519,20.755],[72.9425,20.7755],[72.9255,20.7733],[72.9443,20.9242],[72.9125,21.141],[72.7718,21.5861],[72.8165,21.6136],[72.8406,21.6659],[72.9193,21.6478],[73.0375,21.7005],[73.0901,21.7051],[73.1077,21.7297],[73.064,21.7327],[72.9438,21.6753],[72.8728,21.6882],[72.7887,21.6599],[72.7335,21.684],[72.6531,21.8867],[72.675,21.8872],[72.6786,21.912],[72.6878,21.886],[72.7223,21.8841],[72.7187,21.9318],[72.7786,21.9518],[72.746,21.988],[72.7719,22.0014],[72.7754,22.0168],[72.735,21.9912],[72.7186,22.0205],[72.718,21.9943],[72.7074,21.9796],[72.6933,21.9852],[72.6999,21.9716],[72.6719,21.9749],[72.6605,21.9605],[72.6465,21.9619],[72.6488,21.9881],[72.6368,22.0028],[72.6418,21.9581],[72.6281,21.9705],[72.6278,21.9527],[72.5641,22.1823],[72.6321,22.2166],[72.7419,22.1758],[72.7668,22.1936],[72.7581,22.2163],[72.7121,22.2444],[72.6726,22.2567],[72.6273,22.255],[72.6127,22.2672],[72.6495,22.2643],[72.6288,22.2759],[72.5679,22.2652],[72.6219,22.2837],[72.5708,22.2739],[72.544,22.249],[72.4911,22.2952],[72.3746,22.2918],[72.4013,22.3249],[72.3892,22.3311],[72.3581,22.313],[72.347,22.2866],[72.3386,22.3066],[72.3336,22.2837],[72.2503,22.2531],[72.1765,22.19],[71.9525,21.827],[71.7028,21.5535],[71.3705,21.2552],[71.1849,21.112],[71.0292,21.0298],[70.8817,20.9976],[70.666,21.0035],[70.449,21.0504],[70.3041,21.113],[70.2076,21.1903],[70.1589,21.284],[70.1392,21.4186],[70.1705,21.8694],[70.212,22.1446],[70.2851,22.399],[70.388,22.6054],[70.4964,22.74],[70.6516,22.8729],[71.5331,23.4619],[71.887,23.6506],[72.315,23.7998],[74.6932,24.2653],[76.1803,24.3755],[77.3919,24.6244],[77.6051,24.7885],[77.8889,24.9666],[78.7309,25.4569],[79.1192,25.6371],[79.3351,25.7018],[80.0036,25.8488],[81.3548,26.2993],[82.7206,26.6604],[83.0614,26.7824],[83.5674,27.0221],[83.7878,27.1076],[84.3082,27.1712],[84.3391,27.2083],[84.2869,27.2984],[84.2578,27.4017],[84.2499,27.5211],[84.2683,27.6206],[84.2983,27.6742],[84.3419,27.7089],[84.5236,27.7604],[84.6468,27.7712],[84.7817,27.7539],[85.3586,27.5796],[85.7794,27.414],[86.2156,27.1935],[86.6395,26.9377],[87.0098,26.6804],[87.2086,26.4928],[87.638,26.0238],[87.8621,25.8302],[88.0596,25.7144],[88.536,25.523]],[[88.7597,25.5292],[88.7611,25.4999],[88.7103,25.5016],[88.7034,25.4832],[88.8307,25.4755],[88.8018,25.5084],[88.8037,25.5331],[88.7597,25.5292]],[[88.6408,25.4948],[88.6,25.5161],[88.5667,25.5138],[88.6408,25.4948]]]]}}