{"type":"Feature","properties":{"speciesId":1079,"category":"NT","source":"IUCN Red List","simplifyTol":0.01,"clippedToSubcontinent":true},"geometry":{"type":"Polygon","coordinates":[[[75.7907,12.0448],[75.705,12.3664],[75.5549,13.276],[75.5457,13.4016],[75.5668,13.4466],[75.6595,13.5212],[75.7055,13.5236],[75.7846,13.4628],[76.6667,11.8212],[76.6981,11.6774],[76.7341,11.3375],[76.7083,11.2535],[76.535,11.0463],[76.4584,11.0218],[76.3899,11.0244],[76.3669,11.0398],[76.0419,11.4475],[75.7907,12.0448]]]}}