{"type":"Feature","properties":{"speciesId":1085,"category":"DD","source":"IUCN Red List","simplifyTol":0.01,"clippedToSubcontinent":true},"geometry":{"type":"Polygon","coordinates":[[[76.4885,10.4412],[76.4753,10.3347],[76.4305,10.2549],[76.1572,10.1859],[76.1229,10.3207],[76.0478,10.4918],[76.0639,10.4735],[76.0463,10.5317],[76.0266,10.5323],[75.9686,10.6564],[75.9113,10.799],[75.9104,10.7838],[75.8917,10.8689],[76.0289,10.9316],[76.145,10.9587],[76.2474,10.9583],[76.3327,10.9189],[76.3788,10.8715],[76.4177,10.7981],[76.4793,10.5588],[76.4837,10.5257],[76.4271,10.5135],[76.4018,10.4905],[76.4009,10.4658],[76.4885,10.4412]]]}}