{"type":"Feature","properties":{"speciesId":1086,"category":"LC","source":"IUCN Red List","simplifyTol":0.01,"clippedToSubcontinent":true},"geometry":{"type":"Polygon","coordinates":[[[76.4293,9.2563],[76.3337,9.7848],[76.2633,10.3939],[76.2733,10.5348],[76.2985,10.6204],[76.3186,10.6607],[76.4041,10.7362],[76.4645,10.7311],[76.545,10.6607],[76.6406,10.3335],[76.8167,10.0918],[76.872,9.9811],[76.9324,9.8402],[76.9777,9.6489],[76.9626,9.4274],[76.867,9.3318],[76.6154,9.2361],[76.5349,9.2261],[76.4293,9.2563]]]}}