{"type":"Feature","properties":{"speciesId":1093,"category":"LC","source":"IUCN Red List","simplifyTol":0.01,"clippedToSubcontinent":true},"geometry":{"type":"MultiPolygon","coordinates":[[[[94.1348,24.9719],[94.073,24.8331],[93.9946,24.7945],[93.943,24.8052],[93.8707,24.9009],[93.8471,24.9653],[93.8484,25.0544],[93.8806,25.1668],[94.0829,25.6958],[94.2579,26.0286],[94.3333,26.1196],[94.4168,26.1832],[94.5374,26.236],[94.6097,26.2286],[94.6596,26.1807],[94.6693,26.1049],[94.6584,26.0486],[94.603,25.9618],[94.3782,25.7506],[94.3033,25.642],[94.196,25.3534],[94.1348,24.9719]]],[[[96.1417,28.9682],[96.9828,28.8719],[97.2077,28.8248],[97.505,28.7242],[97.7049,28.6301],[98.0,28.4028],[98.0,28.028],[97.8512,28.0792],[97.522,28.1244],[97.1678,28.2047],[96.8898,28.2482],[96.6633,28.2637],[96.3148,28.2317],[96.1647,28.2378],[95.9366,28.2967],[95.8746,28.332],[95.8323,28.3787],[95.7846,28.5034],[95.7439,28.7842],[95.7479,28.8618],[95.7804,28.9064],[95.9405,28.9521],[96.1417,28.9682]]],[[[90.1971,27.0573],[90.2139,27.0386],[90.195,27.0217],[90.1782,27.0407],[90.1971,27.0573]]]]}}