{"type":"Feature","properties":{"speciesId":1095,"category":"LC","source":"IUCN Red List","simplifyTol":0.01,"clippedToSubcontinent":true},"geometry":{"type":"Polygon","coordinates":[[[95.6052,29.4521],[95.6396,29.4438],[95.6469,29.3471],[95.6959,29.2423],[95.9604,28.8507],[96.0775,28.5431],[96.122,28.4755],[96.2828,28.3284],[96.4093,28.2639],[96.5247,28.2505],[96.821,28.2652],[97.0281,28.2246],[97.0707,28.1724],[97.0661,28.0662],[97.0046,27.982],[96.8713,27.8751],[96.7688,27.7172],[96.6448,27.6123],[96.3974,27.4459],[96.0132,27.2536],[95.8627,27.1621],[95.6135,26.9508],[95.4689,26.7718],[95.2546,26.7306],[95.0921,26.6278],[95.0588,26.5824],[95.0422,26.5241],[95.0417,26.3553],[95.063,26.2101],[95.0159,26.1048],[94.8788,25.964],[94.5022,25.7075],[94.2987,25.5296],[94.0466,25.1937],[93.6601,24.5321],[93.5474,24.4248],[93.2183,24.1912],[93.2089,24.1564],[93.223,24.1114],[93.3857,23.8756],[93.4108,23.815],[93.4216,23.5974],[93.3523,23.4066],[93.368,23.1355],[93.3348,23.067],[93.2783,23.0214],[93.1091,23.0407],[93.16,22.9445],[93.0885,22.8327],[93.0835,22.7282],[93.103,22.6457],[93.1422,22.5703],[93.12,22.4877],[93.2018,22.3338],[93.215,22.2685],[93.1469,22.1864],[93.051,22.1757],[93.0057,22.0595],[92.9151,22.0024],[92.8794,22.0114],[92.8119,22.0896],[92.6943,22.1738],[92.6799,22.1572],[92.6729,22.0209],[92.6094,21.9968],[92.5689,22.0087],[92.5932,22.1778],[92.5769,22.2677],[92.3099,22.845],[92.2195,23.1117],[92.1501,23.7177],[92.1428,23.9519],[92.1035,24.0532],[92.0235,24.0887],[91.7839,24.0966],[91.5089,24.1361],[90.8556,24.2643],[90.2865,24.452],[90.0793,24.5449],[89.9032,24.6458],[89.5846,24.8954],[89.2461,25.244],[88.9138,25.5516],[88.8594,25.6718],[88.8864,25.7966],[88.748,25.9597],[88.6568,26.1269],[88.6433,26.2128],[88.6666,26.2846],[88.7383,26.3729],[88.8437,26.4546],[88.9672,26.5157],[89.0495,26.5241],[89.0954,26.4655],[89.1708,26.1937],[89.2171,26.1475],[89.3088,26.0982],[89.4093,26.0699],[89.4886,26.0734],[89.5457,26.1104],[89.6732,26.2386],[89.7045,26.2526],[89.7289,26.2449],[89.7677,26.1652],[89.8298,25.8846],[89.8508,25.8439],[89.875,25.8323],[90.0658,25.9977],[90.1817,26.0443],[90.3249,26.0742],[90.4801,26.0821],[90.8224,26.0089],[91.0519,26.0061],[91.394,26.0599],[91.6625,26.1837],[91.7635,26.2123],[92.2011,26.1704],[92.3896,26.1757],[92.545,26.1996],[92.7246,26.2734],[92.9797,26.4903],[93.0838,26.5578],[93.3754,26.6712],[93.5666,26.699],[93.6681,26.6596],[93.7484,26.5383],[93.8164,26.277],[93.7711,26.0504],[93.7728,25.9804],[93.8413,25.8964],[93.9411,25.8476],[93.9717,25.897],[93.9895,26.1524],[94.0234,26.2573],[94.1407,26.4464],[94.3098,26.631],[94.4625,26.7301],[94.8916,26.9185],[95.1279,27.1155],[95.2176,27.1687],[95.3583,27.2138],[95.7696,27.2922],[96.1861,27.4782],[96.288,27.5732],[96.3453,27.7114],[96.3622,27.8676],[96.3469,27.9168],[96.314,27.949],[96.0168,28.0399],[95.7629,28.2238],[95.7004,28.2345],[95.6274,28.2185],[95.3347,28.0417],[95.0765,27.8302],[94.9591,27.7559],[94.7928,27.6933],[94.3914,27.5925],[94.2224,27.5168],[94.1082,27.4228],[93.8517,27.1311],[93.6668,26.9786],[93.5419,26.9244],[93.4386,26.9265],[93.186,26.9802],[93.0226,26.9781],[92.4471,26.8834],[92.0618,26.8727],[91.795,26.7805],[91.5902,26.7553],[91.2057,26.7611],[90.7694,26.7368],[90.6401,26.7612],[90.5139,26.8279],[90.4587,26.8389],[90.0817,26.6998],[89.9153,26.6698],[89.6638,26.7118],[89.3031,26.8541],[89.0099,26.8254],[88.63,26.8489],[88.4759,26.8113],[88.1357,26.6252],[87.9796,26.5929],[87.7611,26.5731],[86.8606,26.6114],[86.5046,26.6486],[86.0377,26.7364],[85.6483,26.8809],[85.3772,26.8838],[85.2307,26.9097],[85.1768,26.9338],[85.0816,27.0306],[85.0104,27.0111],[84.9554,27.0367],[84.823,27.1786],[84.7382,27.2954],[84.6273,27.3865],[84.5244,27.4376],[84.2944,27.4817],[84.1913,27.5373],[84.1594,27.6016],[84.1579,27.6842],[84.1792,27.7571],[84.228,27.8372],[84.2944,27.9037],[84.5059,28.0029],[84.6408,28.0466],[84.7563,28.0613],[84.8149,28.1062],[84.8567,28.1139],[85.177,28.1003],[85.4642,28.0484],[86.2765,27.8195],[86.7274,27.6758],[86.981,27.6164],[87.4797,27.555],[87.9963,27.5339],[88.4753,27.4319],[88.7398,27.4437],[88.7957,27.4162],[88.8759,27.2977],[88.9098,27.2741],[88.9776,27.3208],[89.0108,27.4228],[89.0479,27.4411],[89.4293,27.4344],[89.8514,27.465],[90.2852,27.4416],[90.898,27.4743],[91.3,27.4522],[91.6707,27.4574],[91.8817,27.4313],[91.9918,27.4397],[92.1488,27.4813],[92.4063,27.5977],[92.9934,27.9139],[93.3009,28.1425],[93.5054,28.2496],[93.5858,28.3304],[93.7536,28.5865],[93.9046,28.727],[94.0197,28.8079],[94.1508,28.856],[94.6587,28.9263],[94.8141,28.9751],[94.9633,29.0778],[95.2231,29.3592],[95.3722,29.4666],[95.4063,29.5205],[95.4481,29.55],[95.4964,29.5571],[95.5426,29.5413],[95.6052,29.4521]]]}}