{"type":"Feature","properties":{"speciesId":1096,"category":"LC","source":"IUCN Red List","simplifyTol":0.01,"clippedToSubcontinent":true},"geometry":{"type":"MultiPolygon","coordinates":[[[[92.5423,23.4782],[92.5457,23.4185],[92.505,23.3699],[92.4306,23.3558],[92.3689,23.3843],[92.3631,23.4806],[92.4067,23.5343],[92.4871,23.5349],[92.5423,23.4782]]],[[[92.6814,25.3972],[92.6451,25.3633],[92.5656,25.3746],[92.5428,25.4031],[92.5415,25.4478],[92.5829,25.4766],[92.6492,25.4802],[92.6807,25.4545],[92.6814,25.3972]]],[[[94.2932,26.029],[94.1987,26.0235],[93.9922,26.075],[93.7085,26.1934],[93.3132,26.3297],[93.1188,26.4565],[92.8832,26.6571],[92.6004,26.778],[92.3789,26.9092],[92.29,26.9998],[92.2922,27.0503],[92.3663,27.131],[92.6075,27.1417],[92.6771,27.1639],[92.7787,27.2261],[92.9104,27.3524],[92.9805,27.3956],[93.2982,27.5145],[93.5717,27.5732],[93.8265,27.5734],[94.145,27.4613],[94.2591,27.4411],[94.5281,27.4587],[94.9933,27.5313],[95.5135,27.5496],[95.6289,27.5386],[95.7533,27.4829],[95.7763,27.4258],[95.7733,27.345],[95.7074,27.1919],[95.6728,27.0567],[95.6092,26.9626],[95.5241,26.9156],[95.396,26.9383],[95.2565,26.9397],[95.0968,26.9179],[95.0029,26.8802],[94.9506,26.8212],[94.8725,26.6533],[94.8209,26.5803],[94.4512,26.212],[94.3666,26.0709],[94.2932,26.029]]],[[[90.5291,27.3928],[90.5459,27.3741],[90.527,27.3572],[90.5103,27.3762],[90.5291,27.3928]]],[[[96.5968,27.4277],[96.5658,27.3969],[96.5134,27.3998],[96.4803,27.4201],[96.4713,27.4566],[96.4986,27.492],[96.5526,27.4989],[96.5902,27.4719],[96.5968,27.4277]]],[[[95.0512,28.4546],[94.9867,28.4709],[94.9539,28.5452],[94.9682,28.5895],[95.0204,28.6147],[95.0939,28.6008],[95.1237,28.5585],[95.1124,28.4925],[95.0512,28.4546]]]]}}