{"type":"Feature","properties":{"speciesId":11,"category":"EN","source":"IUCN Red List","simplifyTol":0.01,"clippedToSubcontinent":true},"geometry":{"type":"MultiPolygon","coordinates":[[[[77.4878,8.3108],[77.4242,8.4039],[77.3703,8.4235],[77.3654,8.4676],[77.3239,8.5095],[77.1254,8.6096],[77.1058,8.7272],[77.0764,8.7663],[76.9441,8.8055],[76.9301,8.9063],[76.9637,8.9378],[77.0862,8.9672],[77.2184,8.928],[77.2919,8.8888],[77.2913,8.7257],[77.3062,8.6664],[77.4291,8.6243],[77.4732,8.5949],[77.4829,8.5704],[77.4976,8.492],[77.4829,8.4235],[77.5123,8.399],[77.5123,8.3353],[77.4878,8.3108]]],[[[77.3776,9.312],[77.3478,9.3244],[77.3354,9.3542],[77.3478,9.3841],[77.3776,9.3964],[77.4074,9.3841],[77.4198,9.3542],[77.4074,9.3244],[77.3776,9.312]]]]}}