{"type":"Feature","properties":{"speciesId":110,"category":"EN","source":"IUCN Red List","simplifyTol":0.01,"clippedToSubcontinent":true},"geometry":{"type":"Polygon","coordinates":[[[74.3907,14.9689],[74.5378,14.8654],[74.723,14.7837],[74.7884,14.7075],[74.7939,14.5222],[74.7448,14.4623],[74.3689,14.4841],[74.3468,14.5185],[74.3089,14.5241],[74.2927,14.6584],[74.258,14.7079],[74.2647,14.7201],[74.2582,14.7122],[74.2215,14.7472],[74.199,14.73],[74.1347,14.7773],[74.1183,14.8709],[74.0475,14.9145],[74.0487,14.9568],[74.0298,14.9815],[74.0476,14.9848],[74.0325,14.9861],[73.9985,15.0398],[74.0911,15.0725],[74.2382,15.0452],[74.3907,14.9689]]]}}