{"type":"Feature","properties":{"speciesId":112,"category":"NT","source":"IUCN Red List","simplifyTol":0.01,"clippedToSubcontinent":true},"geometry":{"type":"Polygon","coordinates":[[[74.8878,15.0143],[74.9015,14.808],[74.7778,14.643],[74.7503,14.1754],[74.6678,13.9829],[74.7915,13.8729],[75.0253,13.7767],[75.0941,13.6391],[75.2041,13.4741],[75.1491,13.3229],[75.1903,13.1028],[75.3828,13.0753],[75.6716,12.8553],[75.8091,12.6215],[75.6579,12.4703],[75.4241,12.594],[75.1628,12.9241],[75.0941,13.0753],[75.0116,13.4466],[74.984,13.6529],[74.8603,13.7217],[74.6815,13.9004],[74.6265,14.0379],[74.6403,14.2167],[74.6403,14.753],[74.5715,15.1105],[74.489,15.2756],[74.5303,15.3031],[74.5028,15.3031],[74.6678,15.3168],[74.8878,15.0143]]]}}