{"type":"Feature","properties":{"speciesId":113,"category":"VU","source":"IUCN Red List","simplifyTol":0.01,"clippedToSubcontinent":true},"geometry":{"type":"Polygon","coordinates":[[[76.3856,11.5888],[76.6557,11.5579],[76.6943,11.5193],[76.7638,11.5116],[76.9181,11.5309],[77.0184,11.4576],[76.949,11.3534],[76.8641,11.3379],[76.8139,11.3071],[76.8216,11.1682],[76.8602,11.1604],[76.8872,11.1874],[76.9027,11.2453],[76.949,11.2646],[76.9876,11.2376],[77.003,11.1604],[76.9837,11.0254],[76.9297,10.9482],[76.8409,10.9096],[76.7599,10.8324],[76.6827,10.8672],[76.5785,10.871],[76.5322,10.9019],[76.5592,10.9752],[76.5554,11.0331],[76.3972,11.0833],[76.3702,11.1257],[76.3586,11.1874],[76.374,11.253],[76.4203,11.3186],[76.4203,11.3688],[76.3393,11.4537],[76.1772,11.5656],[75.8685,11.9515],[75.7991,12.156],[75.6563,12.4454],[75.6679,12.5766],[75.691,12.5921],[75.7682,12.5959],[75.8338,12.5612],[75.8994,12.3914],[75.9032,12.2872],[75.9534,12.0364],[76.019,11.9592],[76.0615,11.8782],[76.2081,11.7122],[76.3856,11.5888]]]}}