{"type":"Feature","properties":{"speciesId":114,"category":"VU","source":"IUCN Red List","simplifyTol":0.01,"clippedToSubcontinent":true},"geometry":{"type":"Polygon","coordinates":[[[74.3638,15.5416],[74.5991,15.5292],[74.7601,15.4301],[74.8592,15.232],[74.8592,15.1081],[74.7725,14.7366],[75.0202,13.9563],[75.1317,13.8077],[75.2308,13.7458],[75.2927,13.5352],[75.2927,13.3247],[75.206,13.2504],[75.0945,13.2627],[75.0202,13.3494],[74.9831,13.5352],[74.9088,13.6219],[74.8344,13.8325],[74.7725,13.9068],[74.6858,14.1049],[74.6734,14.2412],[74.5991,14.3526],[74.5991,14.4765],[74.5124,14.6747],[74.2276,15.0834],[74.2276,15.2444],[74.2028,15.3682],[74.1037,15.4921],[74.0294,15.6778],[73.9179,15.8636],[73.8312,16.0742],[73.7817,16.2971],[73.7446,16.5696],[73.6826,16.7801],[73.6331,17.1145],[73.6455,17.3003],[73.6083,17.5356],[73.6083,17.6966],[73.5216,17.7833],[73.4968,17.8452],[73.4968,17.9691],[73.5835,18.0186],[73.6579,18.031],[73.7569,17.9815],[73.8808,17.6471],[73.9303,17.387],[73.9179,17.0774],[74.0418,16.3219],[74.24,15.6655],[74.3638,15.5416]]]}}