{"type":"Feature","properties":{"speciesId":120,"category":"DD","source":"IUCN Red List","simplifyTol":0.01,"clippedToSubcontinent":true},"geometry":{"type":"MultiPolygon","coordinates":[[[[77.2988,8.8835],[77.2959,8.7757],[77.3192,8.7117],[77.3076,8.6942],[77.2726,8.7],[77.2901,8.636],[77.2319,8.5923],[77.1241,8.7262],[77.1008,8.7146],[77.0833,8.7816],[77.159,8.7757],[77.1707,8.7874],[77.1095,8.8456],[77.1183,8.8689],[77.1649,8.8748],[77.194,8.8485],[77.2348,8.8485],[77.1882,8.9097],[77.2289,8.9155],[77.261,8.8893],[77.2988,8.8835]]],[[[76.2339,11.2121],[76.1697,11.2281],[76.0734,11.3324],[76.0734,11.4126],[76.0093,11.573],[76.0494,11.6372],[76.2659,11.6533],[76.3542,11.6853],[76.4424,11.6853],[76.4986,11.6613],[76.5387,11.6212],[76.5387,11.541],[76.5708,11.5009],[76.5708,11.4126],[76.4344,11.3645],[76.3141,11.3003],[76.298,11.2361],[76.2339,11.2121]]]]}}