{"type":"Feature","properties":{"speciesId":123,"category":"DD","source":"IUCN Red List","simplifyTol":0.01,"clippedToSubcontinent":true},"geometry":{"type":"Polygon","coordinates":[[[76.205,11.5049],[76.1793,11.4471],[76.2178,11.3765],[76.1472,11.3508],[76.1472,11.2995],[76.0895,11.3252],[76.0445,11.4279],[76.0574,11.4664],[76.0125,11.5241],[75.9226,11.5113],[75.8777,11.6268],[75.8392,11.646],[75.7879,11.8386],[75.9162,11.845],[76.0317,11.8193],[76.0702,11.7936],[76.1472,11.7231],[76.1408,11.646],[76.2114,11.5241],[76.1857,11.5241],[76.205,11.5049]]]}}