{"type":"Feature","properties":{"speciesId":124,"category":"LC","source":"IUCN Red List","simplifyTol":0.01,"clippedToSubcontinent":true},"geometry":{"type":"Polygon","coordinates":[[[76.8113,12.1311],[76.5896,12.1441],[76.4853,12.2137],[76.4244,12.3701],[76.5201,12.4875],[76.733,12.5657],[76.9764,12.6135],[77.2415,12.7309],[77.3502,12.8656],[77.4524,13.0285],[77.5244,13.0717],[77.6972,13.0717],[77.7764,13.0501],[77.8483,12.9493],[77.8843,12.8126],[77.7907,12.611],[77.6828,12.5175],[77.546,12.4383],[77.2241,12.3267],[76.9895,12.1789],[76.8113,12.1311]]]}}