{"type":"Feature","properties":{"speciesId":13,"category":"NT","source":"IUCN Red List","simplifyTol":0.01,"clippedToSubcontinent":true},"geometry":{"type":"MultiPolygon","coordinates":[[[[77.3178,8.6533],[77.3642,8.6533],[77.4199,8.6068],[77.4988,8.5743],[77.4709,8.5279],[77.4988,8.5001],[77.5127,8.4258],[77.5545,8.3933],[77.4895,8.3005],[77.4199,8.4026],[77.3596,8.4537],[77.2203,8.4815],[77.1785,8.5094],[77.1785,8.6068],[77.146,8.6997],[77.1693,8.8064],[77.2203,8.8436],[77.2528,8.8946],[77.2946,8.8714],[77.2853,8.8203],[77.3178,8.7229],[77.2899,8.7136],[77.3178,8.6533]]],[[[76.9511,10.4263],[77.146,10.431],[77.1878,10.4124],[77.1971,10.2824],[77.2667,10.2917],[77.2853,10.3381],[77.3642,10.366],[77.4385,10.3521],[77.5127,10.3613],[77.5963,10.3799],[77.6241,10.4124],[77.7959,10.3845],[77.7959,10.3474],[77.768,10.2964],[77.6613,10.2731],[77.4895,10.1571],[77.3549,10.0921],[77.3271,10.0921],[77.2992,9.9854],[77.2296,9.8925],[77.276,9.8415],[77.2667,9.7301],[77.2249,9.6605],[77.2157,9.614],[77.276,9.6048],[77.341,9.6744],[77.3549,9.7579],[77.4199,9.7626],[77.4895,9.7022],[77.4709,9.433],[77.3735,9.3588],[77.3131,9.2752],[77.2899,9.1592],[77.2389,9.1313],[77.1368,9.2056],[77.1043,9.2706],[77.1182,9.3448],[77.0857,9.4423],[77.1043,9.5398],[77.0718,9.6697],[77.0811,9.8833],[76.9882,9.9622],[76.9325,10.1293],[76.9325,10.1803],[76.8722,10.2082],[76.8676,10.2639],[76.7329,10.2731],[76.6494,10.3567],[76.6216,10.3196],[76.5751,10.3474],[76.5566,10.4077],[76.5612,10.4449],[76.6076,10.4913],[76.7005,10.5563],[76.7654,10.5656],[76.8211,10.5424],[76.9511,10.4263]]]]}}