{"type":"Feature","properties":{"speciesId":130,"category":"NT","source":"IUCN Red List","simplifyTol":0.01,"clippedToSubcontinent":true},"geometry":{"type":"Polygon","coordinates":[[[76.8124,11.532],[76.932,11.5566],[76.9768,11.4592],[76.9801,11.335],[76.9546,11.2773],[76.7883,11.2208],[76.7772,11.1931],[76.7916,11.1687],[76.8553,11.1178],[76.8522,11.0748],[76.8216,11.0442],[76.5239,11.0902],[76.3348,11.0899],[76.2672,11.1265],[76.2572,11.1908],[76.2727,11.233],[76.3348,11.2906],[76.3368,11.4308],[76.3552,11.4461],[76.4073,11.4584],[76.6006,11.578],[76.8124,11.532]]]}}