{"type":"Feature","properties":{"speciesId":135,"category":"LC","source":"IUCN Red List","simplifyTol":0.01,"clippedToSubcontinent":true},"geometry":{"type":"MultiPolygon","coordinates":[[[[93.6379,8.391],[93.6287,8.3867],[93.6256,8.3915],[93.6379,8.391]]],[[[93.0391,8.441],[93.0237,8.4516],[93.0301,8.471],[93.0422,8.4652],[93.0391,8.441]]],[[[93.6249,8.4658],[93.6118,8.4665],[93.6052,8.4193],[93.5951,8.5693],[93.6249,8.4658]]],[[[92.8519,8.8165],[92.8485,8.8282],[92.8608,8.8389],[92.8607,8.8302],[92.8519,8.8165]]],[[[93.0827,8.3384],[93.1143,8.3577],[93.1273,8.3494],[93.1148,8.275],[93.1821,8.2281],[93.1834,8.201],[93.1364,8.2118],[93.0894,8.2477],[93.0722,8.3017],[93.0827,8.3384]]],[[[93.221,8.2279],[93.1996,8.2409],[93.2058,8.2633],[93.2216,8.2491],[93.221,8.2279]]],[[[93.558,8.1157],[93.5817,8.1185],[93.5921,8.0386],[93.5698,8.0591],[93.5712,8.0722],[93.5845,8.0634],[93.5689,8.0914],[93.5767,8.112],[93.558,8.1157]]],[[[93.3268,8.0],[93.3713,8.0189],[93.4037,8.0049],[93.4055,7.9631],[93.4593,7.9299],[93.4641,7.8666],[93.4193,7.899],[93.382,7.8756],[93.3489,7.8891],[93.3489,7.9229],[93.3617,7.9295],[93.3457,7.943],[93.3299,7.9121],[93.3126,7.9455],[93.3268,8.0]]],[[[93.5263,8.0229],[93.5415,7.9984],[93.5413,8.0197],[93.5585,8.0212],[93.5755,7.9936],[93.5728,7.9256],[93.5072,7.98],[93.5263,8.0229]]],[[[93.5349,8.1763],[93.513,8.1811],[93.4996,8.1446],[93.5464,8.0824],[93.5445,8.0392],[93.5269,8.0471],[93.5052,8.0296],[93.4994,7.9924],[93.484,8.0109],[93.4839,8.0886],[93.4623,8.1053],[93.4713,8.1206],[93.4564,8.1165],[93.4513,8.1697],[93.4878,8.1987],[93.4908,8.2198],[93.5188,8.2298],[93.5382,8.2269],[93.5435,8.2092],[93.5349,8.1763]]],[[[92.7668,9.2593],[92.8118,9.2036],[92.8221,9.1389],[92.7964,9.1204],[92.768,9.1213],[92.7825,9.1266],[92.7737,9.1384],[92.7278,9.1193],[92.7115,9.1515],[92.7122,9.2109],[92.7605,9.2171],[92.7668,9.2593]]],[[[92.244,10.9779],[92.2173,10.9743],[92.2292,10.9837],[92.244,10.9779]]],[[[92.6153,10.9263],[92.6257,10.9272],[92.6253,10.9226],[92.6153,10.9263]]],[[[92.6836,11.1852],[92.6905,11.1738],[92.6797,11.1812],[92.6836,11.1852]]],[[[92.6794,10.9812],[92.6691,10.9785],[92.6706,10.9868],[92.6794,10.9812]]],[[[92.457,10.8704],[92.5064,10.8952],[92.5439,10.8619],[92.5491,10.8035],[92.5764,10.7793],[92.5689,10.7433],[92.5828,10.7018],[92.5793,10.6721],[92.5594,10.6676],[92.5655,10.6512],[92.5231,10.6121],[92.5228,10.5895],[92.5511,10.5747],[92.5103,10.5126],[92.4776,10.5082],[92.4121,10.5461],[92.3769,10.5278],[92.3593,10.5358],[92.4001,10.6138],[92.3897,10.6486],[92.3643,10.6684],[92.36,10.7812],[92.3972,10.7866],[92.457,10.8704]]],[[[92.2173,11.5828],[92.2786,11.5755],[92.2843,11.5171],[92.23,11.5263],[92.2173,11.5828]]],[[[92.7064,11.2431],[92.7047,11.2811],[92.7183,11.2893],[92.718,11.261],[92.7064,11.2431]]],[[[92.7326,11.3128],[92.7304,11.3194],[92.733,11.3199],[92.7326,11.3128]]],[[[92.6285,11.4809],[92.6472,11.5116],[92.6874,11.4719],[92.6961,11.4248],[92.6624,11.4038],[92.7013,11.3901],[92.7041,11.3741],[92.6781,11.3536],[92.6151,11.3453],[92.5992,11.3593],[92.6072,11.3984],[92.6359,11.4002],[92.6285,11.4809]]],[[[92.6146,11.5659],[92.625,11.5837],[92.6263,11.5608],[92.6146,11.5659]]],[[[92.5443,11.5977],[92.5802,11.5851],[92.5413,11.5502],[92.5476,11.5651],[92.5443,11.5977]]],[[[92.6173,11.5249],[92.6127,11.5205],[92.6158,11.5313],[92.6173,11.5249]]],[[[92.562,11.5284],[92.5782,11.522],[92.5744,11.5125],[92.562,11.5284]]],[[[92.618,11.5539],[92.6314,11.5518],[92.6268,11.5308],[92.6207,11.5342],[92.618,11.5539]]],[[[92.5951,11.5448],[92.6014,11.5723],[92.607,11.5278],[92.5951,11.5448]]],[[[92.6142,11.908],[92.6079,11.9095],[92.615,11.9156],[92.6142,11.908]]],[[[92.7737,11.6698],[92.7687,11.6757],[92.7773,11.6786],[92.7737,11.6698]]],[[[93.0987,11.7832],[93.0878,11.778],[93.0876,11.7866],[93.0987,11.7832]]],[[[93.0223,11.8469],[93.0397,11.8384],[93.0827,11.8367],[93.0682,11.8095],[93.0214,11.8266],[93.0223,11.8469]]],[[[92.6142,11.9227],[92.6001,11.9685],[92.6022,11.9718],[92.6155,11.9568],[92.6142,11.9227]]],[[[93.0551,13.6184],[93.0547,13.6402],[93.0745,13.6552],[93.0639,13.6426],[93.0551,13.6184]]],[[[93.0425,13.6389],[93.0445,13.6493],[93.0461,13.6383],[93.0425,13.6389]]],[[[92.9851,13.6614],[93.0262,13.6789],[93.0378,13.6266],[93.018,13.6466],[92.9938,13.6427],[92.9851,13.6614]]],[[[93.2295,13.9736],[93.226,13.9869],[93.228,14.0164],[93.2383,13.9825],[93.2295,13.9736]]],[[[93.3614,14.1459],[93.3851,14.1488],[93.3734,14.0615],[93.3614,14.077],[93.3614,14.1459]]],[[[93.3777,14.1912],[93.3641,14.1886],[93.3667,14.1916],[93.3777,14.1912]]],[[[92.7387,11.9356],[92.7362,11.9478],[92.7436,11.9543],[92.7387,11.9356]]],[[[92.7595,11.9398],[92.7483,11.953],[92.7713,11.9617],[92.7741,11.949],[92.7595,11.9398]]],[[[92.7656,11.9855],[92.7473,11.9726],[92.7453,11.9802],[92.7656,11.9855]]],[[[92.7712,11.9948],[92.7765,12.0055],[92.7799,11.991],[92.7712,11.9948]]],[[[92.8699,12.2417],[92.8771,12.2441],[92.8758,12.2344],[92.8699,12.2417]]],[[[92.8811,12.2404],[92.8957,12.2347],[92.9118,12.2512],[92.9212,12.2203],[92.8974,12.2276],[92.8875,12.2058],[92.8811,12.2404]]],[[[93.8464,12.2638],[93.8552,12.2818],[93.8543,12.2513],[93.8464,12.2638]]],[[[92.9494,12.2223],[92.9488,12.1917],[92.9441,12.2218],[92.9494,12.2223]]],[[[93.0715,12.224],[93.087,12.2557],[93.095,12.2331],[93.1132,12.2517],[93.1097,12.2038],[93.1008,12.2209],[93.0715,12.224]]],[[[92.9443,12.3033],[92.9511,12.2681],[92.9318,12.2282],[92.9315,12.2658],[92.9111,12.2724],[92.9162,12.2872],[92.9385,12.2811],[92.9443,12.3033]]],[[[93.1274,12.1239],[93.1209,12.1379],[93.1316,12.1435],[93.1332,12.1336],[93.1274,12.1239]]],[[[92.9398,11.9954],[92.9734,12.0447],[93.0139,12.0238],[93.0617,11.8875],[93.041,11.8807],[93.0067,11.9381],[93.0172,11.9428],[92.987,11.9429],[92.9709,11.976],[92.9398,11.9954]]],[[[92.9649,12.0961],[92.9562,12.0859],[92.9584,12.1064],[92.9649,12.0961]]],[[[92.9712,12.1459],[92.9962,12.141],[93.0088,12.1154],[92.9766,12.1138],[92.9712,12.1459]]],[[[92.9711,12.0999],[93.012,12.1021],[93.0059,12.0424],[92.9723,12.0691],[92.9842,12.0892],[92.9711,12.0999]]],[[[93.0531,12.0439],[93.0199,12.0787],[93.0136,12.1251],[93.0371,12.1643],[93.0437,12.0958],[93.0594,12.0767],[93.0531,12.0439]]],[[[93.0959,12.1868],[93.0986,12.095],[93.0803,12.0828],[93.0465,12.1297],[93.0765,12.2052],[93.0959,12.1868]]],[[[92.6825,12.5357],[92.6943,12.5319],[92.6899,12.5157],[92.6806,12.5209],[92.6825,12.5357]]],[[[93.0381,12.2726],[93.0289,12.2743],[93.0371,12.2788],[93.0381,12.2726]]],[[[92.9286,12.3495],[92.9171,12.3404],[92.9253,12.3532],[92.9286,12.3495]]],[[[92.9665,12.4313],[92.9453,12.3613],[92.9268,12.3624],[92.9378,12.4086],[92.9665,12.4313]]],[[[93.0176,13.5421],[93.0372,13.5732],[93.0527,13.521],[93.0313,13.4264],[93.0571,13.3998],[93.071,13.4117],[93.0776,13.3959],[93.0571,13.3699],[93.068,13.3762],[93.0973,13.3308],[93.0743,13.2994],[93.0674,13.3212],[93.0493,13.3208],[93.0551,13.3434],[93.0489,13.3622],[93.0492,13.3458],[93.0125,13.3479],[92.997,13.3327],[93.0011,13.3111],[93.0174,13.3157],[93.0297,13.2917],[93.0187,13.2773],[93.0525,13.2773],[93.0538,13.2552],[93.0699,13.2607],[93.0423,13.1752],[93.0427,13.0787],[93.0156,13.0284],[92.9744,13.0348],[92.9736,13.0111],[92.9476,13.0372],[92.9494,13.0607],[92.9259,13.0594],[92.9073,13.0177],[92.9283,12.9817],[92.943,12.9856],[92.9417,12.9625],[92.9166,12.947],[92.9054,12.9924],[92.8816,12.9386],[92.8633,12.9354],[92.861,12.9163],[92.8832,12.9081],[92.8818,12.8933],[92.9044,12.8971],[92.9053,12.9217],[92.9301,12.9108],[92.9119,12.8845],[92.9347,12.8837],[92.9546,12.8349],[92.9607,12.8039],[92.9439,12.7715],[92.9701,12.7532],[92.9867,12.7118],[92.972,12.7042],[92.963,12.6164],[92.9835,12.5448],[92.9782,12.4943],[92.9701,12.4848],[92.9547,12.4977],[92.9416,12.4653],[92.9618,12.4753],[92.9644,12.4644],[92.9267,12.4451],[92.9264,12.4034],[92.8901,12.3769],[92.8818,12.3519],[92.8989,12.3484],[92.9081,12.329],[92.8886,12.3331],[92.9085,12.3179],[92.8681,12.3119],[92.8931,12.2807],[92.8963,12.2556],[92.8666,12.2446],[92.8891,12.1885],[92.8597,12.2014],[92.8575,12.1639],[92.8281,12.1586],[92.8124,12.1299],[92.8178,12.1007],[92.8049,12.1042],[92.8001,12.0811],[92.77,12.0633],[92.7686,12.0479],[92.793,12.0402],[92.7888,12.0238],[92.7489,12.035],[92.7412,12.0183],[92.7649,11.997],[92.7344,11.9874],[92.7453,11.964],[92.7282,11.9525],[92.7249,11.9246],[92.7887,11.9361],[92.7999,11.8769],[92.7702,11.7022],[92.7534,11.7164],[92.7444,11.6818],[92.7675,11.666],[92.764,11.6181],[92.7214,11.4793],[92.7099,11.5102],[92.6837,11.5027],[92.6599,11.5182],[92.6571,11.578],[92.6411,11.5863],[92.6339,11.5639],[92.6201,11.615],[92.6512,11.6092],[92.6588,11.6434],[92.6494,11.6366],[92.6455,11.6596],[92.6397,11.6289],[92.6222,11.6329],[92.5993,11.7157],[92.5723,11.6971],[92.5571,11.8291],[92.5342,11.8264],[92.526,11.8449],[92.5374,11.89],[92.5741,11.9336],[92.6025,11.8786],[92.6244,11.9202],[92.6201,12.0029],[92.6383,12.0382],[92.6309,12.0922],[92.6529,12.1793],[92.6696,12.2162],[92.662,12.1797],[92.6836,12.2184],[92.6872,12.1956],[92.7243,12.307],[92.7085,12.3296],[92.7149,12.4894],[92.7026,12.5079],[92.7174,12.5638],[92.6939,12.5977],[92.7153,12.6075],[92.7252,12.6362],[92.7287,12.6197],[92.7426,12.6302],[92.756,12.6641],[92.7359,12.6873],[92.7531,12.6944],[92.7429,12.7012],[92.7549,12.7161],[92.7403,12.7338],[92.7318,12.8278],[92.7466,12.8117],[92.7462,12.8333],[92.7534,12.8242],[92.7711,12.8597],[92.7846,12.8392],[92.7786,12.8607],[92.7997,12.8622],[92.816,12.8983],[92.8015,12.9766],[92.8071,12.9891],[92.8246,12.9816],[92.8106,12.9954],[92.8338,13.0086],[92.7973,13.0152],[92.8049,13.089],[92.8178,13.0731],[92.8121,13.0953],[92.8299,13.0949],[92.8173,13.1249],[92.8489,13.1246],[92.8524,13.1401],[92.8196,13.1521],[92.8222,13.1689],[92.8417,13.1687],[92.8251,13.1786],[92.8337,13.2316],[92.8585,13.2366],[92.8296,13.2811],[92.8474,13.2968],[92.8321,13.3037],[92.8402,13.3567],[92.8737,13.38],[92.8487,13.3959],[92.8746,13.3986],[92.8906,13.4258],[92.8836,13.4678],[92.9314,13.494],[92.9209,13.5042],[92.9334,13.5173],[92.9194,13.5235],[92.9711,13.5387],[92.9934,13.5246],[92.9952,13.5646],[93.0176,13.5421]]],[[[92.7339,12.8589],[92.7145,12.837],[92.7335,12.8663],[92.7339,12.8589]]],[[[92.7223,12.778],[92.7319,12.7436],[92.7257,12.7518],[92.7218,12.7167],[92.7034,12.7966],[92.7203,12.8309],[92.7223,12.778]]],[[[92.7289,12.7694],[92.7323,12.7769],[92.7319,12.7664],[92.7289,12.7694]]],[[[92.7062,13.0979],[92.7339,13.0992],[92.7139,13.0672],[92.707,13.0774],[92.7062,13.0979]]],[[[92.7636,12.8946],[92.7568,12.8924],[92.764,12.9096],[92.7636,12.8946]]],[[[92.6943,12.9877],[92.7166,12.9915],[92.7288,12.9772],[92.729,12.9017],[92.7056,12.841],[92.6846,12.8347],[92.6958,12.8199],[92.6783,12.7863],[92.6596,12.8588],[92.6862,12.9395],[92.6758,12.9594],[92.6943,12.9877]]],[[[92.7835,12.9089],[92.7977,12.9149],[92.8069,12.8977],[92.7941,12.8911],[92.7835,12.9089]]],[[[92.7792,12.9305],[92.7841,12.9289],[92.7819,12.9213],[92.7792,12.9305]]],[[[93.0326,13.3235],[93.0246,13.3064],[93.0272,13.327],[93.0326,13.3235]]],[[[92.8168,13.3987],[92.8227,13.411],[92.8196,13.3983],[92.8168,13.3987]]],[[[93.0957,13.4058],[93.0991,13.4149],[93.0996,13.4013],[93.0957,13.4058]]],[[[93.1145,13.4247],[93.1044,13.4276],[93.1067,13.4318],[93.1145,13.4247]]],[[[92.8481,13.4236],[92.8281,13.4276],[92.8483,13.4385],[92.8481,13.4236]]],[[[93.0766,13.4155],[93.0826,13.4199],[93.0809,13.4061],[93.0766,13.4155]]],[[[92.8819,13.5064],[92.8751,13.5026],[92.8783,13.5107],[92.8819,13.5064]]],[[[92.8928,13.5729],[92.8977,13.5906],[92.9091,13.5982],[92.9088,13.5906],[92.8928,13.5729]]],[[[92.868,12.9339],[92.8927,12.9321],[92.8974,12.9269],[92.88,12.9174],[92.868,12.9339]]],[[[92.9568,12.9404],[92.9756,12.9411],[92.9571,12.9376],[92.9568,12.9404]]],[[[92.9874,12.9643],[92.986,12.9332],[92.9602,12.9777],[92.9697,12.9873],[92.9796,12.9702],[93.0111,12.9971],[92.9874,12.9643]]],[[[92.9311,13.0277],[92.9448,13.0226],[92.948,12.9944],[92.927,13.0044],[92.9311,13.0277]]],[[[95.1651,5.5484],[95.1456,5.5516],[95.1662,5.5611],[95.1651,5.5484]]],[[[95.047,5.633],[95.0675,5.6397],[95.0797,5.6371],[95.0535,5.6194],[95.047,5.633]]],[[[95.1349,5.6565],[95.1864,5.6057],[95.1213,5.5914],[95.1149,5.6165],[95.139,5.6369],[95.1349,5.6565]]],[[[95.0293,5.7484],[95.0694,5.7448],[95.0764,5.722],[95.1219,5.6951],[95.1341,5.663],[95.0728,5.6668],[95.0462,5.6464],[95.0602,5.6681],[95.0418,5.6688],[95.0586,5.6868],[95.0399,5.7078],[95.0581,5.7165],[95.0456,5.7323],[95.0093,5.725],[95.0293,5.7484]]],[[[95.2152,5.9044],[95.2949,5.837],[95.2997,5.8668],[95.3217,5.8814],[95.313,5.8913],[95.3331,5.8926],[95.3736,5.8469],[95.3742,5.8025],[95.3454,5.8252],[95.3354,5.7729],[95.2859,5.778],[95.2549,5.8439],[95.218,5.8746],[95.2152,5.9044]]],[[[93.8348,7.2369],[93.8795,7.2024],[93.897,7.0791],[93.9251,7.0201],[93.9547,6.9984],[93.9206,6.9981],[93.95,6.9523],[93.9282,6.9466],[93.924,6.9097],[93.9074,6.8998],[93.9004,6.8466],[93.9191,6.8288],[93.9137,6.8025],[93.8934,6.7908],[93.8853,6.8064],[93.8663,6.8033],[93.8398,6.7471],[93.8175,6.7601],[93.8268,6.8034],[93.7974,6.8258],[93.8052,6.8429],[93.7851,6.8659],[93.7998,6.8743],[93.773,6.9125],[93.7606,6.9036],[93.7512,6.9152],[93.7477,6.9585],[93.6882,7.0176],[93.6598,7.0112],[93.6711,7.0319],[93.6573,7.0934],[93.6718,7.1099],[93.6536,7.12],[93.678,7.1442],[93.6724,7.1738],[93.6879,7.1854],[93.7329,7.1823],[93.7622,7.2069],[93.8033,7.1959],[93.8043,7.2255],[93.8348,7.2369]]],[[[93.7057,7.2258],[93.7206,7.2031],[93.7175,7.2011],[93.7057,7.2258]]],[[[93.6946,7.4414],[93.7108,7.3892],[93.7465,7.3554],[93.7339,7.3215],[93.6705,7.2797],[93.6453,7.2407],[93.6147,7.3039],[93.6295,7.3143],[93.6236,7.3688],[93.6613,7.3675],[93.702,7.3899],[93.6946,7.4414]]],[[[95.2806,5.5506],[95.4314,5.6564],[95.4651,5.6437],[95.5107,5.5957],[95.6132,5.6266],[95.6729,5.5857],[95.879,5.5068],[95.9043,5.427],[96.049,5.327],[96.0735,5.2928],[96.1823,5.2636],[96.2587,5.2634],[96.3883,5.2149],[96.465,5.2376],[96.4908,5.2046],[96.5318,5.2027],[96.6139,5.2144],[96.7202,5.2559],[96.8273,5.2776],[96.8552,5.2774],[96.8303,5.2714],[96.8998,5.2516],[96.9753,5.2665],[97.0818,5.2327],[97.1448,5.2004],[97.1432,5.1623],[97.1981,5.1461],[97.4967,5.2537],[97.5137,5.2464],[97.5468,5.2151],[97.5273,5.2057],[97.57,5.1904],[97.5722,5.1386],[97.6018,5.1419],[97.611,5.1139],[97.6525,5.1197],[97.648,5.0751],[97.806,4.9341],[97.9015,4.8871],[97.934,4.808],[97.9619,4.7262],[97.9615,4.668],[97.9946,4.6349],[98.0,4.6047],[97.9604,4.5316],[97.9823,4.5447],[98.0,4.5268],[98.0,4.0],[96.2775,4.0],[96.1485,4.1406],[96.1249,4.128],[96.0536,4.206],[96.0229,4.196],[95.7128,4.5268],[95.6081,4.6162],[95.5654,4.6262],[95.5834,4.6462],[95.5723,4.6567],[95.5387,4.6473],[95.4818,4.7609],[95.4119,4.8179],[95.4252,4.8339],[95.3756,4.9197],[95.3694,4.9459],[95.3817,4.9568],[95.3555,4.9992],[95.3623,5.0193],[95.3045,5.0793],[95.3152,5.0834],[95.3041,5.1067],[95.2825,5.1073],[95.3067,5.1271],[95.3055,5.1652],[95.2367,5.2204],[95.2503,5.2266],[95.2336,5.2472],[95.2385,5.2724],[95.2113,5.2699],[95.2156,5.3179],[95.2336,5.3195],[95.2223,5.3417],[95.2331,5.3582],[95.2389,5.3385],[95.2483,5.3663],[95.2286,5.4272],[95.2409,5.4467],[95.2295,5.4922],[95.1897,5.5228],[95.2202,5.5705],[95.2424,5.5512],[95.2806,5.5506]]],[[[97.998,4.6246],[98.0,4.6279],[98.0,4.6171],[97.998,4.6246]]],[[[95.3642,4.8746],[95.387,4.8735],[95.3867,4.8631],[95.3773,4.8558],[95.3642,4.8746]]],[[[95.2094,5.5765],[95.1773,5.5691],[95.1766,5.5707],[95.2094,5.5765]]],[[[97.5769,5.1653],[97.5884,5.1511],[97.5802,5.1527],[97.5769,5.1653]]]]}}