{"type":"Feature","properties":{"speciesId":136,"category":"LC","source":"IUCN Red List","simplifyTol":0.01,"clippedToSubcontinent":true},"geometry":{"type":"MultiPolygon","coordinates":[[[[74.2486,14.6996],[74.246,14.702],[74.2488,14.7011],[74.2486,14.6996]]],[[[74.2316,14.7096],[74.2345,14.7079],[74.232,14.7076],[74.2316,14.7096]]],[[[74.1451,14.7215],[74.1419,14.7216],[74.1435,14.7234],[74.1451,14.7215]]],[[[74.1527,14.7359],[74.1488,14.7389],[74.1516,14.7394],[74.1527,14.7359]]],[[[74.1152,14.754],[74.1034,14.7558],[74.1052,14.7621],[74.1152,14.754]]],[[[74.0817,14.791],[74.0833,14.7935],[74.0824,14.7905],[74.0817,14.791]]],[[[74.0529,14.817],[74.0499,14.8172],[74.0567,14.8188],[74.0529,14.817]]],[[[74.0961,14.8432],[74.0918,14.8414],[74.0919,14.8455],[74.0961,14.8432]]],[[[74.0991,14.8645],[74.1,14.8622],[74.0991,14.8621],[74.0991,14.8645]]],[[[74.0918,14.8742],[74.0885,14.877],[74.0908,14.8778],[74.0918,14.8742]]],[[[73.774,15.3587],[73.7725,15.3522],[73.7666,15.3553],[73.774,15.3587]]],[[[73.7579,15.3541],[73.7605,15.3574],[73.7607,15.3543],[73.7579,15.3541]]],[[[73.788,15.3716],[73.7886,15.3776],[73.7914,15.3752],[73.788,15.3716]]],[[[73.5395,15.9267],[73.5395,15.9241],[73.5379,15.9247],[73.5395,15.9267]]],[[[73.4981,15.9732],[73.4863,15.9812],[73.4838,16.0],[73.4877,16.0],[73.4981,15.9732]]],[[[72.8112,18.6914],[72.8047,18.7003],[72.812,18.7049],[72.8112,18.6914]]],[[[72.8424,18.7075],[72.8357,18.7103],[72.84,18.7114],[72.8424,18.7075]]],[[[72.8412,18.7641],[72.8432,18.7728],[72.8456,18.7691],[72.8412,18.7641]]],[[[72.8502,18.7868],[72.8464,18.7967],[72.8501,18.7971],[72.8502,18.7868]]],[[[72.9321,18.9527],[72.9223,18.9629],[72.9424,18.9688],[72.9321,18.9527]]],[[[73.0595,19.016],[73.0493,19.0066],[73.0566,19.0171],[73.0595,19.016]]],[[[72.8684,19.3295],[72.8447,19.3312],[72.838,19.3354],[72.8516,19.3378],[72.8684,19.3295]]],[[[72.7383,19.4681],[72.7286,19.4696],[72.7371,19.4707],[72.7383,19.4681]]],[[[72.8793,20.6887],[72.89,20.6884],[72.8883,20.6806],[72.8793,20.6887]]],[[[72.8757,20.6977],[72.8584,20.7102],[72.8779,20.6457],[72.8474,20.7183],[72.8454,20.7442],[72.855,20.7205],[72.877,20.7253],[72.8757,20.6977]]],[[[72.8752,20.7521],[72.8613,20.7556],[72.8767,20.754],[72.8752,20.7521]]],[[[72.8726,20.768],[72.8648,20.7678],[72.866,20.7692],[72.8726,20.768]]],[[[72.9297,20.7693],[72.9412,20.7674],[72.9309,20.7624],[72.9297,20.7693]]],[[[72.8404,20.7752],[72.856,20.7635],[72.8547,20.7598],[72.8404,20.7752]]],[[[72.8407,20.7969],[72.8436,20.7883],[72.8404,20.7849],[72.8407,20.7969]]],[[[72.7824,20.9205],[72.8226,20.8256],[72.8415,20.8054],[72.8261,20.8098],[72.7824,20.9205]]],[[[72.817,20.91],[72.807,20.9073],[72.8173,20.919],[72.817,20.91]]],[[[72.7854,20.9937],[72.7723,20.9793],[72.7658,20.9849],[72.7854,20.9937]]],[[[72.8379,21.0374],[72.8453,21.0424],[72.8465,21.0385],[72.8379,21.0374]]],[[[72.6797,21.0622],[72.6836,21.0665],[72.6852,21.0536],[72.6797,21.0622]]],[[[72.6506,21.0508],[72.6494,21.0608],[72.6749,21.0808],[72.6739,21.0707],[72.6506,21.0508]]],[[[72.6971,21.1414],[72.686,21.1092],[72.6796,21.1095],[72.6743,21.1286],[72.6971,21.1414]]],[[[72.6391,21.2741],[72.6265,21.2674],[72.6254,21.2826],[72.6391,21.2741]]],[[[72.624,21.3251],[72.6204,21.3316],[72.6267,21.3382],[72.624,21.3251]]],[[[72.8073,21.6385],[72.7932,21.6206],[72.6902,21.5999],[72.674,21.5873],[72.6865,21.5808],[72.6432,21.5644],[72.6228,21.5682],[72.6295,21.5877],[72.6114,21.6017],[72.6205,21.6171],[72.6372,21.6122],[72.6387,21.6287],[72.696,21.643],[72.8073,21.6385]]],[[[72.8759,21.6719],[72.8578,21.6764],[72.8816,21.6769],[72.8759,21.6719]]],[[[72.5739,21.7404],[72.5922,21.7518],[72.5944,21.7488],[72.5739,21.7404]]],[[[72.5724,21.7741],[72.5834,21.775],[72.5733,21.7649],[72.5724,21.7741]]],[[[72.4291,22.1949],[72.4785,22.2097],[72.4323,22.1795],[72.4291,22.1949]]],[[[72.5175,22.2305],[72.4992,22.2229],[72.5039,22.2326],[72.5175,22.2305]]],[[[72.7317,22.2225],[72.6615,22.2445],[72.7191,22.2376],[72.7317,22.2225]]],[[[69.8876,22.5243],[69.9011,22.5447],[69.9276,22.5414],[69.9162,22.51],[69.8591,22.5204],[69.8876,22.5243]]],[[[69.9522,22.5443],[69.9398,22.5358],[69.9364,22.5455],[69.9522,22.5443]]],[[[69.9571,22.5546],[69.9646,22.5776],[69.9991,22.5897],[70.0284,22.5733],[69.9779,22.5461],[69.9571,22.5546]]],[[[69.9566,22.6017],[69.9538,22.5944],[69.9468,22.5935],[69.9566,22.6017]]],[[[70.3534,22.9323],[70.3866,22.96],[70.3896,22.9602],[70.3807,22.9402],[70.3534,22.9323]]],[[[70.4425,22.9724],[70.4461,22.9804],[70.4491,22.9798],[70.4425,22.9724]]],[[[70.4484,22.994],[70.4415,22.9801],[70.4276,22.9771],[70.4484,22.994]]],[[[80.32,9.7127],[80.8117,9.2909],[80.8841,9.1219],[81.0005,8.9388],[80.993,8.918],[81.0102,8.929],[81.013,8.8911],[81.021,8.9048],[81.0589,8.8595],[81.0875,8.8584],[81.1048,8.8126],[81.2267,8.6475],[81.2208,8.6062],[81.2298,8.581],[81.2451,8.5793],[81.2471,8.5458],[81.2257,8.5323],[81.2261,8.5695],[81.1927,8.5665],[81.2119,8.5077],[81.1896,8.5018],[81.1977,8.4615],[81.2624,8.4569],[81.304,8.4326],[81.304,8.4583],[81.2958,8.4465],[81.2809,8.4568],[81.2831,8.5032],[81.3222,8.5224],[81.353,8.4909],[81.3937,8.3567],[81.4078,8.2419],[81.4769,8.0343],[81.5686,7.9227],[81.5874,7.921],[81.5671,7.8981],[81.593,7.83],[81.6268,7.8247],[81.6544,7.7729],[81.6999,7.7536],[81.7713,7.6448],[81.8718,7.3159],[81.8586,7.0907],[81.8813,7.0267],[81.8704,6.9789],[81.8489,6.9896],[81.8578,6.9672],[81.8729,6.9669],[81.8364,6.8853],[81.8518,6.8884],[81.8483,6.8675],[81.8397,6.8542],[81.8211,6.8621],[81.8444,6.8344],[81.8233,6.8088],[81.8249,6.7653],[81.8084,6.7647],[81.8279,6.7586],[81.7759,6.6639],[81.7664,6.592],[81.7324,6.5669],[81.7003,6.482],[81.6518,6.4367],[81.5973,6.4241],[81.6135,6.4056],[81.56,6.3612],[81.522,6.3525],[81.4869,6.3055],[81.3285,6.1945],[81.2222,6.1589],[81.1946,6.1576],[81.197,6.1776],[81.178,6.1441],[81.1336,6.1174],[81.0167,6.1071],[80.8659,6.0408],[80.8255,6.0415],[80.7202,5.9607],[80.6641,5.9575],[80.5868,5.9168],[80.5532,5.9411],[80.4489,5.9431],[80.4522,5.9588],[80.4357,5.969],[80.4179,5.955],[80.3828,5.9595],[80.2442,6.0069],[80.2285,6.0351],[80.2186,6.022],[80.0986,6.1289],[80.0314,6.2656],[80.0252,6.3364],[79.9746,6.464],[79.9866,6.4771],[79.9796,6.5149],[79.8687,6.8057],[79.8431,6.9333],[79.8712,6.9756],[79.869,7.0027],[79.819,7.1934],[79.8592,7.2756],[79.8445,7.2761],[79.8027,7.4826],[79.7977,7.7275],[79.7513,7.9316],[79.7064,8.0445],[79.699,8.1154],[79.7095,8.1343],[79.6984,8.2138],[79.7179,8.2167],[79.7381,8.28],[79.7812,8.3497],[79.7563,8.3071],[79.7511,8.2617],[79.7655,8.2739],[79.7573,8.2571],[79.7766,8.2541],[79.7688,8.2156],[79.7404,8.2008],[79.7492,8.1829],[79.7316,8.0868],[79.7541,8.0582],[79.7426,8.0],[79.8186,7.9719],[79.8082,7.8839],[79.8265,7.9206],[79.834,8.0071],[79.7896,8.0682],[79.8086,8.0611],[79.7948,8.0793],[79.8338,8.1396],[79.8154,8.2037],[79.7946,8.2203],[79.8095,8.2174],[79.7897,8.2301],[79.8101,8.2374],[79.8342,8.2919],[79.8476,8.2742],[79.8584,8.2846],[79.8362,8.3011],[79.8445,8.4289],[79.8632,8.4496],[79.8709,8.5352],[79.9263,8.559],[79.9193,8.5846],[79.9414,8.6155],[79.9558,8.7174],[79.9248,8.7907],[79.9401,8.8068],[79.9184,8.8083],[79.9307,8.8147],[79.919,8.8188],[79.9358,8.8913],[79.9122,8.9299],[80.0403,9.0133],[80.0661,9.0562],[80.0857,9.0999],[80.0761,9.1203],[80.1173,9.2072],[80.1116,9.2768],[80.1278,9.2906],[80.0676,9.3287],[80.0549,9.3914],[80.1466,9.4347],[80.1861,9.4827],[80.1461,9.5361],[80.054,9.5979],[80.0876,9.6249],[80.0176,9.6509],[79.971,9.7077],[79.948,9.6871],[79.9099,9.7587],[79.9772,9.8033],[80.1056,9.8059],[80.2147,9.8314],[80.2534,9.8191],[80.32,9.7127]]],[[[74.7198,13.2198],[74.7202,13.2234],[74.7216,13.2204],[74.7198,13.2198]]],[[[74.7246,13.2251],[74.7261,13.2235],[74.7251,13.2229],[74.7246,13.2251]]],[[[74.7113,13.2373],[74.7132,13.2372],[74.7125,13.2347],[74.7113,13.2373]]],[[[74.6851,13.2615],[74.6866,13.26],[74.6858,13.2597],[74.6851,13.2615]]],[[[74.6813,13.2659],[74.6824,13.2632],[74.6817,13.2632],[74.6813,13.2659]]],[[[74.6958,13.2754],[74.6928,13.2788],[74.6964,13.2775],[74.6958,13.2754]]],[[[74.693,13.2828],[74.6916,13.281],[74.6919,13.283],[74.693,13.2828]]],[[[74.6858,13.3272],[74.6867,13.3247],[74.685,13.3266],[74.6858,13.3272]]],[[[74.6783,13.3402],[74.6796,13.3374],[74.6772,13.3399],[74.6783,13.3402]]],[[[74.6735,13.361],[74.6725,13.3593],[74.6723,13.3617],[74.6735,13.361]]],[[[74.6665,13.373],[74.6668,13.3763],[74.6689,13.3725],[74.6665,13.373]]],[[[74.4769,14.0113],[74.4729,14.011],[74.4764,14.0124],[74.4769,14.0113]]],[[[74.3299,14.0202],[74.3258,14.0136],[74.3237,14.021],[74.3299,14.0202]]],[[[74.4806,14.0229],[74.4815,14.0259],[74.4835,14.0238],[74.4806,14.0229]]],[[[74.4639,14.084],[74.4665,14.0862],[74.4666,14.084],[74.4639,14.084]]],[[[74.4786,14.0927],[74.4746,14.0957],[74.4786,14.0953],[74.4786,14.0927]]],[[[74.4706,14.1051],[74.4668,14.1079],[74.4689,14.1094],[74.4706,14.1051]]],[[[74.3985,14.3133],[74.3938,14.3089],[74.3921,14.3117],[74.3985,14.3133]]],[[[83.4612,17.9044],[83.4556,17.9161],[83.4662,17.9166],[83.4612,17.9044]]],[[[92.0136,21.6888],[92.0192,21.6685],[91.9852,21.6542],[91.9796,21.7042],[91.9701,21.678],[91.9537,21.6979],[91.9481,21.7453],[91.9694,21.7384],[91.9964,21.7558],[91.9924,21.7678],[91.9716,21.7472],[91.9545,21.7539],[91.9706,21.7862],[91.9424,21.8042],[91.9308,21.7855],[91.8912,21.7773],[91.9199,21.8473],[91.9095,21.9079],[91.9274,21.9345],[91.8949,21.9689],[91.8548,22.1276],[91.8345,22.1221],[91.8141,22.1798],[91.842,22.2605],[91.8138,22.3017],[91.8666,22.3221],[91.9129,22.4086],[92.0019,22.4046],[92.0221,22.4167],[92.0349,22.4459],[92.0815,22.4371],[92.1417,22.4616],[92.1439,22.4703],[92.0873,22.4443],[92.0331,22.4505],[92.0029,22.4124],[91.8964,22.4094],[91.8723,22.3498],[91.7955,22.2927],[91.7952,22.2778],[91.829,22.2566],[91.798,22.2196],[91.7693,22.2784],[91.7519,22.3866],[91.7001,22.4841],[91.5811,22.6536],[91.4576,22.7511],[91.4859,22.7668],[91.4692,22.7787],[91.4778,22.7633],[91.4547,22.7602],[91.4369,22.7772],[91.4746,22.8241],[91.4356,22.8048],[91.4836,22.8741],[91.4566,22.8989],[91.4922,22.9007],[91.4452,22.9007],[91.441,22.8836],[91.464,22.8832],[91.4647,22.869],[91.4204,22.8087],[91.4086,22.7609],[91.3301,22.8335],[91.3506,22.8515],[91.3427,22.8832],[91.3158,22.8394],[91.3525,22.7861],[91.3451,22.7758],[91.2963,22.8102],[91.1869,22.7977],[91.1164,22.8119],[91.1127,22.8262],[91.0831,22.8],[91.0287,22.7996],[90.9375,22.8561],[90.8246,22.8647],[90.8016,22.9088],[90.7578,22.9387],[90.7958,22.898],[90.7954,22.8634],[90.7333,22.8875],[90.6896,22.9783],[90.6294,22.9981],[90.5663,23.1036],[90.598,23.1778],[90.6524,23.2423],[90.6389,23.3166],[90.6776,23.3183],[90.6754,23.3407],[90.6978,23.3457],[90.6796,23.3628],[90.695,23.3777],[90.6733,23.3642],[90.6616,23.3375],[90.6738,23.3213],[90.5987,23.3393],[90.5796,23.3948],[90.6007,23.4314],[90.5856,23.4669],[90.6303,23.4903],[90.6817,23.4821],[90.7039,23.4901],[90.7178,23.5428],[90.7443,23.5443],[90.7254,23.5534],[90.7084,23.5386],[90.7057,23.5618],[90.732,23.5912],[90.7392,23.6216],[90.7646,23.629],[90.7639,23.6432],[90.7414,23.6621],[90.7578,23.721],[90.7425,23.6938],[90.7403,23.7242],[90.7315,23.7102],[90.7156,23.7414],[90.6818,23.6867],[90.6429,23.6899],[90.6324,23.6392],[90.5628,23.5929],[90.5531,23.5715],[90.5147,23.5814],[90.505,23.6033],[90.4839,23.5866],[90.469,23.6087],[90.4539,23.6149],[90.4703,23.6298],[90.4427,23.6684],[90.368,23.7186],[90.3837,23.7022],[90.3658,23.7034],[90.3552,23.7288],[90.3421,23.7401],[90.3176,23.735],[90.3128,23.7642],[90.2986,23.7644],[90.2817,23.7366],[90.2548,23.7303],[90.2571,23.7757],[90.2298,23.8877],[90.2396,23.827],[90.194,23.8405],[90.1518,23.8291],[90.1319,23.8674],[90.1117,23.8736],[90.1104,23.8573],[90.0916,23.8514],[90.0572,23.8201],[90.047,23.8255],[90.0625,23.8769],[90.0468,23.8894],[90.0262,23.8817],[90.0227,23.9072],[89.9481,23.9709],[89.9523,23.9846],[89.9328,23.9846],[89.9487,23.9598],[89.9378,23.9554],[90.0192,23.8936],[90.0144,23.8769],[90.0547,23.8732],[90.0409,23.8278],[90.0466,23.8174],[90.0691,23.8163],[90.0887,23.83],[90.1247,23.8071],[90.1837,23.8023],[90.2068,23.8157],[90.2226,23.8004],[90.2415,23.8149],[90.2059,23.7537],[90.221,23.7216],[90.2524,23.721],[90.2746,23.6862],[90.2557,23.7074],[90.2383,23.7112],[90.2208,23.7081],[90.1813,23.7401],[90.1924,23.7203],[90.1626,23.7198],[90.1492,23.7107],[90.1219,23.7371],[90.0698,23.7579],[90.0232,23.7635],[90.0245,23.7952],[90.0021,23.816],[90.0195,23.7627],[90.1205,23.7334],[90.1497,23.7043],[90.1739,23.7165],[90.2205,23.7031],[90.2477,23.7076],[90.276,23.6548],[90.3797,23.6165],[90.4018,23.5883],[90.3789,23.5678],[90.4098,23.5802],[90.4377,23.5451],[90.4635,23.5452],[90.5054,23.5721],[90.5302,23.5669],[90.5701,23.4832],[90.538,23.4837],[90.5339,23.4659],[90.5539,23.4263],[90.5281,23.3907],[90.4858,23.4204],[90.4204,23.4161],[90.2542,23.4608],[90.1641,23.5242],[90.1103,23.6129],[89.97,23.6581],[89.9179,23.7216],[89.8638,23.7451],[89.7915,23.8077],[89.7742,23.8995],[89.7688,23.8876],[89.7046,23.9579],[89.7275,23.9776],[89.7208,24.0],[89.7153,23.9718],[89.6983,23.9645],[89.7051,23.9991],[89.6707,24.0],[89.6557,23.9361],[89.7033,23.8749],[89.7513,23.8659],[89.7708,23.8359],[89.7571,23.8473],[89.7242,23.8344],[89.6802,23.8626],[89.7179,23.8319],[89.6297,23.8456],[89.5468,23.8241],[89.4497,23.8706],[89.4256,23.9133],[89.3865,23.9431],[89.3288,23.9487],[89.2808,23.9875],[89.3161,23.9479],[89.2889,23.9467],[89.2414,23.9813],[89.1845,23.9868],[89.1773,23.9953],[89.1733,24.0],[89.0914,23.9991],[89.0608,23.9839],[89.0936,23.9665],[89.1225,23.9203],[89.1241,23.9541],[89.1671,23.9259],[89.2341,23.9194],[89.3047,23.8696],[89.4078,23.8978],[89.4594,23.8119],[89.5057,23.7768],[89.5362,23.7953],[89.5572,23.7892],[89.5929,23.7975],[89.6397,23.7768],[89.7017,23.7769],[89.8567,23.6605],[89.9485,23.6357],[90.0246,23.5566],[90.0179,23.5823],[90.083,23.573],[90.1256,23.5454],[90.1578,23.4889],[90.1593,23.4206],[90.2067,23.3338],[90.17,23.3466],[90.1639,23.3639],[90.1862,23.3591],[90.1608,23.3676],[90.1665,23.3332],[90.1408,23.3229],[90.1253,23.3055],[90.1205,23.3356],[90.1417,23.3597],[90.1445,23.3786],[90.1279,23.351],[90.0995,23.359],[90.1208,23.3473],[90.1189,23.3041],[90.093,23.3005],[90.0871,23.2728],[90.1245,23.2685],[90.1217,23.2487],[90.1287,23.2416],[90.2023,23.2256],[90.1987,23.2096],[90.1681,23.2041],[90.1774,23.1665],[90.219,23.1829],[90.2485,23.1621],[90.2336,23.1421],[90.2452,23.1232],[90.2645,23.1126],[90.3091,23.1128],[90.3167,23.0671],[90.2678,23.0431],[90.2726,23.0254],[90.3072,23.0209],[90.3206,22.9865],[90.2739,22.9687],[90.2991,22.9434],[90.3537,22.9212],[90.3456,22.884],[90.3205,22.8726],[90.3213,22.8502],[90.3726,22.7652],[90.3682,22.7366],[90.4195,22.7331],[90.4167,22.7138],[90.3964,22.729],[90.3831,22.7054],[90.4003,22.7234],[90.4204,22.7086],[90.4297,22.7305],[90.4193,22.7453],[90.378,22.7401],[90.3825,22.7586],[90.4243,22.7652],[90.4692,22.7349],[90.485,22.6991],[90.4769,22.6561],[90.4961,22.6723],[90.5194,22.6294],[90.5042,22.5879],[90.5187,22.5991],[90.5798,22.5261],[90.6132,22.3275],[90.5912,22.2573],[90.5587,22.2382],[90.5212,22.184],[90.5066,22.1851],[90.4373,22.0668],[90.4221,22.1192],[90.4427,22.1513],[90.4269,22.1517],[90.4192,22.1262],[90.4192,22.0904],[90.3882,22.0901],[90.3847,22.1054],[90.4039,22.1682],[90.4261,22.1813],[90.3999,22.2179],[90.4165,22.2649],[90.4035,22.2838],[90.4191,22.2895],[90.3788,22.2931],[90.4149,22.3388],[90.3641,22.2952],[90.4059,22.2709],[90.395,22.204],[90.4179,22.1836],[90.3986,22.1722],[90.3831,22.1366],[90.3408,22.1621],[90.3872,22.1955],[90.3873,22.2114],[90.3562,22.1794],[90.3438,22.1957],[90.3498,22.1792],[90.3338,22.1633],[90.3784,22.1309],[90.3751,22.1053],[90.3331,22.1088],[90.2616,22.0404],[90.2751,22.0358],[90.2707,22.0141],[90.278,21.9971],[90.2568,21.9557],[90.211,21.9826],[90.2135,22.0022],[90.1962,21.9784],[90.2287,21.9716],[90.2343,21.9583],[90.2176,21.9508],[90.2685,21.9463],[90.2409,21.8994],[90.2606,21.8846],[90.2549,21.8666],[90.2241,21.8543],[90.2042,21.8874],[90.2401,21.9344],[90.1969,21.8906],[90.2199,21.8528],[90.2631,21.8583],[90.2478,21.8376],[90.2163,21.8373],[90.2602,21.8346],[90.1756,21.7891],[90.1072,21.8011],[90.0816,21.8355],[90.0992,21.8517],[90.1222,21.8485],[90.1016,21.8534],[90.1021,21.8743],[90.1372,21.8899],[90.1543,21.8854],[90.1589,21.8603],[90.1728,21.8697],[90.1519,21.8956],[90.1886,21.9228],[90.144,21.8906],[90.1158,21.8993],[90.1162,21.9159],[90.15,21.9227],[90.1372,21.9485],[90.1685,21.9805],[90.1406,21.9702],[90.128,21.9914],[90.1418,21.9247],[90.1114,21.9219],[90.0988,21.8944],[90.0991,21.9412],[90.0733,22.0045],[90.1633,22.1145],[90.2134,22.1143],[90.2283,22.1641],[90.2542,22.1638],[90.2717,22.1772],[90.2864,22.2071],[90.2723,22.2089],[90.2588,22.1722],[90.229,22.1724],[90.2401,22.1932],[90.2206,22.219],[90.2077,22.3093],[90.2269,22.3379],[90.2801,22.3407],[90.2896,22.3505],[90.2973,22.3714],[90.2696,22.3586],[90.2657,22.3711],[90.2809,22.4069],[90.3177,22.4676],[90.3413,22.4589],[90.3626,22.4846],[90.3405,22.4664],[90.3148,22.4741],[90.2586,22.3754],[90.2548,22.3443],[90.2223,22.3421],[90.1991,22.3026],[90.2097,22.2143],[90.2298,22.1915],[90.2032,22.1238],[90.1608,22.1241],[90.0879,22.0556],[90.0534,21.9715],[90.0298,21.9971],[90.0275,21.9782],[90.0039,21.9846],[89.993,22.0361],[90.0307,22.0628],[90.0362,22.1269],[90.0717,22.1533],[90.1399,22.1551],[90.0801,22.1586],[90.0257,22.189],[90.081,22.2209],[90.1116,22.2858],[90.1016,22.3424],[90.176,22.4215],[90.2018,22.4859],[90.206,22.5118],[90.1876,22.5224],[90.2028,22.5725],[90.1858,22.6255],[90.2519,22.6212],[90.2832,22.6302],[90.2952,22.6531],[90.2487,22.6279],[90.181,22.6276],[90.1975,22.5676],[90.1819,22.5223],[90.1989,22.509],[90.1936,22.4802],[90.1724,22.4297],[90.095,22.3491],[90.1048,22.3039],[90.0739,22.2271],[90.0211,22.1868],[90.0282,22.1691],[90.0632,22.1618],[90.0225,22.1322],[90.0183,22.0663],[89.9809,22.0416],[89.9896,21.991],[89.9579,21.9789],[89.9092,22.0731],[89.9175,22.136],[89.8787,22.2524],[89.9197,22.3718],[89.9847,22.4388],[90.0,22.4869],[90.025,22.4901],[90.033,22.5719],[90.065,22.6087],[90.0571,22.6225],[90.0268,22.599],[90.0327,22.6527],[90.0059,22.6801],[90.028,22.6463],[90.0132,22.5988],[90.0307,22.5814],[90.0179,22.4944],[89.9546,22.5055],[89.9855,22.4867],[89.9872,22.466],[89.9102,22.3882],[89.8834,22.4052],[89.8834,22.4302],[89.8779,22.4031],[89.8987,22.3721],[89.8448,22.2487],[89.8905,22.1211],[89.8528,22.0679],[89.8188,22.066],[89.8534,22.0483],[89.8854,21.9055],[89.8584,21.8784],[89.8456,21.8859],[89.8408,21.856],[89.7762,21.8305],[89.7896,21.879],[89.7542,21.8561],[89.7334,21.8909],[89.7516,21.8391],[89.7383,21.8313],[89.7067,21.8491],[89.6756,21.8377],[89.6586,21.8922],[89.6795,21.9049],[89.6554,21.9134],[89.6339,21.8679],[89.7121,21.7853],[89.7073,21.7608],[89.6067,21.7601],[89.619,21.7806],[89.6137,21.8111],[89.5634,21.8575],[89.5901,21.9386],[89.5607,21.9692],[89.5603,21.9911],[89.5152,21.9904],[89.5251,21.9563],[89.5123,21.8993],[89.4971,21.9081],[89.4607,21.8522],[89.4337,21.8477],[89.4627,21.8461],[89.4712,21.8204],[89.459,21.8111],[89.4707,21.8137],[89.4843,21.7864],[89.4162,21.7099],[89.3867,21.7099],[89.3559,21.8004],[89.3899,21.9021],[89.3671,21.9046],[89.3181,21.8611],[89.3072,21.8207],[89.2867,21.8053],[89.2927,21.7564],[89.2312,21.7683],[89.2193,21.7572],[89.197,21.8047],[89.1643,21.79],[89.1079,21.8105],[89.1121,21.8547],[89.0887,21.908],[89.0948,21.9381],[89.0836,21.9386],[89.0635,21.9277],[89.0648,21.899],[89.0904,21.8542],[89.0935,21.7971],[89.1521,21.755],[89.1374,21.7198],[89.1154,21.7204],[89.0518,21.7859],[89.0677,21.8585],[89.0397,21.9077],[89.001,21.9031],[88.9972,21.8895],[89.0372,21.8577],[89.0277,21.7769],[89.1014,21.6618],[89.0968,21.6249],[89.0595,21.6116],[89.0246,21.6637],[89.0039,21.6526],[89.0292,21.6541],[89.0423,21.6109],[89.0167,21.6008],[88.9943,21.6465],[88.9946,21.6095],[88.9519,21.6408],[88.9307,21.6299],[88.9037,21.6449],[88.8754,21.701],[88.8799,21.7675],[88.8496,21.7251],[88.8692,21.6433],[88.8402,21.6183],[88.8115,21.6347],[88.8229,21.6604],[88.7594,21.6566],[88.7243,21.6805],[88.6993,21.7411],[88.7229,21.8073],[88.6998,21.8403],[88.7311,21.9352],[88.7291,21.976],[88.7903,22.0183],[88.7667,22.0237],[88.7594,22.0502],[88.7747,22.0519],[88.7486,22.0659],[88.7157,22.0484],[88.7415,22.0282],[88.735,22.0071],[88.6685,22.0226],[88.6445,22.1181],[88.631,22.1198],[88.6214,22.105],[88.6438,22.0459],[88.6084,21.972],[88.6202,21.9377],[88.5852,21.9852],[88.5792,21.9633],[88.611,21.9322],[88.6096,21.9095],[88.5833,21.8856],[88.5618,21.814],[88.5031,21.8849],[88.5314,21.9303],[88.5095,21.9704],[88.5525,21.9851],[88.5652,22.0228],[88.5449,21.9865],[88.5049,21.973],[88.5103,21.9217],[88.4898,21.9084],[88.485,21.8966],[88.4664,21.9001],[88.4688,21.9487],[88.4597,21.9382],[88.4534,21.9068],[88.4633,21.8964],[88.4841,21.8913],[88.5001,21.8489],[88.4583,21.8201],[88.4548,21.8117],[88.469,21.7932],[88.4479,21.8015],[88.4292,21.7659],[88.4363,21.7042],[88.4196,21.6881],[88.4183,21.6661],[88.4412,21.6244],[88.4216,21.6097],[88.4177,21.5818],[88.3929,21.6083],[88.4045,21.6197],[88.3891,21.6672],[88.4121,21.717],[88.3795,21.7303],[88.3991,21.7368],[88.4075,21.7646],[88.3915,21.7795],[88.4082,21.7984],[88.4001,21.8346],[88.4213,21.8892],[88.3996,21.8993],[88.4164,21.9231],[88.4056,21.9516],[88.3903,21.9667],[88.4057,21.9738],[88.4124,21.9947],[88.3873,21.9675],[88.4114,21.9216],[88.396,21.9071],[88.3979,21.8949],[88.4077,21.8854],[88.3976,21.8749],[88.3953,21.7943],[88.3717,21.8007],[88.3643,21.8528],[88.3642,21.8014],[88.3445,21.8041],[88.3296,21.7886],[88.3146,21.7988],[88.2816,21.7969],[88.2765,21.8073],[88.3154,21.8303],[88.3238,21.8496],[88.311,21.8646],[88.2686,21.865],[88.3175,21.8502],[88.2587,21.7956],[88.2892,21.7581],[88.2832,21.7309],[88.3067,21.6718],[88.3004,21.5917],[88.3254,21.5806],[88.3064,21.5615],[88.2626,21.5575],[88.2265,21.6188],[88.2493,21.6474],[88.2411,21.6786],[88.2116,21.6855],[88.2308,21.6996],[88.2186,21.7919],[88.2381,21.7646],[88.2396,21.7811],[88.2115,21.8029],[88.2035,21.8456],[88.166,21.888],[88.1748,21.9239],[88.1487,21.9596],[88.2198,22.0425],[88.2306,22.1047],[88.1914,22.1873],[88.0662,22.2231],[88.0342,22.2183],[88.0321,22.2018],[88.1438,22.1871],[88.1902,22.1329],[88.1927,22.098],[88.1618,22.0645],[88.067,22.0155],[87.9805,21.8551],[87.9519,21.8236],[87.8866,21.803],[87.8924,21.7812],[87.8039,21.7078],[87.7551,21.7008],[87.6984,21.6616],[87.6644,21.703],[87.1495,21.703],[86.8689,21.4224],[86.8689,21.2674],[86.8168,21.1382],[86.8689,21.0241],[86.8689,20.5806],[86.1955,20.0756],[85.0732,19.5706],[84.512,19.0094],[83.6703,18.2238],[83.5121,17.93],[83.4677,17.8983],[83.4705,17.9173],[83.4438,17.934],[83.449,17.9081],[83.4672,17.8865],[83.4135,17.8402],[83.4172,17.8083],[83.3542,17.7525],[83.3507,17.7279],[83.2944,17.6912],[83.3009,17.6774],[83.2456,17.6371],[83.2152,17.5903],[83.0087,17.4943],[82.548,17.4943],[82.2674,17.2137],[82.2674,16.9358],[82.2529,16.9186],[82.2666,16.8866],[82.2571,16.864],[82.2674,16.8821],[82.2674,16.6525],[81.3696,16.4281],[80.5915,15.8723],[80.4361,15.8094],[80.2936,15.7047],[80.2494,15.6334],[80.2227,15.5508],[80.135,15.4741],[80.1225,15.368],[80.0957,15.329],[80.0826,15.2577],[80.091,15.2043],[80.0646,15.1906],[80.0736,15.1742],[80.0457,15.0876],[80.071,14.9297],[80.0228,14.5201],[80.135,13.8468],[80.2341,13.7193],[80.2407,13.6161],[80.3233,13.4439],[80.3464,13.304],[80.2956,13.1211],[80.3049,13.0927],[80.2609,13.0127],[80.2741,13.0056],[80.2429,12.8158],[80.2476,12.7533],[80.1758,12.5813],[80.1868,12.5753],[80.1569,12.4775],[80.1353,12.4587],[80.1454,12.4454],[80.0463,12.3104],[80.067,12.3502],[80.0576,12.351],[79.8819,12.0511],[79.8342,11.9097],[79.8187,11.9071],[79.8333,11.902],[79.7982,11.7882],[79.7762,11.7694],[79.794,11.7694],[79.7932,11.7502],[79.7589,11.6076],[79.7601,11.5391],[79.7719,11.4914],[79.8104,11.4524],[79.8388,11.3486],[79.8471,11.2392],[79.8252,11.2306],[79.8497,11.2282],[79.8597,11.1777],[79.8562,10.952],[79.4671,10.3154],[79.3907,10.3187],[79.271,10.2303],[79.2771,10.2105],[79.2469,10.1844],[79.229,10.1341],[79.2319,10.0843],[79.268,10.0365],[79.1556,9.9219],[79.1178,9.8639],[79.1222,9.8491],[78.4289,9.1124],[78.3671,9.0798],[78.2767,8.9996],[78.2658,9.0126],[78.2681,8.9925],[78.2176,8.9572],[78.174,8.8792],[78.1636,8.7871],[77.722,8.2352],[77.2731,8.2352],[77.1929,8.2084],[76.9771,8.3876],[76.535,8.9388],[76.4617,9.1312],[76.497,9.067],[76.4753,9.1197],[76.4848,9.1159],[76.4921,9.1672],[76.4748,9.1621],[76.4709,9.1412],[76.4405,9.2326],[76.4196,9.2432],[76.4551,9.1423],[76.3855,9.2971],[76.1508,10.4237],[75.9354,10.7323],[75.9113,10.799],[75.9104,10.7838],[75.8326,11.1235],[75.8054,11.1508],[75.7296,11.3316],[75.7333,11.354],[75.6866,11.4353],[75.6174,11.4744],[75.5851,11.5587],[75.597,11.5363],[75.5912,11.562],[75.6041,11.561],[75.5822,11.5708],[75.5294,11.6966],[75.5386,11.7048],[75.4917,11.7339],[75.4716,11.769],[75.451,11.7697],[75.3893,11.8467],[75.3522,11.8601],[75.3004,11.9467],[75.2377,12.0138],[75.2249,12.0211],[75.2004,12.0032],[75.1677,12.067],[75.0648,12.3407],[75.0296,12.3922],[75.0386,12.4111],[75.0229,12.3997],[75.0063,12.4371],[75.0154,12.4444],[74.9979,12.4456],[74.983,12.475],[74.8249,12.8316],[74.776,13.0949],[74.7699,13.0782],[74.6921,13.3488],[74.6657,13.6381],[74.6428,13.6709],[74.6058,13.8523],[74.6169,13.8576],[74.565,13.9466],[74.5278,13.9626],[74.505,14.0011],[74.464,14.1872],[74.4092,14.308],[74.3953,14.4186],[74.3765,14.4165],[74.3538,14.5117],[74.3052,14.5196],[74.2912,14.5931],[74.2635,14.6245],[74.2946,14.6402],[74.2751,14.6467],[74.2756,14.6779],[74.2537,14.7068],[74.2633,14.7094],[74.2647,14.7201],[74.2582,14.7122],[74.2215,14.7472],[74.1993,14.7176],[74.1765,14.7446],[74.1477,14.7464],[74.1341,14.7778],[74.1039,14.7843],[74.0911,14.8021],[74.1171,14.8034],[74.1249,14.8405],[74.1079,14.8451],[74.0912,14.8945],[74.0388,14.9156],[74.0487,14.9568],[74.0298,14.9815],[74.0476,14.9848],[73.9857,15.0225],[73.9786,15.0504],[73.95,15.0729],[73.9051,15.0871],[73.9458,15.1408],[73.8821,15.3452],[73.862,15.3694],[73.8357,15.361],[73.8032,15.377],[73.7794,15.4089],[73.8757,15.3984],[73.8899,15.4192],[73.8764,15.4337],[73.8584,15.4258],[73.845,15.4491],[73.7822,15.4597],[73.8199,15.4996],[73.7574,15.4939],[73.731,15.6146],[73.6841,15.7202],[73.6509,15.7384],[73.655,15.7734],[73.6238,15.8436],[73.5838,15.9077],[73.4981,15.9512],[73.5097,15.9913],[73.4955,15.985],[73.4767,16.0396],[73.4839,16.0698],[73.4711,16.0749],[73.3264,17.0286],[73.2705,17.2841],[73.297,17.2812],[73.2674,17.2959],[73.0217,18.238],[73.063,18.2177],[73.0702,18.1968],[73.0756,18.2358],[73.0525,18.2857],[73.0313,18.2636],[73.0095,18.2846],[72.9522,18.5044],[72.9284,18.533],[72.9616,18.5423],[72.9202,18.5479],[72.884,18.6304],[72.898,18.631],[72.8664,18.644],[72.8563,18.6884],[72.8701,18.8028],[72.9142,18.7924],[72.9356,18.8241],[72.9886,18.7759],[72.999,18.7794],[72.9859,18.8052],[73.0578,18.8027],[72.9898,18.8116],[72.9821,18.8626],[72.9381,18.847],[72.9069,18.8865],[72.9247,18.9098],[72.942,18.8943],[72.9495,18.9458],[72.9772,18.9461],[72.9539,18.9701],[73.0908,18.9988],[73.0667,19.0143],[73.0847,19.0314],[73.0644,19.0292],[73.0904,19.0457],[73.0061,19.005],[72.9844,19.0708],[72.9952,19.0869],[72.9764,19.1069],[72.9764,19.1707],[72.9642,19.1353],[72.9522,19.1374],[72.9569,19.1077],[72.9307,19.0904],[72.9472,19.068],[72.9137,19.0744],[72.9517,19.0432],[72.9034,18.9938],[72.8784,19.0226],[72.8573,19.0094],[72.8371,18.9334],[72.8032,18.898],[72.8212,18.9319],[72.8128,18.9508],[72.792,18.9442],[72.8126,19.0202],[72.8597,19.0602],[72.8179,19.0482],[72.8248,19.087],[72.808,19.1435],[72.7863,19.1386],[72.7814,19.1669],[72.8011,19.1976],[72.7783,19.1922],[72.787,19.3062],[72.8517,19.316],[72.9155,19.2908],[72.869,19.3343],[72.8509,19.3431],[72.8024,19.3314],[72.7583,19.3757],[72.7663,19.3956],[72.7441,19.4603],[72.7564,19.4738],[72.7169,19.5799],[72.7187,19.5967],[72.7449,19.6026],[72.7289,19.6097],[72.7078,19.6822],[72.7005,19.7289],[72.7146,19.747],[72.701,19.742],[72.6902,19.7581],[72.7061,19.8084],[72.6859,19.8043],[72.6594,19.8391],[72.686,19.8742],[72.6716,19.9365],[72.7035,19.9651],[72.7249,19.9671],[72.76,19.9233],[72.7451,19.9679],[72.7216,19.9802],[72.7068,20.0701],[72.731,20.0951],[72.7448,20.1954],[72.7794,20.207],[72.7456,20.203],[72.749,20.2818],[72.778,20.3364],[72.8183,20.3657],[72.8262,20.4424],[72.8869,20.5046],[72.8771,20.5274],[72.8946,20.5296],[72.8828,20.5439],[72.8927,20.5834],[72.8736,20.6444],[72.9035,20.5969],[72.8864,20.6374],[72.9015,20.6429],[72.8967,20.7022],[72.9087,20.7111],[72.8907,20.7199],[72.9241,20.7558],[72.9519,20.755],[72.9425,20.7755],[72.9178,20.7699],[72.9199,20.7893],[72.91,20.7807],[72.8745,20.8015],[72.896,20.8134],[72.8756,20.8245],[72.8948,20.8665],[72.8268,20.8292],[72.8547,20.86],[72.8245,20.8829],[72.8351,20.9065],[72.8491,20.9044],[72.8239,20.9212],[72.8822,20.9546],[72.8765,20.9718],[72.8913,20.9864],[72.8308,20.9734],[72.8387,20.9855],[72.8052,20.9872],[72.827,21.014],[72.7661,21.0042],[72.7425,20.9769],[72.767,20.9279],[72.7473,20.9498],[72.7229,21.0266],[72.7218,21.0569],[72.7417,21.0289],[72.7856,21.0461],[72.8068,21.0247],[72.857,21.0392],[72.8419,21.0537],[72.8549,21.0677],[72.8326,21.0544],[72.8227,21.0878],[72.8419,21.1137],[72.8215,21.0977],[72.8145,21.1053],[72.8304,21.1146],[72.8143,21.1191],[72.8114,21.1483],[72.8316,21.1672],[72.8059,21.1497],[72.8016,21.1242],[72.7904,21.1447],[72.7878,21.11],[72.7636,21.1227],[72.7569,21.1046],[72.7443,21.1262],[72.719,21.1034],[72.7302,21.0781],[72.7016,21.0949],[72.7059,21.1358],[72.7275,21.1475],[72.6739,21.1582],[72.6465,21.0874],[72.6332,21.2067],[72.6555,21.2226],[72.6817,21.2184],[72.6431,21.2498],[72.6304,21.2406],[72.6501,21.2798],[72.6237,21.2925],[72.6215,21.3127],[72.6554,21.3191],[72.6684,21.342],[72.7365,21.3238],[72.6962,21.355],[72.7016,21.3724],[72.6746,21.3486],[72.6646,21.3689],[72.6528,21.3494],[72.6459,21.3627],[72.6934,21.4664],[72.6715,21.4468],[72.6379,21.4484],[72.7409,21.5657],[72.8165,21.6136],[72.8406,21.6659],[72.9193,21.6478],[73.0375,21.7005],[73.0901,21.7051],[73.1077,21.7297],[73.064,21.7327],[72.9438,21.6753],[72.8728,21.6882],[72.7776,21.6604],[72.7389,21.6861],[72.582,21.6682],[72.5762,21.7204],[72.6,21.7159],[72.5857,21.7265],[72.6033,21.7563],[72.5992,21.7954],[72.6312,21.8088],[72.6544,21.8912],[72.675,21.8872],[72.6682,21.9049],[72.6874,21.9044],[72.6878,21.886],[72.7223,21.8841],[72.7187,21.9318],[72.7511,21.9531],[72.7776,21.9495],[72.7647,21.9815],[72.746,21.988],[72.7759,22.012],[72.735,21.9912],[72.7186,22.0205],[72.718,21.9943],[72.7074,21.9796],[72.6933,21.9852],[72.6999,21.9716],[72.6719,21.9749],[72.6605,21.9605],[72.6465,21.9619],[72.6488,21.9881],[72.6368,22.0028],[72.6401,21.9548],[72.6281,21.9705],[72.6332,21.9546],[72.5439,21.9023],[72.508,22.0009],[72.5384,22.1322],[72.5709,22.1909],[72.6099,22.2151],[72.6631,22.211],[72.7419,22.1758],[72.7668,22.1936],[72.7581,22.2163],[72.7121,22.2444],[72.6726,22.2567],[72.6273,22.255],[72.6127,22.2672],[72.6495,22.2643],[72.6288,22.2759],[72.5679,22.2652],[72.6254,22.2802],[72.5931,22.2817],[72.479,22.2205],[72.4931,22.2641],[72.4597,22.2136],[72.4151,22.2149],[72.4247,22.2006],[72.4089,22.1724],[72.3701,22.2767],[72.4013,22.3249],[72.3667,22.3217],[72.3483,22.2934],[72.2788,22.4325],[72.1105,21.5346],[71.6647,20.9997],[71.6397,20.994],[71.6229,20.9689],[71.5168,20.9482],[71.4596,20.8796],[71.3942,20.8619],[71.3824,20.8714],[71.382,20.8538],[71.3008,20.8281],[70.7076,20.749],[70.677,20.7668],[70.6826,20.7769],[70.6734,20.7689],[70.0863,21.1186],[69.928,21.2833],[69.5291,21.8152],[69.7536,22.4325],[69.7943,22.3997],[69.8214,22.4565],[69.8654,22.4504],[69.9041,22.4706],[69.9283,22.5092],[69.9579,22.4967],[69.9446,22.5225],[69.9672,22.5368],[70.1779,22.5604],[70.2419,22.683],[70.2655,22.6892],[70.2377,22.6953],[70.2559,22.7099],[70.2514,22.7324],[70.2887,22.7381],[70.3559,22.8761],[70.4429,22.9596],[70.4725,23.0209],[71.8299,23.8354],[73.6817,25.126],[74.4673,26.8656],[75.7019,30.1203],[76.8803,31.5232],[78.0026,31.6354],[79.3494,31.0182],[81.2012,29.7275],[84.2876,28.4368],[88.1034,27.7073],[89.3941,27.6512],[92.4244,27.3145],[93.9956,27.3145],[94.8373,26.8095],[94.3884,25.8555],[92.4244,24.4526],[92.3539,23.3731],[92.28,22.7342],[92.1527,22.3117],[92.0352,21.7006],[92.021,21.7182],[92.0203,21.677],[92.0136,21.6888]]],[[[88.2178,21.5336],[88.1994,21.5328],[88.1738,21.5858],[88.1919,21.5548],[88.1999,21.57],[88.214,21.5548],[88.2178,21.5336]]],[[[88.5475,21.5305],[88.4864,21.5467],[88.4997,21.5997],[88.5417,21.5772],[88.5475,21.5305]]],[[[88.5186,21.5997],[88.5266,21.6569],[88.5355,21.6422],[88.5894,21.6116],[88.5955,21.5862],[88.5654,21.556],[88.5186,21.5997]]],[[[88.3333,21.6006],[88.316,21.615],[88.3272,21.7039],[88.36,21.6705],[88.349,21.6469],[88.3587,21.6321],[88.3333,21.6006]]],[[[88.2218,21.6272],[88.2143,21.6055],[88.1876,21.6808],[88.2151,21.7158],[88.2211,21.7034],[88.2026,21.6903],[88.2144,21.6747],[88.2331,21.6742],[88.2393,21.647],[88.2218,21.6272]]],[[[88.6512,21.6762],[88.6459,21.6462],[88.6363,21.6449],[88.6403,21.6806],[88.6512,21.6762]]],[[[88.5514,21.6386],[88.5332,21.6558],[88.5229,21.7156],[88.5494,21.6979],[88.5671,21.6982],[88.5719,21.6691],[88.5514,21.6386]]],[[[88.4619,21.7506],[88.4841,21.675],[88.4649,21.6224],[88.4526,21.6002],[88.4295,21.6003],[88.4483,21.6233],[88.427,21.6599],[88.4273,21.6899],[88.4436,21.7026],[88.4366,21.7671],[88.4564,21.7929],[88.4679,21.7863],[88.4831,21.7956],[88.4619,21.7506]]],[[[88.1315,21.7347],[88.1486,21.6257],[88.0576,21.6411],[88.0604,21.721],[88.0901,21.7851],[88.1075,21.7943],[88.1331,21.7753],[88.1454,21.7562],[88.1315,21.7347]]],[[[88.6017,21.6541],[88.6125,21.6055],[88.5642,21.6419],[88.5808,21.6629],[88.5699,21.7091],[88.5233,21.7224],[88.5069,21.7573],[88.5331,21.7746],[88.5469,21.8165],[88.5779,21.7923],[88.5666,21.7684],[88.58,21.7201],[88.6154,21.679],[88.6017,21.6541]]],[[[88.2152,21.722],[88.1999,21.7108],[88.212,21.7319],[88.2152,21.722]]],[[[88.3778,21.6847],[88.3486,21.7126],[88.3579,21.7201],[88.353,21.7483],[88.3928,21.7648],[88.3936,21.7418],[88.3714,21.7272],[88.4047,21.7167],[88.3778,21.6847]]],[[[88.3078,21.7303],[88.3061,21.7207],[88.3016,21.7348],[88.3078,21.7303]]],[[[88.6302,21.7314],[88.6277,21.7412],[88.5968,21.7582],[88.5998,21.7841],[88.6205,21.7879],[88.6377,21.7533],[88.6341,21.7208],[88.6074,21.7072],[88.6302,21.7314]]],[[[88.6022,21.7161],[88.5729,21.7718],[88.587,21.7766],[88.5909,21.7566],[88.6272,21.7354],[88.6022,21.7161]]],[[[88.3472,21.7413],[88.3528,21.7212],[88.3365,21.7285],[88.3345,21.7054],[88.3143,21.7168],[88.3104,21.7792],[88.3376,21.7868],[88.3467,21.7984],[88.3864,21.7918],[88.3867,21.768],[88.3559,21.7636],[88.3472,21.7413]]],[[[88.21,21.7763],[88.2156,21.7564],[88.211,21.7397],[88.2088,21.7409],[88.21,21.7763]]],[[[88.1647,21.6898],[88.1438,21.6876],[88.1386,21.7341],[88.1525,21.7563],[88.1411,21.78],[88.1138,21.7999],[88.0944,21.7905],[88.1462,21.8823],[88.1833,21.8056],[88.1647,21.6898]]],[[[88.5304,21.782],[88.5145,21.7764],[88.5298,21.7965],[88.5304,21.782]]],[[[88.298,21.7928],[88.3134,21.7922],[88.3183,21.7914],[88.3091,21.7865],[88.298,21.7928]]],[[[88.4606,21.8159],[88.4925,21.8357],[88.5096,21.8101],[88.4925,21.7983],[88.4606,21.8159]]],[[[88.6003,21.8509],[88.622,21.8302],[88.6124,21.8141],[88.6216,21.7992],[88.5834,21.8142],[88.6003,21.8509]]],[[[88.6272,21.7976],[88.627,21.8319],[88.601,21.8612],[88.6272,21.8978],[88.6384,21.8686],[88.6618,21.87],[88.6488,21.7863],[88.6272,21.7976]]],[[[88.1932,21.8362],[88.1811,21.8622],[88.1996,21.8381],[88.1932,21.8362]]],[[[88.1093,21.8728],[88.0934,21.8569],[88.0853,21.8649],[88.0898,21.8981],[88.1093,21.8728]]],[[[88.6271,21.9038],[88.6414,21.9224],[88.6735,21.917],[88.657,21.8745],[88.6408,21.8761],[88.6271,21.9038]]],[[[88.4961,21.9076],[88.4991,21.8986],[88.4888,21.9004],[88.4961,21.9076]]],[[[88.0924,21.9249],[88.13,21.893],[88.1162,21.8816],[88.0924,21.9249]]],[[[88.1026,21.9253],[88.1212,21.9632],[88.1543,21.928],[88.1422,21.8976],[88.1026,21.9253]]],[[[88.7183,22.0018],[88.6871,21.9454],[88.6418,21.9509],[88.6341,21.9658],[88.6639,22.0153],[88.6834,22.0024],[88.7183,22.0018]]],[[[88.1417,22.0135],[88.1245,21.976],[88.0965,21.9751],[88.1184,22.0161],[88.1417,22.0135]]],[[[88.6836,22.0086],[88.6743,22.0171],[88.6877,22.0147],[88.6836,22.0086]]],[[[88.8353,21.5592],[88.8438,21.6063],[88.8959,21.5858],[88.9119,21.5463],[88.8633,21.5371],[88.8353,21.5592]]],[[[88.782,21.6162],[88.804,21.5975],[88.7996,21.5749],[88.7445,21.5602],[88.7126,21.5765],[88.7252,21.6306],[88.6902,21.6844],[88.6971,21.7184],[88.7156,21.6772],[88.7542,21.6466],[88.7787,21.6526],[88.782,21.6162]]],[[[89.2855,21.6939],[89.2953,21.6711],[89.2631,21.65],[89.1998,21.6592],[89.2319,21.7014],[89.2199,21.7399],[89.2401,21.7552],[89.2917,21.7472],[89.2843,21.7036],[89.2613,21.6969],[89.2855,21.6939]]],[[[89.3448,21.6914],[89.3353,21.6995],[89.3397,21.7212],[89.3532,21.7075],[89.3448,21.6914]]],[[[90.3622,21.7465],[90.3541,21.7359],[90.3508,21.7388],[90.3622,21.7465]]],[[[89.5611,21.7135],[89.5313,21.8231],[89.5459,21.8493],[89.6102,21.7968],[89.5922,21.7519],[89.6231,21.7109],[89.5611,21.7135]]],[[[89.783,21.8145],[89.7806,21.8233],[89.7904,21.8225],[89.783,21.8145]]],[[[89.3482,21.7823],[89.3377,21.8368],[89.3284,21.8442],[89.329,21.8185],[89.3202,21.8415],[89.3747,21.8824],[89.3482,21.7823]]],[[[90.3245,21.8258],[90.2977,21.8389],[90.3294,21.8386],[90.3245,21.8258]]],[[[89.7553,21.8507],[89.7647,21.8548],[89.778,21.8534],[89.768,21.8485],[89.7553,21.8507]]],[[[89.661,21.8629],[89.6452,21.8736],[89.6541,21.8891],[89.6611,21.8797],[89.661,21.8629]]],[[[90.0904,21.8955],[90.1036,21.8865],[90.0593,21.8322],[90.0215,21.8445],[90.0414,21.8442],[90.0198,21.904],[90.0309,21.9602],[90.077,21.972],[90.0953,21.9352],[90.0904,21.8955]]],[[[89.5446,21.9589],[89.565,21.9289],[89.5431,21.868],[89.5446,21.9589]]],[[[90.3203,21.8541],[90.3036,21.8658],[90.3339,21.9487],[90.3851,21.9977],[90.3573,21.8707],[90.3203,21.8541]]],[[[89.9725,21.9238],[89.9604,21.915],[89.9434,21.9296],[89.9606,21.9471],[89.9725,21.9238]]],[[[90.2649,21.8885],[90.2458,21.8987],[90.2753,21.9426],[90.2645,21.9601],[90.2946,21.9806],[90.3036,21.9223],[90.2649,21.8885]]],[[[90.3303,21.9661],[90.3234,21.9739],[90.3317,21.9815],[90.3303,21.9661]]],[[[90.3751,22.0964],[90.3076,21.9737],[90.2981,21.9849],[90.2821,21.985],[90.2763,22.0244],[90.2936,22.069],[90.3473,22.0893],[90.3372,22.1034],[90.3751,22.0964]]],[[[89.8676,22.2385],[89.8594,22.2516],[89.8619,22.258],[89.8699,22.2497],[89.8676,22.2385]]],[[[90.2892,22.3548],[90.2713,22.3515],[90.2864,22.3644],[90.2892,22.3548]]],[[[90.3223,22.9661],[90.3564,22.9623],[90.368,22.9212],[90.3518,22.9514],[90.3223,22.9661]]],[[[90.2932,22.9627],[90.3136,22.9686],[90.3494,22.9431],[90.3131,22.9459],[90.2932,22.9627]]],[[[90.3062,23.0351],[90.2885,23.0314],[90.2751,23.039],[90.2953,23.0492],[90.3062,23.0351]]],[[[90.4674,23.3095],[90.4857,23.2465],[90.4622,23.2026],[90.4646,23.2254],[90.4534,23.2116],[90.4659,23.1672],[90.4326,23.0911],[90.4459,23.0225],[90.3609,23.0111],[90.3426,22.9819],[90.326,22.9816],[90.3087,23.0538],[90.3259,23.0679],[90.3326,23.1087],[90.3229,23.1024],[90.2729,23.1468],[90.267,23.1328],[90.2905,23.1207],[90.2538,23.1253],[90.2444,23.1379],[90.2657,23.1601],[90.2142,23.1915],[90.1842,23.1708],[90.1781,23.1892],[90.2071,23.2097],[90.2108,23.224],[90.1721,23.262],[90.2124,23.2553],[90.233,23.2607],[90.2526,23.2882],[90.24,23.2931],[90.2866,23.3161],[90.3026,23.3547],[90.3339,23.3674],[90.393,23.3396],[90.4122,23.3025],[90.4674,23.3095]]],[[[90.2305,23.2897],[90.2286,23.2652],[90.1662,23.2687],[90.1801,23.2409],[90.1276,23.2454],[90.1245,23.2738],[90.0892,23.2811],[90.1807,23.3378],[90.2557,23.3117],[90.2305,23.2897]]],[[[90.2989,23.3679],[90.3364,23.3819],[90.3463,23.3767],[90.2989,23.3679]]],[[[90.1896,23.386],[90.1966,23.3718],[90.1914,23.373],[90.1896,23.386]]],[[[90.2757,23.33],[90.2503,23.3317],[90.2182,23.3603],[90.2488,23.3252],[90.2056,23.3503],[90.1836,23.4498],[90.2382,23.4169],[90.3299,23.3948],[90.3316,23.3845],[90.286,23.3796],[90.2964,23.3733],[90.2757,23.33]]],[[[90.184,23.3987],[90.1817,23.3936],[90.1682,23.4225],[90.184,23.3987]]],[[[90.1768,23.4246],[90.1765,23.4189],[90.1686,23.4386],[90.1768,23.4246]]],[[[90.2303,23.4706],[90.2377,23.4724],[90.2391,23.4676],[90.2303,23.4706]]],[[[90.2035,23.4881],[90.1865,23.4972],[90.1838,23.5031],[90.199,23.4973],[90.2035,23.4881]]],[[[90.0967,23.6051],[90.0878,23.6174],[90.1143,23.5944],[90.0967,23.6051]]],[[[89.9318,23.6995],[89.928,23.6854],[89.8982,23.705],[89.9129,23.7073],[89.9318,23.6995]]],[[[89.8656,23.7068],[89.8689,23.7138],[89.8759,23.7073],[89.8656,23.7068]]],[[[89.8652,23.7226],[89.8686,23.7271],[89.8746,23.7189],[89.8652,23.7226]]],[[[90.3413,23.7334],[90.3547,23.715],[90.3291,23.7271],[90.3413,23.7334]]],[[[89.8583,23.7235],[89.8568,23.7306],[89.8623,23.7229],[89.8583,23.7235]]],[[[89.7966,23.7381],[89.786,23.7414],[89.7868,23.7639],[89.7966,23.7381]]],[[[90.2441,23.7912],[90.2522,23.7467],[90.2259,23.725],[90.2118,23.7551],[90.2441,23.7912]]],[[[89.7791,23.7421],[89.746,23.8048],[89.7758,23.7887],[89.7791,23.7421]]],[[[89.718,23.8016],[89.741,23.7775],[89.6823,23.7919],[89.6855,23.804],[89.718,23.8016]]],[[[89.6474,23.7841],[89.6373,23.7995],[89.6754,23.8006],[89.6752,23.7892],[89.6474,23.7841]]],[[[89.4901,23.8208],[89.5325,23.8154],[89.5155,23.7856],[89.4921,23.8079],[89.4901,23.8208]]],[[[89.5669,23.8019],[89.5575,23.8056],[89.595,23.8151],[89.62,23.8056],[89.5465,23.7973],[89.5669,23.8019]]],[[[90.2338,23.8213],[90.2236,23.8068],[90.2054,23.8221],[90.1823,23.8071],[90.1342,23.812],[90.0872,23.8364],[90.1157,23.8541],[90.1171,23.8704],[90.1436,23.827],[90.176,23.8211],[90.2026,23.8355],[90.2338,23.8213]]],[[[89.3479,23.8867],[89.3177,23.8867],[89.3147,23.8929],[89.3479,23.8867]]],[[[89.6885,23.9281],[89.7101,23.9194],[89.7311,23.8789],[89.7008,23.8954],[89.6885,23.9281]]],[[[89.3791,23.9063],[89.398,23.9267],[89.4109,23.9196],[89.3791,23.9063]]],[[[89.3149,23.8989],[89.2906,23.9388],[89.3638,23.9429],[89.3787,23.9275],[89.3556,23.8929],[89.3149,23.8989]]],[[[89.6611,23.9383],[89.6726,23.9407],[89.6775,23.9107],[89.6611,23.9383]]],[[[89.2298,23.9463],[89.232,23.9307],[89.1825,23.9548],[89.2314,23.9586],[89.2505,23.9331],[89.2298,23.9463]]],[[[89.1733,23.9947],[89.154,23.9895],[89.1391,23.9934],[89.1568,23.9991],[89.1733,23.9947]]],[[[90.4497,21.7657],[90.4396,21.7701],[90.4515,21.769],[90.4497,21.7657]]],[[[90.4182,21.8319],[90.4365,21.8359],[90.4445,21.8258],[90.4244,21.8179],[90.4182,21.8319]]],[[[90.5382,21.8629],[90.51,21.8506],[90.4981,21.8612],[90.5182,21.8717],[90.5382,21.8629]]],[[[90.5223,21.9293],[90.5667,21.9568],[90.5431,21.8757],[90.5046,21.88],[90.5223,21.9293]]],[[[90.3869,21.9302],[90.3972,21.9326],[90.3912,21.9211],[90.3869,21.9302]]],[[[90.4964,21.9317],[90.4956,21.9701],[90.5186,21.9792],[90.4964,21.9317]]],[[[90.3961,21.958],[90.3883,21.9603],[90.3958,21.9656],[90.3961,21.958]]],[[[90.4579,21.9207],[90.424,21.8978],[90.3945,21.9049],[90.4168,22.0336],[90.4359,22.0296],[90.4475,22.0343],[90.4715,21.9969],[90.4579,21.9207]]],[[[90.5523,22.0016],[90.5577,22.0054],[90.548,21.9916],[90.5523,22.0016]]],[[[90.5413,22.0211],[90.5221,21.992],[90.4996,21.9977],[90.5212,22.0257],[90.5413,22.0211]]],[[[90.558,22.0227],[90.5627,22.0093],[90.5512,22.0073],[90.558,22.0227]]],[[[90.3625,22.0353],[90.3958,22.0706],[90.4098,22.0497],[90.3402,21.9625],[90.3625,22.0353]]],[[[90.4014,22.0152],[90.4055,22.0318],[90.4039,22.0148],[90.4014,22.0152]]],[[[90.4401,22.0439],[90.4316,22.0338],[90.4136,22.0404],[90.4401,22.0439]]],[[[90.5092,22.0228],[90.4936,22.0072],[90.5574,22.0982],[90.5496,22.0163],[90.5394,22.007],[90.5446,22.0333],[90.5092,22.0228]]],[[[90.5167,22.1057],[90.523,22.0807],[90.4844,22.0437],[90.4821,22.0755],[90.5167,22.1057]]],[[[90.5046,22.0502],[90.531,22.0858],[90.5252,22.1097],[90.542,22.1173],[90.5522,22.1054],[90.5386,22.0775],[90.5046,22.0502]]],[[[90.5064,22.1709],[90.5243,22.1797],[90.5463,22.1707],[90.5107,22.1361],[90.5064,22.1709]]],[[[90.5632,22.2321],[90.5677,22.2145],[90.5387,22.1893],[90.5387,22.1974],[90.5632,22.2321]]],[[[90.484,22.7216],[90.4723,22.7396],[90.4747,22.7461],[90.4833,22.7413],[90.484,22.7216]]],[[[90.5325,22.6863],[90.4885,22.7697],[90.509,22.7926],[90.5502,22.7612],[90.5325,22.6863]]],[[[90.4527,22.7883],[90.4796,22.7568],[90.4576,22.7485],[90.4346,22.7747],[90.4527,22.7883]]],[[[90.4843,22.8343],[90.4912,22.8191],[90.4579,22.8101],[90.4547,22.8299],[90.4843,22.8343]]],[[[90.5683,22.795],[90.5334,22.7951],[90.4846,22.8396],[90.4608,22.8402],[90.4824,22.867],[90.5329,22.8745],[90.5521,22.9054],[90.5483,22.9438],[90.6496,22.8941],[90.6438,22.8594],[90.5683,22.795]]],[[[90.4551,23.0016],[90.5413,22.9533],[90.5431,22.8996],[90.515,22.8747],[90.4671,22.8659],[90.4447,22.8264],[90.4491,22.8052],[90.4274,22.8167],[90.4278,22.8417],[90.3951,22.8281],[90.3898,22.839],[90.4218,22.8989],[90.4173,22.9163],[90.3845,22.856],[90.3951,22.7999],[90.4151,22.7819],[90.3844,22.7899],[90.42,22.7752],[90.3923,22.7672],[90.3323,22.8477],[90.3807,22.9076],[90.3533,22.9932],[90.4309,22.9917],[90.4512,22.9721],[90.4551,23.0016]]],[[[90.4224,22.9963],[90.4343,23.0095],[90.4418,23.0056],[90.4224,22.9963]]],[[[90.393,23.0066],[90.4081,23.0135],[90.4172,23.0099],[90.4052,23.0052],[90.393,23.0066]]],[[[90.5034,23.0104],[90.5003,23.0214],[90.5044,23.0251],[90.5034,23.0104]]],[[[90.5612,23.0441],[90.5669,23.0068],[90.5628,22.9968],[90.5353,23.0249],[90.5612,23.0441]]],[[[90.48,23.0407],[90.496,23.0157],[90.4929,23.0117],[90.4733,23.0279],[90.48,23.0407]]],[[[90.5057,23.0637],[90.5048,23.0334],[90.4968,23.0355],[90.491,23.0532],[90.5057,23.0637]]],[[[90.5237,23.0524],[90.5198,23.0649],[90.5234,23.0689],[90.5237,23.0524]]],[[[90.5055,23.1284],[90.5168,23.1384],[90.5223,23.128],[90.5131,23.0812],[90.5055,23.1284]]],[[[90.4684,23.097],[90.4477,23.0556],[90.4435,23.1068],[90.4907,23.1312],[90.4643,23.1914],[90.4687,23.2012],[90.4724,23.1855],[90.5053,23.1688],[90.5079,23.1439],[90.4922,23.0819],[90.4684,23.097]]],[[[90.4691,23.1551],[90.479,23.1329],[90.4571,23.1226],[90.4623,23.1283],[90.4691,23.1551]]],[[[90.5439,23.1493],[90.5221,23.1767],[90.5317,23.2004],[90.5338,23.169],[90.5468,23.1967],[90.5439,23.1493]]],[[[90.5495,23.2895],[90.5409,23.2371],[90.5051,23.1817],[90.4788,23.1889],[90.4982,23.2794],[90.4511,23.3395],[90.5188,23.3285],[90.5495,23.2895]]],[[[90.5583,23.3138],[90.5473,23.3245],[90.5449,23.3286],[90.5526,23.3295],[90.5583,23.3138]]],[[[90.4206,23.3182],[90.349,23.3965],[90.4311,23.3598],[90.4532,23.3159],[90.4206,23.3182]]],[[[90.4683,23.3604],[90.4776,23.3424],[90.4464,23.3699],[90.4683,23.3604]]],[[[90.5293,23.3648],[90.5382,23.3497],[90.5275,23.3583],[90.5293,23.3648]]],[[[90.5534,23.3784],[90.5529,23.3901],[90.5602,23.3673],[90.5534,23.3784]]],[[[90.4864,23.3686],[90.4238,23.3903],[90.443,23.395],[90.4864,23.3686]]],[[[90.501,23.3839],[90.4739,23.3845],[90.4506,23.3978],[90.4986,23.396],[90.501,23.3839]]],[[[90.4177,23.394],[90.3949,23.4],[90.3924,23.4059],[90.4093,23.4048],[90.4177,23.394]]],[[[90.5401,23.475],[90.5615,23.4807],[90.5557,23.4454],[90.544,23.4543],[90.5401,23.475]]],[[[90.5594,23.5478],[90.5521,23.5666],[90.5668,23.5437],[90.5594,23.5478]]],[[[90.4698,23.5718],[90.4666,23.5501],[90.4394,23.5536],[90.453,23.568],[90.4698,23.5718]]],[[[90.4251,23.6052],[90.4426,23.5675],[90.4335,23.558],[90.4251,23.6052]]],[[[90.4199,23.5975],[90.4285,23.5723],[90.4039,23.6053],[90.4199,23.5975]]],[[[90.4601,23.5745],[90.4477,23.6043],[90.4844,23.5823],[90.5024,23.5851],[90.4601,23.5745]]],[[[90.405,23.6106],[90.3909,23.6159],[90.4177,23.611],[90.405,23.6106]]],[[[90.3979,23.6982],[90.4643,23.628],[90.4381,23.6157],[90.4239,23.6183],[90.4349,23.637],[90.429,23.6419],[90.415,23.624],[90.3878,23.6461],[90.3978,23.6253],[90.3645,23.63],[90.288,23.6726],[90.2617,23.7243],[90.2876,23.7327],[90.3085,23.7608],[90.313,23.7323],[90.3713,23.6956],[90.3979,23.6982]]],[[[90.5613,21.8976],[90.5595,21.8778],[90.5554,21.877],[90.5613,21.8976]]],[[[90.635,21.9311],[90.6555,21.9128],[90.6427,21.8991],[90.6209,21.9111],[90.635,21.9311]]],[[[90.5781,21.9243],[90.5651,21.9237],[90.5727,21.9301],[90.5781,21.9243]]],[[[90.6457,21.95],[90.654,21.9222],[90.6288,21.9403],[90.6457,21.95]]],[[[90.6793,22.0038],[90.6699,21.9968],[90.6687,22.0055],[90.6793,22.0038]]],[[[90.6455,22.0513],[90.6374,21.997],[90.6174,21.9859],[90.6115,21.9988],[90.6455,22.0513]]],[[[90.6602,22.0237],[90.6579,22.0479],[90.6637,22.0212],[90.6602,22.0237]]],[[[90.7015,22.0616],[90.6938,22.0191],[90.6795,22.0196],[90.6691,22.0671],[90.7015,22.0616]]],[[[90.6646,22.067],[90.6559,22.0635],[90.6674,22.0801],[90.6646,22.067]]],[[[90.633,22.0481],[90.612,22.0583],[90.6312,22.0947],[90.6057,22.0544],[90.6228,22.0354],[90.613,22.0195],[90.5929,22.041],[90.5951,22.0693],[90.6341,22.1265],[90.6644,22.1249],[90.6614,22.0905],[90.6315,22.0708],[90.633,22.0481]]],[[[90.5852,22.1],[90.5977,22.1139],[90.5862,22.098],[90.5852,22.1]]],[[[90.5848,22.117],[90.5849,22.1308],[90.5954,22.1267],[90.5848,22.117]]],[[[90.6113,22.1743],[90.6168,22.1767],[90.6128,22.1711],[90.6113,22.1743]]],[[[90.575,22.2311],[90.5772,22.2481],[90.5825,22.2508],[90.575,22.2311]]],[[[90.6295,22.4056],[90.6489,22.3871],[90.6486,22.3674],[90.6295,22.4056]]],[[[90.6487,22.4076],[90.6505,22.4138],[90.6512,22.3998],[90.6487,22.4076]]],[[[90.5965,22.4487],[90.6059,22.463],[90.6258,22.4422],[90.6322,22.3575],[90.5965,22.4487]]],[[[90.6476,22.4201],[90.6393,22.4252],[90.6408,22.4303],[90.6476,22.4201]]],[[[90.6136,22.5392],[90.6334,22.5244],[90.6556,22.4599],[90.6239,22.5069],[90.6136,22.5392]]],[[[90.6436,22.5073],[90.6512,22.5029],[90.6496,22.4987],[90.6436,22.5073]]],[[[90.5577,22.6218],[90.5686,22.6208],[90.5632,22.6057],[90.5577,22.6218]]],[[[90.5657,22.7763],[90.6003,22.7771],[90.571,22.7444],[90.5657,22.7763]]],[[[90.6494,22.7967],[90.5955,22.7887],[90.6042,22.8025],[90.6604,22.8159],[90.6494,22.7967]]],[[[90.6665,22.8261],[90.7021,22.8276],[90.7026,22.8205],[90.6815,22.8128],[90.6665,22.8261]]],[[[90.6453,22.8443],[90.6313,22.8405],[90.6454,22.8492],[90.6453,22.8443]]],[[[90.6875,22.8571],[90.6745,22.8379],[90.6692,22.8416],[90.6875,22.8571]]],[[[90.6714,22.8821],[90.6623,22.8542],[90.6521,22.8487],[90.6554,22.8821],[90.6714,22.8821]]],[[[90.6342,22.959],[90.6388,22.9635],[90.6432,22.9568],[90.6342,22.959]]],[[[90.6803,22.9808],[90.6884,22.9553],[90.6485,22.9847],[90.6803,22.9808]]],[[[90.5756,23.2083],[90.5761,23.1787],[90.5569,23.1601],[90.5541,23.1765],[90.5756,23.2083]]],[[[90.5574,23.1984],[90.5661,23.2048],[90.5566,23.1903],[90.5574,23.1984]]],[[[90.5899,23.2108],[90.5855,23.2229],[90.5954,23.2312],[90.5899,23.2108]]],[[[90.6131,23.2232],[90.6161,23.2364],[90.6141,23.2223],[90.6131,23.2232]]],[[[90.5622,23.2373],[90.5731,23.2392],[90.5578,23.2282],[90.5622,23.2373]]],[[[90.5816,23.2599],[90.5803,23.239],[90.5713,23.2467],[90.5816,23.2599]]],[[[90.6207,23.2617],[90.6333,23.2495],[90.6232,23.2389],[90.6207,23.2617]]],[[[90.5751,23.3086],[90.5657,23.3166],[90.5656,23.3198],[90.5751,23.3086]]],[[[90.5829,23.3499],[90.5857,23.3557],[90.591,23.3393],[90.5829,23.3499]]],[[[90.6734,23.3486],[90.6783,23.3582],[90.6816,23.3461],[90.6734,23.3486]]],[[[90.5845,23.3687],[90.5719,23.3743],[90.5652,23.3945],[90.5851,23.43],[90.5714,23.3878],[90.5845,23.3687]]],[[[90.573,23.4345],[90.5723,23.4496],[90.5742,23.4501],[90.573,23.4345]]],[[[90.6184,23.4883],[90.6132,23.4946],[90.6263,23.4961],[90.6184,23.4883]]],[[[90.6637,23.5167],[90.6888,23.5014],[90.6879,23.4906],[90.6436,23.5019],[90.6637,23.5167]]],[[[90.6987,23.5035],[90.702,23.5148],[90.6983,23.492],[90.6987,23.5035]]],[[[90.5726,23.5117],[90.5573,23.5384],[90.5753,23.5125],[90.5726,23.5117]]],[[[90.7032,23.5522],[90.7019,23.5256],[90.6906,23.5452],[90.7032,23.5522]]],[[[90.667,23.5661],[90.6946,23.5158],[90.6576,23.5209],[90.5851,23.4883],[90.5658,23.5872],[90.5918,23.5834],[90.6371,23.6107],[90.6827,23.5581],[90.667,23.5661]]],[[[90.6992,23.5613],[90.6892,23.5562],[90.6936,23.5641],[90.6992,23.5613]]],[[[90.6905,23.5679],[90.6789,23.5747],[90.6804,23.5794],[90.6905,23.5679]]],[[[90.6122,23.6053],[90.6261,23.6259],[90.6274,23.6239],[90.6122,23.6053]]],[[[90.6317,23.6169],[90.6428,23.6569],[90.6634,23.6642],[90.6503,23.6478],[90.6474,23.6139],[90.6317,23.6169]]],[[[90.6841,23.6613],[90.6694,23.6628],[90.6724,23.669],[90.6841,23.6613]]],[[[90.6577,23.6794],[90.6529,23.6724],[90.6474,23.6798],[90.6577,23.6794]]],[[[92.212,21.1089],[92.2129,21.1062],[92.211,21.1081],[92.212,21.1089]]],[[[92.1961,21.1246],[92.276,20.9003],[92.2397,20.886],[92.1959,20.9601],[92.1847,21.0139],[92.0533,21.1632],[92.0496,21.2642],[92.0289,21.3402],[91.9535,21.4502],[91.9993,21.5054],[92.0221,21.4864],[91.9954,21.5518],[92.0389,21.6476],[92.0405,21.6722],[92.0251,21.6822],[92.0352,21.7006],[92.1961,21.1246]]],[[[91.9479,21.4896],[91.9017,21.5093],[91.9114,21.4757],[91.8969,21.4671],[91.8684,21.4885],[91.8587,21.5221],[91.8821,21.557],[91.8742,21.6069],[91.8913,21.6376],[91.8851,21.6807],[91.9399,21.735],[91.9586,21.6702],[91.9876,21.6301],[91.9859,21.5872],[91.9727,21.5058],[91.9479,21.4896]]],[[[92.0109,21.5983],[92.0041,21.6176],[92.0071,21.6241],[92.0135,21.6135],[92.0109,21.5983]]],[[[92.0303,21.6683],[92.0347,21.6491],[92.0072,21.6281],[92.0021,21.6463],[92.0303,21.6683]]],[[[91.8541,21.6549],[91.8859,21.7611],[91.9093,21.7511],[91.9045,21.7087],[91.8799,21.6822],[91.8806,21.6342],[91.8541,21.6549]]],[[[91.9416,21.7483],[91.9239,21.7286],[91.9145,21.7585],[91.9315,21.7571],[91.9416,21.7483]]],[[[91.9473,21.7662],[91.9399,21.7579],[91.8934,21.7677],[91.9173,21.7749],[91.9473,21.7662]]],[[[91.8783,21.8216],[91.8714,21.8878],[91.8567,21.8746],[91.8745,21.8059],[91.8311,21.7169],[91.8467,21.8128],[91.8409,21.8963],[91.868,21.9222],[91.894,21.8587],[91.8783,21.8216]]],[[[90.7172,21.9585],[90.7036,21.9613],[90.7099,21.9727],[90.7172,21.9585]]],[[[90.7652,22.0786],[90.7778,22.0923],[90.7527,22.0551],[90.7652,22.0786]]],[[[91.0463,22.0858],[91.0414,22.0781],[91.0363,22.0839],[91.0463,22.0858]]],[[[91.0757,22.1064],[91.0613,22.1034],[91.0744,22.1086],[91.0757,22.1064]]],[[[91.0369,22.1023],[91.052,22.125],[91.0842,22.128],[91.0775,22.1133],[91.0369,22.1023]]],[[[91.0611,22.1333],[91.0842,22.1351],[91.0838,22.1321],[91.0611,22.1333]]],[[[91.0443,22.128],[91.0462,22.1754],[91.1061,22.1524],[91.0912,22.133],[91.0677,22.1422],[91.0443,22.128]]],[[[90.9211,22.1356],[90.9521,22.213],[90.9512,22.1168],[90.9211,22.1356]]],[[[91.0333,22.1946],[91.0461,22.1954],[91.0396,22.1839],[91.0333,22.1946]]],[[[90.8316,22.2133],[90.8369,22.2088],[90.8322,22.1853],[90.8316,22.2133]]],[[[90.9272,22.2134],[90.9366,22.2121],[90.9265,22.1974],[90.9272,22.2134]]],[[[90.9751,22.2175],[90.9954,22.2463],[90.9819,22.1761],[90.9784,22.1779],[90.9751,22.2175]]],[[[91.8173,22.2085],[91.8198,22.223],[91.8227,22.2236],[91.8173,22.2085]]],[[[90.9792,22.2365],[90.9827,22.251],[90.9913,22.2609],[90.989,22.2459],[90.9792,22.2365]]],[[[91.8201,22.2775],[91.8008,22.28],[91.8036,22.2975],[91.8201,22.2775]]],[[[90.9352,22.2185],[90.9681,22.3788],[90.9911,22.3296],[90.9577,22.2223],[90.9352,22.2185]]],[[[91.1778,22.3296],[91.1684,22.2023],[91.135,22.1645],[91.1152,22.1683],[91.1191,22.1934],[91.1011,22.2106],[91.1115,22.1597],[91.0505,22.1794],[91.0519,22.4201],[91.0269,22.4766],[91.0408,22.508],[91.1111,22.5023],[91.1275,22.4837],[91.1369,22.3951],[91.1778,22.3296]]],[[[90.8695,22.503],[90.8889,22.445],[90.8462,22.2419],[90.8319,22.2192],[90.8082,22.2193],[90.8254,22.1984],[90.8024,22.2081],[90.796,22.246],[90.7981,22.2038],[90.8209,22.1843],[90.7784,22.186],[90.8194,22.1776],[90.8251,22.1481],[90.7946,22.1077],[90.7958,22.1457],[90.783,22.1074],[90.7622,22.1112],[90.7168,22.0527],[90.7086,22.0646],[90.7371,22.132],[90.7058,22.0721],[90.6749,22.0707],[90.6781,22.1053],[90.6991,22.1114],[90.6703,22.1264],[90.6957,22.1379],[90.6597,22.1332],[90.6338,22.1481],[90.6334,22.1324],[90.6198,22.1325],[90.6111,22.1582],[90.6706,22.2784],[90.6714,22.4739],[90.6066,22.6012],[90.5888,22.6067],[90.6186,22.5467],[90.5729,22.5947],[90.5746,22.6194],[90.5634,22.6408],[90.5889,22.6338],[90.5796,22.6542],[90.5401,22.6309],[90.5569,22.6934],[90.6594,22.7846],[90.726,22.7769],[90.778,22.6269],[90.8695,22.503]]],[[[91.1957,22.4072],[91.1715,22.4341],[91.2028,22.4248],[91.1957,22.4072]]],[[[91.0224,22.4471],[91.0381,22.4262],[91.0338,22.4077],[91.0155,22.4168],[91.0224,22.4471]]],[[[90.9749,22.4596],[90.9897,22.476],[91.0014,22.4575],[90.9955,22.4486],[90.9749,22.4596]]],[[[91.0285,22.5053],[91.0193,22.4851],[91.0099,22.4991],[91.0285,22.5053]]],[[[91.1621,22.5211],[91.1942,22.4985],[91.192,22.4721],[91.1496,22.4946],[91.1388,22.5159],[91.1621,22.5211]]],[[[91.476,22.3492],[91.4551,22.3987],[91.4007,22.4361],[91.3798,22.4944],[91.3921,22.564],[91.3567,22.66],[91.4389,22.6389],[91.5454,22.4693],[91.5582,22.4111],[91.5459,22.3844],[91.5161,22.3469],[91.476,22.3492]]],[[[91.2079,22.4964],[91.1976,22.5092],[91.1975,22.5129],[91.2093,22.5065],[91.2079,22.4964]]],[[[91.0238,22.553],[91.0278,22.5595],[91.0326,22.5576],[91.0238,22.553]]],[[[91.3039,22.554],[91.2704,22.5356],[91.2417,22.5466],[91.2151,22.6068],[91.2173,22.6408],[91.2663,22.6246],[91.3039,22.554]]],[[[91.0916,22.597],[91.1205,22.6313],[91.141,22.6642],[91.1723,22.6084],[91.1656,22.5866],[91.1132,22.5611],[91.0916,22.597]]],[[[91.0879,22.5894],[91.0853,22.553],[91.0658,22.569],[91.0582,22.6391],[91.0449,22.6359],[91.0663,22.7043],[91.1122,22.7],[91.1284,22.6708],[91.1126,22.6309],[91.0958,22.6132],[91.0879,22.5894]]],[[[91.2851,22.6791],[91.2933,22.6646],[91.2806,22.6642],[91.2851,22.6791]]],[[[90.7963,22.6566],[90.7931,22.6879],[90.8039,22.6905],[90.8216,22.6596],[90.7963,22.6566]]],[[[90.9703,22.7597],[90.9863,22.7638],[91.0202,22.7154],[91.0079,22.7052],[90.9757,22.7222],[90.9658,22.7155],[91.0357,22.6706],[91.0292,22.6419],[91.06,22.5964],[91.0553,22.5807],[91.0512,22.5934],[91.0248,22.5766],[91.0438,22.5696],[90.9869,22.5398],[90.9385,22.5619],[90.9256,22.5787],[90.9401,22.5911],[90.9144,22.5899],[90.8618,22.6339],[90.8337,22.7293],[90.7969,22.7739],[90.9095,22.8108],[90.9778,22.7739],[90.9703,22.7597]]],[[[91.0466,22.6858],[91.0344,22.6788],[91.0146,22.698],[91.0372,22.709],[91.0466,22.6858]]],[[[91.2707,22.6674],[91.2165,22.7007],[91.2357,22.7099],[91.2122,22.7042],[91.1311,22.7361],[91.1898,22.7493],[91.268,22.7307],[91.2995,22.7044],[91.2707,22.6674]]],[[[90.8021,22.7146],[90.7921,22.7154],[90.7923,22.7182],[90.8021,22.7146]]],[[[91.3279,22.7554],[91.3538,22.7432],[91.3457,22.7201],[91.3104,22.7451],[91.3279,22.7554]]],[[[90.6585,23.6553],[90.7599,23.6419],[90.7598,23.6309],[90.7358,23.6271],[90.7284,23.5956],[90.6991,23.573],[90.6684,23.59],[90.6585,23.6553]]],[[[90.7287,23.6768],[90.7168,23.6597],[90.6913,23.6714],[90.6989,23.6808],[90.7287,23.6768]]],[[[90.6946,23.6848],[90.7146,23.7266],[90.7319,23.6849],[90.6946,23.6848]]]]}}