{"type":"Feature","properties":{"speciesId":138,"category":"VU","source":"IUCN Red List","simplifyTol":0.01,"clippedToSubcontinent":true},"geometry":{"type":"MultiPolygon","coordinates":[[[[92.3669,10.5274],[92.4001,10.6138],[92.3897,10.6486],[92.3643,10.6684],[92.36,10.7812],[92.3972,10.7866],[92.4129,10.8212],[92.4438,10.8362],[92.446,10.8639],[92.5064,10.8952],[92.5439,10.8619],[92.5491,10.8035],[92.5764,10.7793],[92.5809,10.6763],[92.5642,10.6748],[92.5655,10.6512],[92.5231,10.6121],[92.5228,10.5895],[92.5511,10.5747],[92.5103,10.5126],[92.4776,10.5082],[92.4121,10.5461],[92.3669,10.5274]]],[[[92.6153,10.9263],[92.6257,10.9272],[92.6253,10.9226],[92.6153,10.9263]]],[[[92.6794,10.9812],[92.6691,10.9785],[92.6706,10.9868],[92.6794,10.9812]]],[[[92.6836,11.1852],[92.6905,11.1738],[92.6797,11.1812],[92.6836,11.1852]]],[[[92.6832,11.4723],[92.6961,11.4248],[92.6624,11.4038],[92.7013,11.3901],[92.7032,11.3717],[92.6781,11.3536],[92.6094,11.3484],[92.5979,11.3683],[92.6072,11.3984],[92.6359,11.4002],[92.6249,11.4622],[92.6432,11.5097],[92.6832,11.4723]]],[[[92.6173,11.5249],[92.6127,11.5205],[92.6158,11.5313],[92.6173,11.5249]]],[[[92.562,11.5284],[92.5782,11.522],[92.5744,11.5125],[92.562,11.5284]]],[[[92.6174,11.547],[92.6314,11.5518],[92.6231,11.5301],[92.6174,11.547]]],[[[92.5951,11.5448],[92.6071,11.5669],[92.607,11.5278],[92.5951,11.5448]]],[[[92.6263,11.5608],[92.6148,11.5824],[92.625,11.5837],[92.6263,11.5608]]],[[[92.5802,11.5851],[92.5638,11.56],[92.5413,11.5502],[92.5466,11.6005],[92.5802,11.5851]]],[[[92.612,11.9157],[92.6131,11.9056],[92.6084,11.9063],[92.612,11.9157]]],[[[92.6042,11.9633],[92.6155,11.9568],[92.6142,11.9227],[92.6042,11.9633]]],[[[92.6799,12.5255],[92.6943,12.5319],[92.6899,12.5157],[92.6799,12.5255]]],[[[92.6941,12.8244],[92.6822,12.8038],[92.6762,12.7865],[92.674,12.7932],[92.6941,12.8244]]],[[[92.7064,11.2431],[92.7183,11.2893],[92.7199,11.2727],[92.7064,11.2431]]],[[[92.7339,11.3179],[92.7263,11.3115],[92.733,11.3199],[92.7339,11.3179]]],[[[92.7748,11.6748],[92.7687,11.6757],[92.7773,11.6786],[92.7748,11.6748]]],[[[92.7387,11.9356],[92.7362,11.9478],[92.7436,11.9543],[92.7443,11.9514],[92.7387,11.9356]]],[[[92.7499,11.9551],[92.7713,11.9617],[92.7756,11.9534],[92.7595,11.9398],[92.7499,11.9551]]],[[[92.7453,11.9802],[92.7656,11.9855],[92.7682,11.9826],[92.752,11.9717],[92.7453,11.9802]]],[[[92.7786,12.0034],[92.7799,11.991],[92.7686,11.9989],[92.7786,12.0034]]],[[[93.0384,13.0785],[93.0156,13.0284],[92.9744,13.0348],[92.9736,13.0111],[92.9476,13.0372],[92.9494,13.0607],[92.9259,13.0594],[92.9073,13.0177],[92.9283,12.9817],[92.943,12.9856],[92.9392,12.9574],[92.9166,12.947],[92.9054,12.9924],[92.8816,12.9386],[92.8622,12.9326],[92.8621,12.9101],[92.8832,12.9081],[92.8818,12.8933],[92.9044,12.8971],[92.9053,12.9217],[92.9301,12.9108],[92.9119,12.8845],[92.9347,12.8837],[92.9492,12.8533],[92.9607,12.8039],[92.9439,12.7715],[92.9701,12.7532],[92.9867,12.7118],[92.972,12.7042],[92.963,12.6164],[92.9828,12.5308],[92.9782,12.4943],[92.9701,12.4848],[92.9547,12.4977],[92.9429,12.4768],[92.9428,12.4639],[92.9618,12.4753],[92.9644,12.4644],[92.9267,12.4451],[92.9264,12.4034],[92.8901,12.3769],[92.8818,12.3519],[92.8989,12.3484],[92.9081,12.329],[92.8886,12.3331],[92.9099,12.3203],[92.8681,12.3119],[92.8931,12.2807],[92.8963,12.2556],[92.8666,12.2446],[92.8891,12.1885],[92.8597,12.2014],[92.8575,12.1639],[92.8281,12.1586],[92.8124,12.1299],[92.8178,12.1007],[92.8049,12.1042],[92.8001,12.0811],[92.77,12.0633],[92.7686,12.0479],[92.793,12.0402],[92.7888,12.0238],[92.7489,12.035],[92.7412,12.0183],[92.7649,11.997],[92.7344,11.9874],[92.7453,11.964],[92.7282,11.9525],[92.7249,11.9246],[92.7887,11.9361],[92.7999,11.8769],[92.7702,11.7022],[92.7534,11.7164],[92.7444,11.6818],[92.7675,11.666],[92.764,11.6181],[92.7214,11.4793],[92.7099,11.5102],[92.6837,11.5027],[92.6599,11.5182],[92.6571,11.578],[92.6411,11.5863],[92.6339,11.5639],[92.6201,11.615],[92.6512,11.6092],[92.6588,11.6434],[92.6494,11.6366],[92.6455,11.6596],[92.6397,11.6289],[92.6222,11.6329],[92.5993,11.7157],[92.5723,11.6971],[92.5571,11.8291],[92.5342,11.8264],[92.526,11.8449],[92.5374,11.89],[92.5741,11.9336],[92.6025,11.8786],[92.6244,11.9202],[92.6201,12.0029],[92.6383,12.0382],[92.6309,12.0922],[92.6529,12.1793],[92.6696,12.2162],[92.662,12.1797],[92.6836,12.2184],[92.6872,12.1956],[92.712,12.2569],[92.7243,12.307],[92.7085,12.3296],[92.7149,12.4894],[92.7026,12.5079],[92.7174,12.5638],[92.6939,12.5977],[92.7153,12.6075],[92.7252,12.6362],[92.7287,12.6197],[92.7426,12.6302],[92.756,12.6641],[92.7364,12.6838],[92.7549,12.7161],[92.7273,12.8158],[92.7383,12.8341],[92.7466,12.8117],[92.7693,12.859],[92.7846,12.8392],[92.7786,12.8607],[92.7997,12.8622],[92.816,12.8983],[92.8015,12.9766],[92.8071,12.9891],[92.8246,12.9816],[92.8106,12.9954],[92.8338,13.0086],[92.8032,13.0098],[92.8299,13.0949],[92.824,13.1244],[92.8489,13.1246],[92.8524,13.1401],[92.8298,13.1448],[92.8281,13.166],[92.8417,13.1687],[92.8308,13.1749],[92.8737,13.2379],[92.9428,13.2259],[92.9758,13.1959],[93.0384,13.0785]]],[[[92.7229,12.7188],[92.7034,12.7966],[92.7203,12.8309],[92.722,12.7793],[92.7319,12.7436],[92.7257,12.7518],[92.7229,12.7188]]],[[[92.7277,12.7849],[92.7331,12.77],[92.7319,12.7664],[92.7277,12.7849]]],[[[92.7046,12.8401],[92.7058,12.842],[92.7056,12.841],[92.7046,12.8401]]],[[[92.7293,12.8671],[92.7223,12.8341],[92.7145,12.837],[92.7293,12.8671]]],[[[92.764,12.9096],[92.7636,12.8946],[92.759,12.889],[92.7568,12.8924],[92.764,12.9096]]],[[[92.7969,12.9045],[92.7855,12.9009],[92.7826,12.9057],[92.802,12.9108],[92.7941,12.8911],[92.7969,12.9045]]],[[[92.7841,12.9289],[92.7792,12.9305],[92.7806,12.9338],[92.7841,12.9289]]],[[[93.0876,11.7866],[93.0964,11.7747],[93.0892,11.7753],[93.0876,11.7866]]],[[[93.0827,11.8367],[93.0682,11.8095],[93.0214,11.8266],[93.0198,11.8443],[93.0827,11.8367]]],[[[93.0139,12.0238],[93.0527,11.9256],[93.0625,11.8912],[93.0508,11.8777],[93.0067,11.9381],[93.0172,11.9428],[92.987,11.9429],[92.9709,11.976],[92.9368,11.9903],[92.9734,12.0447],[93.0139,12.0238]]],[[[92.9767,12.0653],[92.9701,12.0739],[92.9719,12.0776],[92.9767,12.0653]]],[[[92.9648,12.0959],[92.9612,12.0788],[92.9584,12.1064],[92.9648,12.0959]]],[[[92.9378,12.206],[92.9505,12.2156],[92.9488,12.1917],[92.9378,12.206]]],[[[92.9212,12.2203],[92.8974,12.2276],[92.8875,12.2058],[92.8811,12.2404],[92.8957,12.2347],[92.9118,12.2512],[92.9212,12.2203]]],[[[92.8771,12.2441],[92.8699,12.2417],[92.8752,12.2468],[92.8771,12.2441]]],[[[92.9376,12.2304],[92.9315,12.2658],[92.9111,12.2724],[92.9162,12.2872],[92.9385,12.2811],[92.9443,12.3033],[92.9376,12.2304]]],[[[92.9191,12.3476],[92.9223,12.3326],[92.9204,12.3319],[92.9191,12.3476]]],[[[92.9453,12.3613],[92.9256,12.3656],[92.9351,12.4005],[92.9665,12.4313],[92.9453,12.3613]]],[[[92.8974,12.9269],[92.88,12.9174],[92.8664,12.9297],[92.8974,12.9269]]],[[[92.959,12.9365],[92.9668,12.9465],[92.9764,12.9434],[92.959,12.9365]]],[[[92.9893,12.9339],[92.961,12.9575],[92.9602,12.9777],[92.9697,12.9873],[92.9796,12.9702],[93.0111,12.9971],[92.9874,12.9643],[92.9893,12.9339]]],[[[92.9513,12.9965],[92.927,13.0044],[92.9311,13.0277],[92.9448,13.0226],[92.9513,12.9965]]]]}}