{"type":"Feature","properties":{"speciesId":14,"category":"LC","source":"IUCN Red List","simplifyTol":0.01,"clippedToSubcontinent":true},"geometry":{"type":"MultiPolygon","coordinates":[[[[95.8876,16.2228],[95.8727,16.2216],[95.8943,16.2393],[95.8876,16.2228]]],[[[95.9016,16.2554],[95.9031,16.273],[95.9078,16.2866],[95.9133,16.2749],[95.9016,16.2554]]],[[[94.6604,16.2697],[94.6579,16.2763],[94.6624,16.2782],[94.6604,16.2697]]],[[[94.6843,16.31],[94.678,16.2989],[94.6812,16.3123],[94.6843,16.31]]],[[[94.2809,15.9915],[94.3322,16.0117],[94.3502,16.0084],[94.3218,15.978],[94.2809,15.9915]]],[[[95.1586,16.1178],[95.1399,16.1177],[95.1617,16.1199],[95.1586,16.1178]]],[[[94.5203,16.1307],[94.5275,16.1457],[94.5448,16.1502],[94.5345,16.1377],[94.5203,16.1307]]],[[[94.6684,16.1227],[94.665,16.1337],[94.6683,16.1346],[94.6684,16.1227]]],[[[94.6647,15.9598],[94.6672,15.9685],[94.6686,15.9667],[94.6647,15.9598]]],[[[94.8099,15.9774],[94.8423,16.0604],[94.86,16.0582],[94.8491,16.0],[94.8099,15.9774]]],[[[95.0846,16.0328],[95.0752,16.0156],[95.0836,16.0383],[95.0846,16.0328]]],[[[95.1832,16.0806],[95.1854,16.028],[95.1377,16.0363],[95.0988,15.9801],[95.0997,16.046],[95.1202,16.0802],[95.1719,16.1117],[95.2087,16.1057],[95.1832,16.0806]]],[[[94.6944,16.0016],[94.7016,16.0264],[94.7171,16.0504],[94.7196,16.0274],[94.6944,16.0016]]],[[[94.6173,16.0416],[94.6182,16.0528],[94.6513,16.0928],[94.6425,16.0649],[94.6173,16.0416]]],[[[95.1272,16.1447],[95.1335,16.1565],[95.1277,16.1379],[95.1272,16.1447]]],[[[94.5347,16.2006],[94.5185,16.2316],[94.5266,16.2838],[94.5602,16.2407],[94.5347,16.2006]]],[[[95.3263,16.1146],[95.3113,16.1457],[95.3183,16.1719],[95.3666,16.2017],[95.3641,16.1565],[95.3263,16.1146]]],[[[97.6443,15.5815],[97.6608,15.5668],[97.6642,15.5139],[97.6552,15.494],[97.6443,15.5815]]],[[[95.1074,15.6644],[95.119,15.6651],[95.1155,15.6605],[95.1074,15.6644]]],[[[95.0718,15.6742],[95.0564,15.6728],[95.0717,15.6793],[95.0718,15.6742]]],[[[95.1861,15.6767],[95.2044,15.6826],[95.2075,15.6737],[95.1915,15.6663],[95.1861,15.6767]]],[[[95.2641,15.6731],[95.2757,15.6791],[95.2779,15.6769],[95.2641,15.6731]]],[[[95.0605,15.7203],[95.0181,15.7194],[95.0568,15.7419],[95.0605,15.7203]]],[[[95.0666,15.8747],[95.0606,15.8772],[95.0651,15.8834],[95.0666,15.8747]]],[[[95.0689,15.8164],[95.0534,15.8195],[95.0646,15.8444],[95.0689,15.8164]]],[[[94.4628,15.9129],[94.4518,15.9193],[94.464,15.9157],[94.4628,15.9129]]],[[[95.3142,15.9296],[95.321,15.9478],[95.3327,15.9568],[95.3321,15.9424],[95.3142,15.9296]]],[[[94.5213,15.9208],[94.5155,15.9292],[94.5225,15.9426],[94.5213,15.9208]]],[[[94.8402,15.869],[94.8081,15.7854],[94.7375,15.7916],[94.7306,15.814],[94.8088,15.9425],[94.8402,15.869]]],[[[94.8332,15.9036],[94.8409,15.8952],[94.8422,15.884],[94.8346,15.8899],[94.8332,15.9036]]],[[[95.3453,15.9583],[95.3384,15.9631],[95.3452,15.9714],[95.3453,15.9583]]],[[[95.241,15.9118],[95.2378,15.9276],[95.2678,15.9852],[95.2682,15.9572],[95.241,15.9118]]],[[[95.3453,16.0479],[95.3256,15.9681],[95.2736,15.8683],[95.2366,15.8652],[95.273,15.9563],[95.28,16.022],[95.3198,16.079],[95.3453,16.0479]]],[[[95.104,15.939],[95.1036,15.9645],[95.1207,15.9944],[95.1186,15.9526],[95.104,15.939]]],[[[94.6367,16.0898],[94.5953,16.038],[94.5788,16.0516],[94.5903,16.0994],[94.5718,16.0745],[94.573,16.0451],[94.5966,16.0307],[94.5938,16.0155],[94.5131,15.9889],[94.4469,15.9199],[94.3974,15.8322],[94.4109,15.8631],[94.3929,15.9017],[94.3863,16.0],[94.4535,16.0189],[94.5847,16.1991],[94.6492,16.2476],[94.6728,16.2032],[94.6367,16.0898]]],[[[93.9846,18.744],[93.9961,18.7475],[94.0091,18.7307],[93.9915,18.7312],[93.9846,18.744]]],[[[93.9661,18.7794],[93.9393,18.8168],[93.9726,18.8367],[93.975,18.8025],[93.9923,18.7854],[93.9661,18.7794]]],[[[94.7867,26.7796],[94.6415,26.8017],[94.5549,26.8371],[94.4232,27.0022],[94.3781,27.1142],[94.3893,27.1643],[94.4458,27.2615],[94.5512,27.4292],[94.6189,27.5028],[94.6904,27.5616],[94.8033,27.6116],[94.9576,27.6498],[95.1157,27.6498],[95.27,27.6116],[95.4167,27.5528],[95.5071,27.4763],[95.5372,27.3969],[95.5043,27.2082],[95.3753,26.9668],[95.2318,26.8312],[95.1834,26.8046],[95.0592,26.781],[94.7867,26.7796]]],[[[88.6553,26.5923],[88.4162,26.6077],[88.3946,26.6292],[88.2471,26.6619],[88.1749,26.7123],[88.1361,26.8011],[88.1549,26.8815],[88.0958,27.0052],[88.0519,27.0344],[88.021,27.2491],[88.0612,27.4245],[88.0519,27.4704],[88.0729,27.5633],[88.116,27.6224],[88.1922,27.7905],[88.2826,27.832],[88.2717,27.8423],[88.3496,27.9032],[88.4033,27.9802],[88.5569,28.05],[88.674,28.0719],[88.7759,28.0575],[88.895,27.9809],[88.9704,27.8424],[88.9926,27.7073],[88.9882,27.6449],[88.9083,27.5652],[88.9039,27.5305],[88.9083,27.4681],[88.9854,27.3269],[88.9719,27.2745],[88.9926,27.1487],[89.0,26.9321],[88.9349,26.8567],[88.8817,26.6967],[88.7663,26.6062],[88.6553,26.5923]]],[[[93.7886,19.1656],[93.9243,19.173],[93.9677,19.1238],[93.9534,19.0885],[93.9557,19.0208],[93.9858,18.9614],[93.9559,18.9192],[93.9596,18.8981],[93.9399,18.8857],[93.9373,18.8473],[93.8923,18.8923],[93.7728,18.9664],[93.7448,18.9689],[93.7151,19.0075],[93.6742,19.0102],[93.6659,19.0664],[93.7053,19.1117],[93.7455,19.1162],[93.7169,19.1192],[93.7886,19.1656]]],[[[93.6897,19.0961],[93.6596,19.082],[93.6933,19.1039],[93.6897,19.0961]]],[[[94.0168,19.1014],[93.9972,19.103],[94.0165,19.106],[94.0168,19.1014]]],[[[93.9777,19.1368],[93.9502,19.1487],[93.9384,19.1738],[94.0016,19.1772],[94.005,19.1555],[93.9777,19.1368]]],[[[94.0465,19.1192],[94.0329,19.1296],[94.0336,19.1701],[94.0635,19.1806],[94.0465,19.1192]]],[[[94.0648,19.1263],[94.0686,19.1809],[94.0927,19.1822],[94.0911,19.1484],[94.0648,19.1263]]],[[[94.1154,19.1515],[94.1003,19.1531],[94.0927,19.1822],[94.1154,19.1515]]],[[[96.0648,16.3563],[96.0779,16.3521],[96.0805,16.3436],[96.0648,16.3563]]],[[[97.5936,16.2399],[97.5769,16.2936],[97.5955,16.3324],[97.6161,16.2774],[97.5936,16.2399]]],[[[97.5064,16.5101],[97.5793,16.4835],[97.6081,16.4883],[97.6162,16.4666],[97.5794,16.3995],[97.5904,16.3597],[97.5683,16.3141],[97.5721,16.2436],[97.559,16.2244],[97.5084,16.2396],[97.4565,16.3187],[97.482,16.3525],[97.4418,16.4469],[97.472,16.4712],[97.4465,16.4702],[97.5064,16.5101]]],[[[95.8751,16.2001],[95.9178,16.273],[95.913,16.3313],[95.9399,16.3786],[95.9563,16.3263],[95.9441,16.2474],[95.8751,16.2001]]],[[[96.021,16.2485],[95.927,16.2097],[95.9519,16.2379],[95.9703,16.3017],[95.971,16.3446],[95.9938,16.382],[96.0736,16.3414],[96.0835,16.3147],[96.021,16.2485]]],[[[95.9615,16.2951],[95.9577,16.313],[95.9577,16.3487],[95.9672,16.3175],[95.9615,16.2951]]],[[[94.5831,16.2228],[94.5746,16.2472],[94.6086,16.2773],[94.6139,16.3189],[94.6499,16.3302],[94.6864,16.3779],[94.6279,16.2577],[94.5831,16.2228]]],[[[94.6827,16.2978],[94.7048,16.3606],[94.7372,16.354],[94.7548,16.3841],[94.7858,16.3564],[94.8134,16.3558],[94.8254,16.3704],[94.7948,16.3601],[94.7519,16.3905],[94.7347,16.3608],[94.7116,16.376],[94.7432,16.4022],[94.75,16.4194],[94.7586,16.4096],[94.7705,16.4093],[94.7839,16.4261],[94.7588,16.4138],[94.7478,16.4265],[94.7126,16.3942],[94.6965,16.4844],[94.7323,16.5056],[94.7463,16.569],[94.7898,16.5778],[94.8004,16.5907],[94.7465,16.5768],[94.7281,16.5145],[94.6898,16.4927],[94.6782,16.5132],[94.7012,16.5517],[94.7103,16.6135],[94.7423,16.6328],[94.7216,16.6872],[94.7447,16.6957],[94.7416,16.7301],[94.7218,16.7336],[94.738,16.7245],[94.7361,16.7004],[94.7173,16.6913],[94.7098,16.6537],[94.733,16.629],[94.6784,16.6436],[94.6989,16.6797],[94.6889,16.7396],[94.6936,16.6767],[94.6754,16.6933],[94.6823,16.6714],[94.6688,16.6524],[94.6511,16.6702],[94.6557,16.6579],[94.6743,16.6497],[94.6581,16.6276],[94.6913,16.6391],[94.7012,16.6217],[94.6924,16.5549],[94.6644,16.5184],[94.6796,16.3932],[94.6529,16.3403],[94.6233,16.338],[94.6403,16.3835],[94.6062,16.3372],[94.6021,16.2844],[94.5648,16.2582],[94.531,16.2921],[94.5464,16.308],[94.5265,16.2987],[94.5119,16.2832],[94.5109,16.1802],[94.4336,16.0697],[94.3681,16.0546],[94.3419,16.0163],[94.2827,16.0],[94.2435,15.9541],[94.1976,16.0363],[94.2285,16.252],[94.2433,16.2647],[94.2309,16.3217],[94.2643,16.3968],[94.2771,16.4963],[94.2615,16.5308],[94.2907,16.5387],[94.2897,16.5191],[94.3149,16.5196],[94.3503,16.5688],[94.3234,16.6005],[94.3508,16.6207],[94.368,16.6149],[94.3563,16.6903],[94.3759,16.7572],[94.4039,16.7885],[94.3788,16.8748],[94.3885,16.907],[94.4106,16.8895],[94.4434,16.9306],[94.484,16.9432],[94.4782,16.9576],[94.443,16.9481],[94.4582,16.9806],[94.4567,17.0673],[94.4896,17.1177],[94.4558,17.1417],[94.4447,17.179],[94.4644,17.1882],[94.4993,17.1568],[94.5216,17.1687],[94.5363,17.1869],[94.5014,17.2162],[94.5083,17.2999],[94.5264,17.2768],[94.5464,17.2903],[94.5409,17.319],[94.5815,17.2885],[94.5917,17.3042],[94.5715,17.3171],[94.5654,17.4983],[94.5416,17.5488],[94.563,17.5931],[94.6099,17.5365],[94.6112,17.5501],[94.5769,17.5914],[94.5884,17.6192],[94.5692,17.6453],[94.5588,17.6362],[94.5416,17.6813],[94.5448,17.7349],[94.4897,17.7824],[94.4815,17.9029],[94.4375,17.9956],[94.4777,18.0065],[94.4847,18.0557],[94.4469,18.1691],[94.4198,18.1937],[94.4268,18.2197],[94.4075,18.2462],[94.3372,18.2416],[94.322,18.2642],[94.3284,18.302],[94.3911,18.2835],[94.4074,18.3107],[94.4023,18.3463],[94.3816,18.3656],[94.3376,18.3662],[94.3225,18.4359],[94.2492,18.5245],[94.2626,18.5486],[94.2513,18.5468],[94.2579,18.6085],[94.2402,18.6458],[94.1409,18.736],[94.1744,18.714],[94.1745,18.7283],[94.2197,18.7182],[94.28,18.7351],[94.253,18.7341],[94.2492,18.7552],[94.2388,18.7347],[94.2169,18.731],[94.2064,18.7431],[94.2243,18.7812],[94.2039,18.7527],[94.1916,18.7712],[94.1993,18.7931],[94.1831,18.7796],[94.1465,18.8144],[94.1762,18.8347],[94.1458,18.8353],[94.1523,18.8795],[94.1696,18.89],[94.1467,18.8848],[94.127,18.8567],[94.1169,18.8566],[94.1287,18.8786],[94.0553,18.8461],[94.0309,18.8633],[94.0439,18.8846],[94.0738,18.8676],[94.0906,18.8806],[94.1057,18.8997],[94.1353,18.892],[94.1086,18.9296],[94.113,18.9662],[94.0864,18.8798],[94.0718,18.8743],[94.031,18.9005],[94.0552,18.9352],[94.0364,18.9913],[94.0632,19.0376],[94.0522,19.0462],[94.1021,19.0766],[94.0897,19.085],[94.097,19.0986],[94.1182,19.0848],[94.1271,19.0876],[94.1083,19.1028],[94.1215,19.1161],[94.1302,19.1104],[94.1423,19.1152],[94.224,19.005],[94.3953,18.4447],[94.4845,18.2234],[94.6421,17.4703],[95.6915,17.9202],[95.9958,17.988],[96.4051,17.9965],[96.6779,17.9711],[97.0017,17.6072],[97.2341,17.5456],[97.4669,17.3981],[97.6853,17.19],[97.8427,16.9434],[98.0,16.3773],[98.0,15.6442],[97.9811,15.5817],[97.9641,15.5748],[98.0,15.3046],[98.0,14.4825],[97.9851,14.4713],[97.9669,14.4417],[97.9654,14.4261],[97.9407,14.5262],[97.9058,14.5783],[97.9134,14.6195],[97.9047,14.6107],[97.8728,14.671],[97.8944,14.7054],[97.8855,14.7229],[97.8678,14.7078],[97.8392,14.7187],[97.7918,14.8683],[97.8083,14.9501],[97.7969,14.9973],[97.8132,15.0062],[97.8244,15.0243],[97.791,14.9984],[97.7707,15.0183],[97.7958,15.0271],[97.8063,15.1503],[97.787,15.1795],[97.7951,15.1903],[97.7693,15.1941],[97.7387,15.2445],[97.7417,15.295],[97.7215,15.3328],[97.7275,15.3548],[97.7469,15.3561],[97.7465,15.3837],[97.7828,15.397],[97.7408,15.4871],[97.762,15.5281],[97.6994,15.7541],[97.7217,15.7717],[97.7179,15.8434],[97.6754,15.9144],[97.6103,15.949],[97.6035,15.9803],[97.5713,16.0108],[97.5582,16.0726],[97.5967,16.0851],[97.6143,16.0611],[97.6277,16.0504],[97.648,16.0442],[97.6654,16.0486],[97.6772,16.0283],[97.6969,16.0274],[97.6673,16.0521],[97.6202,16.0587],[97.6072,16.1036],[97.5978,16.097],[97.6438,16.27],[97.6155,16.3556],[97.6294,16.3873],[97.6141,16.4256],[97.6284,16.4532],[97.6253,16.5],[97.6486,16.4984],[97.6621,16.5123],[97.6624,16.4765],[97.6823,16.4655],[97.7025,16.4706],[97.7044,16.4501],[97.7232,16.4502],[97.7198,16.4268],[97.7539,16.4141],[97.7355,16.4023],[97.7334,16.3833],[97.7784,16.3746],[97.7974,16.354],[97.7858,16.3396],[97.7874,16.3327],[97.8346,16.3236],[97.8601,16.2918],[97.8887,16.2862],[97.8521,16.3024],[97.8441,16.3234],[97.7924,16.3327],[97.8031,16.3534],[97.7905,16.3703],[97.7614,16.386],[97.7372,16.386],[97.7578,16.4177],[97.7289,16.4247],[97.7259,16.4541],[97.7068,16.4536],[97.7023,16.474],[97.6641,16.48],[97.6755,16.5007],[97.6684,16.5455],[97.7465,16.5616],[97.7089,16.5706],[97.6685,16.5549],[97.6442,16.6134],[97.6214,16.6433],[97.6076,16.581],[97.6264,16.5585],[97.6215,16.5187],[97.5325,16.5376],[97.4885,16.5387],[97.481,16.5218],[97.3928,16.5251],[97.3629,16.479],[97.3284,16.6589],[97.3466,16.6471],[97.3939,16.64],[97.4108,16.6424],[97.4241,16.6584],[97.3928,16.6437],[97.3457,16.6544],[97.3406,16.6666],[97.3578,16.6694],[97.3476,16.6786],[97.328,16.667],[97.3301,16.6963],[97.3439,16.6953],[97.3419,16.7341],[97.3402,16.7096],[97.3207,16.7102],[97.3185,16.668],[97.2772,16.6862],[97.2398,16.7684],[97.2498,16.8225],[97.2349,16.8088],[97.2226,16.8417],[97.227,16.8573],[97.2664,16.8441],[97.2781,16.8505],[97.2659,16.8701],[97.265,16.8481],[97.2228,16.8672],[97.2092,16.8129],[97.1998,16.8823],[97.2181,16.9017],[97.2191,16.9379],[97.1906,16.8911],[97.1749,16.8905],[97.1693,16.9107],[97.2072,17.008],[97.1547,17.0679],[97.1533,17.0952],[97.1909,17.1169],[97.2134,17.0874],[97.2646,17.1036],[97.2278,17.1029],[97.2063,17.1338],[97.1791,17.1294],[97.1365,17.1162],[97.1343,17.0806],[97.1143,17.0778],[97.0887,17.1652],[97.1067,17.1878],[97.0833,17.1817],[97.0592,17.2533],[97.0003,17.2668],[97.0091,17.3],[96.9116,17.357],[96.8832,17.4541],[96.8649,17.3961],[96.8434,17.3893],[96.849,17.4134],[96.8209,17.4331],[96.7945,17.4883],[96.7859,17.49],[96.7671,17.4792],[96.7344,17.4353],[96.7735,17.3764],[96.7225,17.3474],[96.6924,17.3664],[96.6498,17.3383],[96.6683,17.2691],[96.6962,17.2479],[96.7086,17.2545],[96.6769,17.2675],[96.6854,17.3453],[96.7251,17.3382],[96.8366,17.3809],[96.8401,17.3648],[96.8443,17.3762],[96.8597,17.3615],[96.856,17.3431],[96.863,17.3527],[96.9111,17.3214],[96.8907,17.3119],[96.9129,17.3049],[96.9024,17.2717],[96.8335,17.2052],[96.8487,17.2008],[96.8771,17.1122],[96.9001,17.0889],[96.9121,17.0177],[96.8737,16.911],[96.8383,16.9272],[96.8509,16.9591],[96.8346,16.9511],[96.8316,16.9194],[96.8552,16.8877],[96.8359,16.9046],[96.8251,16.8937],[96.8072,16.9106],[96.7967,16.9065],[96.8333,16.8788],[96.853,16.8372],[96.8078,16.7555],[96.7808,16.7818],[96.7746,16.7731],[96.8013,16.7397],[96.7713,16.6916],[96.5964,16.5366],[96.4938,16.5046],[96.3837,16.4966],[96.2847,16.5537],[96.2867,16.5918],[96.3336,16.6234],[96.4269,16.6076],[96.4699,16.6127],[96.3313,16.6287],[96.2874,16.6001],[96.2777,16.5775],[96.2638,16.6474],[96.2348,16.6789],[96.2228,16.7542],[96.3156,16.8334],[96.3456,16.8333],[96.3941,16.8594],[96.4084,16.8552],[96.4861,16.8699],[96.5119,16.8882],[96.4839,16.8731],[96.3948,16.864],[96.3244,16.8384],[96.32,16.869],[96.3477,16.9059],[96.3007,16.8637],[96.298,16.8408],[96.2776,16.8693],[96.3037,16.8261],[96.2035,16.7632],[96.1848,16.7765],[96.195,16.7898],[96.1915,16.7999],[96.2124,16.7983],[96.2246,16.8111],[96.2182,16.8412],[96.2089,16.8458],[96.2203,16.8109],[96.1917,16.8059],[96.1802,16.7768],[96.1973,16.7597],[96.1288,16.7711],[96.1208,16.8137],[96.1155,16.8122],[96.1319,16.7589],[96.119,16.7566],[96.1921,16.7409],[96.2157,16.6707],[96.2461,16.636],[96.2366,16.6078],[96.2094,16.6032],[96.1735,16.5831],[96.1736,16.5163],[96.1926,16.4892],[96.1804,16.4874],[96.1754,16.4635],[96.1417,16.4537],[96.1627,16.4177],[96.0771,16.3572],[96.0173,16.3845],[95.9964,16.4107],[95.9121,16.4109],[95.9275,16.385],[95.9059,16.3295],[95.8912,16.2446],[95.7785,16.1291],[95.7544,16.1266],[95.7404,16.1452],[95.7269,16.264],[95.7096,16.2731],[95.7229,16.2566],[95.7382,16.113],[95.6966,16.046],[95.6931,15.9993],[95.6483,15.9258],[95.5158,15.7881],[95.4264,15.7213],[95.358,15.7039],[95.2868,15.7187],[95.2704,15.8008],[95.2792,15.8463],[95.3045,15.8527],[95.2973,15.8621],[95.3195,15.8808],[95.3399,15.88],[95.3404,15.9022],[95.3479,15.8805],[95.3809,15.8721],[95.3989,15.8768],[95.4126,15.9057],[95.3871,15.8768],[95.3534,15.8849],[95.3388,15.9054],[95.3356,15.8829],[95.3225,15.8868],[95.2984,15.8701],[95.3478,15.9473],[95.364,16.0503],[95.3962,16.0616],[95.3628,16.0583],[95.3368,16.0993],[95.3706,16.1492],[95.3907,16.2396],[95.3144,16.1801],[95.3053,16.143],[95.3266,16.0873],[95.2792,16.0394],[95.2352,15.9326],[95.2101,15.8565],[95.2245,15.7932],[95.1768,15.7679],[95.1123,15.8061],[95.1257,15.9908],[95.1415,16.0255],[95.1896,16.0246],[95.1927,16.0799],[95.2671,16.1495],[95.1911,16.1138],[95.2079,16.1777],[95.1799,16.1374],[95.1526,16.1389],[95.165,16.1263],[95.1328,16.1239],[95.1408,16.2315],[95.1236,16.2067],[95.1323,16.1672],[95.1198,16.1153],[95.0867,16.0923],[95.0561,16.0355],[95.0701,15.9441],[95.0369,15.8038],[95.0011,15.7788],[94.9868,15.7848],[94.9842,15.8484],[94.9821,15.76],[94.9391,15.7409],[94.8428,15.7733],[94.832,15.7955],[94.8893,15.8274],[94.8713,15.8954],[94.9508,15.9456],[94.9443,15.9536],[94.8637,15.8968],[94.873,15.8249],[94.845,15.8298],[94.8373,15.8467],[94.8501,15.8762],[94.8241,15.9493],[94.8619,16.0],[94.9145,16.0],[94.9218,16.0306],[94.9054,16.0747],[94.9333,16.0861],[94.9556,16.131],[95.0226,16.135],[95.0225,16.1603],[95.0557,16.1994],[95.0566,16.216],[95.0465,16.2391],[95.0693,16.2458],[95.1006,16.3006],[95.0652,16.2477],[95.0432,16.2457],[95.0479,16.1971],[95.0137,16.1616],[95.0162,16.1437],[94.9529,16.1388],[94.9304,16.0942],[94.9029,16.083],[94.9154,16.0299],[94.8918,16.0061],[94.8785,16.0115],[94.8656,16.1351],[94.8888,16.1818],[94.9573,16.1962],[95.0257,16.2628],[95.0421,16.3097],[95.0649,16.3114],[95.0509,16.3127],[95.0505,16.3334],[95.0165,16.2669],[94.9522,16.211],[94.8727,16.1872],[94.8388,16.1108],[94.8497,16.0723],[94.8395,16.0663],[94.7987,15.989],[94.7995,15.9677],[94.7194,15.8505],[94.6856,15.8371],[94.634,15.8613],[94.6005,15.9203],[94.6697,15.9557],[94.7184,16.0],[94.7362,16.0636],[94.7845,16.0965],[94.763,16.1241],[94.7876,16.1316],[94.8071,16.1998],[94.8374,16.2115],[94.8529,16.2398],[94.8035,16.2062],[94.7764,16.1448],[94.7554,16.1316],[94.7516,16.0937],[94.7196,16.0669],[94.6841,16.0],[94.5696,15.929],[94.5501,15.966],[94.5608,15.9567],[94.5826,16.0],[94.6173,16.0191],[94.6846,16.1148],[94.6806,16.2026],[94.7209,16.2029],[94.7589,16.2373],[94.7395,16.2574],[94.7567,16.2809],[94.7336,16.2564],[94.7496,16.2377],[94.7262,16.2305],[94.7192,16.2091],[94.6748,16.2152],[94.6636,16.2472],[94.6981,16.2454],[94.7087,16.2549],[94.7058,16.2669],[94.6983,16.2493],[94.6636,16.2541],[94.6827,16.2978]]],[[[98.0,14.2877],[97.9679,14.3955],[98.0,14.4789],[98.0,14.2877]]],[[[94.6979,16.3684],[94.698,16.3876],[94.7024,16.3907],[94.7021,16.3785],[94.6979,16.3684]]],[[[94.227,16.3781],[94.234,16.3846],[94.2308,16.3756],[94.227,16.3781]]],[[[96.0038,16.385],[95.9967,16.3987],[96.0071,16.3859],[96.0038,16.385]]],[[[95.9291,16.3683],[95.9279,16.3735],[95.9334,16.3835],[95.9291,16.3683]]],[[[95.9658,16.3464],[95.9522,16.3705],[95.9586,16.4063],[95.9924,16.3898],[95.9658,16.3464]]],[[[95.9387,16.3893],[95.9399,16.3965],[95.9418,16.3884],[95.9387,16.3893]]],[[[95.9515,16.3793],[95.9437,16.3836],[95.9477,16.39],[95.9515,16.3793]]],[[[96.309,16.4677],[96.3095,16.4759],[96.3185,16.4672],[96.309,16.4677]]],[[[96.1871,16.4718],[96.1871,16.4718],[96.1871,16.4718],[96.1871,16.4718]]],[[[97.5905,16.4882],[97.5739,16.4879],[97.5694,16.493],[97.5905,16.4882]]],[[[97.5532,16.5085],[97.5349,16.5081],[97.5285,16.5115],[97.5532,16.5085]]],[[[97.6046,16.3789],[97.601,16.3972],[97.6051,16.4101],[97.6131,16.3953],[97.6046,16.3789]]],[[[97.7152,16.5643],[97.7047,16.5617],[97.7036,16.5633],[97.7152,16.5643]]],[[[96.3107,16.8499],[96.3016,16.8461],[96.3033,16.8612],[96.3107,16.8499]]],[[[97.1871,16.8463],[97.183,16.8705],[97.1928,16.8777],[97.1989,16.8658],[97.1871,16.8463]]],[[[96.6759,17.3462],[96.6652,17.3236],[96.655,17.3371],[96.6759,17.3462]]],[[[96.778,17.3694],[96.7677,17.3663],[96.7776,17.3754],[96.778,17.3694]]],[[[96.7865,17.4833],[96.8078,17.4389],[96.8428,17.407],[96.8101,17.3801],[96.7884,17.3795],[96.7389,17.4316],[96.7865,17.4833]]],[[[94.5871,17.5687],[94.5929,17.5688],[94.5905,17.5607],[94.5871,17.5687]]],[[[94.4506,18.1328],[94.4417,18.1332],[94.4503,18.1388],[94.4506,18.1328]]],[[[94.3768,18.3426],[94.3767,18.3504],[94.3823,18.3461],[94.3768,18.3426]]],[[[94.2436,18.5307],[94.242,18.5408],[94.2478,18.5369],[94.2436,18.5307]]],[[[94.1131,18.8492],[94.1386,18.8543],[94.1227,18.8084],[94.0696,18.8359],[94.0747,18.8536],[94.1155,18.8697],[94.1131,18.8492]]],[[[94.0394,19.0215],[94.0409,19.0389],[94.0542,19.0382],[94.0545,19.0336],[94.0394,19.0215]]],[[[94.0403,19.0527],[94.0186,19.0454],[94.0375,19.0623],[94.0403,19.0527]]],[[[94.0337,19.102],[94.1033,19.1435],[94.1213,19.1436],[94.1399,19.1185],[94.1161,19.1204],[94.0545,19.0754],[94.0272,19.0792],[94.0337,19.102]]],[[[97.6557,16.5165],[97.6474,16.5138],[97.6558,16.5234],[97.6557,16.5165]]],[[[97.6083,16.5085],[97.5876,16.5066],[97.5555,16.5248],[97.6083,16.5085]]],[[[96.1804,16.4603],[96.1831,16.4835],[96.1985,16.4841],[96.1788,16.5142],[96.1782,16.581],[96.2296,16.6002],[96.2628,16.5187],[96.3026,16.4722],[96.2944,16.4457],[96.3266,16.4653],[96.3211,16.447],[96.336,16.4437],[96.3069,16.408],[96.155,16.322],[96.1044,16.3223],[96.0914,16.3535],[96.109,16.3796],[96.1432,16.3846],[96.1689,16.4176],[96.1488,16.4548],[96.1804,16.4603]]],[[[94.253,16.5291],[94.2422,16.5182],[94.2493,16.5399],[94.253,16.5291]]],[[[97.5148,16.5236],[97.4991,16.5271],[97.5211,16.5336],[97.5148,16.5236]]],[[[97.6425,16.5286],[97.6262,16.5365],[97.6435,16.5772],[97.6647,16.5554],[97.6425,16.5286]]],[[[97.6481,16.5787],[97.6573,16.5738],[97.6534,16.5681],[97.6481,16.5787]]],[[[97.6359,16.5736],[97.6122,16.58],[97.6261,16.6184],[97.6445,16.6024],[97.6359,16.5736]]]]}}