{"type":"Feature","properties":{"speciesId":142,"category":"VU","source":"IUCN Red List","simplifyTol":0.01,"clippedToSubcontinent":true},"geometry":{"type":"MultiPolygon","coordinates":[[[[79.8229,7.9447],[79.8199,7.9542],[79.822,7.9553],[79.8229,7.9447]]],[[[72.8387,19.3333],[72.8516,19.3378],[72.8684,19.3295],[72.8387,19.3333]]],[[[72.7286,19.4696],[72.7383,19.4681],[72.7327,19.4608],[72.7286,19.4696]]],[[[72.8349,18.7678],[72.8456,18.7691],[72.8412,18.7641],[72.8349,18.7678]]],[[[72.8502,18.7868],[72.844,18.7916],[72.8501,18.7971],[72.8502,18.7868]]],[[[72.9321,18.9527],[72.9223,18.9629],[72.9424,18.9688],[72.9389,18.9654],[72.9321,18.9527]]],[[[73.0594,19.0065],[73.0493,19.0066],[73.0566,19.0171],[73.0594,19.0065]]],[[[82.3479,16.6034],[82.3413,16.607],[82.3489,16.6109],[82.3479,16.6034]]],[[[83.4669,17.9095],[83.4535,17.9115],[83.4631,17.9187],[83.4669,17.9095]]],[[[72.8047,18.7003],[72.8151,18.7014],[72.8112,18.6914],[72.8047,18.7003]]],[[[72.8332,18.7041],[72.8424,18.7075],[72.838,18.7002],[72.8332,18.7041]]],[[[74.1492,14.7349],[74.1524,14.7386],[74.1513,14.7341],[74.1492,14.7349]]],[[[74.1152,14.754],[74.1034,14.7558],[74.1052,14.7621],[74.1152,14.754]]],[[[74.0817,14.7939],[74.0835,14.7921],[74.0824,14.7905],[74.0817,14.7939]]],[[[74.0529,14.817],[74.0499,14.8172],[74.0567,14.8188],[74.0529,14.817]]],[[[74.0961,14.8432],[74.0918,14.8414],[74.0919,14.8455],[74.0961,14.8432]]],[[[74.1,14.8622],[74.0991,14.8645],[74.0999,14.8645],[74.1,14.8622]]],[[[74.0919,14.8759],[74.0891,14.8748],[74.0899,14.8778],[74.0919,14.8759]]],[[[73.7607,15.3543],[73.7569,15.3573],[73.7605,15.3574],[73.7607,15.3543]]],[[[73.7896,15.3719],[73.7865,15.3772],[73.7904,15.3776],[73.7896,15.3719]]],[[[73.4455,15.8897],[73.4446,15.8907],[73.4458,15.8903],[73.4455,15.8897]]],[[[73.4541,15.8933],[73.4558,15.8935],[73.4551,15.8914],[73.4541,15.8933]]],[[[73.5407,15.925],[73.5379,15.9247],[73.5395,15.9267],[73.5407,15.925]]],[[[73.4554,15.9319],[73.4576,15.9313],[73.4564,15.9307],[73.4554,15.9319]]],[[[73.4707,15.9724],[73.4688,15.9732],[73.4701,15.9747],[73.4707,15.9724]]],[[[73.4838,16.0],[73.4957,15.9712],[73.4863,15.9812],[73.4838,16.0]]],[[[73.7765,15.3544],[73.7666,15.3553],[73.774,15.3587],[73.7765,15.3544]]],[[[73.4503,15.9909],[73.4516,15.9891],[73.4509,15.9891],[73.4503,15.9909]]],[[[92.7935,20.2451],[92.9192,20.3075],[92.8675,20.1177],[92.7649,20.2],[92.7873,20.2401],[92.7969,20.2102],[92.8305,20.1804],[92.8458,20.1823],[92.799,20.2141],[92.7935,20.2451]]],[[[92.7417,20.2186],[92.7343,20.2213],[92.7337,20.2383],[92.7417,20.2186]]],[[[86.7002,20.2874],[86.6889,20.2951],[86.7088,20.2939],[86.7002,20.2874]]],[[[92.8255,20.3996],[92.8278,20.4109],[92.8326,20.402],[92.8255,20.3996]]],[[[92.8406,20.3868],[92.9108,20.3717],[92.9389,20.3811],[92.9202,20.3118],[92.8982,20.3078],[92.8406,20.3868]]],[[[92.7522,20.3624],[92.7468,20.3513],[92.7418,20.3584],[92.7522,20.3624]]],[[[92.8461,20.3965],[92.8766,20.4023],[92.8916,20.3885],[92.8718,20.3864],[92.8461,20.3965]]],[[[92.7639,20.4341],[92.8214,20.4216],[92.8122,20.4063],[92.8663,20.3192],[92.8411,20.2875],[92.7948,20.2773],[92.8025,20.3036],[92.8357,20.3129],[92.8128,20.3389],[92.8143,20.3141],[92.7758,20.2801],[92.7639,20.4341]]],[[[92.7219,20.5749],[92.7008,20.5817],[92.6991,20.6049],[92.7219,20.5749]]],[[[92.3262,20.5853],[92.3129,20.627],[92.3212,20.6346],[92.3296,20.5991],[92.3262,20.5853]]],[[[92.3447,20.7173],[92.3591,20.7199],[92.358,20.7139],[92.3447,20.7173]]],[[[92.5512,20.757],[92.5627,20.7432],[92.5806,20.749],[92.5749,20.7317],[92.5864,20.7294],[92.5754,20.7211],[92.5491,20.7402],[92.5512,20.757]]],[[[72.8807,20.6811],[72.89,20.6884],[72.8912,20.6843],[72.8807,20.6811]]],[[[72.8454,20.7442],[72.855,20.7205],[72.877,20.7253],[72.8737,20.6908],[72.8667,20.7131],[72.8576,20.706],[72.8815,20.6466],[72.8706,20.6522],[72.8454,20.7442]]],[[[92.5865,20.7131],[92.6185,20.7141],[92.6353,20.7243],[92.6389,20.72],[92.6335,20.6965],[92.6086,20.6838],[92.5865,20.7131]]],[[[86.7981,20.3886],[86.7909,20.4204],[86.8043,20.4822],[86.8161,20.4409],[86.7981,20.3886]]],[[[92.7683,20.4705],[92.7972,20.4995],[92.8048,20.4859],[92.7789,20.4549],[92.7891,20.4417],[92.7697,20.4381],[92.7559,20.4701],[92.7683,20.4705]]],[[[72.9361,20.7636],[72.932,20.7705],[72.9412,20.7674],[72.9361,20.7636]]],[[[72.8404,20.7752],[72.856,20.7635],[72.8547,20.7598],[72.8404,20.7752]]],[[[72.8648,20.7678],[72.8726,20.768],[72.8728,20.7588],[72.8648,20.7678]]],[[[72.8436,20.7883],[72.8407,20.7969],[72.8444,20.7987],[72.8436,20.7883]]],[[[72.831,20.8052],[72.815,20.8357],[72.7824,20.9205],[72.8226,20.8256],[72.8415,20.8054],[72.831,20.8052]]],[[[72.817,20.91],[72.807,20.9073],[72.8173,20.919],[72.817,20.91]]],[[[92.2638,21.0272],[92.2566,21.0234],[92.2613,21.0311],[92.2638,21.0272]]],[[[72.8453,21.0376],[72.8357,21.0425],[72.8453,21.0424],[72.8453,21.0376]]],[[[72.6758,21.0633],[72.6836,21.0665],[72.6852,21.0536],[72.6758,21.0633]]],[[[72.6739,21.0707],[72.6479,21.0595],[72.6749,21.0808],[72.6739,21.0707]]],[[[92.2201,21.109],[92.211,21.1081],[92.2168,21.1148],[92.2201,21.109]]],[[[92.3067,20.9822],[92.3326,20.9939],[92.3552,20.9436],[92.3194,20.9071],[92.3036,20.9269],[92.3159,20.9543],[92.3067,20.9822]]],[[[92.2969,20.9277],[92.2813,20.9476],[92.3007,20.9774],[92.3098,20.9528],[92.2969,20.9277]]],[[[72.7723,20.9793],[72.7751,20.9933],[72.7868,20.9919],[72.7723,20.9793]]],[[[72.8752,20.7521],[72.8613,20.7556],[72.8767,20.754],[72.8752,20.7521]]],[[[79.8027,8.1732],[79.8083,8.166],[79.8072,8.1616],[79.8027,8.1732]]],[[[79.7791,8.2723],[79.7844,8.2605],[79.7825,8.2591],[79.7777,8.261],[79.7791,8.2723]]],[[[79.7966,8.3042],[79.7938,8.2942],[79.7937,8.3034],[79.7966,8.3042]]],[[[79.8009,8.3335],[79.8047,8.3357],[79.8078,8.3169],[79.8009,8.3335]]],[[[79.7939,8.368],[79.7868,8.3829],[79.7887,8.3867],[79.7958,8.3849],[79.7939,8.368]]],[[[79.7896,8.408],[79.7756,8.4782],[79.7801,8.526],[79.7777,8.4911],[79.7896,8.408]]],[[[78.5892,9.0978],[78.5753,9.0966],[78.5884,9.1038],[78.5892,9.0978]]],[[[78.8327,9.1623],[78.824,9.1593],[78.8333,9.1667],[78.8327,9.1623]]],[[[81.2153,8.5394],[81.2059,8.54],[81.2108,8.5453],[81.2153,8.5394]]],[[[79.888,8.9431],[79.9086,8.9236],[79.923,8.8973],[79.888,8.9431]]],[[[79.9145,8.9439],[79.9039,8.9383],[79.9131,8.9481],[79.9145,8.9439]]],[[[79.9038,8.945],[79.8909,8.9525],[79.9027,8.9553],[79.9038,8.945]]],[[[79.6959,9.0996],[79.7305,9.1063],[79.8444,9.0816],[79.9283,9.0085],[79.8576,9.0564],[79.9232,8.9722],[79.889,8.9579],[79.8163,9.0326],[79.7063,9.0763],[79.6959,9.0996]]],[[[79.6883,9.071],[79.6984,9.0755],[79.6993,9.0734],[79.6883,9.071]]],[[[78.9011,9.1741],[78.9116,9.1797],[78.9476,9.1803],[78.9362,9.1745],[78.9011,9.1741]]],[[[79.0888,9.1881],[79.0712,9.2024],[79.0938,9.1926],[79.0888,9.1881]]],[[[79.1847,9.2426],[79.1945,9.2325],[79.2048,9.2328],[79.1907,9.2307],[79.1847,9.2426]]],[[[79.2097,9.2387],[79.2167,9.2457],[79.2287,9.2446],[79.2097,9.2387]]],[[[80.0034,9.2659],[79.9981,9.2817],[80.0026,9.2875],[80.0067,9.2814],[80.0034,9.2659]]],[[[79.9758,9.2788],[79.9872,9.3044],[79.9909,9.2826],[79.9758,9.2788]]],[[[80.0829,9.3194],[80.0916,9.3117],[80.0807,9.3119],[80.0829,9.3194]]],[[[80.0553,9.3316],[80.0579,9.3456],[80.059,9.3282],[80.0553,9.3316]]],[[[80.0129,9.4664],[80.0054,9.4812],[80.0059,9.4858],[80.0189,9.477],[80.0129,9.4664]]],[[[79.6884,9.5211],[79.7251,9.5226],[79.7271,9.4799],[79.6604,9.5007],[79.653,9.5535],[79.6746,9.5498],[79.6884,9.5211]]],[[[79.794,9.5846],[79.7995,9.5898],[79.8002,9.5789],[79.794,9.5846]]],[[[74.7261,13.2235],[74.7246,13.2251],[74.7253,13.2255],[74.7261,13.2235]]],[[[74.7113,13.2373],[74.7132,13.2372],[74.7125,13.2347],[74.7113,13.2373]]],[[[74.6851,13.2615],[74.6866,13.26],[74.6858,13.2597],[74.6851,13.2615]]],[[[74.6824,13.2632],[74.6813,13.2659],[74.6826,13.2664],[74.6824,13.2632]]],[[[74.7198,13.2198],[74.7202,13.2234],[74.7216,13.2204],[74.7198,13.2198]]],[[[74.6958,13.2754],[74.6923,13.2776],[74.6953,13.2789],[74.6958,13.2754]]],[[[74.6916,13.281],[74.693,13.2828],[74.6929,13.2805],[74.6916,13.281]]],[[[74.685,13.3266],[74.6866,13.3263],[74.6867,13.3247],[74.685,13.3266]]],[[[74.6771,13.3389],[74.6783,13.3402],[74.6796,13.3374],[74.6771,13.3389]]],[[[74.6723,13.3617],[74.6735,13.3595],[74.6725,13.3593],[74.6723,13.3617]]],[[[74.6665,13.373],[74.6668,13.3763],[74.6689,13.3725],[74.6665,13.373]]],[[[74.4756,14.0091],[74.4729,14.011],[74.4764,14.0124],[74.4756,14.0091]]],[[[74.3309,14.0178],[74.3226,14.0179],[74.327,14.0217],[74.3309,14.0178]]],[[[74.4835,14.0238],[74.4799,14.0248],[74.4835,14.0253],[74.4835,14.0238]]],[[[74.4634,14.0859],[74.4666,14.084],[74.4654,14.0831],[74.4634,14.0859]]],[[[74.4746,14.0957],[74.4786,14.0927],[74.4748,14.0931],[74.4746,14.0957]]],[[[74.4706,14.1051],[74.4668,14.1079],[74.4689,14.1094],[74.4706,14.1051]]],[[[74.3938,14.3089],[74.3985,14.3133],[74.4003,14.3106],[74.3938,14.3089]]],[[[74.2486,14.6996],[74.246,14.702],[74.2488,14.7011],[74.2486,14.6996]]],[[[74.2345,14.7079],[74.2316,14.7096],[74.2353,14.7098],[74.2345,14.7079]]],[[[74.1419,14.7216],[74.145,14.7222],[74.1432,14.7199],[74.1419,14.7216]]],[[[80.1147,9.8088],[80.2147,9.8314],[80.2493,9.8236],[80.3657,9.6603],[80.8117,9.2909],[80.8841,9.1219],[81.0005,8.9388],[80.993,8.918],[81.0102,8.929],[81.013,8.8911],[81.021,8.9048],[81.0589,8.8595],[81.0875,8.8584],[81.1048,8.8126],[81.2267,8.6475],[81.2208,8.6062],[81.2298,8.581],[81.2451,8.5793],[81.2471,8.5458],[81.2257,8.5323],[81.2261,8.5695],[81.1927,8.5665],[81.2119,8.5077],[81.1896,8.5018],[81.1977,8.4615],[81.2624,8.4569],[81.304,8.4326],[81.304,8.4583],[81.2958,8.4465],[81.2809,8.4568],[81.2831,8.5032],[81.3222,8.5224],[81.353,8.4909],[81.3937,8.3567],[81.4078,8.2419],[81.4769,8.0343],[81.5686,7.9227],[81.5874,7.921],[81.5671,7.8981],[81.593,7.83],[81.6268,7.8247],[81.6544,7.7729],[81.6999,7.7536],[81.7713,7.6448],[81.8718,7.3159],[81.8586,7.0907],[81.8813,7.0267],[81.8704,6.9789],[81.8489,6.9896],[81.8578,6.9672],[81.8729,6.9669],[81.8364,6.8853],[81.8518,6.8884],[81.8483,6.8675],[81.8397,6.8542],[81.8211,6.8621],[81.8444,6.8344],[81.8233,6.8088],[81.8249,6.7653],[81.8084,6.7647],[81.8279,6.7586],[81.7759,6.6639],[81.7664,6.592],[81.7324,6.5669],[81.7003,6.482],[81.6518,6.4367],[81.5973,6.4241],[81.6135,6.4056],[81.56,6.3612],[81.522,6.3525],[81.4869,6.3055],[81.3285,6.1945],[81.2222,6.1589],[81.1946,6.1576],[81.197,6.1776],[81.178,6.1441],[81.1336,6.1174],[81.0167,6.1071],[80.8659,6.0408],[80.8255,6.0415],[80.7202,5.9607],[80.6641,5.9575],[80.5868,5.9168],[80.5532,5.9411],[80.4489,5.9431],[80.4522,5.9588],[80.4357,5.969],[80.4179,5.955],[80.3828,5.9595],[80.2442,6.0069],[80.2285,6.0351],[80.2186,6.022],[80.0986,6.1289],[80.0314,6.2656],[80.0252,6.3364],[79.9746,6.464],[79.9866,6.4771],[79.9796,6.5149],[79.8687,6.8057],[79.8431,6.9333],[79.8712,6.9756],[79.869,7.0027],[79.819,7.1934],[79.8592,7.2756],[79.8445,7.2761],[79.8027,7.4826],[79.7916,7.5936],[79.8062,7.6517],[79.7784,7.8264],[79.7053,8.0526],[79.6984,8.2138],[79.7179,8.2167],[79.7381,8.28],[79.7812,8.3497],[79.7563,8.3071],[79.7511,8.2617],[79.7655,8.2739],[79.7573,8.2571],[79.7766,8.2541],[79.7688,8.2156],[79.7404,8.2008],[79.7492,8.1829],[79.7316,8.0868],[79.7541,8.0582],[79.7426,8.0],[79.8163,7.9776],[79.8082,7.8839],[79.8179,7.8899],[79.834,8.0071],[79.7896,8.0682],[79.8086,8.0611],[79.7948,8.0793],[79.8338,8.1396],[79.8154,8.2037],[79.7946,8.2203],[79.8095,8.2174],[79.7897,8.2301],[79.8101,8.2374],[79.8342,8.2919],[79.8476,8.2742],[79.8584,8.2846],[79.8362,8.3011],[79.8445,8.4289],[79.8632,8.4496],[79.8709,8.5352],[79.9263,8.559],[79.9193,8.5846],[79.9414,8.6155],[79.9558,8.7174],[79.9248,8.7907],[79.9401,8.8068],[79.9184,8.8083],[79.9307,8.8147],[79.919,8.8188],[79.9358,8.8913],[79.9122,8.9299],[80.0403,9.0133],[80.0661,9.0562],[80.0857,9.0999],[80.0761,9.1203],[80.1173,9.2072],[80.1116,9.2768],[80.1278,9.2906],[80.0914,9.3239],[80.0676,9.3287],[80.0549,9.3914],[80.1466,9.4347],[80.1861,9.4827],[80.1461,9.5361],[80.054,9.5979],[80.0876,9.6249],[80.0176,9.6509],[79.971,9.7077],[79.948,9.6871],[79.9099,9.7587],[79.9772,9.8033],[80.1147,9.8088]]],[[[79.8148,9.6248],[79.8325,9.5865],[79.8639,9.6054],[79.8582,9.568],[79.8082,9.5772],[79.8148,9.6248]]],[[[79.7733,9.5849],[79.7619,9.5986],[79.7722,9.6206],[79.7757,9.6141],[79.7733,9.5849]]],[[[79.8336,9.6055],[79.8273,9.6121],[79.8372,9.6099],[79.8336,9.6055]]],[[[79.8431,9.6077],[79.8466,9.6175],[79.8545,9.6093],[79.8431,9.6077]]],[[[80.0059,9.6075],[79.9864,9.5962],[79.9661,9.6051],[79.9863,9.6088],[79.9958,9.6302],[80.0059,9.6075]]],[[[80.0071,9.6431],[80.0144,9.6412],[80.0151,9.6393],[80.0071,9.6431]]],[[[79.8543,9.6348],[79.8648,9.6259],[79.8632,9.6188],[79.8559,9.6243],[79.8543,9.6348]]],[[[79.9936,9.6407],[80.0,9.6437],[80.0064,9.6328],[79.9936,9.6407]]],[[[79.7759,9.6457],[79.7643,9.6596],[79.7832,9.6837],[79.7849,9.6647],[79.7759,9.6457]]],[[[79.7918,9.6851],[79.7956,9.6829],[79.7937,9.68],[79.7918,9.6851]]],[[[79.815,9.7137],[79.8128,9.6842],[79.8091,9.6937],[79.815,9.7137]]],[[[79.8644,9.7594],[79.8983,9.7605],[79.8827,9.7016],[79.8538,9.7135],[79.8644,9.7594]]],[[[79.8512,9.6993],[79.8868,9.6968],[79.9108,9.6559],[79.9084,9.6712],[79.9334,9.6776],[79.9271,9.6624],[79.9831,9.6203],[79.9701,9.6115],[79.9249,9.6329],[79.9068,9.6135],[79.8743,9.6348],[79.8766,9.6666],[79.8611,9.6581],[79.8512,9.6993]]],[[[72.6831,21.1081],[72.6743,21.1286],[72.6971,21.1414],[72.6959,21.1289],[72.6831,21.1081]]],[[[92.2076,21.1318],[92.2179,21.1304],[92.2178,21.1235],[92.2076,21.1318]]],[[[72.6391,21.2741],[72.6202,21.2709],[72.6254,21.2826],[72.6391,21.2741]]],[[[72.6284,21.3343],[72.6204,21.3316],[72.6267,21.3382],[72.6284,21.3343]]],[[[72.3597,21.5952],[72.3494,21.5989],[72.3491,21.6039],[72.3597,21.5952]]],[[[92.0072,21.6281],[92.0021,21.6463],[92.0303,21.6683],[92.0347,21.6491],[92.0072,21.6281]]],[[[88.1738,21.5858],[88.1919,21.5548],[88.1999,21.57],[88.214,21.5548],[88.214,21.5284],[88.1899,21.5446],[88.1738,21.5858]]],[[[88.5382,21.5822],[88.5403,21.5249],[88.4864,21.5467],[88.4997,21.5997],[88.5382,21.5822]]],[[[92.0109,21.5983],[92.0041,21.6176],[92.0071,21.6241],[92.0135,21.6135],[92.0109,21.5983]]],[[[72.6387,21.6287],[72.7358,21.6496],[72.7402,21.6376],[72.807,21.6431],[72.7932,21.6206],[72.6902,21.5999],[72.674,21.5873],[72.6865,21.5808],[72.6432,21.5644],[72.6228,21.5682],[72.6295,21.5877],[72.6114,21.6017],[72.6205,21.6171],[72.6372,21.6122],[72.6387,21.6287]]],[[[88.8767,21.5333],[88.8353,21.5592],[88.8438,21.6063],[88.9085,21.5719],[88.9119,21.5463],[88.8767,21.5333]]],[[[88.5654,21.556],[88.5161,21.6059],[88.5266,21.6569],[88.5929,21.607],[88.5955,21.5862],[88.5654,21.556]]],[[[72.8605,21.6794],[72.8784,21.6802],[72.8816,21.6769],[72.8683,21.6724],[72.8605,21.6794]]],[[[90.4182,21.8319],[90.4365,21.8359],[90.4445,21.8258],[90.4244,21.8179],[90.4182,21.8319]]],[[[90.2977,21.8389],[90.3173,21.8476],[90.3294,21.8386],[90.3152,21.8232],[90.2977,21.8389]]],[[[90.6699,21.9968],[90.6793,22.0038],[90.6835,21.9899],[90.6699,21.9968]]],[[[90.5523,22.0016],[90.5536,21.9927],[90.548,21.9916],[90.5523,22.0016]]],[[[88.4991,21.8986],[88.4961,21.9076],[88.5028,21.9081],[88.4991,21.8986]]],[[[88.0934,21.8569],[88.0821,21.8751],[88.0922,21.8982],[88.1093,21.8728],[88.0934,21.8569]]],[[[88.1917,21.8544],[88.1932,21.8362],[88.1811,21.8622],[88.1917,21.8544]]],[[[90.5626,21.8832],[90.5542,21.8824],[90.5613,21.8976],[90.5626,21.8832]]],[[[89.7771,21.856],[89.7591,21.849],[89.7553,21.8507],[89.7771,21.856]]],[[[90.51,21.8506],[90.5028,21.868],[90.538,21.8673],[90.531,21.8569],[90.51,21.8506]]],[[[89.6582,21.8587],[89.6452,21.8736],[89.6541,21.8891],[89.6633,21.8709],[89.6582,21.8587]]],[[[88.657,21.8745],[88.6408,21.8761],[88.6271,21.9038],[88.6414,21.9224],[88.6735,21.917],[88.657,21.8745]]],[[[90.0228,21.9286],[90.0309,21.9602],[90.0741,21.9717],[90.0787,21.9526],[90.0942,21.9402],[90.0873,21.9],[90.1036,21.8865],[90.0593,21.8322],[90.0309,21.8361],[90.0194,21.8484],[90.0414,21.8442],[90.0228,21.9286]]],[[[88.1162,21.8816],[88.0922,21.9134],[88.0937,21.9267],[88.1279,21.8976],[88.1162,21.8816]]],[[[90.7052,21.9593],[90.7139,21.9719],[90.7172,21.9585],[90.7052,21.9593]]],[[[90.6378,21.8985],[90.6209,21.9111],[90.6282,21.9359],[90.6555,21.9128],[90.6378,21.8985]]],[[[90.5781,21.9243],[90.5651,21.9237],[90.5727,21.9301],[90.5781,21.9243]]],[[[90.3972,21.9326],[90.3869,21.9302],[90.3941,21.9377],[90.3972,21.9326]]],[[[89.5431,21.868],[89.5446,21.9589],[89.5495,21.9638],[89.565,21.9289],[89.5431,21.868]]],[[[88.1422,21.8976],[88.099,21.9318],[88.1176,21.9629],[88.1543,21.928],[88.1422,21.8976]]],[[[90.5431,21.8757],[90.5061,21.8778],[90.5093,21.9068],[90.5244,21.9406],[90.5607,21.9596],[90.5707,21.9475],[90.5456,21.9173],[90.5563,21.8993],[90.5431,21.8757]]],[[[90.3851,21.9977],[90.355,21.8667],[90.3128,21.8557],[90.3036,21.8658],[90.3366,21.9548],[90.3496,21.9564],[90.3716,21.9963],[90.3851,21.9977]]],[[[89.9725,21.9238],[89.9434,21.9296],[89.9606,21.9471],[89.9725,21.9238]]],[[[90.3077,21.9587],[90.2712,21.8834],[90.2458,21.8987],[90.2753,21.9426],[90.2679,21.9696],[90.2862,21.9815],[90.3077,21.9587]]],[[[90.654,21.9222],[90.6288,21.9403],[90.6301,21.944],[90.6494,21.9476],[90.654,21.9222]]],[[[90.5146,21.9812],[90.4932,21.9323],[90.5012,21.9562],[90.4898,21.9609],[90.5146,21.9812]]],[[[90.3303,21.9661],[90.3234,21.9739],[90.3317,21.9815],[90.3303,21.9661]]],[[[90.3961,21.958],[90.3883,21.9603],[90.3958,21.9656],[90.3961,21.958]]],[[[90.3603,21.7406],[90.3554,21.7449],[90.3622,21.7465],[90.3603,21.7406]]],[[[91.9741,21.509],[91.9479,21.4896],[91.9017,21.5093],[91.9114,21.4757],[91.8969,21.4671],[91.8684,21.4885],[91.8587,21.5221],[91.8821,21.557],[91.8742,21.6069],[91.8913,21.6376],[91.8851,21.6807],[91.9399,21.735],[91.9586,21.6702],[91.9876,21.6301],[91.9741,21.509]]],[[[88.6971,21.7184],[88.7156,21.6772],[88.7542,21.6466],[88.7787,21.6526],[88.782,21.6162],[88.804,21.5975],[88.7996,21.5749],[88.7445,21.5602],[88.7126,21.5765],[88.7252,21.6306],[88.6902,21.6844],[88.6971,21.7184]]],[[[91.9416,21.7483],[91.9207,21.7299],[91.9145,21.7585],[91.9416,21.7483]]],[[[88.3518,21.6872],[88.3508,21.6151],[88.3264,21.6021],[88.316,21.615],[88.3233,21.7035],[88.3518,21.6872]]],[[[88.2094,21.678],[88.2331,21.6742],[88.2393,21.647],[88.2218,21.6272],[88.2219,21.6019],[88.1876,21.6808],[88.2174,21.7157],[88.2211,21.7034],[88.2032,21.6972],[88.2094,21.678]]],[[[91.8806,21.6342],[91.8524,21.6604],[91.8884,21.7621],[91.9121,21.7467],[91.9045,21.7087],[91.8799,21.6822],[91.8806,21.6342]]],[[[89.2843,21.7036],[89.2613,21.6969],[89.2926,21.6939],[89.2953,21.6711],[89.2631,21.65],[89.1998,21.6592],[89.2319,21.7014],[89.2199,21.7399],[89.2401,21.7552],[89.2917,21.7472],[89.2843,21.7036]]],[[[88.6459,21.6462],[88.6324,21.6546],[88.6448,21.6839],[88.652,21.6799],[88.6459,21.6462]]],[[[88.5229,21.7156],[88.5494,21.6979],[88.5671,21.6982],[88.5599,21.6377],[88.5332,21.6558],[88.5229,21.7156]]],[[[88.432,21.7436],[88.4564,21.7929],[88.4865,21.7932],[88.4587,21.7307],[88.4841,21.675],[88.4526,21.6002],[88.4276,21.6036],[88.4483,21.6233],[88.427,21.6599],[88.4273,21.6899],[88.4436,21.7026],[88.432,21.7436]]],[[[88.0509,21.647],[88.0901,21.7851],[88.1075,21.7943],[88.1331,21.7753],[88.1454,21.7562],[88.1315,21.7347],[88.1449,21.7002],[88.1361,21.6857],[88.1507,21.6709],[88.1466,21.6232],[88.0509,21.647]]],[[[88.2152,21.722],[88.1999,21.7108],[88.212,21.7319],[88.2152,21.722]]],[[[89.3542,21.7008],[89.3353,21.6995],[89.3422,21.7214],[89.3542,21.7008]]],[[[88.58,21.7201],[88.6154,21.679],[88.6017,21.6541],[88.6125,21.6055],[88.5642,21.6419],[88.5808,21.6629],[88.5699,21.7091],[88.5233,21.7224],[88.5069,21.7573],[88.5331,21.7746],[88.5469,21.8165],[88.5779,21.7923],[88.5666,21.7684],[88.58,21.7201]]],[[[88.3725,21.7232],[88.4047,21.7167],[88.3778,21.6847],[88.3486,21.7126],[88.3579,21.7201],[88.353,21.7483],[88.3677,21.7642],[88.4005,21.7602],[88.3725,21.7232]]],[[[88.3014,21.7282],[88.3078,21.7303],[88.3061,21.7207],[88.3014,21.7282]]],[[[72.5701,21.7394],[72.5716,21.7534],[72.5944,21.7488],[72.5701,21.7394]]],[[[72.5834,21.775],[72.5724,21.7741],[72.5815,21.7771],[72.5834,21.775]]],[[[91.8975,21.7712],[91.9417,21.7736],[91.9473,21.7662],[91.9399,21.7579],[91.8975,21.7712]]],[[[90.4396,21.7701],[90.4519,21.7673],[90.4403,21.7679],[90.4396,21.7701]]],[[[88.6178,21.7021],[88.6055,21.7109],[88.6302,21.7314],[88.6277,21.7412],[88.5968,21.7582],[88.5942,21.7781],[88.6169,21.788],[88.6377,21.7533],[88.6374,21.7259],[88.6178,21.7021]]],[[[88.6158,21.7249],[88.5867,21.7213],[88.5729,21.7718],[88.587,21.7766],[88.5909,21.7566],[88.6224,21.7421],[88.6158,21.7249]]],[[[88.3873,21.7702],[88.3684,21.7709],[88.3493,21.7566],[88.3528,21.7212],[88.3365,21.7285],[88.3345,21.7054],[88.3143,21.7168],[88.3144,21.7844],[88.3309,21.7846],[88.3603,21.7984],[88.3864,21.7918],[88.3873,21.7702]]],[[[88.2156,21.7564],[88.2088,21.7409],[88.21,21.7763],[88.2156,21.7564]]],[[[89.6231,21.7109],[89.5581,21.7187],[89.5646,21.7513],[89.5313,21.8231],[89.5459,21.8493],[89.6102,21.7968],[89.5922,21.7519],[89.6231,21.7109]]],[[[88.5304,21.782],[88.5145,21.7764],[88.5298,21.7965],[88.5304,21.782]]],[[[88.3091,21.7865],[88.3075,21.7912],[88.3183,21.7914],[88.3091,21.7865]]],[[[88.5096,21.8101],[88.4734,21.8011],[88.4606,21.8159],[88.4925,21.8357],[88.5096,21.8101]]],[[[91.8409,21.8963],[91.8795,21.9164],[91.894,21.8587],[91.8783,21.8216],[91.8714,21.8878],[91.8567,21.8746],[91.8745,21.8059],[91.8311,21.7169],[91.8467,21.8128],[91.8409,21.8963]]],[[[89.7773,21.8151],[89.788,21.8239],[89.7904,21.8225],[89.7773,21.8151]]],[[[88.6124,21.8141],[88.6019,21.7972],[88.5834,21.8142],[88.6003,21.8509],[88.622,21.8302],[88.6124,21.8141]]],[[[88.1829,21.8089],[88.1801,21.7304],[88.1542,21.6821],[88.1386,21.7341],[88.1523,21.7597],[88.1138,21.7999],[88.0944,21.7905],[88.1332,21.8748],[88.1506,21.8808],[88.1829,21.8089]]],[[[89.3747,21.8824],[89.347,21.8143],[89.3432,21.7813],[89.3406,21.8292],[89.3284,21.8442],[89.329,21.8185],[89.3202,21.8415],[89.3747,21.8824]]],[[[88.6384,21.8686],[88.6618,21.87],[88.6451,21.7857],[88.6272,21.7976],[88.627,21.8319],[88.601,21.8612],[88.6242,21.8974],[88.6384,21.8686]]],[[[67.4014,24.0464],[67.378,24.0657],[67.3955,24.0633],[67.371,24.0874],[67.3626,24.1324],[67.4118,24.1233],[67.4245,24.1302],[67.3828,24.1326],[67.3453,24.1558],[67.3347,24.1763],[67.3545,24.1828],[67.3346,24.2141],[67.342,24.2352],[67.3625,24.2386],[67.4125,24.2296],[67.4208,24.2098],[67.4312,24.2214],[67.4317,24.2472],[67.4212,24.2167],[67.4143,24.234],[67.3501,24.2542],[67.3613,24.2757],[67.3814,24.2732],[67.3934,24.2874],[67.3585,24.2837],[67.3259,24.2449],[67.2972,24.3074],[67.3299,24.3339],[67.3596,24.2907],[67.3386,24.3323],[67.3466,24.3428],[67.4109,24.3113],[67.4421,24.3161],[67.449,24.3322],[67.4906,24.3218],[67.5146,24.3424],[67.5291,24.3345],[67.5124,24.3526],[67.4873,24.3263],[67.4566,24.3422],[67.4343,24.3227],[67.3665,24.351],[67.369,24.3857],[67.4177,24.3865],[67.4229,24.3603],[67.4278,24.3918],[67.4158,24.4014],[67.3605,24.3877],[67.3491,24.4005],[67.4169,24.4368],[67.4646,24.4235],[67.4727,24.4269],[67.3902,24.4501],[67.3753,24.4341],[67.3834,24.4544],[67.3604,24.4608],[67.4009,24.4844],[67.4218,24.4644],[67.4504,24.4602],[67.455,24.4655],[67.436,24.4797],[67.4213,24.4707],[67.4039,24.5064],[67.412,24.5215],[67.3919,24.5161],[67.4022,24.493],[67.3743,24.4721],[67.3424,24.4591],[67.3099,24.4622],[67.3258,24.4653],[67.3282,24.4852],[67.3523,24.4797],[67.3702,24.5304],[67.3975,24.5246],[67.3987,24.5468],[67.3684,24.536],[67.3552,24.546],[67.3807,24.571],[67.4136,24.5857],[67.4396,24.5746],[67.4071,24.5894],[67.3234,24.5491],[67.304,24.5532],[67.3152,24.5589],[67.299,24.5815],[67.3203,24.5757],[67.3231,24.5906],[67.371,24.6081],[67.3838,24.6377],[67.4069,24.6358],[67.4143,24.6494],[67.4405,24.6404],[67.4532,24.6537],[67.4416,24.6479],[67.4203,24.6727],[67.4344,24.6857],[67.4325,24.6982],[67.3932,24.7046],[67.3515,24.7423],[67.3493,24.7629],[67.4528,24.7761],[67.4681,24.7538],[67.4637,24.7775],[67.3755,24.7834],[67.3296,24.7712],[67.2746,24.7903],[67.2456,24.7849],[67.2199,24.8141],[67.174,24.781],[67.1547,24.7937],[67.1224,24.7788],[67.1049,24.7976],[67.1023,24.7781],[67.0908,24.7921],[67.0931,24.7569],[67.0217,24.8083],[66.9758,24.8108],[66.9736,24.8306],[66.9627,24.825],[66.9825,24.8579],[66.9538,24.861],[66.9122,24.8447],[66.9578,24.8259],[66.9792,24.7917],[66.862,24.8569],[66.8191,24.8344],[66.7562,24.8438],[66.6833,24.8214],[66.6514,24.8294],[66.6843,24.8757],[66.722,24.8918],[66.6869,24.8927],[66.6754,24.9236],[66.7004,24.9496],[66.7041,25.0826],[66.7386,25.1422],[66.742,25.1833],[66.6783,25.2711],[66.5501,25.3652],[66.5553,25.3922],[66.5794,25.3729],[66.5783,25.4114],[66.5942,25.425],[66.56,25.4529],[66.5576,25.5381],[66.5289,25.5422],[66.5159,25.5634],[66.5429,25.6144],[66.5393,25.6442],[66.5028,25.5774],[66.4799,25.5877],[66.4672,25.5699],[66.4552,25.6194],[66.4454,25.5972],[66.3991,25.5835],[66.3676,25.6159],[66.3105,25.6101],[66.2969,25.6239],[66.2322,25.5904],[66.1901,25.5993],[66.1337,25.5443],[66.1328,25.5079],[66.0919,25.4796],[66.1956,25.4889],[66.2848,25.5421],[66.3141,25.5377],[66.3088,25.5465],[66.3349,25.5532],[66.358,25.5248],[66.3972,25.5216],[66.3943,25.5066],[66.4265,25.4826],[66.4752,25.4996],[66.5174,25.4921],[66.4928,25.4478],[66.5284,25.4158],[66.5133,25.4046],[66.36,25.4601],[66.2765,25.4678],[66.0391,25.4266],[66.0238,25.4437],[66.0092,25.4368],[66.0144,25.4209],[65.9549,25.4132],[65.8387,25.4194],[65.773,25.3835],[65.6357,25.3495],[65.5178,25.3704],[65.5435,25.4199],[65.5057,25.3761],[65.3711,25.3902],[65.3381,25.3805],[65.3189,25.3967],[65.2514,25.3791],[65.2263,25.3172],[65.1564,25.3061],[64.9953,25.3252],[64.8271,25.3189],[64.7806,25.3477],[64.7927,25.3239],[64.7262,25.3167],[64.6525,25.2732],[64.6402,25.2055],[64.7005,25.1866],[64.6784,25.1655],[64.6166,25.1546],[64.5846,25.1594],[64.58,25.1736],[64.6094,25.1965],[64.6053,25.23],[64.5436,25.2705],[64.406,25.2383],[64.3405,25.2768],[64.24,25.307],[64.2462,25.3325],[64.2233,25.318],[64.0838,25.3294],[64.0918,25.3659],[64.1175,25.3649],[64.0809,25.3978],[64.1419,25.4112],[64.1381,25.4323],[64.1651,25.4533],[64.1243,25.439],[64.1174,25.4545],[64.0642,25.4452],[64.0473,25.4314],[64.0287,25.465],[64.0287,25.4441],[63.9915,25.4264],[64.0198,25.4249],[64.0058,25.4066],[63.9744,25.4234],[63.9678,25.4056],[63.9913,25.4099],[64.0042,25.3844],[64.0208,25.4095],[64.0361,25.4061],[64.072,25.3632],[64.0643,25.3283],[63.9296,25.3371],[63.758,25.3788],[63.6059,25.3706],[63.5356,25.3457],[63.4811,25.2844],[63.4561,25.2952],[63.5039,25.2262],[63.4927,25.1982],[63.1395,25.2577],[63.0071,25.2106],[62.6949,25.2595],[62.4945,25.2529],[62.4599,25.2297],[62.4771,25.2159],[62.4118,25.2054],[62.3562,25.1699],[62.3394,25.1132],[62.3895,25.1048],[62.3769,25.0962],[62.269,25.1003],[62.3202,25.1206],[62.3149,25.1687],[62.2651,25.2048],[62.2034,25.2151],[62.0735,25.1785],[62.0666,25.1548],[62.1054,25.1043],[62.0984,25.0962],[61.9847,25.1096],[61.8747,25.1027],[61.8594,25.0961],[61.8449,25.0434],[61.7644,25.0328],[61.7242,25.0541],[61.7575,25.0983],[61.7476,25.1321],[61.769,25.124],[61.7831,25.1419],[61.7813,25.1903],[61.7523,25.1687],[61.6899,25.2053],[61.6592,25.1869],[61.6337,25.2028],[61.5687,25.1846],[61.6037,25.2016],[61.5627,25.2176],[61.5696,25.2405],[61.5329,25.2353],[61.5567,25.2284],[61.544,25.225],[61.5527,25.2118],[61.5284,25.207],[61.5507,25.1893],[61.4999,25.1944],[61.5279,25.1897],[61.4892,25.1765],[61.4883,25.1924],[61.4541,25.1854],[61.4906,25.1719],[61.4918,25.1583],[61.4742,25.1073],[61.4048,25.0874],[61.4146,25.0641],[61.1805,25.1259],[61.1673,25.1667],[61.0614,25.2019],[60.7418,25.273],[60.6056,25.2883],[60.6205,25.3072],[60.5912,25.3507],[60.6039,25.3786],[60.5932,25.4162],[60.5322,25.4464],[60.4624,25.4365],[60.4006,25.3807],[60.3961,25.3505],[60.4466,25.3325],[60.4389,25.3199],[60.4586,25.2924],[60.4146,25.3184],[60.3143,25.337],[60.7711,26.4229],[61.1757,27.0169],[61.8106,27.6972],[62.6479,28.2998],[64.2826,28.9657],[65.4993,29.5264],[66.0876,29.8065],[66.7043,30.1766],[68.2784,30.9031],[69.6113,31.2196],[70.3369,31.3269],[71.245,31.3875],[72.8192,31.448],[74.0906,31.448],[74.6,31.4917],[74.9382,31.5691],[75.5071,31.7336],[76.3306,32.0534],[76.8072,32.2778],[77.2003,32.3561],[77.602,32.3561],[77.85,32.3207],[78.1567,32.2083],[78.3891,32.0534],[78.6918,31.8113],[79.6363,30.9482],[79.7816,30.8426],[81.053,29.995],[81.8401,29.5712],[82.8087,29.1474],[83.5647,28.7705],[84.3829,28.4209],[85.5332,27.876],[86.2597,27.5733],[86.9813,27.3041],[87.4937,27.1757],[89.6563,26.7244],[90.1862,26.6616],[90.6087,26.6399],[91.4664,26.7257],[92.4956,26.9678],[93.9486,27.5733],[94.4935,27.6943],[95.0087,27.6292],[95.2555,27.4788],[95.4471,27.2815],[95.6134,26.9035],[95.6153,26.5736],[95.5228,26.1202],[95.2894,25.6146],[95.2052,25.3162],[95.1263,24.6046],[95.0843,24.394],[94.9687,24.1477],[94.8273,23.9254],[94.5854,23.4567],[94.0092,22.2455],[93.101,20.9741],[92.9402,20.3844],[92.9161,20.4026],[92.9136,20.4177],[92.9341,20.4277],[92.8983,20.4822],[92.9285,20.4299],[92.9072,20.421],[92.9117,20.3774],[92.8867,20.4218],[92.8866,20.4039],[92.8571,20.4195],[92.8637,20.4051],[92.8418,20.4017],[92.8166,20.4429],[92.8337,20.4407],[92.8383,20.4688],[92.8487,20.4591],[92.8275,20.4968],[92.8108,20.4924],[92.7961,20.5101],[92.7639,20.4734],[92.7523,20.4794],[92.7322,20.5696],[92.7486,20.5782],[92.7524,20.5868],[92.7467,20.5986],[92.7266,20.6168],[92.7482,20.5876],[92.7311,20.5792],[92.6844,20.6278],[92.6456,20.6891],[92.6451,20.7277],[92.5832,20.7199],[92.591,20.732],[92.5697,20.7796],[92.5997,20.7956],[92.6024,20.8064],[92.5649,20.7864],[92.5494,20.8493],[92.5449,20.8118],[92.5713,20.7516],[92.5466,20.7631],[92.5441,20.7431],[92.591,20.6851],[92.607,20.6776],[92.6395,20.6883],[92.6954,20.5825],[92.7292,20.5496],[92.72,20.4706],[92.7478,20.4143],[92.7299,20.2954],[92.747,20.2559],[92.7284,20.26],[92.638,20.4332],[92.5281,20.5435],[92.5133,20.5993],[92.4597,20.649],[92.4661,20.6597],[92.3774,20.6957],[92.3877,20.7048],[92.3611,20.7723],[92.3901,20.8168],[92.3787,20.8246],[92.3584,20.7833],[92.3353,20.8433],[92.3602,20.8647],[92.3366,20.8509],[92.3146,20.8826],[92.3164,20.901],[92.3619,20.9419],[92.3477,20.9871],[92.3313,20.9978],[92.2968,20.9872],[92.2891,21.0036],[92.2836,20.9674],[92.272,20.9911],[92.2694,21.0182],[92.2887,21.0225],[92.2662,21.0406],[92.279,21.0368],[92.3128,21.0579],[92.3122,21.0703],[92.2734,21.0458],[92.2298,21.1046],[92.2243,21.1365],[92.198,21.1546],[92.1976,21.1198],[92.255,21.0615],[92.2494,21.026],[92.2611,20.9362],[92.313,20.8469],[92.3351,20.7437],[92.2996,20.7607],[92.2117,20.9253],[92.1847,21.0139],[92.0474,21.1766],[92.0496,21.2642],[92.0289,21.3402],[91.9529,21.4548],[91.9993,21.5054],[92.0221,21.4864],[91.9954,21.5518],[92.0389,21.6476],[92.0405,21.6722],[92.0251,21.6822],[92.0352,21.7006],[92.0181,21.7165],[92.0192,21.6685],[91.9818,21.656],[91.9796,21.7042],[91.9667,21.6781],[91.9481,21.7453],[91.9764,21.7418],[91.9924,21.7678],[91.9716,21.7472],[91.9545,21.7539],[91.9706,21.7862],[91.9424,21.8042],[91.9308,21.7855],[91.8912,21.7773],[91.9199,21.8473],[91.9095,21.9079],[91.9274,21.9345],[91.8949,21.9689],[91.8548,22.1276],[91.8345,22.1221],[91.8141,22.1798],[91.842,22.2605],[91.8138,22.3017],[91.8666,22.3221],[91.9129,22.4086],[92.0019,22.4046],[92.0221,22.4167],[92.0349,22.4459],[92.0815,22.4371],[92.1417,22.4616],[92.1439,22.4703],[92.0873,22.4443],[92.0331,22.4505],[92.0029,22.4124],[91.8964,22.4094],[91.8723,22.3498],[91.7955,22.2927],[91.7952,22.2778],[91.829,22.2566],[91.798,22.2196],[91.7693,22.2784],[91.7519,22.3866],[91.7001,22.4841],[91.5811,22.6536],[91.4576,22.7511],[91.4859,22.7668],[91.4692,22.7787],[91.4778,22.7633],[91.4547,22.7602],[91.4369,22.7772],[91.4746,22.8241],[91.4356,22.8048],[91.4836,22.8741],[91.4566,22.8989],[91.4922,22.9007],[91.4452,22.9007],[91.441,22.8836],[91.464,22.8832],[91.4647,22.869],[91.4204,22.8087],[91.4086,22.7609],[91.3301,22.8335],[91.3506,22.8515],[91.3427,22.8832],[91.3158,22.8394],[91.3525,22.7861],[91.3451,22.7758],[91.2963,22.8102],[91.1869,22.7977],[91.1164,22.8119],[91.1127,22.8262],[91.0831,22.8],[91.0287,22.7996],[90.9375,22.8561],[90.8246,22.8647],[90.8016,22.9088],[90.7578,22.9387],[90.7958,22.898],[90.7954,22.8634],[90.7333,22.8875],[90.6896,22.9783],[90.6294,22.9981],[90.5663,23.1036],[90.598,23.1778],[90.6524,23.2423],[90.6389,23.3166],[90.6776,23.3183],[90.6754,23.3407],[90.6978,23.3457],[90.6796,23.3628],[90.695,23.3777],[90.6733,23.3642],[90.6616,23.3375],[90.6738,23.3213],[90.5987,23.3393],[90.5796,23.3948],[90.6007,23.4314],[90.5856,23.4669],[90.6303,23.4903],[90.6817,23.4821],[90.7039,23.4901],[90.7178,23.5428],[90.7443,23.5443],[90.7254,23.5534],[90.7084,23.5386],[90.7057,23.5618],[90.732,23.5912],[90.7392,23.6216],[90.7646,23.629],[90.7639,23.6432],[90.7414,23.6621],[90.7578,23.721],[90.7425,23.6938],[90.7403,23.7242],[90.7315,23.7102],[90.7156,23.7414],[90.6818,23.6867],[90.6429,23.6899],[90.6324,23.6392],[90.5628,23.5929],[90.5531,23.5715],[90.5147,23.5814],[90.505,23.6033],[90.4839,23.5866],[90.469,23.6087],[90.4539,23.6149],[90.4703,23.6298],[90.4427,23.6684],[90.368,23.7186],[90.3837,23.7022],[90.3658,23.7034],[90.3552,23.7288],[90.3421,23.7401],[90.3176,23.735],[90.3128,23.7642],[90.2986,23.7644],[90.2817,23.7366],[90.2548,23.7303],[90.2571,23.7757],[90.2298,23.8877],[90.2396,23.827],[90.194,23.8405],[90.1518,23.8291],[90.1319,23.8674],[90.1117,23.8736],[90.1104,23.8573],[90.0916,23.8514],[90.0572,23.8201],[90.047,23.8255],[90.0625,23.8769],[90.0468,23.8894],[90.0262,23.8817],[90.0227,23.9072],[89.9481,23.9709],[89.9523,23.9846],[89.9328,23.9846],[89.9487,23.9598],[89.9378,23.9554],[90.0192,23.8936],[90.0144,23.8769],[90.0547,23.8732],[90.0409,23.8278],[90.0466,23.8174],[90.0691,23.8163],[90.0887,23.83],[90.1247,23.8071],[90.1837,23.8023],[90.2068,23.8157],[90.2226,23.8004],[90.2415,23.8149],[90.2059,23.7537],[90.221,23.7216],[90.2524,23.721],[90.2746,23.6862],[90.2557,23.7074],[90.2383,23.7112],[90.2208,23.7081],[90.1813,23.7401],[90.1924,23.7203],[90.1626,23.7198],[90.1492,23.7107],[90.1219,23.7371],[90.0698,23.7579],[90.0232,23.7635],[90.0245,23.7952],[90.0021,23.816],[90.0195,23.7627],[90.1205,23.7334],[90.1497,23.7043],[90.1739,23.7165],[90.2205,23.7031],[90.2477,23.7076],[90.276,23.6548],[90.3797,23.6165],[90.4018,23.5883],[90.3789,23.5678],[90.4098,23.5802],[90.4377,23.5451],[90.4635,23.5452],[90.5054,23.5721],[90.5302,23.5669],[90.5701,23.4832],[90.538,23.4837],[90.5339,23.4659],[90.5539,23.4263],[90.5281,23.3907],[90.4858,23.4204],[90.4204,23.4161],[90.2542,23.4608],[90.1641,23.5242],[90.1103,23.6129],[89.97,23.6581],[89.9179,23.7216],[89.8638,23.7451],[89.7915,23.8077],[89.7742,23.8995],[89.7688,23.8876],[89.7046,23.9579],[89.7275,23.9776],[89.7208,24.0],[89.7153,23.9718],[89.6983,23.9645],[89.7051,23.9991],[89.6707,24.0],[89.6557,23.9361],[89.7033,23.8749],[89.7513,23.8659],[89.7708,23.8359],[89.7571,23.8473],[89.7242,23.8344],[89.6802,23.8626],[89.7179,23.8319],[89.6297,23.8456],[89.5468,23.8241],[89.4497,23.8706],[89.4256,23.9133],[89.3865,23.9431],[89.3288,23.9487],[89.2808,23.9875],[89.3161,23.9479],[89.2889,23.9467],[89.2414,23.9813],[89.1733,24.0],[89.0914,23.9991],[89.0608,23.9839],[89.0936,23.9665],[89.1272,23.9183],[89.1241,23.9541],[89.1671,23.9259],[89.2341,23.9194],[89.3047,23.8696],[89.4078,23.8978],[89.4384,23.8386],[89.4996,23.7788],[89.5929,23.7975],[89.6397,23.7768],[89.7017,23.7769],[89.8567,23.6605],[89.9485,23.6357],[90.0246,23.5566],[90.0179,23.5823],[90.0954,23.567],[90.1529,23.4988],[90.1557,23.431],[90.2067,23.3338],[90.17,23.3466],[90.1639,23.3639],[90.1862,23.3591],[90.1608,23.3676],[90.1665,23.3332],[90.1408,23.3229],[90.1253,23.3055],[90.1205,23.3356],[90.1417,23.3597],[90.1445,23.3786],[90.1279,23.351],[90.0995,23.359],[90.1208,23.3473],[90.1189,23.3041],[90.093,23.3005],[90.0871,23.2728],[90.1245,23.2685],[90.1217,23.2487],[90.1287,23.2416],[90.2023,23.2256],[90.1987,23.2096],[90.1681,23.2041],[90.1774,23.1665],[90.219,23.1829],[90.2485,23.1621],[90.2336,23.1421],[90.2452,23.1232],[90.2645,23.1126],[90.3091,23.1128],[90.3167,23.0671],[90.2678,23.0431],[90.2726,23.0254],[90.3072,23.0209],[90.3206,22.9865],[90.2739,22.9687],[90.2991,22.9434],[90.3537,22.9212],[90.3456,22.884],[90.3205,22.8726],[90.3213,22.8502],[90.3726,22.7652],[90.3682,22.7366],[90.4195,22.7331],[90.4167,22.7138],[90.3964,22.729],[90.3831,22.7054],[90.4003,22.7234],[90.4204,22.7086],[90.4297,22.7305],[90.4193,22.7453],[90.378,22.7401],[90.3825,22.7586],[90.4366,22.761],[90.4832,22.7098],[90.4769,22.6561],[90.4961,22.6723],[90.5133,22.6529],[90.5042,22.5879],[90.5187,22.5991],[90.5798,22.5261],[90.6132,22.3275],[90.5912,22.2573],[90.5587,22.2382],[90.5212,22.184],[90.5066,22.1851],[90.4373,22.0668],[90.4221,22.1192],[90.4427,22.1513],[90.4269,22.1517],[90.4192,22.1262],[90.4192,22.0904],[90.3882,22.0901],[90.3847,22.1054],[90.4039,22.1682],[90.4261,22.1813],[90.3999,22.2179],[90.4165,22.2649],[90.4035,22.2838],[90.4191,22.2895],[90.3788,22.2931],[90.4149,22.3388],[90.3641,22.2952],[90.4059,22.2709],[90.395,22.204],[90.4179,22.1836],[90.3986,22.1722],[90.3831,22.1366],[90.3408,22.1621],[90.3872,22.1955],[90.3873,22.2114],[90.3562,22.1794],[90.3438,22.1957],[90.3498,22.1792],[90.3338,22.1633],[90.3784,22.1309],[90.3751,22.1053],[90.3331,22.1088],[90.2616,22.0404],[90.2751,22.0358],[90.2707,22.0141],[90.278,21.9971],[90.2568,21.9557],[90.211,21.9826],[90.2135,22.0022],[90.1962,21.9784],[90.2287,21.9716],[90.2343,21.9583],[90.2176,21.9508],[90.2685,21.9463],[90.2409,21.8994],[90.2606,21.8846],[90.2549,21.8666],[90.2241,21.8543],[90.2042,21.8874],[90.2401,21.9344],[90.1969,21.8906],[90.2199,21.8528],[90.2631,21.8583],[90.2478,21.8376],[90.2163,21.8373],[90.2556,21.8273],[90.2116,21.8183],[90.1756,21.7891],[90.1319,21.7907],[90.092,21.8147],[90.0824,21.841],[90.1222,21.8485],[90.1003,21.8554],[90.1103,21.884],[90.1543,21.8854],[90.1589,21.8603],[90.1728,21.8697],[90.1519,21.8956],[90.1886,21.9228],[90.144,21.8906],[90.1158,21.8993],[90.1162,21.9159],[90.15,21.9227],[90.1372,21.9485],[90.1685,21.9805],[90.1406,21.9702],[90.128,21.9914],[90.1418,21.9247],[90.1114,21.9219],[90.0988,21.8944],[90.0991,21.9412],[90.0725,22.0004],[90.0992,22.0506],[90.1633,22.1145],[90.2134,22.1143],[90.2283,22.1641],[90.2542,22.1638],[90.2717,22.1772],[90.2864,22.2071],[90.2723,22.2089],[90.2588,22.1722],[90.229,22.1724],[90.2401,22.1932],[90.2206,22.219],[90.2077,22.3093],[90.2269,22.3379],[90.2801,22.3407],[90.2896,22.3505],[90.2973,22.3714],[90.2696,22.3586],[90.2657,22.3711],[90.2809,22.4069],[90.3137,22.4635],[90.3413,22.4589],[90.3619,22.4905],[90.3405,22.4664],[90.3148,22.4741],[90.2586,22.3754],[90.2548,22.3443],[90.2223,22.3421],[90.1991,22.3026],[90.2097,22.2143],[90.2298,22.1915],[90.2032,22.1238],[90.1608,22.1241],[90.0879,22.0556],[90.0515,21.9702],[90.0298,21.9971],[90.0275,21.9782],[90.0,21.9882],[89.993,22.0361],[90.0307,22.0628],[90.0436,22.1336],[90.0717,22.1533],[90.1399,22.1551],[90.0801,22.1586],[90.0257,22.189],[90.081,22.2209],[90.1116,22.2858],[90.1016,22.3424],[90.176,22.4215],[90.2018,22.4859],[90.206,22.5118],[90.1876,22.5224],[90.2028,22.5725],[90.1858,22.6255],[90.2519,22.6212],[90.2832,22.6302],[90.2942,22.6556],[90.2487,22.6279],[90.181,22.6276],[90.1975,22.5676],[90.1819,22.5223],[90.1989,22.509],[90.1936,22.4802],[90.1724,22.4297],[90.095,22.3491],[90.1048,22.3039],[90.0669,22.2145],[90.025,22.1966],[90.0234,22.1724],[90.0632,22.1618],[90.0153,22.1191],[90.0183,22.0663],[89.9809,22.0416],[89.9896,21.991],[89.9644,21.9769],[89.9092,22.0731],[89.9175,22.136],[89.8787,22.2524],[89.9197,22.3718],[89.9847,22.4388],[90.0,22.4869],[90.025,22.4901],[90.033,22.5719],[90.065,22.6087],[90.0571,22.6225],[90.0268,22.599],[90.0327,22.6527],[90.0038,22.6772],[90.028,22.6463],[90.0132,22.5988],[90.0307,22.5814],[90.0179,22.4944],[89.9546,22.5055],[89.9855,22.4867],[89.9782,22.4521],[89.9057,22.3863],[89.8834,22.4052],[89.8834,22.4302],[89.8774,22.4139],[89.8987,22.3721],[89.8448,22.2487],[89.8905,22.1211],[89.8528,22.0679],[89.8188,22.066],[89.8534,22.0483],[89.8854,21.9055],[89.8584,21.8784],[89.8456,21.8859],[89.8408,21.856],[89.7715,21.8311],[89.7896,21.879],[89.7542,21.8561],[89.7334,21.8909],[89.7493,21.8346],[89.7143,21.8341],[89.7023,21.8494],[89.6756,21.8377],[89.6586,21.8922],[89.6795,21.9049],[89.6554,21.9134],[89.6339,21.8679],[89.7121,21.7853],[89.7124,21.7662],[89.6592,21.7511],[89.6548,21.765],[89.6067,21.7601],[89.6137,21.8111],[89.5627,21.8637],[89.5901,21.9386],[89.5607,21.9692],[89.5603,21.9911],[89.5152,21.9904],[89.5251,21.9563],[89.5123,21.8993],[89.4971,21.9081],[89.4607,21.8522],[89.4337,21.8477],[89.4627,21.8461],[89.4712,21.8204],[89.4581,21.8139],[89.4796,21.8006],[89.4783,21.7724],[89.4257,21.7147],[89.3906,21.7084],[89.3654,21.7459],[89.3557,21.8089],[89.3899,21.9021],[89.3671,21.9046],[89.3181,21.8611],[89.3072,21.8207],[89.2867,21.8053],[89.2927,21.7564],[89.2312,21.7683],[89.2193,21.7572],[89.197,21.8047],[89.1643,21.79],[89.1079,21.8105],[89.1121,21.8547],[89.0887,21.908],[89.0948,21.9381],[89.0836,21.9386],[89.0634,21.9272],[89.0904,21.8542],[89.0866,21.8134],[89.1522,21.7414],[89.1374,21.7198],[89.1154,21.7204],[89.0518,21.7859],[89.0648,21.8682],[89.0397,21.9077],[89.001,21.9031],[88.9972,21.8895],[89.0372,21.8577],[89.0246,21.8014],[89.0356,21.7544],[89.0801,21.7081],[89.1033,21.645],[89.0968,21.6249],[89.0595,21.6116],[89.028,21.6634],[89.0061,21.6549],[89.0292,21.6541],[89.043,21.6175],[89.0167,21.6008],[88.9943,21.6465],[88.9946,21.6095],[88.9519,21.6408],[88.928,21.6302],[88.8989,21.6496],[88.8754,21.701],[88.8799,21.7675],[88.8496,21.7251],[88.8692,21.6433],[88.8529,21.6161],[88.8139,21.631],[88.8229,21.6604],[88.7594,21.6566],[88.7243,21.6805],[88.6993,21.7411],[88.7229,21.8073],[88.6998,21.8403],[88.7311,21.9352],[88.7291,21.976],[88.7903,22.0183],[88.7667,22.0237],[88.7594,22.0502],[88.7747,22.0519],[88.7486,22.0659],[88.7157,22.0484],[88.7415,22.0282],[88.735,22.0071],[88.6685,22.0226],[88.6445,22.1181],[88.631,22.1198],[88.6214,22.105],[88.6438,22.0459],[88.6084,21.972],[88.6202,21.9377],[88.5852,21.9852],[88.5792,21.9633],[88.611,21.9322],[88.6096,21.9095],[88.5833,21.8856],[88.5618,21.814],[88.5031,21.8849],[88.5314,21.9303],[88.5095,21.9704],[88.5525,21.9851],[88.5652,22.0228],[88.5449,21.9865],[88.5049,21.973],[88.5103,21.9217],[88.485,21.8966],[88.4664,21.9001],[88.4688,21.9487],[88.4597,21.9382],[88.4534,21.9068],[88.4633,21.8964],[88.4841,21.8913],[88.5001,21.8489],[88.4583,21.8201],[88.469,21.7932],[88.4479,21.8015],[88.4292,21.7659],[88.4363,21.7042],[88.4196,21.6881],[88.4183,21.6661],[88.4412,21.6244],[88.4216,21.6097],[88.4177,21.5818],[88.3929,21.6083],[88.4045,21.6197],[88.3891,21.6672],[88.4121,21.717],[88.3795,21.7303],[88.3991,21.7368],[88.4075,21.7646],[88.3915,21.7795],[88.4082,21.7984],[88.4001,21.8346],[88.4213,21.8892],[88.3996,21.8993],[88.4164,21.9231],[88.4056,21.9516],[88.3903,21.9667],[88.4057,21.9738],[88.4124,21.9947],[88.3873,21.9675],[88.4114,21.9216],[88.396,21.9071],[88.3979,21.8949],[88.4077,21.8854],[88.3976,21.8749],[88.3953,21.7943],[88.3717,21.8007],[88.3643,21.8528],[88.3642,21.8014],[88.3296,21.7886],[88.3146,21.7988],[88.2816,21.7969],[88.2765,21.8073],[88.3154,21.8303],[88.3238,21.8496],[88.311,21.8646],[88.2686,21.865],[88.3175,21.8502],[88.2587,21.7956],[88.2892,21.7581],[88.2832,21.7309],[88.3067,21.6718],[88.3004,21.5917],[88.3254,21.5806],[88.3064,21.5615],[88.2626,21.5575],[88.2265,21.6188],[88.2493,21.6474],[88.2411,21.6786],[88.2116,21.6855],[88.2308,21.6996],[88.2186,21.7919],[88.2381,21.7646],[88.2396,21.7811],[88.2115,21.8029],[88.2035,21.8456],[88.166,21.888],[88.1748,21.9239],[88.1487,21.9596],[88.1863,21.9934],[88.2351,22.0789],[88.2142,22.1574],[88.1788,22.195],[88.0826,22.2206],[88.0342,22.2183],[88.0321,22.2018],[88.1438,22.1871],[88.1902,22.1329],[88.1961,22.1048],[88.1618,22.0645],[88.067,22.0155],[87.9805,21.8551],[87.9519,21.8236],[87.8866,21.803],[87.8924,21.7812],[87.8286,21.7222],[87.7551,21.7008],[87.7498,21.6855],[87.6786,21.6537],[87.6499,21.6646],[87.6369,21.6472],[87.3726,21.5781],[87.366,21.5609],[87.1955,21.5494],[87.0644,21.4708],[86.8946,21.3136],[86.8168,21.1382],[86.9296,20.9008],[86.9701,20.8491],[86.9758,20.768],[87.0013,20.7584],[87.0139,20.7253],[86.996,20.6992],[87.0246,20.6897],[87.052,20.7035],[86.7655,20.5046],[86.7358,20.4491],[86.7409,20.4177],[86.7226,20.3935],[86.7414,20.3757],[86.7284,20.3611],[86.7785,20.3974],[86.7709,20.3651],[86.7859,20.3717],[86.7636,20.3353],[86.8031,20.3666],[86.8079,20.3953],[86.8074,20.3638],[86.7191,20.2992],[86.6865,20.3181],[86.683,20.2911],[86.6943,20.2819],[86.7649,20.3146],[86.5418,20.1847],[86.4254,20.0257],[86.4299,20.0505],[86.4185,20.038],[86.4012,20.0047],[86.4288,19.9947],[86.4181,19.9776],[86.2504,19.9029],[85.8202,19.7902],[85.6052,19.7074],[85.3281,19.5669],[85.1224,19.4198],[85.0869,19.3687],[84.9609,19.2916],[84.8096,19.1478],[84.8041,19.1159],[84.6929,18.9579],[84.6006,18.8682],[84.5635,18.7904],[84.4572,18.6851],[84.4484,18.6543],[84.3818,18.5947],[84.3651,18.5534],[84.1666,18.3787],[84.1375,18.3434],[84.1411,18.3142],[83.9623,18.2157],[83.9344,18.2254],[83.9453,18.21],[83.8113,18.1604],[83.6734,18.085],[83.5755,18.0095],[83.5411,17.9497],[83.4723,17.8985],[83.4679,17.9212],[83.4438,17.934],[83.449,17.9081],[83.4672,17.8865],[83.4135,17.8402],[83.4172,17.8083],[83.3542,17.7525],[83.3507,17.7279],[83.2944,17.6912],[83.3009,17.6774],[83.2456,17.6371],[83.2152,17.5903],[83.0229,17.5088],[82.9939,17.4732],[82.8843,17.4241],[82.8832,17.4381],[82.8655,17.4155],[82.6197,17.2943],[82.4936,17.2121],[82.3045,17.0442],[82.2794,17.0015],[82.2777,16.9443],[82.2529,16.9186],[82.2666,16.8866],[82.2571,16.864],[82.2721,16.8873],[82.276,16.8548],[82.2921,16.8749],[82.3044,16.8567],[82.3193,16.8678],[82.3205,16.8373],[82.3419,16.8605],[82.3691,16.8561],[82.3656,16.8116],[82.3749,16.9175],[82.3489,16.9698],[82.3717,16.953],[82.3799,16.9037],[82.3559,16.7128],[82.3226,16.6489],[82.3214,16.6135],[82.3019,16.6042],[82.3175,16.5846],[81.9554,16.3972],[81.842,16.3691],[81.7322,16.3135],[81.5325,16.359],[81.4535,16.3547],[81.3307,16.3152],[81.2538,16.2596],[81.2018,16.179],[81.1881,16.1455],[81.2125,16.1759],[81.2069,16.1316],[81.1483,16.0],[81.1551,15.9707],[81.0499,15.9049],[80.9927,15.8316],[81.0029,15.7705],[81.0318,15.7592],[80.9388,15.7079],[80.8948,15.7157],[80.8151,15.6995],[80.7824,15.8485],[80.8093,15.7779],[80.8111,15.837],[80.7695,15.8685],[80.6936,15.8811],[80.5329,15.8542],[80.3757,15.774],[80.2936,15.7047],[80.2494,15.6334],[80.1996,15.4623],[80.0957,15.329],[80.0826,15.2577],[80.091,15.2043],[80.0646,15.1906],[80.0736,15.1742],[80.0452,15.0673],[80.0872,14.8059],[80.1961,14.5712],[80.1695,14.3491],[80.1263,14.2069],[80.1383,14.0834],[80.2558,13.78],[80.2339,13.7186],[80.2329,13.6455],[80.3233,13.4439],[80.3464,13.304],[80.2956,13.1211],[80.3049,13.0927],[80.2609,13.0127],[80.2741,13.0056],[80.2429,12.8158],[80.2476,12.7533],[80.1758,12.5813],[80.1868,12.5753],[80.1569,12.4775],[80.1353,12.4587],[80.1454,12.4454],[80.0463,12.3104],[80.067,12.3502],[80.0576,12.351],[79.8819,12.0511],[79.8342,11.9097],[79.8187,11.9071],[79.8333,11.902],[79.7982,11.7882],[79.7762,11.7694],[79.794,11.7694],[79.7932,11.7502],[79.7589,11.6076],[79.7601,11.5391],[79.7719,11.4914],[79.8186,11.4263],[79.8483,11.2505],[79.8252,11.2306],[79.8497,11.2282],[79.8597,11.1777],[79.8497,10.8824],[79.8726,10.2847],[79.7578,10.2712],[79.5304,10.3131],[79.3983,10.3201],[79.3055,10.2651],[79.271,10.2303],[79.2771,10.2105],[79.2308,10.1448],[79.2319,10.0843],[79.2669,10.0338],[79.155,9.9211],[79.1178,9.8639],[79.1204,9.8444],[79.0095,9.7177],[78.9314,9.5843],[78.9046,9.4673],[78.9908,9.3522],[79.0751,9.2923],[79.1615,9.283],[79.2686,9.29],[79.2922,9.3161],[79.3255,9.3206],[79.3367,9.3084],[79.3223,9.2665],[79.4423,9.1539],[79.3151,9.2377],[79.2237,9.2513],[79.2086,9.2757],[79.0889,9.2567],[78.9626,9.2688],[78.9115,9.2451],[78.8733,9.2526],[78.8104,9.2313],[78.7299,9.2009],[78.7216,9.183],[78.6512,9.1917],[78.6449,9.1654],[78.6591,9.1502],[78.5784,9.1263],[78.492,9.1252],[78.4912,9.1361],[78.3671,9.0798],[78.2767,8.9996],[78.2658,9.0126],[78.2681,8.9925],[78.2176,8.9572],[78.174,8.8792],[78.1539,8.7474],[78.1786,8.7594],[78.1952,8.7499],[78.2012,8.7785],[78.2055,8.7605],[78.1959,8.7407],[78.1629,8.7296],[78.1322,8.6694],[78.133,8.4883],[78.0647,8.4057],[78.0697,8.3666],[77.8041,8.2336],[77.7838,8.1982],[77.7383,8.1691],[77.5938,8.1399],[77.5609,8.1154],[77.5526,8.069],[77.3183,8.1173],[77.0133,8.3543],[76.6206,8.8431],[76.5464,8.8985],[76.5204,8.9993],[76.4617,9.1312],[76.497,9.067],[76.4753,9.1197],[76.4848,9.1159],[76.4921,9.1672],[76.4748,9.1621],[76.4709,9.1412],[76.4405,9.2326],[76.4196,9.2432],[76.4551,9.1423],[76.3263,9.4527],[76.2446,9.9545],[76.2184,9.9982],[76.1029,10.3754],[76.0478,10.4918],[76.0639,10.4735],[76.0463,10.5317],[76.0266,10.5323],[75.9113,10.799],[75.9104,10.7838],[75.8326,11.1235],[75.8054,11.1508],[75.7296,11.3316],[75.7333,11.354],[75.6782,11.4458],[75.6174,11.4744],[75.5851,11.5587],[75.597,11.5363],[75.5912,11.562],[75.6041,11.561],[75.5822,11.5708],[75.5294,11.6966],[75.5386,11.7048],[75.4917,11.7339],[75.4716,11.769],[75.451,11.7697],[75.3893,11.8467],[75.3522,11.8601],[75.3004,11.9467],[75.2377,12.0138],[75.2249,12.0211],[75.2004,12.0032],[75.1677,12.067],[75.0648,12.3407],[75.0296,12.3922],[75.0386,12.4111],[75.0229,12.3997],[75.0063,12.4371],[75.0154,12.4444],[74.9979,12.4456],[74.983,12.475],[74.8249,12.8316],[74.776,13.0949],[74.7699,13.0782],[74.6921,13.3488],[74.6657,13.6381],[74.6428,13.6709],[74.6058,13.8523],[74.6169,13.8576],[74.565,13.9466],[74.5278,13.9626],[74.505,14.0011],[74.464,14.1872],[74.4092,14.308],[74.3953,14.4186],[74.3765,14.4165],[74.3538,14.5117],[74.3052,14.5196],[74.2912,14.5931],[74.2635,14.6245],[74.2946,14.6402],[74.2751,14.6467],[74.2756,14.6779],[74.2537,14.7068],[74.2633,14.7094],[74.2647,14.7201],[74.2582,14.7122],[74.2215,14.7472],[74.1993,14.7176],[74.1765,14.7446],[74.1477,14.7464],[74.1341,14.7778],[74.1039,14.7843],[74.0911,14.8021],[74.1171,14.8034],[74.1249,14.8405],[74.1079,14.8451],[74.0912,14.8945],[74.0388,14.9156],[74.0487,14.9568],[74.0298,14.9815],[74.0476,14.9848],[73.9857,15.0225],[73.9786,15.0504],[73.95,15.0729],[73.9051,15.0871],[73.9458,15.1408],[73.8821,15.3452],[73.862,15.3694],[73.8357,15.361],[73.8032,15.377],[73.7794,15.4089],[73.8757,15.3984],[73.8899,15.4192],[73.8764,15.4337],[73.8584,15.4258],[73.845,15.4491],[73.7822,15.4597],[73.8153,15.5064],[73.7574,15.4939],[73.731,15.6146],[73.6841,15.7202],[73.6509,15.7384],[73.655,15.7734],[73.6238,15.8436],[73.5838,15.9077],[73.5376,15.9339],[73.5041,15.94],[73.5097,15.9913],[73.4955,15.985],[73.4563,16.0581],[73.4839,16.0698],[73.4595,16.0759],[73.4705,16.113],[73.4608,16.0941],[73.4377,16.1936],[73.4522,16.2253],[73.428,16.2044],[73.4118,16.2564],[73.4119,16.2734],[73.4392,16.2897],[73.4061,16.2808],[73.3862,16.363],[73.3699,16.3641],[73.3717,16.3896],[73.3948,16.3901],[73.4084,16.4088],[73.3688,16.3999],[73.3586,16.4351],[73.3812,16.4487],[73.3485,16.4519],[73.3116,16.5403],[73.3372,16.5601],[73.3585,16.5193],[73.3494,16.5081],[73.3708,16.5129],[73.352,16.5379],[73.356,16.5666],[73.3167,16.5992],[73.3479,16.5967],[73.3593,16.6253],[73.3362,16.6211],[73.3218,16.6378],[73.3276,16.6797],[73.3429,16.6911],[73.3158,16.6968],[73.3005,16.7511],[73.3179,16.8014],[73.2954,16.8117],[73.2847,16.8776],[73.3048,16.8844],[73.276,16.8926],[73.2826,16.9486],[73.3057,16.9717],[73.2683,16.9866],[73.2792,17.0002],[73.2564,17.0211],[73.2575,17.0443],[73.2902,17.0061],[73.2813,17.0365],[73.3264,17.0286],[73.2797,17.0446],[73.2914,17.0704],[73.2688,17.1461],[73.2314,17.1954],[73.2439,17.2159],[73.1893,17.3016],[73.2207,17.3081],[73.2569,17.2599],[73.2657,17.2889],[73.297,17.2812],[73.2909,17.2948],[73.238,17.2903],[73.2066,17.3828],[73.1711,17.4039],[73.1979,17.4394],[73.1845,17.4957],[73.1424,17.5465],[73.1696,17.5888],[73.1475,17.6041],[73.1202,17.6824],[73.135,17.7114],[73.1285,17.7446],[73.056,17.9248],[73.0362,17.9399],[73.0418,17.9741],[73.0061,18.017],[73.0225,18.0197],[73.0444,18.04],[73.0247,18.0295],[73.0296,18.0465],[73.016,18.025],[72.9955,18.0527],[72.9721,18.1247],[72.9884,18.1524],[72.9804,18.1945],[72.9313,18.2186],[72.9422,18.2792],[72.9667,18.2715],[72.9802,18.24],[73.063,18.2177],[73.0702,18.1968],[73.0672,18.2708],[73.0525,18.2857],[73.0458,18.2672],[73.0234,18.2662],[72.9142,18.349],[72.9106,18.3676],[72.9275,18.3799],[72.8901,18.458],[72.9047,18.5384],[72.9213,18.5286],[72.9616,18.5423],[72.9202,18.5479],[72.884,18.6304],[72.898,18.631],[72.8664,18.644],[72.8563,18.6884],[72.8701,18.8028],[72.9142,18.7924],[72.9356,18.8241],[72.9886,18.7759],[72.999,18.7794],[72.9859,18.8052],[73.0578,18.8027],[72.9898,18.8116],[72.9821,18.8626],[72.9381,18.847],[72.9069,18.8865],[72.9247,18.9098],[72.942,18.8943],[72.9495,18.9458],[72.9772,18.9461],[72.9539,18.9701],[73.0908,18.9988],[73.0667,19.0143],[73.0847,19.0314],[73.0644,19.0292],[73.0904,19.0457],[73.0061,19.005],[72.9844,19.0708],[72.9952,19.0869],[72.9764,19.1069],[72.9764,19.1707],[72.9642,19.1353],[72.9522,19.1374],[72.9569,19.1077],[72.9307,19.0904],[72.9472,19.068],[72.9137,19.0744],[72.9517,19.0432],[72.9034,18.9938],[72.8784,19.0226],[72.8573,19.0094],[72.8371,18.9334],[72.8032,18.898],[72.8212,18.9319],[72.8128,18.9508],[72.792,18.9442],[72.8126,19.0202],[72.8597,19.0602],[72.8179,19.0482],[72.8248,19.087],[72.808,19.1435],[72.7863,19.1386],[72.7814,19.1669],[72.8011,19.1976],[72.7783,19.1922],[72.787,19.3062],[72.8517,19.316],[72.9155,19.2908],[72.869,19.3343],[72.8509,19.3431],[72.8024,19.3314],[72.7583,19.3757],[72.7663,19.3956],[72.7441,19.4603],[72.7564,19.4738],[72.7169,19.5799],[72.7187,19.5967],[72.7449,19.6026],[72.7289,19.6097],[72.7078,19.6822],[72.7005,19.7289],[72.7146,19.747],[72.701,19.742],[72.6902,19.7581],[72.7061,19.8084],[72.6859,19.8043],[72.6594,19.8391],[72.686,19.8742],[72.6716,19.9365],[72.7035,19.9651],[72.7249,19.9671],[72.76,19.9233],[72.7451,19.9679],[72.7216,19.9802],[72.7068,20.0701],[72.731,20.0951],[72.7448,20.1954],[72.7794,20.207],[72.7456,20.203],[72.749,20.2818],[72.778,20.3364],[72.8183,20.3657],[72.8262,20.4424],[72.8869,20.5046],[72.8771,20.5274],[72.8946,20.5296],[72.8828,20.5439],[72.8927,20.5834],[72.8736,20.6444],[72.9035,20.5969],[72.8864,20.6374],[72.9015,20.6429],[72.8967,20.7022],[72.9087,20.7111],[72.8907,20.7199],[72.9241,20.7558],[72.9519,20.755],[72.9425,20.7755],[72.9178,20.7699],[72.9199,20.7893],[72.91,20.7807],[72.8745,20.8015],[72.896,20.8134],[72.8756,20.8245],[72.8948,20.8665],[72.8268,20.8292],[72.8547,20.86],[72.8245,20.8829],[72.8351,20.9065],[72.8491,20.9044],[72.8239,20.9212],[72.8822,20.9546],[72.8765,20.9718],[72.8913,20.9864],[72.8308,20.9734],[72.8387,20.9855],[72.8052,20.9872],[72.827,21.014],[72.7661,21.0042],[72.7425,20.9769],[72.767,20.9279],[72.7473,20.9498],[72.7229,21.0266],[72.7218,21.0569],[72.7417,21.0289],[72.7856,21.0461],[72.8068,21.0247],[72.857,21.0392],[72.8419,21.0537],[72.8549,21.0677],[72.8326,21.0544],[72.8227,21.0878],[72.8419,21.1137],[72.8215,21.0977],[72.8145,21.1053],[72.8304,21.1146],[72.8143,21.1191],[72.8114,21.1483],[72.8316,21.1672],[72.8059,21.1497],[72.8016,21.1242],[72.7904,21.1447],[72.7878,21.11],[72.7636,21.1227],[72.7569,21.1046],[72.7443,21.1262],[72.719,21.1034],[72.7302,21.0781],[72.7016,21.0949],[72.7059,21.1358],[72.7275,21.1475],[72.6739,21.1582],[72.646,21.0836],[72.6259,21.0892],[72.6178,21.1386],[72.6307,21.1283],[72.6467,21.1489],[72.6293,21.1338],[72.6227,21.1434],[72.6195,21.2089],[72.6817,21.2184],[72.6431,21.2498],[72.6304,21.2406],[72.6501,21.2798],[72.621,21.2928],[72.621,21.3125],[72.6554,21.3191],[72.6684,21.342],[72.7365,21.3238],[72.6962,21.355],[72.7016,21.3724],[72.6746,21.3486],[72.6646,21.3689],[72.6528,21.3494],[72.6459,21.3627],[72.6934,21.4664],[72.6715,21.4468],[72.6379,21.4484],[72.7409,21.5657],[72.8165,21.6136],[72.8406,21.6659],[72.9193,21.6478],[73.0375,21.7005],[73.0901,21.7051],[73.1077,21.7297],[73.064,21.7327],[72.9438,21.6753],[72.8728,21.6882],[72.7776,21.6604],[72.7389,21.6861],[72.6033,21.6764],[72.543,21.6564],[72.5317,21.7209],[72.5458,21.6943],[72.5756,21.7047],[72.5659,21.7328],[72.6,21.7159],[72.5857,21.7265],[72.6033,21.7563],[72.5992,21.7954],[72.6458,21.8329],[72.6544,21.8912],[72.675,21.8872],[72.6786,21.912],[72.6878,21.886],[72.7223,21.8841],[72.7187,21.9318],[72.7786,21.9518],[72.746,21.988],[72.7719,22.0014],[72.7754,22.0168],[72.735,21.9912],[72.7203,22.0212],[72.7074,21.9796],[72.6933,21.9852],[72.6999,21.9716],[72.6465,21.9619],[72.6488,21.9881],[72.6368,22.0028],[72.6401,21.9548],[72.6281,21.9705],[72.6332,21.9546],[72.5304,21.9024],[72.5042,21.9431],[72.5471,22.1572],[72.6099,22.2151],[72.6631,22.211],[72.7419,22.1758],[72.7668,22.1936],[72.7581,22.2163],[72.7121,22.2444],[72.6273,22.255],[72.6127,22.2672],[72.6495,22.2643],[72.6288,22.2759],[72.5679,22.2652],[72.6254,22.2802],[72.5931,22.2817],[72.479,22.2205],[72.4931,22.2641],[72.4597,22.2136],[72.4151,22.2149],[72.4247,22.2006],[72.4084,22.1524],[72.381,22.1539],[72.3885,22.1924],[72.3709,22.1814],[72.3689,22.1449],[72.367,22.1858],[72.3907,22.2002],[72.3697,22.1934],[72.3821,22.2262],[72.3704,22.2843],[72.4013,22.3249],[72.3892,22.3311],[72.3581,22.313],[72.342,22.2572],[72.3322,22.2999],[72.3459,22.2239],[72.3116,22.1866],[72.2953,22.2249],[72.3209,22.1379],[72.242,22.0036],[72.2551,21.8193],[72.2391,21.7952],[72.2185,21.8162],[72.2081,21.8058],[72.3028,21.6256],[72.2135,21.4247],[72.112,21.3047],[72.0758,21.3224],[72.1088,21.2927],[72.097,21.2799],[72.0872,21.2893],[72.0985,21.2661],[72.0777,21.2534],[72.1071,21.2038],[72.003,21.1399],[71.8968,21.1146],[71.8756,21.0914],[71.8063,21.0683],[71.7917,21.0504],[71.8047,21.0394],[71.6397,20.994],[71.6229,20.9689],[71.5168,20.9482],[71.4596,20.8796],[71.3942,20.8619],[71.3824,20.8714],[71.382,20.8538],[71.2142,20.8041],[71.1424,20.7546],[71.0869,20.7508],[71.0512,20.7313],[71.0014,20.7354],[70.9853,20.7226],[70.9914,20.7048],[70.8524,20.7055],[70.8269,20.6883],[70.6904,20.7436],[70.6749,20.7589],[70.6808,20.7778],[70.6564,20.7576],[70.6481,20.7725],[70.6113,20.7678],[70.4429,20.8502],[70.4116,20.8754],[70.4257,20.8804],[70.3381,20.9142],[70.0863,21.1186],[69.737,21.4993],[69.5945,21.6333],[69.5993,21.6524],[69.5782,21.6363],[69.4081,21.785],[69.3688,21.8276],[69.387,21.8534],[69.3546,21.8336],[69.2286,21.9439],[69.2007,21.9789],[69.204,21.9977],[69.1897,21.9856],[68.9574,22.2382],[68.9348,22.3057],[68.9871,22.4139],[69.0672,22.4733],[69.083,22.4701],[69.0443,22.4325],[69.0531,22.3989],[69.0918,22.3899],[69.1102,22.4074],[69.1346,22.3987],[69.1912,22.4175],[69.2014,22.3986],[69.1735,22.3637],[69.1622,22.3041],[69.1994,22.2686],[69.2346,22.2602],[69.3081,22.2868],[69.3313,22.326],[69.4151,22.3178],[69.4425,22.3332],[69.4534,22.3156],[69.4962,22.3665],[69.5196,22.3724],[69.5154,22.426],[69.5553,22.3889],[69.5382,22.3779],[69.5909,22.3584],[69.5761,22.3399],[69.5856,22.3334],[69.6023,22.3542],[69.6192,22.3464],[69.6216,22.3651],[69.6442,22.3555],[69.6634,22.3925],[69.6937,22.3961],[69.7228,22.4761],[69.7325,22.4391],[69.7509,22.4301],[69.751,22.4416],[69.7943,22.3997],[69.8214,22.4565],[69.8654,22.4504],[69.9041,22.4706],[69.9283,22.5092],[69.9579,22.4967],[69.9446,22.5225],[69.9672,22.5368],[70.1779,22.5604],[70.2419,22.683],[70.2655,22.6892],[70.2377,22.6953],[70.2559,22.7099],[70.2514,22.7324],[70.2887,22.7381],[70.3559,22.8761],[70.4429,22.9596],[70.4865,23.0526],[70.4856,23.0888],[70.4091,23.0363],[70.4029,23.0606],[70.3715,23.0588],[70.3624,23.0403],[70.3746,23.0183],[70.3943,23.0061],[70.2917,22.9434],[70.2374,22.973],[70.2032,22.9444],[70.1582,22.9416],[70.1211,22.9587],[70.1318,22.9827],[70.1208,22.9852],[70.104,22.9585],[70.1328,22.9342],[70.0933,22.9022],[70.0647,22.9131],[69.8084,22.8463],[69.7905,22.8206],[69.7341,22.7987],[69.7163,22.7535],[69.6953,22.7657],[69.7105,22.7461],[69.6886,22.7548],[69.7062,22.7367],[69.6524,22.758],[69.6279,22.8022],[69.6366,22.7697],[69.6022,22.7736],[69.6118,22.7581],[69.596,22.757],[69.5709,22.7617],[69.5553,22.7984],[69.5458,22.7861],[69.5019,22.7935],[69.5156,22.7862],[69.5052,22.7837],[69.4542,22.8002],[69.493,22.7751],[69.4671,22.7708],[69.3616,22.8195],[69.3614,22.8319],[69.2808,22.8226],[69.1975,22.8335],[68.933,22.984],[68.8553,23.0359],[68.8515,23.0544],[68.839,23.0443],[68.8097,23.0734],[68.7461,23.0885],[68.7718,23.1176],[68.7653,23.1318],[68.7339,23.1034],[68.6376,23.1626],[68.636,23.1777],[68.6922,23.1393],[68.7255,23.1478],[68.6553,23.1676],[68.6515,23.1936],[68.6239,23.1862],[68.5846,23.2211],[68.584,23.2396],[68.6458,23.2582],[68.6212,23.2839],[68.6509,23.2985],[68.6146,23.2985],[68.611,23.2713],[68.5884,23.2516],[68.5406,23.2668],[68.5446,23.2882],[68.5595,23.2887],[68.5525,23.3122],[68.5849,23.3052],[68.5844,23.3197],[68.6165,23.3244],[68.6182,23.3506],[68.6142,23.3278],[68.5609,23.3451],[68.5141,23.3201],[68.4995,23.3497],[68.4781,23.349],[68.5051,23.3966],[68.4955,23.4024],[68.5195,23.4173],[68.4855,23.4156],[68.4738,23.3863],[68.436,23.4214],[68.4389,23.3891],[68.3937,23.4216],[68.3886,23.4546],[68.4475,23.4758],[68.4187,23.5359],[68.4555,23.571],[68.4391,23.5684],[68.4662,23.5997],[68.4708,23.6367],[68.5457,23.7129],[68.6186,23.7489],[68.6581,23.7992],[68.6794,23.7916],[68.7146,23.8241],[68.766,23.8422],[68.7823,23.8606],[68.7697,23.876],[68.7628,23.8511],[68.726,23.8369],[68.6554,23.8397],[68.5235,23.7464],[68.5192,23.7731],[68.4902,23.7327],[68.4632,23.7386],[68.4329,23.7338],[68.3763,23.619],[68.3827,23.6079],[68.3096,23.5672],[68.2657,23.5683],[68.2784,23.6004],[68.2649,23.6325],[68.2594,23.6394],[68.225,23.6457],[68.2611,23.6547],[68.3259,23.726],[68.291,23.7243],[68.2403,23.6712],[68.1867,23.723],[68.2112,23.7699],[68.2074,23.8372],[68.2221,23.8313],[68.2408,23.8494],[68.2556,23.835],[68.2675,23.8377],[68.2573,23.8761],[68.2747,23.9179],[68.3065,23.9135],[68.3188,23.9236],[68.2745,23.9372],[68.2377,23.9002],[68.1856,23.8863],[68.1889,23.8501],[68.1361,23.8696],[68.1421,23.8397],[68.1035,23.8555],[68.1044,23.8432],[68.076,23.8332],[68.053,23.8538],[68.0553,23.903],[68.042,23.9119],[68.0277,23.8693],[68.0446,23.7949],[67.9962,23.7867],[67.9202,23.8517],[67.9298,23.829],[67.872,23.8586],[67.8653,23.9016],[67.9027,23.9647],[67.8939,23.9751],[67.8456,23.9092],[67.8274,23.8136],[67.709,23.8562],[67.7502,23.8015],[67.652,23.7945],[67.6269,23.8088],[67.6254,23.8429],[67.5834,23.8394],[67.5762,23.889],[67.5651,23.8683],[67.5355,23.893],[67.5335,23.8746],[67.4655,23.9066],[67.4661,23.9215],[67.491,23.9139],[67.4855,23.9374],[67.4661,23.9454],[67.5007,23.9699],[67.4224,23.9449],[67.4365,23.9907],[67.4083,24.0],[67.4218,24.0024],[67.4092,24.0392],[67.438,24.0636],[67.4181,24.0862],[67.4465,24.1203],[67.4088,24.084],[67.405,24.0764],[67.4014,24.0464]]],[[[88.6877,22.0147],[88.6742,22.014],[88.6743,22.0171],[88.6877,22.0147]]],[[[90.5512,22.0073],[90.558,22.0227],[90.5618,22.0205],[90.5627,22.0093],[90.5512,22.0073]]],[[[90.5155,21.9906],[90.4996,21.9977],[90.5072,22.0115],[90.5409,22.027],[90.5155,21.9906]]],[[[90.6684,22.028],[90.6566,22.0346],[90.6579,22.0479],[90.6684,22.028]]],[[[90.3372,22.1034],[90.379,22.0859],[90.329,22.0288],[90.3076,21.9737],[90.2806,21.9868],[90.2763,22.0244],[90.2936,22.069],[90.3473,22.0893],[90.3372,22.1034]]],[[[90.3995,22.0273],[90.4074,22.0266],[90.4039,22.0148],[90.3995,22.0273]]],[[[90.4401,22.0439],[90.4316,22.0338],[90.4136,22.0404],[90.4401,22.0439]]],[[[90.6221,21.9849],[90.6115,21.9988],[90.6455,22.0513],[90.6481,22.0182],[90.6221,21.9849]]],[[[90.4129,22.0321],[90.4475,22.0343],[90.4715,21.9969],[90.4579,21.9207],[90.4176,21.8969],[90.3945,21.9049],[90.4216,22.016],[90.4129,22.0321]]],[[[88.102,21.9713],[88.0954,21.9897],[88.1346,22.0231],[88.1304,21.9842],[88.102,21.9713]]],[[[88.6571,22.0123],[88.7183,22.0018],[88.6871,21.9454],[88.6377,21.9547],[88.6571,22.0123]]],[[[90.3447,21.9619],[90.341,21.9894],[90.3518,22.0194],[90.3958,22.0706],[90.4087,22.0466],[90.3447,21.9619]]],[[[91.8201,22.2775],[91.7995,22.2839],[91.806,22.2983],[91.8201,22.2775]]],[[[91.8215,22.2134],[91.8151,22.214],[91.8227,22.2236],[91.8215,22.2134]]],[[[69.0949,22.4589],[69.1319,22.4741],[69.1503,22.4673],[69.1402,22.4527],[69.1104,22.4589],[69.086,22.4197],[69.0949,22.4589]]],[[[69.2957,22.468],[69.3209,22.4649],[69.3183,22.4477],[69.2962,22.4522],[69.2957,22.468]]],[[[69.4394,22.3542],[69.4516,22.3608],[69.4552,22.3572],[69.4394,22.3542]]],[[[69.3404,22.3842],[69.3267,22.379],[69.3398,22.3892],[69.3404,22.3842]]],[[[69.4801,22.387],[69.4831,22.3989],[69.4874,22.391],[69.4801,22.387]]],[[[91.1686,22.4324],[91.1987,22.4311],[91.1998,22.4124],[91.1858,22.4085],[91.1686,22.4324]]],[[[91.0338,22.4077],[91.0155,22.4168],[91.0224,22.4471],[91.0381,22.4262],[91.0338,22.4077]]],[[[90.6487,22.4076],[90.6552,22.4054],[90.6512,22.3998],[90.6487,22.4076]]],[[[69.6399,22.4108],[69.6025,22.4183],[69.5834,22.4378],[69.6248,22.4583],[69.645,22.4439],[69.6399,22.4108]]],[[[90.6476,22.4201],[90.6393,22.4252],[90.6408,22.4303],[90.6476,22.4201]]],[[[90.9744,22.466],[90.9897,22.476],[91.0007,22.4545],[90.9955,22.4486],[90.9744,22.466]]],[[[91.1942,22.4744],[91.1542,22.4888],[91.1388,22.5159],[91.1756,22.5187],[91.1942,22.4744]]],[[[91.1976,22.5092],[91.2093,22.5065],[91.2106,22.4958],[91.1976,22.5092]]],[[[91.022,22.4838],[91.0099,22.4991],[91.0285,22.5053],[91.0316,22.4949],[91.022,22.4838]]],[[[90.6556,22.4599],[90.6239,22.5069],[90.6136,22.5392],[90.6334,22.5244],[90.6556,22.4599]]],[[[90.6436,22.5073],[90.6512,22.5029],[90.6496,22.4987],[90.6436,22.5073]]],[[[69.3501,22.5033],[69.3221,22.5088],[69.3175,22.5179],[69.3498,22.5226],[69.3501,22.5033]]],[[[91.0414,22.0781],[91.0463,22.0858],[91.0491,22.0834],[91.0414,22.0781]]],[[[90.7527,22.0551],[90.7607,22.0875],[90.7763,22.0943],[90.7704,22.0781],[90.7527,22.0551]]],[[[90.6855,22.0187],[90.6742,22.0232],[90.6691,22.0671],[90.7015,22.0616],[90.6855,22.0187]]],[[[90.6646,22.067],[90.6559,22.0635],[90.6674,22.0801],[90.6646,22.067]]],[[[91.0694,22.1018],[91.0744,22.1086],[91.0757,22.1064],[91.0694,22.1018]]],[[[91.0838,22.1321],[91.0693,22.1388],[91.0842,22.1351],[91.0838,22.1321]]],[[[90.5571,22.0344],[90.5413,22.007],[90.5446,22.0333],[90.4915,22.0106],[90.5574,22.0982],[90.5571,22.0344]]],[[[90.6614,22.0905],[90.6315,22.0708],[90.633,22.0481],[90.6158,22.0458],[90.6238,22.0883],[90.6057,22.0544],[90.6228,22.0354],[90.6062,22.0237],[90.5951,22.0693],[90.6162,22.1069],[90.6394,22.1289],[90.6644,22.1249],[90.6614,22.0905]]],[[[90.4844,22.0437],[90.4821,22.0755],[90.5167,22.1057],[90.523,22.0807],[90.4844,22.0437]]],[[[90.5522,22.1054],[90.5056,22.0443],[90.531,22.0858],[90.5252,22.1097],[90.542,22.1173],[90.5522,22.1054]]],[[[90.5935,22.1025],[90.593,22.1161],[90.5964,22.1176],[90.5935,22.1025]]],[[[91.0429,22.1007],[91.0576,22.1273],[91.0851,22.122],[91.0429,22.1007]]],[[[90.5848,22.117],[90.5773,22.128],[90.5933,22.1292],[90.5954,22.1267],[90.5848,22.117]]],[[[72.3581,22.1888],[72.3604,22.1838],[72.3515,22.1744],[72.3581,22.1888]]],[[[72.4291,22.1949],[72.4713,22.2145],[72.4785,22.2097],[72.4323,22.1795],[72.4291,22.1949]]],[[[72.5105,22.2179],[72.5039,22.2326],[72.5175,22.2305],[72.5105,22.2179]]],[[[72.663,22.2475],[72.7191,22.2376],[72.7317,22.2225],[72.7159,22.2179],[72.663,22.2475]]],[[[90.575,22.2311],[90.5686,22.2396],[90.5825,22.2508],[90.5841,22.2483],[90.575,22.2311]]],[[[89.8619,22.258],[89.8699,22.2497],[89.8708,22.2377],[89.8616,22.2442],[89.8619,22.258]]],[[[90.9792,22.2365],[90.9827,22.251],[90.9913,22.2609],[90.989,22.2459],[90.9792,22.2365]]],[[[90.9519,22.218],[90.9299,22.2287],[90.9681,22.3788],[90.9911,22.3296],[90.9519,22.218]]],[[[90.5107,22.1361],[90.5097,22.1749],[90.5449,22.1737],[90.5386,22.1519],[90.5107,22.1361]]],[[[91.0936,22.1349],[91.0677,22.1422],[91.0397,22.1309],[91.0462,22.1754],[91.103,22.1569],[91.0936,22.1349]]],[[[90.9512,22.1168],[90.9211,22.1356],[90.9219,22.1646],[90.9521,22.213],[90.9512,22.1168]]],[[[91.0396,22.1839],[91.0333,22.1946],[91.0382,22.2043],[91.0461,22.1954],[91.0396,22.1839]]],[[[90.6168,22.1767],[90.6113,22.1743],[90.6161,22.1831],[90.6168,22.1767]]],[[[90.5462,22.1889],[90.5387,22.1974],[90.5654,22.2313],[90.5677,22.2145],[90.5462,22.1889]]],[[[90.9819,22.1761],[90.9751,22.2175],[90.9954,22.2463],[91.0004,22.2371],[90.9819,22.1761]]],[[[90.8322,22.1853],[90.8307,22.2096],[90.8394,22.2206],[90.8406,22.217],[90.8322,22.1853]]],[[[90.9265,22.1974],[90.9272,22.2134],[90.9348,22.215],[90.9348,22.207],[90.9265,22.1974]]],[[[91.1757,22.3359],[91.1828,22.2711],[91.1556,22.1843],[91.1222,22.1649],[91.1191,22.1934],[91.1011,22.2106],[91.1115,22.1597],[91.0505,22.1794],[91.0519,22.4201],[91.0269,22.4766],[91.0408,22.508],[91.1223,22.492],[91.1369,22.3951],[91.1757,22.3359]]],[[[90.2892,22.3548],[90.2713,22.3515],[90.2864,22.3644],[90.2892,22.3548]]],[[[90.6408,22.3931],[90.6393,22.4091],[90.6486,22.3674],[90.6408,22.3931]]],[[[90.6332,22.3639],[90.6038,22.4221],[90.6059,22.463],[90.6258,22.4422],[90.6332,22.3639]]],[[[90.3227,22.9696],[90.3564,22.9623],[90.368,22.9212],[90.3518,22.9514],[90.3227,22.9696]]],[[[90.2948,22.9664],[90.3136,22.9686],[90.3481,22.9398],[90.301,22.9519],[90.2948,22.9664]]],[[[90.6342,22.959],[90.6388,22.9635],[90.6432,22.9568],[90.6342,22.959]]],[[[90.6322,22.838],[90.639,22.8478],[90.6454,22.8492],[90.6453,22.8443],[90.6322,22.838]]],[[[90.6937,22.8538],[90.67,22.8458],[90.6796,22.8543],[90.6937,22.8538]]],[[[90.6521,22.8487],[90.6554,22.8821],[90.6724,22.8819],[90.6623,22.8542],[90.6521,22.8487]]],[[[90.4706,22.8074],[90.4526,22.8264],[90.4843,22.8343],[90.4912,22.8191],[90.4706,22.8074]]],[[[90.6686,22.8296],[90.7021,22.8276],[90.7026,22.8205],[90.6815,22.8128],[90.6686,22.8296]]],[[[90.6438,22.8594],[90.5568,22.7903],[90.4846,22.8396],[90.4608,22.8402],[90.4824,22.867],[90.5329,22.8745],[90.5502,22.8971],[90.5535,22.9442],[90.6496,22.8941],[90.6438,22.8594]]],[[[70.3744,23.0335],[70.393,23.0311],[70.3961,23.0206],[70.3753,23.0222],[70.3744,23.0335]]],[[[70.3954,23.0582],[70.3788,23.0361],[70.3679,23.0431],[70.3954,23.0582]]],[[[70.4574,23.0388],[70.4468,23.0314],[70.4561,23.0439],[70.4574,23.0388]]],[[[70.4163,23.0281],[70.4187,23.0392],[70.4349,23.0499],[70.4345,23.0444],[70.4163,23.0281]]],[[[70.4728,23.0546],[70.4599,23.0526],[70.4769,23.0622],[70.4728,23.0546]]],[[[90.6232,23.2389],[90.6198,23.2581],[90.6207,23.2617],[90.6334,23.2534],[90.6232,23.2389]]],[[[90.5297,23.1719],[90.5449,23.1982],[90.5412,23.1433],[90.5215,23.1812],[90.534,23.2002],[90.5297,23.1719]]],[[[90.5569,23.1601],[90.5541,23.1765],[90.5756,23.2083],[90.5761,23.1787],[90.5569,23.1601]]],[[[90.5544,23.2059],[90.5661,23.2048],[90.5566,23.1903],[90.5544,23.2059]]],[[[90.5963,23.2287],[90.5835,23.218],[90.5954,23.2312],[90.5963,23.2287]]],[[[90.6188,23.2298],[90.6138,23.2315],[90.6161,23.2364],[90.6188,23.2298]]],[[[90.5578,23.2282],[90.5631,23.2392],[90.5731,23.2392],[90.5704,23.2357],[90.5578,23.2282]]],[[[90.5803,23.239],[90.5713,23.2467],[90.5838,23.26],[90.586,23.2534],[90.5803,23.239]]],[[[90.4052,23.0052],[90.3919,23.0089],[90.4172,23.0099],[90.4052,23.0052]]],[[[90.5192,23.06],[90.5266,23.0634],[90.5237,23.0524],[90.5192,23.06]]],[[[90.5131,23.0812],[90.5003,23.1001],[90.5168,23.1384],[90.5241,23.0914],[90.5131,23.0812]]],[[[90.5067,23.0154],[90.5003,23.0214],[90.5044,23.0251],[90.5067,23.0154]]],[[[90.4756,23.0238],[90.48,23.0407],[90.4929,23.0117],[90.4756,23.0238]]],[[[90.5064,23.0378],[90.491,23.0532],[90.5057,23.0637],[90.5083,23.062],[90.5064,23.0378]]],[[[90.3079,23.0375],[90.2751,23.039],[90.2918,23.0496],[90.3079,23.0375]]],[[[90.4571,23.1226],[90.4753,23.1555],[90.479,23.1329],[90.4571,23.1226]]],[[[90.4922,23.0819],[90.4684,23.097],[90.4477,23.0556],[90.4435,23.1068],[90.4907,23.1312],[90.4643,23.1914],[90.4687,23.2012],[90.4724,23.1855],[90.5053,23.1688],[90.4922,23.0819]]],[[[90.6734,23.3486],[90.6783,23.3582],[90.6816,23.3461],[90.6734,23.3486]]],[[[90.1896,23.386],[90.1966,23.3718],[90.1914,23.373],[90.1896,23.386]]],[[[90.4534,23.4011],[90.4948,23.3982],[90.501,23.3839],[90.4739,23.3845],[90.4534,23.4011]]],[[[90.3949,23.4],[90.4093,23.4048],[90.4177,23.394],[90.3949,23.4]]],[[[90.2303,23.4706],[90.2377,23.4724],[90.2391,23.4676],[90.2303,23.4706]]],[[[90.6906,23.5452],[90.7032,23.5522],[90.7019,23.5256],[90.6906,23.5452]]],[[[90.6257,23.4934],[90.6083,23.4922],[90.6263,23.4961],[90.6257,23.4934]]],[[[90.199,23.4973],[90.1865,23.4972],[90.1838,23.5031],[90.199,23.4973]]],[[[90.6821,23.4877],[90.6611,23.49],[90.6436,23.5019],[90.6637,23.5167],[90.6888,23.5014],[90.6821,23.4877]]],[[[90.7068,23.5051],[90.6946,23.4979],[90.702,23.5148],[90.7068,23.5051]]],[[[90.5756,23.5199],[90.5607,23.5261],[90.5573,23.5384],[90.5756,23.5199]]],[[[90.1658,23.4199],[90.184,23.3987],[90.1817,23.3936],[90.1658,23.4199]]],[[[90.5654,23.4012],[90.5851,23.43],[90.5714,23.3878],[90.5845,23.3687],[90.5719,23.3743],[90.5654,23.4012]]],[[[90.167,23.4337],[90.1768,23.4246],[90.1765,23.4189],[90.167,23.4337]]],[[[90.5754,23.4453],[90.5686,23.4417],[90.5742,23.4501],[90.5754,23.4453]]],[[[90.5591,23.449],[90.544,23.4543],[90.5431,23.4794],[90.5615,23.4807],[90.5591,23.449]]],[[[90.4511,23.3395],[90.5188,23.3285],[90.552,23.2822],[90.5409,23.2371],[90.5004,23.1797],[90.4761,23.1948],[90.5004,23.2449],[90.4938,23.299],[90.4511,23.3395]]],[[[90.1005,23.2992],[90.1209,23.2927],[90.1807,23.3378],[90.2574,23.3069],[90.2334,23.2961],[90.2286,23.2652],[90.1662,23.2687],[90.1801,23.2409],[90.1276,23.2454],[90.1245,23.2738],[90.0911,23.2771],[90.1005,23.2992]]],[[[90.5656,23.3198],[90.5751,23.3086],[90.5748,23.3061],[90.5656,23.3198]]],[[[90.5473,23.3245],[90.5526,23.3295],[90.5608,23.3132],[90.5473,23.3245]]],[[[90.5829,23.3499],[90.5857,23.3557],[90.591,23.3393],[90.5829,23.3499]]],[[[90.5275,23.3583],[90.542,23.3558],[90.5382,23.3497],[90.5275,23.3583]]],[[[90.2989,23.3679],[90.3364,23.3819],[90.3463,23.3767],[90.2989,23.3679]]],[[[90.4352,23.3119],[90.3716,23.3623],[90.349,23.3965],[90.4372,23.3544],[90.4539,23.3185],[90.4352,23.3119]]],[[[90.4849,23.346],[90.4467,23.3667],[90.4464,23.3699],[90.4849,23.346]]],[[[90.5464,23.3722],[90.5529,23.3901],[90.5602,23.3673],[90.5464,23.3722]]],[[[90.4821,23.3729],[90.4649,23.3665],[90.4238,23.3903],[90.443,23.395],[90.4821,23.3729]]],[[[90.2224,23.4246],[90.3219,23.3979],[90.3337,23.3859],[90.286,23.3796],[90.2958,23.3708],[90.2708,23.3264],[90.2139,23.3613],[90.245,23.326],[90.2056,23.3503],[90.1836,23.4498],[90.2224,23.4246]]],[[[70.3753,22.9592],[70.3896,22.9602],[70.3834,22.9427],[70.351,22.9316],[70.3011,22.9435],[70.385,22.9959],[70.3919,22.971],[70.3753,22.9592]]],[[[70.4425,22.9724],[70.4335,22.9737],[70.4491,22.9798],[70.4425,22.9724]]],[[[90.6485,22.9847],[90.6803,22.9808],[90.6935,22.9571],[90.6683,22.9639],[90.6485,22.9847]]],[[[70.4415,22.9801],[70.4295,22.9817],[70.4484,22.994],[70.4415,22.9801]]],[[[70.4133,22.9907],[70.4164,23.0236],[70.4424,23.0472],[70.4312,23.0099],[70.4133,22.9907]]],[[[90.5628,22.9968],[90.5357,23.0213],[90.5551,23.048],[90.5669,23.0068],[90.5628,22.9968]]],[[[90.4295,22.9979],[90.4198,23.0042],[90.4418,23.0056],[90.4295,22.9979]]],[[[90.294,23.3301],[90.3026,23.3547],[90.3339,23.3674],[90.393,23.3396],[90.4122,23.3025],[90.4839,23.2994],[90.4857,23.2465],[90.4512,23.1977],[90.4659,23.1672],[90.4338,23.1001],[90.4459,23.0225],[90.3609,23.0111],[90.3426,22.9819],[90.3244,22.9841],[90.3087,23.0538],[90.3259,23.0679],[90.3326,23.1087],[90.3229,23.1024],[90.2729,23.1468],[90.267,23.1328],[90.2905,23.1207],[90.2538,23.1253],[90.2444,23.1379],[90.2657,23.1601],[90.2258,23.1861],[90.2082,23.1922],[90.1842,23.1708],[90.1753,23.1834],[90.2071,23.2097],[90.2108,23.224],[90.1721,23.262],[90.233,23.2607],[90.2526,23.2882],[90.24,23.2931],[90.294,23.3301]]],[[[90.7146,23.7266],[90.7319,23.6849],[90.6946,23.6848],[90.6983,23.7051],[90.7146,23.7266]]],[[[90.3291,23.7271],[90.351,23.728],[90.3547,23.715],[90.3291,23.7271]]],[[[68.4731,23.6881],[68.4681,23.7086],[68.5031,23.716],[68.4903,23.6983],[68.4731,23.6881]]],[[[89.8987,23.7073],[89.9254,23.7029],[89.9346,23.6894],[89.928,23.6854],[89.8987,23.7073]]],[[[89.8656,23.7068],[89.8689,23.7138],[89.8759,23.7073],[89.8656,23.7068]]],[[[68.4692,23.7178],[68.4586,23.7341],[68.4824,23.7252],[68.4692,23.7178]]],[[[89.8652,23.7226],[89.8686,23.7271],[89.8746,23.7189],[89.8652,23.7226]]],[[[89.8515,23.7281],[89.8568,23.7306],[89.8623,23.7229],[89.8515,23.7281]]],[[[89.786,23.7414],[89.7904,23.7596],[89.8001,23.7323],[89.786,23.7414]]],[[[68.5914,23.7415],[68.5774,23.741],[68.5917,23.7475],[68.5914,23.7415]]],[[[90.7168,23.6597],[90.7013,23.6628],[90.6913,23.6714],[90.7264,23.6788],[90.7168,23.6597]]],[[[90.6577,23.6794],[90.6641,23.6736],[90.6474,23.6798],[90.6577,23.6794]]],[[[90.6474,23.6139],[90.6317,23.6169],[90.6428,23.6569],[90.6634,23.6642],[90.6503,23.6478],[90.6474,23.6139]]],[[[90.6841,23.6613],[90.6694,23.6628],[90.6724,23.669],[90.6841,23.6613]]],[[[90.313,23.7323],[90.3713,23.6956],[90.4183,23.6844],[90.4643,23.628],[90.4239,23.6183],[90.4349,23.637],[90.429,23.6419],[90.415,23.624],[90.3878,23.6461],[90.3978,23.6253],[90.3763,23.6272],[90.2958,23.6657],[90.2617,23.7243],[90.2876,23.7327],[90.3003,23.7604],[90.313,23.7323]]],[[[68.2576,23.8557],[68.2474,23.8543],[68.2581,23.8653],[68.2576,23.8557]]],[[[89.3791,23.9063],[89.398,23.9267],[89.4109,23.9196],[89.3791,23.9063]]],[[[89.6611,23.9383],[89.6726,23.9407],[89.6775,23.9107],[89.6611,23.9383]]],[[[89.1866,23.9588],[89.2314,23.9586],[89.2524,23.9367],[89.2298,23.9463],[89.2358,23.9322],[89.2241,23.9316],[89.1866,23.9588]]],[[[67.3929,23.9825],[67.4068,23.975],[67.4239,23.9778],[67.4094,23.9572],[67.3929,23.9825]]],[[[89.1773,23.9953],[89.154,23.9895],[89.1391,23.9934],[89.1568,23.9991],[89.1773,23.9953]]],[[[67.4129,24.0593],[67.413,24.0806],[67.4223,24.0653],[67.4129,24.0593]]],[[[89.3479,23.8867],[89.3177,23.8867],[89.3147,23.8929],[89.3479,23.8867]]],[[[89.6885,23.9281],[89.7101,23.9194],[89.7311,23.8789],[89.7008,23.8954],[89.6885,23.9281]]],[[[89.3709,23.9404],[89.3556,23.8929],[89.3149,23.8989],[89.2906,23.9388],[89.3709,23.9404]]],[[[67.3591,24.3603],[67.3371,24.3642],[67.3557,24.3838],[67.3591,24.3603]]],[[[67.3154,24.3647],[67.3104,24.3831],[67.3332,24.382],[67.3337,24.3733],[67.3154,24.3647]]],[[[67.3073,24.4256],[67.3529,24.4367],[67.3671,24.4234],[67.3632,24.4118],[67.3416,24.4159],[67.3388,24.3912],[67.308,24.3906],[67.3086,24.4156],[67.34,24.4177],[67.3073,24.4256]]],[[[67.3914,24.4242],[67.3774,24.4338],[67.3951,24.4296],[67.3914,24.4242]]],[[[67.3018,24.4501],[67.3623,24.4573],[67.3728,24.4528],[67.3059,24.4321],[67.3018,24.4501]]],[[[67.3163,24.4696],[67.31,24.4829],[67.3236,24.4969],[67.329,24.4923],[67.3163,24.4696]]],[[[67.3364,24.4896],[67.3143,24.5079],[67.3191,24.5195],[67.348,24.4963],[67.3364,24.4896]]],[[[67.2675,24.5096],[67.288,24.5262],[67.3062,24.5103],[67.3027,24.471],[67.2567,24.4769],[67.2746,24.4961],[67.2675,24.5096]]],[[[67.2962,24.5327],[67.32,24.5467],[67.3615,24.5249],[67.3505,24.5024],[67.2962,24.5327]]],[[[67.2242,24.576],[67.2858,24.581],[67.3029,24.5478],[67.2732,24.5249],[67.2499,24.5383],[67.2405,24.5284],[67.2163,24.5566],[67.2242,24.576]]],[[[68.1674,23.8444],[68.1836,23.8426],[68.1913,23.7876],[68.1483,23.7247],[68.1546,23.7022],[68.1309,23.695],[68.1034,23.727],[68.0914,23.7184],[68.1106,23.6987],[68.0571,23.7166],[68.036,23.7055],[68.0351,23.7213],[68.0705,23.7478],[68.0771,23.7991],[68.1177,23.8314],[68.1729,23.8229],[68.1674,23.8444]]],[[[68.6373,23.7816],[68.6283,23.7828],[68.6391,23.7899],[68.6373,23.7816]]],[[[90.2259,23.725],[90.2118,23.7551],[90.2416,23.792],[90.2522,23.7467],[90.2259,23.725]]],[[[68.6101,23.7728],[68.5693,23.7576],[68.6114,23.7804],[68.6101,23.7728]]],[[[89.7807,23.7448],[89.7587,23.7631],[89.7438,23.8037],[89.7758,23.7887],[89.7807,23.7448]]],[[[89.6826,23.8011],[89.718,23.8016],[89.7424,23.7792],[89.6852,23.7896],[89.6826,23.8011]]],[[[89.6373,23.7995],[89.6716,23.8044],[89.6763,23.7912],[89.6412,23.7843],[89.6373,23.7995]]],[[[90.1144,23.8698],[90.1436,23.827],[90.176,23.8211],[90.2026,23.8355],[90.232,23.8149],[90.2054,23.8221],[90.1823,23.8071],[90.1342,23.812],[90.0872,23.8364],[90.1157,23.8541],[90.1144,23.8698]]],[[[68.224,23.8419],[68.2062,23.8482],[68.2094,23.867],[68.2387,23.8734],[68.246,23.86],[68.224,23.8419]]],[[[89.4901,23.8208],[89.5325,23.8154],[89.5155,23.7856],[89.4921,23.8079],[89.4901,23.8208]]],[[[89.5465,23.7973],[89.6077,23.8147],[89.62,23.8056],[89.5465,23.7973]]],[[[67.2118,24.8053],[67.2264,24.8008],[67.2329,24.7931],[67.2251,24.7943],[67.2118,24.8053]]],[[[67.189,24.7043],[67.1788,24.7357],[67.2414,24.7576],[67.2482,24.7424],[67.1991,24.7243],[67.189,24.7043]]],[[[67.2435,24.7295],[67.3027,24.7739],[67.3412,24.7601],[67.326,24.7352],[67.2878,24.7417],[67.2442,24.7116],[67.2435,24.7295]]],[[[67.2449,24.7805],[67.2711,24.7862],[67.2889,24.7778],[67.257,24.7509],[67.2449,24.7805]]],[[[67.1645,24.7607],[67.2151,24.7933],[67.2292,24.7821],[67.1825,24.7512],[67.1645,24.7607]]],[[[67.1334,24.6779],[67.1159,24.6769],[67.1158,24.6905],[67.1334,24.6779]]],[[[67.3467,24.6561],[67.3584,24.6667],[67.3688,24.6637],[67.3649,24.6521],[67.3467,24.6561]]],[[[67.4158,24.6699],[67.4357,24.6453],[67.412,24.6574],[67.3899,24.6492],[67.3699,24.6707],[67.3393,24.682],[67.4209,24.6984],[67.4158,24.6699]]],[[[67.3449,24.6623],[67.3243,24.6406],[67.3066,24.6596],[67.3199,24.6586],[67.3343,24.6766],[67.3449,24.6623]]],[[[67.2911,24.6875],[67.3208,24.6697],[67.3161,24.6635],[67.2911,24.6875]]],[[[67.1134,24.747],[67.1371,24.7553],[67.1515,24.7393],[67.1414,24.6901],[67.1233,24.7035],[67.1134,24.747]]],[[[67.1889,24.6911],[67.2122,24.7168],[67.2199,24.6909],[67.2449,24.6676],[67.1889,24.6911]]],[[[67.2479,24.7059],[67.2949,24.7361],[67.3297,24.7274],[67.3465,24.7355],[67.3915,24.6966],[67.3402,24.6922],[67.3272,24.677],[67.2873,24.6917],[67.295,24.6711],[67.2725,24.6681],[67.271,24.6536],[67.2723,24.6789],[67.2481,24.6771],[67.2171,24.7201],[67.2479,24.7059]]],[[[66.6188,24.8954],[66.5961,24.8909],[66.6062,24.9055],[66.6188,24.8954]]],[[[63.8769,25.1192],[63.8418,25.121],[63.8788,25.1268],[63.8769,25.1192]]],[[[64.1073,25.4172],[64.0651,25.4156],[64.1245,25.4227],[64.1073,25.4172]]],[[[66.5279,25.4597],[66.5058,25.4565],[66.5285,25.467],[66.5279,25.4597]]],[[[66.4163,25.5558],[66.4226,25.522],[66.3953,25.552],[66.4163,25.5558]]],[[[66.1976,25.5373],[66.1624,25.5407],[66.2052,25.5732],[66.1938,25.5568],[66.1976,25.5373]]],[[[66.3428,25.5618],[66.3516,25.5599],[66.3528,25.5505],[66.3428,25.5618]]],[[[66.3873,25.5655],[66.3798,25.5631],[66.3842,25.5685],[66.3873,25.5655]]],[[[66.3788,25.5785],[66.3753,25.5847],[66.3817,25.5807],[66.3788,25.5785]]],[[[66.35,25.5891],[66.3614,25.5854],[66.3609,25.5834],[66.35,25.5891]]],[[[67.348,24.6132],[67.3398,24.6175],[67.3479,24.6213],[67.348,24.6132]]],[[[67.3093,24.5925],[67.3017,24.5993],[67.3086,24.6039],[67.3093,24.5925]]],[[[67.292,24.6207],[67.3166,24.6341],[67.3336,24.5962],[67.3197,24.5951],[67.3147,24.5831],[67.3153,24.6071],[67.3046,24.6121],[67.2933,24.5865],[67.292,24.6207]]],[[[67.3282,24.6334],[67.3556,24.6445],[67.374,24.6299],[67.3623,24.6155],[67.3282,24.6334]]],[[[67.1721,24.6663],[67.1982,24.681],[67.216,24.6634],[67.2566,24.6611],[67.2806,24.6139],[67.2562,24.5972],[67.2196,24.6208],[67.22,24.6389],[67.182,24.6243],[67.1721,24.6663]]],[[[67.281,24.6615],[67.3033,24.6622],[67.3054,24.6397],[67.2839,24.6348],[67.281,24.6615]]],[[[68.2316,23.5807],[68.2353,23.575],[68.2215,23.5869],[68.2316,23.5807]]],[[[90.4398,23.5559],[90.453,23.568],[90.4749,23.568],[90.4666,23.5501],[90.4398,23.5559]]],[[[90.5542,23.5553],[90.5566,23.5649],[90.5668,23.5437],[90.5542,23.5553]]],[[[90.6949,23.5552],[90.6936,23.5641],[90.6992,23.5613],[90.6949,23.5552]]],[[[90.6804,23.5794],[90.6905,23.5679],[90.6848,23.5676],[90.6804,23.5794]]],[[[90.5632,23.583],[90.6517,23.606],[90.684,23.562],[90.6669,23.5693],[90.6946,23.5158],[90.6576,23.5209],[90.5851,23.4883],[90.58,23.5629],[90.5632,23.583]]],[[[90.4477,23.6032],[90.4844,23.5823],[90.5024,23.5851],[90.4538,23.5754],[90.4477,23.6032]]],[[[90.4335,23.558],[90.4244,23.6027],[90.431,23.6061],[90.4432,23.5992],[90.4335,23.558]]],[[[90.4039,23.6053],[90.4199,23.5975],[90.4285,23.5723],[90.408,23.5882],[90.4039,23.6053]]],[[[68.1649,23.6201],[68.215,23.6466],[68.2526,23.6373],[68.2627,23.6088],[68.2451,23.5773],[68.2153,23.5952],[68.2226,23.5752],[68.2112,23.5734],[68.1868,23.5809],[68.1649,23.6201]]],[[[68.4309,23.5774],[68.423,23.6096],[68.4574,23.6172],[68.4612,23.6033],[68.4309,23.5774]]],[[[90.0878,23.6174],[90.1101,23.6069],[90.1143,23.5944],[90.0967,23.6051],[90.0878,23.6174]]],[[[90.405,23.6106],[90.3909,23.6159],[90.4177,23.611],[90.405,23.6106]]],[[[90.6614,23.6579],[90.7322,23.6524],[90.7598,23.6309],[90.7358,23.6271],[90.7284,23.5956],[90.6956,23.5734],[90.6684,23.59],[90.6536,23.6235],[90.6614,23.6579]]],[[[90.6195,23.6099],[90.6019,23.6062],[90.6261,23.6259],[90.6195,23.6099]]],[[[91.2173,22.6408],[91.2783,22.6111],[91.3048,22.5574],[91.2913,22.5408],[91.2417,22.5466],[91.2151,22.6068],[91.2173,22.6408]]],[[[69.9011,22.5447],[69.9276,22.5414],[69.9248,22.5129],[69.8571,22.5214],[69.8999,22.5252],[69.9011,22.5447]]],[[[69.9538,22.5944],[69.9391,22.5982],[69.9586,22.5993],[69.9538,22.5944]]],[[[91.0309,22.5557],[91.0189,22.5533],[91.0318,22.5594],[91.0309,22.5557]]],[[[69.9522,22.5443],[69.9398,22.5358],[69.9364,22.5455],[69.9522,22.5443]]],[[[69.9696,22.5774],[70.0048,22.5893],[70.0284,22.5733],[69.969,22.5462],[69.9571,22.5546],[69.9696,22.5774]]],[[[91.5582,22.4111],[91.5161,22.3469],[91.4849,22.3429],[91.4551,22.3987],[91.4007,22.4361],[91.3798,22.4944],[91.3921,22.564],[91.3567,22.66],[91.3808,22.6624],[91.4506,22.6247],[91.5454,22.4693],[91.5582,22.4111]]],[[[90.6512,22.7805],[90.7309,22.7736],[90.778,22.6269],[90.8678,22.5181],[90.8889,22.445],[90.8462,22.2419],[90.8319,22.2192],[90.8082,22.2193],[90.8254,22.1984],[90.8024,22.2081],[90.796,22.246],[90.7981,22.2038],[90.8209,22.1843],[90.7784,22.186],[90.8194,22.1776],[90.8219,22.1395],[90.7919,22.1083],[90.7958,22.1457],[90.783,22.1074],[90.7622,22.1112],[90.7168,22.0527],[90.7086,22.0646],[90.7371,22.132],[90.7058,22.0721],[90.6749,22.0707],[90.6781,22.1053],[90.6991,22.1114],[90.6703,22.1264],[90.6957,22.1379],[90.6597,22.1332],[90.6338,22.1481],[90.6334,22.1324],[90.6198,22.1325],[90.6111,22.1582],[90.6706,22.2784],[90.6689,22.4825],[90.6066,22.6012],[90.5888,22.6067],[90.6186,22.5467],[90.5729,22.5947],[90.5746,22.6194],[90.5634,22.6408],[90.5889,22.6338],[90.5796,22.6542],[90.5439,22.6283],[90.539,22.641],[90.5792,22.7219],[90.6512,22.7805]]],[[[90.5632,22.6057],[90.5577,22.6218],[90.5575,22.628],[90.5686,22.6208],[90.5632,22.6057]]],[[[91.2806,22.6642],[91.2964,22.6764],[91.2933,22.6646],[91.2806,22.6642]]],[[[91.1199,22.5624],[91.0996,22.5702],[91.0918,22.5984],[91.141,22.6642],[91.1719,22.6049],[91.1574,22.5798],[91.1199,22.5624]]],[[[91.3411,22.7184],[91.3104,22.7451],[91.3124,22.7514],[91.3474,22.7548],[91.3544,22.7304],[91.3411,22.7184]]],[[[69.6299,22.7579],[69.6385,22.7619],[69.6567,22.7518],[69.6299,22.7579]]],[[[90.4786,22.7281],[90.4833,22.7413],[90.4893,22.7199],[90.4786,22.7281]]],[[[91.0554,22.6978],[91.1122,22.7],[91.1284,22.6708],[91.0886,22.5983],[91.0853,22.553],[91.0658,22.569],[91.0582,22.6391],[91.0449,22.6359],[91.0554,22.6978]]],[[[90.7969,22.6901],[90.8157,22.6838],[90.8206,22.6552],[90.7937,22.659],[90.7969,22.6901]]],[[[91.1319,22.7333],[91.228,22.7451],[91.2876,22.7209],[91.2996,22.7012],[91.2707,22.6674],[91.2165,22.7007],[91.2357,22.7099],[91.2122,22.7042],[91.1319,22.7333]]],[[[90.8018,22.7834],[90.9095,22.8108],[90.9414,22.8032],[91.0202,22.7154],[91.0079,22.7052],[90.9757,22.7222],[90.9658,22.7155],[91.0357,22.6706],[91.0292,22.6419],[91.0534,22.6162],[91.0553,22.5807],[91.048,22.5926],[91.0248,22.5766],[91.0438,22.5696],[90.9943,22.5409],[90.955,22.5481],[90.9256,22.5787],[90.9401,22.5911],[90.9144,22.5899],[90.8618,22.6339],[90.8018,22.7834]]],[[[91.0417,22.6769],[91.0194,22.6926],[91.0181,22.7025],[91.0462,22.7046],[91.0417,22.6769]]],[[[90.7921,22.7154],[90.8021,22.7146],[90.8025,22.7089],[90.7921,22.7154]]],[[[90.5473,22.7143],[90.5288,22.6841],[90.4885,22.7697],[90.5006,22.7921],[90.5482,22.768],[90.5473,22.7143]]],[[[90.4576,22.7485],[90.4348,22.7706],[90.4527,22.7883],[90.4796,22.7568],[90.4576,22.7485]]],[[[90.6604,22.8159],[90.6197,22.783],[90.5955,22.7887],[90.6604,22.8159]]],[[[90.5747,22.7445],[90.5676,22.7785],[90.6003,22.7771],[90.5747,22.7445]]],[[[90.3533,22.9932],[90.4309,22.9917],[90.4512,22.9721],[90.4551,23.0016],[90.5413,22.9533],[90.5431,22.8996],[90.515,22.8747],[90.4671,22.8659],[90.4447,22.8264],[90.4491,22.8052],[90.4274,22.8167],[90.4278,22.8417],[90.3951,22.8281],[90.3898,22.839],[90.4218,22.8989],[90.4173,22.9163],[90.3845,22.856],[90.3951,22.7999],[90.4151,22.7819],[90.3844,22.7899],[90.42,22.7752],[90.4053,22.7648],[90.3793,22.7792],[90.3323,22.8477],[90.3807,22.9076],[90.3533,22.9932]]]]}}