{"type":"Feature","properties":{"speciesId":144,"category":"EN","source":"IUCN Red List","simplifyTol":0.01,"clippedToSubcontinent":true},"geometry":{"type":"MultiPolygon","coordinates":[[[[97.7778,14.4542],[97.766,14.455],[97.7742,14.4632],[97.7778,14.4542]]],[[[97.7863,14.9422],[97.7845,14.9247],[97.78,14.9409],[97.7863,14.9422]]],[[[97.7672,14.9922],[97.758,14.9941],[97.7656,15.0004],[97.7672,14.9922]]],[[[97.7361,15.0542],[97.7245,15.0615],[97.7387,15.1005],[97.7464,15.0931],[97.7361,15.0542]]],[[[95.2429,15.6964],[95.2236,15.675],[95.1953,15.6825],[95.2429,15.6964]]],[[[95.2999,15.6741],[95.266,15.6764],[95.2676,15.6881],[95.2999,15.6741]]],[[[95.3244,15.6813],[95.316,15.6801],[95.3179,15.6881],[95.3244,15.6813]]],[[[97.7069,15.6792],[97.6994,15.6857],[97.705,15.6881],[97.7069,15.6792]]],[[[97.7529,15.1549],[97.7496,15.1575],[97.7517,15.1587],[97.7529,15.1549]]],[[[97.7374,15.1735],[97.7254,15.1675],[97.7205,15.1741],[97.7374,15.1735]]],[[[97.7244,15.1813],[97.716,15.1801],[97.7179,15.1881],[97.7244,15.1813]]],[[[97.7423,15.2048],[97.7285,15.1926],[97.7361,15.2125],[97.7423,15.2048]]],[[[97.7168,15.3029],[97.6994,15.3037],[97.701,15.3128],[97.7168,15.3029]]],[[[97.6611,15.4875],[97.6494,15.4994],[97.6483,15.5919],[97.6631,15.5759],[97.6611,15.4875]]],[[[97.7217,15.5007],[97.728,15.5046],[97.7292,15.5],[97.7217,15.5007]]],[[[94.2839,15.8695],[94.2717,15.8589],[94.2781,15.8714],[94.2839,15.8695]]],[[[94.4625,16.0458],[94.4505,16.0606],[94.4737,16.0839],[94.4625,16.0458]]],[[[95.0444,15.7083],[95.0259,15.7134],[95.0216,15.7325],[95.0615,15.7494],[95.066,15.7301],[95.0444,15.7083]]],[[[97.5528,16.0625],[97.5452,16.0634],[97.5491,16.0673],[97.5528,16.0625]]],[[[95.0819,16.0583],[95.0802,16.0706],[95.0965,16.0771],[95.0952,16.0729],[95.0819,16.0583]]],[[[97.6077,16.2062],[97.5917,16.1972],[97.6014,16.2381],[97.6077,16.2062]]],[[[95.0653,15.8125],[95.0495,15.8196],[95.0612,15.8421],[95.0713,15.8346],[95.0653,15.8125]]],[[[95.0756,16.0175],[95.0702,16.0029],[95.0717,16.0215],[95.0756,16.0175]]],[[[97.588,15.8758],[97.5827,15.8734],[97.5848,15.8798],[97.588,15.8758]]],[[[97.7966,14.1372],[97.8242,14.1217],[97.8028,14.1042],[97.7966,14.1372]]],[[[97.8256,14.1571],[97.816,14.1486],[97.8177,14.159],[97.8256,14.1571]]],[[[97.8159,14.2677],[97.7957,14.2819],[97.8215,14.2987],[97.8159,14.2677]]],[[[97.8694,14.1542],[97.866,14.1647],[97.8622,14.1699],[97.87,14.1709],[97.8694,14.1542]]],[[[97.7903,14.1375],[97.7743,14.1474],[97.7793,14.1779],[97.8257,14.1907],[97.7903,14.1375]]],[[[97.7922,14.2071],[97.7827,14.1968],[97.7843,14.209],[97.7922,14.2071]]],[[[97.7948,14.3546],[97.7883,14.3465],[97.787,14.3531],[97.7948,14.3546]]],[[[97.775,14.4333],[97.7624,14.445],[97.7783,14.4463],[97.775,14.4333]]],[[[97.8069,14.3917],[97.7994,14.3982],[97.805,14.4006],[97.8069,14.3917]]],[[[97.7867,14.4327],[97.7797,14.4021],[97.7823,14.3872],[97.7619,14.4036],[97.7867,14.4327]]],[[[97.791,14.3104],[97.7827,14.3072],[97.7883,14.3382],[97.791,14.3104]]],[[[97.9241,13.87],[97.9336,13.8428],[97.9113,13.7828],[97.8956,13.828],[97.9095,13.8756],[97.9241,13.87]],[[97.9163,13.8697],[97.9196,13.8661],[97.9208,13.8708],[97.9163,13.8697]]],[[[97.9205,13.7771],[97.9162,13.7766],[97.9193,13.7794],[97.9205,13.7771]]],[[[97.9111,13.8792],[97.8993,13.9289],[97.9052,13.9465],[97.9215,13.9294],[97.9111,13.8792]]],[[[94.6439,16.1005],[94.6284,16.0593],[94.6136,16.0453],[94.6125,16.0625],[94.6012,16.054],[94.5748,16.0009],[94.4841,15.9659],[94.3974,15.8291],[94.4078,15.873],[94.3786,15.9701],[94.3842,16.0075],[94.4579,16.0343],[94.4625,16.0458],[94.4746,16.0559],[94.4795,16.0691],[94.4955,16.0851],[94.517,16.1483],[94.6411,16.2548],[94.6714,16.2091],[94.6439,16.1005]],[[94.6125,16.0625],[94.6167,16.0667],[94.6134,16.0658],[94.6125,16.0625]],[[94.6167,16.0667],[94.6208,16.0708],[94.6175,16.07],[94.6167,16.0667]],[[94.6208,16.0708],[94.625,16.075],[94.6217,16.0741],[94.6208,16.0708]],[[94.625,16.075],[94.6292,16.0792],[94.6259,16.0783],[94.625,16.075]],[[94.6337,16.0803],[94.6304,16.0839],[94.6292,16.0792],[94.6337,16.0803]],[[94.6371,16.0988],[94.6405,16.0953],[94.6417,16.1],[94.6371,16.0988]],[[94.6329,16.0891],[94.6371,16.0896],[94.636,16.0919],[94.6329,16.0891]]],[[[94.2165,16.3781],[94.2077,16.3759],[94.2157,16.3839],[94.2165,16.3781]]],[[[97.6125,16.2875],[97.6237,16.3047],[97.6281,16.2831],[97.6125,16.2875]]],[[[97.6119,16.2728],[97.5853,16.2506],[97.5661,16.2784],[97.5907,16.3422],[97.6119,16.2728]]],[[[94.2283,16.3959],[94.2202,16.3801],[94.2216,16.3951],[94.2283,16.3959]]],[[[94.7005,16.4029],[94.691,16.3719],[94.6925,16.4048],[94.7005,16.4029]]],[[[97.584,16.3992],[97.5923,16.3856],[97.5833,16.3792],[97.584,16.3992]]],[[[94.2323,16.4255],[94.2258,16.4174],[94.2245,16.4239],[94.2323,16.4255]]],[[[94.6964,16.4299],[94.6911,16.4276],[94.6931,16.4339],[94.6964,16.4299]]],[[[96.2986,16.4958],[96.2804,16.5127],[96.2636,16.5584],[96.2827,16.5438],[96.2986,16.4958]]],[[[97.3861,16.4417],[97.3969,16.5037],[97.4381,16.5239],[97.3923,16.4647],[97.3861,16.4417]]],[[[94.3121,16.5979],[94.3079,16.5975],[94.311,16.6003],[94.3121,16.5979]]],[[[94.2989,16.6213],[94.2925,16.6132],[94.2912,16.6198],[94.2989,16.6213]]],[[[94.3248,16.6197],[94.316,16.6176],[94.3241,16.6256],[94.3248,16.6197]]],[[[94.3339,16.6549],[94.3286,16.6526],[94.3306,16.6589],[94.3339,16.6549]]],[[[94.3611,16.7458],[94.3535,16.7468],[94.3574,16.7506],[94.3611,16.7458]]],[[[96.9028,16.7708],[96.8843,16.7758],[96.8869,16.8063],[96.8702,16.8177],[96.8918,16.8613],[96.8785,16.8745],[96.8909,16.909],[96.9075,16.9076],[96.9161,16.8771],[96.9028,16.7708]]],[[[94.2755,16.8571],[94.266,16.8468],[94.2676,16.859],[94.2755,16.8571]]],[[[94.2736,16.8833],[94.266,16.8899],[94.2717,16.8923],[94.2736,16.8833]]],[[[94.213,16.9258],[94.2077,16.9234],[94.2098,16.9298],[94.213,16.9258]]],[[[96.9028,16.9125],[96.8673,16.9134],[96.8927,16.9547],[96.8994,16.9489],[96.9028,16.9125]]],[[[94.5199,17.5794],[94.5133,17.5714],[94.5123,17.5782],[94.5199,17.5794]]],[[[94.4873,17.7609],[94.4759,17.7616],[94.4866,17.767],[94.4873,17.7609]]],[[[94.4946,17.7619],[94.4913,17.7655],[94.4958,17.7667],[94.4946,17.7619]]],[[[94.0903,18.05],[94.0785,18.0557],[94.08,18.0757],[94.1007,18.0741],[94.0903,18.05]]],[[[94.3292,18.3708],[94.3127,18.3784],[94.3283,18.3796],[94.3292,18.3708]]],[[[93.9131,18.434],[93.8994,18.4368],[93.9016,18.4423],[93.9131,18.434]]],[[[93.7823,18.588],[93.7758,18.5799],[93.7745,18.5864],[93.7823,18.588]]],[[[93.9755,18.7728],[93.9922,18.7677],[93.9904,18.762],[93.9755,18.7728]]],[[[93.9706,18.7447],[93.9619,18.7426],[93.9699,18.7506],[93.9706,18.7447]]],[[[93.5538,18.7562],[93.5495,18.7558],[93.5527,18.7586],[93.5538,18.7562]]],[[[93.7944,18.6],[93.7702,18.6159],[93.7912,18.6715],[93.8048,18.6338],[93.7944,18.6]]],[[[93.9864,18.7213],[93.98,18.7132],[93.9787,18.7198],[93.9864,18.7213]]],[[[93.8214,18.7257],[93.805,18.7132],[93.8152,18.7334],[93.8214,18.7257]]],[[[94.0205,18.7229],[94.0162,18.7225],[94.0193,18.7253],[94.0205,18.7229]]],[[[94.0111,18.725],[93.9885,18.7256],[93.976,18.7455],[93.995,18.7531],[94.0111,18.725]]],[[[93.4736,18.8875],[93.466,18.8884],[93.4699,18.8923],[93.4736,18.8875]]],[[[93.4531,18.938],[93.4467,18.9299],[93.4454,18.9364],[93.4531,18.938]]],[[[94.0111,19.0917],[93.991,19.1037],[94.0079,19.1173],[94.0215,19.1111],[94.0111,19.0917]]],[[[94.0244,19.0092],[94.0324,19.0172],[94.0333,19.0083],[94.0244,19.0092]]],[[[93.7156,19.3255],[93.7092,19.3174],[93.7079,19.3239],[93.7156,19.3255]]],[[[93.7986,19.2542],[93.791,19.2551],[93.7949,19.259],[93.7986,19.2542]]],[[[93.7381,19.2688],[93.7424,19.2867],[93.7631,19.2798],[93.7533,19.2632],[93.7381,19.2688]]],[[[93.7031,19.3713],[93.6967,19.3632],[93.6954,19.3698],[93.7031,19.3713]]],[[[93.4489,19.4338],[93.4425,19.4257],[93.4412,19.4323],[93.4489,19.4338]]],[[[93.6231,19.4339],[93.6411,19.4272],[93.6461,19.3971],[93.6339,19.4017],[93.6231,19.4339]]],[[[93.955,18.7798],[93.9327,18.8204],[93.9742,18.8408],[93.9909,18.7799],[93.955,18.7798]]],[[[93.6151,18.925],[93.6826,18.8744],[93.7464,18.8902],[93.7422,18.777],[93.7547,18.7341],[93.7285,18.6801],[93.7022,18.6673],[93.6396,18.6797],[93.5954,18.7323],[93.5563,18.7619],[93.5425,18.7632],[93.4756,18.8729],[93.5522,18.884],[93.6151,18.925]]],[[[93.6194,19.5083],[93.6119,19.5149],[93.6175,19.5173],[93.6194,19.5083]]],[[[93.5319,19.525],[93.516,19.5398],[93.5182,19.5465],[93.533,19.5351],[93.5319,19.525]]],[[[93.4906,19.5421],[93.4842,19.534],[93.4829,19.5406],[93.4906,19.5421]]],[[[93.5111,19.5292],[93.5006,19.5353],[93.4885,19.5714],[93.4994,19.5605],[93.5111,19.5292]]],[[[93.7573,19.5588],[93.7508,19.5507],[93.7495,19.5573],[93.7573,19.5588]]],[[[93.7494,19.5854],[93.7425,19.5841],[93.7447,19.5959],[93.7494,19.5854]]],[[[93.6589,19.6067],[93.6425,19.5965],[93.6412,19.603],[93.6589,19.6067]]],[[[93.6714,19.5883],[93.6661,19.5859],[93.6681,19.5923],[93.6714,19.5883]]],[[[93.6927,19.6005],[93.6927,19.587],[93.687,19.5888],[93.6927,19.6005]]],[[[93.6994,19.6022],[93.7214,19.5987],[93.7201,19.5883],[93.7116,19.587],[93.6994,19.6022]]],[[[93.6756,19.6006],[93.6703,19.5982],[93.6741,19.608],[93.6756,19.6006]]],[[[93.6,19.5583],[93.5946,19.5498],[93.5828,19.5554],[93.6,19.5583]]],[[[93.6007,19.5658],[93.6046,19.5595],[93.6,19.5583],[93.6007,19.5658]]],[[[93.7461,19.5699],[93.7343,19.5591],[93.7307,19.5749],[93.7461,19.5699]]],[[[93.6994,19.6604],[93.6869,19.6551],[93.6945,19.6666],[93.6994,19.6604]]],[[[93.6371,19.6812],[93.6329,19.6808],[93.636,19.6836],[93.6371,19.6812]]],[[[93.6339,19.7006],[93.6286,19.6982],[93.6324,19.708],[93.6339,19.7006]]],[[[93.5778,19.6458],[93.5577,19.6536],[93.5787,19.6756],[93.5923,19.6671],[93.5778,19.6458]]],[[[93.6114,19.6671],[93.605,19.659],[93.6037,19.6656],[93.6114,19.6671]]],[[[93.2131,19.7176],[93.2035,19.7186],[93.2055,19.7256],[93.2131,19.7176]]],[[[93.2006,19.7436],[93.183,19.7427],[93.1882,19.7575],[93.1946,19.7589],[93.2006,19.7436]]],[[[93.4658,19.7533],[93.4578,19.7554],[93.47,19.7576],[93.4658,19.7533]]],[[[93.5364,19.7713],[93.53,19.7632],[93.5287,19.7698],[93.5364,19.7713]]],[[[93.4047,19.8049],[93.3994,19.8026],[93.4014,19.8089],[93.4047,19.8049]]],[[[93.4678,19.7459],[93.5048,19.7216],[93.5023,19.6619],[93.4077,19.7329],[93.4146,19.7494],[93.4381,19.7492],[93.4352,19.7631],[93.4579,19.7369],[93.4678,19.7459]],[[93.4787,19.7225],[93.483,19.7229],[93.4818,19.7253],[93.4787,19.7225]]],[[[93.5449,19.6574],[93.5384,19.6465],[93.5343,19.6628],[93.5449,19.6574]]],[[[93.0278,19.8125],[93.0131,19.8954],[92.9119,20.0617],[92.9222,20.0965],[92.9575,20.0785],[92.9799,19.9966],[93.0202,19.9313],[93.0381,19.8796],[93.0278,19.8125]]],[[[92.5413,20.1979],[92.537,20.1975],[92.5402,20.2003],[92.5413,20.1979]]],[[[92.7494,20.2187],[92.7472,20.234],[92.7548,20.2321],[92.7494,20.2187]]],[[[92.3403,20.575],[92.3202,20.5954],[92.3204,20.6381],[92.3285,20.6366],[92.3403,20.575]]],[[[92.0,21.5958],[91.9927,21.609],[91.9993,21.6074],[92.0,21.5958]]],[[[91.8486,21.7375],[91.8328,21.745],[91.8506,21.8243],[91.8369,21.8743],[91.8423,21.9032],[91.8824,21.9243],[91.8994,21.8686],[91.8486,21.7375]]],[[[97.4,25.675],[97.4,25.6208],[97.4311,25.5922],[97.4858,25.5996],[97.5326,25.5703],[97.6083,25.5833],[97.5896,25.5542],[97.5142,25.5538],[97.5,25.5417],[97.5575,25.5158],[97.5678,25.4872],[97.6458,25.4833],[97.6446,25.4252],[97.6042,25.3875],[97.6333,25.3792],[97.6048,25.3699],[97.6161,25.2603],[97.5762,25.2589],[97.5254,25.2066],[97.5384,25.1497],[97.55,25.15],[97.5382,25.1408],[97.5411,25.0978],[97.5164,25.0822],[97.5506,25.0466],[97.5369,24.9571],[97.575,24.9125],[97.5427,24.9173],[97.5159,24.88],[97.4625,24.8833],[97.4913,24.8649],[97.5125,24.7979],[97.459,24.7366],[97.4591,24.6841],[97.4812,24.6953],[97.524,24.6743],[97.5458,24.6125],[97.5201,24.6297],[97.4926,24.616],[97.4767,24.5788],[97.4395,24.5869],[97.3997,24.5384],[97.4215,24.5076],[97.3879,24.4608],[97.3879,24.4309],[97.4282,24.4212],[97.3592,24.4077],[97.3417,24.3708],[97.3875,24.3458],[97.3883,24.3289],[97.4031,24.3325],[97.4208,24.2875],[97.3866,24.2673],[97.3512,24.2714],[97.3326,24.2453],[97.2887,24.2506],[97.2647,24.2256],[97.2217,24.2244],[97.217,24.1934],[97.2625,24.1292],[97.2407,24.109],[97.2116,24.1131],[97.2047,24.0936],[97.227,24.0672],[97.2865,24.0452],[97.3458,23.925],[97.3146,23.9006],[97.23,23.9075],[97.2147,23.8339],[97.1551,23.8465],[97.1314,23.8744],[97.0625,23.8708],[97.0895,23.8423],[97.1701,23.8242],[97.1966,23.7591],[97.2188,23.7661],[97.2625,23.7375],[97.2375,23.7],[97.1708,23.7083],[97.1419,23.6949],[97.1625,23.6417],[97.1131,23.5991],[97.0991,23.5509],[97.0792,23.5417],[97.041,23.4759],[97.0009,23.4494],[96.9392,23.4621],[96.7439,23.3214],[96.675,23.3],[96.6677,23.2369],[96.7188,23.241],[96.7417,23.225],[96.7066,23.2004],[96.6563,23.1921],[96.6201,23.2172],[96.597,23.2078],[96.5833,23.225],[96.5341,23.1953],[96.4875,23.2125],[96.4964,23.152],[96.5214,23.1174],[96.4939,23.0506],[96.4922,23.0966],[96.473,23.1161],[96.3552,23.1171],[96.2726,23.0913],[96.2417,23.0125],[96.225,23.0167],[96.1917,22.95],[96.1333,22.9292],[96.0909,22.8675],[96.0542,22.8542],[96.0191,22.9038],[95.9667,22.9042],[95.9297,22.848],[95.9538,22.7858],[95.95,22.7417],[95.8125,22.8042],[95.8042,22.7917],[95.7458,22.7875],[95.6991,22.7297],[95.6417,22.7292],[95.6005,22.6896],[95.6036,22.6686],[95.5872,22.653],[95.5951,22.6049],[95.5488,22.6129],[95.5064,22.5881],[95.4833,22.5917],[95.5,22.6062],[95.4958,22.6542],[95.4215,22.6383],[95.4167,22.675],[95.3882,22.6884],[95.3708,22.7292],[95.3538,22.71],[95.3538,22.6642],[95.3333,22.6667],[95.3125,22.6083],[95.2201,22.6631],[95.1451,22.6494],[95.1,22.7042],[95.0417,22.6958],[95.0076,22.6217],[94.951,22.5828],[94.9229,22.587],[94.8855,22.5631],[94.8011,22.5453],[94.7636,22.5544],[94.6792,22.525],[94.6191,22.5455],[94.5767,22.5379],[94.5621,22.5733],[94.5074,22.6244],[94.4679,22.6078],[94.3458,22.9292],[94.3134,22.9384],[94.3297,22.9591],[94.3125,23.0417],[94.3254,23.185],[94.2744,23.22],[94.2826,23.2951],[94.2458,23.3083],[94.2542,23.3792],[94.2958,23.3708],[94.3175,23.445],[94.3417,23.45],[94.3246,23.5188],[94.2926,23.5341],[94.3,23.5667],[94.3866,23.5757],[94.4125,23.6333],[94.4257,23.6133],[94.4524,23.6087],[94.4792,23.6458],[94.4875,23.5792],[94.507,23.61],[94.5486,23.5833],[94.5694,23.6051],[94.5916,23.5906],[94.5833,23.5667],[94.5951,23.5578],[94.6814,23.5578],[94.7395,23.5214],[94.8333,23.5125],[94.8809,23.4712],[94.916,23.4842],[94.9458,23.5208],[94.9689,23.5203],[95.0197,23.4789],[95.1483,23.4712],[95.1619,23.5033],[95.1417,23.5333],[95.1816,23.542],[95.2458,23.5333],[95.2548,23.501],[95.2853,23.4839],[95.356,23.4836],[95.3337,23.4948],[95.3324,23.5343],[95.3631,23.5468],[95.3498,23.5656],[95.3692,23.5574],[95.3843,23.5729],[95.4204,23.5543],[95.4045,23.5289],[95.4741,23.559],[95.4625,23.6125],[95.4825,23.6164],[95.4958,23.6417],[95.5667,23.6333],[95.575,23.675],[95.624,23.6661],[95.6429,23.6286],[95.6701,23.6339],[95.7076,23.6121],[95.7208,23.6417],[95.7826,23.6119],[95.8228,23.6286],[95.849,23.6218],[95.8591,23.6534],[95.8717,23.6369],[95.9542,23.6542],[95.9578,23.7034],[95.9875,23.7417],[95.9966,23.8285],[96.0563,23.8298],[96.1017,23.8788],[96.1583,23.8792],[96.1663,23.8934],[96.1546,23.9146],[96.1952,23.9802],[96.1875,24.0583],[96.2292,24.1438],[96.2167,24.1708],[96.2538,24.2017],[96.2496,24.2809],[96.2708,24.3958],[96.3202,24.4396],[96.3256,24.5449],[96.3509,24.5866],[96.3784,24.5882],[96.4136,24.7294],[96.445,24.73],[96.5009,24.8324],[96.5533,24.867],[96.6083,24.9375],[96.6533,24.9384],[96.691,24.9802],[96.7125,25.0062],[96.7045,25.0233],[96.834,25.193],[96.85,25.25],[96.8775,25.2545],[96.892,25.2858],[96.9292,25.3083],[96.9208,25.3333],[96.9866,25.3342],[96.9789,25.3614],[96.9936,25.3703],[97.0193,25.3459],[97.0637,25.4047],[97.0833,25.4],[97.1134,25.4493],[97.1574,25.4673],[97.1875,25.525],[97.2321,25.5585],[97.2458,25.6417],[97.34,25.6879],[97.4,25.675]],[[95.3903,23.5172],[95.3786,23.5181],[95.3727,23.5125],[95.3813,23.509],[95.3903,23.5172]]],[[[92.7042,25.5354],[92.7212,25.5068],[92.6778,25.4897],[92.7042,25.5354]]],[[[92.7178,20.2465],[92.7321,20.2376],[92.7361,20.2167],[92.7218,20.2259],[92.7178,20.2465]]],[[[92.7506,20.2487],[92.7372,20.2384],[92.743,20.2506],[92.7506,20.2487]]],[[[93.2599,19.8131],[93.255,19.8048],[93.2536,19.8112],[93.2599,19.8131]]],[[[93.5404,19.8631],[93.5344,19.8539],[93.5328,19.8613],[93.5404,19.8631]]],[[[93.612,19.634],[93.6446,19.6077],[93.5952,19.6117],[93.612,19.634]]],[[[93.6629,19.6303],[93.6453,19.6368],[93.6474,19.6422],[93.6629,19.6303]]],[[[93.6367,19.6257],[93.6244,19.637],[93.6268,19.6423],[93.6367,19.6257]]],[[[93.341,7.9324],[93.3284,7.9202],[93.309,7.952],[93.3256,8.0063],[93.388,8.0256],[93.4131,8.0079],[93.4135,7.9633],[93.4312,7.9703],[93.466,7.9367],[93.4756,7.887],[93.4579,7.8702],[93.4162,7.9048],[93.3745,7.8785],[93.3381,7.9062],[93.341,7.9324]],[[93.3428,7.9079],[93.3464,7.9113],[93.3417,7.9125],[93.3428,7.9079]]],[[[93.5366,8.0285],[93.5656,8.0284],[93.584,7.9964],[93.5779,7.9251],[93.4882,8.0021],[93.4827,8.0729],[93.4493,8.1665],[93.4924,8.2239],[93.5229,8.2369],[93.5507,8.2127],[93.5077,8.1505],[93.5548,8.0793],[93.5548,8.0377],[93.53,8.0464],[93.5366,8.0285]],[[93.5428,8.0163],[93.5464,8.0196],[93.5417,8.0208],[93.5428,8.0163]],[[93.5297,8.0134],[93.5078,8.0282],[93.5188,7.9962],[93.5297,8.0134]],[[93.5034,8.0524],[93.503,8.0513],[93.5036,8.0521],[93.5034,8.0524]],[[93.5084,8.0595],[93.5057,8.0597],[93.5054,8.0587],[93.5084,8.0595]],[[93.5505,8.0091],[93.5452,8.0068],[93.5486,8.0042],[93.5505,8.0091]]],[[[97.9869,10.1437],[97.9598,10.1285],[97.9591,10.1573],[97.9866,10.184],[97.9869,10.1437]],[[97.9708,10.1417],[97.975,10.1458],[97.9717,10.145],[97.9708,10.1417]],[[97.9796,10.147],[97.9762,10.1506],[97.975,10.1458],[97.9796,10.147]]],[[[97.9399,10.4621],[97.9657,10.4126],[97.9378,10.4234],[97.949,10.391],[97.9334,10.409],[97.891,10.3982],[97.8887,10.5118],[97.9214,10.5239],[97.9036,10.48],[97.9363,10.4878],[97.9399,10.4621]],[[97.9004,10.497],[97.897,10.5006],[97.8958,10.4958],[97.9004,10.497]],[[97.9288,10.4613],[97.9321,10.4578],[97.9333,10.4625],[97.9288,10.4613]],[[97.9245,10.4266],[97.9288,10.4271],[97.9277,10.4294],[97.9245,10.4266]]],[[[93.6532,7.4797],[93.6424,7.4674],[93.6411,7.4782],[93.6532,7.4797]]],[[[93.6364,7.4838],[93.63,7.4757],[93.6287,7.4823],[93.6364,7.4838]]],[[[93.5548,7.5174],[93.5369,7.5162],[93.5444,7.5291],[93.5548,7.5174]]],[[[93.7741,7.4047],[93.7633,7.3924],[93.7619,7.4032],[93.7741,7.4047]]],[[[93.6827,7.3967],[93.6842,7.4132],[93.6951,7.4117],[93.6958,7.3958],[93.6827,7.3967]]],[[[93.5986,8.0375],[93.5702,8.0618],[93.5794,8.0763],[93.5577,8.1159],[93.5787,8.1298],[93.5986,8.0375]]],[[[93.145,8.3492],[93.1298,8.277],[93.2089,8.2134],[93.2028,8.1917],[93.117,8.2219],[93.0827,8.27],[93.0924,8.3408],[93.1245,8.3589],[93.145,8.3492]]],[[[93.2486,8.2208],[93.216,8.2454],[93.2329,8.2673],[93.2548,8.2338],[93.2486,8.2208]]],[[[93.0611,8.4375],[93.0328,8.449],[93.0387,8.4756],[93.0578,8.4647],[93.0611,8.4375]]],[[[92.8611,8.8167],[92.8494,8.8311],[92.8611,8.8417],[92.8673,8.8339],[92.8611,8.8167]]],[[[92.8215,9.2145],[92.834,9.139],[92.8069,9.1167],[92.7259,9.1252],[92.7219,9.2201],[92.7627,9.216],[92.7818,9.259],[92.8215,9.2145]]],[[[93.638,8.3966],[93.6327,8.3943],[93.6348,8.4006],[93.638,8.3966]]],[[[93.6561,8.3965],[93.6466,8.3882],[93.6413,8.395],[93.6561,8.3965]]],[[[93.6092,8.484],[93.6155,8.4879],[93.6167,8.4833],[93.6092,8.484]]],[[[93.6242,8.4841],[93.6077,8.5453],[93.6058,8.5839],[93.6423,8.513],[93.6464,8.4672],[93.6299,8.4655],[93.622,8.4207],[93.613,8.4563],[93.6242,8.4841]]],[[[97.9694,9.5958],[97.9657,9.6242],[97.9494,9.6329],[97.9579,9.6465],[97.974,9.6451],[97.9923,9.6111],[97.9694,9.5958]]],[[[97.9089,9.6841],[97.9036,9.6818],[97.9056,9.6881],[97.9089,9.6841]]],[[[97.9866,9.746],[97.98,9.7381],[97.979,9.7449],[97.9866,9.746]]],[[[97.9944,9.7542],[97.9827,9.755],[97.9903,9.7626],[97.9944,9.7542]]],[[[97.9942,9.7294],[97.9926,9.7174],[97.9872,9.7282],[97.9942,9.7294]]],[[[97.9994,9.8201],[98.0,9.8216],[98.0,9.8194],[97.9994,9.8201]]],[[[97.8819,10.1875],[97.8625,10.2026],[97.8729,10.212],[97.8839,10.2071],[97.8819,10.1875]]],[[[97.9944,10.0333],[97.9839,10.0479],[97.9889,10.059],[97.9965,10.0571],[97.9944,10.0333]]],[[[97.9759,10.0923],[97.9965,10.0813],[97.9903,10.0625],[97.9759,10.0923]]],[[[97.9297,10.1593],[97.9035,10.1597],[97.9283,10.1711],[97.9297,10.1593]]],[[[97.9746,10.1187],[97.9704,10.1183],[97.9735,10.1211],[97.9746,10.1187]]],[[[97.9736,10.1875],[97.9619,10.2014],[97.9722,10.2298],[97.9798,10.2279],[97.9736,10.1875]]],[[[98.0,10.1681],[97.9952,10.1651],[97.9973,10.1714],[98.0,10.1681]]],[[[97.9403,10.35],[97.934,10.3605],[97.9491,10.3795],[97.9505,10.368],[97.9403,10.35]]],[[[97.9715,10.3694],[97.9701,10.3508],[97.9633,10.3455],[97.9619,10.3629],[97.9715,10.3694]]],[[[97.9667,10.3708],[97.9637,10.3797],[97.9711,10.3781],[97.9667,10.3708]]],[[[97.9944,10.3167],[97.9785,10.3286],[97.9925,10.3715],[98.0,10.364],[97.9944,10.3167]]],[[[97.6918,10.4698],[97.6743,10.4592],[97.6759,10.4752],[97.6918,10.4698]]],[[[97.7047,10.6381],[97.6955,10.6399],[97.7031,10.6462],[97.7047,10.6381]]],[[[97.8819,10.8292],[97.8744,10.8301],[97.8783,10.834],[97.8819,10.8292]]],[[[97.9739,10.6296],[97.9675,10.6215],[97.9662,10.6281],[97.9739,10.6296]]],[[[97.9964,10.4549],[97.9911,10.4526],[97.9931,10.4589],[97.9964,10.4549]]],[[[97.947,10.4631],[97.9504,10.4595],[97.9458,10.4583],[97.947,10.4631]]],[[[98.0,10.5708],[97.9847,10.5257],[97.9821,10.5416],[97.9327,10.5547],[97.9735,10.584],[98.0,10.5708]]],[[[97.9993,10.5906],[98.0,10.5907],[98.0,10.588],[97.9993,10.5906]]],[[[97.9366,10.866],[97.8746,10.8425],[97.8952,10.8729],[97.8798,10.8938],[97.9164,10.9382],[97.9493,10.9326],[97.9366,10.866]]],[[[97.992,10.8552],[97.983,10.8467],[97.9889,10.859],[97.992,10.8552]]],[[[98.0,10.8588],[97.9953,10.8654],[98.0,10.8668],[98.0,10.8588]]],[[[98.0,10.8792],[97.9968,10.8965],[98.0,10.8963],[98.0,10.8792]]],[[[97.9714,10.9466],[97.9661,10.9443],[97.9681,10.9506],[97.9714,10.9466]]],[[[97.9285,11.277],[97.916,11.2769],[97.926,11.3006],[97.9285,11.277]]],[[[98.0,11.3167],[97.9952,11.3505],[98.0,11.3604],[98.0,11.3167]]],[[[97.9464,11.3508],[97.9411,11.3484],[97.9431,11.3548],[97.9464,11.3508]]],[[[98.0,11.383],[97.9869,11.3995],[97.993,11.4173],[98.0,11.383]]],[[[98.0,11.4378],[97.9661,11.4528],[97.9899,11.4714],[98.0,11.4378]]],[[[97.9111,11.5125],[97.8993,11.5134],[97.9034,11.5173],[97.9111,11.5125]]],[[[97.934,11.5215],[97.9244,11.5111],[97.9305,11.5256],[97.934,11.5215]]],[[[93.8923,7.0842],[93.9493,6.9924],[93.9277,7.009],[93.916,7.0003],[93.9465,6.9611],[93.9119,6.9277],[93.9159,6.9049],[93.8997,6.9033],[93.8966,6.8461],[93.9119,6.827],[93.8841,6.791],[93.8561,6.8119],[93.8366,6.7548],[93.8157,6.7536],[93.8083,6.8083],[93.784,6.8312],[93.7756,6.8903],[93.7423,6.9187],[93.7506,6.938],[93.7292,6.9833],[93.7066,6.9871],[93.6855,7.0161],[93.6636,6.9994],[93.6668,7.0821],[93.6537,7.0951],[93.6667,7.1083],[93.6535,7.1164],[93.6757,7.1432],[93.6709,7.1779],[93.6938,7.1952],[93.7271,7.1881],[93.7581,7.2173],[93.7998,7.2118],[93.8052,7.2376],[93.8492,7.2461],[93.8485,7.2192],[93.8705,7.2198],[93.8882,7.1877],[93.8923,7.0842]],[[93.8129,6.8095],[93.8095,6.8131],[93.8083,6.8083],[93.8129,6.8095]],[[93.6712,7.1095],[93.6679,7.1131],[93.6667,7.1083],[93.6712,7.1095]],[[93.9163,7.028],[93.9196,7.0244],[93.9208,7.0292],[93.9163,7.028]]],[[[95.8968,5.4216],[95.9378,5.3925],[95.9185,5.4287],[96.0167,5.3333],[96.0541,5.328],[96.0802,5.2923],[96.1173,5.2865],[96.0914,5.2676],[96.1222,5.284],[96.1851,5.2629],[96.2563,5.2662],[96.3837,5.2107],[96.4171,5.2111],[96.4659,5.2422],[96.5142,5.2004],[96.6272,5.2131],[96.8409,5.2797],[96.8825,5.2535],[96.8633,5.2493],[96.8728,5.2422],[96.9743,5.2672],[97.0864,5.2378],[97.1454,5.2032],[97.152,5.1547],[97.2125,5.1458],[97.4951,5.2547],[97.5272,5.2369],[97.5589,5.2155],[97.5494,5.2071],[97.5926,5.1506],[97.6579,5.1146],[97.6494,5.078],[97.7009,5.03],[97.8425,4.9092],[97.908,4.8858],[97.958,4.7608],[97.9797,4.6757],[97.9674,4.6675],[98.0,4.639],[98.0,4.5896],[97.9744,4.5611],[98.0,4.5336],[98.0,4.0],[96.281,4.0],[96.15,4.1417],[96.126,4.1202],[96.0579,4.2031],[96.0215,4.1925],[95.9033,4.3408],[95.7233,4.5205],[95.6063,4.6202],[95.5633,4.6259],[95.5383,4.6498],[95.4953,4.7438],[95.4662,4.7739],[95.4427,4.771],[95.4494,4.798],[95.4083,4.8222],[95.425,4.8333],[95.4032,4.8657],[95.3927,4.8756],[95.382,4.8542],[95.3679,4.8625],[95.3632,4.8785],[95.3951,4.8799],[95.3965,4.8965],[95.366,4.9465],[95.3798,4.9694],[95.3549,4.9969],[95.3621,5.0316],[95.3035,5.0819],[95.3167,5.0889],[95.3033,5.1113],[95.2801,5.1086],[95.2883,5.1324],[95.2968,5.1207],[95.3048,5.1295],[95.3048,5.1673],[95.2385,5.2216],[95.2506,5.2378],[95.2285,5.2587],[95.2462,5.2677],[95.232,5.2833],[95.2294,5.2717],[95.2011,5.2751],[95.2159,5.2841],[95.216,5.323],[95.234,5.3253],[95.2214,5.3437],[95.2319,5.3673],[95.2408,5.3535],[95.2493,5.3979],[95.2285,5.4261],[95.2423,5.4582],[95.191,5.5243],[95.2213,5.5742],[95.1785,5.5731],[95.2021,5.5869],[95.2688,5.5548],[95.4284,5.6589],[95.4663,5.649],[95.5188,5.5963],[95.5428,5.6211],[95.6147,5.6286],[95.8909,5.5074],[95.9131,5.4338],[95.901,5.4379],[95.8968,5.4216]],[[95.8947,5.4296],[95.8911,5.4262],[95.8958,5.425],[95.8947,5.4296]],[[95.3611,5.5958],[95.3598,5.6048],[95.3577,5.5986],[95.3611,5.5958]],[[95.3788,5.6104],[95.3745,5.61],[95.3778,5.6083],[95.3788,5.6104]],[[96.3762,5.2078],[96.3786,5.2083],[96.3758,5.2094],[96.3762,5.2078]],[[96.4118,5.2078],[96.4122,5.2079],[96.4116,5.2079],[96.4118,5.2078]],[[95.5637,4.6627],[95.5694,4.6375],[95.5839,4.6509],[95.5637,4.6627]],[[96.7171,5.2408],[96.761,5.2335],[96.7631,5.238],[96.7171,5.2408]],[[96.8378,5.2699],[96.816,5.2639],[96.8361,5.2583],[96.8378,5.2699]]],[[[95.17,5.6448],[95.1945,5.6035],[95.1259,5.5929],[95.1174,5.6201],[95.1423,5.6348],[95.1375,5.6612],[95.08,5.666],[95.0536,5.6478],[95.0667,5.6653],[95.0327,5.6687],[95.0583,5.6862],[95.0369,5.6937],[95.0533,5.7198],[95.0448,5.7337],[95.0135,5.7134],[95.0135,5.7365],[95.0261,5.7548],[95.0709,5.7487],[95.0764,5.7244],[95.1084,5.7154],[95.17,5.6448]],[[95.1621,5.6447],[95.1655,5.6411],[95.1667,5.6458],[95.1621,5.6447]]],[[[97.9994,14.2897],[97.9672,14.3603],[97.9494,14.498],[97.8994,14.5784],[97.9036,14.6064],[97.8703,14.6701],[97.8951,14.7051],[97.9011,14.7399],[97.8618,14.7036],[97.834,14.7176],[97.7882,14.8675],[97.7869,14.9174],[97.8083,14.9667],[97.7663,15.0176],[97.7949,15.0294],[97.7785,15.0698],[97.7949,15.0753],[97.7872,15.0991],[97.8041,15.1055],[97.8006,15.1551],[97.7828,15.18],[97.7965,15.1879],[97.7949,15.1922],[97.7682,15.1917],[97.734,15.2426],[97.7381,15.2949],[97.7161,15.3262],[97.7423,15.395],[97.775,15.4],[97.7705,15.4358],[97.7297,15.4936],[97.7542,15.5375],[97.6964,15.752],[97.7119,15.7759],[97.7083,15.8542],[97.6888,15.8495],[97.6996,15.8687],[97.6698,15.9117],[97.605,15.9456],[97.599,15.9784],[97.5631,16.0229],[97.5715,16.0377],[97.5535,16.0818],[97.5865,16.0925],[97.5748,16.1014],[97.6078,16.1395],[97.633,16.2101],[97.6327,16.3158],[97.6133,16.3133],[97.6007,16.3716],[97.6125,16.4458],[97.5797,16.4022],[97.5786,16.3804],[97.5911,16.3688],[97.5577,16.2921],[97.5617,16.2089],[97.5217,16.1965],[97.4756,16.252],[97.4751,16.2905],[97.4535,16.312],[97.466,16.3647],[97.433,16.4767],[97.4705,16.5017],[97.45,16.5111],[97.4704,16.5215],[97.5093,16.4994],[97.5366,16.5075],[97.5,16.5333],[97.4409,16.5381],[97.3701,16.4994],[97.3509,16.5131],[97.3453,16.5605],[97.3214,16.5895],[97.3208,16.6542],[97.3063,16.6421],[97.2759,16.6507],[97.2297,16.727],[97.2078,16.8674],[97.2292,16.8833],[97.1991,16.8828],[97.1911,16.9189],[97.1673,16.9344],[97.1797,17.0321],[97.1458,17.1083],[97.1256,17.0771],[97.1202,17.0122],[97.1367,16.9787],[97.1083,16.9875],[97.0821,16.9286],[97.0119,17.0282],[97.0078,17.0826],[97.0208,17.1],[97.001,17.1004],[96.9572,17.1669],[96.9302,17.1716],[96.9427,17.2035],[97.0022,17.2172],[97.0203,17.2436],[97.0256,17.2757],[96.9917,17.3083],[96.9491,17.3172],[96.9206,17.2924],[96.9854,17.2993],[97.009,17.2796],[96.9986,17.2583],[96.8958,17.2333],[96.8868,17.2008],[96.8706,17.1991],[96.8579,17.1468],[96.8955,17.1281],[96.9034,17.1049],[96.8759,17.1211],[96.8881,17.0921],[96.8785,17.0466],[96.8625,17.0542],[96.8464,17.0313],[96.8744,17.0146],[96.8822,16.9535],[96.8594,16.9549],[96.8467,16.9837],[96.816,16.8759],[96.7921,16.8535],[96.7792,16.8708],[96.7826,16.8551],[96.7671,16.8521],[96.7797,16.7799],[96.7339,16.723],[96.7036,16.6186],[96.6574,16.5546],[96.4882,16.4786],[96.4051,16.4757],[96.2671,16.5771],[96.2619,16.648],[96.2256,16.6936],[96.2119,16.7532],[96.2176,16.7788],[96.2708,16.8],[96.2792,16.8167],[96.2309,16.7955],[96.1992,16.7632],[96.1708,16.7625],[96.1952,16.748],[96.2136,16.6753],[96.2465,16.6573],[96.2381,16.5853],[96.2673,16.5145],[96.334,16.455],[96.3156,16.3879],[96.248,16.3548],[96.1978,16.3494],[96.1403,16.3077],[96.0208,16.3833],[96.0839,16.3299],[96.0283,16.2548],[95.973,16.2214],[95.9175,16.2131],[95.9392,16.2455],[95.8858,16.192],[95.8483,16.1962],[95.773,16.1297],[95.7375,16.1333],[95.7288,16.0767],[95.7036,16.0549],[95.7078,16.027],[95.6491,15.9257],[95.5128,15.7803],[95.4397,15.7256],[95.3757,15.7078],[95.3061,15.7089],[95.2744,15.7282],[95.2839,15.7534],[95.2672,15.8314],[95.2759,15.8533],[95.2958,15.8583],[95.3047,15.9022],[95.3409,15.9343],[95.3542,15.9792],[95.3449,15.9537],[95.3287,15.9617],[95.3323,15.93],[95.3052,15.9243],[95.2702,15.8645],[95.2451,15.8494],[95.2299,15.8631],[95.2458,15.9125],[95.2342,15.9298],[95.2165,15.7887],[95.1705,15.7702],[95.1087,15.8059],[95.1167,15.9417],[95.0963,15.9521],[95.0869,16.0509],[95.1134,16.0908],[95.1615,16.1171],[95.1299,16.1215],[95.1417,16.1708],[95.1163,16.1142],[95.0545,16.0483],[95.0712,15.94],[95.0629,15.8733],[95.0233,15.7879],[94.9875,15.775],[94.9587,15.741],[94.9216,15.7424],[94.9199,15.759],[94.8628,15.7535],[94.8383,15.7717],[94.834,15.8073],[94.8792,15.825],[94.8426,15.8298],[94.8333,15.85],[94.8122,15.7884],[94.7388,15.8],[94.7285,15.8366],[94.7744,15.8729],[94.7923,15.9271],[94.8208,15.9375],[94.8677,16.0035],[94.8866,16.0048],[94.8545,16.1101],[94.867,16.1774],[94.8892,16.1955],[94.9524,16.2045],[94.9917,16.2458],[94.9313,16.2048],[94.9037,16.209],[94.8636,16.183],[94.841,16.1037],[94.859,16.0287],[94.845,15.9966],[94.7719,15.9371],[94.7205,15.8509],[94.6743,15.841],[94.652,15.8547],[94.5994,15.926],[94.6824,15.9756],[94.7203,16.0186],[94.7297,16.073],[94.7542,16.0958],[94.7217,16.0783],[94.7214,16.0326],[94.6828,15.9884],[94.5814,15.9339],[94.5506,15.9468],[94.5494,15.9696],[94.5868,15.9926],[94.6536,16.0895],[94.6578,16.1363],[94.6702,16.13],[94.6792,16.2167],[94.6535,16.2451],[94.6535,16.2745],[94.6928,16.3624],[94.7125,16.3667],[94.688,16.4854],[94.7208,16.5042],[94.6804,16.4953],[94.6703,16.5301],[94.6875,16.5458],[94.667,16.5316],[94.6621,16.515],[94.683,16.4483],[94.6828,16.3728],[94.6158,16.2507],[94.5717,16.2298],[94.5673,16.2574],[94.6,16.2792],[94.5608,16.2621],[94.5417,16.2792],[94.5631,16.2507],[94.5532,16.2087],[94.5172,16.2022],[94.4366,16.0798],[94.3676,16.0535],[94.3285,15.9758],[94.276,15.9827],[94.2381,15.9561],[94.1911,16.0509],[94.1994,16.153],[94.2204,16.1771],[94.2077,16.2046],[94.2244,16.2312],[94.2202,16.2589],[94.2367,16.2675],[94.2244,16.338],[94.2618,16.4437],[94.2673,16.5086],[94.2515,16.534],[94.2448,16.5176],[94.2368,16.5252],[94.2425,16.5502],[94.2513,16.5376],[94.2902,16.5465],[94.3044,16.5285],[94.3452,16.577],[94.3223,16.6007],[94.3175,16.591],[94.316,16.6104],[94.35,16.6292],[94.3548,16.7313],[94.4006,16.8087],[94.3702,16.8878],[94.3846,16.9208],[94.4063,16.9006],[94.4215,16.9128],[94.416,16.9278],[94.4325,16.9253],[94.4417,16.95],[94.4203,16.951],[94.4494,16.972],[94.4547,17.0009],[94.4452,17.0544],[94.4827,17.1145],[94.4782,17.1407],[94.4466,17.1505],[94.441,17.1836],[94.4656,17.1965],[94.4675,17.1841],[94.4908,17.1877],[94.4991,17.1618],[94.5007,17.1778],[94.5295,17.1885],[94.4917,17.2179],[94.4965,17.2527],[94.4827,17.2693],[94.4991,17.2796],[94.4952,17.3175],[94.5032,17.3257],[94.5221,17.2876],[94.5374,17.2929],[94.5243,17.3127],[94.5335,17.3283],[94.5467,17.3123],[94.5667,17.3167],[94.5578,17.5064],[94.5328,17.5532],[94.5798,17.6255],[94.5639,17.6465],[94.5508,17.6299],[94.5548,17.6546],[94.5244,17.7111],[94.5327,17.7438],[94.4744,17.7907],[94.4881,17.8243],[94.4744,17.8493],[94.4797,17.8993],[94.4286,17.9907],[94.4298,18.0033],[94.4708,18.0125],[94.4795,18.0642],[94.4286,18.1405],[94.4417,18.1708],[94.4081,18.2029],[94.4201,18.2091],[94.416,18.2355],[94.3912,18.2506],[94.3174,18.2466],[94.3218,18.3116],[94.338,18.2952],[94.3467,18.3173],[94.3822,18.2827],[94.3785,18.3005],[94.4,18.3181],[94.3923,18.3505],[94.3831,18.3657],[94.3303,18.3668],[94.3292,18.3708],[94.337,18.3896],[94.3161,18.4397],[94.2246,18.5345],[94.2542,18.5417],[94.2327,18.648],[94.1369,18.7324],[94.2083,18.7292],[94.2002,18.7492],[94.1716,18.7588],[94.1702,18.7741],[94.1882,18.7781],[94.1396,18.8202],[94.1076,18.8161],[94.0645,18.8339],[94.0614,18.8503],[94.0203,18.8549],[94.0464,18.9424],[94.0288,19.0017],[94.0465,19.02],[94.0264,19.0215],[94.013,19.0479],[94.0383,19.0714],[94.0487,19.0494],[94.0792,19.0833],[94.0257,19.0801],[94.0297,19.1064],[94.0542,19.1208],[94.0297,19.1311],[94.0506,19.2424],[94.0378,19.303],[94.0381,19.2118],[94.0083,19.1792],[94.0075,19.1509],[93.95,19.1417],[93.9712,19.1267],[93.959,19.0353],[93.9881,18.9716],[93.9618,18.9008],[93.9466,18.895],[93.9506,18.8671],[93.9297,18.8466],[93.9158,18.8747],[93.7742,18.9701],[93.7396,18.9672],[93.7075,19.0035],[93.6636,19.017],[93.6367,19.1411],[93.5966,19.1507],[93.466,19.3662],[93.4844,19.4163],[93.5454,19.4423],[93.5813,19.4089],[93.6043,19.415],[93.6174,19.38],[93.6786,19.3783],[93.6866,19.3586],[93.6589,19.3271],[93.6667,19.3],[93.7191,19.2996],[93.7384,19.2592],[93.7978,19.2297],[93.8939,19.2672],[93.9419,19.3095],[93.9422,19.3355],[93.9667,19.3542],[93.9434,19.3455],[93.8941,19.2879],[93.8718,19.3115],[93.8578,19.2716],[93.8204,19.2535],[93.7341,19.3175],[93.7206,19.3906],[93.701,19.4046],[93.6783,19.3869],[93.6577,19.4107],[93.6836,19.4051],[93.6786,19.4188],[93.652,19.4214],[93.648,19.4411],[93.6181,19.4499],[93.6208,19.4333],[93.602,19.4339],[93.6012,19.4672],[93.5659,19.4797],[93.5301,19.4634],[93.5039,19.5033],[93.5211,19.505],[93.5079,19.5242],[93.5193,19.5251],[93.5562,19.4839],[93.6281,19.4965],[93.6323,19.4827],[93.6506,19.5236],[93.618,19.5369],[93.6325,19.5628],[93.6161,19.5535],[93.6081,19.5699],[93.6337,19.566],[93.6499,19.5763],[93.6369,19.5865],[93.6615,19.5923],[93.6669,19.5759],[93.7062,19.5548],[93.7617,19.5451],[93.7496,19.5323],[93.7633,19.5174],[93.7676,19.5381],[93.8063,19.5327],[93.8534,19.5117],[93.8633,19.4758],[93.9,19.4667],[93.9333,19.4958],[93.9118,19.4828],[93.88,19.4967],[93.7697,19.5961],[93.7176,19.6212],[93.7704,19.6673],[93.7908,19.658],[93.7841,19.6868],[93.8042,19.7042],[93.7563,19.6715],[93.7283,19.6702],[93.7049,19.6925],[93.7132,19.745],[93.75,19.7583],[93.7056,19.759],[93.6993,19.7132],[93.641,19.7119],[93.6285,19.7378],[93.6375,19.7625],[93.6122,19.7092],[93.5841,19.7051],[93.5965,19.7588],[93.5785,19.7898],[93.6284,19.8215],[93.6375,19.8625],[93.6039,19.8094],[93.5945,19.8168],[93.5757,19.7992],[93.5744,19.7723],[93.5923,19.7494],[93.5784,19.7135],[93.547,19.6998],[93.5533,19.6789],[93.5179,19.6791],[93.5077,19.7172],[93.5701,19.7549],[93.5715,19.7689],[93.5473,19.7619],[93.5381,19.7813],[93.5369,19.8462],[93.551,19.8744],[93.5875,19.8792],[93.5375,19.8958],[93.5175,19.8659],[93.5035,19.8213],[93.5256,19.7546],[93.519,19.7327],[93.4505,19.7758],[93.3924,19.9617],[93.4323,19.9618],[93.4469,19.9337],[93.4787,19.9077],[93.5042,19.9167],[93.4135,19.9753],[93.3792,20.0542],[93.3781,20.0035],[93.3449,20.0577],[93.248,20.0256],[93.2061,20.0297],[93.1947,20.067],[93.1741,20.0341],[93.1458,20.05],[93.1881,19.9353],[93.2506,19.8259],[93.2214,19.8187],[93.1534,19.9784],[93.127,19.9869],[93.109,19.9688],[93.1077,19.937],[93.1744,19.7938],[93.168,19.7869],[93.0506,19.9562],[93.0328,20.0188],[92.9758,20.0716],[92.9828,20.0937],[92.966,20.1296],[92.9721,20.1419],[92.9937,20.1256],[93.0534,20.1298],[93.075,20.1708],[93.0189,20.1339],[92.9841,20.1342],[92.9964,20.2272],[93.0339,20.3314],[93.0708,20.3583],[93.0295,20.3559],[93.0288,20.41],[93.0583,20.4792],[93.0203,20.4155],[93.016,20.3062],[92.9785,20.2508],[92.974,20.1744],[92.955,20.1757],[92.9417,20.2042],[92.9257,20.199],[92.8911,20.1119],[92.7728,20.1839],[92.7577,20.2005],[92.7839,20.2563],[92.8438,20.2839],[92.8583,20.3042],[92.7983,20.2795],[92.767,20.2934],[92.767,20.4059],[92.7339,20.5145],[92.7422,20.5466],[92.7333,20.5708],[92.7208,20.5708],[92.734,20.561],[92.7257,20.4895],[92.7632,20.3961],[92.7489,20.3327],[92.7327,20.3591],[92.7507,20.2711],[92.7336,20.2618],[92.6202,20.4563],[92.5298,20.5437],[92.5115,20.6074],[92.3841,20.7009],[92.3881,20.726],[92.3072,20.9211],[92.2798,20.9301],[92.2661,21.0105],[92.2631,20.952],[92.3203,20.8522],[92.3464,20.7591],[92.3364,20.7372],[92.3047,20.7686],[92.2006,20.9561],[92.1828,21.0189],[92.0504,21.1726],[92.0411,21.3105],[91.9458,21.461],[91.9783,21.4757],[91.9996,21.5142],[91.9913,21.5809],[92.0,21.5958],[92.008,21.6017],[92.0083,21.6125],[91.9958,21.6583],[91.9784,21.5091],[91.9133,21.4993],[91.9146,21.4702],[91.841,21.5288],[91.884,21.5437],[91.8577,21.5604],[91.8875,21.6458],[91.8545,21.6642],[91.8538,21.6892],[91.9121,21.8309],[91.9119,21.8855],[91.8661,22.0049],[91.8756,22.0507],[91.8631,22.1091],[91.8542,22.125],[91.844,22.1119],[91.8214,22.1562],[91.8089,22.2104],[91.8375,22.2625],[91.8129,22.2816],[91.8267,22.2996],[91.9208,22.3167],[91.9048,22.3491],[91.9292,22.3542],[91.9288,22.3691],[91.9,22.4],[91.9191,22.4212],[91.9833,22.4083],[91.9879,22.56],[91.9673,22.6323],[91.9839,22.6493],[91.9801,22.6785],[92.0208,22.7208],[91.9839,22.7967],[91.9756,23.0049],[91.9506,23.0509],[91.9547,23.0905],[91.9295,23.1434],[91.9413,23.1733],[91.9208,23.1937],[91.9162,23.2813],[91.8953,23.3132],[91.9536,23.3802],[91.9494,23.4466],[91.9667,23.475],[91.9375,23.4708],[91.9368,23.4383],[91.8885,23.4368],[91.8292,23.3667],[91.8292,23.4708],[91.8786,23.4392],[91.8826,23.4596],[91.8976,23.459],[91.8743,23.4714],[91.8924,23.4853],[91.8693,23.4929],[91.8514,23.4777],[91.8503,23.507],[91.8391,23.4916],[91.8167,23.5792],[91.8341,23.5703],[91.8783,23.5925],[91.8667,23.65],[91.8967,23.6825],[91.9452,23.6967],[91.9533,23.7381],[91.9783,23.7325],[92.0206,23.6467],[92.075,23.6458],[92.0792,23.6833],[92.0464,23.7228],[92.0339,23.8132],[92.0,23.8625],[92.025,23.8917],[92.0042,23.9375],[92.0449,23.9714],[92.0824,23.959],[92.0958,23.9792],[92.1417,23.9792],[92.1298,24.0355],[92.1618,24.0923],[92.1958,24.075],[92.2396,24.0995],[92.275,24.0917],[92.2583,24.1792],[92.3092,24.2785],[92.3458,24.2875],[92.3414,24.2386],[92.3786,24.2199],[92.3792,24.1875],[92.4167,24.1792],[92.4257,24.2533],[92.4667,24.3],[92.4958,24.3875],[92.518,24.3785],[92.5301,24.4003],[92.5753,24.3845],[92.5661,24.3929],[92.6093,24.4454],[92.6333,24.4542],[92.6782,24.4336],[92.675,24.4125],[92.697,24.4036],[92.7958,24.5896],[92.8038,24.6608],[92.7754,24.7396],[92.7922,24.7655],[92.7786,24.7882],[92.8,24.8125],[92.8324,24.8122],[92.8343,24.8256],[92.8782,24.8258],[92.8792,24.8667],[92.822,24.8372],[92.7858,24.8545],[92.745,24.8135],[92.725,24.8167],[92.75,24.8521],[92.725,24.8854],[92.7684,24.8871],[92.7833,24.9125],[92.7426,24.9132],[92.7256,24.9738],[92.7078,24.9882],[92.725,25.0417],[92.6833,25.0542],[92.6967,25.116],[92.7284,25.1259],[92.725,25.1417],[92.8208,25.1667],[92.8208,25.2146],[92.8036,25.2426],[92.8163,25.2771],[92.8006,25.2886],[92.8125,25.3625],[92.7883,25.3758],[92.7875,25.4083],[92.7292,25.4333],[92.7206,25.4905],[92.775,25.5563],[92.7387,25.588],[92.725,25.5792],[92.7286,25.5981],[92.6923,25.6218],[92.688,25.6519],[92.7491,25.7093],[92.7576,25.7493],[92.7382,25.749],[92.7243,25.7244],[92.6264,25.7285],[92.612,25.7506],[92.5708,25.7208],[92.5137,25.7078],[92.4949,25.7285],[92.4708,25.7167],[92.4146,25.7292],[92.4216,25.7618],[92.4458,25.7667],[92.4125,25.8042],[92.4204,25.8479],[92.4042,25.8646],[92.4212,25.9267],[92.4083,25.9333],[92.3695,25.8619],[92.3478,25.8702],[92.3159,25.834],[92.2466,25.816],[92.1976,25.833],[92.15,25.8042],[92.1417,25.8333],[92.1042,25.8333],[92.0863,25.8078],[92.0422,25.8074],[91.9649,25.742],[91.9233,25.7462],[91.8882,25.7244],[91.8417,25.7458],[91.7967,25.7241],[91.7792,25.6667],[91.7491,25.691],[91.727,25.6756],[91.7117,25.7202],[91.6708,25.725],[91.6673,25.7739],[91.7118,25.7924],[91.7131,25.8116],[91.675,25.8208],[91.5708,25.8083],[91.5621,25.8238],[91.575,25.8307],[91.5542,25.85],[91.4873,25.8077],[91.4261,25.8461],[91.3743,25.8244],[91.3458,25.8458],[91.2976,25.8371],[91.2587,25.815],[91.248,25.7756],[91.2134,25.7658],[91.1953,25.7382],[91.2042,25.7083],[91.1592,25.7131],[91.1536,25.7841],[91.1785,25.8052],[91.1922,25.8509],[91.1833,25.8667],[91.2006,25.8926],[91.1786,25.9301],[91.1964,25.9613],[91.1825,26.016],[91.1629,26.0358],[91.1958,26.1],[91.2284,26.1131],[91.2458,26.1042],[91.2583,26.1208],[91.175,26.2],[91.2452,26.255],[91.2458,26.2708],[91.2091,26.2633],[91.0765,26.3047],[91.0783,26.2881],[91.0506,26.2842],[91.0625,26.35],[91.0422,26.3811],[91.0506,26.3905],[91.022,26.3961],[91.025,26.4208],[90.992,26.3941],[90.9991,26.3175],[90.9377,26.3113],[90.9197,26.2747],[90.8924,26.2703],[90.8508,26.28],[90.8417,26.3417],[90.8135,26.3368],[90.8076,26.2966],[90.7674,26.2759],[90.7669,26.3303],[90.7375,26.4042],[90.7201,26.3841],[90.6958,26.3917],[90.6952,26.42],[90.6582,26.4572],[90.622,26.4624],[90.5274,26.5538],[90.5249,26.4639],[90.4793,26.4322],[90.4573,26.3952],[90.4333,26.4083],[90.4083,26.3875],[90.3667,26.4167],[90.3583,26.5292],[90.334,26.5199],[90.3285,26.4926],[90.2759,26.4495],[90.2467,26.491],[90.2538,26.4517],[90.2142,26.4288],[90.125,26.4542],[90.0917,26.4458],[90.0858,26.533],[90.0583,26.5417],[90.0324,26.509],[89.9885,26.509],[89.934,26.5717],[89.9202,26.6449],[89.8833,26.625],[89.842,26.6392],[89.7792,26.7542],[89.8167,26.7875],[89.8208,26.8458],[89.8676,26.8119],[89.8882,26.8256],[89.9741,26.7911],[90.0083,26.7958],[90.0408,26.8297],[90.0824,26.8256],[90.1034,26.8506],[90.1417,26.8542],[90.1507,26.9032],[90.1896,26.9412],[90.2049,26.9051],[90.2616,26.8509],[90.3119,26.9134],[90.325,26.9542],[90.3163,26.9934],[90.3364,27.0169],[90.3451,27.0036],[90.3866,27.0159],[90.465,26.9413],[90.5083,26.9542],[90.548,26.9464],[90.5782,26.9756],[90.6441,26.9754],[90.6608,26.992],[90.6792,26.9833],[90.7441,27.0045],[90.765,27.0254],[90.8275,27.0163],[90.85,27.0333],[90.8417,27.0167],[90.8674,26.9994],[90.9417,27.025],[90.9833,27.0167],[91.041,26.9574],[91.0509,26.9089],[91.0826,26.9036],[91.1688,26.9333],[91.1896,26.9213],[91.2159,26.9339],[91.3333,26.925],[91.4375,26.975],[91.4462,26.9475],[91.4288,26.9142],[91.4476,26.8587],[91.5108,26.8754],[91.5267,26.8996],[91.5792,26.925],[91.6167,26.8917],[91.6525,26.8913],[91.6733,26.8538],[91.7605,26.8714],[91.7828,26.8853],[91.8,26.9583],[91.7667,27.0],[91.7934,27.0163],[91.8441,26.9996],[91.8629,26.9684],[91.8583,26.9458],[91.8792,26.9333],[91.9667,26.9708],[92.0434,26.9295],[92.0829,26.9325],[92.105,26.8956],[92.1283,26.8965],[92.1467,26.9368],[92.1828,26.9509],[92.1926,26.9829],[92.2118,26.9884],[92.2126,27.0193],[92.3079,27.076],[92.3217,27.12],[92.3479,27.1088],[92.397,27.1256],[92.4167,27.1208],[92.4122,27.0928],[92.4339,27.0821],[92.4299,27.0592],[92.5252,27.0534],[92.5517,27.0004],[92.6083,26.9917],[92.6241,27.0044],[92.752,26.9381],[92.8083,26.9417],[92.7838,26.8729],[92.8333,26.8208],[92.8621,26.8267],[92.8535,26.8699],[92.8715,26.8837],[92.8542,26.9125],[92.8629,26.9392],[92.8375,26.975],[92.8866,26.9842],[92.925,27.0583],[92.9875,27.025],[93.0292,26.9458],[93.0483,26.942],[93.0887,26.9714],[93.1858,26.9288],[93.2314,26.8839],[93.3042,26.9458],[93.3129,26.972],[93.3009,26.9911],[93.3855,26.9797],[93.409,27.0158],[93.4375,27.025],[93.4603,26.9922],[93.4993,27.0047],[93.5316,26.9962],[93.5424,27.0159],[93.7066,27.0629],[93.7542,27.0958],[93.7458,27.1417],[93.8116,27.1674],[93.833,27.2101],[93.8255,27.2438],[93.8506,27.2946],[93.8292,27.3208],[93.8792,27.3375],[93.9125,27.3833],[93.9457,27.3846],[94.0083,27.4292],[93.9754,27.4559],[93.9708,27.4917],[94.0729,27.4922],[94.1534,27.5466],[94.2392,27.633],[94.3147,27.6464],[94.3559,27.6871],[94.4657,27.7089],[94.5118,27.6924],[94.5125,27.7125],[94.62,27.7673],[94.6784,27.7757],[94.6937,27.7994],[94.7399,27.7996],[94.7729,27.7755],[94.8908,27.8215],[94.8929,27.8506],[94.9042,27.8375],[94.945,27.8509],[95.0116,27.9215],[95.0047,27.9564],[95.0365,27.9921],[95.0385,28.0243],[95.1125,28.0333],[95.2103,28.0786],[95.2743,28.0369],[95.3149,28.0587],[95.3292,28.0875],[95.37,28.1092],[95.4134,28.1785],[95.4464,28.1887],[95.4667,28.2542],[95.4337,28.3142],[95.4384,28.3325],[95.4729,28.362],[95.5147,28.3547],[95.5625,28.4],[95.5917,28.375],[95.5712,28.3309],[95.6267,28.2754],[95.703,28.2581],[95.7191,28.2837],[95.7667,28.2792],[95.7712,28.235],[95.7934,28.2212],[95.8439,28.2172],[95.9042,28.2458],[95.9525,28.233],[95.975,28.2],[95.9381,28.1533],[95.9375,28.1167],[95.9583,28.0792],[96.0021,28.0755],[96.0333,28.1],[96.0702,28.1551],[96.0583,28.1958],[96.0875,28.2167],[96.2083,28.2167],[96.2087,28.1517],[96.2254,28.1392],[96.2167,28.075],[96.2408,28.0741],[96.3004,27.985],[96.3454,27.9615],[96.3551,27.9381],[96.3983,27.9246],[96.4375,27.9417],[96.4208,27.9208],[96.433,27.8851],[96.4167,27.8542],[96.4417,27.7792],[96.5108,27.7663],[96.55,27.7792],[96.575,27.6583],[96.5208,27.6417],[96.3726,27.6496],[96.3455,27.6017],[96.2892,27.558],[96.2083,27.5792],[96.1578,27.5155],[96.1574,27.4801],[96.1005,27.441],[96.0312,27.4452],[95.9882,27.42],[95.9755,27.3979],[95.995,27.3715],[95.8676,27.3868],[95.8443,27.35],[95.8282,27.3547],[95.7868,27.3244],[95.7625,27.3292],[95.7708,27.2813],[95.7583,27.2375],[95.7314,27.2172],[95.6855,27.1964],[95.6552,27.2007],[95.6409,27.2409],[95.5949,27.2328],[95.5345,27.2622],[95.5092,27.295],[95.4833,27.2417],[95.442,27.2024],[95.4199,27.1382],[95.3851,27.1413],[95.3712,27.1024],[95.4131,27.0718],[95.4049,27.0509],[95.4422,27.0049],[95.4375,26.9625],[95.4048,26.9967],[95.4038,27.024],[95.3625,27.0375],[95.3631,26.9993],[95.325,26.9333],[95.2562,26.9244],[95.2333,26.875],[95.2006,26.8843],[95.1958,26.9042],[95.1491,26.8786],[95.128,26.8961],[95.0784,26.8964],[95.0673,26.876],[95.1422,26.7843],[95.1274,26.7629],[95.0215,26.7783],[95.0158,26.7592],[94.9625,26.7542],[94.8358,26.6629],[94.79,26.6629],[94.7792,26.65],[94.7425,26.6759],[94.7292,26.7167],[94.7053,26.7038],[94.6581,26.7091],[94.6542,26.7417],[94.5917,26.7458],[94.6131,26.7196],[94.6119,26.6728],[94.5833,26.6333],[94.5676,26.6327],[94.5672,26.5908],[94.5382,26.5782],[94.5159,26.53],[94.4214,26.448],[94.4339,26.4246],[94.4202,26.4003],[94.4375,26.3792],[94.4032,26.3797],[94.3589,26.3491],[94.3368,26.2677],[94.2708,26.2333],[94.2574,26.2494],[94.2299,26.2408],[94.1455,26.1309],[94.0795,26.0733],[94.0991,26.066],[94.1205,26.0191],[94.1125,25.9625],[94.0575,26.02],[94.0384,26.0075],[94.0375,25.9667],[94.0545,25.9475],[94.0375,25.8812],[94.0587,25.8601],[94.0462,25.8267],[94.0792,25.7667],[94.0509,25.7619],[94.0006,25.7116],[93.9875,25.65],[93.9436,25.6494],[93.8708,25.5958],[93.8438,25.6083],[93.8149,25.5795],[93.7309,25.5621],[93.7375,25.5265],[93.7105,25.5006],[93.6478,25.5203],[93.6154,25.4751],[93.5841,25.4617],[93.5698,25.4215],[93.5092,25.3951],[93.4855,25.3589],[93.4583,25.3583],[93.45,25.3438],[93.4756,25.3051],[93.4758,25.2717],[93.4917,25.2792],[93.5083,25.2646],[93.5,25.225],[93.5479,25.188],[93.6,25.2083],[93.6161,25.1938],[93.6298,25.163],[93.6007,25.1532],[93.6059,25.1129],[93.6575,25.1175],[93.68,25.1658],[93.7417,25.1958],[93.7754,25.1725],[93.7708,25.1542],[93.8792,25.1375],[93.9285,25.177],[93.9382,25.2325],[93.9575,25.2368],[93.984,25.1592],[94.0381,25.1449],[94.0299,25.1049],[94.0792,25.0875],[94.0167,25.0292],[94.0422,24.9466],[94.0366,24.8757],[94.0083,24.8417],[94.0203,24.7228],[94.0,24.6958],[93.9775,24.7045],[93.9625,24.6792],[93.9387,24.6839],[93.9285,24.6509],[93.867,24.6149],[93.9027,24.5793],[93.8756,24.5564],[93.8712,24.5248],[93.895,24.495],[93.9329,24.4864],[93.9107,24.4266],[93.8517,24.4349],[93.8333,24.4042],[93.8022,24.45],[93.7616,24.4133],[93.7284,24.4297],[93.7078,24.3993],[93.7199,24.3216],[93.6839,24.2981],[93.6708,24.2542],[93.6417,24.2583],[93.6449,24.2869],[93.6311,24.2869],[93.6104,24.2671],[93.5375,24.2708],[93.5326,24.2257],[93.4958,24.225],[93.4784,24.2422],[93.4593,24.2253],[93.4214,24.2635],[93.4287,24.3104],[93.4167,24.3292],[93.3826,24.3297],[93.3496,24.2551],[93.3083,24.225],[93.2512,24.2381],[93.2262,24.1911],[93.1958,24.2],[93.1962,24.3059],[93.1708,24.3375],[93.1333,24.3083],[93.1244,24.2676],[93.0458,24.1333],[92.9208,24.1083],[92.9258,24.1492],[92.9491,24.1456],[92.941,24.2006],[92.9542,24.25],[92.8992,24.1883],[92.8798,24.195],[92.8746,24.176],[92.8417,24.1625],[92.8417,24.1917],[92.8083,24.1958],[92.8038,24.2309],[92.85,24.3667],[92.8157,24.3423],[92.7625,24.3375],[92.7246,24.2684],[92.7288,24.0934],[92.71,24.0788],[92.6833,24.0875],[92.675,24.0583],[92.65,24.0625],[92.6363,24.0382],[92.592,24.015],[92.6042,23.9604],[92.5875,23.9417],[92.583,23.8642],[92.567,23.8441],[92.5621,23.71],[92.6004,23.6059],[92.5703,23.5382],[92.5882,23.4717],[92.6042,23.4625],[92.5917,23.4333],[92.6077,23.423],[92.6132,23.3843],[92.6327,23.3784],[92.6583,23.2792],[92.6331,23.2742],[92.641,23.2146],[92.6133,23.1781],[92.608,23.1225],[92.6375,23.018],[92.6035,22.9902],[92.609,22.9628],[92.5754,22.9101],[92.6205,22.8108],[92.6217,22.7633],[92.6369,22.7563],[92.6717,22.6717],[92.7199,22.6836],[92.7303,22.6501],[92.75,22.6417],[92.7542,22.5917],[92.7396,22.5958],[92.7292,22.5729],[92.7292,22.4729],[92.7871,22.2691],[92.8089,22.1134],[92.8214,22.1049],[92.8256,21.9228],[92.8744,21.8759],[92.8833,21.95],[92.8924,21.9091],[92.9162,21.9076],[92.9417,21.875],[92.9212,21.8608],[92.9254,21.84],[92.9004,21.8275],[92.8871,21.76],[92.8883,21.7216],[92.9077,21.7105],[92.9048,21.6343],[92.9297,21.5966],[92.9254,21.5476],[92.9958,21.5458],[92.9875,21.5229],[93.0059,21.4629],[93.0858,21.4504],[93.1,21.5],[93.1199,21.4951],[93.1537,21.4229],[93.1619,21.3009],[93.145,21.23],[93.1119,21.2091],[93.1337,21.1267],[93.1213,21.0563],[93.1333,21.0125],[93.1616,21.0256],[93.175,21.0083],[93.249,21.0244],[93.2625,21.0667],[93.2993,21.0658],[93.3208,21.0417],[93.3255,20.9729],[93.3619,20.8699],[93.3625,20.8083],[93.4125,20.8083],[93.4579,20.7865],[93.5208,20.7125],[93.4924,20.6992],[93.4625,20.6458],[93.492,20.6059],[93.4792,20.575],[93.527,20.5256],[93.575,20.5292],[93.6119,20.5105],[93.5883,20.4951],[93.5785,20.4535],[93.6292,20.3917],[93.6083,20.3792],[93.6333,20.2896],[93.6164,20.2699],[93.6208,20.2458],[93.6958,20.2542],[93.7333,20.2333],[93.7258,20.209],[93.7873,20.1656],[93.7917,20.1375],[93.8684,20.1205],[93.8917,20.1375],[93.9167,20.0583],[93.9743,20.0533],[93.9919,19.997],[93.9796,19.9896],[94.0083,19.9375],[93.9771,19.9417],[93.9417,19.9167],[93.9458,19.8958],[93.9953,19.8605],[94.0007,19.8301],[94.0301,19.8048],[94.0458,19.8125],[94.0756,19.7635],[94.0667,19.7333],[94.1033,19.7243],[94.1301,19.6747],[94.1792,19.6708],[94.1795,19.6434],[94.2038,19.6191],[94.2,19.5917],[94.2619,19.5355],[94.259,19.5093],[94.2787,19.4896],[94.2792,19.4333],[94.2634,19.4131],[94.3119,19.3939],[94.3417,19.3208],[94.3137,19.3297],[94.3032,19.2836],[94.2757,19.2701],[94.2754,19.2101],[94.2996,19.1774],[94.3042,19.125],[94.3662,19.0688],[94.3714,19.0451],[94.3453,19.0073],[94.366,18.9908],[94.3672,18.9478],[94.3966,18.9328],[94.4125,18.9458],[94.4375,18.8708],[94.5083,18.8583],[94.4875,18.8333],[94.508,18.7899],[94.4953,18.7741],[94.505,18.7384],[94.5578,18.6939],[94.5714,18.6186],[94.5964,18.5946],[94.5958,18.5458],[94.5629,18.5233],[94.5757,18.4717],[94.65,18.3875],[94.5708,18.4042],[94.5296,18.3521],[94.5688,18.3172],[94.624,18.3243],[94.6549,18.255],[94.716,18.2159],[94.695,18.1715],[94.647,18.1797],[94.655,18.1216],[94.7167,18.0958],[94.6674,18.0574],[94.65,18.0167],[94.7075,17.9909],[94.7208,17.95],[94.7375,17.9542],[94.75,17.7723],[94.7785,17.7449],[94.7843,17.7087],[94.8292,17.6792],[94.8465,17.7116],[94.8708,17.7167],[94.8833,17.9],[94.9034,17.9007],[94.9049,17.9198],[94.9458,17.9458],[94.9587,18.0066],[95.0163,18.0392],[94.9833,18.0792],[95.0771,18.0796],[95.1125,18.0958],[95.1108,18.1121],[95.0708,18.125],[95.1368,18.1551],[95.1756,18.2005],[95.1664,18.2199],[95.1826,18.2258],[95.1733,18.283],[95.125,18.2708],[95.1336,18.2989],[95.0917,18.2875],[95.1125,18.3208],[95.0964,18.3478],[95.1,18.4],[95.0396,18.3714],[95.0093,18.3841],[94.9992,18.4117],[94.9741,18.4119],[94.9333,18.4417],[94.941,18.4783],[94.9083,18.5125],[94.9036,18.5772],[94.8504,18.6517],[94.8991,18.6759],[94.9208,18.725],[94.892,18.7434],[94.875,18.7792],[94.8829,18.7938],[94.8634,18.8535],[94.8988,18.8494],[94.9324,18.8718],[94.95,18.9021],[94.93,18.9366],[94.9608,18.9413],[94.9952,18.9217],[95.0134,18.9452],[95.0577,18.9551],[95.0885,19.0088],[95.1047,19.003],[95.1125,18.9557],[95.0958,18.9333],[95.1299,18.9244],[95.2066,18.9462],[95.2217,18.9783],[95.2827,19.001],[95.2714,19.0605],[95.3134,19.0991],[95.4243,19.0619],[95.4409,19.0756],[95.4905,19.0456],[95.5186,19.0703],[95.6292,19.0958],[95.6621,19.0691],[95.6667,19.0292],[95.6343,19.034],[95.6159,18.9633],[95.5897,18.9507],[95.6057,18.9393],[95.6281,18.9574],[95.6318,18.9466],[95.6229,18.9068],[95.606,18.9124],[95.6064,18.9001],[95.6772,18.8964],[95.7042,18.9167],[95.7271,18.8833],[95.7938,18.8917],[95.8333,18.7792],[95.8727,18.7881],[95.934,18.6676],[95.9649,18.6663],[96.0101,18.6254],[96.0327,18.6241],[96.0467,18.5881],[96.1186,18.5172],[96.1698,18.5202],[96.2287,18.4785],[96.2699,18.4841],[96.2896,18.5078],[96.3083,18.4958],[96.3048,18.5241],[96.3458,18.5542],[96.3595,18.5289],[96.3868,18.5286],[96.422,18.5461],[96.5197,18.5414],[96.5542,18.5625],[96.5292,18.5125],[96.5592,18.5452],[96.5917,18.5542],[96.6125,18.5458],[96.6125,18.5083],[96.6353,18.4922],[96.6521,18.488],[96.6917,18.5208],[96.6747,18.4761],[96.6962,18.4392],[96.7089,18.3478],[96.7494,18.2855],[96.742,18.2142],[96.7705,18.2024],[96.7792,18.175],[96.8854,18.1423],[96.9187,18.1625],[96.9392,18.1455],[96.9542,18.1583],[96.9833,18.1167],[96.9547,18.0772],[96.9667,18.0583],[96.9542,18.0458],[96.9875,18.025],[97.0285,18.0284],[97.0382,17.9799],[97.0784,17.9965],[97.1167,17.9875],[97.117,17.9392],[97.1625,17.875],[97.1625,17.8375],[97.2,17.8333],[97.2343,17.863],[97.2634,17.8495],[97.3157,17.8495],[97.3364,17.8714],[97.3951,17.8576],[97.4703,17.6679],[97.496,17.6387],[97.4625,17.6292],[97.4443,17.65],[97.4215,17.6408],[97.413,17.6188],[97.4339,17.5554],[97.3994,17.5212],[97.4201,17.5076],[97.425,17.4667],[97.4449,17.4632],[97.4917,17.5167],[97.5173,17.4962],[97.4996,17.4677],[97.5285,17.4576],[97.5354,17.438],[97.5625,17.45],[97.5417,17.4917],[97.5993,17.4926],[97.6051,17.5119],[97.6327,17.5176],[97.691,17.5783],[97.7256,17.5174],[97.6963,17.4938],[97.7299,17.4217],[97.7574,17.4119],[97.7759,17.3634],[97.825,17.3583],[97.8506,17.277],[97.8762,17.2538],[97.8875,17.2708],[97.908,17.2608],[97.9212,17.2059],[98.0,17.1206],[98.0,17.0125],[97.9875,16.9875],[98.0,16.9751],[98.0,16.8958],[97.975,16.8625],[97.9871,16.8483],[97.9833,16.7583],[98.0,16.7708],[97.9994,14.2897]],[[97.8129,14.9678],[97.8095,14.9714],[97.8083,14.9667],[97.8129,14.9678]],[[97.6105,16.3715],[97.6173,16.3779],[97.6092,16.3798],[97.6105,16.3715]],[[97.4546,16.4303],[97.4512,16.4339],[97.45,16.4292],[97.4546,16.4303]],[[97.4754,16.5053],[97.472,16.5089],[97.4708,16.5042],[97.4754,16.5053]],[[97.5046,16.5345],[97.5012,16.5381],[97.5,16.5333],[97.5046,16.5345]],[[97.1083,16.9875],[97.1053,16.9964],[97.1036,16.9888],[97.1083,16.9875]],[[96.8947,17.2379],[96.8911,17.2345],[96.8958,17.2333],[96.8947,17.2379]],[[96.8625,17.0542],[96.8576,17.0714],[96.8455,17.0655],[96.8625,17.0542]],[[96.8292,16.9458],[96.825,16.95],[96.8259,16.9467],[96.8292,16.9458]],[[96.825,16.95],[96.8208,16.9542],[96.8217,16.9509],[96.825,16.95]],[[96.8197,16.9587],[96.8161,16.9554],[96.8208,16.9542],[96.8197,16.9587]],[[95.9441,16.2462],[95.9538,16.2642],[95.9583,16.2958],[95.9507,16.2951],[95.9441,16.2462]],[[95.9583,16.2958],[95.9625,16.3],[95.9592,16.2991],[95.9583,16.2958]],[[95.9671,16.3012],[95.9637,16.3047],[95.9625,16.3],[95.9671,16.3012]],[[95.7375,16.1333],[95.7328,16.1729],[95.7257,16.1867],[95.7375,16.1333]],[[95.1167,15.9417],[95.1199,15.9497],[95.1173,15.9492],[95.1167,15.9417]],[[94.8798,15.845],[94.8875,15.8305],[94.8825,15.8454],[94.8798,15.845]],[[94.6671,16.122],[94.6637,16.1256],[94.6625,16.1208],[94.6671,16.122]],[[94.0337,19.0387],[94.0304,19.0422],[94.0292,19.0375],[94.0337,19.0387]],[[94.0072,19.1837],[94.0036,19.1804],[94.0083,19.1792],[94.0072,19.1837]],[[93.95,19.1417],[93.942,19.1449],[93.9425,19.1423],[93.95,19.1417]],[[93.875,19.3125],[93.8783,19.3205],[93.8757,19.32],[93.875,19.3125]],[[93.8167,19.2667],[93.8256,19.2697],[93.8179,19.2714],[93.8167,19.2667]],[[93.7387,19.3204],[93.7422,19.3238],[93.7375,19.325],[93.7387,19.3204]],[[93.5437,19.4756],[93.545,19.4826],[93.5285,19.4802],[93.5437,19.4756]],[[93.7708,19.5167],[93.7799,19.5077],[93.7839,19.5112],[93.7708,19.5167]],[[93.9,19.4667],[93.9042,19.4625],[93.9033,19.4658],[93.9,19.4667]],[[93.9042,19.4625],[93.9083,19.4583],[93.9075,19.4616],[93.9042,19.4625]],[[93.9095,19.4538],[93.9131,19.4571],[93.9083,19.4583],[93.9095,19.4538]],[[93.8012,19.6829],[93.8047,19.6863],[93.8,19.6875],[93.8012,19.6829]],[[93.8087,19.7053],[93.8054,19.7089],[93.8042,19.7042],[93.8087,19.7053]],[[93.4962,19.9303],[93.4929,19.9339],[93.4917,19.9292],[93.4962,19.9303]],[[93.1447,20.0546],[93.1411,20.0512],[93.1458,20.05],[93.1447,20.0546]],[[93.0754,20.3595],[93.072,20.3631],[93.0708,20.3583],[93.0754,20.3595]],[[92.9417,20.2042],[92.9458,20.2083],[92.9425,20.2075],[92.9417,20.2042]],[[92.9458,20.2083],[92.95,20.2125],[92.9467,20.2116],[92.9458,20.2083]],[[92.9535,20.2134],[92.9542,20.2208],[92.95,20.2125],[92.9535,20.2134]],[[92.9542,20.2208],[92.9583,20.225],[92.955,20.2241],[92.9542,20.2208]],[[92.9583,20.225],[92.9625,20.2292],[92.9592,20.2283],[92.9583,20.225]],[[92.9671,20.2303],[92.9637,20.2339],[92.9625,20.2292],[92.9671,20.2303]],[[91.8708,21.575],[91.8738,21.5661],[91.8756,21.5737],[91.8708,21.575]],[[91.8875,21.6458],[91.8908,21.6538],[91.8882,21.6533],[91.8875,21.6458]],[[90.5167,26.95],[90.5134,26.9467],[90.5167,26.9458],[90.5167,26.95]],[[95.6223,18.9232],[95.6229,18.9232],[95.6234,18.9233],[95.6223,18.9232]],[[95.6223,18.9232],[95.6077,18.9276],[95.6058,18.9244],[95.6223,18.9232]],[[93.7038,19.9113],[93.7071,19.9078],[93.7083,19.9125],[93.7038,19.9113]],[[93.7129,19.9137],[93.7095,19.9172],[93.7083,19.9125],[93.7129,19.9137]],[[93.5171,19.9928],[93.5137,19.9964],[93.5125,19.9917],[93.5171,19.9928]],[[93.5079,19.9905],[93.5113,19.9869],[93.5125,19.9917],[93.5079,19.9905]],[[93.0822,20.3921],[93.0786,20.3887],[93.0833,20.3875],[93.0822,20.3921]],[[93.0833,20.3875],[93.0895,20.3785],[93.0965,20.3818],[93.0833,20.3875]],[[93.8042,19.4958],[93.8,19.5],[93.8009,19.4967],[93.8042,19.4958]],[[93.7988,19.5046],[93.7953,19.5012],[93.8,19.5],[93.7988,19.5046]],[[93.8053,19.4913],[93.8089,19.4946],[93.8042,19.4958],[93.8053,19.4913]],[[93.9167,19.2],[93.9208,19.1958],[93.92,19.1991],[93.9167,19.2]],[[93.9208,19.1958],[93.9278,19.1786],[93.9324,19.2003],[93.9208,19.1958]],[[93.9167,19.2],[93.9087,19.2033],[93.9092,19.2007],[93.9167,19.2]],[[93.934,19.1551],[93.9375,19.1542],[93.9333,19.1625],[93.934,19.1551]],[[93.9387,19.1496],[93.9422,19.153],[93.9375,19.1542],[93.9387,19.1496]],[[93.9333,19.1625],[93.9303,19.1714],[93.9286,19.1638],[93.9333,19.1625]],[[95.1292,16.1875],[95.1333,16.1833],[95.1325,16.1866],[95.1292,16.1875]],[[95.1333,16.1833],[95.1363,16.1744],[95.1381,16.1821],[95.1333,16.1833]],[[95.1161,16.1991],[95.1256,16.1978],[95.122,16.2214],[95.1161,16.1991]],[[95.3421,16.2012],[95.3387,16.2047],[95.3375,16.2],[95.3421,16.2012]],[[95.3329,16.1988],[95.3363,16.1953],[95.3375,16.2],[95.3329,16.1988]],[[95.3121,16.1822],[95.3155,16.1786],[95.3167,16.1833],[95.3121,16.1822]],[[95.3212,16.1845],[95.3179,16.1881],[95.3167,16.1833],[95.3212,16.1845]],[[94.9092,15.9327],[94.9083,15.9292],[94.9167,15.9333],[94.9092,15.9327]],[[94.9038,15.928],[94.9071,15.9244],[94.9083,15.9292],[94.9038,15.928]],[[94.9355,15.934],[94.9182,15.9382],[94.9167,15.9333],[94.9355,15.934]],[[94.8871,15.9155],[94.8905,15.9119],[94.8917,15.9167],[94.8871,15.9155]],[[94.8962,15.9178],[94.8929,15.9214],[94.8917,15.9167],[94.8962,15.9178]],[[94.8792,15.9083],[94.875,15.9042],[94.8783,15.905],[94.8792,15.9083]],[[94.875,15.9042],[94.8708,15.9],[94.8741,15.9009],[94.875,15.9042]],[[94.8708,15.9],[94.8667,15.8958],[94.87,15.8967],[94.8708,15.9]],[[94.8667,15.8958],[94.8619,15.8845],[94.8667,15.8833],[94.8667,15.8958]],[[94.8667,15.8833],[94.8726,15.8712],[94.875,15.8708],[94.8667,15.8833]],[[94.8757,15.852],[94.8798,15.8693],[94.875,15.8708],[94.8757,15.852]],[[94.8837,15.9095],[94.8804,15.9131],[94.8792,15.9083],[94.8837,15.9095]],[[95.3167,16.1208],[95.325,16.1042],[95.3417,16.125],[95.3167,16.1208]],[[95.3155,16.1254],[95.3119,16.122],[95.3167,16.1208],[95.3155,16.1254]],[[95.1837,16.1428],[95.1804,16.1464],[95.1792,16.1417],[95.1837,16.1428]],[[95.1767,16.1413],[95.1667,16.1208],[95.1792,16.1167],[95.1754,16.1226],[95.1767,16.1413]],[[95.1119,15.9967],[95.1158,16.0161],[95.1132,16.0159],[95.1119,15.9967]],[[95.122,15.9913],[95.1256,15.9946],[95.1208,15.9958],[95.122,15.9913]],[[97.6172,16.5353],[97.6092,16.5078],[97.5625,16.4958],[97.6025,16.4955],[97.6125,16.45],[97.6292,16.5292],[97.6172,16.5353]],[[97.6167,16.5417],[97.6137,16.5506],[97.6119,16.5429],[97.6167,16.5417]],[[97.6208,16.4],[97.6238,16.3911],[97.6256,16.3987],[97.6208,16.4]],[[97.6208,16.4],[97.6178,16.4089],[97.6161,16.4013],[97.6208,16.4]],[[95.5717,18.9299],[95.5895,18.9506],[95.575,18.95],[95.5717,18.9299]],[[94.2208,18.7292],[94.2167,18.7292],[94.2196,18.7244],[94.2208,18.7292]],[[94.2375,18.7292],[94.2304,18.7339],[94.2292,18.7292],[94.2375,18.7292]],[[94.2425,18.7325],[94.245,18.73],[94.2458,18.7333],[94.2425,18.7325]],[[94.1452,18.8395],[94.1425,18.8715],[94.1375,18.8292],[94.1452,18.8395]],[[94.0616,19.1217],[94.0592,19.1241],[94.0583,19.1208],[94.0616,19.1217]],[[94.0825,19.1342],[94.08,19.1366],[94.0792,19.1333],[94.0825,19.1342]],[[94.0494,19.3353],[94.0341,19.3377],[94.0333,19.3125],[94.0366,19.3134],[94.0494,19.3353]],[[93.9708,19.375],[93.9708,19.3625],[93.9756,19.3738],[93.9708,19.375]],[[93.8653,19.3708],[93.8639,19.3798],[93.8619,19.3734],[93.8653,19.3708]],[[93.9816,19.4004],[93.9708,19.3875],[94.0042,19.3833],[93.9983,19.3913],[93.9816,19.4004]],[[93.9677,19.459],[93.954,19.4449],[93.9736,19.4292],[93.9881,19.4449],[93.9677,19.459]],[[93.9204,19.4548],[93.9319,19.4458],[93.9379,19.4533],[93.9204,19.4548]],[[93.9366,19.5009],[93.9342,19.5033],[93.9333,19.5],[93.9366,19.5009]],[[93.7625,19.7583],[93.7554,19.7631],[93.7542,19.7583],[93.7625,19.7583]],[[93.775,19.7583],[93.7871,19.7684],[93.7875,19.7875],[93.7795,19.7816],[93.775,19.7583]],[[93.6538,19.7809],[93.6379,19.7691],[93.6375,19.7667],[93.6538,19.7809]],[[93.6616,19.7842],[93.6592,19.7866],[93.6583,19.7833],[93.6616,19.7842]],[[93.6375,19.8667],[93.6949,19.9008],[93.6917,19.9167],[93.6092,19.9075],[93.6617,19.9077],[93.6375,19.8667]],[[93.6038,19.8892],[93.6004,19.8941],[93.5917,19.8792],[93.6038,19.8892]],[[93.5381,19.9105],[93.5419,19.9155],[93.5375,19.9],[93.5381,19.9105]],[[93.5093,19.9204],[93.5167,19.9208],[93.5155,19.9253],[93.5093,19.9204]],[[93.53,19.9241],[93.5325,19.9217],[93.5333,19.925],[93.53,19.9241]],[[93.7283,19.9215],[93.7319,19.9167],[93.733,19.9195],[93.7283,19.9215]],[[93.5486,19.9167],[93.5485,19.9211],[93.5454,19.9183],[93.5486,19.9167]],[[93.7079,19.9016],[93.7121,19.9021],[93.711,19.9044],[93.7079,19.9016]],[[93.7038,19.8979],[93.6995,19.8975],[93.7028,19.8958],[93.7038,19.8979]],[[93.5131,19.9384],[93.5035,19.9394],[93.5111,19.9333],[93.5131,19.9384]],[[93.4672,19.9591],[93.4619,19.9568],[93.4653,19.9542],[93.4672,19.9591]],[[93.5005,19.9758],[93.4952,19.9734],[93.4986,19.9708],[93.5005,19.9758]],[[93.5038,19.9854],[93.4995,19.985],[93.5028,19.9833],[93.5038,19.9854]],[[93.3542,20.0625],[93.35,20.0667],[93.3509,20.0634],[93.3542,20.0625]],[[93.3759,20.0634],[93.3783,20.0658],[93.375,20.0667],[93.3759,20.0634]],[[93.1944,20.075],[93.1943,20.0794],[93.1912,20.0766],[93.1944,20.075]],[[93.3379,20.085],[93.34,20.0871],[93.3375,20.0875],[93.3379,20.085]],[[93.4042,20.0875],[93.4064,20.0839],[93.4089,20.0863],[93.4042,20.0875]],[[93.3757,20.0824],[93.3785,20.0759],[93.3792,20.0833],[93.3757,20.0824]],[[93.3275,20.1038],[93.3254,20.1017],[93.3375,20.0917],[93.3275,20.1038]],[[93.3118,20.1366],[93.3083,20.1375],[93.3125,20.1292],[93.3118,20.1366]],[[93.412,20.135],[93.4163,20.1354],[93.4152,20.1378],[93.412,20.135]],[[93.3083,20.1708],[93.3036,20.147],[93.3083,20.1458],[93.3083,20.1708]],[[93.4036,20.1651],[93.4089,20.1674],[93.4056,20.1714],[93.4036,20.1651]],[[93.4077,20.1526],[93.413,20.1549],[93.4098,20.1589],[93.4077,20.1526]],[[93.0826,20.1758],[93.0833,20.1875],[93.075,20.175],[93.0826,20.1758]],[[93.3083,20.175],[93.3083,20.1792],[93.3036,20.1762],[93.3083,20.175]],[[93.0917,20.1917],[93.1205,20.21],[93.1208,20.2167],[93.0917,20.1917]],[[93.305,20.1925],[93.3075,20.195],[93.3042,20.1958],[93.305,20.1925]],[[93.3913,20.2187],[93.387,20.2183],[93.3903,20.2167],[93.3913,20.2187]],[[93.3871,20.2271],[93.3829,20.2266],[93.3861,20.225],[93.3871,20.2271]],[[93.0788,20.3979],[93.0745,20.3975],[93.0778,20.3958],[93.0788,20.3979]],[[93.0792,20.5083],[93.0833,20.5708],[93.0583,20.4833],[93.0792,20.5083]],[[92.7246,20.5854],[92.7204,20.585],[92.7236,20.5833],[92.7246,20.5854]],[[93.0634,20.5882],[93.0699,20.591],[93.0625,20.5917],[93.0634,20.5882]],[[93.0167,20.6375],[93.017,20.6225],[93.025,20.6167],[93.0167,20.6375]],[[92.2575,21.0241],[92.255,21.0217],[92.2583,21.0208],[92.2575,21.0241]],[[91.8699,22.1327],[91.8634,22.1298],[91.8708,22.1292],[91.8699,22.1327]],[[91.8583,22.15],[91.8583,22.1458],[91.8631,22.1488],[91.8583,22.15]],[[93.8913,24.7108],[93.8754,24.7309],[93.8879,24.7684],[93.8771,24.7995],[93.8625,24.7917],[93.8538,24.7225],[93.8858,24.6664],[93.8913,24.7108]],[[90.5667,26.5583],[90.5875,26.5542],[90.5917,26.5708],[90.5667,26.5583]],[[92.7329,20.3802],[92.7463,20.3907],[92.7446,20.3962],[92.7329,20.3802]],[[92.8634,20.3384],[92.8621,20.3524],[92.8375,20.3792],[92.8634,20.3384]],[[92.8675,20.33],[92.87,20.3325],[92.8667,20.3333],[92.8675,20.33]],[[92.8629,20.3108],[92.8753,20.305],[92.8708,20.3167],[92.8629,20.3108]],[[93.6079,19.8558],[93.6121,19.8562],[93.611,19.8586],[93.6079,19.8558]],[[93.5995,19.8433],[93.6038,19.8437],[93.6027,19.8461],[93.5995,19.8433]],[[93.5953,19.8232],[93.6006,19.8256],[93.5991,19.833],[93.5953,19.8232]],[[93.7903,19.5042],[93.7902,19.5086],[93.787,19.5058],[93.7903,19.5042]],[[93.8745,19.3308],[93.8788,19.3312],[93.8777,19.3336],[93.8745,19.3308]],[[93.658,19.2604],[93.6537,19.26],[93.6569,19.2583],[93.658,19.2604]],[[93.6487,19.3418],[93.6368,19.33],[93.6528,19.3292],[93.6487,19.3418]],[[93.6403,19.3417],[93.6402,19.3461],[93.637,19.3433],[93.6403,19.3417]],[[93.6371,19.3687],[93.6329,19.3683],[93.6361,19.3667],[93.6371,19.3687]],[[94.5708,17.3125],[94.5741,17.3035],[94.575,17.3125],[94.5708,17.3125]],[[94.5881,17.3061],[94.5917,17.3083],[94.5875,17.3083],[94.5881,17.3061]],[[96.8507,17.0076],[96.8586,16.999],[96.8575,17.0084],[96.8507,17.0076]],[[96.3634,16.9467],[96.3635,16.9498],[96.3625,16.95],[96.3634,16.9467]],[[96.37,16.94],[96.3714,16.9405],[96.3698,16.9409],[96.37,16.94]],[[96.3667,16.9333],[96.367,16.9334],[96.3667,16.9346],[96.3667,16.9333]],[[96.342,16.9108],[96.3496,16.9142],[96.35,16.9167],[96.342,16.9108]],[[96.3384,16.9033],[96.3408,16.9009],[96.3417,16.9042],[96.3384,16.9033]],[[96.2875,16.825],[96.308,16.8309],[96.3129,16.8774],[96.3292,16.8917],[96.3048,16.8781],[96.3035,16.8299],[96.2875,16.825]],[[96.1134,16.8217],[96.1158,16.8241],[96.1125,16.825],[96.1134,16.8217]],[[96.1175,16.8092],[96.12,16.8116],[96.1167,16.8125],[96.1175,16.8092]],[[96.1592,16.7634],[96.1616,16.7658],[96.1583,16.7667],[96.1592,16.7634]],[[94.7375,16.7125],[94.7375,16.7167],[94.7328,16.7137],[94.7375,16.7125]],[[94.7167,16.6708],[94.7214,16.6821],[94.7167,16.6833],[94.7167,16.6708]],[[94.7134,16.6658],[94.7158,16.6634],[94.7167,16.6667],[94.7134,16.6658]],[[94.7,16.625],[94.7199,16.6256],[94.7208,16.6292],[94.7,16.6375],[94.7,16.625]],[[94.6967,16.62],[94.6991,16.6175],[94.7,16.6208],[94.6967,16.62]],[[94.6958,16.6125],[94.6913,16.5559],[94.6875,16.55],[94.6955,16.5559],[94.6958,16.6125]],[[94.6634,16.3783],[94.6658,16.3759],[94.6667,16.3792],[94.6634,16.3783]],[[94.655,16.3575],[94.6575,16.355],[94.6583,16.3583],[94.655,16.3575]],[[94.6509,16.3491],[94.6533,16.3467],[94.6542,16.35],[94.6509,16.3491]],[[94.6083,16.3417],[94.6282,16.3339],[94.6292,16.3375],[94.6083,16.3417]],[[94.6042,16.2917],[94.6089,16.3132],[94.6042,16.325],[94.5994,16.3076],[94.6042,16.2917]],[[94.5244,16.2939],[94.5208,16.2917],[94.525,16.2917],[94.5244,16.2939]],[[94.5079,16.2308],[94.5121,16.2312],[94.511,16.2336],[94.5079,16.2308]],[[94.5193,16.2294],[94.5194,16.225],[94.5205,16.2271],[94.5193,16.2294]],[[95.9733,16.4121],[95.9875,16.4083],[95.9542,16.4125],[95.9733,16.4121]],[[95.9958,16.4083],[96.0017,16.3962],[96.0125,16.3917],[95.9958,16.4083]],[[95.9292,16.4083],[95.9125,16.4083],[95.925,16.4],[95.9292,16.4083]],[[95.9074,16.4118],[95.9,16.4125],[95.9083,16.4083],[95.9074,16.4118]],[[95.9342,16.4119],[95.9449,16.409],[95.9458,16.4125],[95.9342,16.4119]],[[96.0134,16.3842],[96.0158,16.3866],[96.0125,16.3875],[96.0134,16.3842]],[[95.9454,16.3683],[95.9496,16.3687],[95.9485,16.3711],[95.9454,16.3683]],[[95.0375,16.3583],[95.0408,16.355],[95.0417,16.3583],[95.0375,16.3583]],[[95.0375,16.3375],[95.0313,16.3458],[95.0208,16.35],[95.0375,16.3375]],[[95.0417,16.3375],[95.0295,16.3108],[94.9958,16.2458],[95.0202,16.2676],[95.0453,16.3228],[95.0417,16.3375]],[[95.3875,16.2667],[95.3911,16.2467],[95.3917,16.2667],[95.3875,16.2667]],[[95.716,16.2281],[95.7201,16.2257],[95.7175,16.2507],[95.716,16.2281]],[[95.133,16.2271],[95.1287,16.2266],[95.1319,16.225],[95.133,16.2271]],[[95.3728,16.2244],[95.3619,16.2137],[95.37,16.2134],[95.3728,16.2244]],[[95.8579,16.2141],[95.8621,16.2146],[95.861,16.2169],[95.8579,16.2141]],[[95.0458,16.2],[95.0458,16.1958],[95.0506,16.1988],[95.0458,16.2]],[[95.0458,16.2083],[95.0458,16.2042],[95.0506,16.2071],[95.0458,16.2083]],[[95.0542,16.2208],[95.0583,16.225],[95.055,16.2241],[95.0542,16.2208]],[[95.7216,16.2117],[95.7256,16.2009],[95.7242,16.2121],[95.7216,16.2117]],[[95.3288,16.1937],[95.3245,16.1933],[95.3278,16.1917],[95.3288,16.1937]],[[95.3454,16.2058],[95.3496,16.2062],[95.3485,16.2086],[95.3454,16.2058]],[[95.2705,16.1642],[95.2717,16.1783],[95.2625,16.1583],[95.2705,16.1642]],[[95.3625,16.175],[95.3659,16.1675],[95.3672,16.1738],[95.3625,16.175]],[[95.137,16.2308],[95.1413,16.2312],[95.1402,16.2336],[95.137,16.2308]],[[95.1413,16.2562],[95.137,16.2558],[95.1403,16.2542],[95.1413,16.2562]],[[94.8333,16.2333],[94.8368,16.2259],[94.8375,16.2333],[94.8333,16.2333]],[[94.6917,16.2167],[94.7042,16.2167],[94.6929,16.2214],[94.6917,16.2167]],[[94.8134,16.2202],[94.8324,16.2173],[94.8333,16.2208],[94.8134,16.2202]],[[94.7967,16.2075],[94.7991,16.205],[94.8,16.2083],[94.7967,16.2075]],[[94.7925,16.195],[94.795,16.1925],[94.7958,16.1958],[94.7925,16.195]],[[94.7506,16.1323],[94.7564,16.1006],[94.7536,16.1299],[94.7826,16.1467],[94.7917,16.1875],[94.7786,16.152],[94.7506,16.1323]],[[94.6376,15.8819],[94.6366,15.8868],[94.6361,15.8869],[94.6376,15.8819]],[[95.0078,16.1616],[95.0172,16.1551],[95.0125,16.1667],[95.0078,16.1616]],[[94.9741,16.1494],[94.9542,16.1458],[94.975,16.1458],[94.9741,16.1494]],[[94.9801,16.1423],[94.9958,16.1417],[94.9792,16.1458],[94.9801,16.1423]],[[95.0042,16.1417],[95.0113,16.1369],[95.0125,16.1417],[95.0042,16.1417]],[[94.9491,16.1384],[94.9467,16.1408],[94.9458,16.1375],[94.9491,16.1384]],[[94.9417,16.1292],[94.9439,16.1256],[94.9464,16.128],[94.9417,16.1292]],[[94.9292,16.0958],[94.9375,16.1042],[94.9417,16.1208],[94.9384,16.12],[94.9292,16.0958]],[[94.9051,16.0911],[94.9241,16.0881],[94.925,16.0917],[94.9051,16.0911]],[[94.9125,16.05],[94.8991,16.0741],[94.8958,16.075],[94.9004,16.06],[94.9125,16.05]],[[94.9134,16.0425],[94.9158,16.045],[94.9125,16.0458],[94.9134,16.0425]],[[94.9087,16.0275],[94.9163,16.0309],[94.9167,16.0333],[94.9087,16.0275]],[[94.892,16.0108],[94.9038,16.0184],[94.9042,16.0208],[94.892,16.0108]],[[94.9402,15.9668],[94.9402,15.9669],[94.9401,15.9669],[94.9402,15.9668]],[[94.9454,15.9433],[94.9496,15.9437],[94.9485,15.9461],[94.9454,15.9433]],[[94.8288,15.9233],[94.8257,15.9051],[94.8292,15.9042],[94.8288,15.9233]],[[94.8455,15.86],[94.8379,15.8566],[94.8375,15.8542],[94.8455,15.86]],[[94.8375,15.8833],[94.8458,15.8667],[94.8493,15.8675],[94.8506,15.8759],[94.8375,15.8833]],[[95.2583,16.1542],[95.205,16.12],[95.2042,16.1167],[95.2583,16.1542]],[[95.3509,16.145],[95.3533,16.1425],[95.3542,16.1458],[95.3509,16.145]],[[95.1866,16.1158],[95.1842,16.1134],[95.1875,16.1125],[95.1866,16.1158]],[[95.1663,16.1354],[95.162,16.135],[95.1653,16.1333],[95.1663,16.1354]],[[95.1621,16.1437],[95.1579,16.1433],[95.1611,16.1417],[95.1621,16.1437]],[[95.325,16.0875],[95.3333,16.0938],[95.325,16.1],[95.325,16.0875]],[[95.3375,16.0667],[95.3464,16.0009],[95.3542,15.9875],[95.3589,16.0424],[95.3533,16.0661],[95.3375,16.0667]],[[95.2702,16.0157],[95.2673,15.9884],[95.2708,15.9875],[95.2702,16.0157]],[[95.2702,16.0259],[95.2673,16.0324],[95.2667,16.025],[95.2702,16.0259]],[[95.1621,16.0312],[95.1579,16.0308],[95.1611,16.0292],[95.1621,16.0312]],[[95.1486,16.0333],[95.1449,16.0381],[95.141,16.0343],[95.1486,16.0333]],[[95.2913,16.0517],[95.2837,16.0483],[95.2833,16.0458],[95.2913,16.0517]],[[95.1204,15.9641],[95.1246,15.9646],[95.1235,15.9669],[95.1204,15.9641]],[[97.2286,16.8607],[97.2339,16.8631],[97.2324,16.8705],[97.2286,16.8607]],[[97.3215,16.6741],[97.3243,16.6676],[97.325,16.675],[97.3215,16.6741]],[[97.6079,16.5558],[97.6121,16.5562],[97.611,16.5586],[97.6079,16.5558]],[[97.6462,16.5316],[97.6621,16.5392],[97.6625,16.55],[97.6462,16.5316]],[[97.6327,16.5009],[97.6411,16.5021],[97.6346,16.509],[97.6327,16.5009]],[[97.5533,16.4991],[97.5509,16.4967],[97.5542,16.4958],[97.5533,16.4991]],[[97.5592,16.509],[97.5704,16.5199],[97.5557,16.5256],[97.5592,16.509]],[[97.587,16.5141],[97.5913,16.5146],[97.5902,16.5169],[97.587,16.5141]],[[97.5368,16.534],[97.5327,16.5299],[97.5581,16.5325],[97.5368,16.534]],[[97.483,16.5104],[97.4787,16.51],[97.4819,16.5083],[97.483,16.5104]],[[97.7941,15.2004],[97.7938,15.2036],[97.7911,15.2012],[97.7941,15.2004]],[[97.9071,14.8242],[97.9069,14.8245],[97.9067,14.8246],[97.9071,14.8242]],[[97.9083,14.8167],[97.9117,14.8176],[97.908,14.8229],[97.9083,14.8167]],[[97.8926,14.7952],[97.8933,14.7907],[97.8976,14.7956],[97.8926,14.7952]],[[97.8882,14.7726],[97.8871,14.7758],[97.8869,14.7743],[97.8882,14.7726]],[[97.9369,14.7478],[97.9413,14.7531],[97.94,14.7589],[97.9369,14.7478]],[[97.995,14.657],[97.995,14.6575],[97.9944,14.6576],[97.995,14.657]],[[97.9675,14.4408],[97.97,14.4384],[97.9708,14.4417],[97.9675,14.4408]]],[[[94.9736,5.7875],[94.9723,5.7965],[94.9793,5.7947],[94.9736,5.7875]]],[[[95.0153,5.7542],[95.0077,5.7551],[95.0116,5.759],[95.0153,5.7542]]],[[[95.0673,5.6148],[95.0535,5.6051],[95.062,5.6173],[95.0673,5.6148]]],[[[95.0611,5.6208],[95.0551,5.641],[95.0867,5.6451],[95.0881,5.6357],[95.0611,5.6208]]],[[[95.1156,6.063],[95.1092,6.0549],[95.1079,6.0614],[95.1156,6.063]]],[[[95.1244,6.0729],[95.1077,6.0745],[95.1102,6.0798],[95.1244,6.0729]]],[[[95.2432,5.8868],[95.2575,5.8989],[95.2667,5.8596],[95.2953,5.841],[95.3007,5.8747],[95.3215,5.8801],[95.3077,5.8915],[95.3313,5.9035],[95.3742,5.8531],[95.3784,5.8044],[95.3502,5.8257],[95.3319,5.7708],[95.2794,5.78],[95.2532,5.8448],[95.2174,5.8719],[95.2148,5.909],[95.2432,5.8868]]],[[[93.8489,7.2921],[93.8425,7.284],[93.8412,7.2906],[93.8489,7.2921]]],[[[93.7256,7.2132],[93.709,7.2103],[93.7053,7.234],[93.7256,7.2132]]],[[[95.5239,4.6421],[95.5175,4.634],[95.5162,4.6406],[95.5239,4.6421]]],[[[95.1736,5.55],[95.1508,5.5507],[95.1499,5.5574],[95.1687,5.5661],[95.1736,5.55]]],[[[95.513,4.6883],[95.5077,4.6859],[95.5098,4.6923],[95.513,4.6883]]],[[[95.4921,4.722],[95.4801,4.7241],[95.4906,4.7295],[95.4921,4.722]]],[[[93.709,7.3967],[93.7051,7.4465],[93.7577,7.3604],[93.7282,7.3085],[93.6418,7.2427],[93.6202,7.3078],[93.634,7.3243],[93.6299,7.3743],[93.6598,7.3882],[93.6723,7.3743],[93.709,7.3967]]]]}}