{"type":"Feature","properties":{"speciesId":148,"category":"LC","source":"IUCN Red List","simplifyTol":0.01,"clippedToSubcontinent":true},"geometry":{"type":"MultiPolygon","coordinates":[[[[74.2486,14.6996],[74.246,14.702],[74.2488,14.7011],[74.2486,14.6996]]],[[[74.2345,14.7079],[74.2316,14.7096],[74.2353,14.7098],[74.2345,14.7079]]],[[[74.1444,14.721],[74.143,14.7232],[74.145,14.7222],[74.1444,14.721]]],[[[74.0764,15.94],[74.183,15.6204],[74.3961,15.4364],[74.4348,15.2524],[74.5026,15.0587],[74.6479,14.7971],[75.1612,14.187],[75.3065,13.9255],[75.384,13.2087],[75.3356,13.0635],[75.2581,12.9957],[74.9869,12.9957],[74.8222,13.0828],[74.7447,13.4412],[74.6169,13.8576],[74.522,14.0417],[74.3953,14.4186],[74.2823,14.6372],[74.2946,14.6402],[74.2695,14.6634],[74.2756,14.6779],[74.2537,14.7068],[74.2633,14.7094],[74.2647,14.7201],[74.2582,14.7122],[74.2215,14.7472],[74.1993,14.7176],[74.1765,14.7446],[74.1477,14.7464],[74.1341,14.7778],[74.105,14.7834],[74.0919,14.8042],[74.1171,14.8034],[74.1249,14.8405],[74.1079,14.8451],[74.0912,14.8945],[74.0474,14.9145],[74.0476,14.9848],[73.9215,15.0974],[73.9458,15.1408],[73.8949,15.3115],[73.8737,15.3601],[73.8095,15.4101],[73.8757,15.3984],[73.8899,15.4192],[73.8764,15.4337],[73.8584,15.4258],[73.845,15.4491],[73.7903,15.454],[73.8199,15.4996],[73.7744,15.4904],[73.6238,15.8436],[73.5838,15.9077],[73.5376,15.9339],[73.505,15.94],[73.4856,16.1337],[73.5728,16.1919],[73.8537,16.2306],[74.0474,16.1628],[74.0764,15.94]]],[[[74.1524,14.7386],[74.1492,14.7349],[74.1488,14.7389],[74.1524,14.7386]]],[[[74.0961,14.8432],[74.0918,14.8414],[74.0919,14.8455],[74.0961,14.8432]]],[[[74.1,14.8622],[74.0991,14.8645],[74.0999,14.8645],[74.1,14.8622]]],[[[74.0919,14.8759],[74.0891,14.8748],[74.0899,14.8778],[74.0919,14.8759]]],[[[73.5407,15.925],[73.5379,15.9247],[73.5395,15.9267],[73.5407,15.925]]]]}}