{"type":"Feature","properties":{"speciesId":16,"category":"LC","source":"IUCN Red List","simplifyTol":0.01,"clippedToSubcontinent":true},"geometry":{"type":"MultiPolygon","coordinates":[[[[80.6175,5.8808],[80.2966,6.0056],[80.1361,6.0947],[79.9757,6.3621],[79.8509,6.683],[79.8153,7.2535],[79.7618,7.5209],[79.8509,8.0557],[79.8331,8.5726],[80.1005,9.0361],[80.1183,9.2322],[80.1005,9.3392],[80.1896,9.5888],[79.9044,9.6779],[79.9935,9.8383],[80.2431,9.8383],[80.5996,9.4818],[81.1166,8.84],[81.2949,8.3765],[81.6514,7.7526],[81.8118,7.3426],[81.8118,6.8969],[81.7762,6.5761],[81.4731,6.3087],[81.0453,6.1482],[80.7244,6.0769],[80.6175,5.8808]]],[[[92.4919,26.5177],[94.3201,27.0484],[95.4406,27.5202],[95.9123,26.9305],[96.1482,25.9279],[96.738,25.3382],[97.5046,24.1588],[98.0,22.9774],[98.0,14.2968],[97.8584,14.7822],[97.6815,15.5488],[97.6815,16.0796],[97.2687,16.8462],[96.9149,17.2],[96.738,16.6693],[95.9713,16.3155],[95.3816,15.7847],[94.3201,16.0206],[94.6149,16.9642],[94.6149,17.4359],[94.0842,18.6154],[93.4355,19.6179],[93.0227,20.0897],[92.433,20.6204],[91.8432,21.4461],[91.8432,21.9178],[91.7253,22.3306],[91.4894,22.6255],[91.0176,22.3896],[90.6638,22.1537],[89.8705,21.9554],[90.5803,22.7856],[91.765,24.8786],[91.759,25.5884],[91.4069,25.7311],[89.2353,25.3258],[88.3326,25.0934],[85.582,25.1791],[84.1828,25.4932],[81.1562,26.3022],[80.8345,26.2901],[85.4875,22.7466],[85.1975,22.4642],[85.0674,22.2208],[85.1513,21.8859],[85.5469,21.4981],[85.9484,21.2673],[86.3767,21.5885],[86.5799,21.9146],[86.7051,21.8193],[86.6956,21.8669],[87.7044,21.9716],[88.3517,22.3332],[88.6903,22.3161],[89.1455,22.1822],[89.6066,21.9403],[89.7448,21.924],[89.2485,21.7999],[88.3049,21.7999],[88.01,21.8589],[87.3024,21.4461],[86.8896,21.1512],[86.9485,20.9153],[86.7716,20.2666],[86.3588,20.0897],[85.1204,19.5],[84.4127,18.7923],[83.882,18.2026],[83.4102,17.8487],[82.8205,17.4949],[82.2308,17.0231],[82.2897,16.7283],[81.9949,16.4334],[81.3462,16.3744],[80.9923,15.9616],[80.8154,15.7847],[80.5206,15.8437],[79.9898,15.3129],[79.9898,14.4873],[80.1078,13.8976],[80.4026,13.3668],[80.4026,12.954],[79.8719,12.1874],[79.8719,10.2413],[79.518,10.1234],[79.2232,10.0644],[78.8104,9.7106],[79.1052,9.3567],[78.5745,9.2388],[78.2796,9.0029],[78.0437,8.708],[77.6899,8.1773],[77.2181,8.0593],[76.8053,8.2362],[76.4515,8.826],[76.3335,9.5926],[76.0976,10.3593],[75.9207,10.831],[75.6259,11.3618],[75.2131,11.8336],[74.9182,12.7181],[74.6823,13.3668],[74.4464,14.1925],[73.9746,14.9591],[73.3259,15.9616],[73.4439,16.4334],[73.09,17.2],[73.149,17.6718],[72.7952,18.7923],[72.6183,19.5],[72.6183,20.0307],[72.7362,20.7974],[72.7362,21.1512],[72.5003,21.564],[72.5003,22.0947],[72.2644,22.0947],[72.2644,21.4461],[71.8516,21.0922],[71.144,20.7974],[70.6132,20.7384],[70.0825,21.0922],[70.031,21.1437],[70.0334,21.1748],[70.4981,22.1353],[72.0516,24.1616],[73.1323,25.0171],[73.4701,25.7376],[77.5728,30.2908],[78.2965,30.5299],[79.1642,29.9381],[80.4026,29.5253],[81.7,28.4638],[83.6461,28.1099],[85.4742,27.4023],[87.0075,27.1664],[89.0715,27.0484],[92.4919,26.5177]]]]}}