{"type":"Feature","properties":{"speciesId":165,"category":"LC","source":"IUCN Red List","simplifyTol":0.01,"clippedToSubcontinent":true},"geometry":{"type":"Polygon","coordinates":[[[82.1215,22.7817],[83.0589,22.7817],[85.142,22.504],[85.9578,22.5214],[86.6522,22.5561],[87.0515,22.6082],[87.3466,22.5214],[87.2945,22.1915],[86.9647,21.827],[86.496,20.6466],[86.2703,20.2647],[85.8363,20.0217],[85.385,19.9175],[84.7427,19.4488],[84.5518,19.0496],[84.274,18.7371],[83.4061,18.0948],[82.7985,17.7129],[81.7223,17.2616],[81.4619,17.4178],[81.3404,17.956],[81.2188,18.633],[80.2467,20.6987],[79.2052,21.0979],[77.4172,21.2542],[77.1048,21.2194],[76.9659,21.2889],[76.9138,21.4798],[77.1568,21.827],[77.4693,22.1221],[78.2331,22.4519],[79.2226,22.7991],[80.1773,22.8512],[80.5418,22.9553],[81.2536,22.9206],[82.1215,22.7817]]]}}