{"type":"Feature","properties":{"speciesId":170,"category":"NT","source":"IUCN Red List","simplifyTol":0.01,"clippedToSubcontinent":true},"geometry":{"type":"Polygon","coordinates":[[[77.7734,12.3283],[77.6973,12.4057],[77.502,12.7203],[77.4522,12.7727],[77.2791,12.8632],[77.1677,13.0467],[77.1494,13.1044],[77.1428,13.2289],[77.1507,13.2932],[77.1939,13.3836],[77.6908,13.3889],[77.7104,13.3731],[77.7301,13.2656],[77.7275,12.7976],[77.8625,12.4031],[77.8743,12.2903],[77.8402,12.2864],[77.7734,12.3283]]]}}