{"type":"Feature","properties":{"speciesId":174,"category":"LC","source":"IUCN Red List","simplifyTol":0.01,"clippedToSubcontinent":true},"geometry":{"type":"Polygon","coordinates":[[[71.0753,22.3723],[70.6266,22.5104],[69.8786,22.7981],[69.0385,23.0743],[68.5092,23.5576],[67.8878,24.3631],[67.324,24.7774],[66.3804,25.5599],[65.6209,26.5725],[65.3102,27.1824],[65.0685,27.7347],[64.942,28.3446],[64.965,28.897],[65.3102,29.5184],[66.9327,30.439],[67.9338,30.9683],[69.8441,31.7163],[70.3734,31.9924],[70.6726,32.05],[71.2364,32.0845],[71.5011,31.7508],[71.5586,31.256],[70.8567,30.1513],[69.8095,28.9315],[69.3838,27.7462],[69.3032,26.7221],[70.4194,25.8475],[70.7186,25.767],[72.088,25.6979],[72.7669,25.3642],[73.0201,25.0305],[73.0546,24.2595],[72.6058,23.408],[72.1225,22.9822],[71.8924,22.614],[71.7543,22.4759],[71.4896,22.3839],[71.0753,22.3723]]]}}