{"type":"Feature","properties":{"speciesId":176,"category":"LC","source":"IUCN Red List","simplifyTol":0.01,"clippedToSubcontinent":true},"geometry":{"type":"Polygon","coordinates":[[[71.2679,33.7657],[74.2613,33.8425],[76.7943,33.4971],[78.2909,32.9599],[78.4829,32.8447],[79.1353,31.3865],[79.1353,30.4653],[78.9435,30.1967],[78.0223,29.8129],[76.8327,29.8513],[75.8731,30.1199],[74.4531,30.3119],[73.9927,30.2735],[72.9949,30.0815],[70.6537,29.2757],[70.2701,28.8919],[69.4641,27.7789],[68.9269,26.7427],[68.9651,24.6703],[68.8885,24.3633],[68.7349,24.1329],[68.2089,23.7947],[68.2081,23.8373],[68.2221,23.8313],[68.2409,23.8495],[68.2557,23.8351],[68.2665,23.8389],[68.2573,23.8761],[68.2747,23.9179],[68.3065,23.9135],[68.3189,23.9237],[68.2745,23.9373],[68.2377,23.9001],[68.1857,23.8863],[68.1899,23.8511],[68.1361,23.8697],[68.1427,23.8407],[68.1035,23.8555],[68.1045,23.8433],[68.0761,23.8333],[68.0531,23.8539],[68.0555,23.9031],[68.0421,23.9119],[68.0277,23.8693],[68.0447,23.7949],[67.9963,23.7867],[67.9203,23.8517],[67.9299,23.8291],[67.8719,23.8587],[67.8653,23.9017],[67.9027,23.9647],[67.8939,23.9751],[67.8457,23.9093],[67.8275,23.8137],[67.7091,23.8563],[67.7503,23.8015],[67.6521,23.7947],[67.6269,23.8089],[67.6263,23.8425],[67.5841,23.8389],[67.5763,23.8891],[67.5651,23.8683],[67.5355,23.8931],[67.5343,23.8755],[67.4655,23.9067],[67.4627,23.9205],[67.4911,23.9139],[67.4855,23.9375],[67.4661,23.9455],[67.5007,23.9699],[67.4225,23.9449],[67.4361,23.9917],[67.4083,24.0001],[67.4219,24.0025],[67.4093,24.0393],[67.4381,24.0637],[67.4183,24.0873],[67.4489,24.1169],[67.4089,24.0841],[67.3921,24.0479],[67.3627,24.1325],[67.4119,24.1235],[67.4249,24.1293],[67.3829,24.1327],[67.3453,24.1559],[67.3349,24.1763],[67.3545,24.1829],[67.3347,24.2141],[67.3421,24.2353],[67.3625,24.2387],[67.4125,24.2297],[67.4209,24.2099],[67.4313,24.2215],[67.4317,24.2473],[67.4205,24.2173],[67.4143,24.2341],[67.3501,24.2543],[67.3613,24.2757],[67.3815,24.2733],[67.3947,24.2871],[67.3585,24.2839],[67.3259,24.2449],[67.2955,24.3011],[67.3299,24.3339],[67.3597,24.2907],[67.3387,24.3323],[67.3467,24.3429],[67.4109,24.3113],[67.4421,24.3161],[67.4491,24.3323],[67.4907,24.3219],[67.5147,24.3425],[67.5291,24.3345],[67.5125,24.3527],[67.4873,24.3263],[67.4573,24.3419],[67.4343,24.3227],[67.3665,24.3511],[67.3763,24.3907],[67.4177,24.3865],[67.4229,24.3605],[67.4279,24.3919],[67.4159,24.4015],[67.3605,24.3877],[67.3491,24.4005],[67.4169,24.4369],[67.4647,24.4235],[67.4727,24.4269],[67.3933,24.4499],[67.3763,24.4339],[67.3835,24.4545],[67.3609,24.4603],[67.4009,24.4845],[67.4219,24.4645],[67.4505,24.4601],[67.4551,24.4655],[67.4367,24.4789],[67.4213,24.4707],[67.4039,24.5065],[67.4121,24.5215],[67.3917,24.5153],[67.4023,24.4931],[67.3743,24.4721],[67.3425,24.4593],[67.3099,24.4623],[67.3257,24.4653],[67.3295,24.4857],[67.3525,24.4797],[67.3703,24.5305],[67.3975,24.5247],[67.3987,24.5469],[67.3683,24.5359],[67.3553,24.5461],[67.3807,24.5711],[67.4137,24.5857],[67.4397,24.5747],[67.4071,24.5895],[67.3235,24.5491],[67.3049,24.5525],[67.3151,24.5579],[67.2999,24.5823],[67.3203,24.5757],[67.3231,24.5907],[67.3711,24.6081],[67.3837,24.6377],[67.4143,24.6495],[67.4405,24.6405],[67.4533,24.6537],[67.4429,24.6479],[67.4203,24.6727],[67.4327,24.6983],[67.3933,24.7047],[67.3515,24.7423],[67.3495,24.7629],[67.4529,24.7761],[67.4671,24.7543],[67.4633,24.7761],[67.3755,24.7835],[67.3297,24.7713],[67.2457,24.7849],[67.2201,24.8141],[67.1749,24.7815],[67.1547,24.7937],[67.1245,24.7793],[67.1049,24.7977],[67.1023,24.7781],[67.0909,24.7921],[67.0931,24.7571],[67.0217,24.8083],[66.9759,24.8109],[66.9655,24.8415],[66.9825,24.8579],[66.9539,24.8611],[66.9123,24.8447],[66.9579,24.8259],[66.9793,24.7917],[66.8621,24.8569],[66.8191,24.8345],[66.7515,24.8437],[66.6833,24.8215],[66.6515,24.8293],[66.6843,24.8757],[66.7219,24.8931],[66.6871,24.8927],[66.6755,24.9237],[66.7005,24.9497],[66.7043,25.0827],[66.7387,25.1423],[66.7421,25.1833],[66.6783,25.2711],[66.5501,25.3653],[66.5553,25.3923],[66.5795,25.3729],[66.5783,25.4115],[66.5943,25.4251],[66.5601,25.4529],[66.5577,25.5381],[66.5289,25.5423],[66.5159,25.5635],[66.5429,25.6149],[66.5393,25.6443],[66.5029,25.5775],[66.4799,25.5879],[66.4673,25.5699],[66.4553,25.6195],[66.4455,25.5973],[66.3991,25.5837],[66.3677,25.6159],[66.3105,25.6101],[66.3003,25.6237],[66.2277,25.5901],[66.1901,25.5993],[66.1337,25.5443],[66.1329,25.5079],[66.0919,25.4797],[66.1957,25.4891],[66.2849,25.5421],[66.3141,25.5377],[66.3349,25.5533],[66.3581,25.5249],[66.3973,25.5217],[66.3943,25.5067],[66.4265,25.4827],[66.4753,25.4997],[66.5175,25.4921],[66.4929,25.4479],[66.5285,25.4159],[66.5133,25.4045],[66.3601,25.4601],[66.2765,25.4679],[66.0391,25.4267],[66.0237,25.4437],[66.0093,25.4369],[66.0177,25.4225],[65.9551,25.4131],[65.8387,25.4195],[65.7731,25.3835],[65.6357,25.3495],[65.5175,25.3713],[65.5435,25.4199],[65.5057,25.3761],[65.3711,25.3903],[65.3381,25.3807],[65.3191,25.3967],[65.2551,25.3823],[65.2263,25.3173],[65.1565,25.3061],[64.9955,25.3253],[64.8271,25.3191],[64.7807,25.3479],[64.7927,25.3239],[64.7263,25.3167],[64.6525,25.2733],[64.6403,25.2055],[64.7005,25.1867],[64.6623,25.1601],[64.5839,25.1605],[64.6111,25.2167],[64.5437,25.2705],[64.4061,25.2383],[64.3405,25.2769],[64.2393,25.3081],[64.2463,25.3325],[64.2233,25.3181],[64.0839,25.3295],[64.0929,25.3665],[64.1175,25.3649],[64.0811,25.3967],[64.1419,25.4113],[64.1381,25.4323],[64.1651,25.4533],[64.1243,25.4391],[64.1175,25.4545],[64.0641,25.4453],[64.0475,25.4315],[64.0287,25.4651],[64.0287,25.4441],[63.9917,25.4255],[64.0201,25.4241],[64.0059,25.4067],[63.9745,25.4235],[63.9675,25.4073],[63.9913,25.4099],[64.0043,25.3843],[64.0209,25.4095],[64.0361,25.4061],[64.0721,25.3633],[64.0643,25.3283],[63.9297,25.3371],[63.7581,25.3789],[63.6059,25.3707],[63.5357,25.3457],[63.4811,25.2845],[63.4561,25.2953],[63.5041,25.2263],[63.4927,25.1983],[63.1395,25.2579],[63.0071,25.2107],[62.6949,25.2595],[62.4945,25.2529],[62.4637,25.2365],[62.4707,25.2127],[62.4119,25.2055],[62.3563,25.1699],[62.3395,25.1133],[62.3897,25.1039],[62.3769,25.0963],[62.2691,25.1011],[62.3203,25.1205],[62.3149,25.1687],[62.2651,25.2049],[62.2035,25.2151],[62.0735,25.1785],[62.0665,25.1549],[62.0985,25.0963],[61.9847,25.1097],[61.8747,25.1027],[61.8595,25.0961],[61.8451,25.0435],[61.7645,25.0329],[61.7243,25.0541],[61.7575,25.0983],[61.7477,25.1321],[61.7691,25.1241],[61.7831,25.1419],[61.7791,25.1927],[61.7523,25.1687],[61.6899,25.2053],[61.6593,25.1869],[61.6337,25.2029],[61.5693,25.1847],[61.6035,25.2031],[61.5629,25.2177],[61.5703,25.2397],[61.5355,25.2377],[61.5557,25.2193],[61.5285,25.2071],[61.5555,25.1929],[61.4543,25.1853],[61.4921,25.1589],[61.4743,25.1073],[61.4051,25.0877],[61.4147,25.0641],[61.1805,25.1259],[61.1673,25.1667],[61.0615,25.2021],[60.7419,25.2731],[60.6059,25.2885],[60.6205,25.3073],[60.5911,25.3521],[60.6039,25.3785],[60.5933,25.4163],[60.5317,25.4465],[60.4297,25.4203],[60.4005,25.3801],[60.3961,25.3505],[60.4467,25.3325],[60.4393,25.3189],[60.4587,25.2925],[60.4147,25.3185],[60.3057,25.3401],[60.2947,25.3895],[60.3257,25.3705],[60.3043,25.4029],[60.2015,25.3783],[60.1853,25.3525],[60.2071,25.3345],[60.1971,25.3287],[60.1103,25.3519],[60.1081,25.3735],[60.0877,25.3821],[60.0,25.3823],[60.0,32.8992],[61.3279,32.5761],[64.0529,32.4609],[66.3939,32.8063],[68.5047,33.3053],[69.8095,33.4971],[71.2679,33.7657]]]}}