{"type":"Feature","properties":{"speciesId":180,"category":"LC","source":"IUCN Red List","simplifyTol":0.01,"clippedToSubcontinent":true},"geometry":{"type":"MultiPolygon","coordinates":[[[[97.5884,5.1511],[97.5765,5.1602],[97.5769,5.1653],[97.5884,5.1511]]],[[[96.2986,4.0003],[96.1857,4.125],[96.0091,4.2231],[95.8283,4.4206],[95.5311,4.6828],[95.3709,4.9479],[95.3817,4.9568],[95.3555,4.9993],[95.3623,5.0193],[95.2852,5.1151],[95.3067,5.1271],[95.3055,5.1652],[95.2322,5.2831],[95.2555,5.4058],[95.227,5.4835],[95.2336,5.5699],[95.2424,5.5512],[95.2806,5.5506],[95.3247,5.5899],[95.3527,5.5887],[95.428,5.6544],[95.4651,5.6437],[95.5107,5.5957],[95.6091,5.6267],[95.6729,5.5857],[95.879,5.5067],[95.9042,5.427],[96.0735,5.2928],[96.3882,5.2148],[96.5814,5.2072],[96.6916,5.2278],[96.8085,5.2739],[96.8553,5.2775],[96.8303,5.2714],[96.8998,5.2516],[96.9753,5.2665],[97.0818,5.2327],[97.1454,5.2],[97.1432,5.1623],[97.1981,5.1461],[97.5013,5.2528],[97.5468,5.2151],[97.5273,5.2057],[97.57,5.1904],[97.5722,5.1386],[97.6017,5.1419],[97.648,5.0751],[97.806,4.9341],[97.9036,4.8846],[97.9619,4.7262],[97.9615,4.668],[98.0,4.6047],[97.9604,4.5316],[97.9823,4.5447],[98.0,4.5268],[98.0,4.0],[96.2986,4.0003]]],[[[95.2152,5.9044],[95.2949,5.837],[95.2997,5.8668],[95.3217,5.8814],[95.313,5.8913],[95.3331,5.8926],[95.3736,5.847],[95.3742,5.8025],[95.3454,5.8252],[95.3365,5.7755],[95.2925,5.7856],[95.2177,5.8817],[95.2152,5.9044]]],[[[93.6826,6.7839],[93.6669,6.801],[93.6838,6.8161],[93.6991,6.7994],[93.6826,6.7839]]],[[[93.7206,7.2031],[93.715,7.2012],[93.7205,7.2034],[93.7206,7.2031]]],[[[93.8348,7.2369],[93.8821,7.197],[93.897,7.0791],[93.9251,7.0201],[93.9547,6.9984],[93.9206,6.9981],[93.95,6.9522],[93.9282,6.9466],[93.924,6.9097],[93.9074,6.8998],[93.9004,6.8466],[93.9191,6.8288],[93.9137,6.8025],[93.8934,6.7908],[93.8853,6.8065],[93.8663,6.8033],[93.8397,6.7471],[93.8175,6.7602],[93.8267,6.8034],[93.7974,6.8258],[93.8052,6.8429],[93.7851,6.866],[93.7998,6.8743],[93.773,6.9125],[93.7605,6.9036],[93.7512,6.9152],[93.7477,6.9585],[93.6883,7.0176],[93.6598,7.0112],[93.6711,7.0319],[93.6573,7.0934],[93.6718,7.1098],[93.6536,7.12],[93.678,7.1442],[93.6723,7.1738],[93.6879,7.1853],[93.7329,7.1823],[93.7622,7.2069],[93.8033,7.1959],[93.8043,7.2255],[93.8348,7.2369]]],[[[94.1996,7.3339],[94.1839,7.351],[94.2008,7.3661],[94.2161,7.3494],[94.1996,7.3339]]],[[[93.6964,7.4177],[93.7348,7.363],[93.7273,7.324],[93.6392,7.2487],[93.6147,7.3039],[93.6295,7.3143],[93.6236,7.3685],[93.6613,7.3675],[93.702,7.3899],[93.691,7.401],[93.6964,7.4177]]],[[[93.6969,7.4228],[93.6923,7.4307],[93.6938,7.4366],[93.6969,7.4228]]],[[[94.3826,7.6009],[94.3669,7.618],[94.3838,7.6331],[94.3992,7.6164],[94.3826,7.6009]]],[[[94.2166,7.6339],[94.2009,7.651],[94.2178,7.6661],[94.2332,7.6494],[94.2166,7.6339]]],[[[94.1496,7.6509],[94.1339,7.668],[94.1508,7.6831],[94.1662,7.6664],[94.1496,7.6509]]],[[[94.2826,7.6509],[94.2669,7.668],[94.2838,7.6831],[94.2992,7.6664],[94.2826,7.6509]]],[[[93.4042,8.0017],[93.4055,7.9631],[93.4593,7.93],[93.4641,7.8666],[93.4193,7.899],[93.382,7.8756],[93.3568,7.8827],[93.3456,7.9032],[93.3617,7.9295],[93.3457,7.943],[93.3299,7.9122],[93.3151,7.9387],[93.3343,8.0054],[93.3713,8.0189],[93.4042,8.0017]]],[[[93.5262,8.0229],[93.5448,7.9988],[93.5413,8.0197],[93.5585,8.0212],[93.5755,7.9936],[93.5728,7.9256],[93.5072,7.98],[93.5262,8.0229]]],[[[93.5817,8.1185],[93.5964,8.0474],[93.5871,8.0374],[93.5698,8.0591],[93.5712,8.0722],[93.5845,8.0634],[93.5689,8.0914],[93.5767,8.112],[93.559,8.1088],[93.5605,8.1196],[93.5817,8.1185]]],[[[93.5349,8.1763],[93.513,8.1811],[93.4996,8.1446],[93.5465,8.0824],[93.5445,8.0392],[93.5269,8.047],[93.5052,8.0296],[93.4994,7.9923],[93.484,8.0109],[93.4839,8.0886],[93.4623,8.1053],[93.4713,8.1206],[93.4564,8.1165],[93.4513,8.1697],[93.4878,8.1987],[93.4908,8.2198],[93.5188,8.2298],[93.5382,8.2269],[93.5349,8.1763]]],[[[93.221,8.2279],[93.1996,8.2409],[93.2058,8.2633],[93.2216,8.249],[93.221,8.2279]]],[[[93.1143,8.3577],[93.1148,8.275],[93.1821,8.2281],[93.1834,8.201],[93.1097,8.2255],[93.0744,8.2767],[93.0828,8.3384],[93.1143,8.3577]]],[[[93.0432,8.4447],[93.034,8.4525],[93.0424,8.4642],[93.0432,8.4447]]],[[[93.6254,8.4637],[93.6118,8.4665],[93.6052,8.4193],[93.5951,8.5693],[93.6254,8.4637]]],[[[92.7975,9.2232],[92.8122,9.1633],[92.7971,9.1333],[92.7205,9.1339],[92.7128,9.2103],[92.7605,9.2171],[92.7647,9.2582],[92.7975,9.2232]]],[[[93.3496,9.3509],[93.3338,9.368],[93.3508,9.3831],[93.3662,9.3664],[93.3496,9.3509]]],[[[92.5305,10.8672],[92.5769,10.7008],[92.5629,10.6502],[92.5231,10.6121],[92.5361,10.5758],[92.4953,10.5194],[92.4596,10.5154],[92.4121,10.5461],[92.368,10.5374],[92.4001,10.6138],[92.3897,10.6486],[92.3643,10.6685],[92.36,10.7812],[92.3972,10.7866],[92.4129,10.8212],[92.4438,10.8362],[92.446,10.8639],[92.4832,10.8872],[92.5044,10.895],[92.5305,10.8672]]],[[[92.6961,11.4248],[92.6624,11.4038],[92.702,11.3886],[92.6762,11.3621],[92.6266,11.3536],[92.6005,11.3701],[92.6072,11.3984],[92.6359,11.4002],[92.6249,11.4622],[92.6432,11.5097],[92.6788,11.4842],[92.6961,11.4248]]],[[[92.6142,11.908],[92.6079,11.9093],[92.615,11.9156],[92.6142,11.908]]],[[[92.6154,11.9245],[92.6172,11.9282],[92.6172,11.9271],[92.6154,11.9245]]],[[[92.7388,11.9356],[92.7362,11.9478],[92.7436,11.9543],[92.7388,11.9356]]],[[[92.7595,11.9398],[92.7483,11.953],[92.7713,11.9617],[92.7741,11.949],[92.7595,11.9398]]],[[[92.7655,11.9855],[92.7473,11.9726],[92.7453,11.9802],[92.7655,11.9855]]],[[[92.7769,11.9923],[92.7686,11.9989],[92.7739,12.0047],[92.7769,11.9923]]],[[[92.7098,12.2343],[92.7229,12.1693],[92.7661,12.1792],[92.7487,12.0915],[92.7499,12.0746],[92.7701,12.0201],[92.7473,12.0347],[92.7412,12.0183],[92.7649,11.997],[92.7344,11.9874],[92.7453,11.964],[92.7282,11.9525],[92.7249,11.9246],[92.7887,11.9361],[92.7958,11.9019],[92.7702,11.7022],[92.7534,11.7164],[92.7444,11.6818],[92.767,11.6665],[92.7605,11.6156],[92.7175,11.4928],[92.7099,11.5102],[92.6744,11.5139],[92.6571,11.578],[92.6411,11.5863],[92.6398,11.5691],[92.6193,11.6028],[92.6231,11.6178],[92.6512,11.6092],[92.6588,11.6434],[92.6494,11.6366],[92.6455,11.6596],[92.6397,11.6289],[92.6221,11.633],[92.6064,11.7099],[92.583,11.6999],[92.5647,11.7492],[92.5571,11.829],[92.536,11.8267],[92.5277,11.8491],[92.5488,11.9079],[92.5716,11.9263],[92.6025,11.8786],[92.6244,11.9203],[92.6533,12.1723],[92.7098,12.2343]]],[[[92.8835,12.2194],[92.8794,12.2333],[92.8885,12.244],[92.8904,12.2372],[92.8835,12.2194]]],[[[92.8771,12.2441],[92.8699,12.2417],[92.8752,12.2468],[92.8771,12.2441]]],[[[92.7952,12.3171],[92.8931,12.2807],[92.8963,12.2556],[92.8665,12.2446],[92.8734,12.1936],[92.8597,12.2015],[92.8575,12.1639],[92.8281,12.1586],[92.815,12.1019],[92.7543,12.0713],[92.768,12.1771],[92.7904,12.202],[92.7553,12.2798],[92.789,12.2753],[92.7952,12.3171]]],[[[97.9935,12.2883],[97.9515,12.3267],[97.9786,12.3388],[97.9686,12.3623],[97.9421,12.3359],[97.9746,12.3869],[97.9765,12.3649],[98.0,12.3864],[97.9935,12.2883]]],[[[92.9286,12.9092],[92.9119,12.8845],[92.9347,12.8837],[92.9609,12.8074],[92.9438,12.7715],[92.9701,12.7532],[92.9867,12.7118],[92.972,12.7042],[92.963,12.6164],[92.9835,12.5448],[92.9782,12.4943],[92.9701,12.4848],[92.9547,12.4977],[92.9416,12.4653],[92.9665,12.4718],[92.9475,12.446],[92.9267,12.4451],[92.9319,12.4184],[92.9006,12.4483],[92.8487,12.4281],[92.8941,12.3217],[92.8674,12.3063],[92.7912,12.3192],[92.7589,12.305],[92.7358,12.3137],[92.7139,12.3575],[92.7414,12.6439],[92.756,12.6641],[92.7442,12.6669],[92.7549,12.7161],[92.7364,12.8097],[92.7749,12.8553],[92.7846,12.8392],[92.7792,12.8598],[92.7997,12.8622],[92.8133,12.8951],[92.8758,12.8845],[92.9286,12.9092]]],[[[92.8706,12.9343],[92.8802,12.9174],[92.8664,12.9297],[92.8706,12.9343]]],[[[93.0301,13.3005],[93.0238,13.3123],[93.0272,13.327],[93.0326,13.3235],[93.0301,13.3005]]],[[[93.0798,13.4096],[93.0766,13.4155],[93.0783,13.4198],[93.0798,13.4096]]],[[[93.0486,13.532],[93.0313,13.4264],[93.0571,13.3998],[93.071,13.4117],[93.077,13.3998],[93.057,13.3699],[93.068,13.3762],[93.0762,13.3498],[93.0715,13.3049],[93.0652,13.323],[93.0493,13.3207],[93.0551,13.3434],[93.0489,13.3622],[93.0492,13.3458],[93.0125,13.3479],[92.997,13.3327],[93.0011,13.3111],[93.0174,13.3157],[93.0298,13.2917],[93.0187,13.2773],[93.0525,13.2773],[93.0538,13.2552],[93.0669,13.2607],[93.0423,13.1752],[93.0383,13.0637],[93.0176,13.0341],[92.9877,13.0262],[92.96,13.0375],[92.9605,13.0797],[92.9301,13.064],[92.8879,12.9505],[92.8622,12.9326],[92.8621,12.9101],[92.8817,12.8942],[92.8159,12.8985],[92.8081,12.9889],[92.8246,12.9816],[92.8105,12.9954],[92.8338,13.0086],[92.8074,13.0081],[92.808,13.0522],[92.819,13.1003],[92.8299,13.0949],[92.824,13.1244],[92.8489,13.1246],[92.8524,13.1401],[92.8286,13.147],[92.8417,13.1687],[92.8358,13.2356],[92.8585,13.2366],[92.8374,13.266],[92.8407,13.3275],[92.8608,13.3701],[92.8851,13.3791],[92.9003,13.4347],[92.8925,13.465],[92.9314,13.494],[92.9209,13.5042],[92.9366,13.532],[92.9711,13.5387],[92.9934,13.5246],[92.9952,13.5646],[93.0176,13.5422],[93.0292,13.5706],[93.0486,13.532]]]]}}