{"type":"Feature","properties":{"speciesId":181,"category":"EN","source":"IUCN Red List","simplifyTol":0.01,"clippedToSubcontinent":true},"geometry":{"type":"Polygon","coordinates":[[[77.2901,9.619],[77.341,9.7208],[77.4886,9.8176],[77.5854,9.8227],[77.6007,9.7921],[77.6414,9.7717],[77.6414,9.7208],[77.621,9.6801],[77.4937,9.5884],[77.4836,9.5477],[77.4377,9.5121],[77.3919,9.4153],[77.2595,9.3695],[77.1628,9.4357],[77.0966,9.5171],[77.0711,9.6495],[77.0711,9.7514],[77.1322,9.9602],[77.2799,10.1282],[77.4326,10.1333],[77.4988,10.0976],[77.3461,9.9602],[77.2901,9.8838],[77.2799,9.7717],[77.2035,9.6241],[77.2901,9.619]]]}}