{"type":"Feature","properties":{"speciesId":182,"category":"LC","source":"IUCN Red List","simplifyTol":0.01,"clippedToSubcontinent":true},"geometry":{"type":"MultiPolygon","coordinates":[[[[93.0434,13.1598],[93.0427,13.0787],[93.0156,13.0284],[92.9744,13.0348],[92.9736,13.0111],[92.9476,13.0372],[92.9494,13.0607],[92.9259,13.0594],[92.9073,13.0177],[92.9283,12.9817],[92.943,12.9856],[92.9392,12.9574],[92.9166,12.947],[92.9054,12.9924],[92.8816,12.9386],[92.8622,12.9326],[92.8621,12.9101],[92.8832,12.9081],[92.8818,12.8933],[92.9044,12.8971],[92.9053,12.9217],[92.9301,12.9108],[92.9119,12.8845],[92.9347,12.8837],[92.9492,12.8533],[92.9607,12.8039],[92.9439,12.7715],[92.9701,12.7532],[92.9867,12.7118],[92.972,12.7042],[92.963,12.6164],[92.9828,12.5308],[92.9701,12.4848],[92.9547,12.4977],[92.9416,12.4653],[92.9662,12.4724],[92.9471,12.4461],[92.9267,12.4451],[92.9339,12.4269],[92.8901,12.3769],[92.8936,12.3165],[92.8681,12.3119],[92.8931,12.2807],[92.8963,12.2556],[92.8666,12.2446],[92.8891,12.1885],[92.8597,12.2014],[92.8575,12.1639],[92.8281,12.1586],[92.8124,12.1299],[92.8178,12.1007],[92.8049,12.1042],[92.8001,12.0811],[92.77,12.0633],[92.7686,12.0479],[92.793,12.0402],[92.7888,12.0238],[92.7489,12.035],[92.7412,12.0183],[92.7649,11.997],[92.7344,11.9874],[92.7453,11.964],[92.7282,11.9525],[92.7249,11.9246],[92.7935,11.9323],[92.7989,11.8557],[92.7702,11.7022],[92.7534,11.7164],[92.7444,11.6818],[92.7682,11.6628],[92.7355,11.5145],[92.6703,11.5137],[92.6579,11.5228],[92.6571,11.578],[92.6411,11.5863],[92.6339,11.5639],[92.6191,11.6021],[92.6231,11.6178],[92.6512,11.6092],[92.6588,11.6434],[92.6494,11.6366],[92.6455,11.6596],[92.6397,11.6289],[92.6222,11.6329],[92.5993,11.7157],[92.5723,11.6971],[92.5571,11.8291],[92.5342,11.8264],[92.526,11.8449],[92.5374,11.89],[92.5741,11.9336],[92.6025,11.8786],[92.6244,11.9202],[92.6201,12.0029],[92.6383,12.0382],[92.6309,12.0922],[92.6529,12.1793],[92.6696,12.2162],[92.662,12.1797],[92.6836,12.2184],[92.6872,12.1956],[92.7243,12.307],[92.7085,12.3296],[92.7149,12.4894],[92.7026,12.5079],[92.7174,12.5638],[92.6939,12.5977],[92.7153,12.6075],[92.7252,12.6362],[92.7287,12.6197],[92.7426,12.6302],[92.756,12.6641],[92.7364,12.6838],[92.7549,12.7161],[92.7273,12.8158],[92.7383,12.834],[92.7466,12.8117],[92.7693,12.859],[92.7846,12.8392],[92.7786,12.8607],[92.7997,12.8622],[92.816,12.8983],[92.8015,12.9766],[92.8071,12.9891],[92.8246,12.9816],[92.8106,12.9954],[92.8338,13.0086],[92.7973,13.0152],[92.8049,13.089],[92.8178,13.0731],[92.8121,13.0953],[92.8299,13.0949],[92.8173,13.1249],[92.8505,13.1295],[92.8479,13.1453],[92.8196,13.1521],[92.8222,13.1689],[92.8417,13.1687],[92.8251,13.1786],[92.8373,13.2129],[92.8853,13.2535],[92.968,13.2618],[93.0115,13.2328],[93.0434,13.1598]]],[[[92.9368,13.023],[92.9474,13.0167],[92.948,12.9944],[92.927,13.0044],[92.9368,13.023]]],[[[92.9874,12.9643],[92.986,12.9332],[92.9602,12.9777],[92.9697,12.9873],[92.9796,12.9702],[93.0111,12.9971],[92.9874,12.9643]]],[[[92.9668,12.9465],[92.9727,12.9422],[92.9571,12.9376],[92.9668,12.9465]]],[[[92.8664,12.9297],[92.8927,12.9321],[92.8974,12.9269],[92.88,12.9174],[92.8664,12.9297]]],[[[92.7841,12.9289],[92.7792,12.9305],[92.7806,12.9338],[92.7841,12.9289]]],[[[92.8076,12.9003],[92.7941,12.8911],[92.7835,12.9089],[92.7977,12.9149],[92.8076,12.9003]]],[[[92.7319,12.7436],[92.7257,12.7518],[92.7185,12.7176],[92.7065,12.7898],[92.7189,12.8095],[92.7319,12.7436]]],[[[92.7323,12.7769],[92.7289,12.7694],[92.7277,12.7849],[92.7323,12.7769]]],[[[92.6943,12.5319],[92.6806,12.5209],[92.6825,12.5357],[92.6943,12.5319]]],[[[92.9053,12.2502],[92.915,12.2256],[92.8974,12.2276],[92.8875,12.2058],[92.8811,12.2404],[92.8957,12.2347],[92.9053,12.2502]]],[[[92.8771,12.2441],[92.8699,12.2417],[92.8752,12.2468],[92.8771,12.2441]]],[[[92.7799,11.991],[92.7686,11.9989],[92.7732,12.0045],[92.7786,12.0034],[92.7799,11.991]]],[[[92.7656,11.9855],[92.7473,11.9726],[92.7453,11.9802],[92.7656,11.9855]]],[[[92.6142,11.9227],[92.6001,11.9685],[92.6022,11.9718],[92.6155,11.9568],[92.6142,11.9227]]],[[[92.7595,11.9398],[92.7483,11.953],[92.7713,11.9617],[92.7741,11.949],[92.7595,11.9398]]],[[[92.7387,11.9356],[92.7362,11.9478],[92.7436,11.9543],[92.7387,11.9356]]],[[[92.6142,11.908],[92.6079,11.9095],[92.615,11.9156],[92.6142,11.908]]],[[[92.7737,11.6698],[92.7687,11.6757],[92.7773,11.6786],[92.7737,11.6698]]],[[[92.58,11.5845],[92.5793,11.5856],[92.5802,11.5851],[92.58,11.5845]]],[[[92.614,11.5691],[92.6272,11.5762],[92.6237,11.56],[92.614,11.5691]]],[[[92.6085,11.5444],[92.598,11.558],[92.6014,11.5723],[92.6071,11.5669],[92.6085,11.5444]]],[[[92.6268,11.5308],[92.6174,11.547],[92.6266,11.5566],[92.6314,11.5518],[92.6268,11.5308]]]]}}