{"type":"Feature","properties":{"speciesId":183,"category":"LC","source":"IUCN Red List","simplifyTol":0.01,"clippedToSubcontinent":true},"geometry":{"type":"MultiPolygon","coordinates":[[[[75.0102,15.5389],[75.146,14.9958],[75.2274,13.9909],[75.5262,13.1219],[75.8249,12.4701],[76.2594,12.0627],[76.6668,11.8726],[76.9655,11.7911],[77.3186,11.7911],[77.4544,11.764],[77.5902,11.4652],[77.4272,11.1937],[77.4272,10.4604],[77.5358,9.021],[77.6716,8.3421],[77.7531,8.2063],[77.4786,8.0815],[77.4199,8.0949],[76.9927,8.3964],[76.8439,8.558],[76.6206,8.8431],[76.5464,8.8985],[76.5204,8.9993],[76.4617,9.1312],[76.497,9.067],[76.4753,9.1197],[76.4848,9.1159],[76.4921,9.1672],[76.4748,9.1621],[76.4709,9.1412],[76.4405,9.2326],[76.4196,9.2432],[76.4551,9.1423],[76.4045,9.2516],[76.3072,9.5544],[76.2446,9.9545],[76.2086,10.0281],[76.178,10.1617],[75.7706,11.2751],[75.6866,11.4353],[75.5664,11.6151],[75.5294,11.6966],[75.5386,11.7048],[75.4917,11.7339],[75.4716,11.769],[75.451,11.7697],[75.3893,11.8467],[75.3588,11.8537],[75.3004,11.9467],[75.2377,12.0138],[75.2201,12.0107],[75.0296,12.3922],[75.0386,12.4111],[75.0229,12.3997],[75.0063,12.4371],[75.0154,12.4444],[74.9979,12.4456],[74.963,12.5147],[74.8336,12.8147],[74.6819,13.4903],[74.6657,13.6381],[74.6428,13.6709],[74.6058,13.8523],[74.6169,13.8576],[74.5955,13.8754],[74.5756,13.9638],[74.4147,14.2874],[74.3953,14.4186],[74.3765,14.4165],[74.3538,14.5117],[74.3052,14.5196],[74.2912,14.5931],[74.2635,14.6245],[74.2946,14.6402],[74.2751,14.6467],[74.2756,14.6779],[74.2537,14.7068],[74.2633,14.7094],[74.2647,14.7201],[74.2582,14.7122],[74.2215,14.7472],[74.1985,14.7181],[73.9276,15.2042],[73.8737,15.3601],[73.8393,15.3606],[73.8115,15.4103],[73.8757,15.3984],[73.8899,15.4192],[73.8764,15.4337],[73.8584,15.4258],[73.845,15.4491],[73.7875,15.456],[73.8177,15.5046],[73.7697,15.49],[73.6872,15.7154],[73.6509,15.7384],[73.655,15.7734],[73.6238,15.8436],[73.5838,15.9077],[73.5371,15.934],[73.5165,15.9734],[73.4622,16.1635],[73.4079,16.4623],[73.4893,16.6524],[73.6251,16.761],[73.8424,16.761],[74.3041,16.7067],[74.5485,16.4894],[74.7929,16.1092],[75.0102,15.5389]]],[[[74.2486,14.6996],[74.246,14.702],[74.2488,14.7011],[74.2486,14.6996]]],[[[74.2345,14.7079],[74.2316,14.7096],[74.2353,14.7098],[74.2345,14.7079]]]]}}