{"type":"Feature","properties":{"speciesId":184,"category":"LC","source":"IUCN Red List","simplifyTol":0.01,"clippedToSubcontinent":true},"geometry":{"type":"Polygon","coordinates":[[[97.4494,26.4084],[95.3325,27.209],[93.3426,25.9539],[92.256,26.0598],[91.2947,26.1128],[90.3083,26.1072],[89.5082,26.2334],[88.7478,26.5761],[88.4678,26.8322],[88.8347,26.9081],[89.4276,26.5818],[90.3593,26.7083],[91.3345,26.7774],[92.1475,26.7611],[92.6648,26.9561],[92.393,27.8038],[93.0029,28.2601],[93.6627,28.6737],[94.1516,29.2217],[94.5814,29.4858],[94.8228,29.4747],[95.1776,29.3948],[95.1391,28.9984],[95.1658,28.1597],[97.0575,27.7441],[98.0,27.3252],[98.0,27.0061],[97.4494,26.4084]]]}}