{"type":"Feature","properties":{"speciesId":185,"category":"VU","source":"IUCN Red List","simplifyTol":0.01,"clippedToSubcontinent":true},"geometry":{"type":"Polygon","coordinates":[[[80.5608,6.1434],[80.4683,6.2277],[80.3245,6.4144],[80.2782,6.4458],[80.0716,6.5086],[80.06,6.5566],[80.1923,6.8227],[80.3493,6.902],[80.3608,6.9351],[80.3625,7.0359],[80.3212,7.254],[80.3228,7.3218],[80.3443,7.3747],[80.4038,7.4325],[80.5195,7.5069],[80.6402,7.5334],[80.7674,7.5383],[80.8038,7.5102],[80.8269,7.4656],[80.8914,7.2921],[80.8749,7.2177],[80.7922,7.1516],[80.5757,7.0243],[80.5542,6.9797],[80.5575,6.9251],[80.5873,6.8623],[80.5939,6.7913],[80.4517,6.6838],[80.4104,6.5814],[80.4551,6.4607],[80.6286,6.1715],[80.5988,6.1384],[80.5608,6.1434]]]}}