{"type":"Feature","properties":{"speciesId":186,"category":"DD","source":"IUCN Red List","simplifyTol":0.01,"clippedToSubcontinent":true},"geometry":{"type":"MultiPolygon","coordinates":[[[[77.14,8.5729],[76.9934,8.6333],[76.8554,8.7454],[76.5276,9.3406],[76.4586,9.4786],[76.45,9.6425],[76.4758,9.7201],[76.5381,9.7635],[76.5862,9.7635],[76.7087,9.677],[76.9416,9.3923],[77.0537,9.1594],[77.1486,9.0214],[77.2349,8.9352],[77.3211,8.8834],[77.3901,8.7368],[77.3901,8.6333],[77.3211,8.5729],[77.14,8.5729]]],[[[74.6903,13.9984],[74.6213,14.0416],[74.5782,14.1106],[74.5523,14.1796],[74.5523,14.2658],[74.5633,14.3452],[74.5938,14.4081],[74.6644,14.4729],[74.7248,14.4729],[74.7766,14.4556],[74.8283,14.4125],[74.837,14.3435],[74.8283,14.2658],[74.7679,14.1623],[74.7852,14.0502],[74.7552,14.0122],[74.6903,13.9984]]]]}}