{"type":"Feature","properties":{"speciesId":187,"category":"LC","source":"IUCN Red List","simplifyTol":0.01,"clippedToSubcontinent":true},"geometry":{"type":"MultiPolygon","coordinates":[[[[89.2938,21.6925],[89.2953,21.6711],[89.2517,21.6457],[89.1998,21.6592],[89.2319,21.7014],[89.2199,21.7399],[89.2401,21.7552],[89.2917,21.7472],[89.2843,21.7036],[89.2613,21.6969],[89.2938,21.6925]]],[[[89.3542,21.7008],[89.3353,21.6995],[89.3422,21.7214],[89.3542,21.7008]]],[[[90.3603,21.7406],[90.3554,21.7449],[90.3622,21.7465],[90.3603,21.7406]]],[[[90.4497,21.7657],[90.4467,21.7712],[90.4519,21.7673],[90.4497,21.7657]]],[[[89.5645,21.7421],[89.5312,21.8231],[89.5459,21.8493],[89.6102,21.7968],[89.5922,21.7519],[89.6231,21.7109],[89.5611,21.7135],[89.5645,21.7421]]],[[[89.7806,21.8233],[89.783,21.8145],[89.7733,21.8198],[89.7806,21.8233]]],[[[89.1372,21.7724],[89.1522,21.7414],[89.1288,21.7182],[89.0518,21.7859],[89.0677,21.8585],[89.0313,21.9071],[89.0387,21.9233],[89.0635,21.9278],[89.0935,21.7971],[89.1372,21.7724]]],[[[90.4151,21.8238],[90.4365,21.8359],[90.4438,21.8237],[90.4151,21.8238]]],[[[89.3482,21.7823],[89.3406,21.8292],[89.3284,21.8442],[89.3367,21.8217],[89.3256,21.8209],[89.3226,21.8485],[89.3747,21.8824],[89.3482,21.7823]]],[[[90.2982,21.8316],[90.3173,21.8476],[90.3294,21.8386],[90.3152,21.8232],[90.2982,21.8316]]],[[[89.7553,21.8507],[89.7771,21.856],[89.778,21.8534],[89.7553,21.8507]]],[[[89.6582,21.8587],[89.6452,21.8735],[89.6541,21.8891],[89.6633,21.8709],[89.6582,21.8587]]],[[[90.1032,21.889],[90.0593,21.8322],[90.0215,21.8445],[90.0414,21.8443],[90.0197,21.904],[90.0309,21.9602],[90.077,21.972],[90.0787,21.9525],[90.0953,21.9352],[90.0873,21.9],[90.1032,21.889]]],[[[89.565,21.9289],[89.5522,21.9027],[89.5431,21.868],[89.5465,21.9637],[89.565,21.9289]]],[[[90.3036,21.8658],[90.3366,21.9548],[90.3496,21.9564],[90.3716,21.9963],[90.3851,21.9977],[90.355,21.8667],[90.3203,21.8541],[90.3036,21.8658]]],[[[90.3869,21.9302],[90.3972,21.9326],[90.3912,21.9211],[90.3869,21.9302]]],[[[89.9725,21.9238],[89.9434,21.9296],[89.9606,21.9471],[89.9725,21.9238]]],[[[90.2479,21.896],[90.2753,21.9425],[90.2679,21.9697],[90.2946,21.9806],[90.3036,21.9223],[90.2744,21.8846],[90.2479,21.896]]],[[[90.4964,21.9317],[90.4956,21.97],[90.5186,21.9792],[90.4964,21.9317]]],[[[90.3882,21.9514],[90.3958,21.9656],[90.3974,21.9627],[90.3882,21.9514]]],[[[90.424,21.8978],[90.3945,21.9049],[90.4216,22.016],[90.412,22.0293],[90.4475,22.0343],[90.4715,21.9969],[90.4658,21.9473],[90.4579,21.9207],[90.424,21.8978]]],[[[90.327,21.9623],[90.3283,21.981],[90.3317,21.9815],[90.327,21.9623]]],[[[90.3518,22.0194],[90.3958,22.0706],[90.4098,22.0497],[90.3403,21.9625],[90.3518,22.0194]]],[[[90.3995,22.0273],[90.4074,22.0266],[90.4014,22.0152],[90.3995,22.0273]]],[[[90.3085,21.9833],[90.2806,21.9868],[90.284,22.0554],[90.3145,22.0777],[90.3159,22.086],[90.3473,22.0893],[90.3372,22.1035],[90.3502,22.0981],[90.3701,22.0992],[90.3757,22.0796],[90.3085,21.9833]]],[[[90.4457,22.0377],[90.4142,22.0383],[90.4136,22.0404],[90.4457,22.0377]]],[[[90.523,22.0807],[90.4962,22.0505],[90.4844,22.0437],[90.4821,22.0755],[90.5167,22.1058],[90.523,22.0807]]],[[[89.8707,22.2377],[89.8594,22.2516],[89.8656,22.2576],[89.8707,22.2377]]],[[[90.2892,22.3548],[90.2713,22.3515],[90.2864,22.3644],[90.2892,22.3548]]],[[[90.4893,22.7199],[90.4722,22.7396],[90.4747,22.7461],[90.4893,22.7199]]],[[[90.4795,22.7568],[90.4576,22.7485],[90.4346,22.7747],[90.4604,22.7881],[90.4795,22.7568]]],[[[90.4875,22.8323],[90.4912,22.8191],[90.4579,22.8101],[90.4547,22.8299],[90.4875,22.8323]]],[[[90.5389,22.9578],[90.5431,22.8996],[90.515,22.8747],[90.4671,22.8659],[90.4447,22.8264],[90.4491,22.8052],[90.4275,22.8167],[90.4278,22.8417],[90.3951,22.8281],[90.3898,22.839],[90.4218,22.8989],[90.4173,22.9162],[90.3845,22.856],[90.3951,22.7999],[90.4151,22.7819],[90.3844,22.7899],[90.42,22.7752],[90.3923,22.7672],[90.3323,22.8477],[90.3807,22.9075],[90.3533,22.9932],[90.4309,22.9917],[90.4512,22.9721],[90.4551,23.0016],[90.5389,22.9578]]],[[[90.3412,22.9722],[90.3564,22.9623],[90.368,22.9212],[90.3518,22.9514],[90.325,22.9598],[90.3412,22.9722]]],[[[90.3078,22.9705],[90.321,22.9539],[90.3475,22.9474],[90.348,22.9398],[90.301,22.9519],[90.2932,22.9627],[90.3078,22.9705]]],[[[90.4198,23.0042],[90.4418,23.0056],[90.4177,23.0005],[90.4198,23.0042]]],[[[90.4081,23.0135],[90.4172,23.0099],[90.3919,23.0089],[90.4081,23.0135]]],[[[90.5002,23.0161],[90.5043,23.0251],[90.5034,23.0104],[90.5002,23.0161]]],[[[90.4815,23.0384],[90.496,23.0157],[90.4929,23.0117],[90.4733,23.0279],[90.4815,23.0384]]],[[[90.2885,23.0314],[90.2918,23.0496],[90.3079,23.0375],[90.2885,23.0314]]],[[[90.5048,23.0334],[90.491,23.0532],[90.5057,23.0637],[90.5083,23.062],[90.5048,23.0334]]],[[[90.4538,23.0615],[90.4435,23.1068],[90.4907,23.1312],[90.4643,23.1915],[90.4687,23.2012],[90.4725,23.1855],[90.5053,23.1688],[90.5079,23.1439],[90.4922,23.0819],[90.4684,23.097],[90.4538,23.0615]]],[[[90.4645,23.1499],[90.479,23.1329],[90.4571,23.1226],[90.4645,23.1499]]],[[[90.4674,23.3095],[90.4857,23.2465],[90.4622,23.2026],[90.4646,23.2254],[90.4534,23.2115],[90.4659,23.1672],[90.4326,23.0911],[90.446,23.0225],[90.3609,23.0111],[90.3426,22.9819],[90.326,22.9816],[90.3088,23.0538],[90.3259,23.0679],[90.3326,23.1087],[90.3229,23.1024],[90.2729,23.1468],[90.267,23.1328],[90.2905,23.1207],[90.2538,23.1253],[90.2445,23.1379],[90.2657,23.1601],[90.2142,23.1915],[90.1842,23.1708],[90.1781,23.1892],[90.2071,23.2097],[90.2108,23.224],[90.1721,23.262],[90.2124,23.2553],[90.233,23.2607],[90.2526,23.2882],[90.24,23.2931],[90.2866,23.3161],[90.3026,23.3547],[90.3339,23.3673],[90.393,23.3396],[90.4122,23.3025],[90.4674,23.3095]]],[[[90.552,23.2822],[90.5051,23.1817],[90.4788,23.1889],[90.4982,23.2794],[90.4511,23.3395],[90.5188,23.3285],[90.552,23.2822]]],[[[90.2372,23.2762],[90.209,23.2588],[90.1662,23.2687],[90.1801,23.2409],[90.1276,23.2454],[90.1311,23.2632],[90.1245,23.2738],[90.0893,23.2811],[90.1808,23.3378],[90.2557,23.3117],[90.2335,23.2961],[90.2372,23.2762]]],[[[90.4206,23.3182],[90.349,23.3965],[90.4311,23.3598],[90.4532,23.3159],[90.4206,23.3182]]],[[[90.4849,23.346],[90.4467,23.3667],[90.4464,23.3699],[90.4849,23.346]]],[[[90.306,23.3773],[90.3463,23.3767],[90.2989,23.3679],[90.306,23.3773]]],[[[90.1966,23.3718],[90.1883,23.3811],[90.1897,23.386],[90.1966,23.3718]]],[[[90.4238,23.3903],[90.4828,23.3774],[90.4857,23.3672],[90.4378,23.3786],[90.4238,23.3903]]],[[[90.2708,23.3264],[90.2182,23.3603],[90.2488,23.3252],[90.2056,23.3503],[90.1836,23.4498],[90.2382,23.4169],[90.3299,23.3948],[90.3316,23.3845],[90.286,23.3796],[90.2958,23.3708],[90.2708,23.3264]]],[[[90.4506,23.3978],[90.4948,23.3982],[90.501,23.3839],[90.4739,23.3845],[90.4506,23.3978]]],[[[90.413,23.3934],[90.3949,23.4],[90.3924,23.4059],[90.4093,23.4048],[90.413,23.3934]]],[[[90.184,23.3987],[90.1817,23.3935],[90.1682,23.4225],[90.184,23.3987]]],[[[90.1768,23.4246],[90.167,23.4337],[90.1686,23.4386],[90.1768,23.4246]]],[[[90.2377,23.4724],[90.2303,23.4706],[90.2255,23.4789],[90.2377,23.4724]]],[[[90.199,23.4973],[90.1865,23.4972],[90.1838,23.503],[90.199,23.4973]]],[[[90.4749,23.568],[90.4666,23.5501],[90.4394,23.5536],[90.453,23.568],[90.4749,23.568]]],[[[90.4432,23.5992],[90.4335,23.558],[90.4251,23.6053],[90.4432,23.5992]]],[[[90.4258,23.5723],[90.408,23.5882],[90.4039,23.6053],[90.4199,23.5975],[90.4258,23.5723]]],[[[90.4517,23.5772],[90.4564,23.6062],[90.4791,23.5844],[90.5024,23.5851],[90.4517,23.5772]]],[[[90.0878,23.6174],[90.1101,23.6069],[90.1143,23.5944],[90.0967,23.6051],[90.0878,23.6174]]],[[[90.3924,23.6086],[90.4098,23.6151],[90.4177,23.611],[90.3924,23.6086]]],[[[90.4643,23.628],[90.4239,23.6183],[90.4349,23.637],[90.429,23.6418],[90.415,23.624],[90.3878,23.6461],[90.3978,23.6253],[90.3645,23.63],[90.288,23.6726],[90.2618,23.7243],[90.2876,23.7327],[90.3085,23.7608],[90.313,23.7323],[90.3713,23.6956],[90.4183,23.6844],[90.4643,23.628]]],[[[89.9255,23.703],[89.928,23.6854],[89.8987,23.7073],[89.9255,23.703]]],[[[89.8656,23.7067],[89.8689,23.7137],[89.8759,23.7073],[89.8656,23.7067]]],[[[89.8686,23.7271],[89.8746,23.7189],[89.8652,23.7226],[89.8686,23.7271]]],[[[90.3547,23.715],[90.3291,23.7271],[90.3466,23.7315],[90.3547,23.715]]],[[[89.8515,23.7281],[89.8568,23.7306],[89.8622,23.7229],[89.8515,23.7281]]],[[[89.7966,23.7381],[89.786,23.7414],[89.7868,23.7639],[89.7966,23.7381]]],[[[90.2522,23.7467],[90.2259,23.725],[90.2117,23.7507],[90.2416,23.792],[90.2522,23.7467]]],[[[89.746,23.8048],[89.7758,23.7887],[89.7791,23.7421],[89.7587,23.7631],[89.746,23.8048]]],[[[89.7423,23.7793],[89.6852,23.7895],[89.6826,23.8011],[89.718,23.8016],[89.7423,23.7793]]],[[[89.6341,23.7937],[89.6715,23.8044],[89.6763,23.7912],[89.6412,23.7843],[89.6341,23.7937]]],[[[89.4879,23.8167],[89.5325,23.8154],[89.5155,23.7856],[89.4879,23.8167]]],[[[89.5465,23.7973],[89.595,23.8151],[89.62,23.8056],[89.5465,23.7973]]],[[[90.232,23.8149],[90.2054,23.8221],[90.1823,23.8071],[90.1342,23.812],[90.0872,23.8364],[90.1157,23.8541],[90.1171,23.8704],[90.1436,23.827],[90.176,23.8211],[90.2026,23.8355],[90.232,23.8149]]],[[[89.3342,23.8807],[89.3147,23.893],[89.3479,23.8867],[89.3342,23.8807]]],[[[89.6972,23.9274],[89.7101,23.9194],[89.7311,23.8789],[89.6953,23.9025],[89.6972,23.9274]]],[[[89.3773,23.9177],[89.4109,23.9196],[89.3791,23.9063],[89.3773,23.9177]]],[[[89.3149,23.8989],[89.2906,23.9388],[89.3638,23.9429],[89.3787,23.9275],[89.3556,23.8929],[89.3149,23.8989]]],[[[89.2358,23.9322],[89.1856,23.9513],[89.1825,23.9548],[89.2245,23.9607],[89.2524,23.9367],[89.2298,23.9463],[89.2358,23.9322]]],[[[89.1485,23.9986],[89.1766,23.9949],[89.1391,23.9934],[89.1485,23.9986]]],[[[90.51,21.8506],[90.5028,21.868],[90.538,21.8673],[90.531,21.8569],[90.51,21.8506]]],[[[90.5638,21.8896],[90.5554,21.877],[90.5613,21.8976],[90.5638,21.8896]]],[[[90.5244,21.9406],[90.5607,21.9596],[90.5707,21.9475],[90.5339,21.8731],[90.5046,21.88],[90.5244,21.9406]]],[[[90.6282,21.9359],[90.6555,21.9128],[90.6378,21.8985],[90.6209,21.9111],[90.6282,21.9359]]],[[[90.5651,21.9237],[90.5781,21.9243],[90.573,21.9154],[90.5651,21.9237]]],[[[90.6557,21.9227],[90.6432,21.9281],[90.6301,21.944],[90.6494,21.9475],[90.6557,21.9227]]],[[[90.7173,21.9585],[90.7037,21.9664],[90.7139,21.9719],[90.7173,21.9585]]],[[[90.6699,21.9968],[90.6793,22.0038],[90.6835,21.9899],[90.6699,21.9968]]],[[[90.5536,21.9927],[90.548,21.9916],[90.5572,22.0045],[90.5536,21.9927]]],[[[90.5413,22.021],[90.5221,21.992],[90.4995,21.9977],[90.5212,22.0257],[90.5413,22.021]]],[[[90.558,22.0227],[90.5627,22.0093],[90.5512,22.0073],[90.558,22.0227]]],[[[90.6455,22.0513],[90.6374,21.997],[90.6174,21.9859],[90.6115,21.9988],[90.6455,22.0513]]],[[[90.6602,22.0237],[90.6579,22.0479],[90.6637,22.0212],[90.6602,22.0237]]],[[[90.6992,22.0657],[90.6938,22.0191],[90.6742,22.0232],[90.6691,22.0671],[90.6992,22.0657]]],[[[90.498,22.006],[90.4942,22.018],[90.5574,22.0982],[90.5496,22.0162],[90.5394,22.007],[90.5491,22.0314],[90.5201,22.0312],[90.498,22.006]]],[[[90.6674,22.0801],[90.6646,22.067],[90.6561,22.0573],[90.6559,22.0635],[90.6674,22.0801]]],[[[90.6158,22.0458],[90.6312,22.0947],[90.6057,22.0544],[90.6228,22.0354],[90.613,22.0195],[90.5929,22.041],[90.6162,22.1069],[90.6394,22.1289],[90.6644,22.1248],[90.6614,22.0905],[90.6315,22.0708],[90.633,22.0481],[90.6158,22.0458]]],[[[90.7492,22.0637],[90.7778,22.0923],[90.7527,22.0551],[90.7492,22.0637]]],[[[90.5247,22.0736],[90.5236,22.1064],[90.542,22.1173],[90.5522,22.1054],[90.5387,22.0775],[90.5056,22.0443],[90.5247,22.0736]]],[[[90.5852,22.1],[90.5978,22.1139],[90.5862,22.098],[90.5852,22.1]]],[[[90.5773,22.128],[90.5954,22.1267],[90.5848,22.117],[90.5773,22.128]]],[[[90.5064,22.1709],[90.5463,22.1707],[90.5108,22.1361],[90.5064,22.1709]]],[[[90.6112,22.1743],[90.6168,22.1767],[90.6128,22.1711],[90.6112,22.1743]]],[[[90.8394,22.2206],[90.8322,22.1853],[90.8307,22.2096],[90.8394,22.2206]]],[[[90.9272,22.2134],[90.9348,22.207],[90.9265,22.1974],[90.9272,22.2134]]],[[[90.5586,22.2297],[90.5677,22.2145],[90.5387,22.1893],[90.5586,22.2297]]],[[[90.5682,22.2366],[90.5841,22.2483],[90.575,22.2311],[90.5682,22.2366]]],[[[90.6295,22.4056],[90.6509,22.3807],[90.6486,22.3674],[90.6295,22.4056]]],[[[90.6487,22.4076],[90.6552,22.4054],[90.6512,22.3998],[90.6487,22.4076]]],[[[90.5968,22.4524],[90.6059,22.463],[90.6258,22.4422],[90.6322,22.3575],[90.5968,22.4524]]],[[[90.8789,22.4945],[90.8889,22.445],[90.8462,22.2419],[90.8318,22.2193],[90.8082,22.2193],[90.8254,22.1984],[90.8024,22.2081],[90.796,22.246],[90.7981,22.2038],[90.8209,22.1843],[90.7785,22.186],[90.8194,22.1776],[90.8251,22.1481],[90.7946,22.1077],[90.7958,22.1457],[90.783,22.1074],[90.7622,22.1112],[90.7168,22.0527],[90.7086,22.0646],[90.7371,22.132],[90.7058,22.0721],[90.6749,22.0707],[90.6781,22.1053],[90.6991,22.1114],[90.6703,22.1264],[90.6958,22.1379],[90.6597,22.1332],[90.6338,22.1481],[90.6334,22.1324],[90.6198,22.1325],[90.611,22.1582],[90.6706,22.2784],[90.6714,22.4739],[90.6066,22.6012],[90.5888,22.6067],[90.6186,22.5467],[90.5729,22.5947],[90.5746,22.6194],[90.5635,22.6408],[90.5889,22.6338],[90.5796,22.6542],[90.5401,22.6309],[90.5569,22.6934],[90.6592,22.7846],[90.726,22.7769],[90.778,22.6269],[90.8789,22.4945]]],[[[90.6392,22.4252],[90.6476,22.4201],[90.6445,22.415],[90.6392,22.4252]]],[[[90.6194,22.538],[90.6566,22.4803],[90.6556,22.4599],[90.6239,22.5069],[90.6194,22.538]]],[[[90.6512,22.5029],[90.6436,22.5073],[90.6452,22.5117],[90.6512,22.5029]]],[[[90.5575,22.628],[90.5695,22.6148],[90.5632,22.6057],[90.5575,22.628]]],[[[90.7938,22.659],[90.7931,22.6879],[90.8038,22.6905],[90.8206,22.6552],[90.7938,22.659]]],[[[90.9825,22.7653],[91.0202,22.7154],[91.0079,22.7052],[90.9757,22.7222],[90.9658,22.7155],[91.0357,22.6706],[91.0292,22.642],[91.06,22.5964],[91.0553,22.5807],[91.0512,22.5934],[91.0248,22.5766],[91.0438,22.5696],[90.9869,22.5398],[90.9385,22.5619],[90.9256,22.5787],[90.9401,22.5911],[90.9144,22.5899],[90.8618,22.6339],[90.8337,22.7293],[90.7969,22.7739],[90.9095,22.8108],[90.9778,22.7739],[90.9711,22.7579],[90.9825,22.7653]]],[[[90.8025,22.7089],[90.7923,22.7182],[90.8037,22.7112],[90.8025,22.7089]]],[[[90.5325,22.6863],[90.4885,22.7697],[90.509,22.7925],[90.5502,22.7612],[90.5325,22.6863]]],[[[90.5657,22.7763],[90.6003,22.7771],[90.571,22.7444],[90.5657,22.7763]]],[[[90.5971,22.7862],[90.6042,22.8025],[90.6604,22.8159],[90.6273,22.786],[90.5971,22.7862]]],[[[90.7021,22.8276],[90.6907,22.8126],[90.6665,22.8261],[90.6686,22.8296],[90.7021,22.8276]]],[[[90.637,22.8388],[90.6434,22.85],[90.647,22.8467],[90.637,22.8388]]],[[[90.6758,22.8436],[90.6796,22.8543],[90.6938,22.8538],[90.6902,22.8484],[90.6758,22.8436]]],[[[90.6725,22.8754],[90.6623,22.8543],[90.6521,22.8487],[90.6554,22.8821],[90.6725,22.8754]]],[[[90.5568,22.7903],[90.4846,22.8396],[90.4608,22.8402],[90.4824,22.867],[90.5329,22.8745],[90.5502,22.8971],[90.5535,22.9442],[90.6506,22.8863],[90.6175,22.8316],[90.5568,22.7903]]],[[[90.6311,22.9633],[90.6432,22.9567],[90.6418,22.9551],[90.6311,22.9633]]],[[[90.6935,22.9571],[90.6683,22.9639],[90.6485,22.9847],[90.6803,22.9808],[90.6935,22.9571]]],[[[90.5551,23.048],[90.5669,23.0068],[90.5628,22.9968],[90.5353,23.0249],[90.5551,23.048]]],[[[90.5192,23.06],[90.5266,23.0634],[90.5237,23.0524],[90.5192,23.06]]],[[[90.5206,23.1344],[90.5241,23.0914],[90.5131,23.0812],[90.5003,23.1001],[90.5055,23.1284],[90.5206,23.1344]]],[[[90.5439,23.1493],[90.5221,23.1767],[90.5317,23.2004],[90.5338,23.169],[90.5467,23.1967],[90.5439,23.1493]]],[[[90.5768,23.2038],[90.5761,23.1787],[90.5547,23.1611],[90.5541,23.1765],[90.5768,23.2038]]],[[[90.5544,23.2059],[90.5661,23.2048],[90.5566,23.1903],[90.5544,23.2059]]],[[[90.5855,23.2228],[90.5954,23.2312],[90.5899,23.2108],[90.5855,23.2228]]],[[[90.6161,23.2364],[90.6165,23.2235],[90.6141,23.2223],[90.6161,23.2364]]],[[[90.5631,23.2392],[90.5705,23.2357],[90.5578,23.2282],[90.5631,23.2392]]],[[[90.5815,23.2599],[90.5803,23.239],[90.5713,23.2467],[90.5815,23.2599]]],[[[90.6207,23.2617],[90.6333,23.2495],[90.6232,23.2389],[90.6207,23.2617]]],[[[90.57,23.308],[90.5699,23.3181],[90.5747,23.306],[90.57,23.308]]],[[[90.5583,23.3138],[90.5526,23.3295],[90.5608,23.3132],[90.5583,23.3138]]],[[[90.5857,23.3557],[90.591,23.3393],[90.5829,23.3499],[90.5857,23.3557]]],[[[90.6816,23.3461],[90.6734,23.3486],[90.6782,23.3582],[90.6816,23.3461]]],[[[90.542,23.3558],[90.5275,23.3583],[90.5292,23.3648],[90.542,23.3558]]],[[[90.5464,23.3722],[90.553,23.3901],[90.5602,23.3673],[90.5464,23.3722]]],[[[90.5818,23.3682],[90.5719,23.3743],[90.5656,23.4056],[90.5851,23.43],[90.5714,23.3878],[90.5818,23.3682]]],[[[90.5686,23.4417],[90.5754,23.4453],[90.5713,23.4342],[90.5686,23.4417]]],[[[90.5615,23.4807],[90.563,23.4585],[90.5558,23.4454],[90.5401,23.475],[90.5615,23.4807]]],[[[90.6263,23.4961],[90.6184,23.4883],[90.6087,23.4896],[90.6132,23.4946],[90.6263,23.4961]]],[[[90.6637,23.5167],[90.6821,23.4877],[90.6435,23.5019],[90.6637,23.5167]]],[[[90.702,23.5148],[90.7055,23.4991],[90.6983,23.492],[90.702,23.5148]]],[[[90.5726,23.5117],[90.5573,23.5384],[90.5753,23.5125],[90.5726,23.5117]]],[[[90.7019,23.5256],[90.6906,23.5452],[90.7033,23.5523],[90.7019,23.5256]]],[[[90.6517,23.606],[90.6945,23.5158],[90.6576,23.5209],[90.5851,23.4883],[90.58,23.5629],[90.5632,23.583],[90.6517,23.606]]],[[[90.5594,23.5478],[90.5566,23.5649],[90.5668,23.5437],[90.5594,23.5478]]],[[[90.6905,23.5544],[90.6936,23.5641],[90.6992,23.5613],[90.6905,23.5544]]],[[[90.6905,23.568],[90.6789,23.5747],[90.6805,23.5794],[90.6905,23.568]]],[[[90.7396,23.6464],[90.7598,23.6309],[90.7358,23.627],[90.7076,23.5785],[90.6684,23.59],[90.6536,23.6235],[90.6614,23.6579],[90.6769,23.6476],[90.7396,23.6464]]],[[[90.6019,23.6062],[90.6261,23.6259],[90.6195,23.6099],[90.6019,23.6062]]],[[[90.6634,23.6642],[90.6503,23.6477],[90.6474,23.6139],[90.6317,23.6169],[90.6427,23.6569],[90.6634,23.6642]]],[[[90.6694,23.6627],[90.6841,23.6613],[90.6797,23.6534],[90.6694,23.6627]]],[[[90.7253,23.6733],[90.7168,23.6598],[90.6913,23.6714],[90.7039,23.6812],[90.7253,23.6733]]],[[[90.6579,23.6711],[90.6474,23.6798],[90.6641,23.6736],[90.6579,23.6711]]],[[[90.6945,23.6848],[90.7145,23.7266],[90.7319,23.685],[90.6945,23.6848]]],[[[92.8221,9.1389],[92.7817,9.1185],[92.768,9.1213],[92.7825,9.1266],[92.7737,9.1384],[92.7352,9.1183],[92.72,9.1268],[92.7122,9.2109],[92.7605,9.2171],[92.7647,9.2583],[92.8118,9.2036],[92.8221,9.1389]]],[[[92.5752,10.783],[92.5809,10.6763],[92.5642,10.6748],[92.5655,10.6512],[92.5231,10.6121],[92.5228,10.5895],[92.5511,10.5747],[92.5103,10.5127],[92.4776,10.5082],[92.4121,10.5461],[92.3599,10.5307],[92.4001,10.6138],[92.3897,10.6486],[92.3643,10.6685],[92.3655,10.7891],[92.3972,10.7866],[92.4129,10.8212],[92.4438,10.8362],[92.446,10.8639],[92.5064,10.8952],[92.5439,10.8619],[92.5491,10.8035],[92.5752,10.783]]],[[[92.619,10.9232],[92.6198,10.9342],[92.6265,10.9246],[92.619,10.9232]]],[[[92.2424,10.9761],[92.2274,10.9692],[92.2173,10.9743],[92.2292,10.9837],[92.2424,10.9761]]],[[[92.6706,10.9868],[92.6734,10.9746],[92.6711,10.9744],[92.6706,10.9868]]],[[[92.6836,11.1852],[92.6905,11.1738],[92.6797,11.1812],[92.6836,11.1852]]],[[[92.7183,11.2893],[92.7034,11.2435],[92.7047,11.281],[92.7183,11.2893]]],[[[92.7304,11.3194],[92.7326,11.3128],[92.7275,11.3095],[92.7304,11.3194]]],[[[92.6788,11.4842],[92.6961,11.4248],[92.6624,11.4038],[92.7013,11.3901],[92.7032,11.3717],[92.6781,11.3536],[92.6094,11.3484],[92.5979,11.3683],[92.6072,11.3984],[92.6359,11.4002],[92.6249,11.4622],[92.6432,11.5097],[92.6788,11.4842]]],[[[92.6158,11.5313],[92.6158,11.5173],[92.6142,11.5168],[92.6158,11.5313]]],[[[92.5744,11.5125],[92.562,11.5284],[92.567,11.535],[92.5782,11.522],[92.5744,11.5125]]],[[[92.6268,11.5308],[92.6174,11.547],[92.6266,11.5566],[92.6313,11.5518],[92.6268,11.5308]]],[[[92.6004,11.5313],[92.5951,11.5448],[92.6014,11.5723],[92.6088,11.5473],[92.6004,11.5313]]],[[[92.2901,11.5326],[92.2774,11.5135],[92.23,11.5263],[92.2173,11.5828],[92.2696,11.5832],[92.2901,11.5326]]],[[[92.6146,11.5659],[92.625,11.5837],[92.6263,11.5607],[92.6146,11.5659]]],[[[92.5802,11.5851],[92.5406,11.5518],[92.5491,11.6015],[92.5802,11.5851]]],[[[92.7721,11.6688],[92.7738,11.6792],[92.7773,11.6786],[92.7721,11.6688]]],[[[92.6131,11.9057],[92.612,11.9158],[92.615,11.9156],[92.6131,11.9057]]],[[[92.7362,11.9478],[92.7443,11.9514],[92.7364,11.9356],[92.7362,11.9478]]],[[[92.6022,11.9718],[92.6181,11.9423],[92.6142,11.9227],[92.6022,11.9718]]],[[[92.7756,11.9534],[92.7595,11.9398],[92.7481,11.95],[92.7652,11.9613],[92.7756,11.9534]]],[[[92.7655,11.9855],[92.7632,11.9731],[92.7454,11.9756],[92.7655,11.9855]]],[[[92.7712,11.9948],[92.7765,12.0055],[92.78,11.991],[92.7712,11.9948]]],[[[92.6825,12.5357],[92.6943,12.5319],[92.6899,12.5157],[92.6806,12.5209],[92.6825,12.5357]]],[[[93.0527,13.521],[93.0313,13.4264],[93.0571,13.3998],[93.071,13.4117],[93.077,13.3998],[93.057,13.3699],[93.068,13.3762],[93.0973,13.3308],[93.0743,13.2994],[93.0674,13.3212],[93.0493,13.3207],[93.0551,13.3434],[93.0489,13.3622],[93.0492,13.3458],[93.0125,13.3479],[92.997,13.3327],[93.0011,13.3111],[93.0174,13.3157],[93.0298,13.2917],[93.0187,13.2773],[93.0525,13.2773],[93.0538,13.2552],[93.0699,13.2607],[93.0423,13.1752],[93.0383,13.0637],[93.0155,13.0284],[92.9744,13.0348],[92.9736,13.0111],[92.9476,13.0372],[92.9494,13.0607],[92.9259,13.0594],[92.9073,13.0177],[92.9283,12.9817],[92.943,12.9855],[92.9417,12.9625],[92.9166,12.947],[92.9054,12.9924],[92.8815,12.9386],[92.8633,12.9354],[92.861,12.9163],[92.8832,12.9081],[92.8818,12.8933],[92.9045,12.8971],[92.9053,12.9217],[92.93,12.9108],[92.9119,12.8845],[92.9347,12.8837],[92.9546,12.8349],[92.9607,12.8039],[92.9438,12.7715],[92.9701,12.7532],[92.9867,12.7118],[92.972,12.7042],[92.963,12.6164],[92.9835,12.5448],[92.9782,12.4943],[92.9701,12.4848],[92.9547,12.4977],[92.9416,12.4653],[92.9618,12.4752],[92.9643,12.4645],[92.9267,12.4451],[92.9264,12.4034],[92.8901,12.3769],[92.8818,12.3519],[92.8989,12.3484],[92.9081,12.329],[92.8886,12.3331],[92.9085,12.3179],[92.8681,12.3118],[92.8931,12.2807],[92.8963,12.2556],[92.8665,12.2446],[92.8892,12.1885],[92.8597,12.2015],[92.8575,12.1639],[92.8281,12.1586],[92.8124,12.1299],[92.8178,12.1007],[92.8049,12.1042],[92.8001,12.0811],[92.77,12.0633],[92.7686,12.048],[92.793,12.0403],[92.7888,12.0238],[92.7489,12.035],[92.7412,12.0183],[92.7649,11.997],[92.7344,11.9874],[92.7453,11.964],[92.7282,11.9525],[92.7249,11.9246],[92.7887,11.9361],[92.7999,11.8769],[92.7702,11.7022],[92.7534,11.7164],[92.7444,11.6818],[92.7675,11.666],[92.764,11.6181],[92.7214,11.4793],[92.7099,11.5102],[92.6837,11.5027],[92.6599,11.5182],[92.6571,11.578],[92.6411,11.5863],[92.634,11.5638],[92.6201,11.615],[92.6512,11.6092],[92.6588,11.6434],[92.6494,11.6366],[92.6455,11.6596],[92.6397,11.6289],[92.6221,11.633],[92.5993,11.7157],[92.5723,11.6971],[92.5571,11.829],[92.5342,11.8264],[92.526,11.8449],[92.5374,11.89],[92.5741,11.9336],[92.6025,11.8786],[92.6244,11.9203],[92.6201,12.0029],[92.6383,12.0382],[92.6309,12.0922],[92.6529,12.1793],[92.6696,12.2162],[92.662,12.1797],[92.6836,12.2184],[92.6872,12.1956],[92.7243,12.307],[92.7085,12.3295],[92.7149,12.4894],[92.7026,12.5079],[92.7174,12.5638],[92.6939,12.5978],[92.7153,12.6075],[92.7252,12.6362],[92.7287,12.6197],[92.7426,12.6303],[92.756,12.6641],[92.7359,12.6872],[92.7531,12.6944],[92.7429,12.7012],[92.7549,12.7161],[92.7403,12.7338],[92.7318,12.8278],[92.7466,12.8117],[92.7462,12.8332],[92.7534,12.8242],[92.7711,12.8597],[92.7846,12.8392],[92.7786,12.8607],[92.7997,12.8622],[92.816,12.8983],[92.8015,12.9766],[92.8071,12.9891],[92.8246,12.9816],[92.8105,12.9954],[92.8338,13.0086],[92.7973,13.0152],[92.8049,13.089],[92.8178,13.0731],[92.8121,13.0953],[92.8299,13.0949],[92.8172,13.1249],[92.8489,13.1246],[92.8524,13.1401],[92.8196,13.152],[92.8222,13.1689],[92.8417,13.1687],[92.8251,13.1786],[92.8337,13.2316],[92.8585,13.2366],[92.8296,13.2811],[92.8475,13.2967],[92.8321,13.3037],[92.8402,13.3567],[92.8737,13.38],[92.8488,13.396],[92.8746,13.3986],[92.8906,13.4258],[92.8836,13.4678],[92.9314,13.494],[92.9209,13.5042],[92.9334,13.5173],[92.9194,13.5235],[92.9711,13.5387],[92.9934,13.5246],[92.9952,13.5646],[93.0176,13.5421],[93.0372,13.5733],[93.0527,13.521]]],[[[92.7218,12.7167],[92.7034,12.7966],[92.7203,12.8309],[92.722,12.7793],[92.7319,12.7436],[92.7257,12.7518],[92.7218,12.7167]]],[[[92.7289,12.7694],[92.7298,12.7839],[92.7319,12.7664],[92.7289,12.7694]]],[[[92.7145,12.837],[92.7293,12.8672],[92.7335,12.8663],[92.7278,12.842],[92.7145,12.837]]],[[[92.7268,12.9815],[92.7264,12.8742],[92.7016,12.8373],[92.6855,12.8366],[92.6952,12.8158],[92.6762,12.7865],[92.6596,12.8587],[92.6862,12.9395],[92.6758,12.9594],[92.6994,12.9931],[92.7268,12.9815]]],[[[92.7636,12.8946],[92.7568,12.8924],[92.764,12.9096],[92.7636,12.8946]]],[[[92.7826,12.9057],[92.7977,12.9149],[92.8069,12.8978],[92.7941,12.8911],[92.7969,12.9045],[92.7826,12.9057]]],[[[92.7792,12.9305],[92.7841,12.929],[92.7819,12.9213],[92.7792,12.9305]]],[[[92.7051,13.0931],[92.7339,13.0992],[92.7121,13.0669],[92.7051,13.0931]]],[[[92.8168,13.3987],[92.8227,13.411],[92.8196,13.3983],[92.8168,13.3987]]],[[[92.7343,20.2213],[92.7365,20.2369],[92.7405,20.2161],[92.7343,20.2213]]],[[[92.7468,20.3513],[92.7522,20.3625],[92.7527,20.3521],[92.7468,20.3513]]],[[[92.8117,20.4109],[92.8665,20.3114],[92.8411,20.2875],[92.7758,20.2801],[92.7623,20.4323],[92.8202,20.4236],[92.8117,20.4109]]],[[[92.8192,20.4105],[92.8326,20.402],[92.8169,20.4066],[92.8192,20.4105]]],[[[92.7753,20.4392],[92.7559,20.4701],[92.7683,20.4705],[92.7973,20.4995],[92.8037,20.4826],[92.7789,20.4549],[92.7891,20.4417],[92.7753,20.4392]]],[[[92.7219,20.5749],[92.7008,20.5817],[92.6991,20.6048],[92.7085,20.5986],[92.7219,20.5749]]],[[[92.3262,20.5852],[92.3129,20.627],[92.3212,20.6346],[92.3296,20.5991],[92.3262,20.5852]]],[[[92.5844,20.7087],[92.6389,20.72],[92.6335,20.6965],[92.6086,20.6838],[92.5844,20.7087]]],[[[92.3511,20.7187],[92.3599,20.7178],[92.3431,20.7244],[92.3511,20.7187]]],[[[92.5795,20.723],[92.5491,20.7402],[92.5512,20.757],[92.5627,20.7432],[92.5806,20.749],[92.5795,20.723]]],[[[92.3145,20.9072],[92.3036,20.9269],[92.3159,20.9543],[92.3067,20.9822],[92.3326,20.9939],[92.3553,20.9436],[92.3145,20.9072]]],[[[92.3007,20.9774],[92.3098,20.9528],[92.2969,20.9277],[92.2822,20.9527],[92.3007,20.9774]]],[[[92.2638,21.0272],[92.2566,21.0234],[92.2613,21.0311],[92.2638,21.0272]]],[[[92.2168,21.1148],[92.2195,21.103],[92.211,21.1081],[92.2168,21.1148]]],[[[92.2102,21.1334],[92.2178,21.1235],[92.2076,21.1318],[92.2102,21.1334]]],[[[91.9017,21.5092],[91.9114,21.4757],[91.8969,21.4671],[91.8684,21.4885],[91.8587,21.522],[91.8821,21.557],[91.8742,21.6069],[91.8913,21.6376],[91.8851,21.6807],[91.94,21.735],[91.9585,21.6702],[91.9875,21.6301],[91.9741,21.509],[91.9479,21.4896],[91.9017,21.5092]]],[[[92.0109,21.5983],[92.0041,21.6176],[92.0071,21.6241],[92.0109,21.5983]]],[[[92.0276,21.6687],[92.0131,21.6296],[92.0032,21.6316],[92.0276,21.6687]]],[[[91.8524,21.6604],[91.886,21.7611],[91.9093,21.7511],[91.9045,21.7087],[91.8799,21.6822],[91.8806,21.6342],[91.8524,21.6604]]],[[[91.9393,21.7524],[91.9207,21.73],[91.9145,21.7585],[91.9393,21.7524]]],[[[91.9442,21.7597],[91.9078,21.7618],[91.8934,21.7677],[91.9417,21.7736],[91.9442,21.7597]]],[[[91.8821,21.8237],[91.8757,21.8544],[91.8714,21.8878],[91.8567,21.8746],[91.8745,21.8059],[91.8311,21.7169],[91.8468,21.8128],[91.8409,21.8963],[91.868,21.9222],[91.894,21.8587],[91.8821,21.8237]]],[[[91.0491,22.0834],[91.0363,22.0839],[91.0367,22.0863],[91.0491,22.0834]]],[[[91.0695,22.1018],[91.0627,22.106],[91.0757,22.1064],[91.0695,22.1018]]],[[[91.0355,22.1037],[91.052,22.125],[91.0842,22.128],[91.0542,22.1017],[91.0355,22.1037]]],[[[91.0693,22.1388],[91.0838,22.1321],[91.0611,22.1333],[91.0693,22.1388]]],[[[91.0429,22.1707],[91.0934,22.165],[91.1061,22.1524],[91.0912,22.133],[91.0677,22.1422],[91.0443,22.128],[91.0429,22.1707]]],[[[90.9211,22.1357],[90.9536,22.2114],[90.9512,22.1167],[90.9211,22.1357]]],[[[91.0382,22.2043],[91.0434,22.1886],[91.0396,22.1839],[91.0382,22.2043]]],[[[90.9751,22.2175],[91.0004,22.2371],[90.9819,22.1762],[90.9751,22.2175]]],[[[91.8151,22.214],[91.8241,22.2213],[91.8172,22.2085],[91.8151,22.214]]],[[[90.9792,22.2365],[90.9827,22.251],[90.9913,22.2609],[90.989,22.2459],[90.9792,22.2365]]],[[[91.8008,22.28],[91.801,22.2931],[91.8095,22.2977],[91.8201,22.2775],[91.8008,22.28]]],[[[90.9652,22.3771],[90.9881,22.3451],[90.9848,22.2934],[90.9577,22.2223],[90.9352,22.2185],[90.9652,22.3771]]],[[[91.1778,22.3296],[91.1684,22.2023],[91.135,22.1645],[91.1152,22.1683],[91.1191,22.1934],[91.1011,22.2106],[91.1115,22.1597],[91.0505,22.1794],[91.0409,22.2503],[91.0519,22.4201],[91.0269,22.4766],[91.0408,22.508],[91.1111,22.5023],[91.1275,22.4837],[91.1369,22.3951],[91.1778,22.3296]]],[[[91.1923,22.4062],[91.1715,22.4341],[91.2028,22.4248],[91.1923,22.4062]]],[[[91.0283,22.442],[91.0338,22.4077],[91.018,22.4086],[91.0165,22.4393],[91.0283,22.442]]],[[[90.9735,22.463],[90.9897,22.476],[91.0007,22.4545],[90.9955,22.4486],[90.9735,22.463]]],[[[91.0193,22.4851],[91.0099,22.4991],[91.0285,22.5053],[91.0316,22.4949],[91.0193,22.4851]]],[[[91.1756,22.5187],[91.1942,22.4985],[91.192,22.4721],[91.1542,22.4887],[91.1388,22.5159],[91.1756,22.5187]]],[[[91.4848,22.3429],[91.4551,22.3987],[91.4007,22.4361],[91.3798,22.4944],[91.3921,22.564],[91.3567,22.66],[91.4389,22.6389],[91.5455,22.4693],[91.5582,22.4111],[91.5459,22.3844],[91.5161,22.3469],[91.4848,22.3429]]],[[[91.1976,22.5092],[91.2093,22.5065],[91.2106,22.4957],[91.1976,22.5092]]],[[[91.0241,22.5578],[91.0326,22.5576],[91.0196,22.5535],[91.0241,22.5578]]],[[[91.2912,22.5408],[91.2417,22.5466],[91.2151,22.6067],[91.2217,22.6441],[91.2783,22.6111],[91.3048,22.5574],[91.2912,22.5408]]],[[[91.0916,22.597],[91.1205,22.6313],[91.141,22.6642],[91.1723,22.6084],[91.1656,22.5866],[91.1132,22.5611],[91.0916,22.597]]],[[[91.0886,22.5983],[91.0853,22.553],[91.0658,22.569],[91.062,22.627],[91.0449,22.636],[91.0663,22.7043],[91.1122,22.7],[91.1284,22.6708],[91.0886,22.5983]]],[[[91.2964,22.6763],[91.2806,22.6642],[91.2851,22.679],[91.2964,22.6763]]],[[[91.0466,22.6858],[91.0344,22.6788],[91.0145,22.698],[91.0372,22.709],[91.0466,22.6858]]],[[[91.2753,22.6703],[91.2165,22.7007],[91.2358,22.7099],[91.2122,22.7042],[91.1311,22.7361],[91.228,22.745],[91.2939,22.716],[91.2996,22.7012],[91.2753,22.6703]]],[[[91.3475,22.7548],[91.3544,22.7304],[91.3411,22.7184],[91.3104,22.7451],[91.3475,22.7548]]],[[[93.4026,7.9675],[93.4593,7.93],[93.464,7.8666],[93.4193,7.899],[93.382,7.8756],[93.3568,7.8827],[93.3456,7.9032],[93.3617,7.9295],[93.3457,7.943],[93.3299,7.9121],[93.3126,7.9455],[93.3268,8.0],[93.3713,8.0189],[93.4037,8.0049],[93.4026,7.9675]]],[[[93.5449,8.0073],[93.5431,8.022],[93.5585,8.0212],[93.5755,7.9936],[93.5728,7.9256],[93.5072,7.98],[93.5262,8.0229],[93.5449,8.0073]]],[[[93.5953,8.0424],[93.5698,8.0591],[93.5712,8.0722],[93.5845,8.0634],[93.5689,8.0914],[93.5767,8.112],[93.559,8.1088],[93.5605,8.1196],[93.5817,8.1185],[93.5953,8.0424]]],[[[93.5146,8.1818],[93.4996,8.1446],[93.5465,8.0824],[93.5445,8.0392],[93.5269,8.047],[93.5052,8.0296],[93.4994,7.9923],[93.484,8.0109],[93.4839,8.0886],[93.4623,8.1053],[93.4713,8.1206],[93.4564,8.1165],[93.4513,8.1697],[93.4878,8.1987],[93.4908,8.2198],[93.5382,8.2269],[93.5349,8.1763],[93.5146,8.1818]]],[[[93.2243,8.2381],[93.2088,8.2298],[93.2021,8.2612],[93.2157,8.2614],[93.2243,8.2381]]],[[[93.1128,8.2837],[93.1443,8.2448],[93.1821,8.2281],[93.1834,8.201],[93.1097,8.2255],[93.0744,8.2767],[93.0828,8.3384],[93.1143,8.3577],[93.1284,8.3425],[93.1128,8.2837]]],[[[93.0432,8.4447],[93.0254,8.4482],[93.0301,8.471],[93.0422,8.4652],[93.0432,8.4447]]],[[[92.8519,8.8165],[92.8485,8.8282],[92.8608,8.8389],[92.8607,8.8302],[92.8519,8.8165]]],[[[93.0892,11.7753],[93.0987,11.7832],[93.0964,11.7747],[93.0892,11.7753]]],[[[93.0712,11.8116],[93.0214,11.8266],[93.0198,11.8443],[93.0815,11.8387],[93.0712,11.8116]]],[[[93.0139,12.0238],[93.0625,11.8912],[93.0508,11.8777],[93.0067,11.9381],[93.0172,11.9428],[92.987,11.9429],[92.9709,11.976],[92.9368,11.9903],[92.9734,12.0447],[93.0139,12.0238]]],[[[93.012,12.1021],[93.0059,12.0424],[92.9723,12.0691],[92.9842,12.0893],[92.9711,12.0999],[93.012,12.1021]]],[[[92.9584,12.1064],[92.9649,12.0961],[92.9612,12.0788],[92.9562,12.0859],[92.9584,12.1064]]],[[[93.0187,12.1424],[93.0371,12.1643],[93.0437,12.0958],[93.0594,12.0767],[93.0531,12.0439],[93.0199,12.0787],[93.0187,12.1424]]],[[[92.9712,12.1459],[92.9963,12.141],[93.0088,12.1154],[92.9766,12.1138],[92.9712,12.1459]]],[[[93.1251,12.1243],[93.1316,12.1435],[93.1275,12.1239],[93.1251,12.1243]]],[[[93.0952,12.0903],[93.0803,12.0827],[93.0465,12.1297],[93.0765,12.2052],[93.1068,12.1434],[93.0952,12.0903]]],[[[92.9495,12.2223],[92.9487,12.1917],[92.9441,12.2218],[92.9495,12.2223]]],[[[92.9212,12.2203],[92.8975,12.2275],[92.8875,12.2058],[92.8811,12.2404],[92.8957,12.2347],[92.9118,12.2512],[92.9212,12.2203]]],[[[93.1097,12.2553],[93.1097,12.2038],[93.1008,12.2209],[93.0698,12.2281],[93.0844,12.2571],[93.095,12.233],[93.1097,12.2553]]],[[[92.8699,12.2417],[92.8771,12.2441],[92.8758,12.2344],[92.8699,12.2417]]],[[[92.9332,12.2598],[92.912,12.2706],[92.9141,12.2851],[92.9385,12.2811],[92.9443,12.3033],[92.9511,12.2681],[92.9349,12.2276],[92.9332,12.2598]]],[[[93.037,12.2788],[93.0318,12.2699],[93.0294,12.2715],[93.037,12.2788]]],[[[92.9223,12.3326],[92.919,12.3476],[92.9253,12.3532],[92.9223,12.3326]]],[[[92.9256,12.3656],[92.9378,12.4086],[92.9665,12.4313],[92.943,12.3576],[92.9256,12.3656]]],[[[92.8958,12.9299],[92.8708,12.9226],[92.868,12.9338],[92.8958,12.9299]]],[[[92.9668,12.9465],[92.9727,12.9422],[92.9571,12.9376],[92.9668,12.9465]]],[[[92.9893,12.9339],[92.961,12.9575],[92.9602,12.9777],[92.9697,12.9873],[92.9796,12.9702],[93.0111,12.9971],[92.9874,12.9643],[92.9893,12.9339]]],[[[92.9513,12.9965],[92.9264,13.0109],[92.9311,13.0277],[92.9513,12.9965]]],[[[93.0238,13.3123],[93.0326,13.3235],[93.0301,13.3005],[93.0238,13.3123]]],[[[93.0959,13.41],[93.1009,13.4038],[93.0996,13.4013],[93.0959,13.41]]],[[[93.0766,13.4155],[93.0826,13.4199],[93.0809,13.4061],[93.0766,13.4155]]],[[[93.1067,13.4317],[93.1101,13.4219],[93.1044,13.4276],[93.1067,13.4317]]],[[[92.8481,13.4236],[92.8281,13.4277],[92.8483,13.4385],[92.8481,13.4236]]],[[[92.8794,13.497],[92.8766,13.5096],[92.8806,13.5096],[92.8794,13.497]]],[[[92.8956,13.5736],[92.8977,13.5906],[92.9091,13.5982],[92.8956,13.5736]]],[[[93.0751,13.649],[93.0639,13.6426],[93.0551,13.6184],[93.0547,13.6402],[93.0751,13.649]]],[[[93.0445,13.6493],[93.0425,13.6389],[93.0417,13.6506],[93.0445,13.6493]]],[[[93.0378,13.6266],[92.9799,13.6601],[93.0262,13.679],[93.0378,13.6266]]],[[[93.5967,19.4615],[93.5902,19.4722],[93.5827,19.4751],[93.5946,19.4729],[93.5967,19.4615]]],[[[93.5366,19.4636],[93.5311,19.4769],[93.5522,19.4705],[93.5366,19.4636]]],[[[93.5338,19.4866],[93.5197,19.4767],[93.5116,19.4978],[93.5195,19.5018],[93.5338,19.4866]]],[[[93.5489,19.4801],[93.5182,19.5238],[93.5768,19.4794],[93.5489,19.4801]]],[[[93.5319,19.5332],[93.5248,19.5359],[93.525,19.5391],[93.5319,19.5332]]],[[[93.4999,19.5532],[93.5015,19.5447],[93.4903,19.5639],[93.4999,19.5532]]],[[[93.6007,19.5511],[93.5878,19.5576],[93.5987,19.5569],[93.6007,19.5511]]],[[[93.5469,19.649],[93.5394,19.6491],[93.5373,19.6578],[93.5469,19.649]]],[[[93.5654,19.664],[93.5894,19.6599],[93.5687,19.6491],[93.5654,19.664]]],[[[93.495,19.7145],[93.5017,19.6741],[93.457,19.6907],[93.4077,19.7406],[93.4407,19.7464],[93.495,19.7145]]],[[[93.5539,19.687],[93.5246,19.6804],[93.5139,19.7164],[93.5825,19.7697],[93.5891,19.7461],[93.572,19.7093],[93.5452,19.7002],[93.5539,19.687]]],[[[93.5022,19.7176],[93.4829,19.7251],[93.4726,19.7381],[93.4967,19.7301],[93.5022,19.7176]]],[[[93.5815,19.789],[93.5583,19.7629],[93.5489,19.7621],[93.5456,19.7889],[93.5667,19.8012],[93.5815,19.789]]],[[[93.4054,19.7978],[93.3998,19.7956],[93.4035,19.8074],[93.4054,19.7978]]],[[[93.5964,19.8282],[93.5822,19.8035],[93.5446,19.8059],[93.5665,19.8315],[93.5964,19.8282]]],[[[93.4773,19.9022],[93.4978,19.8995],[93.5115,19.8611],[93.5051,19.8348],[93.4822,19.8391],[93.4692,19.8297],[93.4989,19.8214],[93.5212,19.7592],[93.5112,19.7345],[93.4446,19.7875],[93.3958,19.9583],[93.4275,19.9541],[93.4773,19.9022]]],[[[93.5289,19.9084],[93.5269,19.8703],[93.5187,19.8667],[93.5011,19.9039],[93.5289,19.9084]]],[[[93.5936,19.9044],[93.5855,19.8796],[93.5699,19.8837],[93.5936,19.9044]]],[[[93.498,19.9161],[93.5036,19.9304],[93.5093,19.9231],[93.498,19.9161]]],[[[93.2272,19.8161],[93.1633,19.9447],[93.1267,20.0519],[93.1575,20.0248],[93.1809,19.9394],[93.2507,19.8162],[93.2272,19.8161]]],[[[93.4942,19.9558],[93.4944,19.931],[93.4678,19.935],[93.4942,19.9558]]],[[[93.4629,19.939],[93.4711,19.9623],[93.4875,19.9522],[93.4629,19.939]]],[[[93.0159,19.8894],[92.9159,20.0553],[92.926,20.0833],[92.9602,20.0616],[93.02,19.9194],[93.0358,19.8746],[93.0291,19.8189],[93.0159,19.8894]]],[[[93.0821,20.0962],[93.074,20.0766],[93.1218,20.0396],[93.1382,20.0047],[93.103,19.9467],[93.1733,19.787],[93.0568,19.9513],[93.0421,20.0089],[92.9793,20.0713],[92.9746,20.1264],[92.9967,20.1116],[93.0564,20.1218],[93.0821,20.0962]]],[[[93.4609,19.9581],[93.4444,19.9893],[93.4543,19.9927],[93.4609,19.9581]]],[[[93.4831,19.9701],[93.4747,19.9808],[93.4747,19.9909],[93.497,19.9809],[93.4831,19.9701]]],[[[93.1373,20.0718],[93.1742,20.0586],[93.1781,20.046],[93.1655,20.0426],[93.1373,20.0718]]],[[[93.3317,20.0642],[93.3416,20.066],[93.3333,20.0521],[93.3317,20.0642]]],[[[93.1264,20.0691],[93.1259,20.0572],[93.1188,20.0584],[93.1264,20.0691]]],[[[93.1186,20.0846],[93.0747,20.1186],[93.0954,20.1426],[93.1267,20.079],[93.1119,20.0615],[93.0949,20.0879],[93.1186,20.0846]]],[[[93.3034,20.1704],[93.3109,20.1152],[93.3309,20.0821],[93.2991,20.0481],[93.2862,20.0946],[93.3034,20.1704]]],[[[93.3256,20.1211],[93.328,20.1069],[93.313,20.1366],[93.3256,20.1211]]],[[[93.1978,20.084],[93.1892,20.0627],[93.1329,20.0846],[93.1036,20.1616],[93.1717,20.1884],[93.1898,20.168],[93.2185,20.159],[93.2312,20.113],[93.1978,20.084]]],[[[93.0895,20.1485],[93.0718,20.1291],[93.0643,20.1276],[93.0841,20.1652],[93.0895,20.1485]]],[[[93.2744,20.0875],[93.2911,20.0604],[93.275,20.0333],[93.2057,20.0498],[93.2079,20.0922],[93.2467,20.116],[93.2292,20.1567],[93.1829,20.1916],[93.2081,20.2124],[93.2167,20.2346],[93.2528,20.2427],[93.2512,20.2636],[93.2766,20.2438],[93.3004,20.1904],[93.2837,20.158],[93.251,20.146],[93.2845,20.1445],[93.2744,20.0875]]],[[[93.0953,20.1603],[93.095,20.1789],[93.113,20.179],[93.1024,20.1719],[93.0953,20.1603]]],[[[93.3364,20.2789],[93.3906,20.2092],[93.4112,20.1214],[93.4012,20.1103],[93.3839,20.1859],[93.3959,20.1024],[93.3666,20.084],[93.3799,20.0275],[93.3672,20.0156],[93.3556,20.0728],[93.3143,20.1414],[93.3067,20.2079],[93.2713,20.2575],[93.2776,20.2882],[93.2677,20.2972],[93.2839,20.3204],[93.3205,20.3269],[93.3364,20.2789]]],[[[92.972,20.1728],[92.9498,20.1894],[92.9752,20.2112],[92.9807,20.1927],[92.972,20.1728]]],[[[92.9341,20.247],[92.9465,20.2489],[92.9504,20.2119],[92.9238,20.1903],[92.9341,20.247]]],[[[92.9608,20.2151],[92.9763,20.2319],[92.9804,20.2315],[92.9744,20.2179],[92.9608,20.2151]]],[[[93.193,20.2818],[93.143,20.2188],[93.1272,20.2428],[93.1284,20.2167],[93.0613,20.1595],[93.0187,20.1333],[92.9977,20.1385],[93.0012,20.2153],[93.0221,20.2687],[93.04,20.2773],[93.04,20.3263],[93.0911,20.3689],[93.12,20.3744],[93.1322,20.3447],[93.1199,20.3296],[93.1288,20.321],[93.1403,20.3166],[93.1334,20.3059],[93.1755,20.3243],[93.2129,20.3129],[93.2135,20.2929],[93.193,20.2818]]],[[[93.2677,20.3154],[93.2636,20.2969],[93.2728,20.2683],[93.2385,20.2685],[93.2445,20.3053],[93.2677,20.3154]]],[[[93.2914,20.353],[93.2847,20.3436],[93.2902,20.3544],[93.2914,20.353]]],[[[92.8454,20.3947],[92.8766,20.4023],[92.8908,20.3856],[92.8454,20.3947]]],[[[93.0435,20.3504],[93.038,20.423],[93.0899,20.5061],[93.1102,20.4209],[93.0785,20.4073],[93.0778,20.3641],[93.0435,20.3504]]],[[[93.8917,7.1073],[93.9251,7.0201],[93.9547,6.9984],[93.9206,6.9981],[93.95,6.9522],[93.9282,6.9466],[93.924,6.9097],[93.9074,6.8998],[93.9004,6.8466],[93.9191,6.8288],[93.9137,6.8025],[93.8934,6.7908],[93.8853,6.8065],[93.8663,6.8033],[93.8397,6.7471],[93.8175,6.7602],[93.8267,6.8034],[93.7974,6.8258],[93.8052,6.8429],[93.7851,6.866],[93.7998,6.8743],[93.773,6.9125],[93.7605,6.9036],[93.7512,6.9152],[93.7477,6.9585],[93.6883,7.0176],[93.6598,7.0112],[93.6711,7.0319],[93.6573,7.0934],[93.6718,7.1098],[93.6536,7.12],[93.678,7.1442],[93.6723,7.1738],[93.6879,7.1853],[93.7329,7.1823],[93.7622,7.2069],[93.8033,7.1959],[93.8043,7.2255],[93.8427,7.2369],[93.8429,7.2201],[93.8821,7.197],[93.8917,7.1073]]],[[[93.7113,7.2013],[93.7057,7.2258],[93.7206,7.2031],[93.7113,7.2013]]],[[[93.7301,7.3174],[93.6762,7.2848],[93.6453,7.2408],[93.6238,7.2634],[93.6236,7.3688],[93.6613,7.3675],[93.702,7.3899],[93.6946,7.4414],[93.7108,7.3892],[93.746,7.3621],[93.7301,7.3174]]],[[[93.6287,8.3867],[93.6378,8.391],[93.6384,8.3857],[93.6287,8.3867]]],[[[93.608,8.4207],[93.6102,8.4835],[93.5951,8.5693],[93.6254,8.4637],[93.6118,8.4665],[93.608,8.4207]]],[[[93.8725,12.2784],[93.8734,12.262],[93.8543,12.2512],[93.8523,12.2802],[93.8725,12.2784]]],[[[94.2885,13.4515],[94.3015,13.4378],[94.2888,13.4184],[94.2757,13.4321],[94.2885,13.4515]]],[[[95.1104,15.6706],[95.1155,15.6605],[95.1074,15.6644],[95.1104,15.6706]]],[[[95.0567,15.6657],[95.0564,15.6728],[95.0717,15.6793],[95.0567,15.6657]]],[[[95.2044,15.6826],[95.2064,15.6698],[95.1831,15.6708],[95.189,15.6793],[95.2044,15.6826]]],[[[95.2757,15.6791],[95.2641,15.6731],[95.2634,15.6823],[95.2757,15.6791]]],[[[95.0605,15.7203],[95.0442,15.7145],[95.0181,15.7194],[95.0521,15.7421],[95.0605,15.7203]]],[[[95.0689,15.8164],[95.0534,15.8195],[95.0646,15.8444],[95.0689,15.8164]]],[[[94.7332,15.8221],[94.7913,15.9258],[94.8121,15.9418],[94.8402,15.869],[94.8107,15.7875],[94.7344,15.7929],[94.7332,15.8221]]],[[[94.2738,15.8646],[94.2838,15.8652],[94.2777,15.8603],[94.2738,15.8646]]],[[[95.0651,15.8834],[95.0649,15.8676],[95.0628,15.8664],[95.0651,15.8834]]],[[[94.8384,15.8842],[94.8309,15.9062],[94.8422,15.884],[94.8384,15.8842]]],[[[94.4557,15.9113],[94.464,15.9157],[94.4628,15.9129],[94.4557,15.9113]]],[[[94.515,15.9145],[94.5197,15.9423],[94.5225,15.9426],[94.515,15.9145]]],[[[95.2678,15.9852],[95.2507,15.9233],[95.241,15.9118],[95.2678,15.9852]]],[[[94.6647,15.9598],[94.6672,15.9685],[94.6686,15.9667],[94.6647,15.9598]]],[[[95.1207,15.9944],[95.104,15.939],[95.102,15.9576],[95.1207,15.9944]]],[[[95.2736,15.8683],[95.2473,15.8572],[95.2349,15.8718],[95.273,15.9563],[95.2842,16.0323],[95.3264,16.0786],[95.3489,16.0],[95.2736,15.8683]]],[[[94.3218,15.978],[94.2823,15.9942],[94.3502,16.0084],[94.3218,15.978]]],[[[94.8637,16.0362],[94.8491,16.0],[94.8099,15.9774],[94.845,16.0629],[94.8637,16.0362]]],[[[95.0752,16.0156],[95.0846,16.0328],[95.0807,16.0085],[95.0752,16.0156]]],[[[94.6944,16.0016],[94.7016,16.0264],[94.7171,16.0504],[94.7196,16.0274],[94.6944,16.0016]]],[[[94.5799,16.0431],[94.5922,16.0997],[94.5718,16.0745],[94.573,16.0451],[94.5966,16.0307],[94.5938,16.0155],[94.5131,15.9889],[94.4469,15.9199],[94.3974,15.8322],[94.4109,15.8631],[94.3929,15.9017],[94.3863,16.0],[94.4535,16.0189],[94.5847,16.1991],[94.6492,16.2476],[94.6728,16.2032],[94.6476,16.1113],[94.5953,16.038],[94.5799,16.0431]]],[[[95.1377,16.0363],[95.0988,15.98],[95.0997,16.046],[95.1202,16.0803],[95.1719,16.1117],[95.2087,16.1057],[95.1806,16.075],[95.1854,16.028],[95.1377,16.0363]]],[[[94.6214,16.0421],[94.6182,16.0528],[94.6513,16.0928],[94.6425,16.0649],[94.6214,16.0421]]],[[[95.1454,16.1152],[95.1418,16.1198],[95.1617,16.1199],[95.1454,16.1152]]],[[[94.665,16.1337],[94.6684,16.1227],[94.663,16.1192],[94.665,16.1337]]],[[[94.5262,16.1324],[94.5275,16.1457],[94.5448,16.1502],[94.5262,16.1324]]],[[[95.1272,16.1447],[95.1335,16.1565],[95.1277,16.1379],[95.1272,16.1447]]],[[[94.5266,16.2838],[94.5602,16.2407],[94.5404,16.2011],[94.5185,16.2316],[94.5266,16.2838]]],[[[94.6579,16.2763],[94.6604,16.2697],[94.6575,16.2671],[94.6579,16.2763]]],[[[94.6148,16.2946],[94.6165,16.3223],[94.6499,16.3302],[94.6864,16.3779],[94.6279,16.2577],[94.5788,16.2248],[94.5746,16.2472],[94.6148,16.2946]]],[[[94.6843,16.31],[94.678,16.2989],[94.6812,16.3123],[94.6843,16.31]]],[[[94.695,16.3713],[94.7034,16.387],[94.6979,16.3684],[94.695,16.3713]]],[[[94.234,16.3846],[94.227,16.3781],[94.2321,16.3873],[94.234,16.3846]]],[[[94.253,16.5291],[94.2422,16.5182],[94.2493,16.5399],[94.253,16.5291]]],[[[94.5929,17.5688],[94.5871,17.5687],[94.588,17.5735],[94.5929,17.5688]]],[[[94.0921,18.0474],[94.0847,18.0602],[94.0996,18.0615],[94.0921,18.0474]]],[[[94.4471,18.1291],[94.4448,18.1372],[94.452,18.1374],[94.4471,18.1291]]],[[[94.3767,18.3504],[94.3768,18.3426],[94.371,18.3442],[94.3767,18.3504]]],[[[93.9109,18.4304],[93.9043,18.4343],[93.9055,18.4414],[93.9109,18.4304]]],[[[94.2436,18.5307],[94.242,18.5408],[94.2478,18.5369],[94.2436,18.5307]]],[[[93.7962,18.6425],[93.7901,18.6029],[93.7935,18.6657],[93.7962,18.6425]]],[[[93.8182,18.7147],[93.811,18.7247],[93.8158,18.7252],[93.8182,18.7147]]],[[[94.0091,18.7307],[93.9915,18.7312],[93.9846,18.744],[93.9961,18.7475],[94.0091,18.7307]]],[[[93.9407,18.8205],[93.9726,18.8367],[93.975,18.8025],[93.9923,18.7854],[93.9608,18.78],[93.9425,18.7993],[93.9407,18.8205]]],[[[94.1157,18.8095],[94.0733,18.8313],[94.0678,18.8476],[94.0864,18.8476],[94.1155,18.8697],[94.1131,18.8492],[94.1376,18.8564],[94.1346,18.8248],[94.1157,18.8095]]],[[[94.0332,19.0228],[94.0409,19.0389],[94.0559,19.0356],[94.0447,19.0229],[94.0332,19.0228]]],[[[94.0199,19.0422],[94.0346,19.0609],[94.0409,19.0594],[94.0346,19.0444],[94.0199,19.0422]]],[[[93.9972,19.103],[94.0168,19.1014],[94.0006,19.0971],[93.9972,19.103]]],[[[93.8195,19.2598],[93.8359,19.2586],[93.8263,19.2521],[93.8195,19.2598]]],[[[93.7518,19.2755],[93.7538,19.2865],[93.7604,19.2793],[93.7518,19.2755]]],[[[93.837,19.2717],[93.8367,19.2933],[93.8451,19.2768],[93.837,19.2717]]],[[[93.8653,19.2833],[93.8532,19.2712],[93.8486,19.2721],[93.8502,19.296],[93.8653,19.2833]]],[[[93.7766,19.2976],[93.8275,19.295],[93.8326,19.2758],[93.7868,19.2761],[93.7766,19.2976]]],[[[94.0419,19.3426],[94.0545,19.3488],[94.0466,19.337],[94.0419,19.3426]]],[[[93.6445,19.3665],[93.6746,19.377],[93.6879,19.3625],[93.6571,19.3361],[93.6445,19.3665]]],[[[93.6891,19.3979],[93.6737,19.391],[93.6631,19.4074],[93.6891,19.3979]]],[[[93.6319,19.4231],[93.6406,19.4241],[93.6362,19.4039],[93.6319,19.4231]]],[[[93.6616,19.429],[93.6551,19.4218],[93.6531,19.4273],[93.6616,19.429]]],[[[93.5999,19.442],[93.6099,19.4506],[93.6157,19.4505],[93.614,19.4362],[93.5999,19.442]]],[[[93.6058,19.4669],[93.6031,19.4877],[93.6175,19.4951],[93.6441,19.4497],[93.6058,19.4669]]],[[[93.8301,19.4819],[93.7709,19.5239],[93.7689,19.5315],[93.8592,19.5002],[93.8301,19.4819]]],[[[93.6321,19.5433],[93.6397,19.5666],[93.6662,19.5656],[93.6621,19.5474],[93.6321,19.5433]]],[[[93.6597,19.5781],[93.6728,19.5735],[93.6734,19.5696],[93.6681,19.5679],[93.6597,19.5781]]],[[[93.7184,19.5938],[93.7067,19.5966],[93.7034,19.6042],[93.7184,19.5938]]],[[[93.6013,19.6075],[93.6265,19.6262],[93.635,19.6109],[93.6013,19.6075]]],[[[93.6614,19.6301],[93.6539,19.6291],[93.6549,19.6392],[93.6614,19.6301]]],[[[93.6886,19.6621],[93.7,19.6579],[93.6921,19.6539],[93.6886,19.6621]]],[[[93.8104,19.7264],[93.814,19.7108],[93.8111,19.7096],[93.8104,19.7264]]],[[[93.6317,19.7182],[93.6559,19.7785],[93.6663,19.76],[93.6934,19.7879],[93.7046,19.7612],[93.69,19.7132],[93.6317,19.7182]]],[[[93.6706,19.8147],[93.6743,19.7998],[93.6318,19.7618],[93.5996,19.7099],[93.5916,19.7776],[93.6301,19.8135],[93.6423,19.8601],[93.7012,19.8521],[93.6706,19.8147]]],[[[93.7015,19.7919],[93.7212,19.8073],[93.7435,19.8326],[93.7368,19.7887],[93.7015,19.7919]]],[[[93.7925,19.8314],[93.7726,19.7636],[93.717,19.7625],[93.7037,19.7795],[93.7469,19.7906],[93.7545,19.8254],[93.7409,19.8453],[93.7634,19.8635],[93.7925,19.8314]]],[[[93.6753,19.7916],[93.6872,19.8262],[93.734,19.8509],[93.7327,19.8242],[93.6753,19.7916]]],[[[93.5996,19.843],[93.5459,19.8272],[93.5471,19.8669],[93.594,19.8746],[93.6184,19.9037],[93.6589,19.9056],[93.5996,19.843]]],[[[93.6902,19.8775],[93.6744,19.8587],[93.6521,19.8729],[93.6831,19.8949],[93.739,19.8765],[93.6902,19.8775]]],[[[93.7206,19.8914],[93.7226,19.8864],[93.7106,19.8934],[93.7206,19.8914]]],[[[93.7112,19.9182],[93.7223,19.9264],[93.7264,19.9232],[93.7112,19.9182]]],[[[97.8181,9.0681],[97.8064,9.0702],[97.8084,9.0838],[97.8181,9.0681]]],[[[97.8633,9.3655],[97.8678,9.3747],[97.8699,9.3689],[97.8633,9.3655]]],[[[97.8636,9.4241],[97.8627,9.405],[97.8825,9.3808],[97.8401,9.4145],[97.8636,9.4241]]],[[[97.8333,9.4187],[97.8321,9.4258],[97.8347,9.4245],[97.8333,9.4187]]],[[[97.8544,9.4554],[97.9037,9.4491],[97.9001,9.4218],[97.8775,9.4426],[97.8801,9.4145],[97.8462,9.4366],[97.8611,9.436],[97.8544,9.4554]]],[[[97.9063,9.6786],[97.9119,9.6751],[97.9061,9.6705],[97.9063,9.6786]]],[[[97.9321,10.1555],[97.92,10.1463],[97.9137,10.1544],[97.9321,10.1555]]],[[[97.8819,10.2026],[97.876,10.1897],[97.8737,10.2003],[97.8819,10.2026]]],[[[97.9439,10.3462],[97.9419,10.3598],[97.9521,10.3678],[97.9453,10.3576],[97.9439,10.3462]]],[[[97.9396,10.4023],[97.9468,10.4057],[97.9504,10.3916],[97.9396,10.4023]]],[[[97.9482,10.476],[97.9458,10.4198],[97.9207,10.4268],[97.9132,10.4151],[97.9425,10.4115],[97.8997,10.3938],[97.8991,10.4856],[97.9124,10.4938],[97.909,10.4651],[97.9482,10.476]]],[[[97.6817,10.4644],[97.6887,10.4591],[97.6794,10.4619],[97.6817,10.4644]]],[[[97.9178,10.5166],[97.9126,10.4991],[97.898,10.4959],[97.8968,10.5042],[97.9178,10.5166]]],[[[97.9541,10.9303],[97.9448,10.867],[97.9226,10.8695],[97.8877,10.8415],[97.8927,10.8661],[97.9101,10.8674],[97.8944,10.8946],[97.9197,10.9295],[97.9541,10.9303]]],[[[97.929,11.2676],[97.9279,11.2775],[97.9334,11.2752],[97.929,11.2676]]],[[[97.5053,11.6437],[97.5034,11.6356],[97.4999,11.6363],[97.5053,11.6437]]],[[[97.4887,11.7622],[97.4402,11.8008],[97.4988,11.7733],[97.4887,11.7622]]],[[[97.5257,11.8144],[97.5285,11.7808],[97.4993,11.7818],[97.4781,11.8145],[97.5257,11.8144]]],[[[97.6782,11.8145],[97.6649,11.8108],[97.6479,11.8162],[97.6691,11.8226],[97.6782,11.8145]]],[[[97.4711,11.8256],[97.4725,11.8145],[97.4692,11.8134],[97.4711,11.8256]]],[[[97.6742,11.8987],[97.6905,11.8764],[97.6752,11.8304],[97.6422,11.8705],[97.6742,11.8987]]],[[[97.9311,11.9989],[97.9226,11.9877],[97.9231,12.0011],[97.9311,11.9989]]],[[[97.7537,11.9989],[97.7415,11.9906],[97.7355,12.0086],[97.7537,11.9989]]],[[[97.6665,12.0539],[97.6889,12.052],[97.6528,12.0075],[97.6503,12.0337],[97.6665,12.0539]]],[[[97.762,12.0486],[97.788,12.0423],[97.7632,12.038],[97.762,12.0486]]],[[[97.9451,12.0528],[97.9443,12.0419],[97.941,12.041],[97.9451,12.0528]]],[[[97.6354,12.057],[97.6463,12.036],[97.6342,12.0365],[97.6354,12.057]]],[[[97.7292,12.1025],[97.7141,12.1348],[97.7453,12.146],[97.748,12.1239],[97.7292,12.1025]]],[[[97.9393,12.2075],[97.927,12.2312],[97.9324,12.2427],[97.9398,12.2287],[97.9393,12.2075]]],[[[97.8716,12.2367],[97.8756,12.2468],[97.877,12.2434],[97.8716,12.2367]]],[[[97.8035,12.3017],[97.7809,12.2637],[97.7722,12.2629],[97.8035,12.3017]]],[[[97.9554,12.2751],[97.9431,12.2818],[97.96,12.2939],[97.9554,12.2751]]],[[[97.8671,12.2991],[97.8828,12.2959],[97.8839,12.2866],[97.8635,12.28],[97.8671,12.2991]]],[[[97.8255,12.4728],[97.8371,12.4348],[97.824,12.4268],[97.8255,12.4728]]],[[[97.8109,12.5042],[97.8027,12.4964],[97.795,12.5089],[97.7966,12.5111],[97.8109,12.5042]]],[[[97.8811,12.5643],[97.8529,12.539],[97.8266,12.5836],[97.8444,12.5842],[97.8491,12.6],[97.8811,12.5643]]],[[[97.8533,12.6005],[97.8555,12.6136],[97.8639,12.6069],[97.8533,12.6005]]],[[[97.8675,12.6274],[97.8803,12.6204],[97.8634,12.6145],[97.8675,12.6274]]],[[[97.8846,12.7737],[97.8403,12.7762],[97.8385,12.8003],[97.8557,12.8093],[97.8456,12.8203],[97.8716,12.8064],[97.8846,12.7737]]],[[[97.9278,13.8521],[97.9134,13.7836],[97.9026,13.797],[97.9125,13.8685],[97.9278,13.8521]]],[[[97.9074,13.9421],[97.9169,13.926],[97.9173,13.8862],[97.9021,13.9267],[97.9074,13.9421]]],[[[97.8154,14.1343],[97.8045,14.109],[97.8013,14.1339],[97.8154,14.1343]]],[[[97.7883,14.176],[97.8243,14.1837],[97.7919,14.1344],[97.7792,14.1517],[97.7883,14.176]]],[[[97.81,14.2617],[97.802,14.2771],[97.8138,14.2806],[97.81,14.2617]]],[[[97.7802,14.389],[97.7672,14.4001],[97.7835,14.4145],[97.7802,14.389]]],[[[97.777,14.4412],[97.7657,14.4339],[97.7657,14.4376],[97.777,14.4412]]],[[[97.7274,15.0641],[97.7389,15.0666],[97.7323,15.0554],[97.7274,15.0641]]],[[[97.7416,15.0953],[97.7418,15.0802],[97.7381,15.0963],[97.7416,15.0953]]],[[[97.7351,15.2073],[97.7376,15.1921],[97.7324,15.193],[97.7351,15.2073]]],[[[94.7474,16.3783],[94.7858,16.3564],[94.8134,16.3558],[94.8254,16.3704],[94.7948,16.3601],[94.7519,16.3905],[94.7347,16.3608],[94.7195,16.3662],[94.7242,16.3986],[94.7432,16.4022],[94.75,16.4194],[94.7586,16.4096],[94.7705,16.4093],[94.7839,16.4261],[94.7588,16.4138],[94.7478,16.4265],[94.7126,16.3942],[94.6959,16.4757],[94.7404,16.5202],[94.7463,16.569],[94.7898,16.5778],[94.8004,16.5907],[94.7465,16.5768],[94.7281,16.5145],[94.6898,16.4927],[94.6782,16.5132],[94.7012,16.5517],[94.7103,16.6135],[94.7423,16.6328],[94.7216,16.6872],[94.7447,16.6957],[94.7416,16.7301],[94.7218,16.7336],[94.738,16.7245],[94.7361,16.7004],[94.7173,16.6913],[94.7098,16.6537],[94.733,16.629],[94.6784,16.6436],[94.6989,16.6797],[94.6889,16.7396],[94.6936,16.6767],[94.6754,16.6933],[94.6823,16.6714],[94.6688,16.6524],[94.6511,16.6702],[94.6557,16.6579],[94.6743,16.6497],[94.6581,16.6276],[94.6913,16.6391],[94.7012,16.6217],[94.6924,16.5549],[94.6644,16.5184],[94.6796,16.3932],[94.6529,16.3403],[94.6233,16.338],[94.6403,16.3835],[94.6062,16.3372],[94.6021,16.2844],[94.5648,16.2582],[94.531,16.2921],[94.5464,16.308],[94.5265,16.2987],[94.5119,16.2832],[94.5109,16.1802],[94.4336,16.0697],[94.3681,16.0546],[94.3419,16.0163],[94.2827,16.0],[94.2435,15.9541],[94.1976,16.0363],[94.2285,16.252],[94.2433,16.2647],[94.2309,16.3217],[94.2643,16.3968],[94.2771,16.4963],[94.2615,16.5308],[94.2907,16.5387],[94.2897,16.5191],[94.3149,16.5196],[94.3503,16.5688],[94.3234,16.6005],[94.3508,16.6207],[94.368,16.6149],[94.3563,16.6903],[94.3759,16.7572],[94.4039,16.7885],[94.3788,16.8748],[94.3885,16.907],[94.4106,16.8895],[94.4434,16.9306],[94.484,16.9432],[94.4782,16.9576],[94.443,16.9481],[94.4582,16.9806],[94.4567,17.0673],[94.4896,17.1177],[94.4558,17.1417],[94.4447,17.179],[94.4644,17.1882],[94.4993,17.1568],[94.5216,17.1687],[94.5363,17.1869],[94.5014,17.2162],[94.5083,17.2999],[94.5264,17.2768],[94.5464,17.2903],[94.5409,17.319],[94.5815,17.2885],[94.5917,17.3042],[94.5715,17.3171],[94.5654,17.4983],[94.5416,17.5488],[94.563,17.5931],[94.6099,17.5365],[94.6112,17.5501],[94.5769,17.5914],[94.5884,17.6192],[94.5692,17.6453],[94.5588,17.6362],[94.5416,17.6813],[94.5448,17.7349],[94.4897,17.7824],[94.4815,17.9029],[94.4375,17.9956],[94.4777,18.0065],[94.4847,18.0557],[94.4469,18.1691],[94.4198,18.1937],[94.4268,18.2197],[94.4075,18.2462],[94.3372,18.2416],[94.322,18.2642],[94.3284,18.302],[94.3911,18.2835],[94.4074,18.3107],[94.4023,18.3463],[94.3816,18.3656],[94.3376,18.3662],[94.3225,18.4359],[94.2492,18.5245],[94.2626,18.5486],[94.2513,18.5468],[94.2579,18.6085],[94.2402,18.6458],[94.1409,18.736],[94.1744,18.714],[94.1745,18.7283],[94.2197,18.7182],[94.28,18.7351],[94.253,18.7341],[94.2492,18.7552],[94.2388,18.7347],[94.2169,18.731],[94.2064,18.7431],[94.2243,18.7812],[94.2039,18.7527],[94.1916,18.7712],[94.1993,18.7931],[94.1831,18.7796],[94.1465,18.8144],[94.1762,18.8347],[94.1458,18.8353],[94.1523,18.8795],[94.1696,18.89],[94.1467,18.8848],[94.127,18.8567],[94.1169,18.8566],[94.1287,18.8786],[94.0553,18.8461],[94.0309,18.8633],[94.0439,18.8846],[94.0738,18.8676],[94.0906,18.8806],[94.1057,18.8997],[94.1353,18.892],[94.1086,18.9296],[94.113,18.9662],[94.0864,18.8798],[94.0718,18.8743],[94.031,18.9005],[94.0552,18.9352],[94.0364,18.9913],[94.0632,19.0376],[94.0586,19.0598],[94.1021,19.0766],[94.0897,19.085],[94.097,19.0986],[94.1228,19.0846],[94.109,19.1051],[94.1466,19.1191],[94.1161,19.1204],[94.0545,19.0754],[94.0272,19.0792],[94.0375,19.1067],[94.1385,19.1514],[94.1357,19.1796],[94.1295,19.1561],[94.1075,19.1513],[94.0927,19.1822],[94.0911,19.1484],[94.0648,19.1263],[94.0735,19.165],[94.0624,19.1881],[94.0568,19.1255],[94.0329,19.1296],[94.0492,19.2206],[94.0711,19.2339],[94.0469,19.2483],[94.0435,19.312],[94.0762,19.3746],[94.0686,19.3853],[94.0315,19.3281],[94.0355,19.2177],[94.0163,19.1814],[93.9914,19.2229],[94.0,19.1502],[93.9663,19.1395],[93.9438,19.1562],[93.938,19.2012],[93.9092,19.1995],[93.9677,19.1238],[93.9534,19.0885],[93.9557,19.0208],[93.9858,18.9614],[93.9325,18.8475],[93.8923,18.8923],[93.7584,18.9677],[93.7476,19.1212],[93.5414,19.2626],[93.4722,19.3669],[93.4841,19.4091],[93.5135,19.4341],[93.5509,19.4324],[93.568,19.4163],[93.5514,19.4101],[93.5682,19.4046],[93.6041,19.4145],[93.6374,19.3542],[93.6343,19.3399],[93.6172,19.3482],[93.6001,19.3227],[93.6214,19.3411],[93.6672,19.3022],[93.6417,19.2398],[93.6446,19.2238],[93.6815,19.3001],[93.7215,19.2926],[93.6948,19.2819],[93.7269,19.2754],[93.7207,19.2445],[93.739,19.2567],[93.809,19.2263],[93.8733,19.2466],[93.9559,19.3061],[93.9498,19.3369],[93.9722,19.3514],[93.9817,19.385],[94.0108,19.381],[93.9834,19.4055],[93.9663,19.3584],[93.8921,19.2916],[93.8817,19.3076],[93.9191,19.3345],[93.9218,19.3772],[93.9111,19.3353],[93.8842,19.3196],[93.8889,19.3534],[93.8589,19.3878],[93.8824,19.3531],[93.8692,19.3068],[93.7751,19.301],[93.7392,19.345],[93.7463,19.3542],[93.7753,19.3403],[93.78,19.3542],[93.7704,19.3447],[93.7533,19.3575],[93.7323,19.3566],[93.7319,19.3826],[93.7121,19.4014],[93.7393,19.4088],[93.6517,19.4445],[93.6372,19.4889],[93.6546,19.4919],[93.6468,19.5122],[93.6875,19.5654],[93.7462,19.5422],[93.7688,19.4853],[93.7758,19.5037],[93.7933,19.5003],[93.8187,19.4643],[93.8567,19.4843],[93.8585,19.4404],[93.877,19.473],[93.9764,19.4188],[93.9971,19.4525],[93.9766,19.4629],[93.9536,19.4479],[93.9046,19.468],[93.9485,19.5081],[93.9383,19.564],[93.9323,19.4985],[93.9024,19.4885],[93.7768,19.5911],[93.8164,19.6042],[93.7935,19.614],[93.7602,19.5991],[93.722,19.6265],[93.7476,19.6525],[93.7943,19.6598],[93.7882,19.6815],[93.8193,19.7111],[93.8181,19.7292],[93.8066,19.7392],[93.7986,19.7014],[93.727,19.6711],[93.7059,19.7028],[93.7208,19.7483],[93.7914,19.7691],[93.7976,19.8329],[93.7863,19.8628],[93.7979,19.8666],[93.8012,19.891],[93.7933,19.916],[93.7937,19.873],[93.7386,19.8852],[93.7145,19.9079],[93.7457,19.9152],[93.7085,19.9375],[93.7091,19.9673],[93.702,19.9144],[93.6218,19.917],[93.5518,19.8885],[93.5419,19.9036],[93.5754,19.9201],[93.5867,19.9378],[93.5688,19.9212],[93.5416,19.924],[93.546,19.9363],[93.5161,19.9234],[93.5121,19.9438],[93.5365,19.9552],[93.5085,19.9613],[93.5071,19.9748],[93.5401,19.9909],[93.4818,19.9914],[93.4674,20.0443],[93.4585,20.0541],[93.4762,20.0609],[93.4548,20.0552],[93.4762,20.0065],[93.4661,19.9825],[93.4543,19.9959],[93.4392,19.9925],[93.4567,19.95],[93.416,19.9708],[93.3807,20.0659],[93.3841,20.0801],[93.4167,20.0799],[93.4148,20.1121],[93.4329,20.1052],[93.4126,20.1727],[93.3623,20.2736],[93.343,20.2772],[93.3234,20.3297],[93.2966,20.33],[93.3259,20.3859],[93.3254,20.4036],[93.2805,20.3482],[93.2801,20.3282],[93.2398,20.306],[93.2306,20.2739],[93.2464,20.2454],[93.2099,20.2347],[93.1825,20.1969],[93.117,20.1857],[93.2165,20.2861],[93.2259,20.3076],[93.2124,20.3278],[93.2512,20.4261],[93.2252,20.3917],[93.198,20.3871],[93.2235,20.376],[93.203,20.3226],[93.1243,20.3281],[93.1374,20.3425],[93.1321,20.3693],[93.1563,20.3591],[93.1748,20.3741],[93.1293,20.3762],[93.1742,20.3994],[93.1648,20.422],[93.1681,20.4002],[93.0939,20.3798],[93.0884,20.4013],[93.1111,20.4138],[93.1167,20.4272],[93.107,20.5041],[93.087,20.5198],[93.1051,20.5307],[93.0919,20.53],[93.0702,20.602],[93.0483,20.5975],[93.0217,20.6219],[93.0277,20.6439],[93.0055,20.6398],[93.0178,20.6122],[93.0757,20.5792],[93.081,20.5411],[93.0258,20.4274],[93.0173,20.454],[93.0428,20.4633],[93.0402,20.4931],[93.0636,20.5246],[93.035,20.5378],[93.0556,20.5207],[93.0195,20.4791],[93.0333,20.4857],[93.0386,20.4686],[93.0135,20.4606],[93.0243,20.3894],[93.0091,20.2869],[92.963,20.2257],[92.945,20.2675],[92.915,20.2419],[92.9146,20.2122],[92.8862,20.2095],[92.9203,20.1809],[92.8966,20.1094],[92.8531,20.1232],[92.7649,20.2],[92.7873,20.2401],[92.7969,20.2102],[92.8305,20.1805],[92.8458,20.1823],[92.799,20.2141],[92.7988,20.2583],[92.9445,20.3156],[92.8982,20.3078],[92.8393,20.3808],[92.9108,20.3717],[92.9315,20.3863],[92.9417,20.3522],[92.9508,20.374],[92.9127,20.414],[92.9289,20.4212],[92.9326,20.4327],[92.8983,20.4822],[92.9285,20.4299],[92.9072,20.421],[92.9175,20.3833],[92.9063,20.3787],[92.8867,20.4218],[92.8866,20.4039],[92.8571,20.4195],[92.8637,20.4051],[92.8418,20.4017],[92.8166,20.4429],[92.8337,20.4407],[92.8383,20.4688],[92.8487,20.4591],[92.8275,20.4968],[92.8108,20.4924],[92.7961,20.5101],[92.7639,20.4734],[92.7523,20.4794],[92.7322,20.5696],[92.7486,20.5782],[92.7524,20.5867],[92.7468,20.5986],[92.7266,20.6168],[92.7482,20.5876],[92.731,20.5792],[92.6844,20.6278],[92.6456,20.6891],[92.645,20.7277],[92.5832,20.7199],[92.591,20.732],[92.5697,20.7796],[92.5997,20.7956],[92.6024,20.8064],[92.5649,20.7864],[92.5494,20.8493],[92.5449,20.8118],[92.5713,20.7516],[92.5466,20.7631],[92.5441,20.743],[92.591,20.6851],[92.607,20.6776],[92.6395,20.6883],[92.6954,20.5825],[92.7292,20.5496],[92.72,20.4706],[92.7478,20.4143],[92.7299,20.2954],[92.747,20.256],[92.7285,20.26],[92.638,20.4332],[92.5281,20.5435],[92.5133,20.5993],[92.4633,20.6445],[92.4661,20.6597],[92.3774,20.6957],[92.3877,20.7048],[92.3611,20.7723],[92.3901,20.8168],[92.3787,20.8246],[92.3584,20.7833],[92.3353,20.8433],[92.3602,20.8647],[92.3366,20.8509],[92.3146,20.8826],[92.3164,20.901],[92.3619,20.9419],[92.3477,20.9871],[92.3313,20.9978],[92.2968,20.9872],[92.2891,21.0036],[92.2933,20.98],[92.2798,20.9694],[92.2694,21.0182],[92.2887,21.0225],[92.2646,21.0358],[92.3128,21.0579],[92.3122,21.0703],[92.2734,21.0458],[92.2297,21.1046],[92.2243,21.1365],[92.198,21.1546],[92.1976,21.1198],[92.255,21.0615],[92.2494,21.026],[92.2627,20.9273],[92.313,20.8469],[92.3408,20.7524],[92.3261,20.7433],[92.2996,20.7607],[92.2117,20.9253],[92.1847,21.0139],[92.0533,21.1632],[92.0496,21.2642],[92.0289,21.3402],[91.9535,21.4502],[91.9993,21.5054],[92.0221,21.4864],[91.9954,21.5518],[92.0389,21.6476],[92.0405,21.6722],[92.0251,21.6822],[92.0352,21.7006],[92.0181,21.7165],[92.0193,21.6685],[91.9817,21.656],[91.9796,21.7042],[91.9667,21.6782],[91.9481,21.7453],[91.9764,21.7418],[91.9925,21.7678],[91.9716,21.7472],[91.9545,21.7539],[91.9706,21.7862],[91.9424,21.8042],[91.9308,21.7855],[91.8912,21.7773],[91.9199,21.8473],[91.9095,21.9079],[91.9275,21.9345],[91.8949,21.9689],[91.8548,22.1276],[91.8345,22.1221],[91.8118,22.1905],[91.8351,22.2151],[91.842,22.2605],[91.8147,22.3049],[91.8665,22.3221],[91.9008,22.4007],[91.9451,22.4162],[92.0019,22.4046],[92.022,22.4167],[92.0349,22.4459],[92.0815,22.4371],[92.1417,22.4615],[92.1439,22.4703],[92.0873,22.4443],[92.0331,22.4505],[92.0029,22.4124],[91.9541,22.421],[91.8964,22.4094],[91.8722,22.3498],[91.7955,22.2927],[91.7952,22.2778],[91.829,22.2565],[91.798,22.2196],[91.7693,22.2784],[91.7519,22.3866],[91.7001,22.4841],[91.5811,22.6536],[91.4576,22.7511],[91.4859,22.7667],[91.4692,22.7787],[91.4778,22.7633],[91.4547,22.7602],[91.4369,22.7772],[91.4746,22.8241],[91.4356,22.8047],[91.4836,22.8741],[91.4566,22.8989],[91.4922,22.9007],[91.4452,22.9007],[91.441,22.8836],[91.464,22.8832],[91.4647,22.869],[91.4204,22.8087],[91.4086,22.7609],[91.33,22.8335],[91.3506,22.8515],[91.3427,22.8832],[91.3158,22.8394],[91.3525,22.7861],[91.3451,22.7758],[91.2963,22.8102],[91.1869,22.7977],[91.1164,22.8119],[91.1127,22.8262],[91.0831,22.8],[91.0287,22.7996],[90.9375,22.8561],[90.8246,22.8647],[90.8016,22.9088],[90.7578,22.9387],[90.7958,22.898],[90.7954,22.8634],[90.7332,22.8875],[90.6896,22.9783],[90.6294,22.9981],[90.5663,23.1036],[90.598,23.1778],[90.6524,23.2423],[90.6389,23.3167],[90.6776,23.3182],[90.6754,23.3407],[90.6978,23.3457],[90.6796,23.3628],[90.695,23.3777],[90.6733,23.3642],[90.6616,23.3375],[90.6738,23.3213],[90.5987,23.3393],[90.5796,23.3947],[90.6007,23.4314],[90.5856,23.4669],[90.6303,23.4903],[90.6818,23.4821],[90.7039,23.4901],[90.7177,23.5428],[90.7443,23.5443],[90.7253,23.5534],[90.7084,23.5387],[90.7057,23.5617],[90.7392,23.6216],[90.7646,23.629],[90.7414,23.6621],[90.7578,23.721],[90.7425,23.6937],[90.7403,23.7242],[90.7315,23.7102],[90.7157,23.7414],[90.6818,23.6867],[90.6429,23.6899],[90.6324,23.6392],[90.5628,23.5929],[90.5531,23.5715],[90.5147,23.5814],[90.505,23.6033],[90.484,23.5866],[90.4538,23.6148],[90.4702,23.6298],[90.4427,23.6684],[90.368,23.7186],[90.3837,23.7022],[90.3658,23.7034],[90.3421,23.7401],[90.3176,23.735],[90.3128,23.7642],[90.2548,23.7303],[90.2571,23.7758],[90.2298,23.8877],[90.2396,23.827],[90.194,23.8405],[90.1518,23.8291],[90.1319,23.8674],[90.1117,23.8736],[90.1104,23.8573],[90.0572,23.8201],[90.047,23.8255],[90.0625,23.8769],[90.0468,23.8894],[90.0262,23.8817],[90.0227,23.9072],[90.0,23.9228],[90.0144,23.8769],[90.0547,23.8732],[90.041,23.8278],[90.0466,23.8174],[90.069,23.8163],[90.0887,23.83],[90.1247,23.8071],[90.1837,23.8023],[90.2068,23.8157],[90.2226,23.8004],[90.2415,23.8149],[90.2059,23.7537],[90.221,23.7216],[90.2524,23.721],[90.2746,23.6862],[90.2557,23.7074],[90.2383,23.7112],[90.2208,23.7081],[90.1813,23.7401],[90.1924,23.7203],[90.1626,23.7198],[90.1492,23.7107],[90.1218,23.7371],[90.0698,23.7579],[90.0232,23.7635],[90.0245,23.7952],[90.0,23.8165],[90.0195,23.7627],[90.1205,23.7334],[90.1497,23.7043],[90.1739,23.7165],[90.2205,23.7031],[90.2477,23.7076],[90.276,23.6548],[90.3797,23.6165],[90.4018,23.5883],[90.3789,23.5678],[90.4098,23.5803],[90.4377,23.5451],[90.4635,23.5452],[90.5054,23.5721],[90.5302,23.5669],[90.5701,23.4832],[90.538,23.4837],[90.5339,23.4659],[90.5539,23.4263],[90.5281,23.3907],[90.4858,23.4204],[90.4204,23.4161],[90.2542,23.4608],[90.1641,23.5242],[90.1103,23.6129],[89.97,23.6581],[89.9179,23.7215],[89.8638,23.7451],[89.7915,23.8077],[89.7742,23.8995],[89.7688,23.8876],[89.7046,23.9579],[89.7275,23.9776],[89.7208,24.0],[89.7153,23.9718],[89.6983,23.9645],[89.7051,23.9991],[89.6707,24.0],[89.6614,23.9423],[89.7033,23.875],[89.7513,23.8659],[89.7708,23.8359],[89.7571,23.8473],[89.7242,23.8344],[89.6802,23.8626],[89.7179,23.8319],[89.6297,23.8456],[89.5467,23.8241],[89.4497,23.8706],[89.4256,23.9133],[89.3865,23.9431],[89.3288,23.9487],[89.2808,23.9875],[89.3161,23.9479],[89.2889,23.9467],[89.2414,23.9813],[89.1733,24.0],[89.0914,23.9991],[89.0608,23.9839],[89.0936,23.9665],[89.1225,23.9203],[89.1241,23.9542],[89.1671,23.9259],[89.2341,23.9194],[89.3047,23.8696],[89.4078,23.8978],[89.4384,23.8386],[89.4995,23.7788],[89.5928,23.7975],[89.6397,23.7768],[89.7017,23.7769],[89.8567,23.6605],[89.9485,23.6357],[90.0247,23.5566],[90.018,23.5823],[90.083,23.573],[90.1256,23.5455],[90.1578,23.4889],[90.1593,23.4206],[90.2067,23.3338],[90.17,23.3466],[90.1639,23.3638],[90.1862,23.359],[90.1608,23.3676],[90.1665,23.3332],[90.1253,23.3055],[90.1205,23.3356],[90.1417,23.3597],[90.1445,23.3786],[90.1279,23.351],[90.0995,23.359],[90.1208,23.3473],[90.1189,23.3041],[90.093,23.3005],[90.0871,23.2728],[90.1245,23.2685],[90.1217,23.2487],[90.1287,23.2416],[90.2023,23.2256],[90.1987,23.2096],[90.1681,23.2041],[90.1774,23.1665],[90.219,23.183],[90.2485,23.1621],[90.2336,23.1421],[90.2452,23.1232],[90.3091,23.1128],[90.3167,23.0671],[90.2677,23.0431],[90.2726,23.0254],[90.3072,23.0209],[90.3206,22.9865],[90.2739,22.9687],[90.2991,22.9433],[90.3537,22.9212],[90.3456,22.884],[90.3205,22.8726],[90.3213,22.8502],[90.3726,22.7652],[90.3682,22.7366],[90.4195,22.7331],[90.4167,22.7138],[90.3964,22.729],[90.3831,22.7054],[90.4003,22.7234],[90.4204,22.7086],[90.4298,22.7305],[90.4193,22.7453],[90.378,22.7401],[90.3825,22.7586],[90.4366,22.761],[90.4832,22.7098],[90.4769,22.6561],[90.4961,22.6723],[90.5133,22.6529],[90.5042,22.5879],[90.5187,22.5991],[90.5797,22.5261],[90.6132,22.3275],[90.5912,22.2573],[90.5588,22.2382],[90.5212,22.184],[90.5066,22.1851],[90.4373,22.0668],[90.4221,22.1192],[90.4427,22.1513],[90.4265,22.1505],[90.4192,22.1262],[90.4192,22.0904],[90.3882,22.0901],[90.3847,22.1054],[90.4039,22.1682],[90.4261,22.1813],[90.3999,22.2179],[90.4165,22.2648],[90.4035,22.2837],[90.4191,22.2895],[90.3788,22.2931],[90.4149,22.3387],[90.3642,22.2952],[90.406,22.271],[90.395,22.204],[90.4179,22.1836],[90.3986,22.1722],[90.3831,22.1366],[90.3408,22.1621],[90.3872,22.1955],[90.3873,22.2114],[90.3562,22.1794],[90.3438,22.1958],[90.3498,22.1792],[90.3338,22.1633],[90.3784,22.1309],[90.3751,22.1053],[90.3331,22.1088],[90.2616,22.0404],[90.2751,22.0358],[90.278,21.9971],[90.2568,21.9557],[90.211,21.9825],[90.2135,22.0022],[90.1962,21.9784],[90.2287,21.9716],[90.2343,21.9583],[90.2176,21.9508],[90.2685,21.9462],[90.2409,21.8994],[90.2606,21.8847],[90.2549,21.8666],[90.2241,21.8543],[90.2042,21.8874],[90.2401,21.9344],[90.1969,21.8906],[90.2199,21.8528],[90.263,21.8583],[90.2478,21.8376],[90.2163,21.8373],[90.2602,21.8346],[90.1755,21.7891],[90.1072,21.8012],[90.0816,21.8355],[90.0992,21.8517],[90.1222,21.8485],[90.1016,21.8534],[90.1021,21.8743],[90.1372,21.8899],[90.1543,21.8854],[90.1589,21.8603],[90.1728,21.8697],[90.1519,21.8957],[90.1886,21.9228],[90.144,21.8906],[90.1158,21.8993],[90.1163,21.9159],[90.15,21.9227],[90.1372,21.9485],[90.1685,21.9805],[90.1406,21.9702],[90.128,21.9914],[90.1418,21.9247],[90.1114,21.9219],[90.0988,21.8944],[90.0991,21.9413],[90.0733,22.0045],[90.1633,22.1145],[90.2134,22.1142],[90.2283,22.1641],[90.2542,22.1638],[90.2717,22.1772],[90.2864,22.2071],[90.2723,22.2089],[90.2588,22.1722],[90.229,22.1724],[90.2401,22.1932],[90.2206,22.219],[90.2077,22.3093],[90.2269,22.3379],[90.2896,22.3505],[90.2973,22.3714],[90.2696,22.3586],[90.2657,22.3711],[90.2809,22.4069],[90.3178,22.4676],[90.3413,22.4589],[90.3626,22.4846],[90.3405,22.4664],[90.3148,22.4741],[90.2586,22.3754],[90.2548,22.3443],[90.2223,22.3421],[90.1991,22.3026],[90.2097,22.2143],[90.2298,22.1915],[90.2032,22.1238],[90.1608,22.124],[90.0879,22.0555],[90.0534,21.9715],[90.0298,21.9971],[90.0275,21.9782],[90.0039,21.9845],[89.993,22.0361],[90.0307,22.0628],[90.0362,22.1269],[90.0717,22.1533],[90.1399,22.1551],[90.0801,22.1586],[90.0257,22.189],[90.081,22.2209],[90.1116,22.2858],[90.1016,22.3424],[90.176,22.4215],[90.2018,22.4859],[90.206,22.5118],[90.1876,22.5225],[90.2028,22.5725],[90.1857,22.6255],[90.2519,22.6212],[90.2832,22.6302],[90.2953,22.6531],[90.2487,22.628],[90.181,22.6276],[90.1975,22.5675],[90.1819,22.5223],[90.1989,22.509],[90.1936,22.4802],[90.1725,22.4297],[90.095,22.3491],[90.1048,22.3039],[90.0739,22.2271],[90.0211,22.1868],[90.0282,22.1691],[90.0633,22.1618],[90.0225,22.1322],[90.0183,22.0663],[89.9809,22.0416],[89.9896,21.991],[89.9578,21.9789],[89.9092,22.0731],[89.9175,22.136],[89.8787,22.2524],[89.9197,22.3718],[89.9847,22.4388],[90.0,22.487],[90.025,22.4901],[90.033,22.5719],[90.065,22.6087],[90.0571,22.6225],[90.0268,22.599],[90.0327,22.6527],[90.0059,22.68],[90.028,22.6463],[90.0132,22.5988],[90.0307,22.5814],[90.0179,22.4945],[89.9546,22.5055],[89.9855,22.4868],[89.9872,22.466],[89.9102,22.3882],[89.8834,22.4052],[89.8834,22.4302],[89.8788,22.4209],[89.8806,22.3954],[89.8987,22.3721],[89.8448,22.2487],[89.8905,22.1211],[89.8528,22.0679],[89.8188,22.066],[89.8533,22.0483],[89.8854,21.9055],[89.8584,21.8784],[89.8456,21.8859],[89.8408,21.856],[89.7715,21.8311],[89.7896,21.879],[89.7542,21.8561],[89.7334,21.891],[89.7493,21.8346],[89.7143,21.8341],[89.7023,21.8494],[89.6756,21.8377],[89.6586,21.8922],[89.6795,21.9049],[89.6554,21.9134],[89.6339,21.8679],[89.7121,21.7853],[89.7124,21.7662],[89.6592,21.7511],[89.6548,21.765],[89.6067,21.7601],[89.6137,21.8111],[89.5627,21.8637],[89.5901,21.9386],[89.5607,21.9692],[89.5603,21.9911],[89.5311,21.9954],[89.5152,21.9904],[89.5251,21.9563],[89.5123,21.8993],[89.4971,21.9081],[89.4607,21.8522],[89.4337,21.8477],[89.4627,21.8461],[89.4712,21.8204],[89.459,21.8111],[89.4707,21.8137],[89.4842,21.7864],[89.4162,21.71],[89.3867,21.7099],[89.3559,21.8005],[89.3899,21.9021],[89.3671,21.9046],[89.3181,21.8611],[89.3072,21.8207],[89.2867,21.8053],[89.2927,21.7564],[89.2312,21.7683],[89.2193,21.7572],[89.197,21.8047],[89.1643,21.79],[89.1079,21.8105],[89.1121,21.8547],[89.0887,21.908],[89.0948,21.9381],[89.0835,21.9386],[89.0907,22.0094],[89.0491,22.0925],[89.1069,22.1546],[89.0819,22.1509],[89.076,22.1995],[89.0065,22.2833],[89.0342,22.2954],[88.9952,22.3274],[89.0016,22.384],[88.9839,22.4033],[89.0066,22.4226],[88.9999,22.4713],[88.9695,22.5448],[88.9267,22.5599],[88.9531,22.5599],[88.948,22.5858],[88.9648,22.6122],[88.9355,22.6423],[88.9478,22.6397],[88.9428,22.655],[88.9685,22.6865],[88.9233,22.7572],[88.9666,22.793],[88.9544,22.8073],[88.9716,22.8445],[88.953,22.8767],[88.9335,22.8701],[88.9169,22.8847],[88.902,22.9519],[88.8665,22.9578],[88.8929,23.041],[88.8732,23.0788],[88.881,23.1022],[88.9164,23.1234],[88.9481,23.1749],[88.9975,23.1997],[88.9871,23.225],[88.9447,23.2032],[88.9233,23.2326],[88.8215,23.2498],[88.8146,23.2243],[88.7908,23.226],[88.7836,23.2425],[88.7279,23.2574],[88.7017,23.3035],[88.7124,23.3151],[88.728,23.3049],[88.733,23.3231],[88.7487,23.3149],[88.7365,23.3512],[88.7726,23.3715],[88.7721,23.4405],[88.7979,23.4509],[88.8033,23.4897],[88.7875,23.5018],[88.7774,23.4794],[88.7517,23.4772],[88.7371,23.507],[88.6638,23.5518],[88.6525,23.6051],[88.597,23.6018],[88.603,23.6388],[88.5706,23.6455],[88.5912,23.7603],[88.5749,23.7864],[88.613,23.8052],[88.5956,23.859],[88.6204,23.8747],[88.6682,23.864],[88.72,23.9081],[88.7377,23.9059],[88.7453,23.974],[88.7757,23.9838],[88.7604,24.0051],[88.7385,23.9966],[88.7344,24.0135],[88.7567,24.0296],[88.7256,24.0442],[88.7439,24.0578],[88.697,24.1069],[88.6979,24.167],[88.7337,24.2092],[88.7252,24.2908],[88.6853,24.3283],[88.6481,24.3034],[88.5648,24.3274],[88.5474,24.3112],[88.5162,24.3177],[88.3798,24.3955],[88.342,24.438],[88.2037,24.4748],[88.1396,24.5094],[88.1139,24.5337],[88.0839,24.6238],[88.0283,24.6883],[88.0721,24.7437],[88.0705,24.7683],[88.1053,24.7845],[88.1165,24.821],[88.1329,24.8134],[88.1471,24.8489],[88.1682,24.8597],[88.1411,24.9339],[88.2279,24.9587],[88.2638,24.916],[88.2569,24.8837],[88.2731,24.8979],[88.3268,24.8703],[88.3397,24.8858],[88.3238,24.9136],[88.3395,24.9395],[88.3891,24.9486],[88.4448,25.0378],[88.4318,25.0588],[88.4464,25.077],[88.4376,25.1295],[88.459,25.1481],[88.4422,25.2007],[88.4956,25.2135],[88.5648,25.1764],[88.6136,25.2054],[88.7082,25.2095],[88.7451,25.1823],[88.7727,25.1925],[88.7972,25.175],[88.8359,25.2115],[88.9222,25.1723],[88.9403,25.1838],[88.9337,25.214],[88.9552,25.2155],[88.9465,25.2513],[88.9976,25.2741],[89.0113,25.2988],[88.9958,25.3178],[88.9096,25.3201],[88.8952,25.3429],[88.8781,25.3352],[88.8342,25.3713],[88.8316,25.4061],[88.8104,25.4161],[88.839,25.4595],[88.8248,25.4949],[88.8018,25.5084],[88.8037,25.5331],[88.7597,25.5292],[88.7676,25.5033],[88.732,25.5089],[88.6816,25.4775],[88.641,25.4851],[88.6451,25.5033],[88.6,25.5161],[88.536,25.5131],[88.5296,25.543],[88.4436,25.6057],[88.447,25.6682],[88.4022,25.6741],[88.3721,25.7147],[88.2734,25.7806],[88.2603,25.8154],[88.2043,25.7891],[88.1866,25.8036],[88.1521,25.7791],[88.1057,25.8245],[88.1131,25.8637],[88.0905,25.8745],[88.0865,25.9314],[88.121,25.9504],[88.1094,25.9629],[88.1276,25.9941],[88.1842,26.0281],[88.1719,26.0432],[88.1854,26.068],[88.1597,26.0811],[88.1804,26.1447],[88.2333,26.1715],[88.2279,26.1865],[88.27,26.1831],[88.3516,26.2186],[88.3465,26.2805],[88.3588,26.3013],[88.4088,26.3157],[88.4005,26.3273],[88.433,26.3433],[88.4539,26.3773],[88.4784,26.3482],[88.5264,26.3726],[88.483,26.4609],[88.365,26.4852],[88.3538,26.4507],[88.3311,26.4884],[88.3732,26.5815],[88.3981,26.6022],[88.3946,26.6292],[88.416,26.6272],[88.4293,26.5536],[88.4794,26.5435],[88.0808,27.5935],[88.116,27.6224],[88.1526,27.7402],[88.172,27.7463],[88.1922,27.7905],[88.1739,27.8223],[88.1993,27.8429],[88.1938,27.8548],[88.1351,27.8819],[88.1181,27.9185],[88.1414,27.9585],[88.2013,27.9468],[88.2116,27.9678],[88.2398,27.9707],[88.2559,27.9443],[88.3549,27.9898],[88.4033,27.9802],[88.4666,28.0135],[88.485,28.0411],[88.552,28.0316],[88.5609,28.0809],[88.6085,28.0886],[88.6385,28.1147],[88.674,28.0719],[88.7619,28.072],[88.8042,28.0257],[88.8408,28.01],[88.8414,27.9255],[88.8713,27.9169],[88.8862,27.8575],[88.86,27.8118],[88.8684,27.7369],[88.8483,27.7147],[88.8499,27.6749],[88.8143,27.6448],[88.79,27.5764],[88.7685,27.5675],[88.7947,27.5329],[88.7811,27.4708],[88.795,27.4321],[88.8362,27.3819],[88.8611,27.3882],[88.8889,27.3415],[88.9218,27.3273],[88.9101,27.2766],[88.9233,27.2728],[88.9093,27.2331],[88.8136,27.2107],[88.7998,27.1593],[88.7597,27.1143],[88.8785,27.0683],[88.8891,27.0253],[88.8768,26.9492],[88.9165,26.9899],[88.9468,26.9685],[88.9478,26.9351],[88.9786,26.9208],[89.0216,26.9379],[89.0886,26.8945],[89.1116,26.8272],[89.1371,26.8104],[89.2651,26.8216],[89.3759,26.8601],[89.3962,26.8382],[89.4454,26.8385],[89.4658,26.8128],[89.5395,26.8151],[89.6364,26.7823],[89.6433,26.7607],[89.625,26.7242],[89.6968,26.7384],[89.7808,26.7096],[89.8592,26.7076],[89.8559,26.7468],[89.9171,26.7286],[90.1702,26.7653],[90.1891,26.7763],[90.1904,26.825],[90.2224,26.8567],[90.3001,26.8542],[90.3678,26.902],[90.4167,26.9035],[90.5373,26.821],[90.6969,26.7717],[91.0453,26.7869],[91.088,26.8159],[91.2627,26.8072],[91.3345,26.7774],[91.3811,26.8027],[91.4352,26.8734],[91.5112,26.8684],[91.5498,26.8032],[91.6352,26.8132],[91.7153,26.7956],[91.8514,26.8636],[91.8833,26.8579],[91.892,26.8126],[91.9129,26.8043],[91.904,26.8503],[91.934,26.8605],[91.9332,26.8989],[91.9837,26.8593],[92.0357,26.8491],[92.4231,26.9093],[92.5949,26.9531],[92.6648,26.9561],[92.802,26.8989],[92.9084,26.9182],[93.0875,26.8824],[93.2314,26.9104],[93.5667,26.9418],[93.7458,27.0194],[93.8292,27.0372],[93.8612,27.1909],[93.9861,27.3258],[94.2764,27.5847],[94.5242,27.5997],[94.8851,27.7468],[95.0012,27.8267],[95.2856,27.9436],[95.3518,28.0441],[95.3705,28.1137],[95.3957,28.1458],[95.7308,28.2765],[95.787,28.274],[95.8224,28.2962],[95.8738,28.3013],[95.8994,28.2818],[95.9073,28.2453],[95.9357,28.2443],[96.013,28.1948],[96.2704,28.2337],[96.2988,28.1442],[96.3956,28.1254],[96.399,28.1551],[96.4414,28.1597],[96.4738,28.1319],[96.5055,28.071],[96.5182,28.0825],[96.6058,28.047],[96.6664,27.9636],[96.9561,28.3336],[97.0149,28.3184],[97.0904,28.3684],[97.1361,28.3697],[97.1555,28.3377],[97.184,28.3342],[97.2044,28.3086],[97.2296,28.3102],[97.2574,28.2631],[97.3479,28.212],[97.3564,28.2433],[97.4111,28.2508],[97.3998,28.2782],[97.4147,28.2961],[97.4632,28.2733],[97.4787,28.2815],[97.4685,28.3082],[97.5181,28.3317],[97.4914,28.3517],[97.483,28.3815],[97.5071,28.4092],[97.4996,28.4325],[97.5208,28.4443],[97.5076,28.4985],[97.5763,28.5471],[97.604,28.5188],[97.6601,28.5354],[97.7163,28.4997],[97.7365,28.4693],[97.7376,28.4],[97.7737,28.3729],[97.7957,28.3312],[97.8424,28.3304],[97.8656,28.3634],[97.9075,28.367],[97.9635,28.3161],[97.953,28.3038],[98.0,28.2793],[98.0,25.275],[97.9251,25.2175],[97.904,25.2207],[97.8612,25.2678],[97.8351,25.2642],[97.7731,25.1127],[97.7434,25.0839],[97.7201,25.0837],[97.7156,24.9832],[97.7306,24.9135],[97.7995,24.8558],[97.7617,24.8264],[97.7012,24.841],[97.6547,24.7966],[97.5858,24.7699],[97.552,24.738],[97.5718,24.7129],[97.5714,24.6055],[97.5536,24.4857],[97.5291,24.4432],[97.5326,24.4312],[97.674,24.4558],[97.6836,24.3939],[97.7147,24.3658],[97.6993,24.3419],[97.6629,24.3402],[97.6671,24.2978],[97.7197,24.2982],[97.7673,24.2649],[97.7272,24.2226],[97.7264,24.1869],[97.7594,24.1648],[97.7287,24.1139],[97.6337,24.047],[97.6279,24.014],[97.5326,23.9476],[97.5335,23.9259],[97.6232,23.8903],[97.6461,23.8433],[97.6871,23.8878],[97.7134,23.8614],[97.7062,23.8863],[97.7625,23.9115],[97.8106,23.9601],[97.8195,23.9443],[97.8259,23.9711],[97.8431,23.9614],[97.8688,23.9864],[97.8925,23.9743],[97.8978,24.0116],[98.0,24.0431],[98.0,19.7447],[97.8668,19.576],[97.7657,18.5765],[97.9161,17.5674],[98.0,17.4752],[98.0,14.4825],[97.9851,14.4713],[97.9669,14.4417],[97.9654,14.4261],[97.9407,14.5262],[97.9058,14.5783],[97.9134,14.6195],[97.9047,14.6107],[97.8728,14.671],[97.8944,14.7054],[97.8855,14.7229],[97.8678,14.7078],[97.8392,14.7187],[97.7918,14.8683],[97.8083,14.9501],[97.7969,14.9973],[97.8132,15.0062],[97.8244,15.0243],[97.791,14.9984],[97.7707,15.0183],[97.7958,15.0271],[97.8063,15.1503],[97.787,15.1795],[97.7951,15.1903],[97.7653,15.1971],[97.7387,15.2445],[97.7417,15.295],[97.7215,15.3328],[97.7275,15.3548],[97.7469,15.3561],[97.7465,15.3837],[97.7828,15.397],[97.7408,15.4871],[97.762,15.5281],[97.6994,15.7541],[97.7217,15.7717],[97.7179,15.8434],[97.6754,15.9144],[97.6103,15.949],[97.6035,15.9803],[97.5713,16.0108],[97.5582,16.0726],[97.5967,16.0851],[97.6143,16.0611],[97.6277,16.0504],[97.648,16.0442],[97.6654,16.0486],[97.6772,16.0283],[97.6969,16.0275],[97.6673,16.0521],[97.6202,16.0587],[97.6072,16.1036],[97.5978,16.097],[97.6438,16.27],[97.6155,16.3556],[97.6294,16.3873],[97.6141,16.4256],[97.6284,16.4532],[97.6253,16.5],[97.6486,16.4984],[97.6621,16.5123],[97.6624,16.4765],[97.6823,16.4655],[97.7025,16.4706],[97.7044,16.4501],[97.7232,16.4502],[97.7198,16.4268],[97.7539,16.4141],[97.7355,16.4023],[97.7334,16.3833],[97.7784,16.3746],[97.7974,16.354],[97.7858,16.3396],[97.7874,16.3327],[97.8346,16.3236],[97.8601,16.2918],[97.8887,16.2862],[97.8521,16.3024],[97.8441,16.3234],[97.7924,16.3327],[97.8031,16.3534],[97.7905,16.3703],[97.7614,16.386],[97.7372,16.386],[97.7578,16.4177],[97.7289,16.4247],[97.7259,16.4541],[97.7068,16.4536],[97.7023,16.474],[97.6641,16.48],[97.6755,16.5007],[97.6684,16.5455],[97.7465,16.5616],[97.7089,16.5706],[97.6685,16.5549],[97.6442,16.6134],[97.6214,16.6433],[97.6076,16.581],[97.6264,16.5585],[97.6215,16.5187],[97.5325,16.5376],[97.4885,16.5387],[97.481,16.5218],[97.3928,16.5251],[97.3629,16.479],[97.3284,16.6589],[97.3466,16.6471],[97.3939,16.64],[97.4108,16.6424],[97.424,16.6584],[97.3927,16.6437],[97.3457,16.6544],[97.3406,16.6666],[97.3578,16.6694],[97.3476,16.6786],[97.328,16.667],[97.3301,16.6963],[97.3439,16.6953],[97.3419,16.7341],[97.3403,16.7095],[97.3207,16.7102],[97.3185,16.668],[97.2772,16.6862],[97.2398,16.7684],[97.2498,16.8225],[97.2349,16.8088],[97.2226,16.8417],[97.227,16.8573],[97.2664,16.8442],[97.2781,16.8505],[97.2659,16.8701],[97.265,16.8481],[97.2228,16.8672],[97.2092,16.8129],[97.1998,16.8823],[97.218,16.9017],[97.2191,16.9379],[97.1906,16.8911],[97.1748,16.8905],[97.1693,16.9107],[97.2072,17.008],[97.1547,17.0678],[97.1533,17.0952],[97.1909,17.1169],[97.2134,17.0874],[97.2645,17.1036],[97.2278,17.1029],[97.2063,17.1338],[97.1791,17.1294],[97.1365,17.1162],[97.1343,17.0806],[97.1143,17.0778],[97.0887,17.1652],[97.1067,17.1878],[97.0833,17.1817],[97.0592,17.2533],[97.0003,17.2667],[97.0091,17.3],[96.9116,17.357],[96.8832,17.4541],[96.8649,17.3961],[96.8434,17.3893],[96.849,17.4134],[96.8209,17.4331],[96.7945,17.4883],[96.7859,17.49],[96.7671,17.4792],[96.7344,17.4353],[96.7735,17.3763],[96.7225,17.3474],[96.6924,17.3664],[96.6498,17.3383],[96.6683,17.2691],[96.6962,17.2479],[96.7086,17.2545],[96.6769,17.2675],[96.6854,17.3453],[96.725,17.3382],[96.8366,17.3809],[96.8401,17.3648],[96.8443,17.3762],[96.8597,17.3615],[96.856,17.3431],[96.863,17.3527],[96.9111,17.3215],[96.8907,17.3119],[96.9129,17.3049],[96.9024,17.2717],[96.8335,17.2052],[96.8487,17.2008],[96.8771,17.1123],[96.9001,17.0889],[96.9121,17.0177],[96.8737,16.911],[96.8383,16.9272],[96.8509,16.9591],[96.8346,16.9511],[96.8316,16.9194],[96.8552,16.8877],[96.8359,16.9046],[96.8251,16.8937],[96.8072,16.9106],[96.7967,16.9065],[96.8333,16.8788],[96.853,16.8372],[96.8078,16.7555],[96.7808,16.7818],[96.7746,16.7731],[96.8013,16.7397],[96.7713,16.6916],[96.5964,16.5366],[96.4938,16.5046],[96.3837,16.4966],[96.2847,16.5537],[96.2867,16.5918],[96.3336,16.6234],[96.4268,16.6076],[96.4699,16.6127],[96.3313,16.6287],[96.2874,16.6001],[96.2778,16.5775],[96.2638,16.6474],[96.2348,16.6789],[96.2228,16.7542],[96.3156,16.8334],[96.3456,16.8333],[96.3941,16.8594],[96.4084,16.8552],[96.4861,16.8699],[96.5119,16.8882],[96.4839,16.8731],[96.3948,16.864],[96.3244,16.8384],[96.32,16.869],[96.3477,16.9059],[96.3007,16.8637],[96.298,16.8408],[96.2776,16.8693],[96.3037,16.8261],[96.2035,16.7632],[96.1847,16.7765],[96.195,16.7898],[96.1915,16.7999],[96.2124,16.7983],[96.2246,16.8111],[96.2182,16.8412],[96.2089,16.8458],[96.2203,16.8109],[96.1917,16.8059],[96.1802,16.7767],[96.1973,16.7597],[96.1288,16.7711],[96.1207,16.8138],[96.1155,16.8122],[96.1319,16.7589],[96.119,16.7566],[96.1921,16.7409],[96.2157,16.6707],[96.2461,16.636],[96.2366,16.6078],[96.2094,16.6032],[96.1735,16.5831],[96.1736,16.5163],[96.1926,16.4892],[96.1805,16.4874],[96.1754,16.4635],[96.1417,16.4537],[96.1628,16.4177],[96.0771,16.3572],[96.0173,16.3845],[95.9964,16.4107],[95.9121,16.4109],[95.9275,16.385],[95.9059,16.3295],[95.8912,16.2446],[95.7785,16.1291],[95.7544,16.1266],[95.7403,16.1452],[95.7269,16.264],[95.7096,16.2731],[95.7229,16.2566],[95.7382,16.1126],[95.6966,16.046],[95.6931,15.9992],[95.6483,15.9258],[95.5158,15.7881],[95.4264,15.7213],[95.358,15.7039],[95.2868,15.7187],[95.2704,15.8008],[95.2792,15.8463],[95.3045,15.8527],[95.2973,15.8621],[95.3195,15.8808],[95.3399,15.88],[95.3404,15.9022],[95.3479,15.8805],[95.3809,15.8721],[95.3989,15.8768],[95.4126,15.9057],[95.3871,15.8768],[95.3534,15.8849],[95.3388,15.9054],[95.3356,15.8829],[95.3225,15.8868],[95.2984,15.8701],[95.3478,15.9473],[95.364,16.0503],[95.3962,16.0616],[95.3628,16.0583],[95.3368,16.0993],[95.3705,16.1492],[95.3907,16.2396],[95.3263,16.1926],[95.306,16.1581],[95.3266,16.0873],[95.2792,16.0394],[95.2352,15.9326],[95.2101,15.8565],[95.2226,15.7902],[95.1768,15.7679],[95.1243,15.7917],[95.1094,15.8899],[95.1332,16.0193],[95.1896,16.0246],[95.1927,16.0799],[95.2671,16.1495],[95.1911,16.1138],[95.2079,16.1777],[95.1799,16.1374],[95.1526,16.1389],[95.165,16.1263],[95.1328,16.1239],[95.1408,16.2315],[95.1236,16.2067],[95.1323,16.1672],[95.1198,16.1153],[95.0867,16.0923],[95.0561,16.0355],[95.0701,15.944],[95.037,15.8038],[95.0011,15.7787],[94.9868,15.7848],[94.9842,15.8484],[94.9821,15.76],[94.9476,15.7412],[94.8343,15.7808],[94.8397,15.8061],[94.8893,15.8274],[94.8713,15.8954],[94.9508,15.9456],[94.9443,15.9536],[94.8637,15.8967],[94.873,15.8249],[94.845,15.8298],[94.8373,15.8467],[94.8501,15.8762],[94.8384,15.9381],[94.8233,15.9327],[94.8283,15.9601],[94.8619,16.0],[94.9145,16.0],[94.9218,16.0306],[94.9054,16.0747],[94.9333,16.0862],[94.9555,16.131],[95.0226,16.135],[95.0225,16.1603],[95.0557,16.1994],[95.0566,16.216],[95.0465,16.2391],[95.0693,16.2458],[95.1006,16.3006],[95.0652,16.2477],[95.0432,16.2457],[95.0479,16.1971],[95.0137,16.1616],[95.0162,16.1437],[94.9529,16.1388],[94.9304,16.0942],[94.903,16.083],[94.9154,16.0299],[94.8918,16.0061],[94.8785,16.0115],[94.8656,16.1351],[94.8888,16.1818],[94.9573,16.1962],[95.0257,16.2628],[95.0421,16.3097],[95.0649,16.3114],[95.0509,16.3127],[95.0505,16.3334],[95.0165,16.2669],[94.9522,16.211],[94.8727,16.1872],[94.8388,16.1108],[94.8497,16.0723],[94.7194,15.8505],[94.6856,15.8371],[94.634,15.8613],[94.6005,15.9203],[94.6697,15.9557],[94.7184,16.0],[94.7362,16.0636],[94.7845,16.0965],[94.763,16.1241],[94.7876,16.1316],[94.8071,16.1998],[94.8374,16.2115],[94.8529,16.2398],[94.8035,16.2062],[94.7764,16.1448],[94.7554,16.1316],[94.7516,16.0937],[94.7196,16.0669],[94.6841,16.0],[94.5696,15.929],[94.5501,15.966],[94.5608,15.9567],[94.5826,16.0],[94.6173,16.0191],[94.6846,16.1148],[94.6806,16.2026],[94.7209,16.2029],[94.7589,16.2373],[94.7395,16.2574],[94.76,16.2809],[94.7336,16.2564],[94.7496,16.2377],[94.7262,16.2305],[94.7192,16.2091],[94.6772,16.2134],[94.6632,16.2429],[94.7059,16.2498],[94.7058,16.2669],[94.6983,16.2493],[94.6636,16.2541],[94.6881,16.3066],[94.6989,16.3555],[94.7372,16.354],[94.7474,16.3783]],[[88.4794,26.5435],[88.4876,26.5124],[88.5155,26.5121],[88.5234,26.485],[88.556,26.486],[88.5599,26.4666],[88.5875,26.4612],[88.6121,26.477],[88.4794,26.5435]],[[93.4666,24.0],[93.4028,24.0778],[93.3312,24.0798],[93.3313,23.9831],[93.3652,23.9327],[93.3923,23.9221],[93.3895,23.8492],[93.405,23.7993],[93.5241,23.9514],[93.4694,23.9695],[93.4666,24.0]],[[94.6796,25.4546],[94.6276,25.3604],[94.718,25.4758],[94.6796,25.4546]],[[95.022,25.8639],[95.1051,25.9701],[95.0523,25.928],[95.0238,25.9246],[95.022,25.8639]],[[96.0247,27.1767],[95.9043,27.0243],[95.8019,27.0079],[95.731,26.8924],[95.6518,26.889],[95.5985,26.8092],[95.5487,26.8216],[95.512,26.8119],[95.4344,26.698],[95.2754,26.6432],[95.2408,26.6803],[95.144,26.6106],[95.1503,26.5727],[95.1165,26.545],[95.1087,26.5066],[95.0709,26.4629],[95.0983,26.4047],[95.0708,26.3079],[95.0953,26.2185],[95.1238,26.1978],[95.1036,26.1712],[95.1246,26.1007],[95.1824,26.0688],[96.0743,27.2076],[96.0247,27.1767]],[[88.7043,26.29],[88.6722,26.3029],[88.6605,26.2894],[88.6804,26.2676],[88.7147,26.2835],[88.7176,26.299],[88.7316,26.2955],[88.7161,26.3204],[88.6912,26.3135],[88.7043,26.29]],[[88.6214,26.4724],[88.6255,26.4345],[88.6541,26.4199],[88.6214,26.4724]]],[[[98.0,14.2877],[97.9679,14.3955],[98.0,14.4789],[98.0,14.2877]]],[[[97.6462,15.5884],[97.6642,15.5139],[97.6552,15.494],[97.6462,15.5884]]],[[[95.313,15.9345],[95.321,15.9478],[95.3328,15.9568],[95.3321,15.9424],[95.313,15.9345]]],[[[95.3452,15.9714],[95.3453,15.9583],[95.3396,15.9546],[95.3384,15.9631],[95.3452,15.9714]]],[[[95.3666,16.2017],[95.3641,16.1565],[95.3263,16.1146],[95.3113,16.1457],[95.3183,16.1719],[95.3666,16.2017]]],[[[95.8876,16.2228],[95.8727,16.2216],[95.8943,16.2393],[95.8876,16.2228]]],[[[95.9078,16.2866],[95.9133,16.2749],[95.9016,16.2554],[95.9031,16.273],[95.9078,16.2866]]],[[[97.5955,16.3324],[97.6161,16.2773],[97.5936,16.2399],[97.5804,16.3194],[97.5955,16.3324]]],[[[95.9178,16.273],[95.913,16.3313],[95.9399,16.3786],[95.9563,16.3263],[95.9441,16.2473],[95.8751,16.2001],[95.9178,16.273]]],[[[96.0284,16.2521],[95.927,16.2097],[95.9558,16.2478],[95.9703,16.3017],[95.971,16.3446],[95.9938,16.382],[96.0187,16.3769],[96.0736,16.3414],[96.0818,16.3101],[96.0284,16.2521]]],[[[95.9615,16.2951],[95.9577,16.313],[95.9577,16.3487],[95.9672,16.3175],[95.9615,16.2951]]],[[[96.0648,16.3563],[96.0779,16.3521],[96.0805,16.3436],[96.0648,16.3563]]],[[[97.5825,16.4071],[97.5904,16.3597],[97.5642,16.2884],[97.5721,16.2436],[97.559,16.2244],[97.5368,16.2263],[97.5009,16.2468],[97.4565,16.3187],[97.482,16.3525],[97.4418,16.4469],[97.472,16.4712],[97.449,16.4757],[97.5023,16.5124],[97.5793,16.4835],[97.6081,16.4883],[97.6115,16.4467],[97.5825,16.4071]]],[[[95.9343,16.3798],[95.9279,16.3735],[95.9334,16.3835],[95.9343,16.3798]]],[[[95.9641,16.4063],[95.9924,16.3898],[95.9658,16.3464],[95.9522,16.3705],[95.9641,16.4063]]],[[[95.9515,16.3793],[95.9437,16.3836],[95.9477,16.39],[95.9515,16.3793]]],[[[96.0071,16.3859],[95.9936,16.3955],[95.9936,16.399],[96.0071,16.3859]]],[[[95.9387,16.3893],[95.9399,16.3965],[95.9418,16.3884],[95.9387,16.3893]]],[[[97.6029,16.3816],[97.601,16.3972],[97.6051,16.4101],[97.6131,16.3953],[97.6029,16.3816]]],[[[96.3026,16.4723],[96.2944,16.4457],[96.3266,16.4653],[96.3211,16.447],[96.336,16.4437],[96.281,16.3911],[96.155,16.322],[96.1241,16.314],[96.0992,16.3264],[96.0897,16.3464],[96.1023,16.3716],[96.1432,16.3846],[96.1689,16.4176],[96.1488,16.4548],[96.1804,16.4603],[96.1831,16.4835],[96.1985,16.4841],[96.1788,16.5142],[96.1801,16.5847],[96.2356,16.5983],[96.2628,16.5187],[96.3026,16.4723]]],[[[96.3192,16.4688],[96.309,16.4677],[96.3076,16.4757],[96.3192,16.4688]]],[[[97.5739,16.4879],[97.5885,16.4907],[97.5905,16.4882],[97.5739,16.4879]]],[[[97.534,16.514],[97.5541,16.503],[97.5285,16.5115],[97.534,16.514]]],[[[97.5998,16.5168],[97.5876,16.5066],[97.5555,16.5248],[97.5998,16.5168]]],[[[97.6492,16.5078],[97.651,16.5202],[97.6558,16.5234],[97.6492,16.5078]]],[[[97.5211,16.5336],[97.5148,16.5236],[97.4991,16.5271],[97.5211,16.5336]]],[[[97.6435,16.5772],[97.6564,16.5387],[97.6276,16.5296],[97.6435,16.5772]]],[[[97.7111,16.5602],[97.7152,16.5643],[97.7161,16.5622],[97.7111,16.5602]]],[[[97.6481,16.5787],[97.6573,16.5738],[97.6534,16.5681],[97.6481,16.5787]]],[[[97.6422,16.6084],[97.6359,16.5736],[97.618,16.574],[97.6261,16.6184],[97.6422,16.6084]]],[[[96.3016,16.8461],[96.3085,16.8575],[96.3078,16.8424],[96.3016,16.8461]]],[[[97.1907,16.8475],[97.183,16.8705],[97.1928,16.8777],[97.1989,16.8658],[97.1907,16.8475]]],[[[96.6759,17.3462],[96.6652,17.3236],[96.6557,17.3309],[96.6596,17.3426],[96.6759,17.3462]]],[[[96.7776,17.3754],[96.7742,17.3662],[96.7677,17.3663],[96.7776,17.3754]]],[[[96.7977,17.379],[96.7389,17.4316],[96.7865,17.4833],[96.8078,17.4389],[96.8428,17.407],[96.7977,17.379]]],[[[97.9799,9.6017],[97.9698,9.6218],[97.9537,9.6382],[97.9762,9.6376],[97.9799,9.6017]]],[[[97.9959,10.0303],[97.986,10.0374],[97.9923,10.0489],[97.9959,10.0303]]],[[[97.9784,10.0757],[97.9935,10.0701],[97.9897,10.0531],[97.9758,10.0616],[97.9784,10.0757]]],[[[97.9601,10.1236],[97.9636,10.15],[97.9814,10.1764],[97.9835,10.1325],[97.9731,10.1413],[97.9601,10.1236]]],[[[98.0,10.3201],[97.9882,10.3267],[98.0,10.3565],[98.0,10.3201]]],[[[97.9702,10.3617],[97.9718,10.3521],[97.9676,10.347],[97.9702,10.3617]]],[[[97.9541,10.4173],[97.96,10.4338],[97.9637,10.4326],[97.9674,10.4091],[97.9541,10.4173]]],[[[98.0,10.5605],[97.9915,10.537],[97.9451,10.5591],[97.9812,10.5704],[98.0,10.5605]]],[[[97.9894,10.8406],[97.9973,10.8459],[97.9947,10.8367],[97.9894,10.8406]]],[[[97.9996,10.8825],[98.0,10.8828],[98.0,10.8814],[97.9996,10.8825]]],[[[97.9996,11.3836],[97.9922,11.3983],[97.999,11.4087],[98.0,11.4051],[97.9996,11.3836]]],[[[97.9732,11.4447],[98.0,11.4487],[98.0,11.4351],[97.9809,11.4361],[97.9732,11.4447]]],[[[97.9996,11.9566],[97.9753,11.9511],[97.9697,11.9569],[97.9915,11.9697],[97.9996,11.9566]]],[[[97.9849,12.0243],[97.9935,12.0019],[97.9683,12.014],[97.9849,12.0243]]],[[[97.9605,12.0266],[97.9533,12.058],[97.9612,12.0674],[97.9829,12.0531],[97.9626,12.0469],[97.9605,12.0266]]],[[[97.9756,12.0814],[97.9808,12.103],[97.9784,12.0812],[97.9756,12.0814]]],[[[97.9973,12.0954],[97.9887,12.1039],[97.9897,12.1104],[98.0,12.1081],[97.9973,12.0954]]],[[[97.9682,12.1183],[97.9746,12.1048],[97.9692,12.1037],[97.9682,12.1183]]],[[[97.9748,12.1337],[97.9797,12.1238],[97.9745,12.1261],[97.9748,12.1337]]],[[[98.0,12.1232],[97.9979,12.1288],[97.9992,12.1421],[98.0,12.1232]]],[[[97.9698,12.2971],[97.9653,12.2893],[97.9675,12.2969],[97.9698,12.2971]]],[[[97.9945,12.2795],[97.9813,12.3091],[97.9605,12.3213],[97.9453,12.3129],[97.9786,12.3388],[97.9686,12.3623],[97.9425,12.3311],[97.9567,12.3773],[97.9746,12.3869],[97.9765,12.3649],[98.0,12.3864],[97.9945,12.2795]]]]}}