{"type":"Feature","properties":{"speciesId":188,"category":"LC","source":"IUCN Red List","simplifyTol":0.01,"clippedToSubcontinent":true},"geometry":{"type":"MultiPolygon","coordinates":[[[[77.9508,9.925],[77.8525,9.9441],[77.7653,10.0019],[77.7093,10.0849],[77.6884,10.1875],[77.7093,10.29],[77.7653,10.373],[77.8525,10.4308],[77.9508,10.4499],[78.0491,10.4308],[78.1364,10.373],[78.1941,10.2858],[78.2133,10.1875],[78.1941,10.0892],[78.1364,10.0019],[78.0491,9.9441],[77.9508,9.925]]],[[[73.9329,16.4274],[74.0153,16.4084],[74.1166,16.3007],[74.3066,16.0094],[74.4967,15.813],[74.6614,15.585],[74.7184,15.3126],[74.541,15.1479],[74.2433,15.0909],[74.0118,15.1807],[73.7492,15.5153],[73.6606,15.889],[73.6352,16.1551],[73.7239,16.3577],[73.8253,16.4211],[73.9329,16.4274]]],[[[73.4821,18.7828],[73.3554,18.8085],[73.2529,18.8777],[73.1837,18.9803],[73.1579,19.1069],[73.1815,19.2284],[73.2529,19.3362],[73.3607,19.4075],[73.4821,19.4311],[73.6035,19.4075],[73.7113,19.3362],[73.7827,19.2284],[73.8063,19.1069],[73.7805,18.9803],[73.7113,18.8777],[73.6035,18.8064],[73.4821,18.7828]]]]}}