{"type":"Feature","properties":{"speciesId":196,"category":"LC","source":"IUCN Red List","simplifyTol":0.01,"clippedToSubcontinent":true},"geometry":{"type":"MultiPolygon","coordinates":[[[[97.8596,16.4439],[97.8433,16.461],[97.8608,16.4761],[97.8767,16.4594],[97.8596,16.4439]]],[[[90.73,23.698],[90.7023,23.7119],[90.7146,23.7266],[90.7206,23.7096],[90.73,23.698]]],[[[97.8647,20.7531],[97.2284,21.0286],[96.3253,22.5061],[96.025,23.1612],[95.8277,23.2179],[95.8219,23.6653],[95.9217,24.3553],[95.9025,24.8128],[95.4369,25.1439],[95.1155,25.2297],[94.988,25.0644],[94.8553,24.7686],[94.6783,24.5772],[94.5475,24.0181],[94.3166,23.2064],[94.08,23.0103],[93.6982,22.5993],[93.5411,22.3931],[93.1894,22.3844],[92.6925,22.5992],[92.4415,22.8911],[92.3747,23.3139],[92.2836,23.6093],[92.3161,24.0386],[92.1381,24.5282],[92.0367,24.8819],[91.8546,25.1718],[91.5845,25.1656],[91.1711,25.1946],[90.5894,25.1737],[89.4558,25.1686],[88.9553,25.2154],[88.2868,25.094],[87.7999,25.5062],[87.5964,25.9464],[87.7914,26.4589],[87.861,26.6857],[87.7271,26.7615],[87.6939,26.8019],[87.5498,27.3745],[87.5632,27.442],[87.6205,27.4802],[87.6927,27.4633],[87.9736,27.1703],[87.9952,27.1228],[88.1858,27.7775],[88.6342,28.1169],[89.6236,28.1583],[90.6231,28.5305],[91.3655,28.6447],[91.5511,28.7446],[92.8075,28.7589],[93.4928,28.973],[94.4278,29.2155],[95.3345,29.3442],[95.7897,29.3428],[96.2189,29.1472],[96.2233,28.9219],[96.9847,28.3325],[97.5616,28.1164],[98.0,27.7834],[98.0,20.7216],[97.8647,20.7531]]]]}}