{"type":"Feature","properties":{"speciesId":197,"category":"LC","source":"IUCN Red List","simplifyTol":0.01,"clippedToSubcontinent":true},"geometry":{"type":"MultiPolygon","coordinates":[[[[75.0323,14.8432],[75.1631,14.3572],[75.3874,13.7404],[75.5369,13.647],[75.9108,13.8152],[76.378,13.647],[77.0135,12.8806],[77.1631,12.6002],[77.4061,12.3012],[77.7238,12.133],[77.7238,11.89],[78.1163,11.5348],[78.3593,11.6283],[78.4341,12.2638],[78.5836,12.7124],[78.8079,13.0862],[78.9201,13.8339],[79.2191,13.9647],[79.4247,13.8152],[79.2752,13.46],[79.0696,12.6189],[78.8266,12.3012],[78.9014,11.9834],[79.0135,11.7031],[79.0135,11.4414],[78.9014,11.1797],[78.7705,10.9741],[78.4528,10.9741],[78.1163,11.1984],[77.6304,11.4788],[77.1818,11.4975],[77.0696,11.1049],[77.0696,10.918],[77.1257,10.5816],[77.5182,10.4694],[77.7986,10.4694],[77.8173,10.3012],[77.6117,10.0022],[77.892,9.7405],[78.005,9.3519],[77.961,9.1184],[77.9779,8.8611],[78.0794,8.6357],[78.0771,8.4332],[77.8165,8.2494],[77.7525,8.1763],[77.5938,8.1399],[77.5046,8.0795],[77.3743,8.1121],[77.0135,8.376],[76.6848,8.8645],[76.3967,9.6283],[76.1911,10.0956],[76.1229,10.3207],[75.8513,11.0357],[75.8326,11.1235],[75.8121,11.1441],[75.6956,11.4411],[75.6187,11.5103],[75.5945,11.6283],[75.5294,11.6966],[75.5386,11.7048],[75.3692,11.8549],[74.9014,12.675],[74.6752,13.5517],[74.6657,13.6381],[74.641,13.6843],[74.6058,13.8523],[74.6169,13.8576],[74.5596,13.9451],[74.3998,14.3605],[74.3953,14.4186],[74.379,14.4147],[74.3538,14.5117],[74.3387,14.514],[74.2846,14.6367],[74.2946,14.6402],[74.2537,14.7068],[74.2633,14.7094],[74.2647,14.7201],[74.2582,14.7122],[74.2346,14.7444],[74.185,14.7281],[74.163,14.7495],[73.9855,15.0862],[73.8921,15.3189],[73.8921,15.7404],[73.9295,15.9647],[74.0977,16.0955],[74.4154,16.1516],[74.6771,15.946],[74.9014,15.5909],[75.0323,15.1423],[75.0323,14.8432]]],[[[73.4248,18.7684],[73.3127,18.9179],[73.3127,19.1422],[73.4809,19.2731],[73.7052,19.2731],[73.9482,19.1983],[73.9482,18.9927],[73.8734,18.8058],[73.6304,18.7684],[73.4248,18.7684]]]]}}