{"type":"Feature","properties":{"speciesId":200,"category":"NT","source":"IUCN Red List","simplifyTol":0.01,"clippedToSubcontinent":true},"geometry":{"type":"MultiPolygon","coordinates":[[[[77.001,10.4443],[77.1883,10.464],[77.3659,10.4541],[77.5434,10.3456],[77.6177,10.339],[77.6427,10.299],[77.626,10.2245],[77.4978,10.1292],[77.363,10.0892],[77.348,9.9594],[77.2481,9.8495],[77.2831,9.6747],[77.4516,9.5395],[77.4879,9.435],[77.403,9.2702],[77.373,9.0904],[77.4941,8.6986],[77.4779,8.521],[77.398,8.4111],[77.3166,8.4126],[77.1588,8.5408],[77.1094,8.7085],[77.1292,9.0438],[77.0897,9.2312],[77.0897,9.3791],[77.0305,9.5961],[76.9185,9.7896],[76.8286,10.0643],[76.8037,10.2766],[76.6788,10.334],[76.6547,10.4189],[76.6538,10.5038],[76.7643,10.5823],[76.9023,10.5232],[77.001,10.4443]]],[[[76.064,11.4497],[75.9939,11.4788],[75.9649,11.5489],[75.9939,11.619],[76.064,11.648],[76.1341,11.619],[76.1631,11.5489],[76.1341,11.4788],[76.064,11.4497]]]]}}