{"type":"Feature","properties":{"speciesId":201,"category":"DD","source":"IUCN Red List","simplifyTol":0.01,"clippedToSubcontinent":true},"geometry":{"type":"MultiPolygon","coordinates":[[[[73.3756,16.3884],[73.375,16.3899],[73.3753,16.39],[73.3756,16.3884]]],[[[74.2479,14.6996],[74.2466,14.7021],[74.2488,14.7011],[74.2479,14.6996]]],[[[74.1726,16.4081],[74.2211,16.3165],[74.2966,16.2518],[74.3299,16.1365],[74.4206,16.0038],[74.4421,15.8259],[74.4852,15.6857],[74.4906,15.1574],[74.4206,14.9256],[74.4152,14.8232],[74.372,14.6345],[74.3397,14.5752],[74.3127,14.5698],[74.2792,14.6348],[74.2946,14.6402],[74.2751,14.6467],[74.2756,14.6779],[74.2537,14.7068],[74.2633,14.7094],[74.2647,14.7201],[74.2582,14.7122],[74.2346,14.7444],[74.1941,14.7369],[74.1133,14.7962],[74.1241,14.8609],[74.0737,14.9096],[74.0378,14.9218],[74.0594,14.9633],[74.0476,14.9848],[73.9163,15.0977],[73.9118,15.1089],[73.9458,15.1408],[73.9246,15.276],[73.8737,15.3601],[73.8485,15.3633],[73.8229,15.4045],[73.8757,15.3984],[73.8899,15.4192],[73.8764,15.4337],[73.8584,15.4258],[73.845,15.4491],[73.797,15.4492],[73.7876,15.4616],[73.8199,15.4996],[73.7723,15.4905],[73.6173,15.9013],[73.5095,15.9445],[73.4522,16.2253],[73.4436,16.2122],[73.4209,16.2789],[73.4392,16.2897],[73.4191,16.2833],[73.3776,16.3836],[73.4084,16.4088],[73.3714,16.3985],[73.3586,16.4351],[73.3812,16.4487],[73.3585,16.4438],[73.3585,16.4836],[73.4017,16.5429],[73.5095,16.6022],[73.6227,16.6291],[73.7575,16.6291],[73.93,16.586],[74.1726,16.4081]]]]}}