{"type":"Feature","properties":{"speciesId":202,"category":"DD","source":"IUCN Red List","simplifyTol":0.01,"clippedToSubcontinent":true},"geometry":{"type":"Polygon","coordinates":[[[78.5334,12.0249],[78.7208,12.058],[78.7686,12.0212],[78.8127,12.0175],[78.8715,11.8999],[78.8164,11.8632],[78.7943,11.8227],[78.7943,11.7566],[78.8237,11.7162],[78.7539,11.5875],[78.7098,11.4074],[78.7245,11.2494],[78.5554,11.1943],[78.4599,11.1832],[78.3128,11.1943],[78.2908,11.2273],[78.3312,11.3413],[78.2871,11.4295],[78.2026,11.5324],[78.1695,11.6096],[78.1732,11.786],[78.1401,11.8264],[78.0666,11.9881],[78.1107,12.0763],[78.1511,12.1168],[78.2798,12.1645],[78.3312,12.1462],[78.4121,12.069],[78.5334,12.0249]]]}}