{"type":"Feature","properties":{"speciesId":203,"category":"LC","source":"IUCN Red List","simplifyTol":0.01,"clippedToSubcontinent":true},"geometry":{"type":"MultiPolygon","coordinates":[[[[81.825,6.7653],[81.8084,6.7647],[81.8279,6.7586],[81.7759,6.6639],[81.778,6.6358],[81.5889,6.4704],[81.4064,6.2438],[81.3479,6.2199],[81.3285,6.1945],[81.2222,6.1589],[81.1946,6.1576],[81.197,6.1776],[81.1829,6.1514],[81.1753,6.2009],[81.2296,6.4159],[81.2494,6.6505],[81.274,6.6965],[81.3143,6.7198],[81.5746,6.7682],[81.7822,6.8438],[81.8411,6.8311],[81.8233,6.8088],[81.825,6.7653]]],[[[79.8557,7.9721],[79.8399,7.9891],[79.8569,8.0043],[79.8723,7.9876],[79.8557,7.9721]]],[[[79.8376,9.0831],[79.9283,9.0085],[79.8576,9.0564],[79.9245,8.9751],[79.8916,8.9579],[79.8034,9.0395],[79.8376,9.0831]]],[[[79.1895,9.2363],[79.2036,9.2358],[79.1847,9.2426],[79.1895,9.2363]]],[[[79.2282,9.2423],[79.2162,9.2428],[79.2097,9.2387],[79.2167,9.2457],[79.2282,9.2423]]],[[[80.7616,9.3215],[80.7586,9.2751],[80.7327,9.2364],[80.479,9.0912],[80.2806,8.9161],[80.1522,8.7511],[80.0236,8.5223],[79.9584,8.5002],[79.8967,8.5306],[79.9263,8.559],[79.9193,8.5846],[79.9414,8.6155],[79.9561,8.7209],[79.9248,8.7907],[79.94,8.8068],[79.9184,8.8083],[79.9307,8.8147],[79.919,8.8188],[79.9358,8.8913],[79.9123,8.9299],[80.0403,9.0133],[80.0661,9.0562],[80.0857,9.0999],[80.0761,9.1203],[80.1173,9.2073],[80.1116,9.2768],[80.1278,9.2906],[80.0676,9.3288],[80.0549,9.3915],[80.1466,9.4347],[80.1861,9.4827],[80.1461,9.5362],[80.0832,9.582],[80.108,9.7037],[80.1338,9.7424],[80.1872,9.7646],[80.2431,9.7496],[80.6695,9.4206],[80.7616,9.3215]]],[[[74.7261,13.2235],[74.7246,13.2251],[74.7253,13.2255],[74.7261,13.2235]]],[[[74.4835,14.0238],[74.4799,14.0248],[74.4835,14.0253],[74.4835,14.0238]]],[[[74.4666,14.084],[74.4634,14.0859],[74.4654,14.0868],[74.4666,14.084]]],[[[74.4786,14.0953],[74.4748,14.0931],[74.4746,14.0957],[74.4786,14.0953]]],[[[74.4706,14.1051],[74.4668,14.1079],[74.4689,14.1094],[74.4706,14.1051]]],[[[74.3985,14.3133],[74.3938,14.3089],[74.3921,14.3117],[74.3985,14.3133]]],[[[74.2486,14.6996],[74.246,14.702],[74.2488,14.7011],[74.2486,14.6996]]],[[[74.2345,14.7079],[74.2316,14.7096],[74.2353,14.7098],[74.2345,14.7079]]],[[[74.1451,14.7215],[74.1419,14.7216],[74.1435,14.7234],[74.1451,14.7215]]],[[[74.1524,14.7386],[74.1492,14.7349],[74.1488,14.7389],[74.1524,14.7386]]],[[[74.1152,14.754],[74.1034,14.7558],[74.1052,14.7621],[74.1152,14.754]]],[[[74.0833,14.7935],[74.0817,14.791],[74.0817,14.7939],[74.0833,14.7935]]],[[[74.0529,14.817],[74.0499,14.8172],[74.0567,14.8188],[74.0529,14.817]]],[[[74.0991,14.8645],[74.1,14.8622],[74.0991,14.8621],[74.0991,14.8645]]],[[[74.0919,14.8759],[74.0891,14.8748],[74.0899,14.8778],[74.0919,14.8759]]],[[[73.7896,15.3719],[73.7865,15.3772],[73.7904,15.3776],[73.7896,15.3719]]],[[[73.5407,15.925],[73.5379,15.9247],[73.5395,15.9267],[73.5407,15.925]]],[[[72.9321,18.9527],[72.9223,18.9629],[72.9424,18.9688],[72.9389,18.9654],[72.9321,18.9527]]],[[[72.8793,20.6887],[72.89,20.6884],[72.8883,20.6806],[72.8793,20.6887]]],[[[72.8697,20.7172],[72.877,20.7253],[72.8737,20.6908],[72.8667,20.7131],[72.8576,20.706],[72.8726,20.6676],[72.8785,20.6761],[72.8779,20.6457],[72.8474,20.7183],[72.8454,20.7442],[72.8697,20.7172]]],[[[72.8752,20.7521],[72.8613,20.7556],[72.8767,20.754],[72.8752,20.7521]]],[[[72.8726,20.768],[72.8648,20.7678],[72.866,20.7692],[72.8726,20.768]]],[[[72.856,20.7635],[72.8404,20.7752],[72.8406,20.7799],[72.856,20.7635]]],[[[72.8436,20.7883],[72.8407,20.7969],[72.8444,20.7987],[72.8436,20.7883]]],[[[72.817,20.91],[72.807,20.9073],[72.8173,20.919],[72.817,20.91]]],[[[72.831,20.8052],[72.815,20.8357],[72.7824,20.9205],[72.8226,20.8256],[72.8415,20.8054],[72.831,20.8052]]],[[[72.7868,20.9919],[72.7723,20.9793],[72.7658,20.9849],[72.7751,20.9933],[72.7868,20.9919]]],[[[72.8453,21.0376],[72.8357,21.0425],[72.8453,21.0424],[72.8453,21.0376]]],[[[72.6852,21.0536],[72.6797,21.0622],[72.6751,21.0652],[72.6836,21.0665],[72.6852,21.0536]]],[[[72.7443,21.6377],[72.807,21.6431],[72.7932,21.6206],[72.6902,21.5999],[72.674,21.5873],[72.6865,21.5808],[72.6432,21.5644],[72.6228,21.5682],[72.6295,21.5877],[72.6114,21.6017],[72.6241,21.6172],[72.6033,21.6436],[72.6336,21.6586],[72.7661,21.6553],[72.7443,21.6377]]],[[[72.3604,22.1838],[72.3515,22.1744],[72.3581,22.1888],[72.3604,22.1838]]],[[[72.4713,22.2145],[72.4656,22.2019],[72.4323,22.1795],[72.4442,22.2056],[72.4713,22.2145]]],[[[72.5105,22.2179],[72.5039,22.2326],[72.5175,22.2305],[72.5105,22.2179]]],[[[72.6615,22.2445],[72.7191,22.2376],[72.7317,22.2225],[72.6615,22.2445]]],[[[69.4516,22.3608],[69.4394,22.3542],[69.4349,22.3576],[69.4516,22.3608]]],[[[69.6377,22.4158],[69.6308,22.4079],[69.6205,22.4115],[69.6377,22.4158]]],[[[70.4425,22.9724],[70.4335,22.9737],[70.4491,22.9798],[70.4425,22.9724]]],[[[70.4415,22.9801],[70.4295,22.9817],[70.4484,22.994],[70.4415,22.9801]]],[[[70.4574,23.0388],[70.4468,23.0314],[70.4561,23.0439],[70.4574,23.0388]]],[[[70.4133,22.9907],[70.4164,23.0236],[70.4424,23.0472],[70.4312,23.0099],[70.4133,22.9907]]],[[[70.4163,23.0281],[70.4187,23.0392],[70.4349,23.0499],[70.4345,23.0444],[70.4163,23.0281]]],[[[70.4728,23.0546],[70.4599,23.0526],[70.4769,23.0622],[70.4728,23.0546]]],[[[68.4731,23.6881],[68.4681,23.7086],[68.5031,23.716],[68.4903,23.6983],[68.4731,23.6881]]],[[[68.5914,23.7415],[68.5774,23.741],[68.5917,23.7475],[68.5914,23.7415]]],[[[68.6101,23.7728],[68.5693,23.7576],[68.6114,23.7804],[68.6101,23.7728]]],[[[68.6373,23.7816],[68.6283,23.7828],[68.6391,23.7899],[68.6373,23.7816]]],[[[68.1913,23.7876],[68.1483,23.7247],[68.1578,23.7079],[68.0779,23.7993],[68.1177,23.8314],[68.1729,23.8229],[68.1674,23.8444],[68.1836,23.8426],[68.1913,23.7876]]],[[[67.4046,24.0705],[67.4046,24.0705],[67.4046,24.0705],[67.4046,24.0705]]],[[[67.4227,24.0664],[67.4046,24.0705],[67.4118,24.0805],[67.4227,24.0664]]],[[[67.3941,24.4268],[67.3845,24.4347],[67.3927,24.4328],[67.3941,24.4268]]],[[[67.3683,24.4478],[67.3576,24.4565],[67.3706,24.4549],[67.3683,24.4478]]],[[[67.329,24.4923],[67.3157,24.4905],[67.3236,24.4969],[67.329,24.4923]]],[[[67.3364,24.4896],[67.3143,24.5079],[67.3191,24.5195],[67.348,24.4963],[67.3364,24.4896]]],[[[67.3106,24.4947],[67.2803,24.5193],[67.2837,24.5246],[67.3062,24.5103],[67.3106,24.4947]]],[[[67.3615,24.5249],[67.3505,24.5024],[67.3218,24.5255],[67.3043,24.5176],[67.2934,24.5293],[67.32,24.5467],[67.3615,24.5249]]],[[[67.2916,24.5787],[67.3029,24.5478],[67.2733,24.525],[67.2225,24.5726],[67.2916,24.5787]]],[[[67.3093,24.5925],[67.3017,24.5993],[67.3086,24.6039],[67.3093,24.5925]]],[[[67.348,24.6132],[67.3398,24.6175],[67.3479,24.6213],[67.348,24.6132]]],[[[67.3353,24.6107],[67.3177,24.5827],[67.3143,24.6098],[67.3046,24.6121],[67.2933,24.5865],[67.3043,24.6318],[67.3353,24.6107]]],[[[67.3683,24.6182],[67.3476,24.6292],[67.3268,24.63],[67.3556,24.6445],[67.3725,24.6338],[67.3683,24.6182]]],[[[67.3033,24.6622],[67.3054,24.6397],[67.2839,24.6348],[67.281,24.6615],[67.3033,24.6622]]],[[[67.3467,24.6561],[67.3584,24.6667],[67.3688,24.6637],[67.3649,24.6521],[67.3467,24.6561]]],[[[67.3449,24.6623],[67.3243,24.6406],[67.3066,24.6596],[67.3199,24.6586],[67.3343,24.6766],[67.3449,24.6623]]],[[[67.2431,24.6614],[67.283,24.6271],[67.2655,24.5983],[67.2196,24.6208],[67.22,24.6389],[67.1793,24.6284],[67.1715,24.6634],[67.1831,24.6765],[67.2431,24.6614]]],[[[67.3161,24.6635],[67.2911,24.6875],[67.3208,24.6697],[67.3161,24.6635]]],[[[67.1334,24.6779],[67.1159,24.6769],[67.1158,24.6905],[67.1334,24.6779]]],[[[67.4158,24.6699],[67.4357,24.6453],[67.412,24.6574],[67.3899,24.6492],[67.3699,24.6707],[67.3393,24.682],[67.4209,24.6984],[67.4158,24.6699]]],[[[67.2449,24.6676],[67.2223,24.6678],[67.1878,24.6946],[67.2122,24.7168],[67.2199,24.6909],[67.2449,24.6676]]],[[[67.3297,24.7274],[67.3465,24.7355],[67.3915,24.6966],[67.3402,24.6922],[67.3272,24.677],[67.2873,24.6917],[67.295,24.6711],[67.2725,24.6681],[67.271,24.6536],[67.2723,24.6789],[67.2481,24.6771],[67.2173,24.7161],[67.2545,24.7063],[67.2949,24.7361],[67.3297,24.7274]]],[[[67.1515,24.7393],[67.144,24.6931],[67.1329,24.6917],[67.1134,24.747],[67.1371,24.7553],[67.1515,24.7393]]],[[[67.189,24.7043],[67.1788,24.7357],[67.2414,24.7576],[67.2482,24.7424],[67.1991,24.7243],[67.189,24.7043]]],[[[67.2966,24.7716],[67.3419,24.7556],[67.326,24.7352],[67.3107,24.7466],[67.2504,24.7126],[67.2352,24.7209],[67.2966,24.7716]]],[[[67.2889,24.7778],[67.257,24.7509],[67.2367,24.7796],[67.2711,24.7862],[67.2889,24.7778]]],[[[67.2278,24.7852],[67.1825,24.7512],[67.1645,24.7607],[67.1653,24.7763],[67.2278,24.7852]]],[[[67.2318,24.7917],[67.2117,24.8024],[67.2118,24.8053],[67.2264,24.8008],[67.2318,24.7917]]],[[[78.9711,32.3508],[78.93,32.36],[78.7908,32.4647],[78.765,32.5461],[78.7755,32.6083],[79.2059,32.505],[79.1317,32.475],[79.078,32.3814],[78.9711,32.3508]]],[[[67.405,24.0763],[67.4014,24.0464],[67.3814,24.0591],[67.395,24.0662],[67.371,24.0873],[67.3626,24.1323],[67.4118,24.1233],[67.4245,24.1302],[67.3828,24.1326],[67.3453,24.1558],[67.3347,24.1763],[67.3545,24.1828],[67.3346,24.214],[67.342,24.2351],[67.3625,24.2385],[67.4125,24.2295],[67.4208,24.2098],[67.4312,24.2214],[67.4317,24.2472],[67.4205,24.2173],[67.4143,24.234],[67.3501,24.2542],[67.3613,24.2756],[67.3814,24.2732],[67.3934,24.2874],[67.3585,24.2837],[67.3259,24.2449],[67.2972,24.3074],[67.3299,24.3339],[67.3596,24.2907],[67.3386,24.3323],[67.3466,24.3428],[67.4109,24.3113],[67.4421,24.316],[67.449,24.3321],[67.4906,24.3218],[67.5146,24.3424],[67.5291,24.3345],[67.5124,24.3526],[67.4873,24.3263],[67.4566,24.3422],[67.4343,24.3227],[67.3665,24.351],[67.369,24.3857],[67.4177,24.3864],[67.4229,24.3603],[67.4278,24.3918],[67.4158,24.4014],[67.3605,24.3877],[67.3491,24.4005],[67.4169,24.4368],[67.4646,24.4235],[67.4727,24.4269],[67.3902,24.4501],[67.3753,24.4341],[67.3834,24.4544],[67.3604,24.4608],[67.4009,24.4844],[67.4218,24.4644],[67.4504,24.4602],[67.455,24.4655],[67.436,24.4797],[67.4213,24.4707],[67.4039,24.5064],[67.412,24.5215],[67.3919,24.5161],[67.4022,24.493],[67.3743,24.4721],[67.3424,24.4591],[67.3099,24.4622],[67.3258,24.4652],[67.3282,24.4852],[67.3523,24.4797],[67.3702,24.5304],[67.3975,24.5246],[67.3987,24.5468],[67.3684,24.536],[67.3552,24.546],[67.3807,24.571],[67.4136,24.5857],[67.4396,24.5746],[67.4071,24.5894],[67.3234,24.5491],[67.304,24.5532],[67.3152,24.5589],[67.299,24.5815],[67.3203,24.5757],[67.3231,24.5906],[67.371,24.6081],[67.3838,24.6377],[67.4069,24.6358],[67.4143,24.6494],[67.4405,24.6404],[67.4532,24.6537],[67.4416,24.6479],[67.4203,24.6727],[67.4325,24.6982],[67.3932,24.7046],[67.3515,24.7423],[67.3493,24.7629],[67.4528,24.7761],[67.4681,24.7538],[67.4637,24.7775],[67.3755,24.7834],[67.3296,24.7712],[67.2746,24.7903],[67.2456,24.7849],[67.2199,24.8141],[67.174,24.781],[67.1547,24.7937],[67.1224,24.7788],[67.1049,24.7976],[67.1023,24.7781],[67.0908,24.7921],[67.0931,24.7569],[67.0217,24.8083],[66.9758,24.8108],[66.965,24.8389],[66.9825,24.8579],[66.9538,24.861],[66.9122,24.8447],[66.9578,24.8258],[66.9792,24.7918],[66.862,24.8569],[66.8191,24.8344],[66.7562,24.8438],[66.6833,24.8214],[66.6514,24.8294],[66.6843,24.8757],[66.722,24.8918],[66.6869,24.8927],[66.6754,24.9236],[66.7004,24.9496],[66.7041,25.0826],[66.7386,25.1422],[66.742,25.1832],[66.6783,25.2711],[66.5501,25.3652],[66.5553,25.3922],[66.5794,25.3729],[66.5783,25.4114],[66.5942,25.425],[66.56,25.4529],[66.5576,25.5381],[66.5289,25.5422],[66.5159,25.5634],[66.5429,25.6144],[66.5393,25.6442],[66.5021,25.5767],[66.4799,25.5877],[66.4672,25.5699],[66.4552,25.6194],[66.4454,25.5972],[66.3984,25.584],[66.3676,25.6159],[66.3105,25.6101],[66.2969,25.6239],[66.2315,25.5903],[66.1901,25.5993],[66.1337,25.5443],[66.1328,25.5079],[66.0919,25.4796],[66.1956,25.4889],[66.2848,25.5421],[66.3141,25.5377],[66.3349,25.5531],[66.358,25.5248],[66.3972,25.5215],[66.3943,25.5066],[66.4265,25.4826],[66.4752,25.4995],[66.5174,25.492],[66.4928,25.4478],[66.5284,25.4158],[66.5133,25.4046],[66.36,25.4601],[66.2765,25.4678],[66.0391,25.4266],[66.0238,25.4437],[66.0092,25.4368],[66.0144,25.4209],[65.9549,25.4132],[65.8387,25.4194],[65.773,25.3835],[65.6357,25.3495],[65.5174,25.3712],[65.5435,25.4199],[65.5057,25.3761],[65.3711,25.3902],[65.3381,25.3805],[65.3189,25.3967],[65.2545,25.3817],[65.2268,25.3178],[65.1564,25.3061],[64.9953,25.3252],[64.8271,25.3189],[64.7806,25.3477],[64.7927,25.3239],[64.7262,25.3167],[64.6525,25.2732],[64.6402,25.2055],[64.7005,25.1866],[64.6623,25.16],[64.5838,25.1604],[64.611,25.2166],[64.5436,25.2705],[64.406,25.2383],[64.3405,25.2768],[64.2392,25.308],[64.2462,25.3325],[64.2233,25.318],[64.0838,25.3294],[64.0927,25.3664],[64.1175,25.3649],[64.081,25.3965],[64.1419,25.4112],[64.1381,25.4322],[64.1651,25.4533],[64.1243,25.439],[64.1174,25.4545],[64.0642,25.4452],[64.0473,25.4314],[64.0287,25.465],[64.0287,25.4441],[63.9915,25.4264],[64.0199,25.4241],[64.0058,25.4066],[63.9744,25.4234],[63.9678,25.4056],[63.9913,25.4099],[64.0042,25.3843],[64.0208,25.4094],[64.0361,25.4061],[64.072,25.3631],[64.0643,25.3283],[63.9296,25.3371],[63.758,25.3788],[63.6059,25.3706],[63.5356,25.3457],[63.4811,25.2844],[63.4561,25.2952],[63.5039,25.2262],[63.4927,25.1982],[63.1395,25.2577],[63.0071,25.2106],[62.6949,25.2595],[62.4945,25.2529],[62.4637,25.2364],[62.4707,25.2126],[62.4118,25.2054],[62.3562,25.1699],[62.3394,25.1132],[62.3897,25.1037],[62.3769,25.0962],[62.2734,25.098],[62.3202,25.1205],[62.3149,25.1687],[62.2651,25.2048],[62.2034,25.2151],[62.0735,25.1785],[62.0666,25.1548],[62.1054,25.1042],[62.0984,25.0962],[61.9847,25.1096],[61.8747,25.1027],[61.859,25.0955],[61.8449,25.0434],[61.7644,25.0328],[61.7242,25.054],[61.7575,25.0983],[61.7476,25.132],[61.769,25.124],[61.7831,25.1418],[61.7791,25.1927],[61.7523,25.1687],[61.6899,25.2053],[61.6592,25.1869],[61.6337,25.2028],[61.5696,25.1846],[61.603,25.2043],[61.5627,25.2176],[61.5696,25.2405],[61.5354,25.2376],[61.5557,25.2193],[61.5284,25.2069],[61.5555,25.1929],[61.4999,25.1944],[61.5278,25.1896],[61.4889,25.1778],[61.4883,25.1924],[61.4541,25.1854],[61.4906,25.1719],[61.4918,25.1583],[61.4742,25.1072],[61.4048,25.0874],[61.4146,25.0641],[61.1805,25.1259],[61.1673,25.1667],[61.0614,25.2019],[60.7418,25.273],[60.6056,25.2883],[60.6205,25.3072],[60.591,25.352],[60.6039,25.3786],[60.5932,25.4162],[60.5322,25.4464],[60.4624,25.4365],[60.4006,25.3807],[60.3961,25.3504],[60.4466,25.3325],[60.4389,25.3199],[60.4586,25.2924],[60.4146,25.3184],[60.3057,25.34],[60.2946,25.3894],[60.3257,25.3705],[60.3037,25.4038],[60.2014,25.3782],[60.1852,25.3524],[60.2072,25.3343],[60.1971,25.3287],[60.1103,25.3519],[60.108,25.3733],[60.0875,25.3822],[60.0,25.3822],[60.0,34.6501],[60.7827,33.9743],[61.3872,33.4075],[61.3872,32.9503],[61.5092,31.9741],[62.9734,31.9741],[64.1181,31.8477],[66.7559,31.6081],[67.732,31.6081],[68.22,31.9741],[69.1961,31.8521],[69.1961,32.7062],[69.9282,33.1943],[70.0502,33.9264],[70.1723,34.9025],[71.5144,34.9025],[71.6364,36.0006],[72.3685,36.0006],[72.9786,35.2685],[73.7107,33.9264],[74.1713,33.4658],[74.1825,33.5106],[74.1689,33.5464],[74.0114,33.6417],[73.9889,33.6719],[73.9869,33.7322],[74.0503,33.8317],[74.17,33.8483],[74.2575,33.9011],[74.2861,33.9342],[74.2928,33.9883],[74.2444,34.0192],[74.0858,34.0275],[73.9872,34.0106],[73.9469,34.028],[73.9133,34.0686],[73.9122,34.1153],[74.0142,34.1756],[74.0178,34.218],[73.9733,34.3028],[73.848,34.3186],[73.8061,34.3533],[73.7975,34.3925],[73.9036,34.5383],[73.9358,34.6369],[73.9578,34.6614],[74.15,34.698],[74.2475,34.7547],[74.3892,34.7819],[74.6927,34.6936],[75.2041,34.6238],[75.369,34.4507],[75.6134,34.1249],[76.0207,33.799],[76.2651,33.5139],[76.591,33.3509],[76.9562,33.0138],[77.1992,32.9409],[77.2427,32.9844],[77.65,32.8214],[78.0573,32.7807],[78.6999,32.6265],[78.6608,32.5842],[78.5739,32.5664],[78.4961,32.5825],[78.4205,32.5661],[78.3953,32.538],[78.4772,32.4247],[78.4889,32.2519],[78.4759,32.243],[78.5447,32.2094],[78.6028,32.1178],[78.6805,32.0353],[78.7711,31.9811],[78.6925,31.7742],[78.75,31.6767],[78.7739,31.6739],[78.8439,31.61],[78.7128,31.5097],[78.7705,31.305],[78.8183,31.2867],[78.8777,31.2916],[79.0264,31.4186],[79.0925,31.4375],[79.1642,31.3953],[79.2175,31.3408],[79.2403,31.2442],[79.315,31.1331],[79.3932,31.1011],[79.4194,31.0522],[79.5589,30.9542],[79.6064,30.9356],[79.6636,30.975],[79.7489,30.9897],[79.8792,30.9592],[79.9236,30.8889],[80.1836,30.7978],[80.2503,30.74],[80.2286,30.6042],[80.207,30.5755],[80.3219,30.5647],[80.5214,30.4772],[80.6069,30.4747],[80.7519,30.395],[80.8039,30.3267],[80.9892,30.2672],[81.0294,30.2203],[81.0254,30.2044],[80.8755,30.1431],[80.6789,29.9703],[80.5989,29.9553],[80.5397,29.8461],[80.4869,29.7986],[80.4203,29.7892],[80.3769,29.7486],[80.3826,29.6867],[82.7038,28.7713],[84.3906,27.717],[84.8077,27.0132],[84.9678,26.9358],[85.1844,26.8011],[85.2117,26.7669],[85.3344,26.7358],[85.6303,26.8675],[85.7261,26.8017],[85.7305,26.6672],[85.8503,26.5722],[85.9436,26.6172],[85.9625,26.6472],[86.0364,26.6633],[86.1072,26.6172],[86.1408,26.6025],[86.1839,26.6081],[86.2066,26.5856],[86.3342,26.6078],[86.7317,26.42],[86.821,26.4367],[86.892,26.4721],[86.9022,26.5025],[86.948,26.5309],[87.0044,26.5344],[87.0844,26.4864],[87.17,26.4],[87.2697,26.3753],[87.4769,26.4356],[87.643,26.3925],[87.6914,26.4283],[87.8905,26.4733],[87.9494,26.4006],[88.0147,26.3647],[88.0958,26.4389],[88.1019,26.5303],[88.1388,26.5995],[88.3218,26.5079],[88.0367,26.0192],[88.0367,25.6933],[87.7516,25.5711],[87.7516,25.4082],[87.9145,24.9194],[87.9145,24.4306],[87.7923,24.1047],[87.4664,24.1047],[87.3442,23.8196],[86.8962,23.8196],[86.8147,23.6974],[86.4635,23.6623],[87.216,21.8133],[87.1942,21.7852],[87.3608,21.5731],[87.2155,21.5528],[87.0717,21.4819],[86.9633,21.3819],[86.8755,21.2744],[86.8369,21.1997],[86.8367,21.0994],[86.8766,20.9761],[86.9675,20.7953],[86.9619,20.7811],[86.8914,20.7594],[86.9408,20.6964],[87.0256,20.6748],[86.7558,20.4914],[86.7264,20.4522],[86.7208,20.3725],[86.7392,20.3722],[86.8044,20.4361],[86.8005,20.3817],[86.7103,20.2826],[86.531,20.1736],[86.4566,20.0693],[86.4203,19.9828],[86.2639,19.9072],[85.6342,19.7278],[85.4869,19.6667],[85.4514,19.6603],[85.4506,19.6803],[85.4223,19.696],[85.5492,19.7324],[85.5602,19.7642],[85.4449,19.7469],[85.3156,19.6453],[85.3861,19.6845],[85.4103,19.6544],[85.3847,19.6139],[85.3403,19.5914],[85.3167,19.6183],[85.2898,19.5952],[85.3298,19.5712],[85.1818,19.4792],[84.8805,19.2283],[84.7944,19.1208],[84.7445,19.1181],[84.7245,19.0881],[84.7353,19.0747],[84.7808,19.0942],[84.6764,18.9419],[84.613,18.8897],[84.3818,18.5947],[84.3651,18.5534],[84.2044,18.4164],[84.0803,18.2686],[83.7724,18.1397],[83.5828,18.0175],[83.3864,17.7664],[83.2164,17.5806],[83.0103,17.4872],[82.8842,17.4081],[82.615,17.2911],[82.4753,17.2022],[82.2983,17.0267],[82.2777,16.9443],[82.2529,16.9186],[82.2722,16.8622],[82.3597,16.8206],[82.3673,16.88],[82.3709,16.8678],[82.3464,16.7047],[82.3017,16.5831],[82.1989,16.5092],[81.9945,16.4078],[81.7273,16.3108],[81.4808,16.3575],[81.3769,16.3327],[81.2948,16.289],[81.2388,16.289],[81.1903,16.1446],[81.1551,15.9707],[81.0306,15.8793],[80.9984,15.8353],[81.0198,15.7794],[80.9839,15.7897],[80.9919,15.7603],[80.948,15.7367],[80.8714,15.8033],[80.8836,15.8458],[80.9475,15.8058],[80.8802,15.8618],[80.8253,15.7519],[80.8075,15.8406],[80.7789,15.8764],[80.6847,15.9],[80.5586,15.8784],[80.3757,15.774],[80.2936,15.7047],[80.0908,15.3092],[80.0491,15.0671],[80.1086,14.76],[80.195,14.5558],[80.1775,14.3581],[80.1263,14.2024],[80.1514,14.0358],[80.2475,13.8089],[80.2326,13.6559],[80.3233,13.4439],[80.3497,13.3342],[80.3258,13.1817],[80.2628,12.9492],[80.2589,12.7822],[80.1603,12.4731],[79.8672,12.0328],[79.8039,11.7953],[79.7831,11.77],[79.7601,11.5391],[79.7719,11.4914],[79.8016,11.4635],[79.8135,11.3683],[79.8331,11.3394],[79.8542,11.1372],[79.8408,10.8178],[79.8597,10.2889],[79.8017,10.2675],[79.7825,10.2689],[79.7826,10.2875],[79.76,10.2818],[79.7636,10.2583],[79.3992,10.3197],[79.3085,10.2652],[79.2701,10.2278],[79.2771,10.2105],[79.2358,10.1508],[79.2394,10.0883],[79.2617,10.0417],[79.25,10.0172],[78.9819,9.6642],[78.9408,9.5939],[78.908,9.4797],[78.9411,9.4094],[79.0213,9.3284],[79.1268,9.2917],[79.231,9.2927],[79.3317,9.2642],[79.4514,9.15],[79.2936,9.2468],[78.9626,9.2688],[78.7292,9.2003],[78.7216,9.183],[78.6465,9.1718],[78.653,9.1549],[78.518,9.1324],[78.3967,9.0897],[78.2339,8.9678],[78.1925,8.9042],[78.1744,8.8611],[78.1317,8.4867],[78.0605,8.3642],[77.9969,8.3383],[77.788,8.1961],[77.5872,8.1347],[77.5361,8.0719],[77.3183,8.1173],[76.9986,8.3653],[76.6683,8.7819],[76.5727,8.8749],[76.5336,8.9434],[76.3803,9.2814],[76.3158,9.4636],[76.2405,9.9635],[76.1825,10.0894],[76.1642,10.1878],[76.0814,10.4067],[75.9241,10.7556],[75.8616,10.9806],[75.6972,11.4151],[75.6557,11.4618],[75.613,11.4717],[75.5286,11.7003],[75.3893,11.8467],[75.3522,11.8601],[75.2491,12.0038],[75.1925,12.0078],[75.0933,12.2689],[74.963,12.5147],[74.8103,12.8647],[74.7559,13.1367],[74.6921,13.3488],[74.6656,13.6377],[74.6428,13.6709],[74.6094,13.8533],[74.5686,13.9336],[74.505,14.0011],[74.464,14.1872],[74.4147,14.2874],[74.3538,14.5117],[74.3008,14.5217],[74.2843,14.5996],[74.2635,14.6245],[74.2791,14.6286],[74.2508,14.7189],[74.2218,14.7379],[74.1985,14.7308],[74.1993,14.7176],[74.0989,14.7844],[74.0886,14.8036],[74.1014,14.8671],[74.0697,14.9091],[74.0388,14.9156],[74.0415,14.9488],[73.95,15.0729],[73.9051,15.0871],[73.9458,15.1408],[73.89,15.3245],[73.87,15.3519],[73.8032,15.377],[73.7794,15.4089],[73.88,15.4031],[73.8899,15.4192],[73.8439,15.4447],[73.7914,15.4506],[73.7574,15.4939],[73.6819,15.6978],[73.6872,15.7154],[73.6419,15.7403],[73.6505,15.7783],[73.6291,15.8319],[73.5752,15.9104],[73.5376,15.9339],[73.5041,15.94],[73.502,15.9734],[73.4478,16.0558],[73.408,16.2344],[73.3116,16.5403],[73.3362,16.56],[73.3125,16.6064],[73.2531,16.9989],[73.2575,17.0443],[73.2736,17.0347],[73.2747,17.0819],[73.2314,17.1954],[73.2349,17.2244],[73.1893,17.3016],[73.2135,17.3085],[73.1948,17.388],[73.1711,17.4039],[73.1884,17.4252],[73.1786,17.4711],[73.1144,17.6367],[73.1028,17.6894],[73.1222,17.7172],[73.1091,17.7697],[73.0114,17.9908],[72.9735,18.1171],[72.9705,18.2049],[72.9313,18.2186],[72.9388,18.2786],[72.9686,18.2601],[72.9672,18.3017],[72.9142,18.349],[72.8894,18.4342],[72.9028,18.5189],[72.8539,18.6606],[72.8575,18.7953],[72.9356,18.8241],[72.9918,18.7763],[72.9488,18.8469],[72.922,18.8554],[72.9119,18.9175],[72.9768,18.9474],[72.9539,18.9701],[73.0305,18.981],[73.0547,18.9961],[73.0542,19.0157],[73.0436,19.0265],[73.0061,19.005],[72.9957,19.0604],[72.9697,19.0789],[72.9322,19.0611],[72.9503,19.0538],[72.9436,19.0311],[72.9034,18.9938],[72.8932,19.0041],[72.8085,18.8975],[72.8016,18.9097],[72.8152,18.9164],[72.7717,18.9378],[72.8242,19.0464],[72.8239,19.0943],[72.808,19.1435],[72.7863,19.1386],[72.7667,19.2281],[72.7775,19.3086],[72.8514,19.3192],[72.9153,19.2915],[72.8799,19.3232],[72.7978,19.3261],[72.7544,19.3697],[72.7078,19.5875],[72.7009,19.7421],[72.6594,19.8391],[72.6661,19.9186],[72.7036,19.9878],[72.749,20.2818],[72.7817,20.3464],[72.8186,20.3717],[72.8262,20.4424],[72.883,20.508],[72.8771,20.5274],[72.8885,20.5288],[72.8927,20.5834],[72.8736,20.6444],[72.9022,20.5963],[72.8864,20.6374],[72.9015,20.6429],[72.8967,20.7022],[72.9087,20.7111],[72.8907,20.7199],[72.9037,20.743],[72.9339,20.7523],[72.9344,20.7747],[72.9178,20.7699],[72.9199,20.7893],[72.8861,20.7872],[72.8745,20.8015],[72.8845,20.8106],[72.8487,20.8411],[72.8268,20.8292],[72.846,20.8537],[72.844,20.875],[72.8245,20.8829],[72.841,20.9056],[72.8239,20.9212],[72.8415,20.9345],[72.8432,20.9759],[72.8052,20.9872],[72.827,21.014],[72.7661,21.0042],[72.7425,20.9769],[72.769,20.9288],[72.7473,20.9498],[72.7218,21.0569],[72.7417,21.0289],[72.7856,21.0461],[72.8068,21.0247],[72.848,21.0375],[72.853,21.0678],[72.8326,21.0544],[72.831,21.0968],[72.808,21.1264],[72.7545,21.108],[72.7302,21.0781],[72.6759,21.0773],[72.6605,21.0628],[72.6692,21.0781],[72.6158,21.0972],[72.6178,21.1386],[72.6331,21.1303],[72.6467,21.1489],[72.6293,21.1338],[72.6227,21.1434],[72.6208,21.2091],[72.6817,21.2184],[72.6431,21.2498],[72.6304,21.2406],[72.6399,21.2575],[72.6075,21.2581],[72.5636,21.3728],[72.6877,21.4363],[72.6934,21.4664],[72.5858,21.4133],[72.6164,21.48],[72.824,21.6367],[72.8406,21.6659],[72.9147,21.6492],[73.1077,21.7297],[73.064,21.7327],[72.9438,21.6753],[72.7776,21.6604],[72.7389,21.6861],[72.6033,21.6764],[72.543,21.6564],[72.5253,21.6947],[72.5569,21.7611],[72.5675,21.8481],[72.6264,21.9283],[72.6519,21.9411],[72.6811,21.9303],[72.7344,21.9864],[72.7137,21.9934],[72.6839,21.9646],[72.6719,21.9749],[72.6704,21.9621],[72.6311,21.9635],[72.5304,21.9024],[72.5008,21.9767],[72.5367,22.1378],[72.5672,22.1886],[72.6099,22.2151],[72.6631,22.211],[72.7419,22.1758],[72.7668,22.1936],[72.7581,22.2163],[72.7121,22.2444],[72.6273,22.255],[72.6127,22.2672],[72.6495,22.2643],[72.6288,22.2759],[72.5679,22.2652],[72.6144,22.2799],[72.5931,22.2817],[72.5615,22.268],[72.5231,22.2332],[72.5031,22.2385],[72.4849,22.2205],[72.47,22.228],[72.4334,22.2045],[72.4151,22.2149],[72.4247,22.2006],[72.4084,22.1524],[72.381,22.1539],[72.3885,22.1924],[72.3709,22.1814],[72.3689,22.1449],[72.367,22.1858],[72.3907,22.2002],[72.3697,22.1934],[72.3821,22.2262],[72.3758,22.2992],[72.3505,22.2989],[72.342,22.2572],[72.3316,22.2987],[72.3459,22.2239],[72.3173,22.204],[72.325,22.1464],[72.3053,22.0636],[72.242,22.0012],[72.2551,21.8193],[72.2386,21.7953],[72.2185,21.8162],[72.2081,21.8058],[72.3028,21.6256],[72.2425,21.4653],[72.1039,21.3097],[72.1105,21.2019],[72.0033,21.1347],[71.7922,21.0501],[71.8047,21.0394],[71.7127,21.0211],[71.6807,20.9969],[71.6397,20.994],[71.6368,20.9745],[71.5335,20.9464],[71.4669,20.8819],[70.9914,20.7048],[70.8269,20.6883],[70.6113,20.7678],[70.3381,20.9142],[70.0863,21.1186],[69.6047,21.6315],[69.5707,21.6422],[69.2286,21.9439],[68.9574,22.2382],[68.9348,22.3057],[69.0022,22.4403],[69.0672,22.4808],[69.1519,22.4029],[69.1912,22.4174],[69.2014,22.3985],[69.1746,22.3651],[69.1672,22.3119],[69.2116,22.2747],[69.2383,22.2733],[69.3081,22.2868],[69.3313,22.326],[69.4129,22.318],[69.484,22.3395],[69.4962,22.3665],[69.5196,22.3724],[69.5059,22.4204],[69.5166,22.4261],[69.5492,22.4001],[69.5543,22.377],[69.5382,22.3779],[69.5584,22.3622],[69.691,22.4026],[69.7228,22.4761],[69.7325,22.4391],[69.7662,22.4287],[69.8708,22.4655],[69.9831,22.5431],[70.0405,22.5583],[70.1122,22.5473],[70.1779,22.5604],[70.2537,22.6928],[70.2377,22.6953],[70.2559,22.7099],[70.2514,22.7324],[70.2757,22.7321],[70.3678,22.8932],[70.4481,22.97],[70.4865,23.0526],[70.4856,23.0888],[70.4029,23.036],[70.3894,22.9353],[70.343,22.9305],[70.2272,22.9575],[70.1307,22.9322],[70.0933,22.9022],[70.0647,22.9131],[69.8396,22.8558],[69.7472,22.7994],[69.7103,22.7428],[69.6957,22.7485],[69.7062,22.7367],[69.4539,22.7998],[69.493,22.775],[69.4554,22.7727],[69.392,22.8114],[69.1975,22.8335],[68.6523,23.1498],[68.5406,23.2668],[68.4405,23.419],[68.4286,23.4175],[68.4389,23.3891],[68.3937,23.4216],[68.3886,23.4546],[68.4203,23.4649],[68.4025,23.5206],[68.4117,23.6169],[68.6284,23.7599],[68.6581,23.7992],[68.6794,23.7916],[68.7414,23.8442],[68.5965,23.8008],[68.5235,23.7464],[68.5222,23.7641],[68.4902,23.7327],[68.4602,23.7334],[68.4824,23.7252],[68.4692,23.7178],[68.4475,23.7269],[68.4198,23.7054],[68.3683,23.5952],[68.3096,23.5672],[68.2657,23.5683],[68.2651,23.5793],[68.1394,23.6097],[68.2011,23.6642],[68.1867,23.723],[68.2094,23.867],[68.2837,23.9384],[68.2377,23.9002],[68.1856,23.8863],[68.1889,23.8501],[68.1361,23.8696],[68.1421,23.8397],[68.1035,23.8555],[68.1044,23.8432],[68.073,23.8347],[68.053,23.8538],[68.0553,23.903],[68.042,23.9119],[68.0277,23.8693],[68.0446,23.7949],[67.9962,23.7867],[67.9202,23.8517],[67.9298,23.829],[67.872,23.8586],[67.8655,23.9024],[67.9027,23.9647],[67.8939,23.9751],[67.8456,23.9091],[67.8274,23.8136],[67.709,23.8562],[67.7502,23.8015],[67.652,23.7945],[67.6269,23.8088],[67.6254,23.8429],[67.5841,23.8388],[67.5762,23.889],[67.5651,23.8683],[67.5355,23.893],[67.5343,23.8753],[67.4655,23.9066],[67.4627,23.9205],[67.491,23.9139],[67.4855,23.9374],[67.4661,23.9453],[67.5007,23.9699],[67.4224,23.9449],[67.4365,23.9907],[67.4083,24.0],[67.4218,24.0024],[67.4092,24.0391],[67.438,24.0636],[67.4183,24.0872],[67.4465,24.1203],[67.4088,24.084],[67.405,24.0763]],[[70.3986,23.0464],[70.4062,23.0505],[70.3996,23.0615],[70.3986,23.0464]],[[72.3004,22.2291],[72.3045,22.2284],[72.303,22.2311],[72.3004,22.2291]],[[72.6683,21.1542],[72.6736,21.1581],[72.6707,21.1568],[72.6683,21.1542]],[[72.8832,20.5162],[72.8861,20.5169],[72.8831,20.5179],[72.8832,20.5162]],[[85.1319,19.5011],[85.1677,19.5112],[85.1883,19.5453],[85.1319,19.5011]],[[73.3559,16.5214],[73.3385,16.5554],[73.346,16.5292],[73.3559,16.5214]],[[73.3478,16.5129],[73.3521,16.5171],[73.3477,16.5132],[73.3478,16.5129]]],[[[70.6941,38.0],[70.5517,37.6877],[70.2262,37.5075],[69.807,37.1844],[69.5944,37.0584],[69.1361,36.9455],[68.8619,36.9814],[68.0685,36.8232],[67.9016,36.9593],[67.6383,37.055],[67.2617,37.105],[66.5195,37.084],[66.2648,37.1944],[66.0446,37.2236],[65.8233,37.2973],[65.659,37.3264],[65.5533,37.2662],[65.419,37.2278],[64.9639,37.1873],[64.7878,37.0751],[64.7261,36.9204],[64.7041,36.7622],[64.6133,36.5077],[64.4719,36.2834],[64.2269,36.164],[63.3918,35.9066],[63.1936,35.8901],[63.1248,35.8378],[63.1634,35.5603],[63.0527,35.4794],[62.9674,35.3454],[62.6351,35.2231],[62.4263,35.308],[62.3553,35.1472],[62.0042,35.445],[61.7207,35.4123],[61.4905,35.5349],[61.3315,35.589],[61.2206,35.6592],[61.2344,35.8178],[61.1987,36.0366],[61.2181,36.2588],[61.1157,36.5326],[61.1335,36.6464],[60.9337,36.6256],[60.3123,36.6769],[60.0,37.0591],[60.0,38.0],[70.6941,38.0]]]]}}