{"type":"Feature","properties":{"speciesId":204,"category":"LC","source":"IUCN Red List","simplifyTol":0.01,"clippedToSubcontinent":true},"geometry":{"type":"Polygon","coordinates":[[[88.9052,27.5465],[89.4172,28.1636],[89.8992,28.304],[90.2261,28.2852],[90.7794,28.3123],[91.4663,28.2015],[91.9316,27.9799],[91.8941,27.7212],[92.1864,27.5811],[92.2861,27.3152],[92.4939,26.9916],[92.9523,27.0309],[93.468,27.0365],[93.64,27.0814],[93.9573,27.2945],[94.2464,27.5723],[94.4136,27.6584],[95.0009,27.8933],[95.3447,28.206],[95.7172,28.34],[95.9106,28.3623],[96.19,28.34],[96.6699,28.1558],[96.8776,28.0106],[97.0925,27.9603],[97.1713,28.0274],[97.1785,28.1502],[97.2296,28.3102],[97.3002,28.4013],[97.5058,28.4749],[97.6153,28.4959],[97.7363,28.4626],[97.8975,28.3663],[98.0,28.2732],[98.0,27.2494],[97.9377,27.244],[97.9162,27.1935],[97.7311,27.0678],[97.5079,27.0253],[97.1355,26.9916],[97.0025,27.0133],[96.7988,27.1375],[96.6484,27.2048],[96.3547,27.1767],[96.1613,27.1038],[95.6313,26.6997],[95.4808,26.6491],[95.2874,26.5424],[95.0901,26.3799],[94.9006,26.1148],[94.7932,26.0247],[94.521,25.8612],[94.2416,25.6413],[93.8835,25.4099],[93.4864,25.1183],[93.3296,25.055],[93.0383,25.0143],[92.7446,24.9917],[92.2647,24.9825],[90.2089,25.0935],[89.9367,25.1387],[89.7466,25.2167],[89.7205,25.2433],[89.6531,25.4455],[89.6215,25.6582],[89.5714,25.7767],[89.4854,25.85],[89.3995,25.8838],[89.2622,25.8964],[89.1686,25.9539],[89.0055,26.1148],[88.6303,26.2539],[88.4088,26.3157],[88.0131,26.3614],[87.3558,26.3906],[87.0357,26.3849],[86.8162,26.428],[86.4842,26.4636],[86.2908,26.5199],[86.0153,26.6676],[85.904,26.8233],[85.6664,27.2921],[85.6819,27.5017],[85.7328,27.6817],[85.8395,27.9436],[85.9711,28.0728],[86.1783,28.1588],[86.6632,28.167],[86.8638,28.1446],[87.0787,28.0888],[87.2793,27.9883],[87.5658,27.9659],[88.2248,28.1167],[88.5471,28.1781],[88.6617,28.1837],[88.8375,28.1336],[88.9339,28.005],[88.8802,27.893],[88.8456,27.6642],[88.9052,27.5465]]]}}