{"type":"Feature","properties":{"speciesId":205,"category":"LC","source":"IUCN Red List","simplifyTol":0.01,"clippedToSubcontinent":true},"geometry":{"type":"Polygon","coordinates":[[[77.5174,32.0785],[77.5796,32.0518],[77.6774,31.8829],[78.1931,31.1183],[78.8866,30.4693],[83.4032,29.2246],[84.2745,28.8511],[84.5856,28.7],[84.968,28.4155],[85.4036,28.0243],[86.1327,27.6864],[87.0929,27.313],[87.6174,27.153],[88.0175,27.0018],[88.062,26.824],[87.9908,26.7707],[87.733,26.7707],[87.2084,26.8685],[85.4125,27.5797],[84.6568,28.1932],[84.15,28.5222],[83.6254,28.8067],[82.8075,28.9934],[81.1182,29.3312],[78.2109,30.1848],[77.8375,30.4871],[77.6241,30.9672],[77.4285,31.2606],[77.2774,31.5628],[77.2596,31.9452],[77.3929,32.0785],[77.5174,32.0785]]]}}