{"type":"Feature","properties":{"speciesId":21,"category":"LC","source":"IUCN Red List","simplifyTol":0.01,"clippedToSubcontinent":true},"geometry":{"type":"MultiPolygon","coordinates":[[[[74.9206,15.013],[75.9664,12.8975],[77.0123,10.4017],[77.3926,8.8092],[77.3213,8.4051],[77.0836,8.4764],[75.7763,11.5189],[74.8968,13.4205],[74.3768,14.4387],[74.3538,14.5117],[74.3385,14.5138],[74.2788,14.6307],[74.2946,14.6402],[74.2751,14.6467],[74.2756,14.6779],[74.2537,14.7068],[74.2633,14.7094],[74.2647,14.7201],[74.2582,14.7122],[74.24,14.7409],[74.2209,14.744],[73.8827,15.4064],[73.8899,15.4192],[73.8697,15.4317],[73.7558,15.6548],[73.8271,15.94],[74.4452,15.7023],[74.9206,15.013]]],[[[74.2486,14.6996],[74.246,14.702],[74.2488,14.7011],[74.2486,14.6996]]]]}}