{"type":"Feature","properties":{"speciesId":214,"category":"LC","source":"IUCN Red List","simplifyTol":0.01,"clippedToSubcontinent":true},"geometry":{"type":"MultiPolygon","coordinates":[[[[91.7604,22.3658],[91.7606,22.3664],[91.7607,22.366],[91.7604,22.3658]]],[[[91.7612,22.3694],[91.7612,22.3696],[91.7612,22.3693],[91.7612,22.3694]]],[[[91.7612,22.3694],[91.7598,22.3675],[91.7611,22.3698],[91.7612,22.3694]]],[[[91.7688,22.3433],[91.7655,22.3938],[91.791,22.4002],[91.8194,22.3909],[91.8325,22.3658],[91.8188,22.3385],[91.797,22.333],[91.7688,22.3433]]],[[[86.3195,22.4106],[86.5157,22.4601],[86.7194,22.2175],[86.7615,22.0492],[86.7825,21.8177],[86.9719,21.7336],[87.0561,21.5442],[86.9844,21.4043],[86.8946,21.3136],[86.856,21.2417],[86.1302,21.0392],[85.9829,20.934],[85.8777,20.7236],[85.8777,20.5552],[85.8146,20.3659],[85.7725,20.3027],[85.4779,20.2606],[85.4148,20.1765],[85.3727,20.0713],[85.3096,20.0292],[85.3306,19.8398],[85.2044,19.6715],[85.1623,19.4821],[85.0883,19.3699],[84.9634,19.2935],[84.9348,19.3044],[84.9129,19.2825],[84.912,19.2507],[84.8096,19.1478],[84.7642,19.0588],[84.6152,19.0402],[84.4467,18.7313],[84.3867,18.6682],[84.0892,18.6615],[83.8788,18.6194],[83.6894,18.5352],[83.5421,18.409],[83.5421,18.2827],[83.5631,18.2617],[83.5521,18.1701],[83.4158,18.0302],[83.4158,17.8829],[83.3929,17.7781],[83.2944,17.6912],[83.3009,17.6774],[83.2456,17.6371],[83.2371,17.6092],[83.1844,17.5883],[82.974,17.5883],[82.7004,17.6725],[82.5828,17.8931],[82.5742,18.1144],[82.5952,18.5773],[82.6583,19.0823],[82.5742,19.2296],[82.49,19.7556],[82.4058,20.0502],[82.4058,20.3027],[82.3644,20.4269],[82.452,20.6252],[82.8223,20.9426],[83.2926,21.6886],[83.9261,22.4149],[84.8007,22.6542],[85.8096,22.7113],[86.3195,22.4106]]]]}}