{"type":"Feature","properties":{"speciesId":215,"category":"LC","source":"IUCN Red List","simplifyTol":0.01,"clippedToSubcontinent":true},"geometry":{"type":"MultiPolygon","coordinates":[[[[67.4118,24.0805],[67.4227,24.0664],[67.4129,24.0593],[67.4046,24.0705],[67.4118,24.0805]]],[[[66.3534,25.5294],[66.3972,25.5215],[66.3943,25.5066],[66.4265,25.4826],[66.4752,25.4995],[66.5174,25.492],[66.4928,25.4478],[66.5264,25.4114],[66.5059,25.4053],[66.3219,25.4669],[66.1988,25.46],[66.1862,25.4908],[66.3264,25.5528],[66.3534,25.5294]]],[[[68.5861,23.8602],[68.4636,23.7384],[68.4223,23.7233],[68.4128,23.6869],[68.2932,23.5673],[68.2657,23.5683],[68.2784,23.6004],[68.2649,23.6325],[68.2261,23.6465],[68.2611,23.6546],[68.3259,23.7259],[68.291,23.7243],[68.2403,23.6712],[68.1867,23.723],[68.2112,23.7698],[68.2074,23.8372],[68.2221,23.8313],[68.2408,23.8493],[68.2556,23.835],[68.2675,23.8377],[68.2573,23.876],[68.2747,23.9179],[68.3201,23.9173],[68.2862,23.9383],[68.2377,23.9001],[68.1856,23.8863],[68.1897,23.851],[68.1361,23.8695],[68.1427,23.8406],[68.1035,23.8555],[68.1044,23.8432],[68.076,23.8332],[68.053,23.8537],[68.0553,23.903],[68.042,23.9118],[68.0277,23.8692],[68.0446,23.7949],[67.9962,23.7867],[67.9202,23.8517],[67.9298,23.829],[67.872,23.8586],[67.8655,23.9024],[67.9027,23.9647],[67.8939,23.975],[67.8456,23.9091],[67.8274,23.8136],[67.7051,23.8556],[67.7465,23.7995],[67.652,23.7945],[67.6269,23.8088],[67.6261,23.8423],[67.5841,23.8388],[67.5762,23.8889],[67.5651,23.8682],[67.5355,23.893],[67.5343,23.8753],[67.4655,23.9066],[67.4626,23.9205],[67.491,23.9139],[67.4855,23.9373],[67.4661,23.9453],[67.5044,23.966],[67.4864,23.974],[67.4224,23.9449],[67.4361,23.9916],[67.4083,24.0],[67.4218,24.0024],[67.41,24.0421],[67.438,24.0636],[67.4183,24.0872],[67.4489,24.1168],[67.4088,24.084],[67.3921,24.0477],[67.3626,24.1323],[67.4118,24.1233],[67.4248,24.1292],[67.3695,24.1374],[67.3344,24.1725],[67.3545,24.1828],[67.3351,24.2077],[67.342,24.2351],[67.4016,24.2334],[67.4208,24.2098],[67.4312,24.2214],[67.4317,24.2472],[67.4205,24.2173],[67.4143,24.234],[67.3501,24.2542],[67.3613,24.2756],[67.3814,24.2732],[67.3946,24.287],[67.3585,24.2837],[67.3259,24.2448],[67.2954,24.301],[67.3299,24.3339],[67.3596,24.2907],[67.3386,24.3323],[67.3466,24.3428],[67.4109,24.3113],[67.4421,24.316],[67.449,24.3321],[67.4906,24.3218],[67.5146,24.3424],[67.5291,24.3345],[67.5124,24.3525],[67.4873,24.3263],[67.4573,24.3417],[67.4343,24.3227],[67.3665,24.3509],[67.369,24.3857],[67.4177,24.3864],[67.4229,24.3603],[67.4278,24.3918],[67.4158,24.4014],[67.3605,24.3877],[67.3491,24.4005],[67.4169,24.4367],[67.4646,24.4234],[67.4727,24.4268],[67.3932,24.4497],[67.3712,24.4371],[67.3834,24.4544],[67.3608,24.4601],[67.3951,24.4834],[67.4218,24.4644],[67.454,24.4621],[67.4366,24.4788],[67.4213,24.4707],[67.4039,24.5064],[67.412,24.5215],[67.3915,24.5151],[67.4022,24.493],[67.3743,24.472],[67.3094,24.4589],[67.3294,24.4856],[67.3523,24.4797],[67.3702,24.5304],[67.3975,24.5246],[67.3987,24.5467],[67.3684,24.5359],[67.3571,24.5504],[67.4136,24.5856],[67.4396,24.5746],[67.4071,24.5894],[67.3234,24.5491],[67.3048,24.5523],[67.3149,24.5579],[67.2998,24.5822],[67.3203,24.5757],[67.3231,24.5906],[67.371,24.608],[67.3838,24.6377],[67.4069,24.6357],[67.4143,24.6493],[67.4405,24.6404],[67.4532,24.6537],[67.4428,24.6478],[67.4206,24.6728],[67.4325,24.6982],[67.3932,24.7046],[67.3515,24.7423],[67.3493,24.7629],[67.4528,24.776],[67.467,24.7541],[67.4609,24.7801],[67.3296,24.7712],[67.2456,24.7849],[67.2199,24.8141],[67.1748,24.7814],[67.1547,24.7937],[67.1224,24.7788],[67.1049,24.7976],[67.1023,24.7781],[67.0908,24.7921],[67.0931,24.7569],[67.0217,24.8083],[66.9758,24.8108],[66.9654,24.8414],[66.9825,24.8578],[66.9538,24.861],[66.9122,24.8447],[66.9578,24.8258],[66.9792,24.7917],[66.862,24.8568],[66.8191,24.8344],[66.7562,24.8437],[66.6833,24.8214],[66.6514,24.8293],[66.6843,24.8757],[66.7217,24.893],[66.6869,24.8927],[66.6754,24.9236],[66.7004,24.9496],[66.7041,25.0826],[66.7386,25.1422],[66.742,25.1832],[66.6783,25.2711],[66.5501,25.3652],[66.5553,25.3922],[66.5661,25.371],[66.58,25.374],[66.5783,25.4114],[66.5942,25.425],[66.56,25.4529],[66.5576,25.5381],[66.5289,25.5422],[66.5159,25.5634],[66.5417,25.6419],[66.4995,25.5743],[66.4799,25.5877],[66.4672,25.5699],[66.4552,25.6194],[66.4454,25.5972],[66.3984,25.584],[66.3676,25.6159],[66.3105,25.61],[66.2969,25.6239],[66.2314,25.5902],[66.1894,25.5986],[66.1555,25.5593],[66.0306,25.8386],[65.8327,26.1887],[65.9402,27.8288],[66.2615,28.8639],[66.3166,30.2429],[67.2653,31.2065],[67.9698,31.6396],[68.8049,31.61],[69.3233,31.9413],[69.5696,33.0513],[69.7001,33.1144],[69.8083,33.3091],[69.7234,33.8609],[69.5546,34.3251],[68.9521,34.8415],[68.7081,35.4516],[68.7203,35.4516],[68.5773,35.6436],[68.5349,36.0681],[68.7471,36.3652],[69.1291,36.5775],[69.6809,36.535],[70.7421,36.3228],[71.4636,36.0681],[72.0154,35.6012],[72.09,35.5652],[72.2465,35.6956],[73.6854,35.8176],[73.6991,35.3328],[73.8987,34.4958],[74.5212,33.3819],[75.0684,32.8584],[76.2005,31.8864],[76.9283,30.8643],[78.0904,30.2648],[78.5668,30.1182],[78.5889,30.0708],[79.7225,29.5189],[83.8946,27.6641],[83.2346,27.7057],[80.9958,27.9469],[79.1675,27.7986],[75.0968,26.4351],[74.1689,26.3105],[73.1559,25.5178],[71.4798,24.7646],[71.2864,24.5383],[70.834,24.26],[69.8299,24.1675],[69.3182,24.2262],[68.5861,23.8602]]],[[[65.021,32.3001],[65.1461,32.2734],[65.2502,32.2017],[65.3199,32.0945],[65.3432,31.9687],[65.3164,31.8437],[65.2437,31.7384],[65.1361,31.6692],[65.0118,31.6465],[64.8867,31.6733],[64.7815,31.746],[64.7123,31.8536],[64.6896,31.9779],[64.7164,32.103],[64.788,32.2071],[64.8952,32.2769],[65.021,32.3001]]]]}}