{"type":"Feature","properties":{"speciesId":216,"category":"LC","source":"IUCN Red List","simplifyTol":0.01,"clippedToSubcontinent":true},"geometry":{"type":"Polygon","coordinates":[[[77.5907,20.9344],[77.1807,21.0619],[77.0394,21.1584],[77.0325,21.2342],[77.2668,21.7683],[77.3254,21.944],[77.4874,22.3265],[77.4942,22.5126],[77.3805,23.2431],[77.4184,23.4016],[77.7389,23.5704],[78.2075,23.6703],[78.8209,23.7462],[79.1895,23.7565],[79.4652,23.7117],[80.0372,23.7083],[80.2818,23.7186],[80.9503,23.7978],[81.0433,23.7909],[81.1467,23.6945],[81.195,23.4981],[81.2397,22.261],[81.2018,22.0991],[81.095,22.0164],[80.9124,21.9509],[80.5368,21.8924],[80.1681,21.8786],[79.2791,21.9268],[78.7761,21.7821],[78.4177,21.5306],[77.9835,21.0895],[77.9077,20.9276],[77.8802,20.9034],[77.8285,20.8896],[77.5907,20.9344]]]}}