{"type":"Feature","properties":{"speciesId":217,"category":"LC","source":"IUCN Red List","simplifyTol":0.01,"clippedToSubcontinent":true},"geometry":{"type":"MultiPolygon","coordinates":[[[[67.1159,24.6769],[67.1211,24.6888],[67.1336,24.6752],[67.1159,24.6769]]],[[[67.1329,24.6917],[67.1134,24.747],[67.1371,24.7553],[67.1525,24.7354],[67.1329,24.6917]]],[[[66.5961,24.8909],[66.6175,24.8999],[66.6158,24.8871],[66.5961,24.8909]]],[[[63.8788,25.1268],[63.8626,25.1143],[63.8409,25.1183],[63.8673,25.1295],[63.8788,25.1268]]],[[[64.0651,25.4156],[64.1084,25.4295],[64.1245,25.4227],[64.0905,25.4084],[64.0651,25.4156]]],[[[66.5058,25.4565],[66.5279,25.4597],[66.5044,25.4506],[66.5058,25.4565]]],[[[66.4006,25.5531],[66.4199,25.5522],[66.4226,25.522],[66.3967,25.5379],[66.4006,25.5531]]],[[[66.1955,25.5328],[66.1624,25.5407],[66.2052,25.5732],[66.1955,25.5328]]],[[[66.3428,25.5618],[66.3516,25.5599],[66.3528,25.5505],[66.3428,25.5618]]],[[[66.3873,25.5655],[66.3798,25.5631],[66.3842,25.5685],[66.3873,25.5655]]],[[[66.3788,25.5785],[66.3709,25.5899],[66.3817,25.5807],[66.3788,25.5785]]],[[[66.3542,25.5913],[66.3562,25.5841],[66.351,25.5923],[66.3542,25.5913]]],[[[67.3815,24.0687],[67.3955,24.0633],[67.371,24.0874],[67.3626,24.1324],[67.4118,24.1233],[67.4245,24.1302],[67.3828,24.1326],[67.3453,24.1558],[67.3347,24.1763],[67.3545,24.1828],[67.3371,24.2265],[67.4016,24.2334],[67.4208,24.2098],[67.4312,24.2214],[67.4317,24.2472],[67.4212,24.2167],[67.4143,24.234],[67.3501,24.2542],[67.3613,24.2757],[67.3814,24.2732],[67.3934,24.2874],[67.3585,24.2837],[67.3259,24.2449],[67.2972,24.3074],[67.3299,24.3339],[67.3596,24.2907],[67.3386,24.3323],[67.3466,24.3428],[67.4109,24.3113],[67.4421,24.3161],[67.449,24.3322],[67.4906,24.3218],[67.5146,24.3424],[67.5291,24.3345],[67.5124,24.3526],[67.4873,24.3263],[67.4566,24.3422],[67.4343,24.3227],[67.3665,24.351],[67.369,24.3857],[67.4177,24.3865],[67.4229,24.3603],[67.4278,24.3918],[67.4158,24.4014],[67.3605,24.3877],[67.3491,24.4005],[67.4169,24.4368],[67.4646,24.4235],[67.4727,24.4269],[67.3902,24.4501],[67.3753,24.4341],[67.3834,24.4544],[67.3604,24.4608],[67.4009,24.4844],[67.4218,24.4644],[67.4504,24.4602],[67.455,24.4655],[67.436,24.4797],[67.4213,24.4707],[67.4039,24.5064],[67.412,24.5215],[67.3919,24.5161],[67.4022,24.493],[67.3743,24.4721],[67.3424,24.4591],[67.3099,24.4622],[67.3258,24.4653],[67.3282,24.4852],[67.3523,24.4797],[67.3702,24.5304],[67.3975,24.5246],[67.3987,24.5468],[67.3684,24.536],[67.3552,24.546],[67.3807,24.571],[67.4136,24.5857],[67.4396,24.5746],[67.4071,24.5894],[67.3234,24.5491],[67.304,24.5532],[67.3152,24.5589],[67.299,24.5815],[67.3203,24.5757],[67.3231,24.5906],[67.371,24.6081],[67.3838,24.6377],[67.4069,24.6358],[67.4143,24.6494],[67.4405,24.6404],[67.4532,24.6537],[67.4416,24.6479],[67.4203,24.6727],[67.4344,24.6857],[67.4325,24.6982],[67.3932,24.7046],[67.3515,24.7423],[67.3493,24.7629],[67.4528,24.7761],[67.4681,24.7538],[67.4637,24.7775],[67.3755,24.7834],[67.3296,24.7712],[67.2746,24.7903],[67.2456,24.7849],[67.2199,24.8141],[67.174,24.781],[67.1547,24.7937],[67.1224,24.7788],[67.1049,24.7976],[67.1023,24.7781],[67.0908,24.7921],[67.0931,24.7569],[67.0217,24.8083],[66.9758,24.8108],[66.9736,24.8306],[66.9627,24.825],[66.9825,24.8579],[66.9538,24.861],[66.9122,24.8447],[66.9578,24.8259],[66.9792,24.7917],[66.862,24.8569],[66.8191,24.8344],[66.7562,24.8438],[66.6833,24.8214],[66.6514,24.8294],[66.6843,24.8757],[66.722,24.8918],[66.6869,24.8927],[66.6754,24.9236],[66.7004,24.9496],[66.7041,25.0826],[66.7386,25.1422],[66.742,25.1833],[66.6783,25.2711],[66.5501,25.3652],[66.5553,25.3922],[66.5794,25.3729],[66.5783,25.4114],[66.5942,25.425],[66.56,25.4529],[66.5576,25.5381],[66.5289,25.5422],[66.5159,25.5634],[66.5429,25.6144],[66.5393,25.6442],[66.5028,25.5774],[66.4799,25.5877],[66.4672,25.5699],[66.4552,25.6194],[66.4454,25.5972],[66.3991,25.5835],[66.3676,25.6159],[66.3105,25.6101],[66.2969,25.6239],[66.2322,25.5904],[66.1901,25.5993],[66.1337,25.5443],[66.1328,25.5079],[66.0919,25.4796],[66.1956,25.4889],[66.2848,25.5421],[66.3141,25.5377],[66.3088,25.5465],[66.3349,25.5532],[66.358,25.5248],[66.3972,25.5216],[66.3943,25.5066],[66.4265,25.4826],[66.4752,25.4996],[66.5174,25.4921],[66.4928,25.4478],[66.5284,25.4158],[66.5133,25.4046],[66.36,25.4601],[66.2765,25.4678],[66.0391,25.4266],[66.0238,25.4437],[66.0092,25.4368],[66.0144,25.4209],[65.9549,25.4132],[65.8387,25.4194],[65.773,25.3835],[65.6357,25.3495],[65.5178,25.3704],[65.5435,25.4199],[65.5057,25.3761],[65.3711,25.3902],[65.3381,25.3805],[65.3189,25.3967],[65.2514,25.3791],[65.2263,25.3172],[65.1564,25.3061],[64.9953,25.3252],[64.8271,25.3189],[64.7806,25.3477],[64.7927,25.3239],[64.7262,25.3167],[64.6525,25.2732],[64.6402,25.2055],[64.7005,25.1866],[64.6623,25.16],[64.5846,25.1594],[64.5832,25.1813],[64.6045,25.1891],[64.611,25.2166],[64.5436,25.2705],[64.406,25.2383],[64.3405,25.2768],[64.24,25.307],[64.2462,25.3325],[64.2233,25.318],[64.0838,25.3294],[64.0918,25.3659],[64.1175,25.3649],[64.0809,25.3978],[64.1419,25.4112],[64.1381,25.4323],[64.1651,25.4533],[64.1243,25.439],[64.1174,25.4545],[64.0642,25.4452],[64.0473,25.4314],[64.0287,25.465],[64.0287,25.4441],[63.9915,25.4264],[64.0198,25.4249],[64.0058,25.4066],[63.9744,25.4234],[63.9678,25.4056],[63.9913,25.4099],[64.0042,25.3844],[64.0208,25.4095],[64.0361,25.4061],[64.072,25.3632],[64.0643,25.3283],[63.9296,25.3371],[63.758,25.3788],[63.6059,25.3706],[63.5356,25.3457],[63.4811,25.2844],[63.4561,25.2952],[63.5039,25.2262],[63.4927,25.1982],[63.1395,25.2577],[62.994,25.2113],[62.8916,25.3083],[62.8014,25.1823],[62.7232,25.1373],[62.6264,25.1313],[62.3024,25.1693],[62.2284,25.1507],[62.0543,25.0696],[61.9112,25.0527],[61.8456,25.0736],[61.7374,25.2087],[61.6117,25.2822],[61.4671,25.3178],[61.1029,25.3615],[60.9418,25.4144],[60.8156,25.4957],[60.4483,25.7828],[60.0,26.039],[60.0,37.8011],[60.2881,37.7599],[61.0015,37.7462],[61.3179,37.7085],[61.436,37.3809],[61.5293,36.9333],[61.809,36.5976],[62.3125,36.4857],[62.8906,36.579],[63.7298,36.9706],[64.4758,37.2876],[65.0352,37.642],[65.2793,38.0],[69.41,38.0],[69.4333,37.2139],[69.2466,37.0941],[69.1203,36.6542],[68.0563,36.1501],[66.9747,36.0382],[64.5276,35.3933],[64.4,35.3133],[64.2824,35.2113],[64.1965,35.1087],[64.1366,34.9955],[64.0822,34.8242],[63.9967,34.4317],[63.9384,33.9756],[63.9405,33.6702],[63.9811,33.3942],[64.0864,33.0379],[64.1365,32.9347],[64.1942,32.8584],[64.3032,32.7715],[64.5172,32.6758],[66.3147,31.5363],[67.1609,30.6818],[67.2721,30.6371],[67.3881,30.5672],[67.6287,30.3534],[67.8417,30.1062],[67.9944,29.881],[68.1245,29.6253],[68.2262,29.3444],[68.9142,28.7838],[69.2871,28.7278],[69.6974,28.8211],[70.089,29.1941],[70.3874,29.6416],[70.3874,30.4995],[70.3501,32.0473],[70.1077,32.6441],[69.6638,33.0998],[69.1844,33.3412],[69.1022,33.4069],[68.8648,33.5111],[68.7723,33.57],[68.6765,33.6723],[68.5909,33.7945],[68.5261,33.9214],[68.4859,34.0454],[68.4592,34.2208],[68.4606,34.4063],[68.4897,34.5845],[68.5445,34.744],[68.6306,34.8907],[68.7489,35.031],[68.8852,35.1494],[69.0336,35.2404],[69.2221,35.318],[69.3981,35.3542],[69.6136,35.3605],[69.8657,35.3337],[70.2293,35.2435],[70.5601,35.0932],[71.0391,34.9177],[71.5365,34.6768],[71.9173,34.4554],[72.297,34.2],[73.215,33.5391],[73.7152,33.224],[73.8948,33.1305],[74.0957,33.0508],[74.9285,32.8099],[75.2523,32.6863],[75.4082,32.6002],[75.5365,32.5035],[75.6396,32.3941],[75.7182,32.2722],[75.8153,32.0651],[75.8778,31.8692],[75.9052,31.6793],[75.9036,31.4786],[75.8742,31.2912],[75.8178,31.1209],[75.7175,30.9245],[75.5947,30.7451],[75.3402,30.4747],[74.9659,30.2034],[73.0338,28.4878],[72.0195,27.9249],[71.7934,27.7694],[71.6151,27.6098],[71.4369,27.3725],[71.265,26.9869],[71.0023,26.6857],[70.9472,26.5796],[70.0263,25.2379],[69.8784,24.8869],[69.8182,24.7798],[69.6903,24.6354],[69.2829,24.2796],[69.2032,24.1734],[69.1049,23.9835],[69.0485,23.9158],[68.9167,23.817],[68.7557,23.7454],[68.5944,23.7107],[68.4198,23.7121],[68.1963,23.7698],[67.8316,23.9541],[67.7041,24.0008],[67.4351,23.9843],[67.4083,24.0],[67.4218,24.0024],[67.4092,24.0392],[67.438,24.0636],[67.4181,24.0862],[67.4465,24.1203],[67.4088,24.084],[67.405,24.0764],[67.4014,24.0464],[67.3815,24.0687]]],[[[67.3236,24.4969],[67.321,24.4697],[67.3097,24.4745],[67.3236,24.4969]]],[[[67.3049,24.4742],[67.2567,24.4769],[67.2746,24.4961],[67.2676,24.5186],[67.288,24.5262],[67.3062,24.5103],[67.3049,24.4742]]],[[[67.2989,24.5548],[67.2732,24.5249],[67.2499,24.5383],[67.2405,24.5284],[67.2163,24.5566],[67.2242,24.576],[67.2858,24.581],[67.2989,24.5548]]],[[[67.3093,24.5925],[67.3006,24.5926],[67.3086,24.6039],[67.3093,24.5925]]],[[[67.3353,24.6107],[67.3147,24.5831],[67.3153,24.6071],[67.3046,24.6121],[67.2914,24.5904],[67.292,24.6207],[67.3124,24.6349],[67.3353,24.6107]]],[[[67.2566,24.6611],[67.2806,24.6139],[67.2562,24.5972],[67.2196,24.6208],[67.22,24.6389],[67.182,24.6243],[67.1721,24.6663],[67.1982,24.681],[67.216,24.6634],[67.2566,24.6611]]],[[[67.2806,24.6379],[67.281,24.6615],[67.2986,24.6662],[67.3054,24.6397],[67.2806,24.6379]]],[[[67.301,24.6859],[67.3161,24.6635],[67.2911,24.6875],[67.301,24.6859]]],[[[67.2449,24.6676],[67.1878,24.6946],[67.2122,24.7168],[67.2199,24.6909],[67.2449,24.6676]]],[[[67.3614,24.7245],[67.3915,24.6966],[67.3402,24.6922],[67.3272,24.677],[67.2873,24.6917],[67.295,24.6711],[67.2725,24.6681],[67.271,24.6536],[67.2723,24.6789],[67.2481,24.6771],[67.2173,24.7161],[67.2545,24.7063],[67.3031,24.7372],[67.3614,24.7245]]],[[[67.1739,24.7265],[67.2384,24.7603],[67.2497,24.745],[67.1991,24.7243],[67.189,24.7043],[67.1739,24.7265]]],[[[67.3322,24.7394],[67.2878,24.7417],[67.2442,24.7116],[67.2337,24.7284],[67.3027,24.7739],[67.3412,24.7601],[67.3322,24.7394]]],[[[67.2643,24.7511],[67.2505,24.7534],[67.2367,24.7796],[67.2859,24.7823],[67.2643,24.7511]]],[[[67.1825,24.7512],[67.1653,24.7763],[67.2278,24.7852],[67.227,24.7761],[67.1825,24.7512]]],[[[67.2157,24.8062],[67.2318,24.7917],[67.2118,24.8053],[67.2157,24.8062]]],[[[67.3924,23.9816],[67.3971,23.9821],[67.3973,23.9819],[67.3924,23.9816]]],[[[67.4231,24.0676],[67.4129,24.0593],[67.4046,24.0705],[67.413,24.0806],[67.4231,24.0676]]],[[[67.3557,24.3838],[67.3579,24.3574],[67.3386,24.3609],[67.3376,24.3671],[67.3557,24.3838]]],[[[67.3104,24.3831],[67.3337,24.3733],[67.3154,24.3647],[67.3104,24.3831]]],[[[67.3416,24.4159],[67.3388,24.3912],[67.3054,24.3943],[67.3086,24.4156],[67.34,24.4177],[67.3104,24.428],[67.3652,24.4294],[67.3632,24.4118],[67.3416,24.4159]]],[[[67.3774,24.4338],[67.3914,24.4242],[67.3713,24.4261],[67.3774,24.4338]]],[[[67.3728,24.4528],[67.3059,24.4321],[67.2966,24.4417],[67.3728,24.4528]]],[[[67.313,24.5104],[67.3466,24.4983],[67.3448,24.4909],[67.313,24.5104]]],[[[67.3505,24.5024],[67.2934,24.5293],[67.32,24.5467],[67.3618,24.5287],[67.3505,24.5024]]],[[[67.3491,24.6178],[67.3398,24.6175],[67.3479,24.6213],[67.3491,24.6178]]],[[[67.3289,24.6265],[67.3556,24.6445],[67.374,24.6299],[67.3623,24.6155],[67.3476,24.6292],[67.3289,24.6265]]],[[[67.3649,24.6521],[67.3447,24.6498],[67.3433,24.6548],[67.3671,24.667],[67.3649,24.6521]]],[[[67.3088,24.6622],[67.3199,24.6586],[67.3343,24.6766],[67.3449,24.6623],[67.3243,24.6406],[67.3088,24.6622]]],[[[67.4166,24.6567],[67.3899,24.6492],[67.3699,24.6707],[67.3418,24.6756],[67.3405,24.6858],[67.4257,24.6969],[67.4158,24.6699],[67.4357,24.6453],[67.4166,24.6567]]]]}}