{"type":"Feature","properties":{"speciesId":220,"category":"LC","source":"IUCN Red List","simplifyTol":0.01,"clippedToSubcontinent":true},"geometry":{"type":"Polygon","coordinates":[[[62.3041,37.6204],[62.7523,37.3964],[62.8784,37.2423],[63.1865,36.9202],[63.7327,36.598],[64.1389,36.7521],[64.279,37.1442],[64.5311,37.4524],[64.5731,37.6204],[65.0213,37.6905],[65.0913,37.8585],[64.8909,38.0],[65.6696,38.0],[65.7358,37.8239],[65.7585,37.6617],[65.7493,37.5356],[65.6947,37.4037],[65.6197,37.3162],[65.5388,37.2968],[65.2897,37.3426],[65.1405,37.3282],[64.9073,37.2648],[64.7613,37.1703],[64.7238,37.1105],[64.7011,37.0293],[64.6643,36.6067],[64.5372,36.3345],[64.4917,36.2837],[64.4345,36.2547],[64.1701,36.2142],[64.0936,36.1875],[64.0558,36.1417],[64.0567,36.0455],[64.039,36.0229],[63.9614,36.019],[63.8947,36.0456],[63.3872,35.0967],[63.2279,35.0382],[63.1445,34.6992],[62.9492,34.2975],[62.8928,34.1474],[62.8553,33.9062],[62.8519,33.6953],[62.8975,33.5036],[63.0143,33.3096],[63.1926,33.1296],[63.3945,33.0034],[63.5201,32.9659],[63.8656,32.9375],[64.062,32.89],[64.3409,32.7769],[64.9726,32.438],[65.2653,32.3112],[65.5557,32.2303],[66.3162,32.0703],[66.8131,31.9251],[67.1924,31.7955],[67.668,31.5852],[68.3541,31.1588],[68.7782,30.9801],[69.0369,30.909],[69.4046,30.9054],[69.5307,30.8895],[69.6599,30.8261],[69.7636,30.6849],[69.8124,30.6483],[69.9292,30.6328],[70.0744,30.6622],[70.1463,30.6999],[70.184,30.7591],[70.1986,30.8543],[70.1888,30.99],[70.0948,31.5134],[69.8259,32.2515],[69.574,33.2746],[69.5372,33.5268],[69.5304,33.7393],[69.5531,33.9189],[69.6056,34.069],[69.6812,34.1828],[69.806,34.2991],[69.96,34.4022],[70.141,34.4902],[70.6355,35.1533],[71.3514,35.5984],[72.0149,36.0383],[72.955,36.4693],[73.6602,36.2722],[74.4153,35.8975],[75.3082,34.9341],[75.4189,34.9025],[75.9069,33.6823],[77.1271,32.0962],[78.1032,30.51],[78.1032,28.1917],[77.6984,26.7344],[77.6902,26.3163],[77.6575,26.1189],[77.6045,25.9281],[77.4368,25.5262],[77.1429,25.0672],[77.0059,24.7572],[76.9201,24.453],[76.9061,24.3303],[76.9101,24.0965],[76.8683,23.9597],[76.751,23.8024],[76.4375,23.5215],[76.3223,23.3941],[76.1569,23.1175],[76.0074,22.7948],[75.8667,22.4016],[75.7408,21.9434],[75.6629,21.3719],[75.6168,21.1787],[75.3522,20.6663],[75.2382,20.2197],[75.1747,20.0516],[74.8341,19.4782],[74.7376,19.2811],[74.6829,19.0886],[74.6065,18.6407],[74.5487,18.4614],[74.4547,18.3132],[74.2814,18.1771],[74.2291,18.1152],[74.2098,18.0469],[74.2039,17.8289],[74.0804,17.6085],[73.9043,17.3905],[73.7247,17.2501],[73.5206,17.1689],[73.2386,17.1217],[73.1608,17.1556],[73.1046,17.2877],[73.0921,17.7336],[73.0485,17.896],[72.9044,18.2633],[72.855,18.4296],[72.8372,18.5612],[72.8343,18.8964],[72.7352,19.2708],[72.6426,19.8108],[72.6642,20.0523],[72.7021,20.1485],[72.8102,20.3199],[72.8612,20.4469],[72.9054,20.6221],[72.9101,20.771],[72.8943,20.8414],[72.8577,20.9077],[72.6259,21.1715],[72.5694,21.3229],[72.536,21.6043],[72.6384,21.9753],[72.6531,22.0885],[72.6277,22.1837],[72.547,22.2631],[72.4423,22.3004],[72.3267,22.286],[72.2711,22.2365],[72.1991,22.1074],[72.1754,22.027],[72.1687,21.9274],[72.2094,21.5694],[72.2094,21.4469],[72.1765,21.3434],[72.0988,21.2636],[71.9627,21.1965],[71.5339,21.0582],[71.2448,20.8583],[71.1066,20.8028],[70.9629,20.7777],[70.8084,20.7756],[70.6643,20.7951],[70.5168,20.8392],[70.4194,20.8833],[70.3264,20.9485],[69.9494,21.3084],[69.5511,21.5094],[69.2014,21.7656],[69.0784,21.8847],[68.9908,21.9995],[68.9375,22.1115],[68.919,22.2194],[68.9335,22.3894],[68.9501,22.4236],[68.9775,22.4379],[69.0588,22.43],[69.1312,22.3089],[69.2149,22.2879],[69.7843,22.3537],[69.9811,22.4073],[70.1452,22.4799],[70.281,22.5735],[70.413,22.701],[70.2392,22.701],[70.2559,22.7099],[70.2514,22.7324],[70.271,22.7276],[70.3038,22.7581],[70.3092,22.7981],[70.3678,22.8932],[70.4429,22.9596],[70.4865,23.0526],[70.4856,23.0887],[70.4091,23.0363],[70.4029,23.0605],[70.3715,23.0587],[70.3624,23.0402],[70.3943,23.0061],[70.2917,22.9434],[70.2364,22.9726],[70.2032,22.9444],[70.1582,22.9416],[70.1211,22.9586],[70.1318,22.9827],[70.1208,22.9851],[70.104,22.9584],[70.1328,22.9342],[70.0933,22.9021],[70.0647,22.913],[69.8084,22.8462],[69.7905,22.8205],[69.7341,22.7987],[69.7163,22.7535],[69.6951,22.7645],[69.7062,22.7366],[69.6524,22.7579],[69.6279,22.8021],[69.6366,22.7697],[69.6022,22.7735],[69.6118,22.7581],[69.596,22.7569],[69.5709,22.7617],[69.5553,22.7984],[69.5052,22.7837],[69.4542,22.8002],[69.493,22.775],[69.4671,22.7707],[69.3616,22.8195],[69.3614,22.8319],[69.2808,22.8226],[69.1975,22.8334],[68.933,22.9839],[68.8553,23.0358],[68.8515,23.0543],[68.839,23.0442],[68.8097,23.0733],[68.7461,23.0885],[68.7713,23.1272],[68.7274,23.1053],[68.6523,23.1498],[68.633,23.177],[68.6922,23.1393],[68.7244,23.1516],[68.6553,23.1675],[68.6515,23.1936],[68.6239,23.1862],[68.5846,23.221],[68.584,23.2396],[68.6458,23.2582],[68.622,23.2903],[68.6509,23.2984],[68.6146,23.2984],[68.611,23.2713],[68.5884,23.2516],[68.5406,23.2667],[68.5446,23.2881],[68.559,23.2898],[68.5525,23.3121],[68.5859,23.3059],[68.5844,23.3196],[68.6165,23.3244],[68.6182,23.3506],[68.6142,23.3278],[68.561,23.3445],[68.5141,23.3201],[68.4999,23.3492],[68.4781,23.349],[68.5051,23.3965],[68.4955,23.4023],[68.5195,23.4172],[68.4855,23.4156],[68.4738,23.3863],[68.436,23.4214],[68.4403,23.3894],[68.3937,23.4216],[68.3886,23.4545],[68.4473,23.4768],[68.4187,23.5359],[68.4531,23.5699],[68.3773,23.6207],[68.3827,23.6079],[68.3613,23.59],[68.2906,23.5678],[68.3472,23.6434],[68.2821,23.6972],[68.0389,23.7696],[67.9232,23.895],[67.8205,23.8899],[67.7299,23.8278],[67.6886,23.8186],[67.5937,23.845],[67.5154,23.9037],[67.4635,23.9879],[67.4474,24.2062],[67.3186,24.3096],[67.2927,24.3487],[67.3011,24.5455],[67.2626,24.6773],[67.1987,24.7229],[67.0934,24.757],[67.043,24.8425],[67.009,24.8613],[66.9089,24.8528],[66.84,24.7952],[66.8031,24.7835],[66.718,24.7917],[66.6656,24.8209],[66.6591,24.887],[66.7201,25.1029],[66.7262,25.1961],[66.6744,25.326],[66.5681,25.4251],[66.5011,25.4497],[66.4134,25.4502],[66.1104,25.3747],[65.9969,25.3625],[65.5684,25.404],[65.3292,25.4],[65.2751,25.3798],[65.2153,25.2973],[65.1489,25.2784],[64.7591,25.3562],[64.7036,25.3283],[64.6911,25.2591],[64.3408,25.3146],[64.0175,25.3904],[63.7246,25.4238],[63.6513,25.3992],[63.5759,25.3084],[63.4999,25.2947],[63.4858,25.219],[63.4574,25.1961],[63.1492,25.2891],[63.1119,25.2771],[63.0701,25.2241],[63.0363,25.2092],[62.9509,25.2114],[62.8911,25.241],[62.7085,25.2073],[62.3736,25.1945],[62.367,25.1446],[62.3372,25.1342],[62.2713,25.1529],[62.2326,25.2038],[62.0789,25.2391],[62.0671,25.218],[62.0693,25.1114],[61.9305,25.1385],[61.832,25.0468],[61.7412,25.0337],[61.7189,25.0513],[61.7105,25.097],[61.7467,25.1744],[61.606,25.2143],[61.572,25.2523],[61.5689,25.3201],[61.599,25.4336],[61.5199,25.4013],[61.3944,25.3927],[61.266,25.4108],[61.2014,25.4471],[61.2053,25.4753],[61.3196,25.6067],[61.3521,25.7166],[61.3231,25.8467],[61.225,25.9871],[60.9776,26.204],[60.255,26.7174],[60.0,26.9548],[60.0,37.5187],[60.7772,37.2208],[61.6313,37.8308],[61.8419,37.7885],[62.3041,37.6204]]]}}