{"type":"Feature","properties":{"speciesId":222,"category":"LC","source":"IUCN Red List","simplifyTol":0.01,"clippedToSubcontinent":true},"geometry":{"type":"MultiPolygon","coordinates":[[[[92.8836,13.4667],[93.0139,13.3479],[92.997,13.3327],[93.0011,13.3111],[93.0174,13.3157],[93.0297,13.2917],[93.0187,13.2773],[93.0525,13.2773],[93.0538,13.2552],[93.0699,13.2607],[93.0423,13.1752],[93.0427,13.0787],[93.0156,13.0284],[92.9744,13.0348],[92.9736,13.0111],[92.9476,13.0372],[92.9494,13.0607],[92.9259,13.0594],[92.9073,13.0177],[92.9283,12.9817],[92.943,12.9856],[92.9417,12.9625],[92.9166,12.947],[92.9054,12.9924],[92.8816,12.9386],[92.8633,12.9354],[92.861,12.9163],[92.8832,12.9081],[92.8818,12.8933],[92.9044,12.8971],[92.9053,12.9217],[92.9301,12.9108],[92.9119,12.8845],[92.9347,12.8837],[92.9546,12.8349],[92.9607,12.8039],[92.9439,12.7715],[92.9701,12.7532],[92.9867,12.7118],[92.972,12.7042],[92.963,12.6164],[92.9835,12.5448],[92.9782,12.4943],[92.9701,12.4848],[92.9547,12.4977],[92.9416,12.4653],[92.9618,12.4753],[92.9644,12.4644],[92.9267,12.4451],[92.9264,12.4034],[92.8901,12.3769],[92.8818,12.3519],[92.8989,12.3484],[92.9081,12.329],[92.8886,12.3331],[92.9085,12.3179],[92.8681,12.3119],[92.8931,12.2807],[92.8963,12.2556],[92.8666,12.2446],[92.8891,12.1885],[92.8597,12.2014],[92.8575,12.1639],[92.8281,12.1586],[92.8124,12.1299],[92.8178,12.1007],[92.8049,12.1042],[92.8001,12.0811],[92.77,12.0633],[92.7686,12.0479],[92.793,12.0402],[92.7888,12.0238],[92.7489,12.035],[92.7412,12.0183],[92.7649,11.997],[92.7344,11.9874],[92.7453,11.964],[92.7282,11.9525],[92.7249,11.9246],[92.7887,11.9361],[92.7999,11.8769],[92.7702,11.7022],[92.7534,11.7164],[92.7444,11.6818],[92.7675,11.666],[92.764,11.6181],[92.7214,11.4793],[92.7099,11.5102],[92.6837,11.5027],[92.6599,11.5182],[92.6571,11.578],[92.6411,11.5863],[92.6339,11.5639],[92.6201,11.615],[92.6512,11.6092],[92.6588,11.6434],[92.6494,11.6366],[92.6455,11.6596],[92.6397,11.6289],[92.6222,11.6329],[92.5993,11.7157],[92.5723,11.6971],[92.5571,11.8291],[92.5342,11.8264],[92.526,11.8449],[92.5374,11.89],[92.5741,11.9336],[92.6025,11.8786],[92.6244,11.9202],[92.6201,12.0029],[92.6383,12.0382],[92.6309,12.0922],[92.6529,12.1793],[92.6696,12.2162],[92.662,12.1797],[92.6836,12.2184],[92.6872,12.1956],[92.7243,12.307],[92.7085,12.3296],[92.7149,12.4894],[92.7026,12.5079],[92.7174,12.5638],[92.6939,12.5977],[92.7153,12.6075],[92.7252,12.6362],[92.7287,12.6197],[92.7426,12.6302],[92.756,12.6641],[92.7359,12.6873],[92.7531,12.6944],[92.7429,12.7012],[92.7549,12.7161],[92.7403,12.7338],[92.7318,12.8278],[92.7466,12.8117],[92.7462,12.8333],[92.7534,12.8242],[92.7711,12.8597],[92.7846,12.8392],[92.7786,12.8607],[92.7997,12.8622],[92.816,12.8983],[92.8015,12.9766],[92.8071,12.9891],[92.8246,12.9816],[92.8106,12.9954],[92.8338,13.0086],[92.7973,13.0152],[92.8049,13.089],[92.8178,13.0731],[92.8121,13.0953],[92.8299,13.0949],[92.8173,13.1249],[92.8489,13.1246],[92.8524,13.1401],[92.8196,13.1521],[92.8222,13.1689],[92.8417,13.1687],[92.8251,13.1786],[92.8337,13.2316],[92.8585,13.2366],[92.8296,13.2811],[92.8474,13.2968],[92.8321,13.3037],[92.8402,13.3567],[92.8737,13.38],[92.8487,13.3959],[92.8746,13.3986],[92.8906,13.4258],[92.8836,13.4667]]],[[[92.8481,13.4236],[92.8281,13.4276],[92.8483,13.4385],[92.8481,13.4236]]],[[[92.8227,13.411],[92.8168,13.3987],[92.8175,13.4148],[92.8227,13.411]]],[[[93.0301,13.3004],[93.0238,13.3123],[93.0272,13.327],[93.0326,13.3235],[93.0301,13.3004]]],[[[92.7323,13.0953],[92.7197,13.0873],[92.7121,13.0669],[92.7062,13.0979],[92.7323,13.0953]]],[[[92.9368,13.023],[92.9474,13.0167],[92.948,12.9944],[92.927,13.0044],[92.9368,13.023]]],[[[92.9874,12.9643],[92.986,12.9332],[92.9602,12.9777],[92.9697,12.9873],[92.9796,12.9702],[93.0111,12.9971],[92.9874,12.9643]]],[[[92.7095,12.9909],[92.7288,12.9772],[92.7264,12.8743],[92.7016,12.8373],[92.6855,12.8366],[92.6952,12.8158],[92.6762,12.7865],[92.6596,12.8588],[92.6862,12.9395],[92.6758,12.9594],[92.7095,12.9909]]],[[[92.9668,12.9465],[92.9727,12.9422],[92.9571,12.9376],[92.9668,12.9465]]],[[[92.8664,12.9297],[92.8927,12.9321],[92.8974,12.9269],[92.88,12.9174],[92.8664,12.9297]]],[[[92.7841,12.9289],[92.7792,12.9305],[92.7806,12.9338],[92.7841,12.9289]]],[[[92.8076,12.9003],[92.7941,12.8911],[92.7835,12.9089],[92.7977,12.9149],[92.8076,12.9003]]],[[[92.7636,12.8946],[92.7568,12.8924],[92.764,12.9096],[92.7636,12.8946]]],[[[92.7339,12.8589],[92.7145,12.837],[92.7335,12.8663],[92.7339,12.8589]]],[[[92.7319,12.7436],[92.7257,12.7518],[92.7185,12.7176],[92.7034,12.7966],[92.7203,12.8309],[92.722,12.7793],[92.7319,12.7436]]],[[[92.7323,12.7769],[92.7289,12.7694],[92.7277,12.7849],[92.7323,12.7769]]],[[[92.6943,12.5319],[92.6806,12.5209],[92.6825,12.5357],[92.6943,12.5319]]],[[[92.9665,12.4313],[92.943,12.3576],[92.9268,12.3624],[92.9378,12.4086],[92.9665,12.4313]]],[[[92.9286,12.3495],[92.9171,12.3404],[92.9253,12.3532],[92.9286,12.3495]]],[[[92.9053,12.2502],[92.913,12.2252],[92.8974,12.2276],[92.8875,12.2058],[92.8811,12.2404],[92.8957,12.2347],[92.9053,12.2502]]],[[[92.8771,12.2441],[92.8699,12.2417],[92.8752,12.2468],[92.8771,12.2441]]],[[[93.0959,12.1868],[93.0986,12.095],[93.0803,12.0828],[93.0465,12.1297],[93.0765,12.2052],[93.0959,12.1868]]],[[[93.0531,12.0439],[93.0199,12.0787],[93.0136,12.1251],[93.0371,12.1643],[93.0437,12.0958],[93.0594,12.0767],[93.0531,12.0439]]],[[[93.0088,12.1154],[92.9766,12.1138],[92.9656,12.1412],[92.9962,12.141],[93.0088,12.1154]]],[[[93.1274,12.1239],[93.1209,12.1379],[93.1316,12.1435],[93.1332,12.1336],[93.1274,12.1239]]],[[[92.9649,12.0961],[92.9562,12.0859],[92.9584,12.1064],[92.9649,12.0961]]],[[[92.9711,12.0999],[93.0127,12.1002],[93.0059,12.0424],[92.9701,12.0739],[92.9842,12.0892],[92.9711,12.0999]]],[[[92.9813,12.0303],[92.9881,12.0428],[93.0139,12.0238],[93.0625,11.8912],[93.0508,11.8777],[93.0067,11.9381],[93.0172,11.9428],[92.987,11.9429],[92.9709,11.976],[92.9368,11.9903],[92.9734,12.0447],[92.9813,12.0303]]],[[[92.7799,11.991],[92.7686,11.9989],[92.7732,12.0045],[92.7786,12.0034],[92.7799,11.991]]],[[[92.7656,11.9855],[92.7473,11.9726],[92.7453,11.9802],[92.7656,11.9855]]],[[[92.6142,11.9227],[92.6001,11.9685],[92.6022,11.9718],[92.6155,11.9568],[92.6142,11.9227]]],[[[92.7595,11.9398],[92.7483,11.953],[92.7713,11.9617],[92.7741,11.949],[92.7595,11.9398]]],[[[92.7387,11.9356],[92.7362,11.9478],[92.7436,11.9543],[92.7387,11.9356]]],[[[92.6142,11.908],[92.6079,11.9095],[92.615,11.9156],[92.6142,11.908]]],[[[93.0198,11.8443],[93.0815,11.8387],[93.0682,11.8095],[93.0214,11.8266],[93.0198,11.8443]]],[[[92.7737,11.6698],[92.7687,11.6757],[92.7773,11.6786],[92.7737,11.6698]]],[[[92.5772,11.5822],[92.575,11.5876],[92.5802,11.5851],[92.5772,11.5822]]],[[[92.614,11.5691],[92.6272,11.5762],[92.6237,11.56],[92.614,11.5691]]],[[[92.607,11.5278],[92.5951,11.5448],[92.6014,11.5723],[92.6071,11.5669],[92.607,11.5278]]],[[[92.6268,11.5308],[92.6174,11.547],[92.6266,11.5566],[92.6314,11.5518],[92.6268,11.5308]]],[[[92.6173,11.5249],[92.6127,11.5205],[92.6158,11.5313],[92.6173,11.5249]]],[[[92.6507,11.5061],[92.6874,11.4719],[92.6976,11.4352],[92.6624,11.4038],[92.7013,11.3901],[92.7041,11.3741],[92.6781,11.3536],[92.6151,11.3453],[92.5979,11.3683],[92.6072,11.3984],[92.6359,11.4002],[92.6249,11.4622],[92.6507,11.5061]]],[[[92.7326,11.3128],[92.7304,11.3194],[92.733,11.3199],[92.7326,11.3128]]],[[[92.7064,11.2431],[92.7047,11.2811],[92.7183,11.2893],[92.718,11.261],[92.7064,11.2431]]],[[[92.6905,11.1738],[92.6797,11.1812],[92.6836,11.1852],[92.6905,11.1738]]],[[[92.6794,10.9812],[92.6691,10.9785],[92.6706,10.9868],[92.6794,10.9812]]],[[[92.6257,10.9272],[92.6153,10.9263],[92.6168,10.9335],[92.6257,10.9272]]],[[[92.5396,10.8671],[92.5491,10.8035],[92.5764,10.7793],[92.5689,10.7433],[92.5828,10.7018],[92.5793,10.6721],[92.5594,10.6676],[92.5655,10.6512],[92.5231,10.6121],[92.5228,10.5895],[92.5511,10.5747],[92.5103,10.5126],[92.4776,10.5082],[92.4121,10.5461],[92.3599,10.5307],[92.4001,10.6138],[92.3897,10.6486],[92.3643,10.6684],[92.36,10.7812],[92.3972,10.7866],[92.4129,10.8212],[92.4438,10.8362],[92.446,10.8639],[92.4832,10.8872],[92.5064,10.8952],[92.5396,10.8671]]]]}}