{"type":"Feature","properties":{"speciesId":225,"category":"NT","source":"IUCN Red List","simplifyTol":0.01,"clippedToSubcontinent":true},"geometry":{"type":"MultiPolygon","coordinates":[[[[80.815,9.285],[80.9115,9.0788],[80.1194,8.8153],[79.9922,8.7296],[79.966,8.729],[80.0482,9.0267],[80.0857,9.0999],[80.0761,9.1203],[80.1173,9.2072],[80.1236,9.2992],[80.4824,9.5695],[80.815,9.285]]],[[[80.9482,9.3323],[80.9385,9.3331],[80.9437,9.3376],[80.9482,9.3323]]],[[[79.5296,9.3899],[79.5198,9.3907],[79.5251,9.3952],[79.5296,9.3899]]],[[[80.3464,13.304],[80.2956,13.1211],[80.3049,13.0927],[80.2609,13.0127],[80.2741,13.0056],[80.2429,12.8158],[80.2476,12.7533],[80.1758,12.5813],[80.1868,12.5753],[80.1569,12.4775],[80.1353,12.4587],[80.1454,12.4454],[80.0463,12.3104],[80.067,12.3502],[80.0576,12.351],[79.8819,12.0511],[79.8342,11.9097],[79.8187,11.9071],[79.8333,11.902],[79.7982,11.7882],[79.7762,11.7694],[79.794,11.7694],[79.7932,11.7502],[79.7589,11.6076],[79.7601,11.5391],[79.7719,11.4914],[79.8186,11.4263],[79.8483,11.2505],[79.8252,11.2306],[79.8497,11.2282],[79.8597,11.1777],[79.8497,10.8824],[79.8726,10.2847],[79.7578,10.2712],[79.5304,10.3131],[79.3983,10.3201],[79.3055,10.2651],[79.271,10.2303],[79.2771,10.2105],[79.2308,10.1448],[79.2319,10.0843],[79.2669,10.0338],[79.165,9.934],[79.1247,9.8787],[79.1204,9.8444],[78.9816,9.6768],[78.9314,9.5843],[78.9182,9.4896],[78.9033,9.4879],[78.9653,9.3763],[79.0751,9.2923],[79.2096,9.2811],[79.2686,9.29],[79.2922,9.3161],[79.3255,9.3206],[79.3367,9.3084],[79.3223,9.2665],[79.4421,9.1557],[79.3151,9.2377],[79.2237,9.2513],[79.2086,9.2757],[79.0889,9.2567],[78.9626,9.2688],[78.9115,9.2451],[78.8733,9.2526],[78.8104,9.2313],[78.7299,9.2009],[78.7216,9.183],[78.6512,9.1917],[78.6449,9.1654],[78.6619,9.1519],[78.5829,9.1271],[78.492,9.1252],[78.4912,9.1361],[78.4198,9.1097],[78.2767,8.9996],[78.2658,9.0126],[78.2681,8.9925],[78.1937,8.9249],[78.1703,8.8671],[78.1539,8.7474],[78.1786,8.7594],[78.1952,8.7499],[78.2012,8.7785],[78.2055,8.7605],[78.1959,8.7407],[78.1629,8.7296],[78.1322,8.6694],[78.133,8.4883],[78.0647,8.4057],[78.0697,8.3666],[77.8041,8.2336],[77.7838,8.1982],[77.7383,8.1691],[77.5938,8.1399],[77.5609,8.1154],[77.5526,8.069],[77.3183,8.1173],[77.0033,8.3643],[77.2362,9.0599],[77.6646,9.8708],[78.2308,10.3145],[78.7357,10.7429],[79.0723,11.156],[79.3936,12.0281],[79.5925,12.9003],[80.0821,13.3746],[80.3329,13.3839],[80.3464,13.304]]],[[[86.9713,20.7825],[87.0139,20.7253],[86.996,20.6992],[87.0246,20.6897],[87.052,20.7035],[86.7655,20.5046],[86.7391,20.4593],[86.7409,20.4177],[86.7226,20.3935],[86.7414,20.3757],[86.7284,20.3611],[86.7785,20.3974],[86.7709,20.3651],[86.7859,20.3717],[86.7636,20.3353],[86.8031,20.3666],[86.8079,20.3953],[86.8074,20.3638],[86.7191,20.2992],[86.6865,20.3181],[86.6943,20.2819],[86.7649,20.3146],[86.5418,20.1847],[86.4254,20.0257],[86.4299,20.0505],[86.4185,20.038],[86.4012,20.0047],[86.4288,19.9947],[86.4181,19.9776],[86.2504,19.9029],[85.8202,19.7902],[85.6052,19.7074],[85.3281,19.5669],[85.1224,19.4198],[85.0869,19.3687],[85.0017,19.3233],[84.8961,19.2368],[84.8711,19.2499],[84.7793,19.5406],[84.9629,19.816],[85.3454,20.122],[86.5235,20.6881],[86.6766,20.8105],[86.8755,20.8717],[86.9689,20.851],[86.9713,20.7825]]]]}}