{"type":"Feature","properties":{"speciesId":226,"category":"LC","source":"IUCN Red List","simplifyTol":0.01,"clippedToSubcontinent":true},"geometry":{"type":"MultiPolygon","coordinates":[[[[80.32,9.7127],[80.8117,9.2909],[80.8841,9.1219],[81.0005,8.9388],[80.993,8.918],[81.0102,8.929],[81.013,8.8911],[81.021,8.9048],[81.0589,8.8595],[81.0875,8.8584],[81.1048,8.8126],[81.2267,8.6475],[81.2208,8.6062],[81.2298,8.581],[81.2451,8.5793],[81.2471,8.5458],[81.2257,8.5323],[81.2261,8.5695],[81.1927,8.5665],[81.2119,8.5077],[81.1896,8.5018],[81.1977,8.4615],[81.2624,8.4569],[81.304,8.4326],[81.304,8.4583],[81.2958,8.4465],[81.2809,8.4568],[81.2831,8.5032],[81.3222,8.5224],[81.353,8.4909],[81.3937,8.3567],[81.4078,8.2419],[81.4769,8.0343],[81.5686,7.9227],[81.5874,7.921],[81.5671,7.8981],[81.593,7.83],[81.6268,7.8247],[81.6544,7.7729],[81.6999,7.7536],[81.7713,7.6448],[81.8718,7.3159],[81.8586,7.0907],[81.8813,7.0267],[81.8704,6.9789],[81.8489,6.9896],[81.8578,6.9672],[81.8729,6.9669],[81.8364,6.8853],[81.8518,6.8884],[81.8483,6.8675],[81.8397,6.8542],[81.8211,6.8621],[81.8444,6.8344],[81.8233,6.8088],[81.8249,6.7653],[81.8084,6.7647],[81.8279,6.7586],[81.7759,6.6639],[81.7664,6.592],[81.7324,6.5669],[81.7003,6.482],[81.6518,6.4367],[81.5973,6.4241],[81.6135,6.4056],[81.56,6.3612],[81.522,6.3525],[81.4869,6.3055],[81.3285,6.1945],[81.2222,6.1589],[81.1946,6.1576],[81.197,6.1776],[81.178,6.1441],[81.1336,6.1174],[81.0167,6.1071],[80.8659,6.0408],[80.8255,6.0415],[80.7202,5.9607],[80.6641,5.9575],[80.5868,5.9168],[80.5532,5.9411],[80.4489,5.9431],[80.4522,5.9588],[80.4357,5.969],[80.4179,5.955],[80.3828,5.9595],[80.2442,6.0069],[80.2285,6.0351],[80.2186,6.022],[80.0986,6.1289],[80.0314,6.2656],[80.0252,6.3364],[79.9746,6.464],[79.9866,6.4771],[79.9796,6.5149],[79.8687,6.8057],[79.8431,6.9333],[79.8712,6.9756],[79.869,7.0027],[79.819,7.1934],[79.8592,7.2756],[79.8445,7.2761],[79.8027,7.4826],[79.7977,7.7275],[79.7513,7.9316],[79.7064,8.0445],[79.699,8.1154],[79.7095,8.1343],[79.6984,8.2138],[79.7179,8.2167],[79.7381,8.28],[79.7812,8.3497],[79.7563,8.3071],[79.7511,8.2617],[79.7655,8.2739],[79.7573,8.2571],[79.7766,8.2541],[79.7688,8.2156],[79.7404,8.2008],[79.7492,8.1829],[79.7316,8.0868],[79.7541,8.0582],[79.7426,8.0],[79.8186,7.9719],[79.8082,7.8839],[79.8265,7.9206],[79.834,8.0071],[79.7896,8.0682],[79.8086,8.0611],[79.7948,8.0793],[79.8338,8.1396],[79.8154,8.2037],[79.7946,8.2203],[79.8095,8.2174],[79.7897,8.2301],[79.8101,8.2374],[79.8342,8.2919],[79.8476,8.2742],[79.8584,8.2846],[79.8362,8.3011],[79.8445,8.4289],[79.8632,8.4496],[79.8709,8.5352],[79.9263,8.559],[79.9193,8.5846],[79.9414,8.6155],[79.9558,8.7174],[79.9248,8.7907],[79.9401,8.8068],[79.9184,8.8083],[79.9307,8.8147],[79.919,8.8188],[79.9358,8.8913],[79.9122,8.9299],[80.0403,9.0133],[80.0661,9.0562],[80.0857,9.0999],[80.0761,9.1203],[80.1173,9.2072],[80.1116,9.2768],[80.1278,9.2906],[80.0676,9.3287],[80.0549,9.3914],[80.1466,9.4347],[80.1861,9.4827],[80.1461,9.5361],[80.054,9.5979],[80.0876,9.6249],[80.0176,9.6509],[79.971,9.7077],[79.948,9.6871],[79.9099,9.7587],[79.9772,9.8033],[80.1056,9.8059],[80.2147,9.8314],[80.2534,9.8191],[80.32,9.7127]]],[[[74.4786,14.0953],[74.4748,14.0931],[74.4746,14.0957],[74.4786,14.0953]]],[[[74.4706,14.1051],[74.4668,14.1079],[74.4689,14.1094],[74.4706,14.1051]]],[[[74.3985,14.3133],[74.3938,14.3089],[74.3924,14.3119],[74.3985,14.3133]]],[[[74.2486,14.6996],[74.246,14.702],[74.2488,14.7011],[74.2486,14.6996]]],[[[74.2316,14.7096],[74.2345,14.7079],[74.232,14.7076],[74.2316,14.7096]]],[[[83.4556,17.9161],[83.4566,17.9087],[83.4535,17.9115],[83.4556,17.9161]]],[[[72.8112,18.6914],[72.8047,18.7003],[72.812,18.7049],[72.8112,18.6914]]],[[[72.8424,18.7075],[72.8332,18.7041],[72.84,18.7114],[72.8424,18.7075]]],[[[72.8456,18.7691],[72.8379,18.7721],[72.8432,18.7728],[72.8456,18.7691]]],[[[72.8502,18.7868],[72.844,18.7916],[72.8501,18.7971],[72.8502,18.7868]]],[[[72.9321,18.9527],[72.9223,18.9629],[72.9424,18.9688],[72.9321,18.9527]]],[[[73.0595,19.016],[73.0493,19.0066],[73.0566,19.0171],[73.0595,19.016]]],[[[72.8684,19.3295],[72.8447,19.3312],[72.838,19.3354],[72.8516,19.3378],[72.8684,19.3295]]],[[[72.7371,19.4707],[72.7327,19.4608],[72.7286,19.4696],[72.7371,19.4707]]],[[[89.067,23.9762],[89.0936,23.9665],[89.1225,23.9203],[89.1241,23.9541],[89.1671,23.9259],[89.2341,23.9194],[89.3047,23.8696],[89.4078,23.8978],[89.4384,23.8386],[89.4996,23.7788],[89.5929,23.7975],[89.6397,23.7768],[89.7017,23.7769],[89.8567,23.6605],[89.9485,23.6357],[90.0246,23.5566],[90.0179,23.5823],[90.083,23.573],[90.1256,23.5454],[90.1578,23.4889],[90.1593,23.4206],[90.2067,23.3338],[90.17,23.3466],[90.1639,23.3639],[90.1862,23.3591],[90.1608,23.3676],[90.1665,23.3332],[90.1408,23.3229],[90.1253,23.3055],[90.1205,23.3356],[90.1417,23.3597],[90.1445,23.3786],[90.1279,23.351],[90.0995,23.359],[90.1208,23.3473],[90.1189,23.3041],[90.093,23.3005],[90.0871,23.2728],[90.1245,23.2685],[90.1217,23.2487],[90.1287,23.2416],[90.2023,23.2256],[90.1987,23.2096],[90.1681,23.2041],[90.1774,23.1665],[90.219,23.1829],[90.2485,23.1621],[90.2336,23.1421],[90.2452,23.1232],[90.2645,23.1126],[90.3091,23.1128],[90.3167,23.0671],[90.2678,23.0431],[90.2726,23.0254],[90.3072,23.0209],[90.3206,22.9865],[90.2739,22.9687],[90.2991,22.9434],[90.3537,22.9212],[90.3456,22.884],[90.3205,22.8726],[90.3213,22.8502],[90.3726,22.7652],[90.3682,22.7366],[90.4195,22.7331],[90.4167,22.7138],[90.3964,22.729],[90.3831,22.7054],[90.4003,22.7234],[90.4204,22.7086],[90.4297,22.7305],[90.4193,22.7453],[90.378,22.7401],[90.3825,22.7586],[90.4243,22.7652],[90.4692,22.7349],[90.485,22.6991],[90.4769,22.6561],[90.4961,22.6723],[90.5194,22.6294],[90.5042,22.5879],[90.5187,22.5991],[90.5798,22.5261],[90.6132,22.3275],[90.5912,22.2573],[90.5587,22.2382],[90.5212,22.184],[90.5066,22.1851],[90.4373,22.0668],[90.4221,22.1192],[90.4427,22.1513],[90.4269,22.1517],[90.4192,22.1262],[90.4192,22.0904],[90.3882,22.0901],[90.3847,22.1054],[90.4039,22.1682],[90.4261,22.1813],[90.3999,22.2179],[90.4165,22.2649],[90.4035,22.2838],[90.4191,22.2895],[90.3788,22.2931],[90.4149,22.3388],[90.3641,22.2952],[90.4059,22.2709],[90.395,22.204],[90.4179,22.1836],[90.3986,22.1722],[90.3831,22.1366],[90.3408,22.1621],[90.3872,22.1955],[90.3873,22.2114],[90.3562,22.1794],[90.3438,22.1957],[90.3498,22.1792],[90.3338,22.1633],[90.3784,22.1309],[90.3751,22.1053],[90.3331,22.1088],[90.2616,22.0404],[90.2751,22.0358],[90.2707,22.0141],[90.278,21.9971],[90.2568,21.9557],[90.211,21.9826],[90.2135,22.0022],[90.1962,21.9784],[90.2287,21.9716],[90.2343,21.9583],[90.2176,21.9508],[90.2685,21.9463],[90.2409,21.8994],[90.2606,21.8846],[90.2549,21.8666],[90.2241,21.8543],[90.2042,21.8874],[90.2401,21.9344],[90.1969,21.8906],[90.2199,21.8528],[90.2631,21.8583],[90.2478,21.8376],[90.2163,21.8373],[90.2602,21.8346],[90.1756,21.7891],[90.1072,21.8011],[90.0816,21.8355],[90.0992,21.8517],[90.1222,21.8485],[90.1016,21.8534],[90.1021,21.8743],[90.1372,21.8899],[90.1543,21.8854],[90.1589,21.8603],[90.1728,21.8697],[90.1519,21.8956],[90.1886,21.9228],[90.144,21.8906],[90.1158,21.8993],[90.1162,21.9159],[90.15,21.9227],[90.1372,21.9485],[90.1685,21.9805],[90.1406,21.9702],[90.128,21.9914],[90.1418,21.9247],[90.1114,21.9219],[90.0988,21.8944],[90.0991,21.9412],[90.0733,22.0045],[90.1633,22.1145],[90.2134,22.1143],[90.2283,22.1641],[90.2542,22.1638],[90.2717,22.1772],[90.2864,22.2071],[90.2723,22.2089],[90.2588,22.1722],[90.229,22.1724],[90.2401,22.1932],[90.2206,22.219],[90.2077,22.3093],[90.2269,22.3379],[90.2801,22.3407],[90.2896,22.3505],[90.2973,22.3714],[90.2696,22.3586],[90.2657,22.3711],[90.2809,22.4069],[90.3177,22.4676],[90.3413,22.4589],[90.3626,22.4846],[90.3405,22.4664],[90.3148,22.4741],[90.2586,22.3754],[90.2548,22.3443],[90.2223,22.3421],[90.1991,22.3026],[90.2097,22.2143],[90.2298,22.1915],[90.2032,22.1238],[90.1608,22.1241],[90.0879,22.0556],[90.0534,21.9715],[90.0298,21.9971],[90.0275,21.9782],[90.0039,21.9846],[89.993,22.0361],[90.0307,22.0628],[90.0362,22.1269],[90.0717,22.1533],[90.1399,22.1551],[90.0801,22.1586],[90.0257,22.189],[90.081,22.2209],[90.1116,22.2858],[90.1016,22.3424],[90.176,22.4215],[90.2018,22.4859],[90.206,22.5118],[90.1876,22.5224],[90.2028,22.5725],[90.1858,22.6255],[90.2519,22.6212],[90.2832,22.6302],[90.2952,22.6531],[90.2487,22.6279],[90.181,22.6276],[90.1975,22.5676],[90.1819,22.5223],[90.1989,22.509],[90.1936,22.4802],[90.1724,22.4297],[90.095,22.3491],[90.1048,22.3039],[90.0739,22.2271],[90.0211,22.1868],[90.0282,22.1691],[90.0632,22.1618],[90.0225,22.1322],[90.0183,22.0663],[89.9809,22.0416],[89.9896,21.991],[89.9579,21.9789],[89.9092,22.0731],[89.9175,22.136],[89.8787,22.2524],[89.9197,22.3718],[89.9847,22.4388],[90.0,22.4869],[90.025,22.4901],[90.033,22.5719],[90.065,22.6087],[90.0571,22.6225],[90.0268,22.599],[90.0327,22.6527],[90.0059,22.6801],[90.028,22.6463],[90.0132,22.5988],[90.0307,22.5814],[90.0179,22.4944],[89.9546,22.5055],[89.9855,22.4867],[89.9872,22.466],[89.9102,22.3882],[89.8834,22.4052],[89.8834,22.4302],[89.8779,22.4031],[89.8987,22.3721],[89.8448,22.2487],[89.8905,22.1211],[89.8528,22.0679],[89.8188,22.066],[89.8534,22.0483],[89.8854,21.9055],[89.8584,21.8784],[89.8456,21.8859],[89.8408,21.856],[89.7762,21.8305],[89.7896,21.879],[89.7542,21.8561],[89.7334,21.8909],[89.7516,21.8391],[89.7383,21.8313],[89.7067,21.8491],[89.6756,21.8377],[89.6586,21.8922],[89.6795,21.9049],[89.6554,21.9134],[89.6339,21.8679],[89.7121,21.7853],[89.7073,21.7608],[89.6067,21.7601],[89.619,21.7806],[89.6137,21.8111],[89.5634,21.8575],[89.5901,21.9386],[89.5607,21.9692],[89.5603,21.9911],[89.5152,21.9904],[89.5251,21.9563],[89.5123,21.8993],[89.4971,21.9081],[89.4607,21.8522],[89.4337,21.8477],[89.4627,21.8461],[89.4712,21.8204],[89.459,21.8111],[89.4707,21.8137],[89.4843,21.7864],[89.4162,21.7099],[89.3867,21.7099],[89.3559,21.8004],[89.3899,21.9021],[89.3671,21.9046],[89.3181,21.8611],[89.3072,21.8207],[89.2867,21.8053],[89.2927,21.7564],[89.2312,21.7683],[89.2193,21.7572],[89.197,21.8047],[89.1643,21.79],[89.1079,21.8105],[89.1121,21.8547],[89.0887,21.908],[89.0948,21.9381],[89.0836,21.9386],[89.0635,21.9277],[89.0648,21.899],[89.0904,21.8542],[89.0935,21.7971],[89.1521,21.755],[89.1374,21.7198],[89.1154,21.7204],[89.0518,21.7859],[89.0677,21.8585],[89.0397,21.9077],[89.001,21.9031],[88.9972,21.8895],[89.0372,21.8577],[89.0277,21.7769],[89.1014,21.6618],[89.0968,21.6249],[89.0595,21.6116],[89.0246,21.6637],[89.0039,21.6526],[89.0292,21.6541],[89.0423,21.6109],[89.0167,21.6008],[88.9943,21.6465],[88.9946,21.6095],[88.9519,21.6408],[88.9307,21.6299],[88.9037,21.6449],[88.8754,21.701],[88.8799,21.7675],[88.8496,21.7251],[88.8692,21.6433],[88.8402,21.6183],[88.8115,21.6347],[88.8229,21.6604],[88.7594,21.6566],[88.7243,21.6805],[88.6993,21.7411],[88.7229,21.8073],[88.6998,21.8403],[88.7311,21.9352],[88.7291,21.976],[88.7903,22.0183],[88.7667,22.0237],[88.7594,22.0502],[88.7747,22.0519],[88.7486,22.0659],[88.7157,22.0484],[88.7415,22.0282],[88.735,22.0071],[88.6685,22.0226],[88.6445,22.1181],[88.631,22.1198],[88.6214,22.105],[88.6438,22.0459],[88.6084,21.972],[88.6202,21.9377],[88.5852,21.9852],[88.5792,21.9633],[88.611,21.9322],[88.6096,21.9095],[88.5833,21.8856],[88.5618,21.814],[88.5031,21.8849],[88.5314,21.9303],[88.5095,21.9704],[88.5525,21.9851],[88.5652,22.0228],[88.5449,21.9865],[88.5049,21.973],[88.5103,21.9217],[88.4898,21.9084],[88.485,21.8966],[88.4664,21.9001],[88.4688,21.9487],[88.4597,21.9382],[88.4534,21.9068],[88.4633,21.8964],[88.4841,21.8913],[88.5001,21.8489],[88.4583,21.8201],[88.4548,21.8117],[88.469,21.7932],[88.4479,21.8015],[88.4292,21.7659],[88.4363,21.7042],[88.4196,21.6881],[88.4183,21.6661],[88.4412,21.6244],[88.4216,21.6097],[88.4177,21.5818],[88.3929,21.6083],[88.4045,21.6197],[88.3891,21.6672],[88.4121,21.717],[88.3795,21.7303],[88.3991,21.7368],[88.4075,21.7646],[88.3915,21.7795],[88.4082,21.7984],[88.4001,21.8346],[88.4213,21.8892],[88.3996,21.8993],[88.4164,21.9231],[88.4056,21.9516],[88.3903,21.9667],[88.4057,21.9738],[88.4124,21.9947],[88.3873,21.9675],[88.4114,21.9216],[88.396,21.9071],[88.3979,21.8949],[88.4077,21.8854],[88.3976,21.8749],[88.3953,21.7943],[88.3717,21.8007],[88.3643,21.8528],[88.3642,21.8014],[88.3445,21.8041],[88.3296,21.7886],[88.3146,21.7988],[88.2816,21.7969],[88.2765,21.8073],[88.3154,21.8303],[88.3238,21.8496],[88.311,21.8646],[88.2686,21.865],[88.3175,21.8502],[88.2589,21.8013],[88.2892,21.7581],[88.2832,21.7309],[88.3067,21.6718],[88.3004,21.5917],[88.3254,21.5806],[88.2864,21.5576],[88.2559,21.563],[88.2457,21.6046],[88.2265,21.6188],[88.2493,21.6474],[88.2411,21.6786],[88.2116,21.6855],[88.2308,21.6996],[88.2186,21.7919],[88.2381,21.7646],[88.2396,21.7811],[88.2115,21.8029],[88.2035,21.8456],[88.166,21.888],[88.1748,21.9239],[88.1487,21.9596],[88.1863,21.9934],[88.2351,22.0789],[88.2142,22.1574],[88.1788,22.195],[88.0826,22.2206],[88.0342,22.2183],[88.0321,22.2018],[88.1438,22.1871],[88.1902,22.1329],[88.1961,22.1048],[88.1618,22.0645],[88.067,22.0155],[87.9805,21.8551],[87.9519,21.8236],[87.8866,21.803],[87.8924,21.7812],[87.8286,21.7222],[87.7551,21.7008],[87.7498,21.6855],[87.6786,21.6537],[87.6499,21.6646],[87.6369,21.6472],[87.3726,21.5781],[87.366,21.5609],[87.1955,21.5494],[87.0644,21.4708],[86.8946,21.3136],[86.8168,21.1382],[86.9296,20.9008],[86.9701,20.8491],[86.9758,20.768],[87.0013,20.7584],[87.0139,20.7253],[86.996,20.6992],[87.0246,20.6897],[87.052,20.7035],[86.7655,20.5046],[86.7391,20.4593],[86.7286,20.3959],[86.4596,20.0975],[86.0455,19.8822],[85.5774,19.8089],[85.3794,19.6603],[85.2804,19.6108],[85.1834,19.4653],[85.1224,19.4198],[85.0883,19.3699],[85.0017,19.3233],[84.8035,19.1535],[84.6875,18.9547],[84.3232,18.5407],[84.0085,18.2923],[83.5117,17.9776],[83.4669,17.9217],[83.4438,17.934],[83.4534,17.9047],[83.2467,17.6464],[82.7063,17.3832],[82.4518,17.1992],[82.3926,17.1173],[82.3045,17.0442],[82.2794,17.0015],[82.2788,16.9597],[81.8887,16.4374],[81.5483,16.3573],[81.4535,16.3547],[81.3307,16.3152],[81.2538,16.2596],[81.2063,16.1793],[81.0441,16.0068],[80.2807,15.7991],[80.0173,15.1291],[80.0824,14.8915],[80.0872,14.8059],[80.1571,14.6439],[80.1285,14.1412],[80.1764,13.969],[80.1817,13.6705],[80.2807,13.522],[80.2807,13.225],[80.3006,13.0856],[80.2609,13.0127],[80.2741,13.0056],[80.2429,12.8158],[80.2542,12.784],[80.2186,12.6727],[80.0504,12.3302],[79.8517,12.0653],[79.7688,11.8831],[79.7523,11.5519],[79.7854,11.3366],[79.8351,10.7238],[79.8185,10.5748],[79.7357,10.3429],[79.3217,10.3429],[79.2223,10.111],[79.0236,9.8129],[78.8911,9.5314],[78.7421,9.283],[78.4793,9.1224],[78.3671,9.0798],[78.2767,8.9996],[78.2658,9.0126],[78.2681,8.9925],[78.1937,8.9249],[78.1703,8.8671],[78.1539,8.7474],[78.1786,8.7594],[78.1952,8.7499],[78.2012,8.7785],[78.2055,8.7605],[78.1959,8.7407],[78.1629,8.7296],[78.1322,8.6694],[78.1369,8.5931],[78.0134,8.3556],[77.7153,8.1899],[77.4503,8.1071],[76.9892,8.3754],[76.6523,8.8018],[76.4897,9.1339],[76.4921,9.1672],[76.4802,9.1646],[76.2641,9.8525],[76.2446,9.9545],[76.2086,10.0281],[76.0729,10.5024],[75.9598,10.8066],[75.9432,11.0053],[75.7445,11.4028],[75.5809,11.5766],[75.5294,11.6966],[75.5386,11.7048],[75.4917,11.7339],[75.4716,11.769],[75.451,11.7697],[75.3893,11.8467],[75.3522,11.8601],[75.2491,12.0038],[75.2249,12.0211],[75.1989,12.0054],[74.8999,12.7608],[74.685,13.4558],[74.6657,13.6381],[74.6428,13.6709],[74.6058,13.8523],[74.6169,13.8576],[74.565,13.9466],[74.5278,13.9626],[74.505,14.0011],[74.464,14.1872],[74.4092,14.308],[74.3953,14.4186],[74.3765,14.4165],[74.3538,14.5117],[74.3208,14.5147],[74.2662,14.6274],[74.2946,14.6402],[74.2751,14.6467],[74.2756,14.6779],[74.2537,14.7068],[74.2633,14.7094],[74.2647,14.7201],[74.2582,14.7122],[74.2346,14.7444],[74.2146,14.7334],[74.0221,15.1291],[73.8685,15.4005],[73.8899,15.4192],[73.8764,15.4337],[73.8584,15.4258],[73.841,15.449],[73.5253,16.0068],[73.2885,17.0351],[73.3264,17.0286],[73.287,17.0417],[73.2907,17.0736],[73.2339,17.2829],[73.2569,17.2599],[73.2595,17.2842],[73.2914,17.2775],[73.2946,17.2901],[73.2349,17.294],[73.156,17.5695],[73.1696,17.5888],[73.1475,17.6041],[73.1202,17.6824],[73.135,17.7114],[73.1285,17.7446],[73.056,17.9248],[73.0362,17.9399],[73.0418,17.9741],[73.0061,18.017],[73.0225,18.0197],[73.0444,18.04],[73.0247,18.0295],[73.0296,18.0465],[73.016,18.025],[72.9955,18.0527],[72.9721,18.1247],[72.9884,18.1524],[72.9804,18.1945],[72.934,18.2228],[72.9422,18.2792],[72.9667,18.2715],[72.9802,18.24],[73.063,18.2177],[73.0702,18.1968],[73.0672,18.2708],[73.0525,18.2857],[73.0458,18.2672],[73.0234,18.2662],[72.9142,18.349],[72.9106,18.3676],[72.9275,18.3799],[72.8901,18.458],[72.9047,18.5384],[72.9213,18.5286],[72.9616,18.5423],[72.9202,18.5479],[72.884,18.6304],[72.898,18.631],[72.8664,18.644],[72.8563,18.6884],[72.8701,18.8028],[72.9142,18.7924],[72.9356,18.8241],[72.9886,18.7759],[72.999,18.7794],[72.9859,18.8052],[73.0578,18.8027],[72.9898,18.8116],[72.9821,18.8626],[72.9381,18.847],[72.9069,18.8865],[72.9247,18.9098],[72.942,18.8943],[72.9495,18.9458],[72.9772,18.9461],[72.9539,18.9701],[73.0908,18.9988],[73.0667,19.0143],[73.0847,19.0314],[73.0644,19.0292],[73.0904,19.0457],[73.0061,19.005],[72.9844,19.0708],[72.9952,19.0869],[72.9764,19.1069],[72.9764,19.1707],[72.9642,19.1353],[72.9522,19.1374],[72.9569,19.1077],[72.9307,19.0904],[72.9472,19.068],[72.9137,19.0744],[72.9517,19.0432],[72.9034,18.9938],[72.8784,19.0226],[72.8573,19.0094],[72.8371,18.9334],[72.8032,18.898],[72.8212,18.9319],[72.8128,18.9508],[72.792,18.9442],[72.8126,19.0202],[72.8597,19.0602],[72.8179,19.0482],[72.8248,19.087],[72.808,19.1435],[72.7863,19.1386],[72.7814,19.1669],[72.8011,19.1976],[72.7783,19.1922],[72.787,19.3062],[72.8517,19.316],[72.9155,19.2908],[72.869,19.3343],[72.8509,19.3431],[72.8024,19.3314],[72.7583,19.3757],[72.7663,19.3956],[72.7441,19.4603],[72.7564,19.4738],[72.724,19.5463],[72.7215,19.5979],[72.7449,19.6026],[72.7194,19.6422],[72.7068,19.9079],[72.7287,19.964],[72.76,19.9233],[72.7319,19.9723],[72.9291,20.4784],[72.8936,20.6657],[72.9087,20.7111],[72.8907,20.7199],[72.9241,20.7558],[72.9519,20.755],[72.9425,20.7755],[72.9178,20.7699],[72.9199,20.7893],[72.91,20.7807],[72.8745,20.8015],[72.896,20.8134],[72.8756,20.8245],[72.8948,20.8665],[72.8568,20.8489],[72.8402,20.9339],[72.8822,20.9546],[72.8765,20.9718],[72.8944,20.9825],[72.8325,20.9732],[72.8216,21.0294],[72.857,21.0392],[72.8419,21.0537],[72.8559,21.0658],[72.8297,21.0602],[72.8388,21.0687],[72.8227,21.0878],[72.8419,21.1137],[72.8215,21.0977],[72.8145,21.1053],[72.8304,21.1146],[72.8143,21.1191],[72.8114,21.1483],[72.8316,21.1672],[72.8059,21.1497],[72.802,21.1294],[72.7543,21.5721],[72.8165,21.6136],[72.8406,21.6659],[72.9193,21.6478],[73.0375,21.7005],[73.0901,21.7051],[73.1077,21.7297],[73.064,21.7327],[72.9438,21.6753],[72.8728,21.6882],[72.7887,21.6599],[72.7339,21.6841],[72.6953,21.8901],[72.7223,21.8841],[72.7187,21.9318],[72.7511,21.9531],[72.7776,21.9495],[72.7647,21.9815],[72.746,21.988],[72.7719,22.0014],[72.7754,22.0168],[72.735,21.9912],[72.7186,22.0205],[72.718,21.9943],[72.7074,21.9796],[72.6933,21.9852],[72.6999,21.9716],[72.6719,21.9749],[72.6617,21.961],[72.5596,22.1767],[72.5886,22.205],[72.6321,22.2166],[72.7465,22.1767],[72.7668,22.1936],[72.7581,22.2163],[72.7121,22.2444],[72.6726,22.2567],[72.6273,22.255],[72.6127,22.2672],[72.6495,22.2643],[72.6288,22.2759],[72.5679,22.2652],[72.6219,22.2837],[72.5708,22.2739],[72.5231,22.2332],[72.4958,22.2372],[72.479,22.2205],[72.4931,22.2641],[72.4597,22.2136],[72.4151,22.2149],[72.4247,22.2006],[72.4085,22.1563],[72.381,22.1539],[72.3885,22.1924],[72.3709,22.1814],[72.3689,22.1449],[72.367,22.1858],[72.3907,22.2002],[72.3697,22.1934],[72.3821,22.2262],[72.3704,22.2843],[72.4013,22.3249],[72.3892,22.3311],[72.3581,22.313],[72.342,22.2572],[72.3322,22.2999],[72.3459,22.2239],[72.3116,22.1866],[72.2953,22.2249],[72.3166,22.127],[72.1838,22.0848],[72.0513,21.4223],[71.3889,20.9752],[70.6105,20.8758],[70.0971,21.2402],[69.8652,21.472],[69.5837,22.0186],[69.9306,22.5074],[69.9579,22.4967],[69.9463,22.525],[70.0369,22.5541],[70.0975,22.5465],[70.1779,22.5604],[70.2419,22.683],[70.2655,22.6892],[70.2377,22.6953],[70.2559,22.7099],[70.2493,22.7222],[70.5774,22.9294],[71.2895,23.4428],[72.2117,24.2641],[72.9543,24.6106],[73.8453,25.2541],[74.3403,25.9967],[74.4889,26.9867],[74.5879,28.9173],[74.7364,29.8084],[75.1819,30.4519],[75.4789,31.0955],[75.8749,31.343],[76.5229,31.5578],[77.0135,31.5905],[77.459,31.5905],[77.756,31.442],[78.1521,31.2935],[78.8414,30.5145],[79.3714,29.7526],[79.802,29.0736],[80.2807,28.4718],[80.6797,28.0758],[84.2508,27.4484],[85.0063,27.1433],[86.4261,25.3229],[89.535,24.7713],[90.6447,24.2625],[91.2058,23.8909],[91.0429,22.798],[90.9375,22.8561],[90.8246,22.8647],[90.8016,22.9088],[90.7578,22.9387],[90.7958,22.898],[90.7954,22.8634],[90.7333,22.8875],[90.6896,22.9783],[90.6294,22.9981],[90.5663,23.1036],[90.598,23.1778],[90.6524,23.2423],[90.6389,23.3166],[90.6776,23.3183],[90.6754,23.3407],[90.6978,23.3457],[90.6796,23.3628],[90.695,23.3777],[90.6733,23.3642],[90.6616,23.3375],[90.6738,23.3213],[90.5987,23.3393],[90.5796,23.3948],[90.6007,23.4314],[90.5856,23.4669],[90.6303,23.4903],[90.6817,23.4821],[90.7039,23.4901],[90.7178,23.5428],[90.7443,23.5443],[90.7254,23.5534],[90.7084,23.5386],[90.7057,23.5618],[90.732,23.5912],[90.7392,23.6216],[90.7646,23.629],[90.7639,23.6432],[90.7414,23.6621],[90.7578,23.721],[90.7425,23.6938],[90.7403,23.7242],[90.7315,23.7102],[90.7156,23.7414],[90.6818,23.6867],[90.6429,23.6899],[90.6324,23.6392],[90.5628,23.5929],[90.5531,23.5715],[90.5147,23.5814],[90.505,23.6033],[90.4839,23.5866],[90.469,23.6087],[90.4539,23.6149],[90.4703,23.6298],[90.4427,23.6684],[90.368,23.7186],[90.3837,23.7022],[90.3658,23.7034],[90.3552,23.7288],[90.3421,23.7401],[90.3176,23.735],[90.3128,23.7642],[90.2986,23.7644],[90.2817,23.7366],[90.2548,23.7303],[90.2571,23.7757],[90.2298,23.8877],[90.2396,23.827],[90.194,23.8405],[90.1518,23.8291],[90.1319,23.8674],[90.1117,23.8736],[90.1104,23.8573],[90.0916,23.8514],[90.0572,23.8201],[90.047,23.8255],[90.0625,23.8769],[90.0468,23.8894],[90.0262,23.8817],[90.0227,23.9072],[89.9481,23.9709],[89.9523,23.9846],[89.9328,23.9846],[89.9487,23.9598],[89.9378,23.9554],[90.0192,23.8936],[90.0144,23.8769],[90.0547,23.8732],[90.0409,23.8278],[90.0466,23.8174],[90.0691,23.8163],[90.0887,23.83],[90.1247,23.8071],[90.1837,23.8023],[90.2068,23.8157],[90.2226,23.8004],[90.2415,23.8149],[90.2059,23.7537],[90.221,23.7216],[90.2524,23.721],[90.2746,23.6862],[90.2557,23.7074],[90.2383,23.7112],[90.2208,23.7081],[90.1813,23.7401],[90.1924,23.7203],[90.1626,23.7198],[90.1492,23.7107],[90.1219,23.7371],[90.0698,23.7579],[90.0232,23.7635],[90.0245,23.7952],[90.0021,23.816],[90.0195,23.7627],[90.1205,23.7334],[90.1497,23.7043],[90.1739,23.7165],[90.2205,23.7031],[90.2477,23.7076],[90.276,23.6548],[90.3797,23.6165],[90.4018,23.5883],[90.3789,23.5678],[90.4098,23.5802],[90.4377,23.5451],[90.4635,23.5452],[90.5054,23.5721],[90.5302,23.5669],[90.5701,23.4832],[90.538,23.4837],[90.5339,23.4659],[90.5539,23.4263],[90.5281,23.3907],[90.4858,23.4204],[90.4204,23.4161],[90.2542,23.4608],[90.1641,23.5242],[90.1103,23.6129],[89.97,23.6581],[89.9179,23.7216],[89.8638,23.7451],[89.7915,23.8077],[89.7742,23.8995],[89.7688,23.8876],[89.7046,23.9579],[89.7275,23.9776],[89.7208,24.0],[89.7153,23.9718],[89.6983,23.9645],[89.7051,23.9991],[89.6707,24.0],[89.6557,23.9361],[89.7033,23.8749],[89.7513,23.8659],[89.7708,23.8359],[89.7571,23.8473],[89.7242,23.8344],[89.6802,23.8626],[89.7179,23.8319],[89.6297,23.8456],[89.5318,23.8255],[89.4497,23.8706],[89.4256,23.9133],[89.3865,23.9431],[89.3288,23.9487],[89.2808,23.9875],[89.3161,23.9479],[89.2889,23.9467],[89.2414,23.9813],[89.1845,23.9868],[89.1773,23.9953],[89.1733,24.0],[89.0914,23.9991],[89.067,23.9762]]],[[[86.7917,20.4183],[86.8057,20.4809],[86.8142,20.4342],[86.7917,20.4183]]],[[[72.8912,20.6843],[72.8884,20.687],[72.89,20.6884],[72.8912,20.6843]]],[[[72.8767,20.754],[72.8756,20.7526],[72.875,20.7556],[72.8767,20.754]]],[[[72.8726,20.768],[72.8739,20.761],[72.8725,20.768],[72.8726,20.768]]],[[[72.9309,20.7624],[72.9366,20.7718],[72.9412,20.7674],[72.9309,20.7624]]],[[[72.8379,21.0374],[72.8453,21.0424],[72.8465,21.0385],[72.8379,21.0374]]],[[[88.2178,21.5336],[88.1994,21.5328],[88.1738,21.5858],[88.1919,21.5548],[88.1999,21.57],[88.214,21.5548],[88.2178,21.5336]]],[[[72.7546,21.6159],[72.7424,21.6376],[72.807,21.6431],[72.7932,21.6206],[72.7546,21.6159]]],[[[88.2218,21.6272],[88.2143,21.6055],[88.1876,21.6808],[88.2151,21.7158],[88.2211,21.7034],[88.2026,21.6903],[88.2144,21.6747],[88.2331,21.6742],[88.2393,21.647],[88.2218,21.6272]]],[[[72.8759,21.6719],[72.8578,21.6764],[72.8816,21.6769],[72.8759,21.6719]]],[[[88.1315,21.7347],[88.1486,21.6257],[88.0576,21.6411],[88.0604,21.721],[88.0901,21.7851],[88.1075,21.7943],[88.1331,21.7753],[88.1454,21.7562],[88.1315,21.7347]]],[[[88.2152,21.722],[88.1999,21.7108],[88.212,21.7319],[88.2152,21.722]]],[[[88.3014,21.7282],[88.3078,21.7303],[88.3061,21.7207],[88.3014,21.7282]]],[[[88.2088,21.7409],[88.21,21.7763],[88.2156,21.7564],[88.2088,21.7409]]],[[[88.1833,21.8056],[88.1616,21.683],[88.1438,21.6876],[88.1386,21.7341],[88.1525,21.7563],[88.1411,21.78],[88.1138,21.7999],[88.0944,21.7905],[88.1462,21.8823],[88.1833,21.8056]]],[[[88.298,21.7928],[88.3134,21.7922],[88.3183,21.7914],[88.3091,21.7865],[88.298,21.7928]]],[[[88.1932,21.8362],[88.1811,21.8622],[88.1996,21.8381],[88.1932,21.8362]]],[[[88.1093,21.8728],[88.0934,21.8569],[88.0853,21.8649],[88.0898,21.8981],[88.1093,21.8728]]],[[[88.0937,21.9267],[88.13,21.893],[88.1162,21.8816],[88.0937,21.9267]]],[[[88.1026,21.9253],[88.1212,21.9632],[88.1543,21.928],[88.1422,21.8976],[88.1026,21.9253]]],[[[88.1417,22.0135],[88.1245,21.976],[88.0965,21.9751],[88.1184,22.0161],[88.1417,22.0135]]],[[[72.3581,22.1888],[72.3549,22.1739],[72.3515,22.1744],[72.3581,22.1888]]],[[[72.4442,22.2056],[72.4713,22.2145],[72.4785,22.2097],[72.4323,22.1795],[72.4442,22.2056]]],[[[72.5175,22.2305],[72.4992,22.2229],[72.5039,22.2326],[72.5175,22.2305]]],[[[72.7317,22.2225],[72.6615,22.2445],[72.7191,22.2376],[72.7317,22.2225]]],[[[70.0175,22.5603],[69.9706,22.5462],[70.0257,22.581],[70.0175,22.5603]]],[[[88.5475,21.5305],[88.4864,21.5467],[88.4997,21.5997],[88.5417,21.5772],[88.5475,21.5305]]],[[[88.8383,21.5541],[88.8438,21.6063],[88.8959,21.5858],[88.9119,21.5463],[88.8698,21.5341],[88.8383,21.5541]]],[[[88.5241,21.597],[88.5266,21.6569],[88.5355,21.6422],[88.5894,21.6116],[88.5955,21.5862],[88.5654,21.556],[88.5241,21.597]]],[[[88.782,21.6162],[88.804,21.5975],[88.7996,21.5749],[88.7445,21.5602],[88.7126,21.5765],[88.7252,21.6306],[88.6902,21.6844],[88.6971,21.7184],[88.7156,21.6772],[88.7542,21.6466],[88.7787,21.6526],[88.782,21.6162]]],[[[88.3364,21.6076],[88.316,21.615],[88.3233,21.7035],[88.36,21.6705],[88.349,21.6469],[88.3587,21.6321],[88.3364,21.6076]]],[[[88.6512,21.6762],[88.6459,21.6462],[88.6363,21.6449],[88.6403,21.6806],[88.6512,21.6762]]],[[[88.5514,21.6386],[88.5332,21.6558],[88.5229,21.7156],[88.5494,21.6979],[88.5671,21.6982],[88.5719,21.6691],[88.5514,21.6386]]],[[[88.4619,21.7506],[88.4841,21.675],[88.4649,21.6224],[88.4526,21.6002],[88.4295,21.6003],[88.4483,21.6233],[88.427,21.6599],[88.4273,21.6899],[88.4436,21.7026],[88.4366,21.7671],[88.4564,21.7929],[88.4679,21.7863],[88.4831,21.7956],[88.4619,21.7506]]],[[[89.2855,21.6939],[89.2953,21.6711],[89.2631,21.65],[89.1998,21.6592],[89.2319,21.7014],[89.2199,21.7399],[89.2401,21.7552],[89.2917,21.7472],[89.2843,21.7036],[89.2613,21.6969],[89.2855,21.6939]]],[[[89.3448,21.6914],[89.3353,21.6995],[89.3397,21.7212],[89.3532,21.7075],[89.3448,21.6914]]],[[[88.6017,21.6541],[88.6125,21.6055],[88.5642,21.6419],[88.5808,21.6629],[88.5699,21.7091],[88.5233,21.7224],[88.5069,21.7573],[88.5331,21.7746],[88.5469,21.8165],[88.5779,21.7923],[88.5666,21.7684],[88.58,21.7201],[88.6154,21.679],[88.6017,21.6541]]],[[[88.4047,21.7167],[88.3649,21.688],[88.3486,21.7126],[88.3579,21.7201],[88.353,21.7483],[88.3928,21.7648],[88.3936,21.7418],[88.3714,21.7272],[88.4047,21.7167]]],[[[88.6302,21.7314],[88.6277,21.7412],[88.5968,21.7582],[88.5998,21.7841],[88.6205,21.7879],[88.6377,21.7533],[88.6341,21.7208],[88.6074,21.7072],[88.6302,21.7314]]],[[[88.6022,21.7161],[88.5729,21.7718],[88.587,21.7766],[88.5909,21.7566],[88.6272,21.7354],[88.6022,21.7161]]],[[[88.3472,21.7413],[88.3528,21.7212],[88.3365,21.7285],[88.3345,21.7054],[88.3143,21.7168],[88.3104,21.7792],[88.3376,21.7868],[88.3467,21.7984],[88.3864,21.7918],[88.3867,21.768],[88.3559,21.7636],[88.3472,21.7413]]],[[[89.571,21.7089],[89.5313,21.8231],[89.5459,21.8493],[89.6102,21.7968],[89.5922,21.7519],[89.6231,21.7109],[89.571,21.7089]]],[[[88.5304,21.782],[88.5145,21.7764],[88.5298,21.7965],[88.5304,21.782]]],[[[88.4606,21.8159],[88.4925,21.8357],[88.5096,21.8101],[88.4925,21.7983],[88.4606,21.8159]]],[[[89.783,21.8145],[89.7806,21.8233],[89.7904,21.8225],[89.783,21.8145]]],[[[88.5953,21.8479],[88.622,21.8302],[88.6124,21.8141],[88.6216,21.7992],[88.5834,21.8142],[88.5953,21.8479]]],[[[89.3482,21.7823],[89.3377,21.8368],[89.3284,21.8442],[89.329,21.8185],[89.3202,21.8415],[89.3747,21.8824],[89.3482,21.7823]]],[[[88.6407,21.7874],[88.6194,21.8162],[88.627,21.8319],[88.601,21.8612],[88.6242,21.8974],[88.6384,21.8686],[88.6618,21.87],[88.6407,21.7874]]],[[[89.768,21.8485],[89.7647,21.8548],[89.778,21.8534],[89.768,21.8485]]],[[[89.6611,21.8797],[89.6493,21.8651],[89.6541,21.8891],[89.6611,21.8797]]],[[[88.6271,21.9038],[88.6414,21.9224],[88.6735,21.917],[88.657,21.8745],[88.6408,21.8761],[88.6271,21.9038]]],[[[88.4888,21.9004],[88.5039,21.9058],[88.4917,21.8976],[88.4888,21.9004]]],[[[89.5465,21.9637],[89.565,21.9289],[89.5431,21.868],[89.5398,21.8775],[89.5465,21.9637]]],[[[89.9725,21.9238],[89.9604,21.915],[89.9434,21.9296],[89.9606,21.9471],[89.9725,21.9238]]],[[[88.7183,22.0018],[88.6871,21.9454],[88.6418,21.9509],[88.6341,21.9658],[88.6639,22.0153],[88.6834,22.0024],[88.7183,22.0018]]],[[[88.6877,22.0147],[88.6742,22.014],[88.6743,22.0171],[88.6877,22.0147]]],[[[89.8708,22.2377],[89.8616,22.2442],[89.8619,22.258],[89.8699,22.2497],[89.8708,22.2377]]],[[[89.9129,23.7073],[89.932,23.6851],[89.8982,23.705],[89.9129,23.7073]]],[[[89.8706,23.7082],[89.8651,23.7143],[89.8759,23.7073],[89.8706,23.7082]]],[[[89.8652,23.7226],[89.8686,23.7271],[89.8746,23.7189],[89.8652,23.7226]]],[[[89.8583,23.7235],[89.8568,23.7306],[89.8623,23.7229],[89.8583,23.7235]]],[[[89.7966,23.7381],[89.786,23.7414],[89.7868,23.7639],[89.7904,23.7596],[89.7966,23.7381]]],[[[89.7791,23.7421],[89.746,23.8048],[89.7758,23.7887],[89.7791,23.7421]]],[[[89.718,23.8016],[89.741,23.7775],[89.6823,23.7919],[89.6855,23.804],[89.718,23.8016]]],[[[89.6474,23.7841],[89.6373,23.7995],[89.6754,23.8006],[89.6752,23.7892],[89.6474,23.7841]]],[[[89.4879,23.8167],[89.5205,23.8219],[89.5325,23.8154],[89.5155,23.7856],[89.4879,23.8167]]],[[[89.5465,23.7973],[89.595,23.8151],[89.62,23.8056],[89.5465,23.7973]]],[[[89.3448,23.8902],[89.328,23.8813],[89.3139,23.8911],[89.3448,23.8902]]],[[[89.6885,23.9281],[89.7101,23.9194],[89.7311,23.8789],[89.7008,23.8954],[89.6885,23.9281]]],[[[89.3791,23.9063],[89.398,23.9267],[89.4109,23.9196],[89.3791,23.9063]]],[[[89.3162,23.906],[89.2906,23.9388],[89.3753,23.9363],[89.3556,23.8929],[89.3162,23.906]]],[[[89.6611,23.9383],[89.6726,23.9407],[89.6775,23.9107],[89.6611,23.9383]]],[[[89.2298,23.9463],[89.232,23.9307],[89.1825,23.9548],[89.2314,23.9586],[89.2505,23.9331],[89.2298,23.9463]]],[[[89.1733,23.9947],[89.154,23.9895],[89.1391,23.9934],[89.1568,23.9991],[89.1733,23.9947]]],[[[90.3554,21.7449],[90.3541,21.7359],[90.3508,21.7388],[90.3554,21.7449]]],[[[90.4497,21.7657],[90.4396,21.7701],[90.4515,21.769],[90.4497,21.7657]]],[[[90.4182,21.8319],[90.4365,21.8359],[90.4445,21.8258],[90.4244,21.8179],[90.4182,21.8319]]],[[[90.3245,21.8258],[90.2977,21.8389],[90.3294,21.8386],[90.3245,21.8258]]],[[[90.0904,21.8955],[90.1036,21.8865],[90.0593,21.8322],[90.0215,21.8445],[90.0414,21.8442],[90.0198,21.904],[90.0309,21.9602],[90.077,21.972],[90.0953,21.9352],[90.0904,21.8955]]],[[[90.3203,21.8541],[90.3036,21.8658],[90.3339,21.9487],[90.3851,21.9977],[90.3573,21.8707],[90.3203,21.8541]]],[[[90.3912,21.9211],[90.3941,21.9377],[90.3972,21.9326],[90.3912,21.9211]]],[[[90.2649,21.8885],[90.2458,21.8987],[90.2753,21.9426],[90.2645,21.9601],[90.2946,21.9806],[90.3036,21.9223],[90.2649,21.8885]]],[[[90.3974,21.9627],[90.3871,21.9532],[90.3958,21.9656],[90.3974,21.9627]]],[[[90.4579,21.9207],[90.424,21.8978],[90.3945,21.9049],[90.4168,22.0336],[90.4359,22.0296],[90.4475,22.0343],[90.4715,21.9969],[90.4579,21.9207]]],[[[90.3303,21.9661],[90.3234,21.9739],[90.3317,21.9815],[90.3303,21.9661]]],[[[90.3625,22.0353],[90.3958,22.0706],[90.4098,22.0497],[90.3402,21.9625],[90.3625,22.0353]]],[[[90.4014,22.0152],[90.4055,22.0318],[90.4039,22.0148],[90.4014,22.0152]]],[[[90.3751,22.0964],[90.3076,21.9737],[90.2981,21.9849],[90.2821,21.985],[90.2763,22.0244],[90.2936,22.069],[90.3473,22.0893],[90.3372,22.1034],[90.3751,22.0964]]],[[[90.4401,22.0439],[90.4316,22.0338],[90.4136,22.0404],[90.4401,22.0439]]],[[[90.2892,22.3548],[90.2713,22.3515],[90.2864,22.3644],[90.2892,22.3548]]],[[[90.4527,22.7883],[90.4796,22.7568],[90.4576,22.7485],[90.4346,22.7747],[90.4527,22.7883]]],[[[90.4843,22.8343],[90.4912,22.8191],[90.4579,22.8101],[90.4547,22.8299],[90.4843,22.8343]]],[[[90.4551,23.0016],[90.5413,22.9533],[90.5431,22.8996],[90.515,22.8747],[90.4671,22.8659],[90.4447,22.8264],[90.4491,22.8052],[90.4274,22.8167],[90.4278,22.8417],[90.3951,22.8281],[90.3898,22.839],[90.4218,22.8989],[90.4173,22.9163],[90.3845,22.856],[90.3951,22.7999],[90.4151,22.7819],[90.3844,22.7899],[90.42,22.7752],[90.3923,22.7672],[90.3323,22.8477],[90.3807,22.9076],[90.3533,22.9932],[90.4309,22.9917],[90.4512,22.9721],[90.4551,23.0016]]],[[[90.3223,22.9661],[90.3564,22.9623],[90.368,22.9212],[90.3518,22.9514],[90.3223,22.9661]]],[[[90.2932,22.9627],[90.3136,22.9686],[90.3494,22.9431],[90.3131,22.9459],[90.2932,22.9627]]],[[[90.4224,22.9963],[90.4343,23.0095],[90.4418,23.0056],[90.4224,22.9963]]],[[[90.393,23.0066],[90.4081,23.0135],[90.4172,23.0099],[90.4052,23.0052],[90.393,23.0066]]],[[[90.3079,23.0375],[90.2885,23.0314],[90.2751,23.039],[90.2918,23.0496],[90.3079,23.0375]]],[[[90.4684,23.097],[90.4477,23.0556],[90.4435,23.1068],[90.4907,23.1312],[90.4643,23.1914],[90.4687,23.2012],[90.4724,23.1855],[90.5053,23.1688],[90.5079,23.1439],[90.4922,23.0819],[90.4684,23.097]]],[[[90.4571,23.1226],[90.4753,23.1555],[90.479,23.1329],[90.4571,23.1226]]],[[[90.4839,23.2994],[90.4857,23.2465],[90.4512,23.1977],[90.4659,23.1672],[90.4338,23.1001],[90.4459,23.0225],[90.3609,23.0111],[90.3426,22.9819],[90.326,22.9816],[90.3087,23.0538],[90.3259,23.0679],[90.3326,23.1087],[90.3229,23.1024],[90.2729,23.1468],[90.267,23.1328],[90.2905,23.1207],[90.2538,23.1253],[90.2444,23.1379],[90.2657,23.1601],[90.2142,23.1915],[90.1842,23.1708],[90.1781,23.1892],[90.2071,23.2097],[90.2108,23.224],[90.1721,23.262],[90.2124,23.2553],[90.233,23.2607],[90.2526,23.2882],[90.24,23.2931],[90.2866,23.3161],[90.3026,23.3547],[90.3339,23.3674],[90.393,23.3396],[90.4122,23.3025],[90.4839,23.2994]]],[[[90.2334,23.2961],[90.2286,23.2652],[90.1662,23.2687],[90.1801,23.2409],[90.1276,23.2454],[90.1245,23.2738],[90.0892,23.2811],[90.1807,23.3378],[90.2557,23.3117],[90.2334,23.2961]]],[[[90.4206,23.3182],[90.349,23.3965],[90.4311,23.3598],[90.4532,23.3159],[90.4206,23.3182]]],[[[90.4683,23.3604],[90.4776,23.3424],[90.4464,23.3699],[90.4683,23.3604]]],[[[90.2989,23.3679],[90.3364,23.3819],[90.3463,23.3767],[90.2989,23.3679]]],[[[90.1896,23.386],[90.1966,23.3718],[90.1914,23.373],[90.1896,23.386]]],[[[90.4864,23.3686],[90.4238,23.3903],[90.443,23.395],[90.4864,23.3686]]],[[[90.2757,23.33],[90.2503,23.3317],[90.2182,23.3603],[90.2488,23.3252],[90.2056,23.3503],[90.1836,23.4498],[90.2382,23.4169],[90.3299,23.3948],[90.3316,23.3845],[90.286,23.3796],[90.2964,23.3733],[90.2757,23.33]]],[[[90.3924,23.4059],[90.4177,23.394],[90.3923,23.4031],[90.3924,23.4059]]],[[[90.1658,23.4199],[90.184,23.3987],[90.1817,23.3936],[90.1658,23.4199]]],[[[90.167,23.4337],[90.1768,23.4246],[90.1765,23.4189],[90.167,23.4337]]],[[[90.2303,23.4706],[90.2377,23.4724],[90.2391,23.4676],[90.2303,23.4706]]],[[[90.19,23.5033],[90.2006,23.4875],[90.1838,23.5031],[90.19,23.5033]]],[[[90.4698,23.5718],[90.4666,23.5501],[90.4394,23.5536],[90.453,23.568],[90.4698,23.5718]]],[[[90.4432,23.5992],[90.4426,23.5675],[90.4335,23.558],[90.4251,23.6052],[90.4432,23.5992]]],[[[90.4039,23.6053],[90.4282,23.5808],[90.4285,23.5723],[90.4039,23.6053]]],[[[90.0967,23.6051],[90.0878,23.6174],[90.1143,23.5944],[90.0967,23.6051]]],[[[90.405,23.6106],[90.3909,23.6159],[90.4177,23.611],[90.405,23.6106]]],[[[90.3979,23.6982],[90.4643,23.628],[90.4381,23.6157],[90.4239,23.6183],[90.4349,23.637],[90.429,23.6419],[90.415,23.624],[90.3878,23.6461],[90.3978,23.6253],[90.3645,23.63],[90.288,23.6726],[90.2617,23.7243],[90.2876,23.7327],[90.3085,23.7608],[90.313,23.7323],[90.3713,23.6956],[90.3979,23.6982]]],[[[90.3413,23.7334],[90.3547,23.715],[90.3291,23.7271],[90.3413,23.7334]]],[[[90.2416,23.792],[90.2522,23.7467],[90.2259,23.725],[90.2118,23.7551],[90.2416,23.792]]],[[[90.2338,23.8213],[90.2236,23.8068],[90.2054,23.8221],[90.1823,23.8071],[90.1342,23.812],[90.0872,23.8364],[90.1157,23.8541],[90.1171,23.8704],[90.1436,23.827],[90.176,23.8211],[90.2026,23.8355],[90.2338,23.8213]]],[[[90.5382,21.8629],[90.51,21.8506],[90.4981,21.8612],[90.5182,21.8717],[90.5382,21.8629]]],[[[90.5613,21.8976],[90.5626,21.8832],[90.5554,21.877],[90.5542,21.8824],[90.5613,21.8976]]],[[[90.5223,21.9293],[90.5667,21.9568],[90.5431,21.8757],[90.5046,21.88],[90.5223,21.9293]]],[[[90.5781,21.9243],[90.5651,21.9237],[90.5727,21.9301],[90.5781,21.9243]]],[[[90.5012,21.9562],[90.4891,21.9568],[90.4956,21.9701],[90.5186,21.9792],[90.4932,21.9323],[90.5012,21.9562]]],[[[90.5536,21.9927],[90.5523,22.0016],[90.5577,22.0054],[90.5536,21.9927]]],[[[90.5422,22.025],[90.5221,21.992],[90.4996,21.9977],[90.5159,22.0226],[90.5422,22.025]]],[[[90.558,22.0227],[90.5627,22.0093],[90.5577,22.0054],[90.5512,22.0073],[90.558,22.0227]]],[[[90.5201,22.0312],[90.4936,22.0072],[90.5574,22.0982],[90.5496,22.0163],[90.5394,22.007],[90.5491,22.0314],[90.5201,22.0312]]],[[[90.5202,22.1038],[90.523,22.0807],[90.4844,22.0437],[90.4821,22.0755],[90.5202,22.1038]]],[[[90.5046,22.0502],[90.531,22.0858],[90.5252,22.1097],[90.542,22.1173],[90.5522,22.1054],[90.5386,22.0775],[90.5046,22.0502]]],[[[90.5935,22.1025],[90.593,22.1161],[90.5964,22.1176],[90.5935,22.1025]]],[[[90.5888,22.1176],[90.5849,22.1308],[90.5954,22.1267],[90.5888,22.1176]]],[[[90.5064,22.1709],[90.5243,22.1797],[90.5463,22.1707],[90.5107,22.1361],[90.5064,22.1709]]],[[[90.6113,22.1743],[90.6168,22.1767],[90.6128,22.1711],[90.6113,22.1743]]],[[[90.5632,22.2321],[90.5677,22.2145],[90.5387,22.1893],[90.5387,22.1974],[90.5632,22.2321]]],[[[90.575,22.2311],[90.5772,22.2481],[90.5825,22.2508],[90.575,22.2311]]],[[[90.5577,22.6218],[90.5686,22.6208],[90.5632,22.6057],[90.5577,22.6218]]],[[[90.4893,22.7199],[90.4786,22.7281],[90.4747,22.7461],[90.4833,22.7413],[90.4893,22.7199]]],[[[90.5288,22.6841],[90.5034,22.7191],[90.4885,22.7697],[90.5006,22.7921],[90.5502,22.7612],[90.5288,22.6841]]],[[[90.5657,22.7763],[90.5794,22.782],[90.6003,22.7771],[90.571,22.7444],[90.5657,22.7763]]],[[[90.5683,22.795],[90.5334,22.7951],[90.4846,22.8396],[90.4608,22.8402],[90.4824,22.867],[90.5329,22.8745],[90.5521,22.9054],[90.5483,22.9438],[90.6496,22.8941],[90.6438,22.8594],[90.5683,22.795]]],[[[90.5034,23.0104],[90.5003,23.0214],[90.5044,23.0251],[90.5034,23.0104]]],[[[90.5612,23.0441],[90.5669,23.0068],[90.5628,22.9968],[90.5353,23.0249],[90.5612,23.0441]]],[[[90.4772,23.042],[90.496,23.0157],[90.4929,23.0117],[90.4733,23.0279],[90.4772,23.042]]],[[[90.5083,23.062],[90.5048,23.0334],[90.4968,23.0355],[90.491,23.0532],[90.5083,23.062]]],[[[90.5237,23.0524],[90.5198,23.0649],[90.5234,23.0689],[90.5237,23.0524]]],[[[90.5055,23.1284],[90.5168,23.1384],[90.5223,23.128],[90.5131,23.0812],[90.5055,23.1284]]],[[[90.5468,23.1967],[90.5412,23.1433],[90.5221,23.1767],[90.5317,23.2004],[90.5338,23.169],[90.5468,23.1967]]],[[[90.5726,23.2083],[90.5761,23.1787],[90.5569,23.1601],[90.5541,23.1765],[90.5726,23.2083]]],[[[90.5661,23.2048],[90.5544,23.2059],[90.5569,23.2114],[90.5661,23.2048]]],[[[90.5899,23.2108],[90.5855,23.2229],[90.5954,23.2312],[90.5899,23.2108]]],[[[90.5622,23.2373],[90.5731,23.2392],[90.5578,23.2282],[90.5622,23.2373]]],[[[90.5713,23.2467],[90.586,23.2534],[90.5803,23.239],[90.5713,23.2467]]],[[[90.5495,23.2895],[90.5409,23.2371],[90.5051,23.1817],[90.4788,23.1889],[90.4982,23.2794],[90.4938,23.299],[90.4511,23.3395],[90.5188,23.3285],[90.5495,23.2895]]],[[[90.5699,23.3181],[90.5699,23.308],[90.5656,23.3198],[90.5699,23.3181]]],[[[90.5583,23.3138],[90.5473,23.3245],[90.5449,23.3286],[90.5526,23.3295],[90.5583,23.3138]]],[[[90.5829,23.3499],[90.5857,23.3557],[90.591,23.3393],[90.5829,23.3499]]],[[[90.5293,23.3648],[90.5382,23.3497],[90.5275,23.3583],[90.5293,23.3648]]],[[[90.5534,23.3784],[90.5529,23.3901],[90.5602,23.3673],[90.5534,23.3784]]],[[[90.4904,23.3804],[90.4739,23.3845],[90.4506,23.3978],[90.4948,23.3982],[90.4904,23.3804]]],[[[90.5714,23.3878],[90.5719,23.3743],[90.5656,23.4056],[90.5851,23.43],[90.5714,23.3878]]],[[[90.573,23.4345],[90.5686,23.4417],[90.5742,23.4501],[90.573,23.4345]]],[[[90.5401,23.475],[90.5615,23.4807],[90.5557,23.4454],[90.544,23.4543],[90.5401,23.475]]],[[[90.5756,23.5199],[90.5607,23.5261],[90.5573,23.5384],[90.5756,23.5199]]],[[[90.5594,23.5478],[90.5521,23.5666],[90.5668,23.5437],[90.5594,23.5478]]],[[[90.4601,23.5745],[90.4477,23.6043],[90.4844,23.5823],[90.5024,23.5851],[90.4601,23.5745]]],[[[90.6195,23.6099],[90.6033,23.6099],[90.6261,23.6259],[90.6195,23.6099]]],[[[90.6327,21.9342],[90.6555,21.9128],[90.6427,21.8991],[90.6209,21.9111],[90.6327,21.9342]]],[[[90.6457,21.95],[90.654,21.9222],[90.6288,21.9403],[90.6457,21.95]]],[[[90.7172,21.9585],[90.7036,21.9613],[90.7099,21.9727],[90.7154,21.9695],[90.7172,21.9585]]],[[[90.6793,22.0038],[90.6699,21.9968],[90.6687,22.0055],[90.6793,22.0038]]],[[[90.6468,22.049],[90.6481,22.0182],[90.6174,21.9859],[90.6115,21.9988],[90.6468,22.049]]],[[[90.6684,22.028],[90.6557,22.0408],[90.6579,22.0479],[90.6684,22.028]]],[[[90.7015,22.0616],[90.6938,22.0191],[90.6795,22.0196],[90.6691,22.0671],[90.7015,22.0616]]],[[[90.6646,22.067],[90.6559,22.0635],[90.6674,22.0801],[90.6646,22.067]]],[[[90.633,22.0481],[90.612,22.0583],[90.6312,22.0947],[90.6057,22.0544],[90.6228,22.0354],[90.613,22.0195],[90.5929,22.041],[90.5951,22.0693],[90.6341,22.1265],[90.6644,22.1249],[90.6614,22.0905],[90.6315,22.0708],[90.633,22.0481]]],[[[90.7652,22.0786],[90.7778,22.0923],[90.7527,22.0551],[90.7652,22.0786]]],[[[90.8316,22.2133],[90.8369,22.2088],[90.8322,22.1853],[90.8316,22.2133]]],[[[90.9509,22.3293],[90.9581,22.3668],[90.9671,22.3782],[90.9509,22.3293]]],[[[90.6295,22.4056],[90.6489,22.3871],[90.6486,22.3674],[90.6295,22.4056]]],[[[90.6552,22.4054],[90.6487,22.4076],[90.6505,22.4138],[90.6552,22.4054]]],[[[90.5994,22.4435],[90.6059,22.463],[90.6258,22.4422],[90.6322,22.3575],[90.5994,22.4435]]],[[[90.8701,22.5055],[90.8889,22.445],[90.8462,22.2419],[90.8319,22.2192],[90.8082,22.2193],[90.8254,22.1984],[90.8024,22.2081],[90.796,22.246],[90.7981,22.2038],[90.8209,22.1843],[90.7784,22.186],[90.8194,22.1776],[90.8251,22.1481],[90.7946,22.1077],[90.7958,22.1457],[90.783,22.1074],[90.7622,22.1112],[90.7168,22.0527],[90.7086,22.0646],[90.7371,22.132],[90.7058,22.0721],[90.6749,22.0707],[90.6781,22.1053],[90.6991,22.1114],[90.6703,22.1264],[90.6957,22.1379],[90.6597,22.1332],[90.6338,22.1481],[90.6334,22.1324],[90.6198,22.1325],[90.6111,22.1582],[90.6706,22.2784],[90.6714,22.4739],[90.6066,22.6012],[90.5888,22.6067],[90.6186,22.5467],[90.5729,22.5947],[90.5746,22.6194],[90.5634,22.6408],[90.5889,22.6338],[90.5796,22.6542],[90.5401,22.6309],[90.5569,22.6934],[90.6594,22.7846],[90.726,22.7769],[90.778,22.6269],[90.8701,22.5055]]],[[[90.6476,22.4201],[90.6393,22.4252],[90.6408,22.4303],[90.6476,22.4201]]],[[[90.9757,22.458],[90.9897,22.476],[90.9912,22.4514],[90.9757,22.458]]],[[[90.6136,22.5392],[90.6334,22.5244],[90.6556,22.4599],[90.6239,22.5069],[90.6136,22.5392]]],[[[90.6436,22.5073],[90.6512,22.5029],[90.6496,22.4987],[90.6436,22.5073]]],[[[90.7963,22.6566],[90.7931,22.6879],[90.8039,22.6905],[90.8216,22.6596],[90.7963,22.6566]]],[[[90.9703,22.7597],[90.9863,22.7638],[91.0202,22.7154],[91.0079,22.7052],[90.9757,22.7222],[90.9658,22.7155],[91.0244,22.6739],[91.0053,22.5457],[90.9869,22.5398],[90.9385,22.5619],[90.9256,22.5787],[90.9401,22.5911],[90.9144,22.5899],[90.8618,22.6339],[90.8337,22.7293],[90.7969,22.7739],[90.9095,22.8108],[90.9778,22.7739],[90.9703,22.7597]]],[[[91.0146,22.698],[91.0292,22.7063],[91.0262,22.6864],[91.0146,22.698]]],[[[90.8021,22.7146],[90.7921,22.7154],[90.7923,22.7182],[90.8021,22.7146]]],[[[90.6494,22.7967],[90.5955,22.7887],[90.6042,22.8025],[90.6604,22.8159],[90.6494,22.7967]]],[[[90.6665,22.8261],[90.7021,22.8276],[90.7026,22.8205],[90.6815,22.8128],[90.6665,22.8261]]],[[[90.6453,22.8443],[90.6313,22.8405],[90.6454,22.8492],[90.6453,22.8443]]],[[[90.6875,22.8571],[90.6745,22.8379],[90.6692,22.8416],[90.6875,22.8571]]],[[[90.6714,22.8821],[90.6623,22.8542],[90.6521,22.8487],[90.6554,22.8821],[90.6714,22.8821]]],[[[90.6342,22.959],[90.6388,22.9635],[90.6432,22.9568],[90.6342,22.959]]],[[[90.6803,22.9808],[90.6884,22.9553],[90.6485,22.9847],[90.6803,22.9808]]],[[[90.6131,23.2232],[90.6161,23.2364],[90.6141,23.2223],[90.6131,23.2232]]],[[[90.6198,23.2581],[90.6334,23.2534],[90.6232,23.2389],[90.6198,23.2581]]],[[[90.6734,23.3486],[90.6783,23.3582],[90.6816,23.3461],[90.6734,23.3486]]],[[[90.6184,23.4883],[90.6132,23.4946],[90.6263,23.4961],[90.6184,23.4883]]],[[[90.6637,23.5167],[90.6888,23.5014],[90.6879,23.4906],[90.6436,23.5019],[90.6637,23.5167]]],[[[90.6987,23.5035],[90.702,23.5148],[90.6983,23.492],[90.6987,23.5035]]],[[[90.6906,23.5452],[90.7032,23.5522],[90.7019,23.5256],[90.6906,23.5452]]],[[[90.667,23.5661],[90.6946,23.5158],[90.6576,23.5209],[90.5851,23.4883],[90.5658,23.5872],[90.5918,23.5834],[90.6371,23.6107],[90.6827,23.5581],[90.667,23.5661]]],[[[90.6992,23.5613],[90.6892,23.5562],[90.6936,23.5641],[90.6992,23.5613]]],[[[90.6905,23.5679],[90.6789,23.5747],[90.6804,23.5794],[90.6905,23.5679]]],[[[90.6769,23.6476],[90.7599,23.6419],[90.7598,23.6309],[90.7358,23.6271],[90.7284,23.5956],[90.6991,23.573],[90.6684,23.59],[90.6585,23.6553],[90.6769,23.6476]]],[[[90.6317,23.6169],[90.6428,23.6569],[90.6634,23.6642],[90.6503,23.6478],[90.6474,23.6139],[90.6317,23.6169]]],[[[90.6841,23.6613],[90.6694,23.6628],[90.6724,23.669],[90.6841,23.6613]]],[[[90.7264,23.6788],[90.7168,23.6597],[90.6919,23.6689],[90.6989,23.6808],[90.7264,23.6788]]],[[[90.6577,23.6794],[90.6529,23.6724],[90.6474,23.6798],[90.6577,23.6794]]],[[[90.7006,23.6834],[90.7146,23.7266],[90.7335,23.6894],[90.7006,23.6834]]]]}}