{"type":"Feature","properties":{"speciesId":227,"category":"EN","source":"IUCN Red List","simplifyTol":0.01,"clippedToSubcontinent":true},"geometry":{"type":"MultiPolygon","coordinates":[[[[77.0522,8.6739],[76.991,8.7206],[76.9765,8.7495],[76.983,8.7946],[77.0119,8.8236],[77.0876,8.8284],[77.1503,8.7689],[77.1439,8.7367],[77.131,8.6916],[77.0522,8.6739]]],[[[76.5856,10.2131],[76.5186,10.2544],[76.3277,10.4246],[76.3019,10.502],[76.3019,10.5691],[76.3844,10.6052],[76.534,10.6052],[76.6888,10.5484],[76.7559,10.471],[76.792,10.373],[76.7198,10.2492],[76.6579,10.2182],[76.5856,10.2131]]]]}}