{"type":"Feature","properties":{"speciesId":229,"category":"DD","source":"IUCN Red List","simplifyTol":0.01,"clippedToSubcontinent":true},"geometry":{"type":"Polygon","coordinates":[[[77.5787,8.2377],[77.5118,8.2441],[77.4223,8.3038],[77.2377,8.5502],[77.2093,8.62],[77.1757,8.762],[77.1964,8.8421],[77.2432,8.8909],[77.3029,8.9207],[77.3746,8.9351],[77.5716,8.9307],[77.6536,8.8783],[77.7009,8.8212],[77.7606,8.6222],[77.7606,8.4829],[77.7407,8.4332],[77.7362,8.3281],[77.7109,8.2839],[77.6611,8.2541],[77.5787,8.2377]]]}}