{"type":"Feature","properties":{"speciesId":23,"category":"LC","source":"IUCN Red List","simplifyTol":0.01,"clippedToSubcontinent":true},"geometry":{"type":"Polygon","coordinates":[[[83.7877,28.5198],[84.2863,28.1484],[84.5874,27.9811],[85.0291,27.8874],[85.9426,27.7535],[86.5549,27.7],[87.0802,27.6967],[87.1973,27.6532],[87.3881,27.4122],[87.5018,27.1379],[87.475,27.0843],[87.4215,27.0375],[87.107,26.9438],[86.8192,26.8869],[86.2671,26.9538],[84.4937,27.4323],[83.6605,27.7234],[83.4966,27.8071],[83.443,27.9242],[83.4665,28.0279],[83.6706,28.4596],[83.7509,28.5332],[83.7877,28.5198]]]}}