{"type":"Feature","properties":{"speciesId":231,"category":"LC","source":"IUCN Red List","simplifyTol":0.01,"clippedToSubcontinent":true},"geometry":{"type":"MultiPolygon","coordinates":[[[[74.098,14.8392],[74.0955,14.838],[74.0964,14.8425],[74.098,14.8392]]],[[[95.2682,15.9572],[95.2679,15.9568],[95.2686,15.9597],[95.2682,15.9572]]],[[[95.1064,15.9404],[95.1036,15.9645],[95.1207,15.9944],[95.1186,15.9526],[95.1064,15.9404]]],[[[73.4877,16.0],[73.4848,15.9927],[73.4838,16.0],[73.4877,16.0]]],[[[94.3422,16.0097],[94.3157,15.9811],[94.2799,15.9896],[94.3322,16.0117],[94.3422,16.0097]]],[[[94.694,16.0017],[94.7016,16.0264],[94.7171,16.0504],[94.7165,16.0229],[94.694,16.0017]]],[[[94.8099,15.9774],[94.8423,16.0605],[94.8509,16.0611],[94.843,16.0],[94.8099,15.9774]]],[[[95.3318,15.9687],[95.2636,15.8636],[95.2411,15.8644],[95.273,15.9563],[95.28,16.022],[95.3198,16.079],[95.3453,16.0479],[95.3318,15.9687]]],[[[95.186,16.0354],[95.1301,16.0312],[95.1019,15.9782],[95.1066,16.0586],[95.1719,16.1117],[95.2106,16.1027],[95.1806,16.075],[95.186,16.0354]]],[[[95.1362,16.1514],[95.1272,16.1447],[95.1335,16.1565],[95.1362,16.1514]]],[[[95.3263,16.1146],[95.3113,16.1457],[95.3183,16.1719],[95.3666,16.2017],[95.3641,16.1565],[95.3263,16.1146]]],[[[95.8944,16.238],[95.8925,16.2383],[95.8943,16.2393],[95.8944,16.238]]],[[[94.6634,16.2766],[94.6618,16.2779],[94.6624,16.2782],[94.6634,16.2766]]],[[[95.9016,16.2554],[95.9031,16.273],[95.9078,16.2866],[95.9133,16.2749],[95.9016,16.2554]]],[[[94.6827,16.2978],[94.6777,16.3019],[94.6812,16.3123],[94.6827,16.2978]]],[[[95.9615,16.2951],[95.9577,16.313],[95.9577,16.3487],[95.9672,16.3175],[95.9615,16.2951]]],[[[95.9294,16.2326],[95.8996,16.2374],[95.9178,16.273],[95.913,16.3313],[95.9399,16.3786],[95.9563,16.3263],[95.952,16.2719],[95.9294,16.2326]]],[[[94.6537,16.3052],[94.6463,16.3297],[94.6823,16.38],[94.6851,16.3628],[94.6537,16.3052]]],[[[95.9728,16.2189],[95.9341,16.2175],[95.9557,16.2478],[95.9703,16.3017],[95.971,16.3446],[96.0005,16.382],[96.0736,16.335],[96.0758,16.3169],[95.9728,16.2189]]],[[[95.9343,16.3798],[95.9279,16.3735],[95.9334,16.3835],[95.9343,16.3798]]],[[[95.9515,16.3793],[95.9437,16.3836],[95.9477,16.39],[95.9515,16.3793]]],[[[94.6979,16.3684],[94.698,16.3876],[94.7024,16.3907],[94.7021,16.3785],[94.6979,16.3684]]],[[[95.9399,16.3965],[95.9325,16.3958],[95.9328,16.3981],[95.9399,16.3965]]],[[[96.0071,16.3859],[95.9936,16.3955],[95.9936,16.399],[96.0071,16.3859]]],[[[95.9658,16.3464],[95.9522,16.3705],[95.9586,16.4063],[95.9924,16.3898],[95.9658,16.3464]]],[[[73.3587,16.5158],[73.3559,16.5214],[73.3585,16.5193],[73.3587,16.5158]]],[[[73.3385,16.5554],[73.3362,16.56],[73.3372,16.5601],[73.3385,16.5554]]],[[[97.6273,16.5418],[97.6435,16.5772],[97.6647,16.5554],[97.6616,16.5491],[97.6273,16.5418]]],[[[97.6573,16.5738],[97.6481,16.5787],[97.6515,16.5872],[97.6573,16.5738]]],[[[96.1866,16.4686],[96.1983,16.4864],[96.1788,16.5142],[96.1851,16.5578],[96.1782,16.581],[96.2256,16.5999],[96.3038,16.4614],[96.2944,16.4457],[96.3088,16.4524],[96.2683,16.3897],[96.1828,16.3475],[96.091,16.3517],[96.109,16.3796],[96.1432,16.3846],[96.1668,16.414],[96.1488,16.4548],[96.1585,16.453],[96.1804,16.4603],[96.1866,16.4686]]],[[[97.6359,16.5736],[97.6122,16.58],[97.6261,16.6184],[97.6445,16.6024],[97.6359,16.5736]]],[[[82.3711,16.8486],[82.3705,16.8475],[82.3706,16.8507],[82.3711,16.8486]]],[[[96.3107,16.85],[96.3016,16.8461],[96.3033,16.8612],[96.3107,16.85]]],[[[96.6759,17.3462],[96.6652,17.3236],[96.655,17.3372],[96.6759,17.3462]]],[[[96.778,17.3694],[96.7677,17.3663],[96.7776,17.3754],[96.778,17.3694]]],[[[96.8399,17.4047],[96.7884,17.3795],[96.7385,17.4383],[96.792,17.4828],[96.8078,17.4389],[96.8399,17.4047]]],[[[83.4669,17.9095],[83.4535,17.9115],[83.4631,17.9187],[83.4669,17.9095]]],[[[94.2452,18.533],[94.2458,18.5344],[94.2461,18.5343],[94.2452,18.533]]],[[[72.8151,18.7014],[72.8048,18.7003],[72.8072,18.7045],[72.8151,18.7014]]],[[[72.8424,18.7075],[72.8332,18.7041],[72.84,18.7114],[72.8424,18.7075]]],[[[72.8456,18.7691],[72.835,18.7678],[72.8432,18.7728],[72.8456,18.7691]]],[[[72.8502,18.7868],[72.844,18.7916],[72.85,18.7971],[72.8502,18.7868]]],[[[94.1131,18.8492],[94.1362,18.856],[94.1203,18.8111],[94.0733,18.8313],[94.0678,18.8476],[94.0863,18.8476],[94.1155,18.8697],[94.1131,18.8492]]],[[[72.9321,18.9528],[72.9223,18.9629],[72.9423,18.9688],[72.9389,18.9654],[72.9321,18.9528]]],[[[73.0595,19.0065],[73.0493,19.0066],[73.0566,19.0171],[73.0595,19.0065]]],[[[94.0541,19.0332],[94.0549,19.0372],[94.0559,19.0357],[94.0541,19.0332]]],[[[72.8672,19.3274],[72.8447,19.3312],[72.838,19.3354],[72.8516,19.3378],[72.8672,19.3274]]],[[[94.0555,19.3461],[94.0403,19.3418],[94.0545,19.3488],[94.0555,19.3461]]],[[[72.7371,19.4707],[72.7327,19.4608],[72.7286,19.4695],[72.7371,19.4707]]],[[[93.814,19.7108],[93.8093,19.7149],[93.8121,19.7273],[93.814,19.7108]]],[[[93.704,19.7568],[93.69,19.7132],[93.6317,19.7182],[93.6559,19.7785],[93.6663,19.76],[93.6911,19.7895],[93.704,19.7568]]],[[[93.7368,19.7887],[93.6991,19.7962],[93.7435,19.8327],[93.7452,19.8097],[93.7368,19.7887]]],[[[93.7265,19.8506],[93.7327,19.8242],[93.678,19.7891],[93.6827,19.8215],[93.7265,19.8506]]],[[[93.6699,19.8526],[93.7012,19.8521],[93.6017,19.7153],[93.601,19.7906],[93.6301,19.8135],[93.6495,19.8618],[93.6699,19.8526]]],[[[93.7634,19.8635],[93.7925,19.8314],[93.7771,19.7662],[93.7124,19.7645],[93.7041,19.7837],[93.7335,19.7817],[93.7469,19.7906],[93.7545,19.8254],[93.7409,19.8453],[93.7634,19.8635]]],[[[93.6914,19.8883],[93.7357,19.8838],[93.7369,19.8696],[93.6902,19.8775],[93.6632,19.8581],[93.6545,19.8692],[93.6914,19.8883]]],[[[93.5855,19.8796],[93.5936,19.9044],[93.6058,19.9024],[93.5855,19.8796]]],[[[93.4705,19.9607],[93.4711,19.9623],[93.476,19.9617],[93.4705,19.9607]]],[[[93.4855,19.9635],[93.4747,19.9808],[93.4747,19.9909],[93.497,19.9809],[93.4855,19.9635]]],[[[93.4609,19.9581],[93.4445,19.9836],[93.4499,19.9931],[93.4635,19.9765],[93.4609,19.9581]]],[[[93.2347,19.8206],[93.1633,19.9447],[93.1267,20.0519],[93.1379,20.0533],[93.1809,19.9394],[93.2466,19.826],[93.2347,19.8206]]],[[[93.1285,20.062],[93.1188,20.0584],[93.1264,20.0691],[93.1285,20.062]]],[[[93.1585,20.0669],[93.1774,20.052],[93.1425,20.0706],[93.1585,20.0669]]],[[[93.3333,20.0521],[93.3316,20.0642],[93.339,20.0728],[93.3416,20.066],[93.3333,20.0521]]],[[[92.9967,20.1116],[93.0682,20.116],[93.0872,20.0864],[93.074,20.0765],[93.1218,20.0396],[93.14,19.9983],[93.1014,19.9783],[93.0992,19.9556],[93.1311,19.8553],[93.1672,19.8025],[93.0564,19.9521],[93.0421,20.0089],[92.9844,20.0694],[92.9746,20.1264],[92.9967,20.1116]]],[[[93.328,20.1069],[93.3118,20.1313],[93.313,20.1366],[93.3256,20.1211],[93.328,20.1069]]],[[[93.1267,20.079],[93.1119,20.0615],[93.0988,20.0779],[93.0949,20.0879],[93.1195,20.0869],[93.0855,20.1002],[93.0736,20.1239],[93.0877,20.1388],[93.1092,20.1359],[93.1267,20.079]]],[[[93.0895,20.1485],[93.064,20.134],[93.0889,20.1524],[93.0895,20.1485]]],[[[93.2991,20.0481],[93.2862,20.0946],[93.3034,20.1704],[93.3109,20.1152],[93.3309,20.0821],[93.2991,20.0481]]],[[[93.2119,20.1598],[93.2312,20.113],[93.2035,20.0935],[93.1892,20.0627],[93.1329,20.0846],[93.1113,20.1403],[93.0981,20.1542],[93.123,20.1798],[93.1717,20.1884],[93.1898,20.168],[93.2119,20.1598]]],[[[92.9286,20.1897],[92.9165,20.2045],[92.9252,20.2444],[92.9426,20.2506],[92.9504,20.2119],[92.9286,20.1897]]],[[[93.2528,20.1437],[93.2845,20.1445],[93.2744,20.0854],[93.2894,20.0741],[93.288,20.0454],[93.2073,20.0483],[93.2079,20.0922],[93.2467,20.116],[93.2292,20.1567],[93.1829,20.1916],[93.2081,20.2124],[93.2167,20.2346],[93.2528,20.2427],[93.2512,20.2636],[93.2766,20.2438],[93.3004,20.1904],[93.2837,20.158],[93.2528,20.1437]]],[[[86.7002,20.2874],[86.6889,20.2951],[86.7088,20.2939],[86.7002,20.2874]]],[[[93.009,20.2867],[93.0157,20.3142],[93.0091,20.2869],[93.009,20.2867]]],[[[93.2728,20.2683],[93.2347,20.2758],[93.2548,20.3126],[93.2708,20.3147],[93.2636,20.2969],[93.2728,20.2683]]],[[[93.3231,20.3224],[93.3364,20.2789],[93.3577,20.27],[93.3906,20.2092],[93.4112,20.1214],[93.4012,20.1103],[93.3839,20.1859],[93.396,20.1024],[93.3666,20.084],[93.3755,20.0386],[93.359,20.0423],[93.3556,20.0728],[93.3143,20.1414],[93.3067,20.2079],[93.2713,20.2575],[93.2776,20.2882],[93.2677,20.2972],[93.2839,20.3204],[93.3231,20.3224]]],[[[93.2914,20.353],[93.2847,20.3436],[93.2902,20.3544],[93.2914,20.353]]],[[[93.1334,20.3059],[93.1755,20.3243],[93.2152,20.3051],[93.143,20.2188],[93.1272,20.2428],[93.1284,20.2167],[93.1036,20.2139],[93.0167,20.1442],[92.9954,20.1441],[93.0012,20.2153],[93.0221,20.2687],[93.04,20.2773],[93.0446,20.3321],[93.12,20.3744],[93.1322,20.3447],[93.1199,20.3296],[93.1288,20.321],[93.1403,20.3166],[93.1334,20.3059]]],[[[86.8049,20.3933],[86.8045,20.3942],[86.8052,20.3944],[86.8049,20.3933]]],[[[92.8905,20.3915],[92.8718,20.3864],[92.8496,20.3968],[92.8766,20.4023],[92.8905,20.3915]]],[[[86.7981,20.3886],[86.7908,20.4204],[86.8044,20.4361],[86.8072,20.4238],[86.7981,20.3886]]],[[[93.0225,20.4406],[93.0173,20.454],[93.0283,20.4594],[93.0225,20.4406]]],[[[92.8048,20.4859],[92.7928,20.4945],[92.7973,20.4995],[92.8048,20.4859]]],[[[93.1093,20.4186],[93.0785,20.4073],[93.0778,20.3641],[93.0435,20.3504],[93.0351,20.3909],[93.0851,20.5053],[93.1093,20.4186]]],[[[72.883,20.508],[72.8835,20.5091],[72.8835,20.5083],[72.883,20.508]]],[[[93.0411,20.4872],[93.0444,20.5033],[93.0566,20.5153],[93.0411,20.4872]]],[[[92.7132,20.572],[92.7008,20.5817],[92.698,20.6001],[92.7075,20.5919],[92.7132,20.572]]],[[[92.6335,20.6965],[92.6086,20.6838],[92.5844,20.7087],[92.6185,20.7141],[92.6353,20.7243],[92.6335,20.6965]]],[[[92.5627,20.7432],[92.5806,20.749],[92.5749,20.7317],[92.5864,20.7294],[92.5754,20.7211],[92.5491,20.7402],[92.5512,20.757],[92.5627,20.7432]]],[[[72.9412,20.7674],[72.9344,20.7712],[72.9366,20.7718],[72.9412,20.7674]]],[[[92.2969,20.9277],[92.2815,20.9489],[92.3007,20.9774],[92.3098,20.9528],[92.2969,20.9277]]],[[[92.3326,20.9939],[92.3553,20.9436],[92.3145,20.9072],[92.3036,20.9269],[92.3159,20.9543],[92.3067,20.9822],[92.3326,20.9939]]],[[[72.6759,21.0773],[72.6692,21.0781],[72.6749,21.0808],[72.6759,21.0773]]],[[[92.2201,21.109],[92.211,21.1081],[92.2168,21.1148],[92.2201,21.109]]],[[[92.2179,21.1304],[92.2124,21.1257],[92.2076,21.1318],[92.2179,21.1304]]],[[[72.683,21.1081],[72.6743,21.1286],[72.6971,21.1414],[72.6959,21.129],[72.683,21.1081]]],[[[72.6684,21.1542],[72.646,21.0836],[72.6318,21.0837],[72.6179,21.1283],[72.6684,21.1542]]],[[[72.639,21.2741],[72.6202,21.271],[72.6254,21.2826],[72.639,21.2741]]],[[[72.6285,21.3343],[72.6204,21.3316],[72.6268,21.3382],[72.6285,21.3343]]],[[[88.4944,21.585],[88.5417,21.5773],[88.5383,21.5258],[88.4864,21.5467],[88.4944,21.585]]],[[[88.5654,21.556],[88.5186,21.5997],[88.5266,21.6569],[88.5929,21.607],[88.5654,21.556]]],[[[72.881,21.6764],[72.8605,21.6794],[72.8816,21.677],[72.881,21.6764]]],[[[88.3518,21.6872],[88.3508,21.6151],[88.3264,21.6021],[88.316,21.615],[88.3233,21.7035],[88.3518,21.6872]]],[[[88.5277,21.7156],[88.572,21.6819],[88.5599,21.6377],[88.5332,21.6558],[88.5277,21.7156]]],[[[88.2186,21.6737],[88.2331,21.6742],[88.2393,21.647],[88.2218,21.6272],[88.2218,21.6019],[88.1876,21.6808],[88.2151,21.7158],[88.2211,21.7035],[88.2026,21.6903],[88.2186,21.6737]]],[[[88.762,21.6462],[88.7787,21.6526],[88.782,21.6162],[88.8062,21.5887],[88.7996,21.5749],[88.7391,21.5609],[88.7126,21.5765],[88.7252,21.6306],[88.6902,21.6844],[88.6971,21.7184],[88.7103,21.6829],[88.762,21.6462]]],[[[88.6178,21.7021],[88.6068,21.7143],[88.6287,21.7298],[88.6272,21.7145],[88.6178,21.7021]]],[[[88.2053,21.708],[88.2053,21.7202],[88.212,21.7319],[88.2152,21.722],[88.2053,21.708]]],[[[88.3078,21.7303],[88.3039,21.7241],[88.3026,21.7348],[88.3078,21.7303]]],[[[72.5694,21.753],[72.5944,21.7488],[72.5627,21.7445],[72.5694,21.753]]],[[[89.2843,21.7036],[89.2613,21.6969],[89.2926,21.6939],[89.2929,21.6686],[89.2631,21.65],[89.2016,21.6571],[89.2319,21.7014],[89.2199,21.7399],[89.2321,21.7508],[89.2917,21.7472],[89.2843,21.7036]]],[[[88.3724,21.7312],[88.4033,21.7103],[88.3778,21.6847],[88.3605,21.6916],[88.3486,21.7126],[88.3573,21.7176],[88.36,21.7617],[88.4005,21.7602],[88.3724,21.7312]]],[[[88.6157,21.7249],[88.5867,21.7213],[88.5905,21.7451],[88.5767,21.7655],[88.5901,21.774],[88.5909,21.7566],[88.6224,21.7421],[88.6157,21.7249]]],[[[88.2156,21.7564],[88.2088,21.741],[88.21,21.7763],[88.2156,21.7564]]],[[[72.5834,21.775],[72.5724,21.7741],[72.5815,21.7771],[72.5834,21.775]]],[[[88.6236,21.7669],[88.6278,21.7412],[88.5968,21.7582],[88.5945,21.7771],[88.6236,21.7669]]],[[[88.4679,21.7863],[88.4587,21.7307],[88.4733,21.6614],[88.4539,21.615],[88.4295,21.6003],[88.4483,21.6233],[88.427,21.6599],[88.4273,21.6899],[88.4436,21.7026],[88.4366,21.7671],[88.4564,21.7929],[88.4679,21.7863]]],[[[88.5301,21.7816],[88.5306,21.7941],[88.5323,21.7884],[88.5301,21.7816]]],[[[88.3183,21.7914],[88.3023,21.7881],[88.298,21.7928],[88.3183,21.7914]]],[[[88.3873,21.7702],[88.3684,21.7709],[88.3493,21.7566],[88.3528,21.7212],[88.3365,21.7285],[88.3345,21.7054],[88.3143,21.7168],[88.3144,21.7844],[88.3309,21.7847],[88.3603,21.7984],[88.3864,21.7918],[88.3873,21.7702]]],[[[88.5469,21.8165],[88.58,21.7201],[88.6154,21.679],[88.603,21.613],[88.5642,21.6419],[88.5808,21.6629],[88.5699,21.7091],[88.5469,21.7055],[88.5279,21.7218],[88.5469,21.8165]]],[[[88.4693,21.8171],[88.4614,21.8097],[88.4606,21.8159],[88.4693,21.8171]]],[[[89.5876,21.7062],[89.5581,21.7187],[89.5646,21.7513],[89.5312,21.8231],[89.5459,21.8493],[89.6102,21.7968],[89.5922,21.7519],[89.615,21.7253],[89.5876,21.7062]]],[[[89.7771,21.856],[89.7591,21.849],[89.7553,21.8507],[89.7771,21.856]]],[[[89.0899,21.8487],[89.0874,21.8596],[89.0904,21.8542],[89.0899,21.8487]]],[[[88.1917,21.8544],[88.1932,21.8362],[88.1811,21.8622],[88.1917,21.8544]]],[[[89.6582,21.8587],[89.6452,21.8735],[89.6541,21.8891],[89.6633,21.8709],[89.6582,21.8587]]],[[[88.1481,21.9127],[88.1446,21.9344],[88.1557,21.9241],[88.1481,21.9127]]],[[[90.0741,21.9717],[90.0953,21.9352],[90.0873,21.9],[90.1036,21.8865],[90.0653,21.8386],[90.0363,21.8539],[90.028,21.9386],[90.0387,21.9594],[90.0741,21.9717]]],[[[90.3055,21.9666],[90.2712,21.8834],[90.2458,21.8987],[90.2753,21.9425],[90.2679,21.9697],[90.2862,21.9815],[90.3055,21.9666]]],[[[90.0534,21.9715],[90.0484,21.973],[90.0561,21.9838],[90.0534,21.9715]]],[[[88.6834,22.0024],[88.7183,22.0017],[88.6997,21.9584],[88.6871,21.9454],[88.6418,21.9509],[88.649,22.0036],[88.6639,22.0153],[88.6834,22.0024]]],[[[88.6877,22.0147],[88.6742,22.014],[88.6743,22.0171],[88.6877,22.0147]]],[[[90.0072,22.0574],[90.0208,22.0858],[90.0183,22.0663],[90.0072,22.0574]]],[[[90.3372,22.1035],[90.3754,22.0956],[90.3076,21.9737],[90.2821,21.985],[90.284,22.0554],[90.3145,22.0777],[90.3159,22.086],[90.3473,22.0893],[90.3372,22.1035]]],[[[90.4061,22.1775],[90.4063,22.1974],[90.4185,22.188],[90.4061,22.1775]]],[[[90.3831,22.1366],[90.3408,22.1621],[90.3889,22.2061],[90.3963,22.165],[90.3831,22.1366]]],[[[91.8215,22.2134],[91.8151,22.214],[91.8228,22.2236],[91.8215,22.2134]]],[[[72.3164,22.1915],[72.3002,22.1967],[72.3035,22.2264],[72.3164,22.1915]]],[[[90.537,22.1923],[90.5586,22.2297],[90.5654,22.2312],[90.56,22.2039],[90.537,22.1923]]],[[[90.575,22.2311],[90.5686,22.2396],[90.5825,22.2508],[90.5841,22.2483],[90.575,22.2311]]],[[[91.8201,22.2775],[91.7995,22.2839],[91.806,22.2983],[91.8201,22.2775]]],[[[90.2892,22.3548],[90.2713,22.3515],[90.2864,22.3644],[90.2892,22.3548]]],[[[69.086,22.4197],[69.0959,22.4414],[69.097,22.4601],[69.1055,22.4347],[69.086,22.4197]]],[[[90.5968,22.4481],[90.5968,22.4524],[90.6023,22.4613],[90.5968,22.4481]]],[[[91.2507,22.6313],[91.2556,22.6161],[91.2242,22.5852],[91.2173,22.6408],[91.2507,22.6313]]],[[[91.1577,22.58],[91.0981,22.5802],[91.0912,22.595],[91.141,22.6642],[91.1719,22.6049],[91.1577,22.58]]],[[[91.1284,22.6708],[91.0886,22.5983],[91.0903,22.5817],[91.0705,22.5856],[91.0582,22.6391],[91.0449,22.636],[91.0554,22.6978],[91.1122,22.7],[91.1284,22.6708]]],[[[91.0417,22.677],[91.0194,22.6926],[91.0181,22.7025],[91.0462,22.7046],[91.0417,22.677]]],[[[91.268,22.7307],[91.2996,22.7012],[91.2664,22.669],[91.2165,22.7007],[91.2358,22.7099],[91.2122,22.7042],[91.1311,22.7361],[91.1898,22.7493],[91.268,22.7307]]],[[[91.3411,22.7184],[91.3104,22.7451],[91.3124,22.7514],[91.3475,22.7548],[91.3544,22.7304],[91.3411,22.7184]]],[[[90.9414,22.8032],[91.0202,22.7154],[91.0079,22.7052],[90.9757,22.7222],[90.9658,22.7155],[91.0357,22.6706],[91.0292,22.642],[91.0583,22.5879],[90.9828,22.5683],[90.9483,22.5783],[90.8474,22.6726],[90.8337,22.7293],[90.7969,22.7739],[90.8751,22.8055],[90.9414,22.8032]]],[[[90.348,22.9398],[90.3131,22.9459],[90.2948,22.9664],[90.3136,22.9686],[90.348,22.9398]]],[[[90.368,22.9212],[90.3518,22.9514],[90.3227,22.9696],[90.3564,22.9623],[90.368,22.9212]]],[[[70.3752,22.9592],[70.3896,22.9602],[70.3834,22.9427],[70.351,22.9316],[70.3033,22.9451],[70.385,22.996],[70.392,22.971],[70.3752,22.9592]]],[[[90.4512,22.9721],[90.4551,23.0016],[90.4817,22.9647],[90.473,22.8806],[90.4389,22.8094],[90.4278,22.8417],[90.3951,22.8281],[90.3903,22.8528],[90.4218,22.8989],[90.4173,22.9162],[90.3845,22.856],[90.3951,22.7999],[90.4151,22.7819],[90.3844,22.7899],[90.42,22.7752],[90.3999,22.7644],[90.3323,22.8477],[90.3807,22.9075],[90.3533,22.9932],[90.4309,22.9917],[90.4512,22.9721]]],[[[90.4295,22.9979],[90.4198,23.0042],[90.4418,23.0056],[90.4295,22.9979]]],[[[90.4052,23.0052],[90.3919,23.0089],[90.4172,23.0099],[90.4052,23.0052]]],[[[70.3744,23.0335],[70.3961,23.0206],[70.3753,23.0222],[70.3744,23.0335]]],[[[70.3994,23.0358],[70.4016,23.0392],[70.4029,23.036],[70.3994,23.0358]]],[[[90.3079,23.0375],[90.2751,23.039],[90.2918,23.0496],[90.3079,23.0375]]],[[[70.3915,23.0352],[70.3788,23.036],[70.3679,23.0431],[70.3954,23.0582],[70.3915,23.0352]]],[[[90.5131,23.0812],[90.5003,23.1001],[90.5168,23.1384],[90.5241,23.0914],[90.5131,23.0812]]],[[[90.4691,23.1551],[90.4774,23.1301],[90.4571,23.1226],[90.4691,23.1551]]],[[[90.5753,23.0869],[90.5673,23.1188],[90.6144,23.1995],[90.5961,23.1106],[90.5753,23.0869]]],[[[90.5338,23.169],[90.545,23.1982],[90.5412,23.1433],[90.5221,23.1767],[90.5317,23.2004],[90.5338,23.169]]],[[[90.4922,23.0819],[90.4684,23.097],[90.4467,23.0651],[90.4435,23.1068],[90.4907,23.1312],[90.4643,23.1915],[90.4687,23.2012],[90.4725,23.1855],[90.5053,23.1688],[90.4922,23.0819]]],[[[90.5569,23.16],[90.5541,23.1765],[90.5756,23.2083],[90.5761,23.1787],[90.5569,23.16]]],[[[90.5566,23.1903],[90.5544,23.2059],[90.5569,23.2114],[90.5661,23.2048],[90.5566,23.1903]]],[[[90.5963,23.2287],[90.5835,23.218],[90.5954,23.2312],[90.5963,23.2287]]],[[[90.5578,23.2282],[90.5631,23.2392],[90.5731,23.2392],[90.5705,23.2357],[90.5578,23.2282]]],[[[90.5803,23.239],[90.5713,23.2467],[90.5838,23.26],[90.586,23.2534],[90.5803,23.239]]],[[[90.5004,23.1797],[90.4761,23.1948],[90.5004,23.2449],[90.4934,23.2995],[90.5448,23.295],[90.5409,23.2371],[90.5004,23.1797]]],[[[90.1766,23.3369],[90.2574,23.3069],[90.2335,23.2961],[90.2286,23.2652],[90.1662,23.2687],[90.1826,23.2415],[90.1276,23.2454],[90.1311,23.2632],[90.1245,23.2738],[90.0893,23.2811],[90.1766,23.3369]]],[[[90.4497,23.3152],[90.4206,23.3182],[90.4083,23.3383],[90.4497,23.3152]]],[[[90.6782,23.3582],[90.6734,23.3486],[90.6782,23.3582],[90.6782,23.3582]]],[[[90.3749,23.3544],[90.4122,23.3025],[90.4838,23.2994],[90.4857,23.2465],[90.4512,23.1977],[90.4659,23.1672],[90.4338,23.1001],[90.4477,23.028],[90.3609,23.0111],[90.3426,22.9819],[90.326,22.9816],[90.3088,23.0538],[90.3259,23.0679],[90.3326,23.1087],[90.3229,23.1024],[90.2729,23.1468],[90.267,23.1328],[90.2905,23.1207],[90.2538,23.1253],[90.2445,23.1379],[90.2657,23.1601],[90.2142,23.1915],[90.1842,23.1708],[90.1781,23.1892],[90.2071,23.2097],[90.2108,23.224],[90.1721,23.262],[90.233,23.2607],[90.2526,23.2882],[90.24,23.2931],[90.2866,23.3161],[90.2985,23.35],[90.327,23.366],[90.3749,23.3544]]],[[[90.3673,23.3697],[90.3716,23.3623],[90.3673,23.3697],[90.3673,23.3697]]],[[[90.3463,23.3767],[90.3214,23.3768],[90.2989,23.3679],[90.3205,23.3807],[90.3463,23.3767]]],[[[90.1966,23.3718],[90.1883,23.3811],[90.1897,23.386],[90.1966,23.3718]]],[[[90.553,23.3899],[90.5459,23.3847],[90.553,23.3901],[90.553,23.3899]]],[[[90.4948,23.3982],[90.4858,23.3961],[90.4761,23.398],[90.4948,23.3982]]],[[[90.184,23.3987],[90.1658,23.4199],[90.1682,23.4225],[90.184,23.3987]]],[[[90.1768,23.4246],[90.167,23.4337],[90.1686,23.4386],[90.1768,23.4246]]],[[[90.3316,23.3845],[90.286,23.3796],[90.2958,23.3708],[90.2708,23.3264],[90.2139,23.3613],[90.245,23.326],[90.2056,23.3503],[90.1836,23.4498],[90.3316,23.3845]]],[[[90.575,23.4434],[90.5686,23.4417],[90.5742,23.4501],[90.575,23.4434]]],[[[90.2377,23.4724],[90.2303,23.4706],[90.2255,23.4789],[90.2377,23.4724]]],[[[90.5591,23.449],[90.544,23.4542],[90.5431,23.4795],[90.5615,23.4807],[90.5591,23.449]]],[[[90.6084,23.4913],[90.6132,23.4946],[90.6248,23.496],[90.6084,23.4913]]],[[[90.199,23.4973],[90.1865,23.4972],[90.1838,23.503],[90.199,23.4973]]],[[[90.6457,23.5019],[90.6435,23.5019],[90.6464,23.5055],[90.6457,23.5019]]],[[[90.5756,23.5199],[90.5607,23.5261],[90.5573,23.5384],[90.5756,23.5199]]],[[[90.5668,23.5437],[90.5605,23.5472],[90.5652,23.547],[90.5668,23.5437]]],[[[90.6922,23.5491],[90.6906,23.5452],[90.6922,23.5491],[90.6922,23.5491]]],[[[90.7022,23.5521],[90.7033,23.5523],[90.7032,23.5521],[90.7022,23.5521]]],[[[90.6949,23.5552],[90.6936,23.5641],[90.6992,23.5613],[90.6949,23.5552]]],[[[90.4697,23.5534],[90.4532,23.549],[90.4394,23.5536],[90.4698,23.5718],[90.4697,23.5534]]],[[[90.6905,23.568],[90.6789,23.5747],[90.6805,23.5794],[90.6905,23.568]]],[[[68.2266,23.5838],[68.2222,23.5844],[68.2215,23.5869],[68.2266,23.5838]]],[[[90.5691,23.5895],[90.5706,23.5906],[90.5728,23.5908],[90.5691,23.5895]]],[[[90.4258,23.5723],[90.408,23.5882],[90.4039,23.6053],[90.4199,23.5975],[90.4258,23.5723]]],[[[90.4335,23.558],[90.4244,23.6027],[90.431,23.6061],[90.4432,23.5992],[90.4335,23.558]]],[[[90.4844,23.5823],[90.5024,23.5851],[90.4538,23.5754],[90.4478,23.6043],[90.4844,23.5823]]],[[[90.6517,23.606],[90.6827,23.5581],[90.6669,23.5693],[90.6945,23.5158],[90.6669,23.5232],[90.5973,23.4939],[90.5867,23.5467],[90.6111,23.5842],[90.5984,23.5943],[90.6517,23.606]]],[[[90.405,23.6106],[90.3909,23.6159],[90.4177,23.611],[90.405,23.6106]]],[[[90.1143,23.5944],[90.0967,23.6051],[90.0878,23.6174],[90.1101,23.6069],[90.1143,23.5944]]],[[[68.431,23.5774],[68.423,23.6096],[68.4574,23.6172],[68.4612,23.6033],[68.431,23.5774]]],[[[90.6195,23.6099],[90.6019,23.6062],[90.6261,23.6259],[90.6195,23.6099]]],[[[68.2007,23.6424],[68.2567,23.6335],[68.2488,23.5805],[68.1659,23.6031],[68.1719,23.6289],[68.2007,23.6424]]],[[[90.6769,23.6476],[90.7322,23.6524],[90.7598,23.6309],[90.7358,23.627],[90.7284,23.5956],[90.6956,23.5734],[90.6684,23.59],[90.6536,23.6235],[90.6585,23.6553],[90.6769,23.6476]]],[[[90.6474,23.6139],[90.6317,23.6169],[90.6427,23.6569],[90.6634,23.6642],[90.6503,23.6477],[90.6474,23.6139]]],[[[90.6841,23.6613],[90.6694,23.6627],[90.6724,23.669],[90.6841,23.6613]]],[[[90.6641,23.6736],[90.6529,23.6724],[90.6474,23.6798],[90.6641,23.6736]]],[[[90.7168,23.6598],[90.7013,23.6627],[90.6913,23.6714],[90.7264,23.6788],[90.7168,23.6598]]],[[[89.932,23.6851],[89.902,23.7014],[89.8987,23.7073],[89.9318,23.6995],[89.932,23.6851]]],[[[89.8689,23.7137],[89.8656,23.7067],[89.8625,23.712],[89.8689,23.7137]]],[[[90.7331,23.6942],[90.6945,23.6848],[90.7145,23.7266],[90.7331,23.6942]]],[[[89.8686,23.7271],[89.8652,23.7226],[89.8641,23.7265],[89.8686,23.7271]]],[[[89.8568,23.7306],[89.8515,23.7281],[89.8513,23.7308],[89.8568,23.7306]]],[[[90.3547,23.715],[90.3412,23.7247],[90.3291,23.7271],[90.3466,23.7315],[90.3547,23.715]]],[[[68.4538,23.7302],[68.4586,23.7341],[68.4602,23.7334],[68.4538,23.7302]]],[[[90.3778,23.6956],[90.4183,23.6844],[90.4643,23.628],[90.4239,23.6183],[90.4349,23.637],[90.429,23.6418],[90.415,23.624],[90.3878,23.6461],[90.3978,23.6253],[90.3645,23.63],[90.288,23.6726],[90.2618,23.7243],[90.2876,23.7327],[90.3085,23.7608],[90.313,23.7323],[90.3778,23.6956]]],[[[89.8001,23.7322],[89.786,23.7414],[89.7868,23.7639],[89.7904,23.7596],[89.8001,23.7322]]],[[[90.2259,23.725],[90.2118,23.7551],[90.2416,23.792],[90.2522,23.7467],[90.2259,23.725]]],[[[89.741,23.7775],[89.6852,23.7895],[89.6826,23.8011],[89.718,23.8016],[89.741,23.7775]]],[[[89.6648,23.8039],[89.6752,23.7892],[89.6375,23.7862],[89.6373,23.7995],[89.6648,23.8039]]],[[[89.7791,23.7421],[89.7587,23.7631],[89.7438,23.8037],[89.7758,23.7887],[89.7791,23.7421]]],[[[89.6167,23.8034],[89.5991,23.8055],[89.5465,23.7973],[89.595,23.8151],[89.6167,23.8034]]],[[[89.5236,23.8188],[89.5155,23.7856],[89.4879,23.8167],[89.4901,23.8208],[89.5236,23.8188]]],[[[68.2576,23.8557],[68.2474,23.8543],[68.2581,23.8653],[68.2576,23.8557]]],[[[90.1436,23.827],[90.176,23.8211],[90.2026,23.8355],[90.2338,23.8213],[90.2236,23.8068],[90.2054,23.8221],[90.1823,23.8071],[90.1342,23.812],[90.0872,23.8364],[90.1157,23.8541],[90.1171,23.8704],[90.1436,23.827]]],[[[68.246,23.86],[68.2076,23.8464],[68.2144,23.8683],[68.2387,23.8734],[68.246,23.86]]],[[[89.3479,23.8867],[89.3177,23.8867],[89.3147,23.893],[89.3479,23.8867]]],[[[89.4109,23.9196],[89.3791,23.9063],[89.3758,23.9121],[89.398,23.9267],[89.4109,23.9196]]],[[[89.7311,23.8789],[89.6953,23.9025],[89.6912,23.932],[89.7101,23.9194],[89.7311,23.8789]]],[[[89.3709,23.9404],[89.3556,23.8929],[89.3149,23.8989],[89.2906,23.9388],[89.3709,23.9404]]],[[[89.2496,23.9423],[89.2298,23.9463],[89.2358,23.9322],[89.2241,23.9316],[89.1825,23.9548],[89.2245,23.9607],[89.2496,23.9423]]],[[[89.1722,23.9906],[89.1418,23.9903],[89.1391,23.9934],[89.1568,23.9991],[89.1722,23.9906]]],[[[98.0,14.3023],[97.9679,14.3955],[98.0,14.4789],[98.0,14.3023]]],[[[97.9963,14.4786],[97.9654,14.4261],[97.9407,14.5262],[97.9058,14.5783],[97.9134,14.6195],[97.9047,14.6107],[97.8728,14.671],[97.8944,14.7054],[97.8855,14.723],[97.8678,14.7078],[97.8392,14.7187],[97.7918,14.8683],[97.8083,14.9501],[97.7969,14.9973],[97.8132,15.0062],[97.8244,15.0243],[97.791,14.9984],[97.7707,15.0183],[97.7958,15.0271],[97.8063,15.1503],[97.787,15.1795],[97.7951,15.1903],[97.7653,15.1971],[97.7387,15.2445],[97.7417,15.295],[97.7215,15.3328],[97.7275,15.3548],[97.7469,15.3561],[97.7465,15.3837],[97.7828,15.397],[97.7408,15.4871],[97.762,15.5281],[97.6994,15.7541],[97.7217,15.7717],[97.7179,15.8434],[97.6754,15.9144],[97.6103,15.949],[97.6035,15.9803],[97.5713,16.0108],[97.5582,16.0726],[97.5967,16.0851],[97.6143,16.0611],[97.6277,16.0504],[97.648,16.0442],[97.6654,16.0486],[97.6772,16.0283],[97.6969,16.0275],[97.6673,16.0521],[97.6202,16.0587],[97.6072,16.1036],[97.5978,16.097],[97.6438,16.27],[97.6155,16.3556],[97.6294,16.3873],[97.6141,16.4256],[97.6284,16.4532],[97.6253,16.5],[97.6621,16.5123],[97.6624,16.4765],[97.6823,16.4655],[97.7025,16.4706],[97.7044,16.4501],[97.7232,16.4502],[97.7198,16.4268],[97.7539,16.4141],[97.7355,16.4023],[97.7334,16.3833],[97.7784,16.3746],[97.7974,16.354],[97.7858,16.3396],[97.7874,16.3327],[97.8346,16.3236],[97.8601,16.2918],[97.8887,16.2862],[97.8521,16.3024],[97.8441,16.3234],[97.7924,16.3327],[97.8031,16.3534],[97.7905,16.3703],[97.7614,16.386],[97.7372,16.386],[97.7578,16.4177],[97.7289,16.4247],[97.7259,16.4541],[97.7068,16.4536],[97.7023,16.474],[97.6641,16.48],[97.6755,16.5007],[97.6684,16.5455],[97.7465,16.5616],[97.7089,16.5706],[97.6685,16.5549],[97.6441,16.6134],[97.6214,16.6433],[97.6077,16.581],[97.6264,16.5585],[97.6215,16.5187],[97.5325,16.5376],[97.4885,16.5387],[97.481,16.5218],[97.3928,16.5251],[97.3629,16.479],[97.3284,16.6589],[97.3466,16.6471],[97.3939,16.64],[97.4108,16.6424],[97.424,16.6584],[97.3927,16.6437],[97.3457,16.6544],[97.3406,16.6666],[97.3578,16.6694],[97.3476,16.6786],[97.328,16.667],[97.3301,16.6963],[97.3439,16.6953],[97.3419,16.7341],[97.3403,16.7095],[97.3207,16.7102],[97.3185,16.668],[97.2772,16.6862],[97.2398,16.7684],[97.2498,16.8225],[97.2349,16.8088],[97.2226,16.8417],[97.227,16.8573],[97.2664,16.8442],[97.2781,16.8505],[97.2659,16.8701],[97.265,16.8481],[97.2228,16.8672],[97.2092,16.8129],[97.1998,16.8823],[97.218,16.9017],[97.2191,16.9379],[97.1906,16.8911],[97.1748,16.8905],[97.1693,16.9107],[97.2072,17.008],[97.1547,17.0678],[97.1533,17.0952],[97.1909,17.1169],[97.2134,17.0874],[97.2645,17.1035],[97.2278,17.1029],[97.2063,17.1338],[97.1791,17.1294],[97.1365,17.1162],[97.1343,17.0806],[97.1143,17.0778],[97.0887,17.1652],[97.1067,17.1878],[97.0833,17.1817],[97.0592,17.2533],[97.0003,17.2667],[97.0091,17.3],[96.9116,17.357],[96.8832,17.4541],[96.8649,17.3961],[96.8417,17.3905],[96.849,17.4134],[96.8209,17.4331],[96.7918,17.4904],[96.7344,17.4353],[96.7735,17.3763],[96.7225,17.3474],[96.6924,17.3664],[96.6584,17.3486],[96.6488,17.3303],[96.6683,17.2691],[96.6962,17.2479],[96.7086,17.2545],[96.6769,17.2675],[96.6854,17.3453],[96.725,17.3382],[96.8366,17.3809],[96.8401,17.3648],[96.8443,17.3762],[96.8597,17.3615],[96.856,17.3431],[96.863,17.3527],[96.9111,17.3215],[96.8907,17.3119],[96.9129,17.3049],[96.9024,17.2717],[96.8335,17.2052],[96.8487,17.2008],[96.8771,17.1123],[96.9001,17.0889],[96.9121,17.0177],[96.8737,16.911],[96.8383,16.9272],[96.8509,16.9591],[96.8346,16.9511],[96.8316,16.9194],[96.8552,16.8877],[96.8359,16.9046],[96.8251,16.8937],[96.8072,16.9106],[96.7967,16.9065],[96.8333,16.8788],[96.8531,16.8372],[96.8078,16.7555],[96.7808,16.7818],[96.7746,16.7731],[96.8013,16.7397],[96.7713,16.6916],[96.5964,16.5366],[96.4938,16.5046],[96.3837,16.4966],[96.2847,16.5537],[96.2867,16.5918],[96.3336,16.6234],[96.4268,16.6076],[96.4699,16.6127],[96.3313,16.6287],[96.2874,16.6001],[96.2778,16.5775],[96.2638,16.6474],[96.2348,16.6789],[96.2228,16.7542],[96.3156,16.8334],[96.3456,16.8333],[96.3941,16.8594],[96.4084,16.8552],[96.4861,16.8699],[96.5119,16.8882],[96.4839,16.8731],[96.3948,16.864],[96.3244,16.8384],[96.32,16.869],[96.3477,16.9059],[96.3007,16.8637],[96.298,16.8408],[96.2776,16.8693],[96.3037,16.8261],[96.2035,16.7632],[96.1847,16.7765],[96.195,16.7898],[96.1915,16.7999],[96.2124,16.7983],[96.2246,16.8111],[96.2182,16.8412],[96.2089,16.8458],[96.2203,16.8109],[96.1917,16.8059],[96.1802,16.7767],[96.1973,16.7597],[96.1288,16.7711],[96.1207,16.8138],[96.1155,16.8122],[96.1319,16.7589],[96.119,16.7566],[96.1921,16.7409],[96.2157,16.6707],[96.2461,16.636],[96.2365,16.6078],[96.1735,16.5831],[96.1736,16.5163],[96.1926,16.4892],[96.1754,16.4635],[96.1417,16.4537],[96.1628,16.4177],[96.0771,16.3572],[96.0173,16.3845],[95.9964,16.4107],[95.9121,16.4109],[95.9275,16.385],[95.9059,16.3295],[95.8912,16.2446],[95.7785,16.1291],[95.7544,16.1266],[95.7403,16.1452],[95.7269,16.264],[95.7096,16.2731],[95.7229,16.2566],[95.7382,16.1126],[95.6966,16.046],[95.6878,15.9908],[95.5225,15.8011],[95.4286,15.7297],[95.3786,15.71],[95.2905,15.7244],[95.2778,15.7933],[95.2794,15.835],[95.3222,15.881],[95.3399,15.88],[95.3355,15.8985],[95.3479,15.8805],[95.3809,15.8721],[95.3989,15.8768],[95.4126,15.9057],[95.3871,15.8768],[95.3534,15.8849],[95.3468,15.9059],[95.3315,15.8981],[95.3356,15.8829],[95.3242,15.8856],[95.36,15.9689],[95.3665,16.0524],[95.3962,16.0616],[95.3663,16.0573],[95.3644,16.1012],[95.338,16.1068],[95.3705,16.1492],[95.3907,16.2396],[95.3263,16.1926],[95.306,16.1581],[95.3266,16.0873],[95.2792,16.0394],[95.2336,15.9378],[95.2101,15.8565],[95.2209,15.7894],[95.1719,15.7767],[95.1367,15.795],[95.111,15.9017],[95.1332,16.0193],[95.1896,16.0246],[95.1927,16.0799],[95.2671,16.1495],[95.2218,16.1237],[95.187,16.135],[95.2079,16.1777],[95.1799,16.1374],[95.1362,16.1364],[95.1442,16.168],[95.1293,16.2051],[95.1408,16.2315],[95.1236,16.2067],[95.1216,16.1247],[95.0561,16.0355],[95.0701,15.944],[95.037,15.8038],[95.0011,15.7787],[94.9868,15.7848],[94.9842,15.8484],[94.9839,15.7683],[94.9647,15.7536],[94.8458,15.7833],[94.8468,15.8085],[94.8893,15.8274],[94.8713,15.8954],[94.9508,15.9456],[94.9443,15.9536],[94.8637,15.8967],[94.873,15.8249],[94.849,15.8302],[94.8549,15.8884],[94.8364,15.9564],[94.8725,16.0],[94.9145,16.0],[94.9218,16.0306],[94.9054,16.0747],[94.9333,16.0862],[94.9555,16.131],[95.0226,16.135],[95.0225,16.1603],[95.0557,16.1994],[95.0566,16.216],[95.0465,16.2391],[95.0693,16.2458],[95.1006,16.3006],[95.0652,16.2477],[95.0432,16.2457],[95.0479,16.1971],[95.0137,16.1616],[95.0162,16.1437],[94.9529,16.1388],[94.9304,16.0942],[94.903,16.083],[94.9154,16.0299],[94.8918,16.0061],[94.8656,16.1351],[94.8888,16.1818],[94.9573,16.1962],[95.0257,16.2628],[95.0421,16.3097],[95.0649,16.3114],[95.0509,16.3127],[95.0505,16.3334],[95.0165,16.2669],[94.9522,16.211],[94.8727,16.1872],[94.8388,16.1108],[94.8497,16.0723],[94.8395,16.0663],[94.7987,15.989],[94.7995,15.9677],[94.7214,15.8542],[94.6975,15.8425],[94.6505,15.8542],[94.6042,15.9214],[94.6697,15.9557],[94.7255,16.0083],[94.7704,16.0958],[94.7845,16.0965],[94.7743,16.1033],[94.8071,16.1998],[94.8411,16.215],[94.8519,16.2428],[94.8035,16.2062],[94.6841,16.0],[94.5759,15.9309],[94.5603,15.9419],[94.6846,16.1148],[94.6834,16.2056],[94.7209,16.2029],[94.7589,16.2373],[94.7395,16.2574],[94.7567,16.2809],[94.7336,16.2564],[94.7496,16.2377],[94.7262,16.2305],[94.7192,16.2091],[94.6718,16.2224],[94.6636,16.2472],[94.6981,16.2454],[94.7087,16.2549],[94.7058,16.2669],[94.6983,16.2493],[94.6636,16.2541],[94.6677,16.2693],[94.6827,16.2978],[94.6881,16.3066],[94.6989,16.3555],[94.7372,16.354],[94.7548,16.3841],[94.7858,16.3564],[94.8134,16.3559],[94.8254,16.3704],[94.7948,16.3601],[94.7519,16.3905],[94.7347,16.3608],[94.7195,16.3662],[94.7242,16.3986],[94.7432,16.4022],[94.75,16.4194],[94.7586,16.4096],[94.7705,16.4093],[94.7839,16.4261],[94.7588,16.4138],[94.7478,16.4265],[94.7126,16.3942],[94.6959,16.4757],[94.7404,16.5202],[94.7463,16.569],[94.7898,16.5778],[94.8004,16.5907],[94.7465,16.5768],[94.7237,16.5101],[94.6898,16.4927],[94.6782,16.5132],[94.7012,16.5517],[94.7103,16.6135],[94.7423,16.6328],[94.7216,16.6872],[94.7447,16.6957],[94.7416,16.7301],[94.7218,16.7336],[94.738,16.7245],[94.7361,16.7004],[94.7173,16.6913],[94.7098,16.6537],[94.733,16.629],[94.6784,16.6436],[94.6989,16.6797],[94.6889,16.7396],[94.6936,16.6767],[94.6754,16.6933],[94.6823,16.6714],[94.6688,16.6524],[94.6511,16.6702],[94.6557,16.6579],[94.6743,16.6497],[94.6581,16.6276],[94.6913,16.6391],[94.7012,16.6217],[94.6924,16.5549],[94.6644,16.5184],[94.6796,16.3932],[94.6529,16.3403],[94.6233,16.338],[94.6403,16.3835],[94.6062,16.3372],[94.5998,16.2809],[94.5691,16.2861],[94.5566,16.2708],[94.5355,16.2979],[94.5464,16.308],[94.5142,16.2893],[94.5086,16.1819],[94.4336,16.0697],[94.3681,16.0546],[94.3419,16.0163],[94.2827,16.0],[94.2622,15.9621],[94.2455,15.96],[94.1997,16.0325],[94.2285,16.252],[94.2433,16.2647],[94.2361,16.3486],[94.2484,16.348],[94.2469,16.3774],[94.3021,16.5179],[94.3433,16.5467],[94.368,16.6149],[94.3759,16.7572],[94.4039,16.7885],[94.3788,16.8748],[94.3885,16.907],[94.4106,16.8895],[94.4434,16.9306],[94.484,16.9432],[94.4782,16.9576],[94.443,16.9481],[94.4582,16.9806],[94.4567,17.0673],[94.4896,17.1177],[94.4558,17.1417],[94.4447,17.179],[94.4644,17.1882],[94.4993,17.1568],[94.5216,17.1687],[94.5363,17.1869],[94.5014,17.2162],[94.5083,17.2999],[94.5264,17.2768],[94.5464,17.2903],[94.5409,17.319],[94.5815,17.2885],[94.5917,17.3042],[94.5715,17.3171],[94.5654,17.4983],[94.5427,17.5553],[94.563,17.5931],[94.6099,17.5365],[94.6112,17.5501],[94.5769,17.5914],[94.5884,17.6192],[94.5692,17.6453],[94.5588,17.6362],[94.5416,17.6813],[94.5448,17.7349],[94.4897,17.7824],[94.4815,17.9029],[94.4375,17.9956],[94.4777,18.0065],[94.4847,18.0557],[94.4469,18.1691],[94.4198,18.1937],[94.4268,18.2197],[94.4075,18.2462],[94.3372,18.2416],[94.322,18.2642],[94.3284,18.302],[94.3911,18.2835],[94.4074,18.3107],[94.4023,18.3463],[94.3816,18.3656],[94.3376,18.3662],[94.3225,18.4359],[94.2492,18.5245],[94.2626,18.5486],[94.2513,18.5468],[94.2579,18.6085],[94.2402,18.6458],[94.1409,18.736],[94.1744,18.714],[94.1745,18.7283],[94.2197,18.7182],[94.28,18.7351],[94.253,18.7341],[94.2492,18.7552],[94.2388,18.7347],[94.2169,18.731],[94.2064,18.7431],[94.2243,18.7812],[94.2039,18.7527],[94.1916,18.7712],[94.1993,18.7931],[94.1831,18.7796],[94.1465,18.8144],[94.1762,18.8347],[94.1458,18.8353],[94.1523,18.8795],[94.1696,18.89],[94.1467,18.8848],[94.127,18.8567],[94.1169,18.8566],[94.1287,18.8786],[94.0553,18.8461],[94.0309,18.8633],[94.0439,18.8846],[94.0738,18.8676],[94.0906,18.8806],[94.1057,18.8997],[94.1353,18.892],[94.1086,18.9296],[94.113,18.9662],[94.0864,18.8798],[94.0315,18.8964],[94.0552,18.9352],[94.0364,18.9913],[94.0632,19.0376],[94.0586,19.0598],[94.1021,19.0766],[94.0897,19.085],[94.097,19.0986],[94.1228,19.0846],[94.109,19.1051],[94.1466,19.1191],[94.1161,19.1204],[94.0545,19.0754],[94.0272,19.0792],[94.0375,19.1067],[94.1385,19.1514],[94.1357,19.1796],[94.1295,19.1561],[94.1075,19.1513],[94.0927,19.1822],[94.0911,19.1484],[94.0648,19.1263],[94.0735,19.165],[94.0624,19.1881],[94.0568,19.1255],[94.0329,19.1296],[94.0492,19.2206],[94.0711,19.2339],[94.0469,19.2483],[94.042,19.3002],[94.0763,19.3661],[94.0715,19.3837],[94.0687,19.3706],[94.0394,19.3453],[94.0315,19.3281],[94.0355,19.2177],[94.0163,19.1814],[93.9914,19.2229],[94.005,19.1555],[93.9663,19.1395],[93.9438,19.1562],[93.938,19.2012],[93.9092,19.1995],[93.9677,19.1238],[93.9534,19.0885],[93.9557,19.0208],[93.9858,18.9614],[93.9559,18.9192],[93.9596,18.8981],[93.9399,18.8857],[93.9373,18.8473],[93.8923,18.8923],[93.7345,18.9786],[93.6863,19.0813],[93.7011,19.1057],[93.6976,19.1146],[93.7476,19.1212],[93.6942,19.1196],[93.6828,19.0886],[93.6348,19.1881],[93.6053,19.3238],[93.6214,19.3411],[93.6672,19.3022],[93.6417,19.2398],[93.6446,19.2238],[93.6815,19.3001],[93.7215,19.2926],[93.6948,19.2819],[93.7269,19.2754],[93.7207,19.2445],[93.739,19.2567],[93.809,19.2263],[93.8733,19.2466],[93.9559,19.3061],[93.9498,19.3369],[93.9722,19.3514],[93.9817,19.385],[94.0108,19.381],[93.9834,19.4055],[93.9663,19.3584],[93.8921,19.2916],[93.8817,19.3076],[93.9191,19.3345],[93.9218,19.3772],[93.9111,19.3353],[93.8842,19.3196],[93.8889,19.3534],[93.8589,19.3878],[93.8824,19.3531],[93.8692,19.3068],[93.7751,19.301],[93.7392,19.345],[93.7463,19.3542],[93.7753,19.3403],[93.78,19.3542],[93.7704,19.3447],[93.7533,19.3575],[93.7323,19.3566],[93.7319,19.3826],[93.7121,19.4014],[93.7393,19.4088],[93.6516,19.4445],[93.6372,19.4889],[93.6546,19.4919],[93.6468,19.5122],[93.6875,19.5654],[93.7462,19.5422],[93.7688,19.4853],[93.7758,19.5037],[93.7933,19.5003],[93.8187,19.4643],[93.8567,19.4843],[93.8585,19.4404],[93.877,19.473],[93.9764,19.4188],[93.9971,19.4525],[93.9766,19.4629],[93.9536,19.4479],[93.9046,19.468],[93.9485,19.5081],[93.9383,19.564],[93.9324,19.4985],[93.9024,19.4885],[93.7768,19.5911],[93.8164,19.6042],[93.7935,19.614],[93.7602,19.5991],[93.722,19.6265],[93.7476,19.6525],[93.7943,19.6598],[93.7882,19.6815],[93.8193,19.7111],[93.8181,19.7292],[93.8066,19.7392],[93.7986,19.7014],[93.727,19.6711],[93.7059,19.7028],[93.7208,19.7483],[93.7914,19.7691],[93.7976,19.8329],[93.7863,19.8628],[93.7979,19.8666],[93.8012,19.891],[93.7933,19.916],[93.7937,19.873],[93.7386,19.8852],[93.7145,19.9079],[93.7457,19.9152],[93.7085,19.9375],[93.7091,19.9673],[93.702,19.9144],[93.6218,19.917],[93.5518,19.8885],[93.5419,19.9036],[93.5754,19.9201],[93.5867,19.9378],[93.5688,19.9212],[93.5416,19.924],[93.546,19.9363],[93.5161,19.9234],[93.5121,19.9438],[93.5365,19.9552],[93.5085,19.9613],[93.5071,19.9748],[93.5401,19.9909],[93.4818,19.9914],[93.4674,20.0443],[93.4585,20.0541],[93.4762,20.0609],[93.4548,20.0552],[93.4762,20.0065],[93.4661,19.9825],[93.4543,19.9959],[93.4392,19.9925],[93.4567,19.95],[93.416,19.9708],[93.3807,20.0659],[93.3841,20.0801],[93.4167,20.0799],[93.4148,20.1121],[93.4329,20.1052],[93.4126,20.1727],[93.3623,20.2736],[93.343,20.2772],[93.3234,20.3297],[93.2966,20.33],[93.3259,20.3859],[93.3254,20.4036],[93.2805,20.3482],[93.2801,20.3282],[93.2398,20.306],[93.2306,20.2739],[93.2464,20.2454],[93.2099,20.2347],[93.1825,20.1969],[93.117,20.1857],[93.2165,20.2861],[93.2259,20.3076],[93.2124,20.3278],[93.2512,20.4261],[93.2252,20.3917],[93.198,20.3871],[93.2235,20.376],[93.203,20.3226],[93.1243,20.3281],[93.1374,20.3425],[93.1321,20.3693],[93.1563,20.3591],[93.1748,20.3741],[93.1293,20.3762],[93.1742,20.3994],[93.1648,20.422],[93.1681,20.4002],[93.0939,20.3798],[93.0884,20.4013],[93.1111,20.4138],[93.1167,20.4272],[93.107,20.5041],[93.087,20.5198],[93.1051,20.5307],[93.0919,20.53],[93.0702,20.602],[93.0483,20.5975],[93.0217,20.6219],[93.0277,20.6439],[93.0055,20.6398],[93.0178,20.6122],[93.0757,20.5791],[93.0814,20.5488],[93.0626,20.5263],[93.035,20.5378],[93.0556,20.5207],[93.0195,20.4791],[93.0333,20.4857],[93.0301,20.4652],[93.0135,20.4606],[93.0216,20.3697],[93.01,20.3025],[92.9618,20.2253],[92.945,20.2675],[92.915,20.2419],[92.9146,20.2122],[92.8862,20.2095],[92.9104,20.2007],[92.9199,20.1744],[92.8931,20.1206],[92.8608,20.1211],[92.767,20.2039],[92.7873,20.2401],[92.7969,20.2102],[92.8305,20.1805],[92.8458,20.1823],[92.799,20.2141],[92.7988,20.2583],[92.9445,20.3156],[92.8982,20.3078],[92.8554,20.3867],[92.9108,20.3717],[92.9315,20.3863],[92.9417,20.3522],[92.9508,20.374],[92.9127,20.414],[92.9289,20.4212],[92.9326,20.4327],[92.8983,20.4822],[92.9285,20.4299],[92.9054,20.4152],[92.9158,20.3789],[92.8982,20.3848],[92.8867,20.4218],[92.8866,20.4039],[92.8571,20.4195],[92.8637,20.4051],[92.8467,20.4019],[92.8212,20.4462],[92.8337,20.4407],[92.8264,20.4527],[92.8383,20.4688],[92.8487,20.4591],[92.8451,20.4703],[92.8304,20.4725],[92.8275,20.4968],[92.8108,20.4924],[92.7961,20.5101],[92.7888,20.4998],[92.7349,20.5722],[92.7486,20.5782],[92.7524,20.5867],[92.7468,20.5986],[92.7266,20.6168],[92.7482,20.5876],[92.7282,20.5812],[92.6451,20.6906],[92.645,20.7277],[92.5832,20.7199],[92.591,20.732],[92.5697,20.7796],[92.5997,20.7956],[92.6024,20.8064],[92.5649,20.7864],[92.5494,20.8493],[92.5449,20.8118],[92.5713,20.7516],[92.5466,20.7631],[92.5441,20.743],[92.591,20.6851],[92.607,20.6776],[92.6358,20.6901],[92.6954,20.5825],[92.7155,20.5585],[92.72,20.4706],[92.7375,20.4264],[92.74,20.27],[92.726,20.2633],[92.638,20.4332],[92.4603,20.6497],[92.4661,20.6597],[92.377,20.6977],[92.3877,20.7048],[92.3611,20.7723],[92.3901,20.8168],[92.3787,20.8246],[92.3584,20.7833],[92.3353,20.8433],[92.3602,20.8647],[92.3366,20.8509],[92.3146,20.8826],[92.3164,20.901],[92.3619,20.9419],[92.3477,20.9871],[92.3313,20.9978],[92.2968,20.9872],[92.2891,21.0036],[92.2933,20.98],[92.2798,20.9694],[92.2694,21.0182],[92.2887,21.0225],[92.2649,21.0368],[92.3128,21.0579],[92.3122,21.0703],[92.2734,21.0458],[92.2297,21.1046],[92.2243,21.1365],[92.198,21.1546],[92.1976,21.1198],[92.255,21.0615],[92.2633,20.9192],[92.3339,20.7514],[92.3033,20.7561],[92.2117,20.9253],[92.1847,21.0139],[92.0473,21.1766],[92.0461,21.2922],[91.9553,21.4506],[92.0054,21.4992],[92.0221,21.4864],[92.0073,21.5077],[92.0389,21.6476],[92.0352,21.7006],[92.0181,21.7165],[92.0163,21.6652],[91.9817,21.656],[91.9796,21.7042],[91.9667,21.6782],[91.9485,21.7393],[91.9764,21.7418],[91.9925,21.7678],[91.9716,21.7472],[91.9545,21.7539],[91.9706,21.7862],[91.9424,21.8042],[91.9017,21.7765],[91.9199,21.8473],[91.9095,21.9079],[91.9275,21.9345],[91.8949,21.9689],[91.8548,22.1276],[91.8345,22.1221],[91.8118,22.1905],[91.8351,22.2151],[91.842,22.2605],[91.8147,22.3049],[91.8665,22.3221],[91.9008,22.4007],[91.9451,22.4162],[92.0019,22.4046],[92.022,22.4167],[92.0349,22.4459],[92.0815,22.4371],[92.1417,22.4615],[92.1439,22.4703],[92.0873,22.4443],[92.0331,22.4505],[92.0029,22.4124],[91.9541,22.421],[91.8964,22.4094],[91.8722,22.3498],[91.7955,22.2927],[91.7952,22.2778],[91.829,22.2565],[91.798,22.2196],[91.7693,22.2784],[91.7519,22.3866],[91.6694,22.5372],[91.4859,22.7667],[91.4558,22.79],[91.4368,22.7779],[91.4746,22.8241],[91.4356,22.8047],[91.4836,22.8741],[91.4566,22.8989],[91.4922,22.9007],[91.4452,22.9007],[91.441,22.8836],[91.464,22.8832],[91.4647,22.869],[91.4204,22.8087],[91.4086,22.7609],[91.33,22.8335],[91.3506,22.8515],[91.3427,22.8832],[91.3158,22.8394],[91.3525,22.7861],[91.3451,22.7758],[91.2963,22.8102],[91.1869,22.7977],[91.1164,22.8119],[91.1127,22.8262],[91.0831,22.8],[91.0287,22.7996],[90.9375,22.8561],[90.8246,22.8647],[90.8016,22.9088],[90.7578,22.9387],[90.7958,22.898],[90.7954,22.8634],[90.7409,22.8827],[90.6896,22.9783],[90.6239,23.0586],[90.6546,23.2565],[90.6389,23.3167],[90.6776,23.3182],[90.6754,23.3407],[90.6978,23.3457],[90.6795,23.3644],[90.6972,23.3775],[90.67,23.3584],[90.6716,23.3208],[90.6154,23.3286],[90.593,23.3786],[90.6066,23.4744],[90.6364,23.4878],[90.6927,23.4764],[90.7167,23.5047],[90.7177,23.5428],[90.7443,23.5443],[90.715,23.5464],[90.7057,23.5617],[90.732,23.5912],[90.7392,23.6216],[90.7646,23.629],[90.7414,23.6621],[90.7578,23.721],[90.7425,23.6937],[90.7403,23.7242],[90.7315,23.7102],[90.7157,23.7414],[90.6818,23.6867],[90.6373,23.6841],[90.6324,23.6392],[90.6085,23.6172],[90.5572,23.5862],[90.5147,23.5814],[90.505,23.6033],[90.484,23.5866],[90.4538,23.6148],[90.4702,23.6298],[90.4427,23.6684],[90.368,23.7186],[90.3837,23.7022],[90.3658,23.7034],[90.3421,23.7401],[90.3176,23.735],[90.3128,23.7642],[90.2548,23.7303],[90.2571,23.7758],[90.2298,23.8877],[90.2396,23.827],[90.194,23.8405],[90.1518,23.8291],[90.1319,23.8674],[90.1117,23.8736],[90.1104,23.8573],[90.0572,23.8201],[90.047,23.8255],[90.0625,23.8769],[90.0468,23.8894],[90.0262,23.8817],[90.0227,23.9072],[90.0,23.9228],[90.0144,23.8769],[90.0547,23.8732],[90.041,23.8278],[90.0466,23.8174],[90.069,23.8163],[90.0887,23.83],[90.1247,23.8071],[90.1837,23.8023],[90.2068,23.8157],[90.2226,23.8004],[90.2415,23.8149],[90.2059,23.7537],[90.221,23.7216],[90.2524,23.721],[90.2746,23.6862],[90.2557,23.7074],[90.2383,23.7112],[90.2208,23.7081],[90.1813,23.7401],[90.1924,23.7203],[90.1626,23.7198],[90.1492,23.7107],[90.1218,23.7371],[90.0698,23.7579],[90.0232,23.7635],[90.0245,23.7952],[90.0,23.8165],[90.0195,23.7627],[90.1205,23.7334],[90.1497,23.7043],[90.1739,23.7165],[90.2205,23.7031],[90.2477,23.7076],[90.276,23.6548],[90.3976,23.6021],[90.3969,23.5739],[90.3789,23.5678],[90.3951,23.566],[90.4098,23.5803],[90.4457,23.5421],[90.4694,23.5479],[90.4844,23.5626],[90.5525,23.5394],[90.5679,23.5098],[90.5689,23.4752],[90.5528,23.4887],[90.538,23.4837],[90.5339,23.4659],[90.5539,23.4263],[90.5281,23.3907],[90.4858,23.4204],[90.4204,23.4161],[90.2542,23.4608],[90.1641,23.5242],[90.1103,23.6129],[89.97,23.6581],[89.9179,23.7215],[89.8638,23.7451],[89.7915,23.8077],[89.7742,23.8995],[89.7688,23.8876],[89.7046,23.9579],[89.7275,23.9776],[89.7208,24.0],[89.7153,23.9718],[89.6983,23.9645],[89.7051,23.9991],[89.6707,24.0],[89.6614,23.9423],[89.7033,23.875],[89.7513,23.8659],[89.7708,23.8359],[89.7571,23.8473],[89.7242,23.8344],[89.6802,23.8626],[89.7179,23.8319],[89.6297,23.8456],[89.5467,23.8241],[89.4497,23.8706],[89.4256,23.9133],[89.3865,23.9431],[89.3288,23.9487],[89.2808,23.9875],[89.3161,23.9479],[89.2889,23.9467],[89.2414,23.9813],[89.1733,24.0],[89.0914,23.9991],[89.0608,23.9839],[89.0936,23.9665],[89.1225,23.9203],[89.1241,23.9542],[89.1671,23.9259],[89.2341,23.9194],[89.3047,23.8696],[89.4078,23.8978],[89.4384,23.8386],[89.4995,23.7788],[89.5928,23.7975],[89.6397,23.7768],[89.7017,23.7769],[89.8567,23.6605],[89.9485,23.6357],[90.0247,23.5566],[90.018,23.5823],[90.083,23.573],[90.1256,23.5455],[90.1578,23.4889],[90.1593,23.4206],[90.2067,23.3338],[90.17,23.3466],[90.1639,23.3638],[90.1862,23.359],[90.1608,23.3676],[90.1665,23.3332],[90.1253,23.3055],[90.1205,23.3356],[90.1417,23.3597],[90.1445,23.3786],[90.1279,23.351],[90.0995,23.359],[90.1208,23.3473],[90.1189,23.3041],[90.093,23.3005],[90.0871,23.2728],[90.1245,23.2685],[90.1217,23.2487],[90.1287,23.2416],[90.2023,23.2256],[90.1987,23.2096],[90.1681,23.2041],[90.1774,23.1665],[90.219,23.183],[90.2485,23.1621],[90.2336,23.1421],[90.2452,23.1232],[90.3091,23.1128],[90.3167,23.0671],[90.2677,23.0431],[90.2726,23.0254],[90.3072,23.0209],[90.3206,22.9865],[90.2739,22.9687],[90.3537,22.9212],[90.3456,22.884],[90.3205,22.8726],[90.3213,22.8502],[90.3726,22.7652],[90.3682,22.7366],[90.4195,22.7331],[90.4167,22.7138],[90.3964,22.729],[90.3831,22.7054],[90.4003,22.7234],[90.4204,22.7086],[90.4298,22.7305],[90.4193,22.7453],[90.378,22.7401],[90.3825,22.7586],[90.4243,22.7652],[90.4637,22.7388],[90.485,22.6991],[90.4769,22.6561],[90.4961,22.6723],[90.5133,22.6529],[90.5055,22.5854],[90.5187,22.5991],[90.5797,22.5261],[90.6132,22.3275],[90.5912,22.2573],[90.5588,22.2382],[90.5216,22.1846],[90.5066,22.1851],[90.4318,22.0706],[90.4221,22.1192],[90.4427,22.1513],[90.4265,22.1505],[90.4192,22.1262],[90.4192,22.0904],[90.388,22.1036],[90.406,22.1685],[90.4261,22.1813],[90.4062,22.2119],[90.4165,22.2648],[90.4035,22.2837],[90.4191,22.2895],[90.3788,22.2931],[90.4105,22.3368],[90.3642,22.2952],[90.406,22.271],[90.387,22.2111],[90.3562,22.1794],[90.3438,22.1958],[90.3498,22.1792],[90.3338,22.1633],[90.3784,22.1309],[90.3751,22.1053],[90.3331,22.1088],[90.2616,22.0404],[90.2751,22.0358],[90.278,21.9971],[90.2568,21.9557],[90.211,21.9825],[90.2135,22.0022],[90.1962,21.9784],[90.2287,21.9716],[90.2343,21.9583],[90.2176,21.9508],[90.2685,21.9462],[90.2409,21.8994],[90.2606,21.8847],[90.2549,21.8666],[90.2241,21.8543],[90.2042,21.8874],[90.2401,21.9344],[90.1969,21.8906],[90.2199,21.8528],[90.263,21.8583],[90.2478,21.8376],[90.2163,21.8373],[90.2546,21.8358],[90.1897,21.7989],[90.0851,21.8282],[90.0992,21.8517],[90.1222,21.8485],[90.1003,21.8554],[90.1158,21.8876],[90.1543,21.8854],[90.153,21.8598],[90.1728,21.8697],[90.1519,21.8957],[90.1886,21.9228],[90.144,21.8906],[90.1158,21.8993],[90.1163,21.9159],[90.15,21.9227],[90.1372,21.9485],[90.1685,21.9805],[90.1406,21.9702],[90.128,21.9914],[90.1418,21.9247],[90.1114,21.9219],[90.0988,21.8944],[90.0991,21.9413],[90.0733,22.0045],[90.1575,22.1033],[90.2161,22.1144],[90.2354,22.164],[90.2542,22.1638],[90.2717,22.1772],[90.2864,22.2071],[90.2723,22.2089],[90.2588,22.1722],[90.2364,22.1681],[90.2077,22.3093],[90.2269,22.3379],[90.2896,22.3505],[90.2973,22.3714],[90.2696,22.3586],[90.2657,22.3711],[90.2809,22.4069],[90.3178,22.4676],[90.3413,22.4589],[90.3626,22.4846],[90.3405,22.4664],[90.3148,22.4741],[90.2586,22.3754],[90.2548,22.3443],[90.2223,22.3421],[90.1991,22.3026],[90.2097,22.2143],[90.2278,22.1859],[90.0879,22.0555],[90.0525,21.9822],[90.0,21.9945],[89.9946,22.031],[90.0307,22.0628],[90.0422,22.1308],[90.0766,22.153],[90.1399,22.1551],[90.0801,22.1586],[90.0257,22.189],[90.081,22.2209],[90.1116,22.2858],[90.1016,22.3424],[90.176,22.4215],[90.2018,22.4859],[90.206,22.5118],[90.1876,22.5225],[90.2028,22.5725],[90.1857,22.6255],[90.2519,22.6212],[90.2832,22.6302],[90.2953,22.6531],[90.2487,22.628],[90.181,22.6276],[90.1975,22.5675],[90.1819,22.5223],[90.1989,22.509],[90.1936,22.4802],[90.1725,22.4297],[90.095,22.3491],[90.1048,22.3039],[90.0739,22.2271],[90.0211,22.1868],[90.0282,22.1691],[90.0633,22.1618],[90.0225,22.1322],[89.9772,22.0312],[89.9845,21.9853],[89.9578,21.9789],[89.9109,22.0697],[89.9175,22.136],[89.8787,22.2524],[89.9197,22.3718],[89.9847,22.4388],[90.0,22.487],[90.025,22.4901],[90.033,22.5719],[90.065,22.6087],[90.0571,22.6225],[90.0268,22.599],[90.0327,22.6527],[90.0059,22.68],[90.028,22.6463],[90.0132,22.5988],[90.0307,22.5814],[90.0179,22.4945],[89.9546,22.5055],[89.988,22.4741],[89.9073,22.387],[89.8834,22.4052],[89.8834,22.4302],[89.8779,22.4031],[89.8984,22.3734],[89.8411,22.2672],[89.8708,22.0956],[89.8528,22.0679],[89.8188,22.066],[89.8533,22.0483],[89.8464,21.9717],[89.8847,21.9035],[89.8584,21.8784],[89.8456,21.8859],[89.8408,21.856],[89.7715,21.8311],[89.7896,21.879],[89.7542,21.8561],[89.7334,21.891],[89.7493,21.8346],[89.7143,21.8341],[89.7023,21.8494],[89.6756,21.8377],[89.6586,21.8922],[89.6795,21.9049],[89.6554,21.9134],[89.6373,21.8596],[89.7081,21.7884],[89.6535,21.7522],[89.6548,21.765],[89.6067,21.7601],[89.6137,21.8111],[89.5627,21.8637],[89.5901,21.9386],[89.5784,21.9454],[89.6208,22.3244],[89.5464,22.2008],[89.5808,22.1256],[89.5394,21.9862],[89.5186,22.0008],[89.534,22.0639],[89.4872,22.1969],[89.4969,22.2625],[89.4758,22.2914],[89.4617,22.2169],[89.5189,22.0644],[89.4877,22.0323],[89.5194,21.9533],[89.517,21.9134],[89.5099,21.8964],[89.4971,21.9081],[89.4851,21.8974],[89.4607,21.8522],[89.4337,21.8477],[89.4627,21.8461],[89.4712,21.8204],[89.459,21.8111],[89.4767,21.8035],[89.4214,21.7161],[89.388,21.7114],[89.3675,21.7425],[89.3628,21.824],[89.3899,21.9021],[89.3547,21.9686],[89.3072,21.8207],[89.2867,21.8053],[89.2927,21.7564],[89.2312,21.7683],[89.2193,21.7572],[89.197,21.8047],[89.1643,21.79],[89.1079,21.8105],[89.1121,21.8547],[89.0846,21.9385],[89.0896,22.0146],[89.0613,22.053],[89.0628,22.1211],[89.0439,22.1364],[89.0378,22.0794],[89.0633,22.0142],[89.0641,21.9417],[88.9972,21.8895],[89.0126,21.8791],[89.0324,21.8201],[89.0277,21.7769],[89.0619,21.7325],[89.0889,21.6281],[89.0595,21.6115],[89.0246,21.6638],[89.0039,21.6526],[89.0292,21.6541],[89.0423,21.6109],[89.015,21.6012],[88.9943,21.6465],[88.9947,21.6095],[88.9519,21.6408],[88.9307,21.6299],[88.9037,21.6448],[88.8754,21.701],[88.88,21.7675],[88.8496,21.7251],[88.8692,21.6433],[88.8402,21.6183],[88.8115,21.6347],[88.8229,21.6604],[88.7594,21.6566],[88.7242,21.6805],[88.6993,21.7411],[88.7229,21.8073],[88.6998,21.8403],[88.7281,21.9666],[88.7689,22.0149],[88.7903,22.0183],[88.7667,22.0237],[88.7594,22.0503],[88.7747,22.0519],[88.7486,22.0659],[88.713,22.0619],[88.7223,22.0051],[88.6664,22.0256],[88.6408,22.1034],[88.6828,22.1739],[88.6678,22.2022],[88.6139,22.1008],[88.6255,22.0369],[88.5966,21.9884],[88.601,21.9557],[88.5897,21.987],[88.5821,21.9803],[88.5792,21.9633],[88.6036,21.9369],[88.557,21.8124],[88.5273,21.8556],[88.5175,21.9064],[88.5306,21.9366],[88.5084,21.9661],[88.5525,21.9851],[88.5653,22.0228],[88.5449,21.9865],[88.5049,21.973],[88.5095,21.9384],[88.4961,21.9503],[88.4743,21.8972],[88.4688,21.9487],[88.4597,21.9382],[88.4534,21.9068],[88.473,21.8941],[88.4695,21.8237],[88.4548,21.8117],[88.4686,21.7932],[88.4479,21.8015],[88.4292,21.7659],[88.4363,21.7042],[88.4196,21.6881],[88.4183,21.666],[88.4408,21.6189],[88.4106,21.587],[88.3929,21.6083],[88.4045,21.6198],[88.3891,21.6672],[88.4121,21.717],[88.3795,21.7303],[88.3991,21.7368],[88.4075,21.7646],[88.3915,21.7795],[88.4082,21.7984],[88.4001,21.8346],[88.4213,21.8892],[88.3996,21.8993],[88.4164,21.9231],[88.4056,21.9516],[88.3903,21.9667],[88.4057,21.9738],[88.4124,21.9947],[88.3873,21.9675],[88.4114,21.9216],[88.396,21.9071],[88.3979,21.8949],[88.4077,21.8854],[88.3976,21.8749],[88.3953,21.7943],[88.3717,21.8007],[88.3643,21.8527],[88.3642,21.8014],[88.3296,21.7886],[88.3183,21.7914],[88.3146,21.7988],[88.2816,21.7969],[88.2765,21.8073],[88.3154,21.8303],[88.3238,21.8496],[88.311,21.8646],[88.2686,21.865],[88.3175,21.8502],[88.2589,21.8013],[88.3083,21.5706],[88.2626,21.5575],[88.2265,21.6188],[88.2493,21.6474],[88.2411,21.6786],[88.2115,21.6855],[88.2308,21.6995],[88.2186,21.7919],[88.2381,21.7646],[88.2396,21.7811],[88.2115,21.8029],[88.2035,21.8456],[88.166,21.888],[88.1748,21.9239],[88.1487,21.9596],[88.1863,21.9934],[88.2351,22.0788],[88.2143,22.1574],[88.1788,22.195],[88.0075,22.2353],[87.9658,22.2975],[87.9394,22.4128],[87.9078,22.4217],[87.9475,22.2697],[87.9819,22.223],[88.0147,22.1989],[88.1419,22.1722],[88.1744,22.1231],[88.168,22.0917],[88.1199,22.0428],[88.067,22.0155],[87.9805,21.8551],[87.9519,21.8235],[87.8866,21.803],[87.8924,21.7812],[87.8286,21.7222],[87.7551,21.7008],[87.7498,21.6855],[87.6786,21.6537],[87.6499,21.6646],[87.6369,21.6472],[87.5725,21.6398],[87.3292,21.5617],[87.1955,21.5494],[87.0633,21.4758],[86.8946,21.3136],[86.8168,21.1382],[86.8759,21.0113],[86.8766,20.9761],[86.965,20.8086],[86.9619,20.7811],[86.8914,20.7594],[86.9408,20.6964],[87.0162,20.6755],[86.7655,20.5046],[86.7264,20.4522],[86.7175,20.39],[86.723,20.3675],[86.7387,20.372],[86.7285,20.3612],[86.7414,20.3623],[86.7819,20.3969],[86.77,20.3706],[86.7856,20.3727],[86.7804,20.3573],[86.7191,20.2993],[86.6865,20.3181],[86.6885,20.2839],[86.7209,20.2934],[86.67,20.256],[86.4866,20.1764],[86.4566,20.0693],[86.4254,20.0257],[86.427,20.0519],[86.4012,20.0047],[86.4276,19.9946],[86.4203,19.9828],[86.3744,19.9811],[86.2735,20.0627],[86.2501,20.0216],[86.3608,19.9603],[86.2504,19.9028],[85.8202,19.7902],[85.4869,19.6667],[85.4514,19.6603],[85.4506,19.6803],[85.4223,19.696],[85.4581,19.7123],[85.269,19.6476],[85.3088,19.6419],[85.3861,19.6845],[85.41,19.6658],[85.3803,19.6111],[85.3403,19.5914],[85.3167,19.6183],[85.2898,19.5952],[85.3298,19.5712],[85.1818,19.4792],[84.8805,19.2283],[84.7944,19.1208],[84.7366,19.1207],[84.7176,19.0978],[84.7353,19.0747],[84.7808,19.0942],[84.6764,18.9419],[84.6317,18.9122],[84.4944,18.7353],[84.0903,18.2777],[83.9508,18.2166],[83.9344,18.2254],[83.9434,18.2133],[83.6734,18.085],[83.5755,18.0108],[83.4722,17.8985],[83.4678,17.9212],[83.4438,17.934],[83.449,17.9081],[83.4673,17.8865],[83.4135,17.8402],[83.4172,17.8083],[83.3542,17.7525],[83.3507,17.7279],[83.2944,17.6912],[83.3009,17.6775],[83.2456,17.637],[83.2152,17.5903],[83.0229,17.5088],[83.0016,17.4818],[82.9129,17.4358],[82.8661,17.4298],[82.8655,17.4155],[82.5394,17.2472],[82.3045,17.0442],[82.2486,16.9203],[82.2561,16.8663],[82.3686,16.8179],[82.3464,16.7047],[82.2989,16.5811],[81.9554,16.3972],[81.842,16.3691],[81.7322,16.3135],[81.5725,16.3552],[81.43,16.3681],[81.4123,16.3853],[81.3134,16.3633],[81.2459,16.31],[81.1639,16.0661],[81.1503,15.97],[81.0499,15.9049],[81.0051,15.8532],[80.9904,15.8252],[80.9996,15.7783],[80.8998,15.8581],[80.9122,15.9322],[80.8919,16.0261],[80.8769,16.0117],[80.8975,15.9111],[80.8253,15.7519],[80.8111,15.837],[80.7789,15.8764],[80.6847,15.9],[80.5542,15.8769],[80.3672,15.7742],[80.2794,15.6992],[80.2092,15.5308],[80.0957,15.329],[80.0452,15.0673],[80.0872,14.8059],[80.1924,14.5648],[80.1695,14.349],[80.1322,14.2539],[80.1285,14.1412],[80.1544,14.0181],[80.2486,13.7997],[80.2258,13.68],[80.313,13.4392],[80.2156,13.6268],[80.2603,13.4658],[80.3271,13.4084],[80.3457,13.3085],[80.2748,13.0175],[80.261,13.0127],[80.273,13.0075],[80.2429,12.8158],[80.2476,12.7533],[80.1758,12.5813],[80.1868,12.5753],[80.1569,12.4775],[80.1353,12.4587],[80.1454,12.4454],[80.0463,12.3104],[80.067,12.3502],[80.0576,12.351],[79.8672,12.0328],[79.8343,11.9119],[79.8187,11.9072],[79.83,11.9011],[79.7983,11.7882],[79.7762,11.7694],[79.7857,11.755],[79.7514,11.5492],[79.7822,11.4306],[79.8331,11.3394],[79.8439,11.2367],[79.8252,11.2306],[79.8447,11.2287],[79.8542,11.1372],[79.8408,10.8178],[79.8597,10.2889],[79.8091,10.2689],[79.7819,10.2707],[79.7808,10.2894],[79.7456,10.3038],[79.6774,10.3003],[79.7388,10.2798],[79.7539,10.2883],[79.7682,10.2708],[79.7578,10.2712],[79.5304,10.3131],[79.3983,10.3201],[79.3289,10.2839],[79.2408,10.1811],[79.2299,10.0933],[79.2549,10.0275],[79.1296,9.8868],[78.9314,9.5843],[78.9046,9.4673],[79.0092,9.3317],[79.0837,9.2904],[79.245,9.2887],[79.322,9.2669],[79.4205,9.1684],[79.3394,9.2286],[79.2217,9.2559],[79.2085,9.2757],[78.9711,9.2736],[78.6985,9.1895],[78.6512,9.1917],[78.6465,9.1718],[78.4198,9.1097],[78.275,8.999],[78.2658,9.0126],[78.2684,8.994],[78.1937,8.9249],[78.1703,8.8671],[78.1516,8.6991],[78.1322,8.6693],[78.1317,8.4867],[78.0733,8.4207],[78.0613,8.3653],[77.804,8.2336],[77.7787,8.1933],[77.5938,8.1399],[77.5385,8.0738],[77.4267,8.0929],[77.3058,8.131],[77.239,8.1734],[76.9892,8.3754],[76.6451,8.8135],[76.5758,8.8769],[76.5708,8.9392],[76.6005,8.9719],[76.6586,8.965],[76.6675,9.0036],[76.5611,8.9922],[76.5341,8.965],[76.4617,9.1312],[76.497,9.067],[76.4753,9.1197],[76.4848,9.1159],[76.4921,9.1672],[76.4748,9.1621],[76.4709,9.1412],[76.4405,9.2326],[76.4196,9.2432],[76.4551,9.1423],[76.4007,9.2576],[76.3263,9.4527],[76.2428,9.9661],[76.2922,9.9139],[76.2578,9.9069],[76.2863,9.8311],[76.3264,9.7697],[76.3569,9.7767],[76.3828,9.6467],[76.3522,9.5225],[76.47,9.4953],[76.4986,9.5322],[76.4244,9.5944],[76.3842,9.8603],[76.3564,9.9144],[76.3203,9.9439],[76.2433,10.1069],[76.2114,10.1328],[76.2389,9.9836],[76.2087,10.028],[76.1229,10.3207],[76.0478,10.4918],[76.0639,10.4735],[76.0463,10.5317],[76.0266,10.5323],[75.911,10.7933],[75.8326,11.1235],[75.8055,11.1508],[75.73,11.3325],[75.7333,11.354],[75.6889,11.4353],[75.6174,11.4744],[75.5851,11.5587],[75.597,11.5363],[75.5912,11.562],[75.6041,11.561],[75.5822,11.5708],[75.5292,11.6988],[75.5385,11.7048],[75.3775,11.8606],[75.2744,12.0078],[75.2249,12.0211],[75.2174,12.0068],[75.1963,12.0092],[75.1275,12.2081],[75.0304,12.3938],[75.0386,12.4111],[75.0278,12.3989],[74.8664,12.74],[74.8378,12.8461],[74.8192,12.8539],[74.6819,13.4842],[74.6703,13.6181],[74.6058,13.8523],[74.6169,13.8576],[74.4978,14.0464],[74.4508,14.2461],[74.3753,14.4483],[74.4028,14.4564],[74.403,14.4975],[74.358,14.5683],[74.338,14.5556],[74.3336,14.5156],[74.3052,14.5196],[74.2784,14.6336],[74.2946,14.6402],[74.2763,14.6458],[74.2647,14.7201],[74.2582,14.7122],[74.2346,14.7444],[74.1795,14.7414],[74.092,14.7994],[74.1171,14.8034],[74.1249,14.8405],[74.1078,14.8451],[74.0912,14.8945],[74.0415,14.9488],[74.0298,14.9815],[74.0461,14.9869],[73.9898,15.0216],[73.9583,15.0658],[73.9517,15.1625],[73.9058,15.3014],[73.8692,15.3651],[73.8357,15.361],[73.7844,15.4031],[73.9125,15.4011],[73.9636,15.3636],[73.9566,15.3858],[73.845,15.4491],[73.7877,15.4558],[73.8177,15.5046],[73.7651,15.4888],[73.731,15.6146],[73.6841,15.7202],[73.6509,15.7385],[73.655,15.7734],[73.6238,15.8436],[73.5838,15.9077],[73.502,15.9734],[73.5088,15.9929],[73.4955,15.985],[73.4774,16.0393],[73.4562,16.0581],[73.4838,16.0698],[73.4595,16.0759],[73.4705,16.113],[73.4608,16.0941],[73.4377,16.1936],[73.4522,16.2253],[73.428,16.2044],[73.4118,16.2564],[73.4119,16.2734],[73.4392,16.2897],[73.4082,16.2794],[73.3958,16.2997],[73.3862,16.363],[73.3715,16.3588],[73.3695,16.3795],[73.4085,16.4088],[73.3688,16.3999],[73.3586,16.4351],[73.3813,16.4487],[73.3546,16.4454],[73.3302,16.4946],[73.3389,16.5133],[73.361,16.5076],[73.3698,16.5219],[73.352,16.5379],[73.356,16.5666],[73.3167,16.5992],[73.3479,16.5967],[73.3593,16.6253],[73.3362,16.6211],[73.3218,16.6377],[73.3276,16.6797],[73.3429,16.6911],[73.3158,16.6968],[73.3005,16.751],[73.3179,16.8014],[73.2955,16.8117],[73.2847,16.8776],[73.3048,16.8844],[73.2765,16.8885],[73.2826,16.9486],[73.3057,16.9717],[73.2683,16.9866],[73.2792,17.0003],[73.2604,17.0157],[73.2728,17.0333],[73.2924,17.0077],[73.2813,17.0365],[73.3264,17.0286],[73.2797,17.0446],[73.2907,17.0736],[73.2135,17.3085],[73.2569,17.2599],[73.2657,17.289],[73.297,17.2812],[73.2909,17.2948],[73.238,17.2903],[73.2396,17.3096],[73.2165,17.3269],[73.2259,17.3395],[73.1948,17.388],[73.1907,17.4768],[73.145,17.5669],[73.165,17.57],[73.1696,17.5888],[73.1475,17.6041],[73.1202,17.6824],[73.135,17.7114],[73.1285,17.7446],[73.056,17.9248],[73.0362,17.9399],[73.0418,17.9741],[73.0061,18.017],[73.0225,18.0197],[73.0444,18.04],[73.0247,18.0295],[73.0296,18.0465],[73.016,18.025],[72.9986,18.0514],[72.9804,18.1945],[72.9383,18.2694],[72.9667,18.2715],[72.9764,18.2421],[73.0232,18.2377],[73.063,18.2177],[73.0702,18.1968],[73.0672,18.2708],[73.0525,18.2858],[73.0457,18.2672],[73.0234,18.2662],[72.9142,18.349],[72.9106,18.3676],[72.9275,18.3799],[72.8901,18.458],[72.9047,18.5384],[72.9213,18.5286],[72.9615,18.5423],[72.9202,18.5479],[72.884,18.6304],[72.898,18.631],[72.8665,18.644],[72.8563,18.6884],[72.8701,18.8028],[72.9142,18.7924],[72.9356,18.8241],[72.9886,18.7759],[72.999,18.7794],[72.9859,18.8052],[73.0578,18.8027],[72.9898,18.8116],[72.9821,18.8626],[72.9381,18.847],[72.9069,18.8865],[72.9247,18.9098],[72.942,18.8943],[72.9495,18.9458],[72.9772,18.9461],[72.9539,18.9701],[73.0908,18.9988],[73.0667,19.0143],[73.0847,19.0314],[73.0644,19.0293],[73.0904,19.0457],[73.0061,19.005],[72.9844,19.0708],[72.9952,19.0869],[72.9764,19.107],[72.9764,19.1707],[72.9642,19.1353],[72.9522,19.1374],[72.9568,19.1077],[72.9307,19.0904],[72.9472,19.068],[72.9137,19.0744],[72.9503,19.0538],[72.9398,19.0263],[72.8988,18.9927],[72.8784,19.0226],[72.8573,19.0094],[72.8371,18.9334],[72.8137,18.904],[72.8167,18.9485],[72.7937,18.9403],[72.816,19.0219],[72.8597,19.0602],[72.8179,19.0482],[72.8248,19.087],[72.808,19.1435],[72.7863,19.1386],[72.7814,19.1669],[72.8011,19.1976],[72.7783,19.1922],[72.787,19.3062],[72.8517,19.316],[72.9155,19.2908],[72.8509,19.3431],[72.8024,19.3314],[72.7583,19.3757],[72.7663,19.3956],[72.7441,19.4603],[72.7565,19.4738],[72.7169,19.5799],[72.7187,19.5967],[72.7449,19.6025],[72.7289,19.6097],[72.7019,19.7245],[72.7146,19.747],[72.7009,19.7421],[72.6898,19.7859],[72.7061,19.8084],[72.686,19.8043],[72.6669,19.8522],[72.686,19.8742],[72.6732,19.9327],[72.7035,19.9651],[72.7249,19.9671],[72.76,19.9233],[72.7106,20.0223],[72.7448,20.1954],[72.7794,20.207],[72.7455,20.203],[72.7487,20.2782],[72.778,20.3364],[72.8183,20.3657],[72.8294,20.4419],[72.8869,20.5046],[72.9339,20.7522],[72.9519,20.755],[72.9253,20.8128],[72.8858,20.8094],[72.896,20.8134],[72.8755,20.8245],[72.8948,20.8665],[72.8469,20.8442],[72.8415,20.9345],[72.8822,20.9546],[72.8765,20.9718],[72.8944,20.9825],[72.8432,20.9759],[72.8559,21.0658],[72.831,21.0968],[72.8419,21.1137],[72.8261,21.1032],[72.809,21.1382],[72.8316,21.1673],[72.8059,21.1497],[72.802,21.129],[72.7916,21.1458],[72.7883,21.1251],[72.7546,21.108],[72.7475,21.1288],[72.719,21.1034],[72.7272,21.084],[72.7091,21.0832],[72.7027,21.1276],[72.7275,21.1475],[72.6736,21.1581],[72.718,21.1961],[72.6399,21.2575],[72.6479,21.2867],[72.619,21.2955],[72.621,21.3125],[72.6554,21.3191],[72.6684,21.342],[72.7365,21.3238],[72.6962,21.355],[72.7016,21.3724],[72.6746,21.3486],[72.6646,21.3689],[72.6528,21.3494],[72.6448,21.3692],[72.6669,21.4164],[72.7478,21.4519],[72.7536,21.4708],[72.7411,21.48],[72.6501,21.4411],[72.6379,21.4485],[72.7409,21.5657],[72.8165,21.6136],[72.824,21.6367],[72.8844,21.6383],[73.0401,21.7008],[73.0901,21.7051],[73.1308,21.7536],[73.1216,21.7647],[72.9366,21.6817],[72.8728,21.6883],[72.7886,21.6678],[72.7405,21.6864],[72.6272,21.6861],[72.5417,21.6639],[72.5279,21.701],[72.5379,21.7187],[72.5458,21.6943],[72.5756,21.7047],[72.5658,21.7328],[72.6,21.7159],[72.5857,21.7265],[72.6033,21.7563],[72.5992,21.7954],[72.6458,21.8329],[72.6544,21.8912],[72.675,21.8872],[72.6786,21.912],[72.6878,21.886],[72.7222,21.8841],[72.7187,21.9318],[72.7511,21.9531],[72.7776,21.9495],[72.7647,21.9815],[72.746,21.988],[72.7719,22.0014],[72.7754,22.0168],[72.735,21.9913],[72.7203,22.0212],[72.718,21.9943],[72.6467,21.9694],[72.6488,21.9881],[72.6368,22.0028],[72.6395,21.9667],[72.5517,21.9072],[72.5278,21.9172],[72.5117,21.9508],[72.508,22.0009],[72.5384,22.1322],[72.5755,22.1953],[72.6253,22.2089],[72.7469,22.1647],[72.8178,22.2397],[72.8903,22.2117],[72.915,22.2161],[72.9191,22.2678],[72.9075,22.2786],[72.8181,22.2722],[72.78,22.2522],[72.5811,22.2861],[72.4771,22.2298],[72.4931,22.2641],[72.4608,22.2278],[72.3858,22.2533],[72.3765,22.2954],[72.4013,22.3249],[72.3925,22.3315],[72.3505,22.2989],[72.1519,22.2839],[72.1789,22.2475],[72.2969,22.2322],[72.2928,22.2024],[72.3209,22.1379],[72.2782,22.0847],[72.2947,22.0824],[72.242,22.0012],[72.1736,21.9689],[72.1255,21.9728],[72.0317,21.9428],[72.1122,21.9147],[72.1522,21.9286],[72.1619,21.8353],[72.0872,21.8281],[72.0047,21.8589],[71.9941,21.8478],[71.9925,21.7892],[72.0197,21.7736],[72.1725,21.7858],[72.2142,21.7361],[72.2133,21.705],[72.2514,21.6892],[72.2892,21.6108],[72.2238,21.4423],[72.1053,21.3115],[72.0758,21.3224],[72.1028,21.2997],[72.1009,21.2807],[72.0872,21.2893],[72.0985,21.2661],[72.0777,21.2534],[72.1071,21.2038],[72.003,21.1399],[71.8968,21.1146],[71.7922,21.0501],[71.5681,20.975],[71.5093,20.9417],[71.4607,20.8801],[71.3942,20.8619],[71.3824,20.8715],[71.3826,20.8574],[71.0507,20.7315],[71.0014,20.7354],[70.9853,20.7226],[70.997,20.7132],[70.9684,20.7036],[70.8189,20.6975],[70.686,20.7468],[70.6808,20.7778],[70.6575,20.7578],[70.5178,20.8167],[70.3289,20.9281],[70.0608,21.1444],[69.7886,21.4664],[69.648,21.6011],[69.5944,21.6338],[69.5993,21.6524],[69.5856,21.6365],[69.5733,21.6428],[69.3772,21.8241],[69.3898,21.8509],[69.3643,21.8353],[69.2038,21.973],[69.204,21.9977],[69.1959,21.9815],[69.1351,22.0426],[68.9779,22.226],[68.9444,22.2942],[68.9621,22.3776],[69.0021,22.4302],[69.0672,22.4733],[69.083,22.4701],[69.0443,22.4325],[69.0465,22.4064],[69.0836,22.3896],[69.1102,22.4074],[69.1519,22.4029],[69.1746,22.3651],[69.1666,22.2961],[69.2346,22.2602],[69.4517,22.3297],[69.4534,22.3156],[69.484,22.3395],[69.5749,22.3672],[69.5909,22.3584],[69.5761,22.3399],[69.5856,22.3334],[69.6023,22.3542],[69.6192,22.3464],[69.6216,22.3651],[69.6442,22.3555],[69.6701,22.3963],[69.7662,22.4287],[69.7943,22.3997],[69.8204,22.4478],[69.8654,22.4504],[69.9341,22.5047],[69.9579,22.4967],[69.9507,22.5146],[70.0369,22.5541],[70.1655,22.5483],[70.2507,22.6875],[70.2655,22.6892],[70.2537,22.6928],[70.3038,22.7582],[70.3675,22.8886],[70.4309,22.9574],[70.4894,22.9628],[70.5114,22.9853],[70.5286,23.0464],[70.5069,23.1022],[70.4753,23.1275],[70.418,23.0928],[70.3996,23.0615],[70.3715,23.0587],[70.3624,23.0403],[70.3746,23.0183],[70.3943,23.0061],[70.2964,22.9467],[70.238,22.9727],[70.1582,22.9416],[70.1211,22.9587],[70.1318,22.9827],[70.1208,22.9852],[70.1029,22.964],[70.1307,22.9322],[69.8084,22.8463],[69.7341,22.7987],[69.7163,22.7535],[69.6953,22.7657],[69.7105,22.7461],[69.6508,22.7599],[69.6279,22.8022],[69.6283,22.7645],[69.5549,22.7793],[69.5552,22.7984],[69.5208,22.7865],[69.3616,22.8195],[69.3614,22.8319],[69.2158,22.8403],[69.1375,22.8747],[69.0503,22.9417],[68.9063,23.0033],[68.8553,23.0359],[68.8515,23.0544],[68.839,23.0443],[68.8097,23.0734],[68.7454,23.0935],[68.7718,23.1176],[68.7653,23.1317],[68.7339,23.1034],[68.6667,23.1422],[68.633,23.177],[68.6922,23.1393],[68.7255,23.1478],[68.6553,23.1676],[68.6515,23.1936],[68.6239,23.1862],[68.5811,23.2341],[68.6458,23.2582],[68.6212,23.2839],[68.6509,23.2985],[68.6146,23.2985],[68.611,23.2713],[68.5884,23.2516],[68.5582,23.253],[68.5422,23.2703],[68.5446,23.2882],[68.5595,23.2887],[68.5525,23.3122],[68.5849,23.3052],[68.5844,23.3197],[68.6165,23.3244],[68.6182,23.3506],[68.6142,23.3278],[68.5609,23.3451],[68.5141,23.3201],[68.4822,23.3582],[68.5051,23.3966],[68.4955,23.4024],[68.5195,23.4173],[68.4855,23.4156],[68.4738,23.3863],[68.433,23.43],[68.4203,23.4649],[68.4475,23.4758],[68.4188,23.5359],[68.4555,23.571],[68.4391,23.5684],[68.4662,23.5997],[68.4708,23.6367],[68.5277,23.6952],[68.766,23.8422],[68.7812,23.8663],[68.7637,23.8777],[68.7733,23.8611],[68.7628,23.8511],[68.6554,23.8397],[68.468,23.7372],[68.4329,23.7338],[68.3828,23.6761],[68.3572,23.6103],[68.3214,23.5808],[68.2651,23.5793],[68.2784,23.6005],[68.2649,23.6325],[68.225,23.6457],[68.2611,23.6547],[68.3259,23.726],[68.291,23.7243],[68.2559,23.675],[68.2125,23.6878],[68.1999,23.701],[68.2061,23.8351],[68.2221,23.8313],[68.2408,23.8493],[68.2556,23.835],[68.2675,23.8378],[68.2573,23.8761],[68.2747,23.9179],[68.3201,23.9174],[68.2905,23.9444],[68.3905,23.9675],[68.7472,23.97],[68.7448,24.287],[68.8093,24.3127],[68.9892,25.1442],[69.3084,26.2654],[69.8556,26.5829],[70.8268,27.0915],[71.5501,28.1765],[71.723,29.4358],[71.7488,30.0141],[72.0861,31.0489],[72.3144,31.4283],[72.6503,31.8128],[73.069,32.0154],[73.2883,32.1039],[74.4069,32.2855],[74.4617,32.7917],[74.8644,32.7611],[75.2209,32.8938],[75.8522,32.5254],[76.4816,31.4441],[77.2549,31.2657],[78.058,30.76],[78.8611,29.957],[79.7631,29.1713],[81.9366,28.403],[84.4364,27.6178],[87.3099,26.9284],[88.1186,26.9844],[89.3608,26.86],[90.3561,26.8983],[91.9508,27.4503],[92.2792,27.8633],[93.7047,28.4453],[94.4852,28.4833],[94.904,28.3311],[95.4751,27.76],[96.3697,26.6749],[96.9218,25.4947],[97.1692,25.114],[97.2834,24.2003],[97.7593,23.4579],[98.0,23.2245],[97.9963,14.4786]],[[89.9549,24.0],[89.9354,24.0],[89.9513,23.9752],[89.9404,23.9707],[90.0,23.9316],[89.9507,23.9862],[89.9549,24.0]],[[89.7726,23.9642],[89.792,23.9758],[89.7912,24.0],[89.7897,23.9809],[89.7654,23.9656],[89.7869,23.9386],[89.7726,23.9642]],[[85.4684,19.7158],[85.5492,19.7324],[85.5576,19.7463],[85.4822,19.7205],[85.4684,19.7158]],[[85.1535,19.4988],[85.1878,19.5422],[85.1919,19.5724],[85.2323,19.6008],[85.2433,19.6388],[85.1438,19.603],[85.1219,19.5131],[85.1535,19.4988]]]]}}