{"type":"Feature","properties":{"speciesId":234,"category":"LC","source":"IUCN Red List","simplifyTol":0.01,"clippedToSubcontinent":true},"geometry":{"type":"MultiPolygon","coordinates":[[[[95.2499,20.6048],[95.1895,20.6169],[95.1382,20.6511],[95.1034,20.7032],[95.0913,20.7636],[95.1036,20.8251],[95.1378,20.8763],[95.19,20.911],[95.2504,20.923],[95.3108,20.911],[95.363,20.8763],[95.3972,20.8251],[95.4095,20.7636],[95.397,20.7022],[95.3626,20.6511],[95.3113,20.6169],[95.2499,20.6048]]],[[[95.7036,21.0156],[95.6587,21.0276],[95.6258,21.0605],[95.6137,21.1055],[95.6258,21.1505],[95.8451,21.4539],[95.8969,21.4795],[95.9536,21.4682],[95.9834,21.4403],[95.9984,21.3962],[95.9759,21.136],[95.9324,21.0979],[95.7036,21.0156]]],[[[96.1038,21.7288],[96.0161,21.7464],[95.9418,21.7961],[95.8921,21.8703],[95.8743,21.9592],[95.8918,22.0469],[95.9423,22.1221],[96.0179,22.1721],[96.1057,22.189],[96.1933,22.1711],[96.2683,22.1203],[96.3175,22.0457],[96.3345,21.9579],[96.3168,21.8703],[96.267,21.7961],[96.1927,21.7464],[96.1038,21.7288]]],[[[95.5112,23.0343],[95.4595,23.0446],[95.4158,23.074],[95.3871,23.1171],[95.3767,23.1688],[95.3871,23.2205],[95.4158,23.2635],[95.4595,23.2929],[95.5112,23.3033],[95.5629,23.2929],[95.6067,23.2635],[95.6354,23.2205],[95.6457,23.1688],[95.6354,23.1171],[95.6067,23.074],[95.5629,23.0446],[95.5112,23.0343]]],[[[96.3268,24.9844],[96.261,24.9978],[96.2053,25.0356],[96.1684,25.0918],[96.1559,25.1567],[96.1694,25.2226],[96.2065,25.2774],[96.2625,25.3146],[96.3274,25.3274],[96.3923,25.3146],[96.4483,25.2774],[96.4858,25.2216],[96.4989,25.1556],[96.4856,25.0897],[96.4479,25.034],[96.3918,24.997],[96.3268,24.9844]]],[[[96.045,22.7998],[96.0,22.8119],[95.9702,22.8398],[95.859,23.0684],[95.7139,23.272],[95.5831,23.4066],[95.4157,23.5423],[95.3978,23.5853],[95.4063,23.6368],[95.437,23.6718],[95.6017,23.762],[95.7556,23.8735],[95.8827,23.9927],[95.9945,24.1265],[96.1595,24.4148],[96.2225,24.5941],[96.2628,24.7799],[96.2844,24.8146],[96.5892,24.9364],[96.804,25.0658],[97.0459,25.2885],[97.2392,25.5673],[97.2852,25.592],[97.3425,25.5844],[97.3775,25.5537],[97.3925,25.5096],[97.3456,25.168],[97.371,24.8525],[97.4584,24.5648],[97.6152,24.2789],[97.6107,24.2102],[97.5533,24.1631],[97.2822,24.1296],[97.0259,24.0497],[96.8022,23.9323],[96.6142,23.7882],[96.4622,23.6275],[96.3366,23.4455],[96.2239,23.2019],[96.128,22.8553],[96.0949,22.815],[96.045,22.7998]]],[[[97.4384,25.7278],[97.3631,25.7592],[97.3324,25.8339],[97.3637,25.9092],[97.4384,25.94],[97.5131,25.9092],[97.5445,25.8339],[97.5137,25.7592],[97.4384,25.7278]]],[[[95.0005,25.1811],[93.0596,25.4472],[90.3323,26.1927],[89.4475,26.3895],[89.14,26.54],[89.857,26.6999],[92.5936,26.51],[95.0005,25.9995],[95.9995,25.9995],[95.9995,25.0005],[95.0005,25.0005],[95.0005,25.1811]]]]}}