{"type":"Feature","properties":{"speciesId":235,"category":"LC","source":"IUCN Red List","simplifyTol":0.01,"clippedToSubcontinent":true},"geometry":{"type":"MultiPolygon","coordinates":[[[[95.5221,5.5944],[95.5265,5.6109],[95.6132,5.6266],[95.6729,5.5857],[95.8291,5.5321],[95.879,5.5068],[95.8887,5.4537],[95.9291,5.4023],[96.049,5.327],[96.0735,5.2928],[96.1823,5.2636],[96.2587,5.2634],[96.3883,5.2149],[96.465,5.2376],[96.4908,5.2046],[96.5318,5.2027],[96.6139,5.2144],[96.7202,5.2559],[96.8273,5.2776],[96.8552,5.2774],[96.8303,5.2714],[96.8998,5.2516],[96.9753,5.2665],[97.0818,5.2327],[97.1448,5.2004],[97.1432,5.1623],[97.1981,5.1461],[97.4967,5.2537],[97.5137,5.2464],[97.5468,5.2151],[97.5273,5.2057],[97.57,5.1904],[97.5722,5.1386],[97.6018,5.1419],[97.611,5.1139],[97.6525,5.1197],[97.648,5.0751],[97.806,4.9341],[97.9015,4.8871],[97.934,4.808],[97.9619,4.7262],[97.9615,4.668],[97.9946,4.6349],[98.0,4.6047],[97.9604,4.5316],[97.9823,4.5447],[98.0,4.5268],[98.0,4.0],[96.2775,4.0],[96.1485,4.1406],[96.1249,4.128],[96.0536,4.206],[96.0229,4.196],[95.7128,4.5268],[95.6081,4.6162],[95.5654,4.6262],[95.5834,4.6462],[95.5723,4.6567],[95.5387,4.6473],[95.4818,4.7609],[95.4119,4.8179],[95.4252,4.8339],[95.3756,4.9197],[95.3694,4.9459],[95.3817,4.9568],[95.3555,4.9992],[95.3623,5.0193],[95.3045,5.0793],[95.3152,5.0834],[95.3041,5.1067],[95.2825,5.1073],[95.3067,5.1271],[95.3055,5.1652],[95.2367,5.2204],[95.2503,5.2266],[95.2336,5.2472],[95.2385,5.2724],[95.2113,5.2699],[95.2156,5.3179],[95.2336,5.3195],[95.2223,5.3417],[95.2331,5.3582],[95.2389,5.3385],[95.2483,5.3663],[95.2286,5.4272],[95.2409,5.4467],[95.2295,5.4922],[95.1897,5.5228],[95.2202,5.5705],[95.2424,5.5512],[95.2806,5.5506],[95.3247,5.5899],[95.3527,5.5887],[95.4314,5.6564],[95.4651,5.6437],[95.4974,5.5988],[95.5221,5.5944]]],[[[97.998,4.6246],[98.0,4.6279],[98.0,4.6171],[97.998,4.6246]]],[[[93.8348,7.2369],[93.8821,7.197],[93.897,7.0791],[93.9251,7.0201],[93.9547,6.9984],[93.9206,6.9981],[93.95,6.9523],[93.9282,6.9466],[93.924,6.9097],[93.9074,6.8998],[93.9004,6.8466],[93.9191,6.8288],[93.9137,6.8025],[93.8934,6.7908],[93.8853,6.8064],[93.8663,6.8033],[93.8398,6.7471],[93.8175,6.7601],[93.8268,6.8034],[93.7974,6.8258],[93.8052,6.8429],[93.7851,6.8659],[93.7998,6.8743],[93.773,6.9125],[93.7606,6.9036],[93.7512,6.9152],[93.7477,6.9585],[93.6882,7.0176],[93.6598,7.0112],[93.6711,7.0319],[93.6573,7.0934],[93.6718,7.1099],[93.6536,7.12],[93.678,7.1442],[93.6724,7.1738],[93.6879,7.1854],[93.7329,7.1823],[93.7622,7.2069],[93.8033,7.1959],[93.8043,7.2255],[93.8348,7.2369]]],[[[93.7108,7.3892],[93.746,7.3621],[93.7339,7.3215],[93.6705,7.2797],[93.6453,7.2407],[93.6147,7.3039],[93.6295,7.3143],[93.6236,7.3688],[93.6613,7.3675],[93.702,7.3899],[93.6946,7.4414],[93.7108,7.3892]]]]}}