{"type":"Feature","properties":{"speciesId":237,"category":"LC","source":"IUCN Red List","simplifyTol":0.01,"clippedToSubcontinent":true},"geometry":{"type":"MultiPolygon","coordinates":[[[[89.4901,23.8208],[89.5325,23.8154],[89.5155,23.7856],[89.4921,23.8079],[89.4901,23.8208]]],[[[89.5499,23.7951],[89.5704,23.8117],[89.5952,23.815],[89.5966,23.8032],[89.5499,23.7951]]],[[[89.1733,24.0],[89.0914,23.9991],[89.0608,23.9839],[89.0936,23.9665],[89.1225,23.9203],[89.1241,23.9541],[89.1671,23.9259],[89.2341,23.9194],[89.3047,23.8696],[89.4078,23.8978],[89.4384,23.8386],[89.4996,23.7788],[89.5973,23.7973],[89.674,23.1449],[89.4656,22.6446],[89.0487,22.3944],[88.6735,22.3111],[87.9231,22.3111],[87.2977,22.0192],[86.9642,21.8108],[86.6307,21.4356],[86.589,21.1021],[86.5056,20.7685],[86.047,20.1432],[85.5467,19.9347],[85.1715,19.8514],[84.5879,19.4761],[84.3794,19.1426],[84.2127,18.8091],[83.7541,18.4756],[83.5873,18.3088],[83.3372,18.1004],[83.2121,17.8919],[82.6701,17.7252],[82.6641,17.5455],[82.3723,17.2295],[81.9833,16.573],[81.2782,16.3785],[80.5732,15.9895],[80.0854,15.5573],[79.9897,14.9927],[80.1355,14.5551],[80.153,14.3112],[80.1263,14.2069],[80.1481,14.0389],[80.1355,13.85],[80.2938,13.4311],[80.3285,13.2227],[80.2956,13.1211],[80.3049,13.0927],[80.2609,13.0127],[80.2741,13.0056],[80.2429,12.8158],[80.2476,12.7533],[80.002,12.3889],[79.9268,12.1259],[79.8651,12.0132],[79.8342,11.9097],[79.8187,11.9071],[79.8333,11.902],[79.7982,11.7882],[79.7762,11.7694],[79.794,11.7694],[79.7932,11.7502],[79.7589,11.6076],[79.7599,11.5414],[79.6685,11.2215],[79.2933,10.4711],[78.7513,10.0125],[78.251,9.9708],[77.7507,10.0125],[77.3338,10.1376],[76.6251,11.3049],[76.2082,11.6384],[75.9997,12.5973],[74.9992,13.9314],[74.6657,14.6401],[74.2488,15.1404],[74.082,15.6407],[73.8319,16.0159],[73.7485,16.3494],[73.4567,16.8497],[73.3733,18.017],[73.2899,18.6423],[73.0815,19.1426],[73.0815,19.6846],[73.1231,20.2683],[73.1231,20.5601],[73.2482,21.0187],[73.6651,21.1437],[73.8736,21.4356],[74.4155,21.4356],[74.9158,21.3522],[75.5412,21.3522],[76.4166,21.3105],[76.9169,21.2688],[78.0426,21.5606],[79.0014,22.1443],[80.1271,22.5612],[81.3361,22.9781],[82.7535,23.6034],[83.1287,24.1454],[83.629,24.6457],[84.2544,24.9375],[85.0882,25.6879],[85.922,25.8964],[86.7974,25.8964],[87.7563,25.9381],[88.8402,25.5629],[89.1738,25.2294],[89.4239,24.9375],[89.4239,24.2288],[89.5929,23.8345],[89.5318,23.8255],[89.4497,23.8706],[89.4256,23.9133],[89.3865,23.9431],[89.3288,23.9487],[89.2758,23.9881],[89.3167,23.9504],[89.2926,23.9454],[89.2414,23.9813],[89.1733,24.0]]],[[[89.3479,23.8867],[89.3177,23.8867],[89.3147,23.8929],[89.3479,23.8867]]],[[[89.3791,23.9063],[89.398,23.9267],[89.4109,23.9196],[89.3791,23.9063]]],[[[89.3709,23.9404],[89.3556,23.8929],[89.3149,23.8989],[89.2906,23.9388],[89.3709,23.9404]]],[[[89.1866,23.9588],[89.2314,23.9586],[89.2524,23.9367],[89.2298,23.9463],[89.2358,23.9322],[89.2241,23.9316],[89.1866,23.9588]]],[[[89.1773,23.9953],[89.154,23.9895],[89.1391,23.9934],[89.1568,23.9991],[89.1773,23.9953]]]]}}