{"type":"Feature","properties":{"speciesId":239,"category":"LC","source":"IUCN Red List","simplifyTol":0.01,"clippedToSubcontinent":true},"geometry":{"type":"MultiPolygon","coordinates":[[[[76.8119,19.5008],[76.7115,19.5121],[76.6233,19.5417],[76.4707,19.6516],[76.3645,19.8229],[76.3294,20.0162],[76.3677,20.218],[76.4707,20.3816],[76.5491,20.4496],[76.6311,20.4954],[76.8119,20.5331],[76.9926,20.4954],[77.0746,20.4496],[77.153,20.3816],[77.256,20.218],[77.2943,20.0162],[77.2592,19.8229],[77.153,19.6516],[77.0004,19.5417],[76.9122,19.5121],[76.8119,19.5008]]],[[[88.9344,22.0049],[88.8341,22.0163],[88.7459,22.0465],[88.5932,22.1582],[88.487,22.3323],[88.4519,22.5288],[88.4902,22.734],[88.5932,22.9004],[88.6716,22.9696],[88.7536,23.0162],[88.9344,23.0546],[89.1151,23.0162],[89.1972,22.9696],[89.2755,22.9004],[89.3785,22.734],[89.4169,22.5288],[89.3817,22.3323],[89.2755,22.1582],[89.1229,22.0465],[89.0347,22.0163],[88.9344,22.0049]]],[[[80.4428,23.2655],[80.3425,23.277],[80.2543,23.3074],[80.1016,23.4201],[79.9954,23.5958],[79.9603,23.7941],[79.9987,24.0013],[80.1016,24.1692],[80.18,24.2391],[80.2621,24.2862],[80.4428,24.3249],[80.6235,24.2862],[80.7056,24.2391],[80.784,24.1692],[80.8869,24.0013],[80.9253,23.7941],[80.8901,23.5958],[80.784,23.4201],[80.6313,23.3074],[80.5431,23.277],[80.4428,23.2655]]],[[[90.9194,23.8093],[90.8191,23.8208],[90.7309,23.8514],[90.5783,23.9645],[90.4721,24.141],[90.4369,24.3401],[90.4753,24.5481],[90.5783,24.7168],[90.6566,24.787],[90.7387,24.8342],[90.9194,24.8731],[91.1002,24.8342],[91.1822,24.787],[91.2606,24.7168],[91.3635,24.5481],[91.4019,24.3401],[91.3668,24.141],[91.2606,23.9645],[91.1079,23.8514],[91.0197,23.8208],[90.9194,23.8093]]],[[[76.0316,25.7614],[75.9313,25.7731],[75.8431,25.8041],[75.6904,25.919],[75.5842,26.0983],[75.5491,26.3005],[75.5875,26.5119],[75.6904,26.6833],[75.7688,26.7546],[75.8508,26.8027],[76.0316,26.8422],[76.2123,26.8027],[76.2944,26.7546],[76.3727,26.6833],[76.4757,26.5119],[76.5141,26.3005],[76.4789,26.0983],[76.3727,25.919],[76.2201,25.8041],[76.1319,25.7731],[76.0316,25.7614]]],[[[78.568,25.7614],[78.4677,25.7731],[78.3795,25.8041],[78.2269,25.919],[78.1207,26.0983],[78.0855,26.3005],[78.1239,26.5119],[78.2269,26.6833],[78.3053,26.7546],[78.3873,26.8027],[78.568,26.8422],[78.7488,26.8027],[78.8308,26.7546],[78.9092,26.6833],[79.0122,26.5119],[79.0505,26.3005],[79.0154,26.0983],[78.9092,25.919],[78.7566,25.8041],[78.6683,25.7731],[78.568,25.7614]]],[[[82.2105,27.9486],[82.1102,27.9606],[82.022,27.9922],[81.8693,28.1093],[81.8058,28.1986],[81.7631,28.292],[81.728,28.4983],[81.7664,28.7138],[81.8693,28.8886],[81.9477,28.9614],[82.0297,29.0104],[82.1184,29.0405],[82.2105,29.0507],[82.3026,29.0405],[82.3912,29.0104],[82.4733,28.9614],[82.5517,28.8886],[82.6546,28.7138],[82.693,28.4983],[82.6578,28.292],[82.6151,28.1986],[82.5517,28.1093],[82.399,27.9922],[82.3108,27.9606],[82.2105,27.9486]]]]}}