{"type":"Feature","properties":{"speciesId":245,"category":"CR","source":"IUCN Red List","simplifyTol":0.01,"clippedToSubcontinent":true},"geometry":{"type":"MultiPolygon","coordinates":[[[[84.8193,20.7916],[84.9167,20.7208],[84.9131,20.6978],[84.9536,20.6439],[84.9217,20.6243],[84.9167,20.6],[84.9339,20.5905],[84.9089,20.5603],[84.9382,20.4967],[84.975,20.4708],[84.9229,20.4423],[84.8967,20.4552],[84.9002,20.4701],[84.8792,20.4708],[84.857,20.4285],[84.7628,20.4343],[84.7575,20.4493],[84.6924,20.4592],[84.7167,20.525],[84.7667,20.55],[84.7358,20.583],[84.6542,20.6167],[84.6839,20.6924],[84.6625,20.725],[84.7158,20.7465],[84.7387,20.7797],[84.8193,20.7916]]],[[[88.2667,23.675],[88.3201,23.6494],[88.3615,23.6577],[88.3875,23.6125],[88.4282,23.5993],[88.4455,23.5733],[88.433,23.5316],[88.4542,23.5208],[88.4458,23.4875],[88.4092,23.4785],[88.4036,23.4353],[88.3636,23.4202],[88.3534,23.3953],[88.3103,23.3964],[88.2958,23.4375],[88.2468,23.4546],[88.2375,23.4708],[88.2504,23.5267],[88.22,23.5658],[88.1386,23.5789],[88.109,23.6259],[88.1333,23.6583],[88.1844,23.6495],[88.2049,23.6824],[88.2426,23.6745],[88.2684,23.708],[88.2667,23.675]]],[[[89.7351,23.9371],[89.7121,23.9025],[89.7455,23.8399],[89.7458,23.8042],[89.6998,23.8215],[89.6598,23.8118],[89.6414,23.8423],[89.6125,23.8292],[89.6211,23.8386],[89.6051,23.866],[89.6297,23.8905],[89.6137,23.9003],[89.6253,23.9136],[89.6042,23.9542],[89.672,23.9372],[89.6965,23.9866],[89.725,24.0],[89.7351,23.9371]]],[[[92.9409,24.7078],[92.9845,24.7214],[93.025,24.7125],[93.0257,24.6925],[93.0458,24.6833],[93.0131,24.6449],[93.0202,24.5676],[92.9913,24.4601],[92.942,24.3733],[92.9584,24.3655],[92.9381,24.3103],[92.9673,24.2796],[92.941,24.2006],[92.9491,24.1456],[92.9258,24.1492],[92.9121,24.0809],[92.9337,23.9934],[92.925,23.8542],[92.9464,23.7603],[92.9708,23.7292],[92.9708,23.6542],[92.9464,23.5939],[92.95,23.5542],[92.9132,23.5324],[92.8929,23.4828],[92.8583,23.4792],[92.8538,23.5066],[92.8351,23.5163],[92.8205,23.4684],[92.7667,23.4417],[92.7438,23.4662],[92.7135,23.4712],[92.7047,23.502],[92.7245,23.6228],[92.7167,23.7333],[92.7412,23.7688],[92.7286,23.7966],[92.7458,23.875],[92.72,23.9825],[92.7068,23.9708],[92.6811,23.9797],[92.6672,24.0186],[92.6964,24.1591],[92.6744,24.2299],[92.6953,24.252],[92.725,24.3542],[92.7161,24.3841],[92.7375,24.45],[92.7254,24.4608],[92.7958,24.5896],[92.8004,24.6399],[92.8407,24.6881],[92.8583,24.6833],[92.8741,24.7547],[92.9409,24.7078]]],[[[82.0784,24.5881],[82.3292,24.6],[82.3658,24.5866],[82.3783,24.555],[82.3105,24.5173],[82.1395,24.4828],[82.1007,24.4491],[82.0871,24.4093],[81.8708,24.3042],[81.8333,24.3875],[81.7966,24.4091],[81.795,24.4253],[81.7716,24.4174],[81.7616,24.4409],[81.7159,24.4422],[81.6271,24.4171],[81.6006,24.4561],[81.7801,24.5619],[81.8958,24.5792],[81.8962,24.5517],[81.9157,24.5369],[81.9342,24.5535],[82.0784,24.5881]]],[[[80.3042,25.2958],[80.3816,25.2371],[80.408,25.2358],[80.4241,25.1675],[80.3565,25.1432],[80.2733,25.0295],[80.1493,24.9384],[80.0708,24.9417],[80.0869,24.9603],[80.0866,25.0035],[80.0548,25.0176],[80.0536,25.0397],[80.0333,25.0458],[80.0167,25.0792],[80.05,25.1125],[80.1042,25.0917],[80.1381,25.1605],[80.1583,25.1723],[80.1583,25.1958],[80.227,25.2369],[80.2868,25.2466],[80.3042,25.2958]]],[[[77.1208,26.1542],[77.0824,26.1952],[77.0206,26.2259],[77.0334,26.2345],[77.0208,26.2875],[77.0767,26.3205],[77.1824,26.291],[77.1996,26.2524],[77.2,26.225],[77.1295,26.2025],[77.1208,26.1542]]],[[[76.5625,25.8417],[76.5619,25.752],[76.5372,25.6968],[76.5494,25.695],[76.55,25.6625],[76.5696,25.6714],[76.6417,25.6542],[76.6662,25.6063],[76.6542,25.5875],[76.6188,25.5838],[76.5699,25.5828],[76.5324,25.6089],[76.5125,25.5958],[76.5425,25.53],[76.6256,25.4549],[76.625,25.4083],[76.6,25.3875],[76.5381,25.3866],[76.5412,25.3271],[76.5173,25.2938],[76.517,25.1976],[76.5672,25.1091],[76.5421,25.0688],[76.5496,25.0017],[76.5333,24.9708],[76.4092,25.0634],[76.441,25.1426],[76.4381,25.1939],[76.4589,25.2282],[76.4333,25.3688],[76.4417,25.3875],[76.4157,25.4449],[76.3924,25.4545],[76.3742,25.5243],[76.3394,25.5287],[76.3459,25.5445],[76.325,25.5625],[76.3417,25.5958],[76.3908,25.6092],[76.3964,25.6814],[76.4908,25.7799],[76.5083,25.8208],[76.5625,25.8417]]],[[[76.5536,25.8429],[76.5572,25.8462],[76.5583,25.8417],[76.5536,25.8429]]],[[[77.0375,26.175],[77.0702,26.101],[77.033,26.0434],[77.067,25.972],[77.0284,25.9578],[76.9976,25.9663],[76.975,25.9438],[77.0717,25.8342],[77.1042,25.8333],[77.1038,25.81],[77.0816,25.7871],[76.9728,25.8464],[76.8625,25.9875],[76.8304,26.0006],[76.817,25.9851],[76.8578,25.923],[76.9129,25.7767],[76.9267,25.7545],[76.95,25.7542],[76.9458,25.7417],[76.877,25.7422],[76.8286,25.823],[76.7843,25.8464],[76.7667,25.9],[76.7375,25.9083],[76.7454,25.9188],[76.7254,25.9351],[76.7254,25.9975],[76.7038,26.0225],[76.725,26.0417],[76.7163,26.1059],[76.7625,26.1042],[76.8167,26.1292],[76.8524,26.1212],[76.8812,26.1495],[76.9655,26.1414],[77.0184,26.1746],[77.0375,26.175]]],[[[95.5166,27.7596],[95.6286,27.7714],[95.6909,27.7533],[95.7493,27.6993],[95.7715,27.6402],[95.759,27.6104],[95.852,27.5381],[95.8949,27.5327],[95.9074,27.484],[95.8341,27.4494],[95.8103,27.4536],[95.7417,27.4125],[95.7449,27.4284],[95.6995,27.4631],[95.6407,27.4244],[95.623,27.4411],[95.5845,27.4369],[95.5869,27.4647],[95.5397,27.4994],[95.5177,27.5006],[95.4882,27.4744],[95.4591,27.4922],[95.3853,27.4881],[95.3667,27.5],[95.2881,27.4717],[95.2785,27.5116],[95.2571,27.4958],[95.1927,27.4967],[95.1698,27.5202],[95.1383,27.5215],[95.1411,27.5396],[95.1132,27.5677],[95.1167,27.5833],[95.1824,27.6006],[95.1926,27.6202],[95.35,27.6375],[95.4158,27.6673],[95.4583,27.7042],[95.4292,27.725],[95.4913,27.7798],[95.5243,27.7743],[95.5166,27.7596]]],[[[81.2511,28.7461],[81.3533,28.7118],[81.3712,28.6226],[81.425,28.5917],[81.4417,28.5542],[81.5079,28.5282],[81.7292,28.3792],[81.7708,28.375],[81.8574,28.3326],[81.8949,28.3076],[81.9199,28.2631],[81.8625,28.2375],[81.8667,28.2521],[81.8441,28.2746],[81.7926,28.2757],[81.7866,28.295],[81.7042,28.3375],[81.6375,28.35],[81.6042,28.3375],[81.5,28.4042],[81.4589,28.3397],[81.4203,28.2343],[81.4245,28.2104],[81.3953,28.1696],[81.4297,28.0841],[81.4103,28.0464],[81.3786,28.1064],[81.3458,28.1307],[81.3375,28.1917],[81.3494,28.248],[81.3034,28.2756],[81.2743,28.2661],[81.263,28.2813],[81.2917,28.3708],[81.2601,28.3705],[81.2288,28.3017],[81.1941,28.2754],[81.1375,28.2667],[81.1313,28.2833],[81.1167,28.275],[81.116,28.2909],[81.0833,28.2917],[81.1096,28.3742],[81.149,28.3841],[81.1708,28.425],[81.1671,28.4729],[81.258,28.5976],[81.2578,28.6615],[81.2333,28.6625],[81.2125,28.6958],[81.2511,28.7461]]],[[[94.2083,27.6083],[94.2631,27.551],[94.2747,27.5201],[94.2584,27.5234],[94.2808,27.4835],[94.2163,27.36],[94.2288,27.3392],[94.1952,27.3003],[94.2215,27.2837],[94.2173,27.2423],[94.1917,27.2208],[94.1771,27.138],[94.1593,27.1423],[94.1397,27.1828],[94.0882,27.1884],[94.1047,27.2216],[94.0994,27.2647],[94.0466,27.3258],[94.0285,27.373],[93.9875,27.4083],[94.008,27.4358],[93.9754,27.4559],[93.9708,27.4917],[94.0729,27.4922],[94.1534,27.5466],[94.2083,27.6083]]],[[[78.6747,29.6294],[78.7402,29.5628],[78.7737,29.5903],[78.8583,29.6045],[78.7951,29.5806],[78.7836,29.5635],[78.802,29.5556],[78.7756,29.5552],[78.7906,29.5333],[78.7502,29.5391],[78.7526,29.5211],[78.7078,29.5755],[78.7233,29.5758],[78.6775,29.6088],[78.6747,29.6294]]],[[[78.0822,28.971],[78.0542,28.9937],[78.0694,29.0132],[78.0621,29.0014],[78.0822,28.971]]],[[[78.2496,29.1358],[78.2167,29.1],[78.2238,29.055],[78.1042,28.9042],[78.1129,28.9475],[78.0767,28.9894],[78.0785,29.0355],[78.0592,29.0615],[78.0951,29.0967],[78.1073,29.1275],[78.0612,29.0822],[78.0798,29.1175],[78.054,29.1387],[78.0792,29.1542],[78.1226,29.1295],[78.1646,29.1495],[78.1822,29.1372],[78.201,29.1704],[78.2333,29.1875],[78.2496,29.1358]]],[[[80.9657,27.5203],[80.9868,27.5422],[81.0741,27.516],[81.075,27.4917],[81.1038,27.4774],[81.1254,27.4225],[81.262,27.3119],[81.2841,27.3338],[81.3271,27.313],[81.3647,27.3256],[81.4051,27.4036],[81.4375,27.4167],[81.4428,27.4711],[81.4669,27.4659],[81.4638,27.4084],[81.5207,27.3782],[81.5208,27.343],[81.5493,27.3072],[81.55,27.1917],[81.6074,27.1743],[81.6009,27.1217],[81.6375,27.1042],[81.6592,27.0425],[81.7047,27.0217],[81.7125,26.9792],[81.688,26.9396],[81.7429,26.8786],[81.7702,26.8864],[81.7701,26.8259],[81.7339,26.8116],[81.7204,26.7869],[81.6741,26.8322],[81.6472,26.8244],[81.666,26.8645],[81.6534,26.9034],[81.5926,26.8785],[81.5646,26.9119],[81.5289,26.9054],[81.5407,26.9534],[81.4978,26.9631],[81.4659,26.9952],[81.3885,27.0082],[81.3541,27.0597],[81.3661,27.0939],[81.3173,27.1134],[81.3167,27.1375],[81.2816,27.1288],[81.2618,27.1616],[81.1217,27.2174],[81.1074,27.241],[81.034,27.2759],[81.0282,27.3036],[80.9936,27.3047],[80.9745,27.3384],[80.9824,27.3701],[80.9589,27.4061],[80.9617,27.4784],[80.8717,27.5259],[80.8542,27.5688],[80.8772,27.5703],[80.9657,27.5203]]],[[[83.9383,27.5287],[84.1,27.5167],[84.0994,27.4927],[84.0375,27.4292],[83.9833,27.4042],[83.9744,27.3436],[83.9422,27.2853],[83.9869,27.2355],[83.9795,27.1809],[84.0121,27.1608],[84.0129,27.1267],[84.0591,27.0633],[84.0867,27.0576],[84.0978,27.0381],[84.1438,27.0329],[84.1686,27.0006],[84.1875,27.0],[84.1813,26.9375],[84.1417,26.9375],[84.1033,26.9868],[84.0581,26.972],[84.0578,27.0064],[84.0283,27.0534],[83.9591,27.0754],[83.9542,27.05],[83.9386,27.0456],[83.901,27.0712],[83.9089,27.1238],[83.8914,27.1303],[83.8949,27.1783],[83.8747,27.1801],[83.8784,27.1952],[83.8583,27.1958],[83.8542,27.2208],[83.7882,27.2594],[83.7864,27.2785],[83.7551,27.2924],[83.763,27.3135],[83.7382,27.3301],[83.7417,27.3708],[83.7726,27.3996],[83.8,27.4],[83.8337,27.5066],[83.8562,27.5292],[83.875,27.5167],[83.8966,27.5493],[83.9292,27.5542],[83.9383,27.5287]]],[[[84.3708,27.6417],[84.2145,27.5911],[84.1842,27.57],[84.1608,27.517],[84.1083,27.5167],[84.155,27.595],[84.2217,27.645],[84.3233,27.6754],[84.3483,27.6746],[84.3708,27.6417]]],[[[90.3375,26.35],[90.3547,26.3132],[90.3463,26.2979],[90.3881,26.2424],[90.3634,26.1372],[90.3792,26.1458],[90.392,26.11],[90.4441,26.0746],[90.5417,26.1333],[90.5629,26.1184],[90.5587,26.0892],[90.5754,26.0726],[90.549,26.0258],[90.5051,26.0202],[90.4826,25.9841],[90.4506,25.973],[90.4327,25.9297],[90.4486,25.891],[90.4135,25.8952],[90.4032,25.8706],[90.3507,25.8616],[90.3171,25.7937],[90.3462,25.7475],[90.3342,25.7257],[90.3662,25.7021],[90.3453,25.6716],[90.3708,25.575],[90.3333,25.5848],[90.3244,25.6564],[90.2675,25.6717],[90.2172,25.752],[90.2214,25.8007],[90.1844,25.8132],[90.175,25.8854],[90.1462,25.8975],[90.145,25.9741],[90.1032,26.016],[90.0083,26.0167],[90.0458,26.05],[90.0411,26.0655],[90.1116,26.1009],[90.125,26.1417],[90.2321,26.1453],[90.2426,26.1743],[90.2702,26.1759],[90.2922,26.2576],[90.2756,26.3064],[90.3104,26.3412],[90.3375,26.35]]],[[[78.4542,27.1292],[78.7158,26.995],[78.7259,26.9717],[78.9145,26.8339],[78.97,26.8409],[79.0286,26.7911],[79.0417,26.8042],[79.0782,26.7657],[79.0625,26.7333],[79.0926,26.6882],[79.1395,26.6506],[79.2284,26.6326],[79.2561,26.5797],[79.3114,26.5711],[79.3339,26.5446],[79.3333,26.5],[79.2595,26.4964],[79.2524,26.4754],[79.1892,26.4587],[79.165,26.5038],[79.0726,26.517],[79.054,26.5574],[78.9706,26.6008],[78.9658,26.6362],[78.8833,26.6458],[78.8397,26.6744],[78.8179,26.6661],[78.7708,26.7208],[78.6968,26.7131],[78.6667,26.7292],[78.6491,26.7007],[78.5745,26.6952],[78.5659,26.7117],[78.4772,26.7453],[78.4345,26.7506],[78.4167,26.7375],[78.3905,26.7751],[78.3824,26.7581],[78.3385,26.7757],[78.3324,26.7961],[78.2175,26.7616],[78.2077,26.7009],[78.1158,26.634],[78.0958,26.6292],[78.0525,26.683],[78.0361,26.6667],[78.0135,26.6715],[77.97,26.6174],[77.9333,26.6125],[77.8792,26.575],[77.8792,26.5458],[77.8476,26.5455],[77.8233,26.5212],[77.7767,26.508],[77.7397,26.4673],[77.5853,26.4119],[77.4738,26.2953],[77.4396,26.2995],[77.3625,26.2667],[77.359,26.2301],[77.4125,26.1875],[77.3774,26.1545],[77.3422,26.1978],[77.324,26.2576],[77.2583,26.2542],[77.2449,26.2951],[77.2134,26.3048],[77.2983,26.3337],[77.3142,26.358],[77.3542,26.3583],[77.35,26.3958],[77.4199,26.3798],[77.4299,26.4076],[77.4741,26.4252],[77.4881,26.4673],[77.4785,26.4819],[77.5583,26.4958],[77.5698,26.5172],[77.5949,26.5078],[77.6146,26.5287],[77.649,26.5256],[77.659,26.5449],[77.6958,26.5583],[77.7,26.5833],[77.7583,26.6],[77.7791,26.6487],[77.8958,26.7],[77.9042,26.7375],[78.0063,26.7673],[78.0292,26.8083],[78.07,26.8216],[78.1103,26.8619],[78.2377,26.8717],[78.2395,26.891],[78.3522,26.9006],[78.3845,26.9256],[78.4542,26.9208],[78.4542,26.9833],[78.4952,27.0051],[78.4961,27.0386],[78.4288,27.0988],[78.4542,27.1292]]]]}}