{"type":"Feature","properties":{"speciesId":247,"category":"LC","source":"IUCN Red List","simplifyTol":0.01,"clippedToSubcontinent":true},"geometry":{"type":"MultiPolygon","coordinates":[[[[95.2682,15.9572],[95.2679,15.9568],[95.2686,15.9597],[95.2682,15.9572]]],[[[95.3318,15.9687],[95.2636,15.8636],[95.2411,15.8644],[95.273,15.9563],[95.28,16.022],[95.3198,16.079],[95.3453,16.0479],[95.3318,15.9687]]],[[[94.3422,16.0097],[94.3157,15.9811],[94.2799,15.9896],[94.3322,16.0117],[94.3422,16.0097]]],[[[94.8099,15.9774],[94.8423,16.0605],[94.8509,16.0611],[94.843,16.0],[94.8099,15.9774]]],[[[94.694,16.0017],[94.7016,16.0264],[94.7171,16.0504],[94.7165,16.0229],[94.694,16.0017]]],[[[95.1064,15.9404],[95.1036,15.9645],[95.1207,15.9944],[95.1186,15.9526],[95.1064,15.9404]]],[[[95.186,16.0354],[95.1301,16.0312],[95.1019,15.9782],[95.1066,16.0586],[95.1719,16.1117],[95.2106,16.1027],[95.1806,16.075],[95.186,16.0354]]],[[[95.1362,16.1514],[95.1272,16.1447],[95.1335,16.1565],[95.1362,16.1514]]],[[[95.3263,16.1146],[95.3113,16.1457],[95.3183,16.1719],[95.3666,16.2017],[95.3641,16.1565],[95.3263,16.1146]]],[[[95.9016,16.2554],[95.9031,16.273],[95.9078,16.2866],[95.9133,16.2749],[95.9016,16.2554]]],[[[94.6634,16.2766],[94.6618,16.2779],[94.6624,16.2782],[94.6634,16.2766]]],[[[95.8944,16.238],[95.8925,16.2383],[95.8943,16.2393],[95.8944,16.238]]],[[[94.6827,16.2978],[94.6777,16.3019],[94.6812,16.3123],[94.6827,16.2978]]],[[[94.6537,16.3052],[94.6463,16.3297],[94.6823,16.38],[94.6851,16.3628],[94.6537,16.3052]]],[[[94.6979,16.3684],[94.698,16.3876],[94.7024,16.3907],[94.7021,16.3785],[94.6979,16.3684]]],[[[96.3107,16.85],[96.3016,16.8461],[96.3033,16.8612],[96.3107,16.85]]],[[[96.6759,17.3462],[96.6652,17.3236],[96.655,17.3372],[96.6759,17.3462]]],[[[96.778,17.3694],[96.7677,17.3663],[96.7776,17.3754],[96.778,17.3694]]],[[[96.8399,17.4047],[96.7884,17.3795],[96.7385,17.4383],[96.792,17.4828],[96.8078,17.4389],[96.8399,17.4047]]],[[[97.6273,16.5418],[97.6435,16.5772],[97.6647,16.5554],[97.6616,16.5491],[97.6273,16.5418]]],[[[97.6573,16.5738],[97.6481,16.5787],[97.6515,16.5872],[97.6573,16.5738]]],[[[97.6359,16.5736],[97.6122,16.58],[97.6261,16.6184],[97.6445,16.6024],[97.6359,16.5736]]],[[[95.9728,16.2189],[95.9341,16.2175],[95.9557,16.2478],[95.9703,16.3017],[95.971,16.3446],[96.0005,16.382],[96.0736,16.335],[96.0758,16.3169],[95.9728,16.2189]]],[[[95.9615,16.2951],[95.9577,16.313],[95.9577,16.3487],[95.9672,16.3175],[95.9615,16.2951]]],[[[95.9294,16.2326],[95.8996,16.2374],[95.9178,16.273],[95.913,16.3313],[95.9399,16.3786],[95.9563,16.3263],[95.952,16.2719],[95.9294,16.2326]]],[[[95.9343,16.3798],[95.9279,16.3735],[95.9334,16.3835],[95.9343,16.3798]]],[[[95.9658,16.3464],[95.9522,16.3705],[95.9586,16.4063],[95.9924,16.3898],[95.9658,16.3464]]],[[[95.9399,16.3965],[95.9325,16.3958],[95.9328,16.3981],[95.9399,16.3965]]],[[[95.9515,16.3793],[95.9437,16.3836],[95.9477,16.39],[95.9515,16.3793]]],[[[96.0071,16.3859],[95.9936,16.3955],[95.9936,16.399],[96.0071,16.3859]]],[[[96.1866,16.4686],[96.1983,16.4864],[96.1788,16.5142],[96.1851,16.5578],[96.1782,16.581],[96.2256,16.5999],[96.3038,16.4614],[96.2944,16.4457],[96.3088,16.4524],[96.2683,16.3897],[96.1828,16.3475],[96.091,16.3517],[96.109,16.3796],[96.1432,16.3846],[96.1668,16.414],[96.1488,16.4548],[96.1585,16.453],[96.1804,16.4603],[96.1866,16.4686]]],[[[94.0541,19.0332],[94.0549,19.0372],[94.0559,19.0357],[94.0541,19.0332]]],[[[94.2452,18.533],[94.2458,18.5344],[94.2461,18.5343],[94.2452,18.533]]],[[[94.1131,18.8492],[94.1362,18.856],[94.1203,18.8111],[94.0733,18.8313],[94.0678,18.8476],[94.0863,18.8476],[94.1155,18.8697],[94.1131,18.8492]]],[[[94.0555,19.3461],[94.0403,19.3418],[94.0545,19.3488],[94.0555,19.3461]]],[[[93.5855,19.8796],[93.5936,19.9044],[93.6058,19.9024],[93.5855,19.8796]]],[[[93.4705,19.9607],[93.4711,19.9623],[93.476,19.9617],[93.4705,19.9607]]],[[[93.4609,19.9581],[93.4445,19.9836],[93.4499,19.9931],[93.4635,19.9765],[93.4609,19.9581]]],[[[93.4855,19.9635],[93.4747,19.9808],[93.4747,19.9909],[93.497,19.9809],[93.4855,19.9635]]],[[[93.704,19.7568],[93.69,19.7132],[93.6317,19.7182],[93.6559,19.7785],[93.6663,19.76],[93.6911,19.7895],[93.704,19.7568]]],[[[93.814,19.7108],[93.8093,19.7149],[93.8121,19.7273],[93.814,19.7108]]],[[[93.6699,19.8526],[93.7012,19.8521],[93.6017,19.7153],[93.601,19.7906],[93.6301,19.8135],[93.6495,19.8618],[93.6699,19.8526]]],[[[93.7368,19.7887],[93.6991,19.7962],[93.7435,19.8327],[93.7452,19.8097],[93.7368,19.7887]]],[[[93.7634,19.8635],[93.7925,19.8314],[93.7771,19.7662],[93.7124,19.7645],[93.7041,19.7837],[93.7335,19.7817],[93.7469,19.7906],[93.7545,19.8254],[93.7409,19.8453],[93.7634,19.8635]]],[[[93.7265,19.8506],[93.7327,19.8242],[93.678,19.7891],[93.6827,19.8215],[93.7265,19.8506]]],[[[93.6914,19.8883],[93.7357,19.8838],[93.7369,19.8696],[93.6902,19.8775],[93.6632,19.8581],[93.6545,19.8692],[93.6914,19.8883]]],[[[92.8428,20.2997],[92.7685,20.2973],[92.7578,20.3444],[92.7636,20.4324],[92.7905,20.4382],[92.8136,20.4329],[92.8603,20.3258],[92.8428,20.2997]]],[[[93.2728,20.2683],[93.2347,20.2758],[93.2548,20.3126],[93.2708,20.3147],[93.2636,20.2969],[93.2728,20.2683]]],[[[93.009,20.2867],[93.0157,20.3142],[93.0091,20.2869],[93.009,20.2867]]],[[[93.0225,20.4406],[93.0173,20.454],[93.0283,20.4594],[93.0225,20.4406]]],[[[93.0411,20.4872],[93.0444,20.5033],[93.0566,20.5153],[93.0411,20.4872]]],[[[93.2914,20.353],[93.2847,20.3436],[93.2902,20.3544],[93.2914,20.353]]],[[[93.1334,20.3059],[93.1755,20.3243],[93.2152,20.3051],[93.143,20.2188],[93.1272,20.2428],[93.1284,20.2167],[93.1036,20.2139],[93.0167,20.1442],[92.9954,20.1441],[92.9995,20.2476],[92.9995,20.2077],[93.0221,20.2687],[93.04,20.2773],[93.0446,20.3321],[93.12,20.3744],[93.1322,20.3447],[93.1199,20.3296],[93.1288,20.321],[93.1403,20.3166],[93.1334,20.3059]]],[[[93.1093,20.4186],[93.0785,20.4073],[93.0778,20.3641],[93.0435,20.3504],[93.0351,20.3909],[93.0851,20.5053],[93.1093,20.4186]]],[[[93.2347,19.8206],[93.1633,19.9447],[93.1267,20.0519],[93.1379,20.0533],[93.1809,19.9394],[93.2466,19.826],[93.2347,19.8206]]],[[[92.983,20.1239],[93.0682,20.116],[93.0872,20.0864],[93.074,20.0765],[93.1218,20.0396],[93.14,19.9983],[93.1014,19.9783],[93.0992,19.9556],[93.1311,19.8553],[93.1672,19.8025],[93.0564,19.9521],[93.0421,20.0089],[92.9844,20.0694],[92.983,20.1239]]],[[[93.3333,20.0521],[93.3316,20.0642],[93.339,20.0728],[93.3416,20.066],[93.3333,20.0521]]],[[[93.1585,20.0669],[93.1774,20.052],[93.1425,20.0706],[93.1585,20.0669]]],[[[93.1285,20.062],[93.1188,20.0584],[93.1264,20.0691],[93.1285,20.062]]],[[[93.1267,20.079],[93.1119,20.0615],[93.0988,20.0779],[93.0949,20.0879],[93.1195,20.0869],[93.0855,20.1002],[93.0736,20.1239],[93.0877,20.1388],[93.1092,20.1359],[93.1267,20.079]]],[[[93.2991,20.0481],[93.2862,20.0946],[93.3034,20.1704],[93.3109,20.1152],[93.3309,20.0821],[93.2991,20.0481]]],[[[93.328,20.1069],[93.3118,20.1313],[93.313,20.1366],[93.3256,20.1211],[93.328,20.1069]]],[[[93.2119,20.1598],[93.2312,20.113],[93.2035,20.0935],[93.1892,20.0627],[93.1329,20.0846],[93.1113,20.1403],[93.0981,20.1542],[93.123,20.1798],[93.1717,20.1884],[93.1898,20.168],[93.2119,20.1598]]],[[[93.0895,20.1485],[93.064,20.134],[93.0889,20.1524],[93.0895,20.1485]]],[[[93.2528,20.1437],[93.2845,20.1445],[93.2744,20.0854],[93.2894,20.0741],[93.288,20.0454],[93.2073,20.0483],[93.2079,20.0922],[93.2467,20.116],[93.2292,20.1567],[93.1829,20.1916],[93.2081,20.2124],[93.2167,20.2346],[93.2528,20.2427],[93.2512,20.2636],[93.2766,20.2438],[93.3004,20.1904],[93.2837,20.158],[93.2528,20.1437]]],[[[93.3231,20.3224],[93.3364,20.2789],[93.3577,20.27],[93.3906,20.2092],[93.4112,20.1214],[93.4012,20.1103],[93.3839,20.1859],[93.396,20.1024],[93.3666,20.084],[93.3755,20.0386],[93.359,20.0423],[93.3556,20.0728],[93.3143,20.1414],[93.3067,20.2079],[93.2713,20.2575],[93.2776,20.2882],[93.2677,20.2972],[93.2839,20.3204],[93.3231,20.3224]]],[[[88.1323,21.6206],[88.065,21.6297],[88.045,21.6608],[88.053,21.7208],[88.1297,21.875],[88.1569,21.8431],[88.1667,21.7697],[88.1323,21.6206]]],[[[91.8869,21.4733],[91.8544,21.5131],[91.8439,21.6906],[91.8633,21.7436],[91.884,21.755],[91.9364,21.7342],[91.9822,21.6117],[91.965,21.5164],[91.8869,21.4733]]],[[[90.5968,22.448],[90.5968,22.4524],[90.6023,22.4613],[90.5968,22.448]]],[[[91.513,22.3456],[91.4753,22.3622],[91.4053,22.4828],[91.4328,22.6227],[91.46,22.6056],[91.5253,22.5094],[91.56,22.4353],[91.5619,22.3707],[91.513,22.3456]]],[[[90.6084,23.4913],[90.6132,23.4946],[90.6248,23.496],[90.6084,23.4913]]],[[[90.6457,23.5019],[90.6435,23.5019],[90.6464,23.5055],[90.6457,23.5019]]],[[[90.5668,23.5437],[90.5605,23.5472],[90.5652,23.547],[90.5668,23.5437]]],[[[90.5194,22.6858],[90.4846,22.7557],[90.4557,22.7658],[90.4699,22.8673],[90.5878,22.8822],[90.6836,22.8539],[90.6919,22.8322],[90.6564,22.7964],[90.5416,22.7832],[90.5472,22.7194],[90.5194,22.6858]]],[[[90.5175,21.988],[90.4794,22.0382],[90.4864,22.0771],[90.6107,22.1617],[90.5632,22.0331],[90.5175,21.988]]],[[[90.6714,21.9872],[90.6374,21.9926],[90.602,22.0317],[90.6239,22.1561],[90.6764,22.2697],[90.6767,22.4455],[90.6428,22.5531],[90.5569,22.6053],[90.5508,22.6397],[90.5831,22.7669],[90.6625,22.7832],[90.681,22.7735],[90.7128,22.6519],[90.8596,22.5],[90.8789,22.4367],[90.8203,22.1358],[90.7697,22.0701],[90.6714,21.9872]]],[[[91.0272,22.0839],[91.0536,22.1842],[91.073,22.5075],[91.0897,22.524],[91.1739,22.3211],[91.1747,22.2186],[91.1417,22.1614],[91.0272,22.0839]]],[[[97.5884,5.1511],[97.5765,5.1602],[97.5769,5.1653],[97.5884,5.1511]]],[[[97.8664,9.4197],[97.878,9.395],[97.8794,9.3823],[97.8397,9.4202],[97.8664,9.4197]]],[[[97.8645,9.4351],[97.8667,9.4267],[97.8591,9.4318],[97.8645,9.4351]]],[[[97.8764,9.4756],[97.9016,9.4431],[97.8746,9.4576],[97.8811,9.4299],[97.8463,9.4465],[97.8764,9.4756]]],[[[96.2986,4.0003],[96.1839,4.1267],[96.0091,4.2231],[95.8283,4.4206],[95.5311,4.6828],[95.3709,4.9479],[95.3817,4.9568],[95.3555,4.9993],[95.3623,5.0193],[95.2852,5.1151],[95.3067,5.1271],[95.3055,5.1652],[95.2322,5.2831],[95.2555,5.4058],[95.225,5.4949],[95.2308,5.5708],[95.2424,5.5512],[95.2806,5.5506],[95.3247,5.5899],[95.3527,5.5887],[95.428,5.6544],[95.4651,5.6437],[95.5107,5.5957],[95.6091,5.6267],[95.6729,5.5857],[95.879,5.5067],[95.9042,5.427],[96.0735,5.2928],[96.3882,5.2148],[96.5814,5.2072],[96.6916,5.2278],[96.8085,5.2739],[96.8553,5.2775],[96.8303,5.2714],[96.8998,5.2516],[96.9753,5.2665],[97.0818,5.2327],[97.1454,5.2],[97.1432,5.1623],[97.1981,5.1461],[97.5013,5.2528],[97.5468,5.2151],[97.5273,5.2057],[97.57,5.1904],[97.5722,5.1386],[97.6017,5.1419],[97.648,5.0751],[97.806,4.9341],[97.9036,4.8846],[97.9619,4.7262],[97.9615,4.668],[98.0,4.6047],[97.9604,4.5316],[97.9823,4.5447],[98.0,4.5268],[98.0,4.0],[96.2986,4.0003]]],[[[98.0,14.2877],[97.9679,14.3955],[98.0,14.4789],[98.0,14.2877]]],[[[97.9963,14.4786],[97.9654,14.4261],[97.9407,14.5262],[97.9058,14.5783],[97.9134,14.6195],[97.9047,14.6107],[97.8728,14.671],[97.8944,14.7054],[97.8855,14.723],[97.8678,14.7078],[97.8392,14.7187],[97.7918,14.8683],[97.8083,14.9501],[97.7969,14.9973],[97.8132,15.0062],[97.8244,15.0243],[97.791,14.9984],[97.7707,15.0183],[97.7958,15.0271],[97.8063,15.1503],[97.787,15.1795],[97.7951,15.1903],[97.7653,15.1971],[97.7387,15.2445],[97.7417,15.295],[97.7215,15.3328],[97.7275,15.3548],[97.7469,15.3561],[97.7465,15.3837],[97.7828,15.397],[97.7408,15.4871],[97.762,15.5281],[97.6994,15.7541],[97.7217,15.7717],[97.7179,15.8434],[97.6754,15.9144],[97.6103,15.949],[97.6035,15.9803],[97.5713,16.0108],[97.5582,16.0726],[97.5967,16.0851],[97.6143,16.0611],[97.6277,16.0504],[97.648,16.0442],[97.6654,16.0486],[97.6772,16.0283],[97.6969,16.0275],[97.6673,16.0521],[97.6202,16.0587],[97.6072,16.1036],[97.5978,16.097],[97.6438,16.27],[97.6155,16.3556],[97.6294,16.3873],[97.6141,16.4256],[97.6284,16.4532],[97.6253,16.5],[97.6621,16.5123],[97.6624,16.4765],[97.6823,16.4655],[97.7025,16.4706],[97.7044,16.4501],[97.7232,16.4502],[97.7198,16.4268],[97.7539,16.4141],[97.7355,16.4023],[97.7334,16.3833],[97.7784,16.3746],[97.7974,16.354],[97.7858,16.3396],[97.7874,16.3327],[97.8346,16.3236],[97.8601,16.2918],[97.8887,16.2862],[97.8521,16.3024],[97.8441,16.3234],[97.7924,16.3327],[97.8031,16.3534],[97.7905,16.3703],[97.7614,16.386],[97.7372,16.386],[97.7578,16.4177],[97.7289,16.4247],[97.7259,16.4541],[97.7068,16.4536],[97.7023,16.474],[97.6641,16.48],[97.6755,16.5007],[97.6684,16.5455],[97.7465,16.5616],[97.7089,16.5706],[97.6685,16.5549],[97.6441,16.6134],[97.6214,16.6433],[97.6077,16.581],[97.6264,16.5585],[97.6215,16.5187],[97.5325,16.5376],[97.4885,16.5387],[97.481,16.5218],[97.3928,16.5251],[97.3629,16.479],[97.3284,16.6589],[97.3466,16.6471],[97.3939,16.64],[97.4108,16.6424],[97.424,16.6584],[97.3927,16.6437],[97.3457,16.6544],[97.3406,16.6666],[97.3578,16.6694],[97.3476,16.6786],[97.328,16.667],[97.3301,16.6963],[97.3439,16.6953],[97.3419,16.7341],[97.3403,16.7095],[97.3207,16.7102],[97.3185,16.668],[97.2772,16.6862],[97.2398,16.7684],[97.2498,16.8225],[97.2349,16.8088],[97.2226,16.8417],[97.227,16.8573],[97.2664,16.8442],[97.2781,16.8505],[97.2659,16.8701],[97.265,16.8481],[97.2228,16.8672],[97.2092,16.8129],[97.1998,16.8823],[97.218,16.9017],[97.2191,16.9379],[97.1906,16.8911],[97.1748,16.8905],[97.1693,16.9107],[97.2072,17.008],[97.1547,17.0678],[97.1533,17.0952],[97.1909,17.1169],[97.2134,17.0874],[97.2645,17.1035],[97.2278,17.1029],[97.2063,17.1338],[97.1791,17.1294],[97.1365,17.1162],[97.1343,17.0806],[97.1143,17.0778],[97.0887,17.1652],[97.1067,17.1878],[97.0833,17.1817],[97.0592,17.2533],[97.0003,17.2667],[97.0091,17.3],[96.9116,17.357],[96.8832,17.4541],[96.8649,17.3961],[96.8417,17.3905],[96.849,17.4134],[96.8209,17.4331],[96.7918,17.4904],[96.7344,17.4353],[96.7735,17.3763],[96.7225,17.3474],[96.6924,17.3664],[96.6584,17.3486],[96.6488,17.3303],[96.6683,17.2691],[96.6962,17.2479],[96.7086,17.2545],[96.6769,17.2675],[96.6854,17.3453],[96.725,17.3382],[96.8366,17.3809],[96.8401,17.3648],[96.8443,17.3762],[96.8597,17.3615],[96.856,17.3431],[96.863,17.3527],[96.9111,17.3215],[96.8907,17.3119],[96.9129,17.3049],[96.9024,17.2717],[96.8335,17.2052],[96.8487,17.2008],[96.8771,17.1123],[96.9001,17.0889],[96.9121,17.0177],[96.8737,16.911],[96.8383,16.9272],[96.8509,16.9591],[96.8346,16.9511],[96.8316,16.9194],[96.8552,16.8877],[96.8359,16.9046],[96.8251,16.8937],[96.8072,16.9106],[96.7967,16.9065],[96.8333,16.8788],[96.8531,16.8372],[96.8078,16.7555],[96.7808,16.7818],[96.7746,16.7731],[96.8013,16.7397],[96.7713,16.6916],[96.5964,16.5366],[96.4938,16.5046],[96.3837,16.4966],[96.2847,16.5537],[96.2867,16.5918],[96.3336,16.6234],[96.4268,16.6076],[96.4699,16.6127],[96.3313,16.6287],[96.2874,16.6001],[96.2778,16.5775],[96.2638,16.6474],[96.2348,16.6789],[96.2228,16.7542],[96.3156,16.8334],[96.3456,16.8333],[96.3941,16.8594],[96.4084,16.8552],[96.4861,16.8699],[96.5119,16.8882],[96.4839,16.8731],[96.3948,16.864],[96.3244,16.8384],[96.32,16.869],[96.3477,16.9059],[96.3007,16.8637],[96.298,16.8408],[96.2776,16.8693],[96.3037,16.8261],[96.2035,16.7632],[96.1847,16.7765],[96.195,16.7898],[96.1915,16.7999],[96.2124,16.7983],[96.2246,16.8111],[96.2182,16.8412],[96.2089,16.8458],[96.2203,16.8109],[96.1917,16.8059],[96.1802,16.7767],[96.1973,16.7597],[96.1288,16.7711],[96.1207,16.8138],[96.1155,16.8122],[96.1319,16.7589],[96.119,16.7566],[96.1921,16.7409],[96.2157,16.6707],[96.2461,16.636],[96.2365,16.6078],[96.1735,16.5831],[96.1736,16.5163],[96.1926,16.4892],[96.1754,16.4635],[96.1417,16.4537],[96.1628,16.4177],[96.0771,16.3572],[96.0173,16.3845],[95.9964,16.4107],[95.9121,16.4109],[95.9275,16.385],[95.9059,16.3295],[95.8912,16.2446],[95.7785,16.1291],[95.7544,16.1266],[95.7403,16.1452],[95.7269,16.264],[95.7096,16.2731],[95.7229,16.2566],[95.7382,16.1126],[95.6966,16.046],[95.6931,15.9992],[95.6227,15.9029],[95.4286,15.7297],[95.3786,15.71],[95.2905,15.7244],[95.2778,15.7933],[95.2794,15.835],[95.3222,15.881],[95.3399,15.88],[95.3355,15.8985],[95.3479,15.8805],[95.3809,15.8721],[95.3989,15.8768],[95.4126,15.9057],[95.3871,15.8768],[95.3534,15.8849],[95.3468,15.9059],[95.3315,15.8981],[95.3356,15.8829],[95.3242,15.8856],[95.36,15.9689],[95.3665,16.0524],[95.3962,16.0616],[95.3628,16.0583],[95.3368,16.0993],[95.3705,16.1492],[95.3907,16.2396],[95.3263,16.1926],[95.306,16.1581],[95.3266,16.0873],[95.2792,16.0394],[95.2336,15.9378],[95.2101,15.8565],[95.2209,15.7894],[95.1719,15.7767],[95.1367,15.795],[95.111,15.9017],[95.1332,16.0193],[95.1896,16.0246],[95.1927,16.0799],[95.2671,16.1495],[95.1911,16.1138],[95.2079,16.1777],[95.1799,16.1374],[95.1526,16.1389],[95.165,16.1263],[95.1328,16.1239],[95.1442,16.168],[95.1293,16.2051],[95.1408,16.2315],[95.1236,16.2067],[95.1323,16.1672],[95.1203,16.1179],[95.0878,16.0953],[95.0561,16.0355],[95.0701,15.944],[95.037,15.8038],[95.0011,15.7787],[94.9868,15.7848],[94.9842,15.8484],[94.9839,15.7683],[94.9647,15.7536],[94.8458,15.7833],[94.8468,15.8085],[94.8893,15.8274],[94.8713,15.8954],[94.9508,15.9456],[94.9443,15.9536],[94.8637,15.8967],[94.873,15.8249],[94.849,15.8302],[94.8549,15.8884],[94.8364,15.9564],[94.8725,16.0],[94.9145,16.0],[94.9218,16.0306],[94.9054,16.0747],[94.9333,16.0862],[94.9555,16.131],[95.0226,16.135],[95.0225,16.1603],[95.0557,16.1994],[95.0566,16.216],[95.0465,16.2391],[95.0693,16.2458],[95.1006,16.3006],[95.0652,16.2477],[95.0432,16.2457],[95.0479,16.1971],[95.0137,16.1616],[95.0162,16.1437],[94.9529,16.1388],[94.9304,16.0942],[94.903,16.083],[94.9154,16.0299],[94.8918,16.0061],[94.8656,16.1351],[94.8888,16.1818],[94.9573,16.1962],[95.0257,16.2628],[95.0421,16.3097],[95.0649,16.3114],[95.0509,16.3127],[95.0505,16.3334],[95.0165,16.2669],[94.9522,16.211],[94.8727,16.1872],[94.8388,16.1108],[94.8497,16.0723],[94.8395,16.0663],[94.7987,15.989],[94.7995,15.9677],[94.7214,15.8542],[94.6975,15.8425],[94.6505,15.8542],[94.6042,15.9214],[94.6697,15.9557],[94.7255,16.0083],[94.7704,16.0958],[94.7845,16.0965],[94.7743,16.1033],[94.8071,16.1998],[94.8411,16.215],[94.8519,16.2428],[94.8035,16.2062],[94.6841,16.0],[94.5759,15.9309],[94.5603,15.9419],[94.6846,16.1148],[94.6834,16.2056],[94.7209,16.2029],[94.7589,16.2373],[94.7395,16.2574],[94.7567,16.2809],[94.7336,16.2564],[94.7496,16.2377],[94.7262,16.2305],[94.7192,16.2091],[94.6738,16.2177],[94.6636,16.2472],[94.6981,16.2454],[94.7087,16.2549],[94.7058,16.2669],[94.6983,16.2493],[94.6636,16.2541],[94.6677,16.2693],[94.6827,16.2978],[94.6881,16.3066],[94.6989,16.3555],[94.7372,16.354],[94.7548,16.3841],[94.7858,16.3564],[94.8134,16.3559],[94.8254,16.3704],[94.7948,16.3601],[94.7519,16.3905],[94.7347,16.3608],[94.7195,16.3662],[94.7242,16.3986],[94.7432,16.4022],[94.75,16.4194],[94.7586,16.4096],[94.7705,16.4093],[94.7839,16.4261],[94.7588,16.4138],[94.7478,16.4265],[94.7126,16.3942],[94.6959,16.4757],[94.7404,16.5202],[94.7463,16.569],[94.7898,16.5778],[94.8004,16.5907],[94.7465,16.5768],[94.7237,16.5101],[94.6898,16.4927],[94.6782,16.5132],[94.7012,16.5517],[94.7103,16.6135],[94.7423,16.6328],[94.7216,16.6872],[94.7447,16.6957],[94.7416,16.7301],[94.7218,16.7336],[94.738,16.7245],[94.7361,16.7004],[94.7173,16.6913],[94.7098,16.6537],[94.733,16.629],[94.6784,16.6436],[94.6989,16.6797],[94.6889,16.7396],[94.6936,16.6767],[94.6754,16.6933],[94.6823,16.6714],[94.6688,16.6524],[94.6511,16.6702],[94.6557,16.6579],[94.6743,16.6497],[94.6581,16.6276],[94.6913,16.6391],[94.7012,16.6217],[94.6924,16.5549],[94.6644,16.5184],[94.6796,16.3932],[94.6529,16.3403],[94.6233,16.338],[94.6403,16.3835],[94.6062,16.3372],[94.6021,16.2844],[94.5713,16.2615],[94.531,16.2921],[94.5464,16.308],[94.5265,16.2987],[94.5105,16.2771],[94.5086,16.1819],[94.4336,16.0697],[94.3681,16.0546],[94.3419,16.0163],[94.2827,16.0],[94.2622,15.9621],[94.2455,15.96],[94.1997,16.0325],[94.2285,16.252],[94.2433,16.2647],[94.2361,16.3486],[94.2484,16.348],[94.2469,16.3774],[94.3021,16.5179],[94.3433,16.5467],[94.368,16.6149],[94.3583,16.6946],[94.3759,16.7572],[94.4039,16.7885],[94.3788,16.8748],[94.3885,16.907],[94.4106,16.8895],[94.4434,16.9306],[94.484,16.9432],[94.4782,16.9576],[94.443,16.9481],[94.4582,16.9806],[94.4567,17.0673],[94.4896,17.1177],[94.4558,17.1417],[94.4447,17.179],[94.4644,17.1882],[94.4993,17.1568],[94.5216,17.1687],[94.5363,17.1869],[94.5014,17.2162],[94.5083,17.2999],[94.5264,17.2768],[94.5464,17.2903],[94.5409,17.319],[94.5815,17.2885],[94.5917,17.3042],[94.5715,17.3171],[94.5654,17.4983],[94.5427,17.5553],[94.563,17.5931],[94.6099,17.5365],[94.6112,17.5501],[94.5769,17.5914],[94.5884,17.6192],[94.5692,17.6453],[94.5588,17.6362],[94.5416,17.6813],[94.5448,17.7349],[94.4897,17.7824],[94.4815,17.9029],[94.4375,17.9956],[94.4777,18.0065],[94.4847,18.0557],[94.4469,18.1691],[94.4198,18.1937],[94.4268,18.2197],[94.4075,18.2462],[94.3372,18.2416],[94.322,18.2642],[94.3284,18.302],[94.3911,18.2835],[94.4074,18.3107],[94.4023,18.3463],[94.3816,18.3656],[94.3376,18.3662],[94.3225,18.4359],[94.2492,18.5245],[94.2626,18.5486],[94.2513,18.5468],[94.2579,18.6085],[94.2402,18.6458],[94.1409,18.736],[94.1744,18.714],[94.1745,18.7283],[94.2197,18.7182],[94.28,18.7351],[94.253,18.7341],[94.2492,18.7552],[94.2388,18.7347],[94.2169,18.731],[94.2064,18.7431],[94.2243,18.7812],[94.2039,18.7527],[94.1916,18.7712],[94.1993,18.7931],[94.1831,18.7796],[94.1465,18.8144],[94.1762,18.8347],[94.1458,18.8353],[94.1523,18.8795],[94.1696,18.89],[94.1467,18.8848],[94.127,18.8567],[94.1169,18.8566],[94.1287,18.8786],[94.0553,18.8461],[94.0309,18.8633],[94.0439,18.8846],[94.0738,18.8676],[94.0906,18.8806],[94.1057,18.8997],[94.1353,18.892],[94.1086,18.9296],[94.113,18.9662],[94.0864,18.8798],[94.0718,18.8743],[94.031,18.9005],[94.0552,18.9352],[94.0364,18.9913],[94.0632,19.0376],[94.0586,19.0598],[94.1021,19.0766],[94.0897,19.085],[94.097,19.0986],[94.1228,19.0846],[94.109,19.1051],[94.1466,19.1191],[94.1161,19.1204],[94.0545,19.0754],[94.0272,19.0792],[94.0375,19.1067],[94.1385,19.1514],[94.1357,19.1796],[94.1295,19.1561],[94.1075,19.1513],[94.0927,19.1822],[94.0911,19.1484],[94.0648,19.1263],[94.0735,19.165],[94.0624,19.1881],[94.0568,19.1255],[94.0329,19.1296],[94.0492,19.2206],[94.0711,19.2339],[94.0469,19.2483],[94.0435,19.312],[94.0762,19.3746],[94.0686,19.3853],[94.0687,19.3706],[94.0394,19.3453],[94.0315,19.3281],[94.0355,19.2177],[94.0163,19.1814],[93.9914,19.2229],[94.0,19.1502],[93.9663,19.1395],[93.9438,19.1562],[93.938,19.2012],[93.9092,19.1995],[93.9677,19.1238],[93.9534,19.0885],[93.9557,19.0208],[93.9858,18.9614],[93.9324,18.8475],[93.8923,18.8923],[93.7728,18.9664],[93.7448,18.9689],[93.7151,19.0075],[93.6742,19.0102],[93.6659,19.0664],[93.6901,19.0844],[93.6976,19.1146],[93.7476,19.1212],[93.6942,19.1196],[93.6897,19.0961],[93.6629,19.0763],[93.6393,19.1378],[93.5992,19.1513],[93.5699,19.2256],[93.4722,19.3669],[93.5135,19.4341],[93.5508,19.4324],[93.568,19.4163],[93.5514,19.4101],[93.5682,19.4046],[93.6041,19.4145],[93.6374,19.3542],[93.6343,19.3399],[93.6172,19.3482],[93.6001,19.3227],[93.6214,19.3411],[93.6672,19.3022],[93.6417,19.2398],[93.6446,19.2238],[93.6815,19.3001],[93.7215,19.2926],[93.6948,19.2819],[93.7269,19.2754],[93.7207,19.2445],[93.739,19.2567],[93.809,19.2263],[93.8733,19.2466],[93.9559,19.3061],[93.9498,19.3369],[93.9722,19.3514],[93.9817,19.385],[94.0108,19.381],[93.9834,19.4055],[93.9663,19.3584],[93.8921,19.2916],[93.8817,19.3076],[93.9191,19.3345],[93.9218,19.3772],[93.9111,19.3353],[93.8842,19.3196],[93.8889,19.3534],[93.8589,19.3878],[93.8824,19.3531],[93.8692,19.3068],[93.7751,19.301],[93.7392,19.345],[93.7463,19.3542],[93.7753,19.3403],[93.78,19.3542],[93.7704,19.3447],[93.7533,19.3575],[93.7323,19.3566],[93.7319,19.3826],[93.7121,19.4014],[93.7393,19.4088],[93.6516,19.4445],[93.6372,19.4889],[93.6546,19.4919],[93.6468,19.5122],[93.6875,19.5654],[93.7462,19.5422],[93.7688,19.4853],[93.7758,19.5037],[93.7933,19.5003],[93.8187,19.4643],[93.8567,19.4843],[93.8585,19.4404],[93.877,19.473],[93.9764,19.4188],[93.9971,19.4525],[93.9766,19.4629],[93.9536,19.4479],[93.9046,19.468],[93.9485,19.5081],[93.9383,19.564],[93.9324,19.4985],[93.9024,19.4885],[93.7768,19.5911],[93.8164,19.6042],[93.7935,19.614],[93.7602,19.5991],[93.722,19.6265],[93.7476,19.6525],[93.7943,19.6598],[93.7882,19.6815],[93.8193,19.7111],[93.8181,19.7292],[93.8066,19.7392],[93.7986,19.7014],[93.727,19.6711],[93.7059,19.7028],[93.7208,19.7483],[93.7914,19.7691],[93.7976,19.8329],[93.7863,19.8628],[93.7979,19.8666],[93.8012,19.891],[93.7933,19.916],[93.7937,19.873],[93.7386,19.8852],[93.7145,19.9079],[93.7457,19.9152],[93.7085,19.9375],[93.7091,19.9673],[93.704,19.9301],[93.5928,19.9111],[93.553,19.8886],[93.5564,19.9148],[93.5754,19.9201],[93.5867,19.9378],[93.5688,19.9212],[93.542,19.9249],[93.546,19.9363],[93.5253,19.9232],[93.5128,19.9445],[93.5365,19.9552],[93.5057,19.9704],[93.5401,19.9909],[93.4818,19.9914],[93.4674,20.0443],[93.4585,20.0541],[93.4762,20.0609],[93.4548,20.0552],[93.4762,20.0065],[93.4661,19.9825],[93.4543,19.9959],[93.4392,19.9925],[93.456,19.951],[93.416,19.9708],[93.3807,20.0659],[93.3841,20.0801],[93.4167,20.0799],[93.4148,20.1121],[93.4329,20.1052],[93.4126,20.1727],[93.3623,20.2736],[93.343,20.2772],[93.3234,20.3297],[93.2966,20.33],[93.3259,20.3859],[93.3254,20.4036],[93.2805,20.3482],[93.2801,20.3282],[93.2398,20.306],[93.2306,20.2739],[93.2464,20.2454],[93.2099,20.2347],[93.1825,20.1969],[93.117,20.1857],[93.2165,20.2861],[93.2259,20.3076],[93.2124,20.3278],[93.2512,20.4261],[93.2252,20.3917],[93.198,20.3871],[93.2235,20.376],[93.203,20.3226],[93.1243,20.3281],[93.1374,20.3425],[93.1321,20.3693],[93.1563,20.3591],[93.1748,20.3741],[93.1293,20.3762],[93.1742,20.3994],[93.1648,20.422],[93.1681,20.4002],[93.0939,20.3798],[93.0884,20.4013],[93.1111,20.4138],[93.1167,20.4272],[93.107,20.5041],[93.087,20.5198],[93.1051,20.5307],[93.0919,20.53],[93.0702,20.602],[93.0483,20.5975],[93.0217,20.6219],[93.0277,20.6439],[93.0055,20.6398],[93.0178,20.6122],[93.0757,20.5791],[93.0814,20.5488],[93.0626,20.5263],[93.035,20.5378],[93.0556,20.5207],[93.0195,20.4791],[93.0333,20.4857],[93.0301,20.4652],[93.0135,20.4606],[93.0216,20.3697],[93.0036,20.2889],[92.8889,20.1175],[92.8608,20.1211],[92.7733,20.195],[92.7906,20.2554],[92.8919,20.3228],[92.7136,20.6008],[92.6443,20.6858],[92.7117,20.5814],[92.7375,20.4264],[92.7328,20.2583],[92.6927,20.3039],[92.6197,20.4572],[92.5004,20.6158],[92.377,20.6977],[92.2822,20.9456],[92.2619,21.0543],[92.2608,20.9347],[92.3097,20.8311],[92.3313,20.7436],[92.3033,20.7561],[92.2075,20.9331],[92.048,21.165],[92.048,21.285],[91.9553,21.4506],[92.0047,21.4961],[92.0394,21.6603],[92.0245,21.7036],[92.0118,21.6601],[91.9826,21.6508],[91.9619,21.6801],[91.9502,21.7916],[91.9014,21.7744],[91.9153,21.8628],[91.9022,21.9228],[91.85,22.1094],[91.8193,22.1453],[91.8114,22.1936],[91.7719,22.2587],[91.7532,22.3771],[91.6695,22.537],[91.5675,22.6742],[91.4558,22.79],[91.2546,22.6546],[91.2589,22.6222],[91.2289,22.5856],[91.1119,22.5775],[91.0419,22.5911],[90.9689,22.5697],[90.8315,22.6883],[90.779,22.7612],[90.7226,22.924],[90.6266,23.0483],[90.6412,23.1987],[90.622,23.323],[90.5936,23.3706],[90.5986,23.4628],[90.6364,23.4878],[90.6948,23.4783],[90.716,23.5068],[90.7096,23.5497],[90.6917,23.5514],[90.695,23.5152],[90.6664,23.5177],[90.6002,23.4917],[90.5867,23.5467],[90.6085,23.5817],[90.5938,23.598],[90.4736,23.5758],[90.5076,23.551],[90.5778,23.5367],[90.575,23.4434],[90.5503,23.3839],[90.3108,23.4358],[90.3089,23.4144],[90.4265,23.325],[90.5667,23.2901],[90.6132,23.2183],[90.6005,23.1253],[90.5786,23.09],[90.5589,23.0739],[90.453,23.0658],[90.4817,22.9647],[90.473,22.8806],[90.4244,22.7702],[90.4953,22.6944],[90.5839,22.5275],[90.6015,22.4718],[90.5904,22.4324],[90.6173,22.345],[90.6033,22.2744],[90.5641,22.2097],[90.4959,22.1722],[90.4405,22.0717],[90.3892,22.0956],[90.4058,22.1517],[90.4014,22.2606],[90.3885,22.2121],[90.3964,22.1642],[90.3711,22.0814],[90.3172,22.0022],[90.27,21.8469],[90.2128,21.8071],[90.1708,21.7983],[90.1155,21.8122],[90.0233,21.8635],[90.0238,21.8887],[90.03,21.9458],[90.0928,22.0353],[90.1675,22.1119],[90.2194,22.1201],[90.2384,22.1828],[90.0953,22.0617],[90.0525,21.9822],[90.0,21.9945],[89.9919,22.0253],[90.0422,22.1308],[90.0741,22.1589],[90.0401,22.1412],[89.978,22.0268],[89.978,21.978],[89.9587,21.9724],[89.9339,21.9947],[89.9158,22.0372],[89.9147,22.1362],[89.8741,22.2767],[89.9128,22.3606],[90.0,22.4838],[89.9094,22.3903],[89.8414,22.261],[89.8708,22.1019],[89.8469,21.9818],[89.8837,21.8946],[89.8182,21.835],[89.6989,21.7839],[89.5811,21.7017],[89.544,21.7321],[89.5217,21.8003],[89.5682,21.8861],[89.6151,22.3196],[89.55,22.2103],[89.5803,22.1136],[89.5394,21.9862],[89.5186,22.0008],[89.534,22.0639],[89.4872,22.1969],[89.4958,22.2609],[89.4747,22.2892],[89.4621,22.2199],[89.5189,22.0644],[89.4877,22.0323],[89.5194,21.9533],[89.5167,21.9103],[89.4594,21.7622],[89.4128,21.7103],[89.388,21.7114],[89.3728,21.731],[89.3628,21.824],[89.3847,21.8926],[89.355,21.966],[89.2958,21.7614],[89.2929,21.6686],[89.245,21.6428],[89.2016,21.6571],[89.2167,21.7236],[89.19,21.7875],[89.1538,21.7856],[89.102,21.8094],[89.0789,21.8967],[89.0896,22.0146],[89.0613,22.053],[89.0626,22.1162],[89.0492,22.0925],[89.0549,22.0696],[89.0633,22.0471],[89.0823,22.0212],[89.0706,21.9281],[89.0067,21.8997],[89.0372,21.8577],[89.0323,21.8198],[89.0889,21.6281],[89.0167,21.6008],[88.9208,21.6339],[88.8525,21.6289],[88.7785,21.555],[88.712,21.5623],[88.6835,21.6862],[88.6966,21.843],[88.7292,21.976],[88.7651,22.0066],[88.7526,22.0437],[88.7228,22.0575],[88.7432,22.0174],[88.7195,22.006],[88.6845,21.9331],[88.6356,21.9412],[88.6244,21.9617],[88.6587,22.017],[88.6437,22.1181],[88.631,22.1198],[88.6214,22.105],[88.6432,22.0449],[88.6084,21.972],[88.6198,21.9364],[88.601,21.9557],[88.6096,21.9095],[88.5833,21.8856],[88.5588,21.8119],[88.5658,21.7687],[88.6025,21.7811],[88.6236,21.7669],[88.6272,21.7145],[88.603,21.613],[88.5722,21.56],[88.5383,21.5258],[88.498,21.5206],[88.4832,21.5539],[88.5117,21.5918],[88.5255,21.6558],[88.5319,21.8317],[88.5043,21.8741],[88.5122,21.9311],[88.4741,21.8938],[88.5001,21.8489],[88.4696,21.8237],[88.4733,21.6614],[88.4539,21.615],[88.4177,21.5818],[88.3063,21.6106],[88.3078,21.6942],[88.2955,21.7766],[88.2612,21.7969],[88.2892,21.7581],[88.2833,21.7309],[88.3067,21.6718],[88.3017,21.5921],[88.3253,21.5806],[88.2575,21.5487],[88.2012,21.6097],[88.1805,21.6776],[88.2028,21.7121],[88.2064,21.7919],[88.1542,21.8776],[88.1446,21.9344],[88.1436,21.9583],[88.2187,22.0768],[88.1993,22.1519],[88.1458,22.1936],[88.036,22.2189],[88.0321,22.2018],[88.1438,22.1871],[88.1902,22.1329],[88.1961,22.1048],[88.1618,22.0645],[88.0846,22.0194],[87.9662,21.834],[87.8294,21.7192],[87.679,21.6458],[87.4875,21.6127],[87.3292,21.5617],[87.2072,21.5493],[87.1146,21.5099],[87.0005,21.4205],[87.0005,23.4659],[86.8072,23.5396],[86.7286,23.7329],[86.6033,23.7977],[86.5927,23.9457],[86.5355,23.9699],[86.3968,24.2114],[86.2522,24.3243],[86.1736,24.5009],[86.1561,24.6511],[86.0772,24.7564],[85.9296,24.7858],[85.7519,24.9806],[85.5376,25.1602],[85.3178,25.4547],[85.3119,25.4908],[85.3402,25.6329],[85.1743,25.7783],[85.1364,25.9296],[85.2181,26.071],[85.176,26.2111],[85.0832,26.3777],[85.2947,26.7908],[85.3269,26.8081],[85.463,26.8253],[85.6025,26.8795],[85.7181,26.8555],[85.8943,26.7438],[86.0005,26.7703],[86.0005,26.9995],[93.0001,26.9995],[93.0005,27.9995],[95.0002,27.9995],[95.0005,28.9995],[95.9995,28.9995],[95.9996,27.9998],[96.9995,27.9995],[96.9995,27.0005],[95.9997,27.0004],[95.9995,26.0005],[94.9998,26.0005],[94.9995,25.6435],[96.4259,25.4854],[98.0,25.3672],[97.9963,14.4786]]]]}}