{"type":"Feature","properties":{"speciesId":249,"category":"EN","source":"IUCN Red List","simplifyTol":0.01,"clippedToSubcontinent":true},"geometry":{"type":"MultiPolygon","coordinates":[[[[93.4042,8.0017],[93.4055,7.9631],[93.4593,7.9299],[93.4641,7.8666],[93.4193,7.899],[93.382,7.8756],[93.3568,7.8827],[93.3456,7.9033],[93.3617,7.9295],[93.3457,7.943],[93.3299,7.9121],[93.3151,7.9387],[93.3343,8.0054],[93.3713,8.0189],[93.4042,8.0017]]],[[[93.5263,8.0229],[93.5448,7.9988],[93.5413,8.0197],[93.5585,8.0212],[93.5755,7.9936],[93.5728,7.9256],[93.5072,7.98],[93.5263,8.0229]]],[[[93.5817,8.1185],[93.5964,8.0474],[93.5871,8.0374],[93.5698,8.0591],[93.5712,8.0722],[93.5845,8.0634],[93.5689,8.0914],[93.5767,8.112],[93.559,8.1088],[93.5605,8.1196],[93.5817,8.1185]]],[[[93.5349,8.1763],[93.513,8.1811],[93.4996,8.1446],[93.5464,8.0824],[93.5445,8.0392],[93.5269,8.0471],[93.5052,8.0296],[93.4994,7.9924],[93.484,8.0109],[93.4839,8.0886],[93.4623,8.1053],[93.4713,8.1206],[93.4564,8.1165],[93.4513,8.1697],[93.4878,8.1987],[93.4908,8.2198],[93.5188,8.2298],[93.5382,8.2269],[93.5435,8.2092],[93.5349,8.1763]]],[[[93.221,8.2279],[93.1996,8.2409],[93.2058,8.2633],[93.2216,8.2491],[93.221,8.2279]]],[[[93.1143,8.3577],[93.1148,8.275],[93.1821,8.2281],[93.1834,8.201],[93.1097,8.2255],[93.0744,8.2767],[93.0827,8.3384],[93.1143,8.3577]]],[[[93.6379,8.391],[93.6287,8.3867],[93.6256,8.3915],[93.6379,8.391]]],[[[93.0391,8.441],[93.0237,8.4516],[93.0301,8.471],[93.0422,8.4652],[93.0391,8.441]]],[[[93.6249,8.4658],[93.6118,8.4665],[93.6052,8.4193],[93.5951,8.5693],[93.6249,8.4658]]],[[[92.8519,8.8165],[92.8485,8.8282],[92.8608,8.8389],[92.8607,8.8302],[92.8519,8.8165]]],[[[92.8118,9.2036],[92.8203,9.1354],[92.7964,9.1204],[92.768,9.1213],[92.7825,9.1266],[92.7737,9.1384],[92.7236,9.1216],[92.7166,9.216],[92.7382,9.2087],[92.7605,9.2171],[92.7639,9.2376],[92.7827,9.2371],[92.8118,9.2036]]]]}}