{"type":"Feature","properties":{"speciesId":255,"category":"LC","source":"IUCN Red List","simplifyTol":0.01,"clippedToSubcontinent":true},"geometry":{"type":"MultiPolygon","coordinates":[[[[79.3413,7.4265],[79.1528,7.4654],[79.0001,7.5699],[78.894,7.7329],[78.8588,7.9165],[78.8972,8.1081],[79.0001,8.2633],[79.1606,8.3713],[79.3413,8.4071],[79.522,8.3713],[79.6825,8.2633],[79.7854,8.1081],[79.8238,7.9165],[79.7887,7.7329],[79.6825,7.5699],[79.5298,7.4654],[79.3413,7.4265]]],[[[74.9395,11.5594],[74.751,11.5988],[74.5983,11.7046],[74.4921,11.8695],[74.457,12.0554],[74.4954,12.2494],[74.5983,12.4066],[74.7587,12.516],[74.9395,12.5522],[75.1202,12.516],[75.2806,12.4066],[75.3836,12.2494],[75.422,12.0554],[75.3868,11.8695],[75.2806,11.7046],[75.128,11.5988],[74.9395,11.5594]]],[[[94.7184,15.7528],[94.6181,15.7638],[94.5298,15.7929],[94.3772,15.9005],[94.271,16.0684],[94.2359,16.2576],[94.2742,16.4552],[94.3772,16.6153],[94.5376,16.7268],[94.7184,16.7637],[94.8991,16.7268],[95.0595,16.6153],[95.1625,16.4552],[95.2008,16.2576],[95.1657,16.0684],[95.0595,15.9005],[94.9069,15.7929],[94.8187,15.7638],[94.7184,15.7528]]],[[[97.829,14.5297],[97.7287,14.5406],[97.6405,14.5695],[97.4878,14.6766],[97.3816,14.8434],[97.3465,15.0316],[97.3849,15.228],[97.4878,15.3872],[97.6483,15.498],[97.829,15.5347],[98.0,15.5019],[98.0,14.5622],[97.829,14.5297]]],[[[73.0027,17.1684],[72.9024,17.1795],[72.8142,17.2088],[72.6615,17.3172],[72.5553,17.4862],[72.5202,17.6769],[72.5585,17.8759],[72.6615,18.0373],[72.7399,18.1044],[72.8219,18.1496],[73.0027,18.1868],[73.1834,18.1496],[73.2655,18.1044],[73.3438,18.0373],[73.4468,17.8759],[73.4852,17.6769],[73.45,17.4862],[73.3438,17.3172],[73.1912,17.2088],[73.103,17.1795],[73.0027,17.1684]]]]}}