{"type":"Feature","properties":{"speciesId":256,"category":"DD","source":"IUCN Red List","simplifyTol":0.01,"clippedToSubcontinent":true},"geometry":{"type":"MultiPolygon","coordinates":[[[[93.0454,13.1887],[93.0427,13.0787],[93.0156,13.0284],[92.9744,13.0348],[92.9736,13.0111],[92.9476,13.0372],[92.9494,13.0607],[92.9259,13.0594],[92.9073,13.0177],[92.9283,12.9817],[92.943,12.9856],[92.9392,12.9574],[92.9166,12.947],[92.9054,12.9924],[92.8816,12.9386],[92.8622,12.9326],[92.8621,12.9101],[92.8832,12.9081],[92.8818,12.8933],[92.9044,12.8971],[92.9053,12.9217],[92.9301,12.9108],[92.9119,12.8845],[92.9347,12.8837],[92.9492,12.8533],[92.9607,12.8039],[92.9439,12.7715],[92.9701,12.7532],[92.9867,12.7118],[92.972,12.7042],[92.963,12.6164],[92.9828,12.5308],[92.9782,12.4943],[92.9701,12.4848],[92.9547,12.4977],[92.9429,12.4768],[92.9428,12.4639],[92.9618,12.4753],[92.9644,12.4644],[92.9267,12.4451],[92.9264,12.4034],[92.8901,12.3769],[92.8818,12.3519],[92.8989,12.3484],[92.9081,12.329],[92.8886,12.3331],[92.9099,12.3203],[92.8681,12.3119],[92.8931,12.2807],[92.8963,12.2556],[92.8666,12.2446],[92.8891,12.1885],[92.8597,12.2014],[92.8575,12.1639],[92.8281,12.1586],[92.8124,12.1299],[92.8178,12.1007],[92.8049,12.1042],[92.8001,12.0811],[92.77,12.0633],[92.7686,12.0479],[92.793,12.0402],[92.7888,12.0238],[92.7489,12.035],[92.7412,12.0183],[92.7649,11.997],[92.7344,11.9874],[92.7453,11.964],[92.7282,11.9525],[92.7249,11.9246],[92.7887,11.9361],[92.7999,11.8769],[92.7702,11.7022],[92.7534,11.7164],[92.7444,11.6818],[92.7675,11.666],[92.764,11.6181],[92.7214,11.4793],[92.7099,11.5102],[92.6837,11.5027],[92.6599,11.5182],[92.6571,11.578],[92.6411,11.5863],[92.6339,11.5639],[92.6201,11.615],[92.6512,11.6092],[92.6588,11.6434],[92.6494,11.6366],[92.6455,11.6596],[92.6397,11.6289],[92.6222,11.6329],[92.5993,11.7157],[92.5723,11.6971],[92.5571,11.8291],[92.5342,11.8264],[92.526,11.8449],[92.5374,11.89],[92.5741,11.9336],[92.6025,11.8786],[92.6244,11.9202],[92.6201,12.0029],[92.6383,12.0382],[92.6309,12.0922],[92.6529,12.1793],[92.6696,12.2162],[92.662,12.1797],[92.6836,12.2184],[92.6872,12.1956],[92.7243,12.307],[92.7085,12.3296],[92.7149,12.4894],[92.7026,12.5079],[92.7174,12.5638],[92.6939,12.5977],[92.7153,12.6075],[92.7252,12.6362],[92.7287,12.6197],[92.7426,12.6302],[92.756,12.6641],[92.7359,12.6873],[92.7531,12.6944],[92.7429,12.7012],[92.7549,12.7161],[92.7403,12.7338],[92.7318,12.8278],[92.7466,12.8117],[92.7462,12.8333],[92.7534,12.8242],[92.7711,12.8597],[92.7846,12.8392],[92.7786,12.8607],[92.7997,12.8622],[92.816,12.8983],[92.8015,12.9766],[92.8071,12.9891],[92.8246,12.9816],[92.8106,12.9954],[92.8338,13.0086],[92.7973,13.0152],[92.8031,13.0809],[92.8178,13.0731],[92.8121,13.0953],[92.8299,13.0949],[92.8173,13.1249],[92.8489,13.1246],[92.8524,13.1401],[92.8218,13.1486],[92.8217,13.1659],[92.8391,13.1664],[92.8331,13.1745],[92.9002,13.2248],[92.9873,13.2219],[93.0454,13.1887]]],[[[92.9368,13.023],[92.9474,13.0167],[92.948,12.9944],[92.927,13.0044],[92.9368,13.023]]],[[[92.9874,12.9643],[92.986,12.9332],[92.9602,12.9777],[92.9697,12.9873],[92.9796,12.9702],[93.0111,12.9971],[92.9874,12.9643]]],[[[92.9668,12.9465],[92.9727,12.9422],[92.9571,12.9376],[92.9668,12.9465]]],[[[92.8664,12.9297],[92.8927,12.9321],[92.8974,12.9269],[92.88,12.9174],[92.8664,12.9297]]],[[[92.7841,12.9289],[92.7792,12.9305],[92.7806,12.9338],[92.7841,12.9289]]],[[[92.8076,12.9003],[92.7941,12.8911],[92.7835,12.9089],[92.7977,12.9149],[92.8076,12.9003]]],[[[92.7636,12.8946],[92.7568,12.8924],[92.764,12.9096],[92.7636,12.8946]]],[[[92.7339,12.8589],[92.715,12.8368],[92.7335,12.8663],[92.7339,12.8589]]],[[[92.7319,12.7436],[92.7257,12.7518],[92.7185,12.7176],[92.7034,12.7966],[92.7203,12.8309],[92.722,12.7793],[92.7319,12.7436]]],[[[92.6783,12.7863],[92.6756,12.7885],[92.68,12.7939],[92.6783,12.7863]]],[[[92.7323,12.7769],[92.7289,12.7694],[92.7277,12.7849],[92.7323,12.7769]]],[[[92.6943,12.5319],[92.6806,12.5209],[92.6825,12.5357],[92.6943,12.5319]]],[[[92.9665,12.4313],[92.943,12.3576],[92.9268,12.3624],[92.9378,12.4086],[92.9665,12.4313]]],[[[92.9286,12.3495],[92.9171,12.3404],[92.9253,12.3532],[92.9286,12.3495]]],[[[92.9443,12.3033],[92.9376,12.2304],[92.9318,12.2282],[92.9315,12.2658],[92.912,12.2706],[92.9141,12.2851],[92.9385,12.2811],[92.9443,12.3033]]],[[[92.9053,12.2502],[92.9212,12.2203],[92.8974,12.2276],[92.8875,12.2058],[92.8811,12.2404],[92.8957,12.2347],[92.9053,12.2502]]],[[[92.8771,12.2441],[92.8699,12.2417],[92.8752,12.2468],[92.8771,12.2441]]],[[[92.9375,12.2116],[92.939,12.2171],[92.9431,12.2209],[92.9375,12.2116]]],[[[92.7799,11.991],[92.7686,11.9989],[92.7732,12.0045],[92.7786,12.0034],[92.7799,11.991]]],[[[92.7656,11.9855],[92.7473,11.9726],[92.7453,11.9802],[92.7656,11.9855]]],[[[92.6142,11.9227],[92.6001,11.9685],[92.6022,11.9718],[92.6155,11.9568],[92.6142,11.9227]]],[[[92.7595,11.9398],[92.7483,11.953],[92.7713,11.9617],[92.7741,11.949],[92.7595,11.9398]]],[[[92.7387,11.9356],[92.7362,11.9478],[92.7436,11.9543],[92.7387,11.9356]]],[[[92.6142,11.908],[92.6079,11.9095],[92.615,11.9156],[92.6142,11.908]]],[[[92.7737,11.6698],[92.7687,11.6757],[92.7773,11.6786],[92.7737,11.6698]]],[[[92.614,11.5691],[92.6272,11.5762],[92.6237,11.56],[92.614,11.5691]]],[[[92.607,11.5278],[92.5951,11.5448],[92.6014,11.5723],[92.6071,11.5669],[92.607,11.5278]]],[[[92.6268,11.5308],[92.6174,11.547],[92.6266,11.5566],[92.6314,11.5518],[92.6268,11.5308]]],[[[92.6173,11.5249],[92.6127,11.5205],[92.6158,11.5313],[92.6173,11.5249]]],[[[92.6507,11.5061],[92.6874,11.4719],[92.6976,11.4352],[92.6624,11.4038],[92.7013,11.3901],[92.7041,11.3741],[92.6781,11.3536],[92.6151,11.3453],[92.5979,11.3683],[92.6072,11.3984],[92.6359,11.4002],[92.6249,11.4622],[92.6507,11.5061]]],[[[92.7326,11.3128],[92.7304,11.3194],[92.733,11.3199],[92.7326,11.3128]]],[[[92.7064,11.2431],[92.7047,11.2811],[92.7183,11.2893],[92.718,11.261],[92.7064,11.2431]]],[[[92.6905,11.1738],[92.6797,11.1812],[92.6836,11.1852],[92.6905,11.1738]]],[[[92.6794,10.9812],[92.6691,10.9785],[92.6706,10.9868],[92.6794,10.9812]]],[[[92.6257,10.9272],[92.6153,10.9263],[92.6168,10.9335],[92.6257,10.9272]]],[[[92.5396,10.8671],[92.5491,10.8035],[92.5764,10.7793],[92.5698,10.7569],[92.4469,10.7494],[92.4061,10.8043],[92.4438,10.8362],[92.446,10.8639],[92.5064,10.8952],[92.5396,10.8671]]]]}}