{"type":"Feature","properties":{"speciesId":257,"category":"DD","source":"IUCN Red List","simplifyTol":0.01,"clippedToSubcontinent":true},"geometry":{"type":"Polygon","coordinates":[[[77.0,10.4706],[77.0164,10.5142],[77.0764,10.5033],[77.0764,10.4651],[77.2074,10.4706],[77.3985,10.3996],[77.4968,10.3996],[77.5732,10.4105],[77.6169,10.4542],[77.7643,10.476],[77.7916,10.4105],[77.8407,10.3887],[77.8243,10.2795],[77.7861,10.2194],[77.4968,10.072],[77.4476,10.0011],[77.3767,9.9847],[77.3385,9.8974],[77.3112,9.7445],[77.3494,9.7117],[77.3985,9.7336],[77.4749,9.8646],[77.5514,9.9137],[77.6387,9.9301],[77.6878,10.0065],[77.7806,10.0502],[77.8025,10.0011],[77.7697,9.9465],[77.7697,9.8755],[77.7151,9.8046],[77.6824,9.6299],[77.6223,9.5534],[77.464,9.4497],[77.4203,9.3678],[77.3657,9.2041],[77.3767,9.0949],[77.3221,9.0294],[77.3112,8.9639],[77.3275,8.7673],[77.3821,8.6854],[77.535,8.5872],[77.5623,8.5053],[77.5677,8.3797],[77.5434,8.3162],[77.4968,8.2924],[77.4543,8.3076],[77.439,8.3334],[77.4476,8.3906],[77.393,8.4234],[77.3221,8.5053],[77.2511,8.5326],[77.2184,8.5708],[77.0873,8.7837],[77.0928,9.0075],[77.0382,9.084],[76.9836,9.2477],[76.9399,9.3296],[76.8908,9.548],[76.7598,9.8264],[76.7598,9.9574],[76.6943,10.1867],[76.6288,10.3177],[76.5414,10.4214],[76.5414,10.476],[76.5782,10.5128],[76.6997,10.5797],[76.7598,10.5797],[76.8853,10.5088],[77.0,10.4706]]]}}