{"type":"Feature","properties":{"speciesId":260,"category":"DD","source":"IUCN Red List","simplifyTol":0.01,"clippedToSubcontinent":true},"geometry":{"type":"Polygon","coordinates":[[[76.5642,11.5732],[76.6532,11.5793],[76.7882,11.5241],[76.8434,11.5487],[76.9354,11.5487],[77.0244,11.5026],[77.0397,11.475],[77.0458,11.4382],[77.0152,11.3983],[76.9569,11.3799],[76.9507,11.3401],[76.9323,11.3339],[76.9078,11.2818],[76.963,11.2174],[76.963,11.0947],[76.9415,11.0486],[76.9017,11.0118],[76.8955,10.9198],[76.7943,10.8308],[76.7575,10.8186],[76.6225,10.8769],[76.5888,10.8769],[76.5581,10.9106],[76.5642,10.9535],[76.5029,11.021],[76.3924,11.0578],[76.2084,11.1897],[76.0918,11.3278],[76.0581,11.4444],[76.0581,11.5425],[76.0887,11.5732],[76.4446,11.6039],[76.5642,11.5732]]]}}