{"type":"Feature","properties":{"speciesId":263,"category":"LC","source":"IUCN Red List","simplifyTol":0.01,"clippedToSubcontinent":true},"geometry":{"type":"Polygon","coordinates":[[[97.5341,23.9426],[96.9611,25.2968],[97.0452,26.5878],[97.0454,26.9743],[96.9757,27.2706],[96.812,27.4147],[96.3331,27.4156],[94.9811,26.9963],[93.5452,26.4103],[93.2843,26.5837],[93.3658,26.9243],[93.9753,27.44],[95.4579,29.1835],[95.9351,29.7728],[96.5168,30.0178],[97.1083,30.1464],[97.7768,29.6463],[98.0,29.3981],[98.0,23.1648],[97.5341,23.9426]]]}}