{"type":"Feature","properties":{"speciesId":268,"category":"LC","source":"IUCN Red List","simplifyTol":0.01,"clippedToSubcontinent":true},"geometry":{"type":"MultiPolygon","coordinates":[[[[73.7765,15.3544],[73.7666,15.3553],[73.774,15.3587],[73.7765,15.3544]]],[[[73.7607,15.3543],[73.7569,15.3573],[73.7605,15.3574],[73.7607,15.3543]]],[[[73.7896,15.3719],[73.7865,15.3772],[73.7904,15.3776],[73.7896,15.3719]]],[[[74.1524,14.7386],[74.1492,14.7349],[74.1488,14.7389],[74.1524,14.7386]]],[[[74.0961,14.8432],[74.0918,14.8414],[74.0919,14.8455],[74.0961,14.8432]]],[[[74.1,14.8622],[74.0991,14.8645],[74.0999,14.8645],[74.1,14.8622]]],[[[74.0919,14.8759],[74.0891,14.8748],[74.0899,14.8778],[74.0919,14.8759]]],[[[74.3985,14.3133],[74.3938,14.3089],[74.3921,14.3117],[74.3985,14.3133]]],[[[74.2486,14.6996],[74.246,14.702],[74.2488,14.7011],[74.2486,14.6996]]],[[[74.2345,14.7079],[74.2316,14.7096],[74.2353,14.7098],[74.2345,14.7079]]],[[[74.1451,14.7215],[74.1419,14.7216],[74.1435,14.7234],[74.1451,14.7215]]],[[[79.5589,21.6645],[82.4335,20.6789],[83.9665,20.5421],[84.3772,20.5694],[85.2806,19.6386],[84.8096,19.1478],[84.2482,18.455],[84.1543,18.3614],[81.8312,17.0105],[79.7506,15.9428],[79.3399,14.3276],[79.1756,12.9588],[79.0661,11.7816],[78.984,10.6044],[78.9864,9.8128],[78.81,9.3905],[78.6569,9.1909],[78.3552,9.0888],[78.1982,8.9316],[78.1703,8.8671],[78.1539,8.7474],[78.1882,8.7547],[78.1322,8.6694],[78.1278,8.4948],[77.9422,8.3045],[77.6034,8.1838],[77.1857,8.2302],[76.6845,8.8057],[76.4942,9.112],[76.482,9.1582],[76.4929,9.1643],[76.4803,9.1647],[76.2877,9.894],[76.171,10.294],[76.0793,10.5107],[75.9293,11.0773],[75.6714,11.6173],[75.2043,12.0357],[74.6585,13.8074],[74.4356,14.2273],[74.3953,14.4186],[74.3765,14.4165],[74.3538,14.5117],[74.3052,14.5196],[74.2912,14.5931],[74.2635,14.6245],[74.2946,14.6402],[74.2751,14.6467],[74.2756,14.6779],[74.2537,14.7068],[74.2633,14.7094],[74.2647,14.7201],[74.2582,14.7122],[74.2215,14.7472],[74.1993,14.7176],[74.1765,14.7446],[74.1477,14.7464],[74.1341,14.7778],[74.1039,14.7843],[74.0911,14.8021],[74.1171,14.8034],[74.1249,14.8405],[74.1079,14.8451],[74.0912,14.8945],[74.0388,14.9156],[74.0487,14.9568],[74.0298,14.9815],[74.0476,14.9848],[73.9857,15.0225],[73.9786,15.0504],[73.95,15.0729],[73.9051,15.0871],[73.9458,15.1408],[73.8821,15.3452],[73.862,15.3694],[73.8357,15.361],[73.8032,15.377],[73.7794,15.4089],[73.8757,15.3984],[73.8899,15.4192],[73.8764,15.4337],[73.8584,15.4258],[73.845,15.4491],[73.7822,15.4597],[73.8153,15.5064],[73.7574,15.4939],[73.731,15.6146],[73.6872,15.7154],[73.6509,15.7384],[73.655,15.7734],[73.5838,15.9077],[73.5497,15.9265],[73.4778,16.3116],[73.3113,17.0306],[73.3264,17.0286],[73.3104,17.035],[73.2586,17.2763],[73.2657,17.2889],[73.297,17.2812],[73.2909,17.2948],[73.2548,17.2944],[73.0902,18.0624],[73.0285,18.2351],[73.0747,18.2002],[73.0672,18.2708],[73.0525,18.2857],[73.0313,18.2636],[73.0111,18.2837],[72.9231,18.5298],[72.9616,18.5423],[72.9202,18.5479],[72.879,18.6531],[72.9083,18.7948],[72.9329,18.8236],[72.9886,18.7759],[72.999,18.7794],[72.9859,18.8052],[73.0578,18.8027],[72.9864,18.8137],[72.9821,18.8626],[72.9434,18.8454],[72.9212,18.857],[72.9306,18.9025],[72.9395,18.8914],[72.9382,18.9081],[72.9524,18.9108],[72.9451,18.941],[72.9772,18.9461],[72.9501,18.9662],[73.0908,18.9988],[73.0667,19.0143],[73.0847,19.0314],[73.0644,19.0292],[73.0904,19.0457],[73.0061,19.005],[72.9844,19.0708],[72.9952,19.0869],[72.9764,19.1069],[72.9764,19.1707],[72.9642,19.1353],[72.9522,19.1374],[72.9569,19.1077],[72.9307,19.0904],[72.9472,19.068],[72.9137,19.0744],[72.9517,19.0432],[72.9034,18.9938],[72.8784,19.0226],[72.8573,19.0094],[72.8451,18.9617],[72.8361,19.0433],[72.8597,19.0602],[72.8351,19.0525],[72.8078,19.3001],[72.8517,19.316],[72.9155,19.2908],[72.869,19.3343],[72.8509,19.3431],[72.8045,19.3306],[72.7347,19.5279],[72.7315,19.5993],[72.7449,19.6026],[72.7311,19.6076],[72.7148,19.9672],[72.76,19.9233],[72.7239,19.9953],[72.8999,20.539],[72.8917,20.6082],[72.9051,20.5993],[72.8879,20.6399],[72.9015,20.6429],[72.8967,20.7022],[72.9087,20.7111],[72.8907,20.7199],[72.9241,20.7558],[72.9519,20.755],[72.9425,20.7755],[72.9178,20.7699],[72.9199,20.7893],[72.91,20.7807],[72.8745,20.8015],[72.896,20.8134],[72.8756,20.8245],[72.8948,20.8665],[72.8627,20.8528],[72.852,20.9431],[72.8822,20.9546],[72.8765,20.9718],[72.8944,20.9825],[72.8479,20.9784],[72.8417,21.0304],[72.857,21.0392],[72.8419,21.0537],[72.8559,21.0658],[72.8384,21.0587],[72.8444,21.1088],[72.8328,21.1055],[72.8208,21.2071],[72.8287,21.472],[72.9656,21.6721],[73.1089,21.7201],[73.0888,21.7367],[73.0654,21.7331],[73.9193,22.1025],[76.2464,22.2942],[77.7521,22.2942],[78.2996,22.2394],[79.5589,21.6645]]],[[[72.9321,18.9527],[72.9223,18.9629],[72.9424,18.9688],[72.9389,18.9654],[72.9321,18.9527]]],[[[73.0594,19.0065],[73.0493,19.0066],[73.0566,19.0171],[73.0594,19.0065]]],[[[72.8672,19.3274],[72.8447,19.3312],[72.838,19.3354],[72.8516,19.3378],[72.8672,19.3274]]],[[[72.89,20.6884],[72.8831,20.681],[72.8822,20.6881],[72.89,20.6884]]],[[[72.8794,20.7122],[72.8791,20.7144],[72.8799,20.7126],[72.8794,20.7122]]],[[[72.8746,20.7521],[72.8742,20.756],[72.8767,20.754],[72.8746,20.7521]]],[[[72.8736,20.7605],[72.8728,20.7674],[72.8747,20.7627],[72.8736,20.7605]]],[[[72.9361,20.7636],[72.932,20.7705],[72.9412,20.7674],[72.9361,20.7636]]],[[[72.8465,21.0385],[72.8403,21.0425],[72.8453,21.0424],[72.8465,21.0385]]],[[[73.0216,21.7048],[72.9829,21.6974],[73.0633,21.7322],[73.0216,21.7048]]]]}}