{"type":"Feature","properties":{"speciesId":270,"category":"LC","source":"IUCN Red List","simplifyTol":0.01,"clippedToSubcontinent":true},"geometry":{"type":"Polygon","coordinates":[[[97.1601,24.0869],[96.9327,24.1345],[96.388,24.2931],[95.1558,24.8219],[93.2149,25.8585],[92.3318,26.7416],[92.2419,27.0272],[92.3106,27.1911],[92.977,27.318],[94.3414,27.4397],[96.8798,27.5084],[97.5884,27.4608],[97.7471,27.3974],[97.8951,27.2757],[98.0,27.1473],[98.0,24.7287],[97.6096,24.2931],[97.2764,24.1027],[97.1601,24.0869]]]}}