{"type":"Feature","properties":{"speciesId":271,"category":"LC","source":"IUCN Red List","simplifyTol":0.01,"clippedToSubcontinent":true},"geometry":{"type":"Polygon","coordinates":[[[96.2686,25.489],[95.7992,25.9271],[95.1173,26.11],[94.3341,25.8499],[93.637,25.5148],[92.3228,25.3329],[91.6553,25.3965],[90.5742,25.5773],[90.2582,25.6681],[90.0921,25.7615],[89.8883,26.1478],[89.8004,26.2242],[89.409,26.2902],[88.4004,26.6178],[88.3099,26.7089],[88.2817,26.8591],[88.3083,26.9494],[88.3704,27.0074],[88.5174,27.0246],[89.2651,26.8089],[90.7449,26.6049],[93.1821,27.1597],[94.3887,27.5764],[95.3798,28.1182],[96.5386,28.3771],[96.8653,28.5357],[97.301,28.7848],[97.4522,28.8416],[97.6358,28.8452],[98.0,28.7698],[98.0,23.1656],[96.2686,25.489]]]}}