{"type":"Feature","properties":{"speciesId":273,"category":"LC","source":"IUCN Red List","simplifyTol":0.01,"clippedToSubcontinent":true},"geometry":{"type":"Polygon","coordinates":[[[97.4391,25.4592],[95.8875,25.1608],[95.2258,24.7765],[94.2534,24.1302],[93.3941,23.3661],[93.1185,22.8348],[92.5827,22.0918],[92.5644,22.1293],[92.6039,22.1259],[92.609,22.1641],[92.5768,22.2712],[92.5456,22.5169],[92.5253,22.5539],[92.5364,22.5844],[92.5163,22.7162],[92.4746,22.7451],[92.4438,22.8833],[92.3722,22.9404],[92.3886,23.0458],[92.3583,23.1037],[92.3484,23.2343],[92.3859,23.2763],[92.3669,23.3232],[92.3766,23.3484],[92.3405,23.4249],[92.3274,23.4231],[92.3021,23.5803],[92.2732,23.6265],[92.2881,23.6979],[92.2464,23.7211],[92.2129,23.6503],[92.2114,23.6963],[92.1605,23.7335],[92.0846,23.6741],[92.0741,23.6452],[92.0297,23.6394],[91.9795,23.7215],[91.9538,23.7264],[91.9388,23.6541],[91.9666,23.4871],[91.9416,23.463],[91.9358,23.4298],[91.9016,23.4345],[91.8421,23.3999],[91.7704,23.2676],[91.8138,23.1011],[91.8279,23.0906],[91.81,23.0652],[91.7756,23.0642],[91.7792,23.0298],[91.7177,22.9855],[91.6424,22.9753],[91.6204,22.9291],[91.5995,22.9526],[91.6124,22.958],[91.6045,22.9674],[91.5753,22.9632],[91.5446,22.9926],[91.5416,23.0358],[91.5224,23.0508],[91.5287,23.0884],[91.4919,23.1595],[91.4973,23.1869],[91.4699,23.192],[91.4762,23.2132],[91.4532,23.2173],[91.4613,23.2315],[91.4277,23.2591],[91.3917,23.2581],[91.3816,23.1984],[91.4037,23.0552],[91.3495,23.0854],[91.2977,23.2956],[91.3077,23.3023],[91.2878,23.3194],[91.3135,23.3556],[91.2898,23.3493],[91.2434,23.4841],[91.1971,23.5195],[91.2073,23.5418],[91.1626,23.5952],[91.1509,23.6411],[91.1636,23.667],[91.197,23.6479],[91.1963,23.6876],[91.1556,23.6904],[91.1513,23.7155],[91.168,23.7453],[91.2193,23.7458],[91.246,23.8334],[91.2294,23.8927],[91.2418,23.9194],[91.2666,23.9254],[91.2619,23.9587],[91.3025,23.9877],[91.3702,23.9776],[91.3682,24.0061],[91.3957,24.0443],[91.3777,24.0995],[91.4127,24.1084],[91.5369,24.071],[91.5944,24.0774],[91.6379,24.1053],[91.6521,24.2269],[91.6928,24.1594],[91.7534,24.1376],[91.7514,24.2364],[91.8098,24.2114],[91.8415,24.2254],[91.838,24.1952],[91.8832,24.1428],[91.9061,24.1452],[91.9333,24.2794],[91.9204,24.3264],[91.9587,24.3522],[91.9881,24.3192],[91.9964,24.3264],[91.9639,24.3751],[92.1056,24.3746],[92.1376,24.3988],[92.1288,24.5131],[92.1936,24.5727],[92.2739,24.7851],[92.2603,24.8302],[92.2809,24.8554],[92.4851,24.8651],[92.4864,24.9365],[92.4508,24.94],[92.4632,24.9599],[92.4209,24.9748],[92.4131,25.0205],[92.3384,25.0474],[92.3344,25.0783],[92.2702,25.0778],[92.2188,25.1006],[92.2104,25.1225],[92.1827,25.133],[92.1762,25.12],[92.1567,25.1458],[92.1387,25.1369],[92.1224,25.1662],[92.0553,25.1851],[91.9789,25.1646],[91.9498,25.1801],[91.7599,25.1688],[91.7417,25.1454],[91.7008,25.1555],[91.6827,25.1266],[91.6324,25.1226],[91.6014,25.1378],[91.5991,25.1664],[91.5509,25.1434],[91.4765,25.1351],[91.2615,25.2024],[91.0697,25.1946],[90.8893,25.1541],[90.8389,25.1533],[90.7708,25.1804],[90.725,25.1568],[90.6762,25.1606],[90.649,25.1859],[90.6192,25.1668],[90.5117,25.1728],[90.4432,25.1456],[90.3604,25.1591],[90.3184,25.1874],[90.1078,25.2265],[90.0607,25.2515],[89.859,25.9014],[89.8803,25.9313],[89.8464,25.942],[89.8406,25.9607],[89.8582,25.9778],[89.8497,25.9856],[89.9331,26.2152],[90.0364,26.3462],[90.3859,26.6081],[90.8361,26.7849],[91.0452,26.7869],[91.088,26.8159],[91.2627,26.8072],[91.3345,26.7774],[91.3811,26.8027],[91.4179,26.8608],[91.4452,26.8739],[91.5112,26.8684],[91.5409,26.8091],[91.5739,26.7994],[91.6352,26.8132],[91.7153,26.7956],[91.8514,26.8636],[91.8833,26.8579],[91.892,26.8126],[91.9129,26.8043],[91.904,26.8503],[91.934,26.8606],[91.9332,26.8989],[91.9837,26.8593],[92.0357,26.8491],[92.0933,26.8707],[92.1215,26.8599],[92.6464,26.9563],[92.802,26.8989],[92.9084,26.9182],[93.11,26.8837],[93.2314,26.9104],[93.5667,26.9418],[93.7458,27.0194],[93.816,27.0291],[93.8411,27.0495],[93.8452,27.1575],[93.8612,27.1909],[93.9861,27.3258],[94.2764,27.5847],[94.5242,27.5997],[94.8851,27.7468],[95.0012,27.8267],[95.2856,27.9436],[95.3518,28.0441],[95.3705,28.1137],[95.3957,28.1458],[95.7394,28.2789],[95.787,28.274],[95.8224,28.2962],[95.8738,28.3013],[95.8994,28.2818],[95.9073,28.2453],[95.9357,28.2443],[96.013,28.1948],[96.2704,28.2337],[96.2988,28.1442],[96.3956,28.1254],[96.399,28.1551],[96.4414,28.1597],[96.4738,28.1319],[96.5055,28.071],[96.5182,28.0825],[96.6058,28.047],[96.6744,27.958],[96.789,27.9326],[96.8154,27.8959],[96.8617,27.8773],[96.9152,27.8848],[96.9687,27.8619],[96.9998,27.812],[97.0438,27.8228],[97.0576,27.747],[97.087,27.7392],[97.087,27.7784],[97.1491,27.8068],[97.2593,27.9076],[97.3105,27.9202],[97.3218,27.8823],[97.3782,27.8962],[97.3647,27.9474],[97.4033,28.0173],[97.3463,28.0695],[97.3271,28.0699],[97.3175,28.1008],[97.3368,28.1643],[97.363,28.187],[97.3493,28.2215],[97.4049,28.2473],[97.4226,28.2941],[97.4729,28.2738],[97.4884,28.3353],[97.4797,28.3803],[97.5463,28.4901],[97.5524,28.5346],[97.5776,28.5432],[97.6351,28.4706],[97.7112,28.5123],[97.7416,28.4152],[97.8004,28.3349],[97.8368,28.3341],[97.8461,28.3606],[97.8976,28.3748],[98.0,28.2775],[98.0,25.5073],[97.4391,25.4592]]]}}