{"type":"Feature","properties":{"speciesId":276,"category":"LC","source":"IUCN Red List","simplifyTol":0.01,"clippedToSubcontinent":true},"geometry":{"type":"MultiPolygon","coordinates":[[[[93.4869,21.3907],[93.3215,21.4141],[93.1589,21.4872],[93.0504,21.5818],[92.983,21.7094],[92.9676,21.7638],[93.2531,22.0731],[93.4618,22.0986],[93.656,22.0666],[93.8419,21.9852],[93.8905,21.9379],[93.9222,21.8736],[93.942,21.7779],[93.9375,21.6877],[93.9061,21.5889],[93.8558,21.5103],[93.7986,21.4652],[93.7126,21.4284],[93.4869,21.3907]]],[[[98.0,23.0978],[97.802,23.4166],[97.722,23.8859],[97.6582,23.8673],[97.6496,23.8445],[97.6286,23.8908],[97.535,23.9378],[97.5822,23.9903],[97.427,24.5638],[97.2505,25.0381],[97.013,25.5722],[96.1078,26.7158],[95.7122,26.8842],[95.2145,26.9951],[94.937,27.6058],[95.8427,27.9772],[96.8876,27.6077],[97.1671,27.1262],[97.7903,26.4042],[98.0,26.0839],[98.0,23.0978]]]]}}