{"type":"Feature","properties":{"speciesId":277,"category":"LC","source":"IUCN Red List","simplifyTol":0.01,"clippedToSubcontinent":true},"geometry":{"type":"Polygon","coordinates":[[[73.9055,19.2581],[73.882,18.9797],[73.9055,18.8542],[73.8937,18.7562],[73.8153,18.6582],[73.7644,18.6229],[73.5997,18.6543],[73.5056,18.7092],[73.384,18.7327],[73.3174,18.7249],[73.2547,18.7837],[73.2507,18.8699],[73.3762,18.9483],[73.435,18.9679],[73.4742,19.0032],[73.4742,19.2149],[73.5879,19.211],[73.6193,19.2267],[73.6331,19.2588],[73.6978,19.3154],[73.7167,19.3721],[73.6703,19.4502],[73.7016,19.5168],[73.8232,19.5168],[73.8545,19.4855],[73.9055,19.4776],[73.9329,19.4424],[73.9525,19.3639],[73.9055,19.2581]]]}}