{"type":"Feature","properties":{"speciesId":279,"category":"VU","source":"IUCN Red List","simplifyTol":0.01,"clippedToSubcontinent":true},"geometry":{"type":"MultiPolygon","coordinates":[[[[73.4957,15.9712],[73.4863,15.9812],[73.4838,16.0],[73.4877,16.0],[73.4957,15.9712]]],[[[73.5407,15.925],[73.5379,15.9247],[73.5395,15.9267],[73.5407,15.925]]],[[[73.357,17.0552],[73.3765,16.909],[73.4155,16.7725],[73.3375,16.7043],[73.318,16.7043],[73.3005,16.7511],[73.3179,16.8014],[73.2954,16.8117],[73.2857,16.8793],[73.3048,16.8844],[73.2789,16.8995],[73.2826,16.9486],[73.3057,16.9717],[73.2683,16.9866],[73.2792,17.0002],[73.2564,17.0211],[73.2575,17.0443],[73.2902,17.0061],[73.2813,17.0365],[73.3264,17.0286],[73.2797,17.0446],[73.2914,17.0704],[73.2798,17.1062],[73.2985,17.1137],[73.357,17.0552]]],[[[73.4642,17.5134],[73.396,17.5719],[73.3375,17.6791],[73.357,17.8059],[73.435,17.8351],[73.513,17.8156],[73.6202,17.7474],[73.6397,17.6109],[73.5812,17.5329],[73.4642,17.5134]]],[[[73.4545,16.3826],[73.5617,16.2071],[73.591,16.1291],[73.5715,16.0706],[73.5812,15.9536],[73.5524,15.9248],[73.4981,15.9512],[73.5097,15.9913],[73.4955,15.985],[73.4774,16.0393],[73.4563,16.0581],[73.4839,16.0698],[73.4595,16.0759],[73.4705,16.113],[73.4608,16.0941],[73.4377,16.1936],[73.4522,16.2253],[73.428,16.2044],[73.4118,16.2564],[73.4119,16.2734],[73.4392,16.2897],[73.4061,16.2808],[73.3862,16.363],[73.3699,16.3641],[73.3717,16.3896],[73.4078,16.4059],[73.4545,16.3826]]],[[[73.4026,16.4085],[73.3688,16.3999],[73.3584,16.4343],[73.4026,16.4085]]]]}}