{"type":"Feature","properties":{"speciesId":280,"category":"LC","source":"IUCN Red List","simplifyTol":0.01,"clippedToSubcontinent":true},"geometry":{"type":"MultiPolygon","coordinates":[[[[98.0,15.3939],[97.9834,15.4102],[98.0,15.4261],[98.0,15.3939]]],[[[80.8968,15.9197],[80.8253,15.7519],[80.806,15.8426],[80.7771,15.8781],[80.6847,15.9],[80.5571,15.8779],[80.3672,15.7742],[80.2794,15.6992],[80.2092,15.5308],[80.0939,15.3157],[80.0491,15.0556],[80.0592,15.0005],[80.0005,15.0005],[80.0005,15.9995],[80.8846,15.9995],[80.8968,15.9197]]],[[[96.4796,17.3139],[96.4632,17.331],[96.4808,17.3461],[96.4968,17.3294],[96.4796,17.3139]]],[[[80.9995,15.9995],[80.9995,15.7933],[80.9016,15.8633],[80.9048,15.9995],[80.9995,15.9995]]],[[[88.0005,23.0005],[88.0005,23.9995],[88.9995,23.9995],[88.9995,23.0005],[88.0005,23.0005]]],[[[78.0005,29.0005],[78.0005,29.9995],[78.9995,29.9995],[78.9995,29.0005],[78.0005,29.0005]]],[[[95.9995,27.0005],[96.3088,27.062],[97.4156,27.4271],[97.7195,27.5667],[98.0,27.7518],[98.0,21.3191],[97.6282,21.1949],[97.2688,20.9959],[96.9527,20.7336],[96.691,20.4169],[96.5333,20.145],[96.4161,19.8533],[96.3359,19.5147],[96.2583,19.3043],[96.1995,19.0766],[96.1633,18.8205],[96.1545,18.5354],[96.1224,18.4873],[96.0676,18.4688],[96.004,18.4951],[95.8134,18.7317],[95.5866,18.9461],[95.3926,19.0879],[95.1052,19.26],[95.0456,19.7675],[94.926,20.1605],[94.8221,20.3789],[94.7085,20.5646],[94.5771,20.7382],[94.4291,20.8979],[94.2471,21.0572],[94.0413,21.2007],[92.6263,21.8699],[92.2808,21.9801],[92.27,22.187],[92.3456,22.6432],[92.358,23.1631],[92.6912,23.622],[92.7506,23.842],[92.9772,24.0939],[93.4028,24.0778],[93.6631,24.2983],[93.8142,24.5718],[93.9995,25.0005],[95.9995,27.0005]]],[[[93.0005,25.0005],[93.0,26.0005],[91.9998,26.0005],[91.9995,25.0005],[91.0005,25.0005],[91.0005,26.9995],[93.9995,26.9995],[93.9995,25.0005],[93.0005,25.0005]]],[[[94.0005,27.0005],[94.0005,27.9995],[95.9995,27.9995],[95.9995,27.0005],[94.0005,27.0005]]],[[[88.0005,27.0005],[88.0005,28.9995],[88.9995,28.9995],[88.9995,27.0005],[88.0005,27.0005]]],[[[87.0005,26.0005],[87.0005,26.9995],[87.9995,26.9995],[87.9995,26.0005],[87.0005,26.0005]]]]}}