{"type":"Feature","properties":{"speciesId":281,"category":"LC","source":"IUCN Red List","simplifyTol":0.01,"clippedToSubcontinent":true},"geometry":{"type":"MultiPolygon","coordinates":[[[[96.1485,4.1406],[96.1485,4.1405],[96.1402,4.1399],[96.1485,4.1406]]],[[[95.9772,4.2517],[95.9772,4.2517],[95.9762,4.2538],[95.9772,4.2517]]],[[[95.9671,4.2609],[95.9388,4.2914],[95.9385,4.2919],[95.9388,4.2914],[95.9671,4.2609]]],[[[97.9993,4.5257],[97.9968,4.5277],[97.9993,4.5257],[97.9993,4.5257]]],[[[97.961,4.5325],[97.9608,4.5274],[97.9604,4.5316],[97.961,4.5325]]],[[[97.9679,4.5321],[97.9679,4.5321],[97.9714,4.5329],[97.9679,4.5321]]],[[[95.5709,4.6567],[95.5723,4.6567],[95.5723,4.6567],[95.5709,4.6567]]],[[[95.5823,4.6453],[95.5784,4.6423],[95.5834,4.6462],[95.5823,4.6453]]],[[[95.5833,4.6463],[95.5742,4.6548],[95.5831,4.6465],[95.5833,4.6463]]],[[[95.5595,4.6607],[95.5648,4.6572],[95.5583,4.6595],[95.5595,4.6607]]],[[[95.5011,4.7292],[95.5001,4.7297],[95.5001,4.7297],[95.5011,4.7292]]],[[[95.4937,4.7393],[95.4937,4.7393],[95.4948,4.7425],[95.4937,4.7393]]],[[[95.4872,4.7499],[95.4829,4.7586],[95.4948,4.7425],[95.4872,4.7499]]],[[[95.5134,4.7102],[95.5134,4.7102],[95.503,4.7264],[95.5022,4.7278],[95.5134,4.7102]]],[[[95.3817,4.9568],[95.3817,4.9568],[95.3792,4.9616],[95.3817,4.9568]]],[[[95.3669,4.9879],[95.3684,4.9821],[95.3669,4.9879],[95.3608,4.9954],[95.3669,4.9879]]],[[[95.3709,4.9739],[95.3709,4.9739],[95.3712,4.9756],[95.3709,4.9739]]],[[[95.3301,5.0504],[95.3384,5.047],[95.3301,5.0505],[95.3301,5.0504]]],[[[95.3446,5.0452],[95.3446,5.0452],[95.3413,5.0466],[95.3446,5.0452]]],[[[95.3554,5.0],[95.3554,5.0],[95.3537,5.009],[95.3554,5.0]]],[[[95.3535,5.0101],[95.3535,5.0101],[95.3584,5.0111],[95.3535,5.0101]]],[[[95.3045,5.0793],[95.3045,5.0793],[95.3051,5.0799],[95.3045,5.0793]]],[[[95.3147,5.0817],[95.3152,5.0834],[95.3096,5.0976],[95.3152,5.0834],[95.3147,5.0817]]],[[[95.2901,5.1056],[95.2901,5.1056],[95.2927,5.1064],[95.2901,5.1056]]],[[[95.2985,5.1119],[95.2985,5.1119],[95.2961,5.1089],[95.2985,5.1119]]],[[[95.2864,5.1164],[95.2865,5.1164],[95.2883,5.1175],[95.2864,5.1164]]],[[[95.2979,5.1166],[95.2911,5.1191],[95.2979,5.1166],[95.2979,5.1166]]],[[[95.3067,5.1271],[95.3041,5.1295],[95.3041,5.1295],[95.3067,5.1271]]],[[[95.3028,5.1346],[95.3028,5.1346],[95.3052,5.1544],[95.3028,5.1346]]],[[[95.9285,5.4048],[95.9154,5.4221],[95.9077,5.4267],[95.9154,5.4221],[95.9285,5.4048]]],[[[95.9062,5.4299],[95.9062,5.4299],[95.9054,5.4331],[95.9062,5.4299]]],[[[95.8887,5.4537],[95.8962,5.4445],[95.8887,5.4537],[95.8881,5.4583],[95.8937,5.4764],[95.8886,5.4888],[95.8937,5.4764],[95.8887,5.4537]]],[[[95.227,5.4835],[95.227,5.4835],[95.2285,5.4888],[95.227,5.4835]]],[[[95.859,5.5149],[95.859,5.5149],[95.8522,5.5191],[95.859,5.5149]]],[[[95.8291,5.5321],[95.8291,5.5321],[95.8122,5.5347],[95.8291,5.5321]]],[[[95.806,5.5356],[95.806,5.5356],[95.8058,5.5357],[95.806,5.5356]]],[[[95.3281,5.0578],[95.3118,5.0768],[95.3061,5.0787],[95.3118,5.0768],[95.3281,5.0578]]],[[[97.976,4.5354],[97.9778,4.5367],[97.9778,4.5367],[97.976,4.5354]]],[[[97.975,4.5608],[97.975,4.5608],[97.9825,4.5663],[97.975,4.5608]]],[[[97.9841,4.5675],[97.9889,4.5804],[97.991,4.5822],[97.9889,4.5804],[97.9841,4.5675]]],[[[98.0,4.6047],[97.9994,4.6037],[98.0,4.6047],[98.0,4.6047]]],[[[97.9851,4.537],[97.9823,4.5447],[97.9823,4.5447],[97.9851,4.537]]],[[[97.9757,4.5427],[97.9757,4.5427],[97.9775,4.5459],[97.9757,4.5427]]],[[[97.9775,4.5496],[97.9734,4.5564],[97.9734,4.5564],[97.9775,4.5496]]],[[[97.9891,4.6391],[97.9693,4.6616],[97.9644,4.6656],[97.9693,4.6616],[97.9891,4.6391]]],[[[97.9633,4.6779],[97.9633,4.6779],[97.9566,4.6896],[97.9551,4.6957],[97.9633,4.6779]]],[[[97.9548,4.697],[97.9548,4.697],[97.9566,4.7026],[97.9548,4.697]]],[[[97.9543,4.7469],[97.9542,4.7469],[97.9439,4.7703],[97.9437,4.7736],[97.9543,4.7469]]],[[[97.9607,4.7151],[97.9607,4.7151],[97.9619,4.7262],[97.9607,4.7151]]],[[[97.9019,4.8867],[97.9015,4.8871],[97.9015,4.8871],[97.9019,4.8867]]],[[[97.811,4.9313],[97.8774,4.8917],[97.8696,4.8953],[97.8632,4.8965],[97.8508,4.9027],[97.811,4.9313]]],[[[97.7866,4.9542],[97.7866,4.9542],[97.784,4.9568],[97.7866,4.9542]]],[[[97.684,5.0476],[97.6838,5.0477],[97.6838,5.0477],[97.684,5.0476]]],[[[97.6693,5.062],[97.6732,5.0526],[97.6693,5.062],[97.6495,5.0741],[97.6693,5.062]]],[[[97.7358,5.0],[97.7358,5.0],[97.7324,5.0034],[97.7358,5.0]]],[[[97.9412,4.7836],[97.934,4.808],[97.9294,4.8152],[97.9256,4.8254],[97.934,4.808],[97.9412,4.7836]]],[[[97.6429,5.0932],[97.6429,5.0932],[97.6432,5.0946],[97.6429,5.0932]]],[[[97.6128,5.1289],[97.6073,5.121],[97.61,5.1263],[97.6128,5.1289]]],[[[97.5761,5.1359],[97.5726,5.1383],[97.5761,5.1359],[97.5761,5.1359]]],[[[97.5788,5.1368],[97.5788,5.1368],[97.585,5.1439],[97.5876,5.1454],[97.5788,5.1368]]],[[[97.5948,5.1458],[97.5949,5.1458],[97.5907,5.1463],[97.5948,5.1458]]],[[[97.5764,5.1425],[97.5802,5.146],[97.5802,5.146],[97.5764,5.1425]]],[[[97.1432,5.1623],[97.1432,5.1623],[97.146,5.1663],[97.1432,5.1623]]],[[[97.5721,5.1726],[97.5714,5.1746],[97.5721,5.1727],[97.5721,5.1726]]],[[[97.1522,5.1752],[97.153,5.1764],[97.153,5.1763],[97.1522,5.1752]]],[[[97.571,5.1641],[97.5709,5.1641],[97.5719,5.1709],[97.571,5.1641]]],[[[97.5674,5.1824],[97.5663,5.1837],[97.5663,5.1837],[97.5674,5.1824]]],[[[97.57,5.1904],[97.57,5.1904],[97.5691,5.191],[97.57,5.1904]]],[[[97.1454,5.2],[97.146,5.1987],[97.1448,5.2003],[97.1454,5.2]]],[[[97.1537,5.1812],[97.1489,5.1922],[97.1537,5.1812],[97.1537,5.1812]]],[[[97.5273,5.2057],[97.5273,5.2057],[97.5283,5.2107],[97.5273,5.2057]]],[[[97.5314,5.2128],[97.5314,5.2128],[97.53,5.2125],[97.5314,5.2128]]],[[[97.5586,5.1991],[97.5454,5.2059],[97.5415,5.2066],[97.5454,5.2059],[97.5586,5.1991]]],[[[97.1981,5.1461],[97.1817,5.146],[97.2125,5.1482],[97.1981,5.1461]]],[[[97.2301,5.1509],[97.2309,5.151],[97.2309,5.151],[97.2301,5.1509]]],[[[97.5765,5.1522],[97.5765,5.1522],[97.5636,5.1597],[97.5765,5.1522]]],[[[97.2359,5.1542],[97.2359,5.1542],[97.2433,5.1569],[97.2359,5.1542]]],[[[97.5884,5.1511],[97.5765,5.1602],[97.5769,5.1653],[97.5884,5.1511]]],[[[97.5399,5.2213],[97.5399,5.2213],[97.5319,5.228],[97.5399,5.2213]]],[[[97.0999,5.2243],[97.0999,5.2243],[97.0822,5.2326],[97.0999,5.2243]]],[[[97.4396,5.2285],[97.4396,5.2285],[97.4421,5.2306],[97.4396,5.2285]]],[[[97.048,5.2396],[97.0481,5.2396],[97.0348,5.2477],[97.048,5.2396]]],[[[97.4765,5.2447],[97.4765,5.2447],[97.4884,5.25],[97.4765,5.2447]]],[[[97.5013,5.2528],[97.5013,5.2528],[97.5012,5.2528],[97.5013,5.2528]]],[[[96.8998,5.2516],[96.908,5.2532],[96.8833,5.2536],[96.8998,5.2516]]],[[[95.9643,5.3835],[95.9381,5.4039],[95.9291,5.4023],[95.9381,5.4039],[95.9643,5.3835]]],[[[96.1042,5.2851],[96.0941,5.2865],[96.0735,5.2928],[96.0619,5.3045],[96.0612,5.3058],[96.1042,5.2851]]],[[[96.7704,5.2618],[96.7596,5.2596],[96.7727,5.2635],[96.7704,5.2618]]],[[[96.9505,5.2651],[96.9838,5.2648],[96.9241,5.2573],[96.9505,5.2651]]],[[[96.1762,5.265],[96.152,5.2706],[96.1496,5.272],[96.152,5.2706],[96.1762,5.265]]],[[[96.861,5.2678],[96.8689,5.2649],[96.8576,5.2653],[96.861,5.2678]]],[[[96.8191,5.2752],[96.8191,5.2752],[96.8226,5.2762],[96.8191,5.2752]]],[[[96.8085,5.2739],[96.8085,5.2739],[96.806,5.2713],[96.7975,5.2674],[96.7827,5.2656],[96.7975,5.2674],[96.8085,5.2739]]],[[[96.8443,5.271],[96.8443,5.271],[96.8382,5.2712],[96.8443,5.271]]],[[[96.8541,5.2731],[96.8397,5.2749],[96.8303,5.2714],[96.8397,5.2749],[96.8541,5.2731]]],[[[96.8331,5.2783],[96.8566,5.2754],[96.8555,5.2744],[96.8331,5.2783]]],[[[97.5468,5.2151],[97.5468,5.2151],[97.5446,5.2183],[97.5468,5.2151]]],[[[96.377,5.218],[96.3716,5.2195],[96.3717,5.2195],[96.377,5.218]]],[[[97.648,5.0751],[97.648,5.0751],[97.6466,5.0773],[97.648,5.0751]]],[[[79.7916,7.5936],[79.7915,7.5936],[79.7925,7.5981],[79.7916,7.5936]]],[[[79.8046,7.6593],[79.8046,7.6593],[79.8045,7.6663],[79.8046,7.6593]]],[[[79.7977,7.7275],[79.7977,7.7275],[79.7976,7.7276],[79.7977,7.7275]]],[[[81.8226,7.4635],[81.8226,7.4635],[81.8213,7.4657],[81.8226,7.4635]]],[[[79.8022,7.6248],[79.7976,7.6113],[79.8022,7.6248],[79.8034,7.6391],[79.8056,7.6488],[79.8022,7.6248]]],[[[79.8011,7.5987],[79.7948,7.6019],[79.802,7.6057],[79.8011,7.5987]]],[[[79.7747,7.8378],[79.7704,7.8512],[79.7612,7.8802],[79.7704,7.8512],[79.7747,7.8378]]],[[[81.7056,7.746],[81.7056,7.746],[81.7025,7.7501],[81.7056,7.746]]],[[[81.698,7.7499],[81.698,7.7499],[81.6995,7.753],[81.698,7.7499]]],[[[79.7948,7.7398],[79.7913,7.7551],[79.7865,7.7813],[79.7913,7.7551],[79.7948,7.7398]]],[[[81.6544,7.7729],[81.6544,7.7729],[81.6502,7.78],[81.6544,7.7729]]],[[[81.6017,7.8237],[81.6152,7.8187],[81.593,7.83],[81.6017,7.8237]]],[[[81.5889,7.8385],[81.5889,7.8385],[81.5873,7.84],[81.5889,7.8385]]],[[[79.8082,7.8839],[79.8078,7.8868],[79.8082,7.8839],[79.8082,7.8839]]],[[[81.8751,7.038],[81.8713,7.0554],[81.872,7.0621],[81.8666,7.0702],[81.8619,7.0878],[81.872,7.0621],[81.8751,7.038]]],[[[81.8607,7.0937],[81.8586,7.0907],[81.8607,7.0937],[81.8604,7.1162],[81.861,7.1194],[81.8607,7.0937]]],[[[81.8637,7.1445],[81.8637,7.1444],[81.8647,7.1553],[81.8637,7.1445]]],[[[81.8652,7.1705],[81.8652,7.1706],[81.8645,7.1903],[81.8652,7.1705]]],[[[81.8656,7.198],[81.8656,7.198],[81.8653,7.227],[81.8669,7.247],[81.8656,7.198]]],[[[79.8349,7.213],[79.8456,7.2706],[79.8511,7.2717],[79.8456,7.2706],[79.8349,7.213]]],[[[79.8592,7.2756],[79.8592,7.2756],[79.8565,7.2777],[79.8592,7.2756]]],[[[81.8684,7.3297],[81.8684,7.3297],[81.8656,7.3373],[81.8684,7.3297]]],[[[79.8273,7.3674],[79.8273,7.3674],[79.8255,7.3819],[79.8273,7.3674]]],[[[81.8523,7.3774],[81.8519,7.3782],[81.8494,7.3826],[81.8523,7.3774]]],[[[81.8217,7.452],[81.8214,7.4531],[81.8214,7.4531],[81.8217,7.452]]],[[[81.8575,7.3589],[81.8575,7.3589],[81.8559,7.365],[81.8575,7.3589]]],[[[79.8443,7.2774],[79.8422,7.2926],[79.842,7.2952],[79.8422,7.2926],[79.8443,7.2774]]],[[[81.8719,7.2853],[81.8723,7.2876],[81.8723,7.2876],[81.8719,7.2853]]],[[[81.8696,7.2959],[81.8696,7.2959],[81.8695,7.298],[81.8696,7.2959]]],[[[81.8231,6.7646],[81.8244,6.7651],[81.8221,6.7651],[81.8231,6.7646]]],[[[81.8249,6.7653],[81.8253,6.7673],[81.825,6.7653],[81.8249,6.7653]]],[[[81.8266,6.7754],[81.8248,6.7771],[81.8266,6.7754],[81.8266,6.7754]]],[[[81.8207,6.7835],[81.8207,6.7835],[81.8244,6.7952],[81.8207,6.7835]]],[[[81.8432,6.8321],[81.8432,6.8321],[81.8437,6.8381],[81.8432,6.8321]]],[[[81.8389,6.8436],[81.8389,6.8436],[81.8348,6.8448],[81.8389,6.8436]]],[[[79.8584,6.8663],[79.8584,6.8663],[79.858,6.8696],[79.8584,6.8663]]],[[[81.8394,6.8807],[81.8394,6.8807],[81.8405,6.8811],[81.8394,6.8807]]],[[[79.859,6.8609],[79.8687,6.8057],[79.8619,6.834],[79.859,6.8609]]],[[[81.8307,6.849],[81.8307,6.849],[81.8298,6.8484],[81.8307,6.849]]],[[[81.8232,6.8631],[81.8206,6.849],[81.8199,6.8552],[81.8211,6.8621],[81.8232,6.8631]]],[[[81.8397,6.8542],[81.8383,6.8544],[81.8412,6.8554],[81.8397,6.8542]]],[[[81.8233,6.8088],[81.8233,6.8088],[81.8252,6.812],[81.8233,6.8088]]],[[[81.8337,6.8207],[81.8337,6.8207],[81.8367,6.8261],[81.8337,6.8207]]],[[[81.8433,6.882],[81.8459,6.8879],[81.8433,6.882],[81.8433,6.882]]],[[[81.8517,6.8876],[81.8518,6.8884],[81.8518,6.8884],[81.8517,6.8876]]],[[[81.838,6.8901],[81.838,6.8901],[81.8398,6.8907],[81.838,6.8901]]],[[[79.8453,6.939],[79.8431,6.9333],[79.8442,6.9389],[79.8453,6.939]]],[[[81.871,6.9589],[81.871,6.9589],[81.8718,6.9621],[81.871,6.9589]]],[[[81.8729,6.9669],[81.8719,6.9693],[81.8729,6.9669],[81.8729,6.9669]]],[[[81.8639,6.9666],[81.8654,6.9677],[81.8647,6.9672],[81.8639,6.9666]]],[[[81.8542,6.9949],[81.8542,6.9948],[81.8504,6.9911],[81.8542,6.9949]]],[[[79.8712,6.9757],[79.869,7.0027],[79.8644,7.022],[79.869,7.0027],[79.8712,6.9757]]],[[[81.8808,7.0248],[81.8813,7.0267],[81.8813,7.0267],[81.8808,7.0248]]],[[[81.8808,7.0306],[81.8808,7.0306],[81.8771,7.0344],[81.8808,7.0306]]],[[[81.8679,6.9782],[81.8665,6.982],[81.8679,6.9782],[81.8679,6.9782]]],[[[81.8496,6.9857],[81.8496,6.9857],[81.8489,6.9896],[81.8496,6.9857]]],[[[81.8648,6.987],[81.8647,6.987],[81.8627,6.9891],[81.8648,6.987]]],[[[79.8613,6.962],[79.8556,6.9577],[79.8613,6.962],[79.8712,6.9756],[79.8613,6.962]]],[[[81.8707,6.9703],[81.8695,6.9709],[81.8695,6.9709],[81.8707,6.9703]]],[[[79.7154,8.0166],[79.7118,8.0325],[79.7089,8.0389],[79.7118,8.0325],[79.7154,8.0166]]],[[[79.7547,7.9092],[79.7513,7.9316],[79.7432,7.9569],[79.7513,7.9316],[79.7547,7.9092]]],[[[79.8078,7.8871],[79.8078,7.8871],[79.809,7.8882],[79.8078,7.8871]]],[[[81.5671,7.8981],[81.5671,7.8981],[81.5678,7.9104],[81.5671,7.8981]]],[[[81.5443,7.954],[81.5443,7.954],[81.5443,7.954],[81.5443,7.954]]],[[[79.8122,7.8935],[79.8147,7.9039],[79.8143,7.9105],[79.8146,7.9112],[79.8147,7.9039],[79.8122,7.8935]]],[[[79.8149,7.888],[79.8249,7.9128],[79.8265,7.9206],[79.8249,7.9319],[79.8263,7.9372],[79.8265,7.9206],[79.8249,7.9128],[79.8149,7.888]]],[[[79.8141,7.9371],[79.8141,7.9371],[79.8138,7.9375],[79.8141,7.9371]]],[[[79.8281,7.958],[79.828,7.959],[79.828,7.959],[79.8281,7.958]]],[[[79.8299,7.9704],[79.8299,7.9704],[79.8294,7.9743],[79.8299,7.9704]]],[[[79.8163,7.9776],[79.8163,7.9776],[79.8138,7.9787],[79.8163,7.9776]]],[[[79.8323,7.9955],[79.834,8.0071],[79.8333,8.0106],[79.834,8.0071],[79.8323,7.9955]]],[[[81.4872,8.0173],[81.4769,8.0343],[81.4737,8.0441],[81.4769,8.0343],[81.4872,8.0173]]],[[[79.8211,8.0328],[79.8211,8.0328],[79.8144,8.0404],[79.8211,8.0328]]],[[[79.8229,7.9447],[79.8199,7.9542],[79.822,7.9553],[79.8229,7.9447]]],[[[79.8107,7.9475],[79.8107,7.9475],[79.8172,7.9675],[79.8107,7.9475]]],[[[89.7741,21.8189],[89.7806,21.8233],[89.7841,21.8236],[89.7741,21.8189]]],[[[72.7242,21.6092],[72.6264,21.6156],[72.6033,21.6436],[72.6336,21.6586],[72.7661,21.6553],[72.7242,21.6092]]],[[[89.2843,21.7036],[89.2613,21.6969],[89.2926,21.6939],[89.293,21.6694],[89.2504,21.6459],[89.2075,21.6523],[89.2319,21.7014],[89.2199,21.7399],[89.2321,21.7508],[89.2917,21.7472],[89.2843,21.7036]]],[[[92.3118,21.0668],[92.3118,21.0668],[92.3122,21.0703],[92.3118,21.0668]]],[[[92.2201,21.109],[92.211,21.1081],[92.2168,21.1148],[92.2201,21.109]]],[[[92.2286,21.112],[92.2286,21.112],[92.2287,21.1126],[92.2286,21.112]]],[[[92.2298,21.1046],[92.2297,21.1046],[92.2286,21.1117],[92.2298,21.1046]]],[[[92.2328,21.1217],[92.2328,21.1217],[92.2278,21.126],[92.2262,21.1307],[92.2328,21.1217]]],[[[92.2179,21.1304],[92.2124,21.1257],[92.2076,21.1318],[92.2179,21.1304]]],[[[92.2225,21.1369],[92.2148,21.1388],[92.2148,21.1388],[92.2225,21.1369]]],[[[88.8589,21.52],[88.8255,21.5594],[88.8278,21.5997],[88.85,21.6086],[88.898,21.5794],[88.9133,21.55],[88.9036,21.5264],[88.8589,21.52]]],[[[89.7771,21.856],[89.7591,21.849],[89.7553,21.8507],[89.7771,21.856]]],[[[89.5876,21.7062],[89.5581,21.7187],[89.5646,21.7513],[89.5312,21.8231],[89.5459,21.8493],[89.6102,21.7968],[89.5922,21.7519],[89.615,21.7253],[89.5876,21.7062]]],[[[88.128,21.6194],[88.0528,21.6344],[88.045,21.6608],[88.0925,21.8194],[88.1325,21.8761],[88.1569,21.8431],[88.1667,21.7697],[88.1653,21.7233],[88.128,21.6194]]],[[[88.645,21.7847],[88.5936,21.7978],[88.5792,21.8269],[88.6419,21.9217],[88.6758,21.9072],[88.6475,21.8369],[88.645,21.7847]]],[[[89.6582,21.8587],[89.6452,21.8735],[89.6541,21.8891],[89.6633,21.8709],[89.6582,21.8587]]],[[[88.0822,21.8478],[88.0681,21.8869],[88.0972,21.9447],[88.113,21.9486],[88.1353,21.9075],[88.0822,21.8478]]],[[[90.0741,21.9717],[90.0953,21.9352],[90.0873,21.9],[90.1036,21.8865],[90.0658,21.8399],[90.0372,21.8557],[90.0253,21.8873],[90.0299,21.9438],[90.0741,21.9717]]],[[[90.3058,21.9657],[90.2712,21.8834],[90.2458,21.8987],[90.2753,21.9425],[90.2679,21.9697],[90.2862,21.9815],[90.3058,21.9657]]],[[[90.2892,22.3548],[90.2713,22.3515],[90.2864,22.3644],[90.2892,22.3548]]],[[[91.513,22.3456],[91.4753,22.3622],[91.4083,22.4722],[91.4028,22.5111],[91.4317,22.6239],[91.46,22.6056],[91.5228,22.5136],[91.56,22.4353],[91.5647,22.3747],[91.513,22.3456]]],[[[91.3178,22.6089],[91.3047,22.6283],[91.34,22.6364],[91.3394,22.63],[91.3178,22.6089]]],[[[91.0272,22.0839],[91.0536,22.1842],[91.073,22.5075],[91.088,22.5258],[91.1739,22.3211],[91.1747,22.2186],[91.1417,22.1614],[91.0272,22.0839]]],[[[91.013,22.3797],[90.9966,22.3712],[90.9966,22.4085],[91.013,22.3797]]],[[[91.1891,22.3911],[91.1686,22.4314],[91.1686,22.4614],[91.1939,22.453],[91.2128,22.4236],[91.1891,22.3911]]],[[[91.0272,22.4044],[91.0269,22.4428],[91.0444,22.4525],[91.0544,22.4206],[91.0272,22.4044]]],[[[91.0092,22.4283],[90.9966,22.4665],[91.0092,22.4764],[91.0092,22.4283]]],[[[90.9966,22.2258],[90.9966,22.2276],[90.9966,22.2261],[90.9966,22.2258]]],[[[90.537,22.1928],[90.5586,22.2297],[90.5654,22.2312],[90.5621,22.2068],[90.537,22.1928]]],[[[90.575,22.2311],[90.5686,22.2396],[90.5825,22.2508],[90.5841,22.2483],[90.575,22.2311]]],[[[90.3502,22.0981],[90.3741,22.097],[90.3076,21.9737],[90.2821,21.985],[90.284,22.0554],[90.3145,22.0777],[90.3159,22.086],[90.3473,22.0893],[90.3372,22.1035],[90.3502,22.0981]]],[[[80.9422,15.7347],[80.8714,15.8033],[80.8786,15.8433],[80.9919,15.7658],[80.9422,15.7347]]],[[[93.7042,19.9635],[93.7054,19.9668],[93.7054,19.9668],[93.7042,19.9635]]],[[[86.2586,20.0381],[86.2636,20.05],[86.2875,20.04],[86.2836,20.0381],[86.2586,20.0381]]],[[[92.3128,21.0579],[92.3128,21.0579],[92.313,21.0583],[92.3128,21.0579]]],[[[97.7489,16.4091],[97.7489,16.4091],[97.7539,16.4141],[97.7489,16.4091]]],[[[91.2821,22.6746],[91.2851,22.679],[91.2874,22.6785],[91.2821,22.6746]]],[[[90.368,22.9212],[90.3518,22.9514],[90.3227,22.9696],[90.3564,22.9623],[90.368,22.9212]]],[[[90.348,22.9398],[90.3131,22.9459],[90.2948,22.9664],[90.3136,22.9686],[90.348,22.9398]]],[[[90.4052,23.0052],[90.3919,23.0089],[90.4172,23.0099],[90.4052,23.0052]]],[[[90.3079,23.0375],[90.2751,23.039],[90.2918,23.0496],[90.3079,23.0375]]],[[[90.5131,23.0812],[90.5003,23.1001],[90.5168,23.1384],[90.5241,23.0914],[90.5131,23.0812]]],[[[90.4512,22.9721],[90.4551,23.0016],[90.4817,22.9647],[90.4689,22.8799],[90.4401,22.8089],[90.4278,22.8417],[90.3951,22.8281],[90.3898,22.839],[90.4218,22.8989],[90.4173,22.9162],[90.3926,22.8769],[90.3843,22.8404],[90.4151,22.7819],[90.3844,22.7899],[90.42,22.7752],[90.3999,22.7644],[90.3323,22.8477],[90.3807,22.9075],[90.3533,22.9932],[90.4309,22.9917],[90.4512,22.9721]]],[[[90.4295,22.9979],[90.4198,23.0042],[90.4418,23.0056],[90.4295,22.9979]]],[[[90.4691,23.1551],[90.4774,23.1301],[90.4571,23.1226],[90.4691,23.1551]]],[[[90.548,23.3843],[90.5459,23.3847],[90.5498,23.3881],[90.548,23.3843]]],[[[90.1768,23.4246],[90.167,23.4337],[90.1686,23.4386],[90.1768,23.4246]]],[[[90.5747,23.4425],[90.5686,23.4417],[90.5742,23.4501],[90.5747,23.4425]]],[[[90.4948,23.3982],[90.4858,23.3961],[90.4761,23.398],[90.4948,23.3982]]],[[[90.184,23.3987],[90.1658,23.4199],[90.1682,23.4225],[90.184,23.3987]]],[[[90.1966,23.3718],[90.1883,23.3811],[90.1897,23.386],[90.1966,23.3718]]],[[[90.5338,23.169],[90.545,23.1982],[90.5412,23.1433],[90.5221,23.1767],[90.5317,23.2004],[90.5338,23.169]]],[[[90.5569,23.16],[90.5541,23.1765],[90.5756,23.2083],[90.5761,23.1787],[90.5569,23.16]]],[[[90.5963,23.2287],[90.5835,23.218],[90.5954,23.2312],[90.5963,23.2287]]],[[[90.5578,23.2282],[90.5631,23.2392],[90.5731,23.2392],[90.5705,23.2357],[90.5578,23.2282]]],[[[90.5566,23.1903],[90.5544,23.2059],[90.5569,23.2114],[90.5661,23.2048],[90.5566,23.1903]]],[[[90.4922,23.0819],[90.4684,23.097],[90.4478,23.0556],[90.4435,23.1068],[90.4907,23.1312],[90.4643,23.1915],[90.4687,23.2012],[90.4725,23.1855],[90.5053,23.1688],[90.4922,23.0819]]],[[[90.3749,23.3544],[90.4122,23.3025],[90.4838,23.2994],[90.4857,23.2465],[90.4512,23.1977],[90.4659,23.1672],[90.4338,23.1001],[90.4477,23.028],[90.3609,23.0111],[90.3426,22.9819],[90.326,22.9816],[90.3088,23.0538],[90.3259,23.0679],[90.3326,23.1087],[90.3229,23.1024],[90.2729,23.1468],[90.267,23.1328],[90.2905,23.1207],[90.2538,23.1253],[90.2445,23.1379],[90.2657,23.1601],[90.2142,23.1915],[90.1842,23.1708],[90.1781,23.1892],[90.2071,23.2097],[90.2108,23.224],[90.1721,23.262],[90.2124,23.2553],[90.233,23.2607],[90.2526,23.2882],[90.24,23.2931],[90.2866,23.3161],[90.2985,23.35],[90.327,23.366],[90.3749,23.3544]]],[[[90.6333,23.2501],[90.6327,23.2539],[90.6334,23.2534],[90.6333,23.2501]]],[[[90.5004,23.1797],[90.4761,23.1948],[90.5004,23.2449],[90.4925,23.3005],[90.5452,23.2937],[90.5409,23.2371],[90.5004,23.1797]]],[[[90.5803,23.239],[90.5713,23.2467],[90.5838,23.26],[90.586,23.2534],[90.5803,23.239]]],[[[90.6782,23.3582],[90.6734,23.3486],[90.6782,23.3582],[90.6782,23.3582]]],[[[90.1766,23.3369],[90.2574,23.3069],[90.2335,23.2961],[90.2286,23.2652],[90.1662,23.2687],[90.1826,23.2415],[90.1276,23.2454],[90.1311,23.2632],[90.1245,23.2738],[90.0893,23.2811],[90.1766,23.3369]]],[[[90.3671,23.3702],[90.3716,23.3623],[90.3671,23.3702],[90.3671,23.3702]]],[[[90.3463,23.3767],[90.3214,23.3768],[90.2989,23.3679],[90.3205,23.3807],[90.3463,23.3767]]],[[[90.45,23.3152],[90.4206,23.3182],[90.4075,23.3394],[90.45,23.3152]]],[[[90.3316,23.3845],[90.286,23.3796],[90.2958,23.3708],[90.2708,23.3264],[90.2139,23.3613],[90.245,23.326],[90.2056,23.3503],[90.1836,23.4498],[90.3316,23.3845]]],[[[90.199,23.4973],[90.1865,23.4972],[90.1838,23.503],[90.199,23.4973]]],[[[90.5756,23.5199],[90.5607,23.5261],[90.5573,23.5384],[90.5756,23.5199]]],[[[90.6919,23.5489],[90.6906,23.5452],[90.6919,23.5489],[90.6919,23.5489]]],[[[90.7032,23.5503],[90.6968,23.5509],[90.7033,23.5523],[90.7032,23.5503]]],[[[90.6597,23.5141],[90.6637,23.5167],[90.6642,23.5165],[90.6597,23.5141]]],[[[90.6949,23.5552],[90.6936,23.5641],[90.6992,23.5613],[90.6949,23.5552]]],[[[90.4697,23.5534],[90.4532,23.549],[90.4394,23.5536],[90.4698,23.5718],[90.4697,23.5534]]],[[[90.6641,23.6736],[90.6529,23.6724],[90.6474,23.6798],[90.6641,23.6736]]],[[[90.6841,23.6613],[90.6694,23.6627],[90.6724,23.669],[90.6841,23.6613]]],[[[90.7168,23.6598],[90.7013,23.6627],[90.6913,23.6714],[90.7264,23.6788],[90.7168,23.6598]]],[[[90.7331,23.6942],[90.6945,23.6848],[90.7145,23.7266],[90.7331,23.6942]]],[[[90.3547,23.715],[90.3412,23.7247],[90.3291,23.7271],[90.3466,23.7315],[90.3547,23.715]]],[[[90.1143,23.5944],[90.0967,23.6051],[90.0878,23.6174],[90.1101,23.6069],[90.1143,23.5944]]],[[[90.6517,23.606],[90.6827,23.5581],[90.6669,23.5693],[90.6945,23.5158],[90.6669,23.5232],[90.5994,23.4949],[90.5873,23.5421],[90.6085,23.5817],[90.5975,23.5938],[90.6517,23.606]]],[[[90.6905,23.568],[90.6789,23.5747],[90.6805,23.5794],[90.6905,23.568]]],[[[90.405,23.6106],[90.3909,23.6159],[90.4177,23.611],[90.405,23.6106]]],[[[90.4258,23.5723],[90.408,23.5882],[90.4039,23.6053],[90.4199,23.5975],[90.4258,23.5723]]],[[[90.4335,23.558],[90.4244,23.6027],[90.431,23.6061],[90.4432,23.5992],[90.4335,23.558]]],[[[90.5691,23.5895],[90.5706,23.5906],[90.5728,23.5908],[90.5691,23.5895]]],[[[90.4844,23.5823],[90.5024,23.5851],[90.4538,23.5754],[90.4478,23.6043],[90.4844,23.5823]]],[[[90.6195,23.6099],[90.6019,23.6062],[90.6261,23.6259],[90.6195,23.6099]]],[[[90.6585,23.6553],[90.7322,23.6524],[90.7598,23.6309],[90.7358,23.627],[90.7284,23.5956],[90.6956,23.5734],[90.6684,23.59],[90.6536,23.6235],[90.6585,23.6553]]],[[[90.6474,23.6139],[90.6317,23.6169],[90.6427,23.6569],[90.6634,23.6642],[90.6503,23.6477],[90.6474,23.6139]]],[[[90.3778,23.6956],[90.4183,23.6844],[90.4643,23.628],[90.4239,23.6183],[90.4349,23.637],[90.429,23.6418],[90.415,23.624],[90.3878,23.6461],[90.3978,23.6253],[90.3645,23.63],[90.288,23.6726],[90.2618,23.7243],[90.2876,23.7327],[90.3085,23.7608],[90.313,23.7323],[90.3778,23.6956]]],[[[90.5591,23.449],[90.544,23.4542],[90.5431,23.4795],[90.5615,23.4807],[90.5591,23.449]]],[[[90.2377,23.4724],[90.2303,23.4706],[90.2255,23.4789],[90.2377,23.4724]]],[[[67.6769,23.797],[67.6748,23.7977],[67.6769,23.797],[67.6769,23.797]]],[[[67.6634,23.7982],[67.6634,23.7983],[67.6659,23.7984],[67.6634,23.7982]]],[[[68.0241,23.7877],[68.0298,23.7879],[68.0298,23.7879],[68.0241,23.7877]]],[[[67.9811,23.7965],[67.981,23.7965],[67.9802,23.7989],[67.9811,23.7965]]],[[[67.7465,23.7995],[67.7338,23.7994],[67.7502,23.8015],[67.7465,23.7995]]],[[[67.6851,23.8052],[67.6929,23.804],[67.7069,23.7984],[67.7176,23.8025],[67.707,23.7984],[67.6851,23.8052],[67.6769,23.797],[67.6851,23.8052]]],[[[67.6313,23.8075],[67.6303,23.8078],[67.6303,23.8078],[67.6313,23.8075]]],[[[67.7502,23.8015],[67.7485,23.8094],[67.7364,23.82],[67.7502,23.8015]]],[[[68.0839,23.8343],[68.0839,23.8343],[68.0996,23.8411],[68.0839,23.8343]]],[[[68.0421,23.8134],[68.0402,23.8216],[68.0402,23.8216],[68.0421,23.8134]]],[[[67.6276,23.8172],[67.6327,23.8337],[67.6268,23.8416],[67.6327,23.8337],[67.6276,23.8172]]],[[[67.764,23.8282],[67.7531,23.8307],[67.746,23.8335],[67.7531,23.8307],[67.764,23.8282]]],[[[67.9606,23.8156],[67.9581,23.8159],[67.9581,23.8159],[67.9606,23.8156]]],[[[67.8076,23.8147],[67.8007,23.8137],[67.8209,23.8114],[67.8076,23.8147]]],[[[67.8274,23.8136],[67.8289,23.8149],[67.8209,23.8114],[67.8274,23.8136]]],[[[67.7907,23.8164],[67.7835,23.8211],[67.8007,23.8137],[67.7907,23.8164]]],[[[67.8342,23.8195],[67.8342,23.8195],[67.8354,23.8228],[67.8342,23.8195]]],[[[67.5704,23.8682],[67.5691,23.8682],[67.5718,23.8691],[67.5704,23.8682]]],[[[67.5805,23.8703],[67.5805,23.8703],[67.58,23.8751],[67.5805,23.8703]]],[[[67.5461,23.888],[67.5453,23.8884],[67.5461,23.888],[67.5461,23.888]]],[[[67.5049,23.8897],[67.5024,23.8921],[67.5024,23.8921],[67.5049,23.8897]]],[[[67.5307,23.8929],[67.5307,23.8929],[67.534,23.893],[67.5307,23.8929]]],[[[67.8671,23.9087],[67.8709,23.9237],[67.873,23.9295],[67.8862,23.9475],[67.9027,23.9647],[67.8939,23.9751],[67.9027,23.9647],[67.8671,23.9087]]],[[[67.867,23.9498],[67.8807,23.9671],[67.8845,23.9688],[67.8807,23.967],[67.867,23.9498]]],[[[68.0546,23.9021],[68.0546,23.9021],[68.0553,23.903],[68.0546,23.9021]]],[[[68.0306,23.9038],[68.0298,23.9032],[68.0306,23.9038],[68.0306,23.9038]]],[[[67.5734,23.8742],[67.5734,23.8742],[67.5722,23.8829],[67.5734,23.8742]]],[[[67.5762,23.889],[67.5722,23.8831],[67.5762,23.889],[67.5762,23.889]]],[[[67.8378,23.8755],[67.8378,23.8755],[67.8435,23.9001],[67.8378,23.8755]]],[[[67.8651,23.8939],[67.8651,23.8939],[67.8652,23.8969],[67.8651,23.8939]]],[[[68.0316,23.8909],[68.0328,23.8946],[68.0328,23.8946],[68.0316,23.8909]]],[[[67.6175,23.8414],[67.6161,23.8421],[67.6236,23.8426],[67.6175,23.8414]]],[[[68.073,23.8347],[68.073,23.8347],[68.0651,23.8463],[68.073,23.8347]]],[[[67.9363,23.8379],[67.952,23.8121],[67.9363,23.8379],[67.9264,23.8441],[67.9223,23.8488],[67.9211,23.8505],[67.9363,23.8379]]],[[[67.9298,23.829],[67.922,23.841],[67.9193,23.8485],[67.9199,23.8507],[67.9298,23.829]]],[[[67.6267,23.8417],[67.6254,23.8429],[67.6254,23.8429],[67.6267,23.8417]]],[[[68.1196,23.8447],[68.1195,23.8447],[68.1188,23.8466],[68.1196,23.8447]]],[[[68.1076,23.8458],[68.1035,23.8555],[68.1035,23.8555],[68.1076,23.8458]]],[[[67.7086,23.8502],[67.7051,23.8556],[67.7051,23.8556],[67.7086,23.8502]]],[[[68.1117,23.8535],[68.1117,23.8535],[68.1105,23.8538],[68.1117,23.8535]]],[[[67.8362,23.853],[67.8362,23.853],[67.8389,23.873],[67.8362,23.853]]],[[[67.1638,24.7895],[67.1511,24.7924],[67.16,24.7933],[67.1638,24.7895]]],[[[67.438,24.0636],[67.4034,24.0616],[67.405,24.0764],[67.4465,24.1203],[67.4184,24.0883],[67.438,24.0636]]],[[[67.2486,24.7842],[67.2746,24.7903],[67.3296,24.7712],[67.3755,24.7834],[67.4491,24.7822],[67.4709,24.7585],[67.4528,24.7761],[67.3493,24.7629],[67.3515,24.7423],[67.3932,24.7046],[67.4325,24.6982],[67.4203,24.6727],[67.4416,24.6479],[67.4532,24.6537],[67.4405,24.6404],[67.4143,24.6494],[67.4069,24.6358],[67.3838,24.6377],[67.371,24.6081],[67.3231,24.5906],[67.3203,24.5757],[67.299,24.5815],[67.3152,24.5589],[67.304,24.5532],[67.3234,24.5491],[67.4071,24.5894],[67.4171,24.5902],[67.4396,24.5746],[67.4136,24.5857],[67.3807,24.571],[67.3552,24.546],[67.3684,24.536],[67.3987,24.5468],[67.3975,24.5246],[67.3702,24.5304],[67.3523,24.4797],[67.3282,24.4852],[67.3258,24.4653],[67.3099,24.4622],[67.3743,24.4721],[67.4022,24.493],[67.3919,24.5161],[67.412,24.5215],[67.4039,24.5064],[67.4213,24.4707],[67.436,24.4797],[67.455,24.4655],[67.4218,24.4644],[67.4009,24.4844],[67.3604,24.4608],[67.3834,24.4544],[67.3753,24.4341],[67.3902,24.4501],[67.4727,24.4269],[67.4169,24.4368],[67.3491,24.4005],[67.3605,24.3877],[67.4158,24.4014],[67.4278,24.3918],[67.4229,24.3603],[67.4177,24.3865],[67.369,24.3857],[67.3665,24.351],[67.4343,24.3227],[67.4566,24.3422],[67.4873,24.3263],[67.5124,24.3526],[67.5291,24.3345],[67.5146,24.3424],[67.4906,24.3218],[67.449,24.3322],[67.4421,24.3161],[67.4109,24.3113],[67.3466,24.3428],[67.3386,24.3323],[67.3596,24.2907],[67.3299,24.3339],[67.2972,24.3074],[67.3259,24.2449],[67.3585,24.2837],[67.3934,24.2874],[67.3613,24.2757],[67.3501,24.2542],[67.4143,24.234],[67.4212,24.2167],[67.4317,24.2472],[67.4208,24.2098],[67.4016,24.2334],[67.3371,24.2265],[67.3545,24.1828],[67.3347,24.1763],[67.3453,24.1558],[67.3828,24.1326],[67.4245,24.1302],[67.3626,24.1324],[67.371,24.0874],[67.3946,24.0624],[67.3485,24.0779],[67.3025,24.1761],[67.2739,24.4258],[67.1511,24.6131],[67.1485,24.6501],[67.2015,24.7151],[67.2546,24.7384],[67.2354,24.7729],[67.1853,24.7845],[67.2199,24.8141],[67.2486,24.7842]]],[[[66.9748,24.8253],[66.975,24.8256],[66.975,24.8256],[66.9748,24.8253]]],[[[66.6529,24.8283],[66.6516,24.8292],[66.6516,24.8292],[66.6529,24.8283]]],[[[66.6582,24.8401],[66.6582,24.8401],[66.659,24.8459],[66.6582,24.8401]]],[[[66.9687,24.8448],[66.9687,24.8448],[66.9774,24.8498],[66.9687,24.8448]]],[[[66.9696,24.8286],[66.9696,24.8286],[66.9726,24.8301],[66.9696,24.8286]]],[[[66.9749,24.8258],[66.9736,24.8306],[66.9736,24.8306],[66.9749,24.8258]]],[[[66.9628,24.8261],[66.9628,24.8261],[66.9654,24.8414],[66.9628,24.8261]]],[[[66.9235,24.8369],[66.9342,24.8378],[66.9391,24.8363],[66.9524,24.8289],[66.9235,24.8369]]],[[[66.6899,24.8774],[66.6899,24.8774],[66.6911,24.8786],[66.6899,24.8774]]],[[[66.6947,24.8822],[66.7118,24.8801],[66.7031,24.8791],[66.6947,24.8822]]],[[[66.722,24.8918],[66.7144,24.8831],[66.7181,24.8933],[66.722,24.8918]]],[[[66.7155,24.8926],[66.7125,24.8949],[66.7126,24.8948],[66.7155,24.8926]]],[[[66.7086,24.8952],[66.7086,24.8952],[66.7025,24.8925],[66.7086,24.8952]]],[[[66.6767,24.9174],[66.6767,24.9175],[66.6755,24.9234],[66.6767,24.9174]]],[[[66.7122,25.0315],[66.6912,25.0],[66.708,25.071],[66.7122,25.0315]]],[[[66.6791,24.9346],[66.6786,24.934],[66.6971,24.9462],[66.6791,24.9346]]],[[[66.7004,24.9496],[66.6996,24.9614],[66.6971,24.9462],[66.7004,24.9496]]],[[[66.7172,25.1],[66.7187,25.1046],[66.7184,25.1009],[66.7172,25.1]]],[[[66.7233,25.1193],[66.7393,25.1667],[66.7225,25.2181],[66.7441,25.1675],[66.7233,25.1193]]],[[[66.7169,25.2263],[66.5864,25.3272],[66.5806,25.3408],[66.6472,25.2992],[66.7169,25.2263]]],[[[65.7078,25.3666],[65.6995,25.3628],[65.7141,25.3696],[65.7078,25.3666]]],[[[65.741,25.3795],[65.741,25.3795],[65.7473,25.3799],[65.741,25.3795]]],[[[65.7923,25.396],[65.7849,25.394],[65.7923,25.396],[65.816,25.4136],[65.8387,25.4194],[65.816,25.4136],[65.7923,25.396]]],[[[65.9424,25.4147],[65.9425,25.4147],[65.9417,25.4146],[65.9424,25.4147]]],[[[65.8776,25.4173],[65.8591,25.4201],[65.8537,25.4199],[65.8591,25.4201],[65.8776,25.4173]]],[[[65.773,25.3835],[65.773,25.3835],[65.7762,25.385],[65.773,25.3835]]],[[[66.3482,25.5467],[66.4606,25.496],[66.4265,25.4826],[66.3943,25.5066],[66.3972,25.5216],[66.358,25.5248],[66.3482,25.5467]]],[[[66.2236,25.5917],[66.1658,25.5681],[66.1441,25.5073],[66.2001,25.5119],[66.2663,25.5425],[66.3319,25.5541],[66.3341,25.5531],[66.3088,25.5465],[66.3141,25.5377],[66.2848,25.5421],[66.1956,25.4889],[66.0919,25.4796],[66.1328,25.5079],[66.1337,25.5443],[66.1901,25.5993],[66.2236,25.5917]]],[[[66.2322,25.5904],[66.2261,25.5906],[66.234,25.5921],[66.2322,25.5904]]],[[[66.3831,25.5948],[66.4045,25.5873],[66.3815,25.5987],[66.3831,25.5948]]],[[[66.3767,25.5991],[66.3767,25.5991],[66.3802,25.6018],[66.3767,25.5991]]],[[[66.3105,25.6101],[66.3676,25.6159],[66.37,25.6131],[66.3668,25.6086],[66.37,25.6031],[66.3594,25.6136],[66.2341,25.5945],[66.2969,25.6239],[66.3105,25.6101]]],[[[66.5661,25.3711],[66.5661,25.3711],[66.5646,25.3731],[66.5661,25.3711]]],[[[66.5625,25.3768],[66.5605,25.3888],[66.5585,25.3901],[66.5605,25.3888],[66.5625,25.3768]]],[[[66.3219,25.4669],[66.5001,25.4038],[66.3613,25.4077],[66.2779,25.442],[65.9757,25.4169],[66.0177,25.4226],[66.0092,25.4368],[66.0238,25.4437],[66.0391,25.4266],[66.2341,25.4657],[66.3219,25.4669]]],[[[66.5627,25.3507],[66.5539,25.3583],[66.5501,25.3652],[66.5502,25.3719],[66.5528,25.3821],[66.5627,25.3507]]],[[[66.5393,25.6442],[66.5429,25.6144],[66.5159,25.5634],[66.5289,25.5422],[66.5576,25.5381],[66.56,25.4529],[66.5942,25.425],[66.5783,25.4114],[66.5736,25.3687],[66.5398,25.5093],[66.438,25.5933],[66.4364,25.5929],[66.4161,25.5909],[66.4454,25.5972],[66.4552,25.6194],[66.4672,25.5699],[66.4799,25.5877],[66.4995,25.5743],[66.5393,25.6442]]],[[[66.9789,24.8506],[66.9831,24.8547],[66.9789,24.8506],[66.9789,24.8506]]],[[[66.862,24.8569],[66.862,24.8569],[66.8459,24.8539],[66.862,24.8569]]],[[[66.9691,24.8509],[66.9668,24.8514],[66.9696,24.8519],[66.9691,24.8509]]],[[[66.912,24.8495],[66.9119,24.8495],[66.9125,24.852],[66.912,24.8495]]],[[[66.9784,24.8586],[66.9784,24.8585],[66.9753,24.8557],[66.9784,24.8586]]],[[[66.9377,24.8569],[66.9377,24.8569],[66.9437,24.8584],[66.9377,24.8569]]],[[[66.6605,24.8517],[66.6605,24.8517],[66.6843,24.8757],[66.6605,24.8517]]],[[[89.8689,23.7137],[89.8656,23.7067],[89.8625,23.712],[89.8689,23.7137]]],[[[89.8568,23.7306],[89.8515,23.7281],[89.8513,23.7308],[89.8568,23.7306]]],[[[89.8001,23.7322],[89.786,23.7414],[89.7868,23.7639],[89.7904,23.7596],[89.8001,23.7322]]],[[[89.8686,23.7271],[89.8652,23.7226],[89.8641,23.7265],[89.8686,23.7271]]],[[[89.932,23.6851],[89.902,23.7014],[89.8987,23.7073],[89.9318,23.6995],[89.932,23.6851]]],[[[90.2259,23.725],[90.2118,23.7551],[90.2416,23.792],[90.2522,23.7467],[90.2259,23.725]]],[[[89.7791,23.7421],[89.7587,23.7631],[89.7438,23.8037],[89.7758,23.7887],[89.7791,23.7421]]],[[[89.741,23.7775],[89.6852,23.7895],[89.6826,23.8011],[89.718,23.8016],[89.741,23.7775]]],[[[89.6648,23.8039],[89.6752,23.7892],[89.6375,23.7862],[89.6373,23.7995],[89.6648,23.8039]]],[[[68.1493,23.6984],[68.1251,23.6985],[68.1034,23.727],[68.0915,23.7185],[68.1074,23.6977],[68.0524,23.723],[68.0705,23.7478],[68.074,23.7953],[68.1177,23.8314],[68.1494,23.8177],[68.1493,23.6984]]],[[[89.5236,23.8188],[89.5155,23.7856],[89.4879,23.8167],[89.4901,23.8208],[89.5236,23.8188]]],[[[89.6167,23.8034],[89.5991,23.8055],[89.5465,23.7973],[89.595,23.8151],[89.6167,23.8034]]],[[[90.1436,23.827],[90.176,23.8211],[90.2026,23.8355],[90.2338,23.8213],[90.2236,23.8068],[90.2054,23.8221],[90.1823,23.8071],[90.1342,23.812],[90.0872,23.8364],[90.1157,23.8541],[90.1171,23.8704],[90.1436,23.827]]],[[[68.1423,23.8401],[68.1433,23.8416],[68.1433,23.8415],[68.1423,23.8401]]],[[[89.7311,23.8789],[89.6953,23.9025],[89.6912,23.932],[89.7101,23.9194],[89.7311,23.8789]]],[[[89.4109,23.9196],[89.3791,23.9063],[89.3758,23.9121],[89.398,23.9267],[89.4109,23.9196]]],[[[68.2377,23.9002],[68.2473,23.9068],[68.2632,23.9281],[68.2473,23.9068],[68.2377,23.9002]]],[[[89.2496,23.9423],[89.2298,23.9463],[89.2358,23.9322],[89.2241,23.9316],[89.1825,23.9548],[89.2245,23.9607],[89.2496,23.9423]]],[[[68.2745,23.9372],[68.2745,23.9372],[68.2637,23.9287],[68.2745,23.9372]]],[[[89.3479,23.8867],[89.3177,23.8867],[89.3147,23.893],[89.3479,23.8867]]],[[[89.3709,23.9404],[89.3556,23.8929],[89.3149,23.8989],[89.2906,23.9388],[89.3709,23.9404]]],[[[68.2134,23.8889],[68.2134,23.8889],[68.2321,23.8976],[68.2134,23.8889]]],[[[68.1669,23.7548],[68.1794,23.8431],[68.1836,23.8426],[68.1913,23.7876],[68.1669,23.7548]]],[[[68.1421,23.8397],[68.1241,23.8423],[68.1205,23.8442],[68.1241,23.8423],[68.1421,23.8397]]],[[[68.1781,23.8542],[68.1781,23.8542],[68.1752,23.8524],[68.1781,23.8542]]],[[[68.154,23.8601],[68.1489,23.8647],[68.154,23.8602],[68.154,23.8601]]],[[[68.1361,23.8695],[68.1361,23.8696],[68.1398,23.8696],[68.1361,23.8695]]],[[[68.1856,23.8863],[68.1856,23.8863],[68.1929,23.8715],[68.1916,23.8616],[68.1856,23.8863]]],[[[89.1722,23.9906],[89.1418,23.9903],[89.1391,23.9934],[89.1568,23.9991],[89.1722,23.9906]]],[[[79.7019,8.1031],[79.7015,8.1049],[79.7015,8.1049],[79.7019,8.1031]]],[[[79.7049,8.116],[79.7049,8.1159],[79.7054,8.1283],[79.7049,8.116]]],[[[79.7076,8.1131],[79.7082,8.1291],[79.7095,8.1343],[79.7078,8.1406],[79.7076,8.1131]]],[[[79.7028,8.1312],[79.7028,8.1312],[79.7031,8.1387],[79.7028,8.1312]]],[[[79.7041,8.1989],[79.6987,8.1852],[79.7041,8.1989],[79.7028,8.2066],[79.7041,8.1989]]],[[[79.7087,8.2149],[79.7065,8.2156],[79.7065,8.2156],[79.7087,8.2149]]],[[[79.7027,8.1795],[79.7079,8.1706],[79.7064,8.1763],[79.7027,8.1795]]],[[[73.028,8.2467],[73.0208,8.2686],[73.0789,8.3103],[73.0658,8.2631],[73.028,8.2467]]],[[[79.731,8.2427],[79.7114,8.2143],[79.7331,8.2509],[79.731,8.2427]]],[[[79.8268,8.122],[79.8181,8.1051],[79.822,8.1188],[79.8268,8.122]]],[[[79.8303,8.1246],[79.8338,8.1396],[79.8296,8.1447],[79.8338,8.1396],[79.8303,8.1246]]],[[[79.8305,8.1492],[79.8303,8.1497],[79.8305,8.1493],[79.8305,8.1492]]],[[[79.8135,8.1792],[79.8135,8.1793],[79.8138,8.181],[79.8135,8.1792]]],[[[79.8217,8.1857],[79.8217,8.1857],[79.8133,8.2061],[79.8217,8.1857]]],[[[81.4192,8.2163],[81.4122,8.2366],[81.4115,8.2375],[81.4123,8.2366],[81.4192,8.2163]]],[[[79.8174,8.173],[79.8174,8.173],[79.8135,8.1776],[79.8174,8.173]]],[[[79.8499,8.2767],[79.8476,8.2742],[79.8499,8.2767],[79.8499,8.2767]]],[[[79.8471,8.2816],[79.8471,8.2815],[79.8475,8.2827],[79.8471,8.2816]]],[[[79.822,8.2753],[79.8342,8.2919],[79.8335,8.2873],[79.822,8.2753]]],[[[79.8487,8.2859],[79.8486,8.2859],[79.8486,8.2859],[79.8487,8.2859]]],[[[79.8451,8.2757],[79.8451,8.2757],[79.842,8.2859],[79.8451,8.2757]]],[[[79.8574,8.2854],[79.8469,8.288],[79.8435,8.2915],[79.8469,8.288],[79.8574,8.2854]]],[[[79.8357,8.321],[79.8354,8.3214],[79.8354,8.3214],[79.8357,8.321]]],[[[81.3891,8.3331],[81.3893,8.3549],[81.3893,8.3549],[81.3891,8.3331]]],[[[79.8459,8.3491],[79.8372,8.337],[79.8389,8.3424],[79.8459,8.3491],[79.8442,8.4102],[79.8459,8.3491]]],[[[79.8526,8.4403],[79.8528,8.4405],[79.8528,8.4405],[79.8526,8.4403]]],[[[81.3937,8.3567],[81.3863,8.3645],[81.3837,8.3702],[81.3734,8.4111],[81.3937,8.3567]]],[[[79.836,8.3205],[79.8362,8.3011],[79.8351,8.317],[79.836,8.3205]]],[[[81.2734,8.4486],[81.2734,8.4486],[81.2774,8.4497],[81.2734,8.4486]]],[[[81.2481,8.4498],[81.2467,8.4512],[81.2509,8.4518],[81.2481,8.4498]]],[[[81.273,8.451],[81.2726,8.4534],[81.2726,8.4534],[81.273,8.451]]],[[[81.2849,8.4609],[81.2958,8.4465],[81.2992,8.4564],[81.2958,8.4465],[81.2845,8.4465],[81.2829,8.4505],[81.2837,8.4519],[81.2809,8.4568],[81.2849,8.4609]]],[[[81.2339,8.4578],[81.2427,8.4553],[81.2282,8.4565],[81.2339,8.4578]]],[[[81.2201,8.458],[81.2201,8.458],[81.2174,8.4592],[81.2201,8.458]]],[[[81.2,8.4592],[81.2,8.4592],[81.2013,8.4608],[81.2,8.4592]]],[[[81.2027,8.4687],[81.2028,8.4688],[81.2028,8.4688],[81.2027,8.4687]]],[[[81.3027,8.4582],[81.304,8.4583],[81.304,8.4583],[81.3027,8.4582]]],[[[81.297,8.4411],[81.297,8.4411],[81.2927,8.4411],[81.297,8.4411]]],[[[81.3044,8.4351],[81.3044,8.4351],[81.3002,8.4452],[81.3044,8.4351]]],[[[79.8566,8.4415],[79.8581,8.4434],[79.8566,8.4415],[79.8566,8.4415]]],[[[81.2855,8.4431],[81.2855,8.4431],[81.2835,8.4448],[81.2855,8.4431]]],[[[81.3585,8.471],[81.3679,8.4277],[81.3585,8.471],[81.3559,8.4754],[81.3585,8.471]]],[[[79.8147,8.2548],[79.8178,8.2662],[79.8197,8.2707],[79.8178,8.2662],[79.8147,8.2548]]],[[[81.4046,8.2578],[81.4046,8.2578],[81.4008,8.2859],[81.4046,8.2578]]],[[[80.2539,9.8185],[80.2538,9.8186],[80.2539,9.8185],[80.2539,9.8185]]],[[[80.2493,9.8236],[80.2493,9.8236],[80.2439,9.8236],[80.2493,9.8236]]],[[[73.6347,10.0508],[73.6303,10.0711],[73.6455,10.0975],[73.6453,10.0686],[73.6347,10.0508]]],[[[72.65,10.5669],[72.6247,10.5528],[72.6505,10.5775],[72.65,10.5669]]],[[[73.6841,10.8231],[73.6622,10.8278],[73.688,10.8286],[73.6841,10.8231]]],[[[72.1744,10.8092],[72.1758,10.8389],[72.1975,10.8728],[72.1955,10.8481],[72.1744,10.8092]]],[[[80.0363,9.8105],[80.0363,9.8105],[80.0418,9.813],[80.0363,9.8105]]],[[[72.2991,10.9381],[72.2894,10.9428],[72.3014,10.9542],[72.2991,10.9381]]],[[[72.7494,11.1089],[72.7386,11.1142],[72.7503,11.1192],[72.7494,11.1089]]],[[[72.11,11.205],[72.1033,11.2114],[72.1114,11.2142],[72.11,11.205]]],[[[72.7769,11.1856],[72.7708,11.2011],[72.7892,11.2569],[72.7936,11.2519],[72.7769,11.1856]]],[[[72.7164,11.6942],[72.7022,11.6897],[72.7153,11.7],[72.7164,11.6942]]],[[[73.0033,11.4758],[73.0031,11.5042],[73.0044,11.5075],[73.0128,11.485],[73.0033,11.4758]]],[[[81.353,8.4909],[81.3456,8.4996],[81.3251,8.5062],[81.3212,8.5113],[81.3456,8.4996],[81.353,8.4909]]],[[[81.3128,8.5094],[81.3115,8.5093],[81.3128,8.5094],[81.3128,8.5094]]],[[[81.3253,8.5129],[81.3225,8.513],[81.3225,8.513],[81.3253,8.5129]]],[[[81.325,8.5186],[81.3292,8.5129],[81.325,8.5186],[81.325,8.5186]]],[[[79.9166,8.5483],[79.9165,8.5483],[79.9168,8.5552],[79.9166,8.5483]]],[[[79.8932,8.5368],[79.8851,8.5337],[79.8948,8.5374],[79.8932,8.5368]]],[[[81.2398,8.5394],[81.2398,8.5394],[81.2451,8.5417],[81.2398,8.5394]]],[[[79.9029,8.5451],[79.9098,8.5456],[79.8948,8.5374],[79.9029,8.5451]]],[[[81.1989,8.5731],[81.2027,8.5685],[81.2027,8.5676],[81.1989,8.5731]]],[[[81.2318,8.5571],[81.2317,8.5571],[81.2292,8.5628],[81.2318,8.5571]]],[[[81.2448,8.559],[81.2448,8.559],[81.2435,8.5623],[81.2448,8.559]]],[[[79.9196,8.5597],[79.9196,8.5597],[79.9183,8.5576],[79.9196,8.5597]]],[[[81.1953,8.5636],[81.1921,8.5588],[81.1953,8.5636],[81.1953,8.5636]]],[[[79.9263,8.5591],[79.9201,8.5691],[79.9205,8.5716],[79.9201,8.5691],[79.9263,8.5591]]],[[[81.2208,8.6062],[81.2208,8.6062],[81.2196,8.6135],[81.2208,8.6062]]],[[[79.932,8.6059],[79.9414,8.6155],[79.9425,8.6219],[79.9414,8.6155],[79.932,8.6059]]],[[[81.2253,8.6358],[81.2253,8.636],[81.2253,8.636],[81.2253,8.6358]]],[[[81.2214,8.616],[81.2214,8.616],[81.2222,8.6168],[81.2214,8.616]]],[[[81.2248,8.6191],[81.2247,8.6191],[81.2275,8.6244],[81.2248,8.6191]]],[[[81.2267,8.6475],[81.2075,8.6664],[81.2013,8.6761],[81.2011,8.6778],[81.2267,8.6475]]],[[[79.9443,8.6582],[79.9519,8.6823],[79.9492,8.693],[79.9484,8.7056],[79.9443,8.6582]]],[[[79.9497,8.7361],[79.9494,8.7105],[79.9558,8.7174],[79.9561,8.7209],[79.9497,8.7361]]],[[[81.1725,8.7245],[81.1725,8.7245],[81.1716,8.7287],[81.1725,8.7245]]],[[[81.1376,8.7693],[81.1463,8.7665],[81.147,8.7658],[81.1421,8.7655],[81.1376,8.7693]]],[[[81.1054,8.8149],[81.1218,8.787],[81.1048,8.8126],[81.1054,8.8149]]],[[[79.9401,8.8068],[79.94,8.8068],[79.9388,8.8093],[79.9401,8.8068]]],[[[79.9359,8.8085],[79.9359,8.8085],[79.9361,8.8085],[79.9359,8.8085]]],[[[81.2431,8.5743],[81.2431,8.5743],[81.2447,8.5756],[81.2431,8.5743]]],[[[81.2027,8.5668],[81.2123,8.5763],[81.2156,8.5774],[81.2123,8.5762],[81.2027,8.5668]]],[[[81.2176,8.5753],[81.2134,8.5704],[81.2175,8.5753],[81.2176,8.5753]]],[[[81.2362,8.575],[81.2362,8.575],[81.2326,8.5784],[81.2362,8.575]]],[[[81.2451,8.5793],[81.2451,8.5793],[81.2407,8.5757],[81.2451,8.5793]]],[[[81.0948,8.8292],[81.0948,8.8292],[81.0931,8.8352],[81.0948,8.8292]]],[[[81.075,8.8527],[81.075,8.8527],[81.0738,8.8552],[81.075,8.8527]]],[[[79.9287,8.8831],[79.9287,8.8831],[79.9284,8.886],[79.9287,8.8831]]],[[[79.9287,8.8505],[79.9287,8.8505],[79.9299,8.8556],[79.9287,8.8505]]],[[[81.0738,8.8586],[81.0738,8.8586],[81.0741,8.8587],[81.0738,8.8586]]],[[[81.0319,8.8883],[81.0589,8.8595],[81.0444,8.8731],[81.0319,8.8883]]],[[[79.9234,8.8989],[79.9231,8.9014],[79.9237,8.9005],[79.9234,8.8989]]],[[[81.0145,8.9049],[81.0138,8.9056],[81.0138,8.9056],[81.0145,8.9049]]],[[[81.0188,8.9149],[81.0188,8.9149],[81.0122,8.9258],[81.0188,8.9149]]],[[[81.0016,8.9302],[81.0016,8.9302],[81.002,8.932],[81.0016,8.9302]]],[[[79.9226,8.9385],[79.9226,8.9385],[79.9367,8.9423],[79.9226,8.9385]]],[[[79.9503,8.9464],[79.9433,8.9434],[79.954,8.953],[79.9503,8.9464]]],[[[80.9954,8.9179],[80.993,8.918],[80.993,8.918],[80.9954,8.9179]]],[[[79.926,8.9038],[79.935,8.8941],[79.9271,8.9008],[79.926,8.9038]]],[[[81.0208,8.895],[81.0208,8.895],[81.021,8.9048],[81.0208,8.895]]],[[[79.9824,8.9675],[79.9824,8.9675],[79.9835,8.9684],[79.9824,8.9675]]],[[[80.0661,9.0562],[80.0661,9.0562],[80.0707,9.0727],[80.0661,9.0562]]],[[[80.9225,9.061],[80.9176,9.0714],[80.9168,9.0723],[80.9176,9.0714],[80.9225,9.061]]],[[[80.075,9.0844],[80.075,9.0844],[80.0751,9.0865],[80.075,9.0844]]],[[[80.0771,9.0899],[80.0768,9.0936],[80.0768,9.0936],[80.0771,9.0899]]],[[[80.0812,9.0959],[80.0857,9.0999],[80.0857,9.0999],[80.0812,9.0959]]],[[[80.0817,9.101],[80.0817,9.101],[80.0806,9.1005],[80.0817,9.101]]],[[[80.8888,9.1168],[80.8888,9.1168],[80.8865,9.1179],[80.8857,9.1192],[80.8888,9.1168]]],[[[80.8853,9.1252],[80.8854,9.1254],[80.8854,9.1254],[80.8853,9.1252]]],[[[80.0918,9.1372],[80.095,9.1373],[80.095,9.1372],[80.0918,9.1372]]],[[[80.0981,9.1497],[80.0981,9.1498],[80.1006,9.1568],[80.0981,9.1497]]],[[[80.1034,9.1686],[80.1036,9.1701],[80.1036,9.1701],[80.1034,9.1686]]],[[[80.8548,9.1927],[80.844,9.2282],[80.844,9.2281],[80.8548,9.1927]]],[[[80.1123,9.1984],[80.1173,9.2073],[80.1176,9.2262],[80.1173,9.2072],[80.1123,9.1984]]],[[[80.1231,9.2528],[80.1231,9.2528],[80.1229,9.2538],[80.1231,9.2528]]],[[[80.1278,9.2906],[80.1278,9.2906],[80.123,9.3004],[80.1278,9.2906]]],[[[80.1158,9.3083],[80.0977,9.3198],[80.0977,9.3198],[80.1158,9.3083]]],[[[80.7238,9.3658],[80.713,9.375],[80.6916,9.3954],[80.6804,9.4075],[80.6793,9.4097],[80.7238,9.3658]]],[[[80.6744,9.4136],[80.6744,9.4136],[80.6686,9.4219],[80.6744,9.4136]]],[[[80.0945,9.4089],[80.1065,9.4134],[80.1126,9.4175],[80.1065,9.4134],[80.0945,9.4089]]],[[[80.6096,9.4681],[80.6096,9.4681],[80.6057,9.471],[80.6096,9.4681]]],[[[80.1767,9.5038],[80.1755,9.5054],[80.1767,9.5038],[80.1767,9.5038]]],[[[80.1056,9.5657],[80.096,9.5742],[80.0791,9.5845],[80.0695,9.5881],[80.0616,9.5925],[80.1056,9.5657]]],[[[80.0876,9.6249],[80.0876,9.6249],[80.0689,9.6374],[80.0876,9.6249]]],[[[80.3777,9.6501],[80.3657,9.6603],[80.3475,9.6805],[80.3657,9.6603],[80.3777,9.6501]]],[[[80.002,9.6758],[80.0092,9.6585],[80.0041,9.6672],[80.002,9.6758]]],[[[80.0,9.6822],[80.0,9.6822],[79.9994,9.683],[80.0,9.6822]]],[[[79.9898,9.6868],[79.9897,9.6868],[79.9876,9.685],[79.9898,9.6868]]],[[[79.9557,9.688],[79.9516,9.687],[79.9516,9.687],[79.9557,9.688]]],[[[79.9717,9.692],[79.9717,9.692],[79.9701,9.6953],[79.9717,9.692]]],[[[79.9717,9.7063],[79.971,9.7077],[79.971,9.7077],[79.9717,9.7063]]],[[[80.3018,9.7397],[80.2887,9.7538],[80.2838,9.761],[80.2887,9.7538],[80.3018,9.7397]]],[[[79.9287,9.7734],[79.9421,9.7792],[79.9436,9.7817],[79.9421,9.7792],[79.9287,9.7734]]],[[[79.9528,9.7921],[79.9528,9.7921],[79.9772,9.8033],[79.9528,9.7921]]],[[[80.0,9.8063],[80.0,9.8063],[80.0053,9.8065],[80.0,9.8063]]],[[[80.0111,9.8086],[80.0111,9.8086],[80.0133,9.8094],[80.0111,9.8086]]],[[[80.0504,9.8125],[80.0504,9.8124],[80.0425,9.8129],[80.0504,9.8125]]],[[[79.9422,9.6972],[79.9422,9.6972],[79.9417,9.6991],[79.9422,9.6972]]],[[[79.9692,9.6973],[79.9692,9.6973],[79.97,9.6993],[79.9692,9.6973]]],[[[79.9656,9.6982],[79.9656,9.6982],[79.9683,9.7078],[79.9656,9.6982]]],[[[93.4523,20.2004],[92.8637,20.6751],[92.256,21.4156],[91.7818,22.2343],[91.7547,22.3725],[91.7001,22.4841],[91.5811,22.6536],[91.4576,22.7511],[91.4845,22.7616],[91.469,22.7769],[91.4778,22.7633],[91.4547,22.7602],[91.4368,22.7779],[91.2511,22.6592],[91.2611,22.6294],[91.2289,22.5856],[91.1119,22.5775],[91.0419,22.5911],[90.9653,22.5707],[90.8474,22.6733],[90.8018,22.7834],[90.9346,22.8074],[90.9778,22.7739],[90.9711,22.7579],[90.9863,22.7638],[90.9966,22.7477],[90.995,22.8244],[90.9375,22.8561],[90.8246,22.8647],[90.8016,22.9088],[90.7578,22.9387],[90.7958,22.898],[90.7954,22.8634],[90.7332,22.8875],[90.6896,22.9783],[90.6294,22.9981],[90.5663,23.1036],[90.598,23.1778],[90.6524,23.2423],[90.6389,23.3167],[90.6776,23.3182],[90.6754,23.3407],[90.6978,23.3457],[90.6796,23.3628],[90.695,23.3777],[90.6733,23.3642],[90.6616,23.3375],[90.6738,23.3213],[90.5987,23.3393],[90.5796,23.3947],[90.6007,23.4314],[90.5856,23.4669],[90.6303,23.4903],[90.7039,23.4901],[90.7177,23.5428],[90.7443,23.5443],[90.7253,23.5534],[90.7084,23.5387],[90.7057,23.5617],[90.732,23.5912],[90.7392,23.6216],[90.7646,23.629],[90.7414,23.6621],[90.7578,23.721],[90.7425,23.6937],[90.7403,23.7242],[90.7315,23.7102],[90.7157,23.7414],[90.6818,23.6867],[90.6429,23.6899],[90.6324,23.6392],[90.5628,23.5929],[90.5531,23.5715],[90.5147,23.5814],[90.505,23.6033],[90.484,23.5866],[90.4538,23.6148],[90.4702,23.6298],[90.4427,23.6684],[90.368,23.7186],[90.3837,23.7022],[90.3658,23.7034],[90.3421,23.7401],[90.3176,23.735],[90.3128,23.7642],[90.2548,23.7303],[90.2571,23.7758],[90.2298,23.8877],[90.2396,23.827],[90.194,23.8405],[90.1518,23.8291],[90.1319,23.8674],[90.1117,23.8736],[90.1104,23.8573],[90.0572,23.8201],[90.047,23.8255],[90.0625,23.8769],[90.0468,23.8894],[90.0262,23.8817],[90.0227,23.9072],[90.0,23.9228],[90.0144,23.8769],[90.0547,23.8732],[90.041,23.8278],[90.0466,23.8174],[90.069,23.8163],[90.0887,23.83],[90.1247,23.8071],[90.1837,23.8023],[90.2068,23.8157],[90.2226,23.8004],[90.2415,23.8149],[90.2059,23.7537],[90.221,23.7216],[90.2524,23.721],[90.2746,23.6862],[90.2557,23.7074],[90.2383,23.7112],[90.2208,23.7081],[90.1813,23.7401],[90.1924,23.7203],[90.1626,23.7198],[90.1492,23.7107],[90.1218,23.7371],[90.0698,23.7579],[90.0232,23.7635],[90.0245,23.7952],[90.0,23.8165],[90.0195,23.7627],[90.1205,23.7334],[90.1497,23.7043],[90.1739,23.7165],[90.2205,23.7031],[90.2477,23.7076],[90.276,23.6548],[90.3797,23.6165],[90.4018,23.5883],[90.3789,23.5678],[90.4098,23.5803],[90.4377,23.5451],[90.4635,23.5452],[90.5054,23.5721],[90.5302,23.5669],[90.5701,23.4832],[90.538,23.4837],[90.5339,23.4659],[90.5539,23.4263],[90.5281,23.3907],[90.4858,23.4204],[90.4204,23.4161],[90.2542,23.4608],[90.1641,23.5242],[90.1103,23.6129],[89.97,23.6581],[89.9179,23.7215],[89.8638,23.7451],[89.7915,23.8077],[89.7742,23.8995],[89.7688,23.8876],[89.7046,23.9579],[89.7275,23.9776],[89.7208,24.0],[89.7153,23.9718],[89.6983,23.9645],[89.7051,23.9991],[89.6707,24.0],[89.6614,23.9423],[89.7033,23.875],[89.7513,23.8659],[89.7708,23.8359],[89.7571,23.8473],[89.7242,23.8344],[89.6802,23.8626],[89.7179,23.8319],[89.6297,23.8456],[89.5467,23.8241],[89.4497,23.8706],[89.4256,23.9133],[89.3865,23.9431],[89.3288,23.9487],[89.2808,23.9875],[89.3161,23.9479],[89.2889,23.9467],[89.2414,23.9813],[89.1733,24.0],[89.0914,23.9991],[89.0608,23.9839],[89.0936,23.9665],[89.1225,23.9203],[89.1241,23.9542],[89.1671,23.9259],[89.2341,23.9194],[89.3047,23.8696],[89.4078,23.8978],[89.4594,23.8119],[89.5057,23.7767],[89.5362,23.7953],[89.5928,23.7975],[89.6397,23.7768],[89.7017,23.7769],[89.8567,23.6605],[89.9485,23.6357],[90.0247,23.5566],[90.018,23.5823],[90.083,23.573],[90.1256,23.5455],[90.1578,23.4889],[90.1593,23.4206],[90.2067,23.3338],[90.17,23.3466],[90.1639,23.3638],[90.1862,23.359],[90.1608,23.3676],[90.1665,23.3332],[90.1253,23.3055],[90.1205,23.3356],[90.1417,23.3597],[90.1445,23.3786],[90.1279,23.351],[90.0995,23.359],[90.1208,23.3473],[90.1189,23.3041],[90.093,23.3005],[90.0871,23.2728],[90.1245,23.2685],[90.1217,23.2487],[90.1287,23.2416],[90.2023,23.2256],[90.1987,23.2096],[90.1681,23.2041],[90.1774,23.1665],[90.219,23.183],[90.2485,23.1621],[90.2336,23.1421],[90.2452,23.1232],[90.3091,23.1128],[90.3167,23.0671],[90.2677,23.0431],[90.2726,23.0254],[90.3072,23.0209],[90.3206,22.9865],[90.2739,22.9687],[90.3537,22.9212],[90.3456,22.884],[90.3205,22.8726],[90.3213,22.8502],[90.3726,22.7652],[90.3682,22.7366],[90.4195,22.7331],[90.4167,22.7138],[90.3964,22.729],[90.3831,22.7054],[90.4003,22.7234],[90.4204,22.7086],[90.4298,22.7305],[90.4193,22.7453],[90.378,22.7401],[90.3825,22.7586],[90.4243,22.7652],[90.4692,22.7349],[90.485,22.6991],[90.4769,22.6561],[90.4961,22.6723],[90.5193,22.6294],[90.5042,22.5879],[90.5187,22.5991],[90.5797,22.5261],[90.6132,22.3275],[90.5912,22.2573],[90.5588,22.2382],[90.5212,22.184],[90.5066,22.1851],[90.4373,22.0668],[90.4221,22.1192],[90.4427,22.1513],[90.4265,22.1505],[90.4192,22.1262],[90.4192,22.0904],[90.3882,22.0901],[90.3847,22.1054],[90.4039,22.1682],[90.4261,22.1813],[90.3999,22.2179],[90.4165,22.2648],[90.4035,22.2837],[90.4191,22.2895],[90.3788,22.2931],[90.4149,22.3387],[90.3642,22.2952],[90.406,22.271],[90.395,22.204],[90.4179,22.1836],[90.3986,22.1722],[90.3831,22.1366],[90.3408,22.1621],[90.3872,22.1955],[90.3873,22.2114],[90.3562,22.1794],[90.3438,22.1958],[90.3498,22.1792],[90.3338,22.1633],[90.3784,22.1309],[90.3751,22.1053],[90.3331,22.1088],[90.2616,22.0404],[90.2751,22.0358],[90.278,21.9971],[90.2568,21.9557],[90.211,21.9825],[90.2135,22.0022],[90.1962,21.9784],[90.2287,21.9716],[90.2343,21.9583],[90.2176,21.9508],[90.2685,21.9462],[90.2409,21.8994],[90.2606,21.8847],[90.2549,21.8666],[90.2241,21.8543],[90.2042,21.8874],[90.2401,21.9344],[90.1969,21.8906],[90.2199,21.8528],[90.263,21.8583],[90.2478,21.8376],[90.2163,21.8373],[90.2602,21.8346],[90.1755,21.7891],[90.1072,21.8012],[90.0816,21.8355],[90.0992,21.8517],[90.1222,21.8485],[90.1016,21.8534],[90.1021,21.8743],[90.1372,21.8899],[90.1543,21.8854],[90.1589,21.8603],[90.1728,21.8697],[90.1519,21.8957],[90.1886,21.9228],[90.144,21.8906],[90.1158,21.8993],[90.1163,21.9159],[90.15,21.9227],[90.1372,21.9485],[90.1685,21.9805],[90.1406,21.9702],[90.128,21.9914],[90.1418,21.9247],[90.1114,21.9219],[90.0988,21.8944],[90.0991,21.9413],[90.0733,22.0045],[90.1633,22.1145],[90.2134,22.1142],[90.2283,22.1641],[90.2542,22.1638],[90.2717,22.1772],[90.2864,22.2071],[90.2723,22.2089],[90.2588,22.1722],[90.229,22.1724],[90.2401,22.1932],[90.2206,22.219],[90.2077,22.3093],[90.2269,22.3379],[90.2896,22.3505],[90.2973,22.3714],[90.2696,22.3586],[90.2657,22.3711],[90.2809,22.4069],[90.3178,22.4676],[90.3413,22.4589],[90.3626,22.4846],[90.3405,22.4664],[90.3148,22.4741],[90.2586,22.3754],[90.2548,22.3443],[90.2223,22.3421],[90.1991,22.3026],[90.2097,22.2143],[90.2298,22.1915],[90.2032,22.1238],[90.1608,22.124],[90.0879,22.0555],[90.0534,21.9715],[90.0298,21.9971],[90.0275,21.9782],[90.0039,21.9845],[89.993,22.0361],[90.0307,22.0628],[90.0362,22.1269],[90.0717,22.1533],[90.1399,22.1551],[90.0801,22.1586],[90.0257,22.189],[90.081,22.2209],[90.1116,22.2858],[90.1016,22.3424],[90.176,22.4215],[90.2018,22.4859],[90.206,22.5118],[90.1876,22.5225],[90.2028,22.5725],[90.1857,22.6255],[90.2519,22.6212],[90.2832,22.6302],[90.2953,22.6531],[90.2487,22.628],[90.181,22.6276],[90.1975,22.5675],[90.1819,22.5223],[90.1989,22.509],[90.1936,22.4802],[90.1725,22.4297],[90.095,22.3491],[90.1048,22.3039],[90.0739,22.2271],[90.0211,22.1868],[90.0282,22.1691],[90.0633,22.1618],[90.0225,22.1322],[90.0183,22.0663],[89.9809,22.0416],[89.9896,21.991],[89.9578,21.9789],[89.9092,22.0731],[89.9175,22.136],[89.8787,22.2524],[89.9197,22.3718],[89.9847,22.4388],[90.0,22.487],[90.025,22.4901],[90.033,22.5719],[90.065,22.6087],[90.0571,22.6225],[90.0268,22.599],[90.0327,22.6527],[90.0059,22.68],[90.028,22.6463],[90.0132,22.5988],[90.0307,22.5814],[90.0179,22.4945],[89.9546,22.5055],[89.9855,22.4868],[89.9872,22.466],[89.9102,22.3882],[89.8834,22.4052],[89.8834,22.4302],[89.8788,22.4209],[89.8806,22.3954],[89.8987,22.3721],[89.8448,22.2487],[89.8905,22.1211],[89.8528,22.0679],[89.8188,22.066],[89.8533,22.0483],[89.8854,21.9055],[89.8584,21.8784],[89.8456,21.8859],[89.8408,21.856],[89.7715,21.8311],[89.7896,21.879],[89.7542,21.8561],[89.7334,21.891],[89.7493,21.8346],[89.7143,21.8341],[89.7023,21.8494],[89.6756,21.8377],[89.6586,21.8922],[89.6795,21.9049],[89.6554,21.9134],[89.6339,21.8679],[89.7121,21.7853],[89.7124,21.7662],[89.6592,21.7511],[89.6548,21.765],[89.6067,21.7601],[89.6137,21.8111],[89.5627,21.8637],[89.5901,21.9386],[89.5607,21.9692],[89.5603,21.9911],[89.5152,21.9904],[89.5251,21.9563],[89.5123,21.8993],[89.4971,21.9081],[89.4607,21.8522],[89.4337,21.8477],[89.4627,21.8461],[89.4712,21.8204],[89.4581,21.8139],[89.4796,21.8006],[89.4783,21.7724],[89.4257,21.7147],[89.3906,21.7084],[89.3654,21.746],[89.3557,21.809],[89.3899,21.9021],[89.3671,21.9046],[89.3181,21.8611],[89.3072,21.8207],[89.2867,21.8053],[89.2927,21.7564],[89.2312,21.7683],[89.2193,21.7572],[89.197,21.8047],[89.1643,21.79],[89.1079,21.8105],[89.1121,21.8547],[89.0887,21.908],[89.0948,21.9381],[89.0835,21.9386],[89.0635,21.9278],[89.0648,21.899],[89.0904,21.8542],[89.0935,21.7971],[89.1521,21.755],[89.1374,21.7198],[89.1153,21.7204],[89.0518,21.7859],[89.0677,21.8585],[89.0397,21.9077],[89.0067,21.8997],[89.0372,21.8577],[89.0324,21.8201],[89.1014,21.6618],[89.0968,21.625],[89.0075,21.6],[88.9208,21.6339],[88.8564,21.6328],[88.7844,21.5569],[88.7336,21.5508],[88.7072,21.5664],[88.6822,21.6961],[88.714,21.9312],[88.731,21.9794],[88.7651,22.0067],[88.7526,22.0437],[88.7228,22.0575],[88.7432,22.0174],[88.7223,22.0051],[88.6883,21.9347],[88.6342,21.9414],[88.623,21.9681],[88.6587,22.017],[88.6437,22.1181],[88.631,22.1198],[88.6214,22.105],[88.6438,22.046],[88.6084,21.972],[88.6202,21.9377],[88.601,21.9557],[88.6096,21.9095],[88.5833,21.8856],[88.557,21.8124],[88.5691,21.7639],[88.6025,21.7811],[88.6236,21.7669],[88.6272,21.7142],[88.6028,21.6119],[88.5722,21.56],[88.5383,21.5258],[88.498,21.5206],[88.483,21.5569],[88.4944,21.585],[88.5181,21.5953],[88.5319,21.8317],[88.5043,21.8741],[88.5175,21.9064],[88.5139,21.9253],[88.5105,21.9369],[88.473,21.8941],[88.5001,21.8489],[88.4695,21.8237],[88.4733,21.6614],[88.4539,21.615],[88.4177,21.5818],[88.3086,21.6031],[88.3078,21.6942],[88.2972,21.7728],[88.2588,21.7973],[88.2892,21.7581],[88.3055,21.5933],[88.3253,21.5806],[88.2542,21.5486],[88.1994,21.6117],[88.1814,21.6636],[88.2053,21.7202],[88.2058,21.8014],[88.155,21.8747],[88.1422,21.9489],[88.1494,21.9797],[88.2158,22.0608],[88.2014,22.1494],[88.1458,22.1936],[88.0342,22.2183],[88.0321,22.2018],[88.1438,22.1871],[88.1902,22.133],[88.1961,22.1048],[88.1618,22.0645],[88.0822,22.018],[87.9719,21.8394],[87.8294,21.7192],[87.673,21.6439],[87.4588,21.6055],[87.3717,21.577],[87.366,21.5609],[87.2075,21.5494],[87.1228,21.5137],[86.9845,21.4043],[86.8755,21.2744],[86.8369,21.1997],[86.8343,21.1125],[86.9675,20.7953],[86.9619,20.7811],[86.8914,20.7594],[86.939,20.6982],[87.0256,20.6748],[86.7558,20.4914],[86.7278,20.4541],[86.7176,20.3928],[86.7392,20.3722],[86.8044,20.4361],[86.8005,20.3817],[86.7103,20.2826],[86.6517,20.2439],[86.4878,20.1771],[86.4203,19.9828],[86.3744,19.9811],[86.2896,20.0601],[86.1964,20.075],[86.2453,20.0233],[86.3608,19.9603],[86.158,19.8714],[85.6342,19.7278],[85.4514,19.6603],[85.4223,19.696],[85.5492,19.7324],[85.575,19.8355],[85.5342,19.8807],[85.4588,19.9033],[85.4349,19.887],[85.3532,19.8292],[85.3268,19.7928],[85.2388,19.7406],[85.1438,19.603],[85.1252,19.5073],[85.1606,19.505],[85.1919,19.5724],[85.2323,19.6008],[85.2539,19.6546],[85.3088,19.6419],[85.3861,19.6845],[85.4103,19.6544],[85.3847,19.6139],[85.3403,19.5914],[85.2928,19.5974],[85.3298,19.5712],[85.1818,19.4792],[84.8805,19.2283],[84.7861,19.1144],[84.7266,19.124],[84.718,19.1049],[84.7423,19.0756],[84.7589,19.0956],[84.7808,19.0942],[84.6764,18.9419],[84.6131,18.8897],[84.3494,18.5689],[84.1342,18.3417],[84.1064,18.2922],[84.0705,18.2633],[83.7724,18.1397],[83.5812,18.0153],[83.2341,17.5925],[83.0103,17.4872],[82.8842,17.4081],[82.615,17.2911],[82.4753,17.2022],[82.3621,17.0983],[82.2983,17.0267],[82.2484,16.9119],[82.2627,16.8721],[82.3241,16.8372],[82.3652,16.8254],[82.3673,16.88],[82.3709,16.8678],[82.3661,16.7922],[82.3464,16.7047],[82.3017,16.5831],[82.1989,16.5092],[81.9945,16.4078],[81.7273,16.3108],[81.43,16.3681],[81.4123,16.3853],[81.321,16.3671],[81.2654,16.3322],[81.1639,16.0661],[81.1503,15.97],[81.0017,15.8444],[81.0173,15.7756],[80.8998,15.8581],[80.908,15.9778],[80.9036,16.0081],[80.8826,16.0119],[80.8975,15.9111],[80.8253,15.7519],[80.8075,15.8406],[80.7771,15.878],[80.6847,15.9],[80.5571,15.8779],[80.3672,15.7742],[80.2794,15.6992],[80.2092,15.5308],[80.0939,15.3157],[80.0491,15.0556],[80.1086,14.76],[80.195,14.5558],[80.1775,14.3581],[80.1271,14.2095],[80.1397,14.105],[80.1514,14.0358],[80.2475,13.8089],[80.2283,13.6704],[80.313,13.4392],[80.2505,13.5736],[80.1525,13.7181],[80.0908,13.6885],[80.0494,13.6206],[80.1189,13.4997],[80.2614,13.4653],[80.3334,13.4019],[80.3497,13.3342],[80.3258,13.1817],[80.2628,12.9492],[80.2589,12.7822],[80.1603,12.4731],[79.8655,12.0283],[79.8039,11.7953],[79.7837,11.7739],[79.7643,11.6562],[79.7511,11.5547],[79.7835,11.4281],[79.8331,11.3394],[79.8542,11.1372],[79.8408,10.8178],[79.8597,10.2889],[79.7869,10.2672],[79.7481,10.3025],[79.6837,10.3053],[79.7564,10.2869],[79.7636,10.2583],[79.3992,10.3197],[79.3244,10.2799],[79.2419,10.1831],[79.2394,10.0883],[79.2617,10.0417],[79.25,10.0172],[78.9819,9.6642],[78.9408,9.5939],[78.908,9.4797],[78.9411,9.4094],[79.0092,9.3317],[79.1268,9.2917],[79.231,9.2927],[79.3317,9.2642],[79.4514,9.15],[79.2944,9.2467],[78.9679,9.2733],[78.3967,9.0897],[78.2339,8.9678],[78.1925,8.9042],[78.1744,8.8611],[78.1317,8.4867],[78.0605,8.3642],[77.9969,8.3383],[77.788,8.1961],[77.5872,8.1347],[77.5361,8.0719],[77.4861,8.0781],[77.2991,8.1331],[76.9986,8.3653],[76.6683,8.7819],[76.5758,8.8769],[76.5708,8.9392],[76.6005,8.9719],[76.6603,8.9667],[76.6637,9.0038],[76.559,8.9915],[76.5341,8.965],[76.3803,9.2814],[76.3078,9.4969],[76.2428,9.9661],[76.2922,9.9139],[76.2603,9.9045],[76.2863,9.8311],[76.3264,9.7697],[76.3569,9.7767],[76.3828,9.6467],[76.3529,9.5264],[76.3925,9.5036],[76.4764,9.4976],[76.4989,9.5304],[76.4244,9.5944],[76.3842,9.8603],[76.3575,9.9118],[76.2778,9.9686],[76.2401,10.1108],[76.2117,10.1285],[76.2389,9.9836],[76.203,10.0378],[76.1642,10.1878],[75.9241,10.7556],[75.8616,10.9806],[75.6972,11.415],[75.6557,11.4618],[75.613,11.4717],[75.5286,11.7003],[75.3775,11.8606],[75.2744,12.0078],[75.1925,12.0078],[75.1275,12.2081],[74.8553,12.755],[74.8378,12.8461],[74.8103,12.8647],[74.6191,13.8325],[74.4978,14.0464],[74.4508,14.2461],[74.3753,14.4483],[74.4119,14.4833],[74.3475,14.563],[74.3336,14.5156],[74.3008,14.5217],[74.2708,14.6828],[74.2508,14.7189],[74.2272,14.7367],[74.1761,14.7417],[74.0897,14.7978],[74.1014,14.8671],[73.9583,15.0658],[73.9517,15.1625],[73.9058,15.3014],[73.8724,15.3501],[73.8144,15.37],[73.7844,15.4031],[73.9125,15.4011],[73.9598,15.3653],[73.9495,15.3985],[73.8439,15.4447],[73.7914,15.4506],[73.6819,15.6978],[73.6972,15.7219],[73.6419,15.7403],[73.6494,15.7842],[73.6111,15.8639],[73.4855,15.9914],[73.4478,16.0558],[73.408,16.2344],[73.3261,16.4858],[73.3389,16.5133],[73.3605,16.5122],[73.3125,16.6064],[73.2697,16.8533],[73.2531,16.9989],[73.2736,17.0347],[73.2747,17.0819],[73.1786,17.4711],[73.1144,17.6367],[73.1028,17.6894],[73.1222,17.7172],[73.1091,17.7697],[73.0114,17.9908],[72.9714,18.1805],[72.9672,18.3017],[72.8941,18.4158],[72.8886,18.4722],[72.9028,18.5189],[72.8539,18.6606],[72.8575,18.7953],[72.933,18.8197],[72.973,18.7789],[72.9875,18.7278],[72.993,18.7906],[72.9119,18.9175],[73.0547,18.9961],[73.0542,19.0157],[72.9697,19.0789],[72.9322,19.0611],[72.823,18.9125],[72.77,18.9431],[72.8242,19.0464],[72.8159,19.168],[72.7833,19.1481],[72.7667,19.2281],[72.7805,19.3125],[72.8564,19.3178],[72.9919,19.2572],[73.017,19.2073],[73.0426,19.211],[73.0331,19.2519],[72.9614,19.3099],[72.7978,19.3261],[72.7544,19.3697],[72.7078,19.5875],[72.6997,19.7636],[72.6772,19.7936],[72.6642,19.8708],[72.6661,19.9186],[72.7036,19.9878],[72.7536,20.295],[72.785,20.3503],[72.8164,20.3675],[72.8294,20.4419],[72.8853,20.5131],[72.9344,20.7747],[72.9219,20.8135],[72.8858,20.8094],[72.8469,20.8442],[72.853,21.0678],[72.808,21.1264],[72.7028,21.0742],[72.6308,21.0825],[72.6158,21.0972],[72.6153,21.1272],[72.6822,21.1644],[72.7146,21.2015],[72.6447,21.2592],[72.6075,21.2581],[72.5641,21.3781],[72.7497,21.4641],[72.7153,21.475],[72.5858,21.4133],[72.6314,21.4944],[72.8133,21.6322],[72.9014,21.6437],[73.1079,21.7287],[73.1271,21.7578],[72.9366,21.6817],[72.7886,21.6678],[72.7389,21.6861],[72.6178,21.6849],[72.5417,21.6639],[72.5253,21.6947],[72.5569,21.7611],[72.5675,21.8481],[72.6264,21.9283],[72.6519,21.9411],[72.6811,21.9303],[72.7344,21.9864],[72.7137,21.9934],[72.6228,21.9603],[72.5517,21.9072],[72.5278,21.9172],[72.5008,21.9767],[72.5367,22.1378],[72.5755,22.1953],[72.6253,22.2089],[72.6794,22.1794],[72.751,22.1668],[72.8178,22.2397],[72.8868,22.2134],[72.9166,22.2195],[72.9148,22.2711],[72.8181,22.2722],[72.78,22.2522],[72.5839,22.2858],[72.4664,22.2272],[72.3897,22.2494],[72.3758,22.2992],[72.1552,22.2812],[72.1725,22.2519],[72.2621,22.2272],[72.2969,22.2322],[72.3258,22.1567],[72.3053,22.0636],[72.2653,22.0161],[72.1792,21.9706],[72.1255,21.9728],[72.0389,21.939],[72.1161,21.9189],[72.1522,21.9286],[72.1619,21.8353],[72.0814,21.8286],[71.9983,21.8539],[71.9918,21.7921],[72.0225,21.7733],[72.1725,21.7858],[72.2142,21.7361],[72.2133,21.705],[72.2514,21.6892],[72.2892,21.6108],[72.2425,21.4653],[72.1039,21.3097],[72.1105,21.2019],[72.0033,21.1347],[71.5681,20.975],[71.4669,20.8819],[70.9661,20.7028],[70.8189,20.6975],[70.5178,20.8167],[70.3289,20.9281],[70.0608,21.1444],[69.7886,21.4664],[69.648,21.6011],[69.5553,21.6586],[69.1155,22.0625],[68.9769,22.2272],[68.9444,22.2942],[68.9444,22.3283],[68.9864,22.4183],[69.0672,22.4808],[69.1517,22.4033],[69.1775,22.3603],[69.1711,22.3028],[69.2383,22.2733],[69.8708,22.4655],[70.0405,22.5583],[70.17,22.5508],[70.3675,22.8886],[70.4347,22.9614],[70.503,22.9746],[70.5279,23.0418],[70.5097,23.0982],[70.4819,23.1259],[70.4144,23.089],[70.3983,23.0578],[70.4091,23.0125],[70.3894,22.9353],[70.343,22.9305],[70.2272,22.9575],[69.8494,22.8586],[69.755,22.8061],[69.7103,22.7428],[69.2158,22.8403],[68.6667,23.1422],[68.543,23.2692],[68.433,23.43],[68.4025,23.5206],[68.4083,23.6128],[68.7208,23.8161],[68.7414,23.8442],[68.61,23.8075],[68.4475,23.7269],[68.3847,23.6778],[68.3572,23.6103],[68.3214,23.5808],[68.1747,23.5917],[68.14,23.6161],[68.2011,23.6642],[68.2094,23.867],[68.2837,23.9384],[68.3259,23.922],[68.3349,23.9654],[68.3742,23.9832],[68.3849,23.9642],[68.7493,23.9621],[68.7641,24.2841],[68.7923,24.3],[68.8264,24.3084],[68.8525,24.2057],[68.8736,24.2143],[68.8973,24.2769],[68.9267,24.2939],[68.9706,24.2375],[69.0005,24.2259],[69.0929,24.2691],[69.1998,24.2352],[69.3103,24.2767],[69.5042,24.263],[69.5901,24.2868],[69.7246,24.1751],[69.9787,24.1651],[70.0241,24.1694],[70.0593,24.1928],[70.119,24.2907],[70.5601,24.4186],[70.5959,24.4002],[70.5614,24.3584],[70.5874,24.3101],[70.5723,24.2936],[70.5878,24.2854],[70.5742,24.2523],[70.6553,24.2251],[70.7258,24.2209],[70.8057,24.2227],[70.8941,24.2571],[70.9041,24.2651],[70.8658,24.2843],[70.8727,24.3049],[70.9809,24.3634],[71.0382,24.3561],[71.1244,24.4094],[71.1074,24.4332],[71.0202,24.4333],[71.0007,24.4489],[70.9894,24.6032],[71.0081,24.6357],[71.065,24.6626],[71.0861,24.6934],[70.9556,24.9017],[70.9179,24.9864],[70.8812,25.1459],[70.7525,25.2717],[70.7372,25.3257],[70.6659,25.396],[70.6724,25.6715],[70.6593,25.7015],[70.6048,25.7185],[70.5265,25.6885],[70.3746,25.6813],[70.2754,25.7113],[70.0961,25.9443],[70.0826,26.0739],[70.1452,26.1662],[70.1727,26.2451],[70.1646,26.2909],[70.1839,26.4868],[70.1677,26.5508],[70.0662,26.5993],[69.8793,26.5811],[69.8154,26.5922],[69.7219,26.6538],[69.5076,26.7484],[69.4837,26.8062],[69.5132,27.0169],[69.5781,27.1655],[69.862,27.4028],[69.9362,27.5021],[70.0163,27.556],[70.1078,27.7669],[70.1569,27.8341],[70.3662,28.0082],[70.4791,28.0338],[70.5626,28.0198],[70.6721,27.9143],[70.6784,27.8391],[70.7577,27.7172],[70.8655,27.7051],[71.2441,27.8494],[71.6749,27.8855],[71.8996,27.9642],[71.9223,28.114],[71.992,28.2036],[72.1844,28.358],[72.3019,28.6648],[72.3962,28.7746],[72.7302,28.9501],[72.9444,29.0341],[73.0009,29.1509],[73.0966,29.2554],[73.2748,29.5562],[73.3965,29.939],[73.5782,30.0101],[73.8039,30.0699],[73.9652,30.1913],[73.9437,30.3059],[73.8712,30.3686],[73.9034,30.4168],[73.9279,30.4209],[73.9353,30.463],[73.9627,30.4576],[73.9836,30.5005],[74.032,30.5358],[74.0665,30.5202],[74.0776,30.5294],[74.1042,30.6129],[74.1861,30.6594],[74.2322,30.7196],[74.2818,30.7302],[74.2622,30.768],[74.2962,30.7785],[74.3196,30.8436],[74.363,30.8458],[74.3655,30.8854],[74.4161,30.906],[74.4706,30.966],[74.5022,30.9648],[74.5485,30.9928],[74.5584,31.0675],[74.6391,31.0211],[74.6564,31.053],[74.6857,31.0615],[74.6644,31.1067],[74.6176,31.1191],[74.5741,31.11],[74.5359,31.1542],[74.5502,31.2947],[74.6411,31.4647],[74.6117,31.5062],[74.5785,31.6234],[74.5173,31.7229],[74.5171,31.7604],[74.5455,31.7576],[74.5438,31.8223],[74.573,31.823],[74.7032,31.9249],[74.7092,31.9579],[74.7364,31.9371],[74.8045,31.9469],[74.8317,32.0],[74.9201,32.0563],[74.9603,32.055],[75.0049,32.0288],[75.0736,32.0628],[75.1719,32.0661],[75.2121,32.1191],[75.2278,32.0846],[75.2392,32.0871],[75.3142,32.1592],[75.3228,32.2013],[75.3747,32.2243],[75.3808,32.265],[75.3399,32.2886],[75.3304,32.3317],[75.2315,32.3992],[75.1955,32.4053],[75.1885,32.4245],[75.1279,32.4212],[75.0826,32.4801],[75.0302,32.4917],[74.9731,32.4479],[74.8353,32.4962],[74.747,32.4791],[74.6868,32.4931],[74.6805,32.5382],[74.6524,32.5602],[74.6422,32.6111],[74.6762,32.658],[74.6501,32.7184],[74.697,32.8397],[74.642,32.8229],[74.6415,32.7919],[74.6147,32.7577],[74.5315,32.7407],[74.4545,32.7931],[74.3717,32.7711],[74.3328,32.8156],[74.0028,32.9517],[73.9211,33.0342],[73.8058,33.0089],[73.7503,33.0531],[73.6283,33.0947],[73.6267,33.128],[73.6686,33.158],[73.6699,33.1916],[73.6671,33.2153],[73.6412,33.2161],[73.6428,33.2323],[73.6232,33.244],[73.5986,33.3181],[73.6072,33.3333],[73.5847,33.3392],[73.5705,33.3722],[73.5972,33.4392],[73.6267,33.4597],[73.6083,33.4919],[73.6317,33.5264],[73.6269,33.5689],[73.5689,33.6242],[73.5739,33.6644],[73.5989,33.6986],[73.5925,33.7469],[73.5667,33.7889],[73.5836,33.8944],[73.5164,34.0011],[73.4647,34.2753],[73.4142,34.3161],[73.3992,34.3575],[73.4483,34.5631],[73.5817,34.5878],[73.6411,34.5669],[73.6744,34.6458],[73.6636,34.6944],[73.7036,34.7247],[73.7264,34.7753],[73.8339,34.8269],[73.9078,34.8267],[73.9755,34.8619],[74.0,34.8947],[74.0,34.6773],[74.15,34.698],[74.2475,34.7547],[74.3892,34.7819],[74.6927,34.6936],[75.1105,34.6278],[75.243,34.6261],[75.3925,34.5547],[75.6372,34.5028],[75.8055,34.5072],[75.8889,34.58],[75.988,34.6269],[76.0466,34.6294],[76.1675,34.5864],[76.2292,34.6094],[76.2936,34.7003],[76.4703,34.77],[76.7272,34.7439],[76.8014,34.6722],[76.87,34.6589],[76.9169,34.6814],[76.9544,34.8628],[77.0239,34.9825],[77.0608,35.0147],[77.0633,35.0511],[77.0425,35.0992],[77.8239,35.5013],[77.8625,35.4544],[77.903,35.4369],[77.9425,35.4497],[77.9911,35.4947],[78.0519,35.5058],[78.0764,35.4969],[78.0872,35.4669],[78.0255,35.3336],[78.0239,35.2744],[78.1219,35.1119],[78.1797,34.9239],[78.2341,34.8569],[78.2991,34.655],[78.3683,34.593],[78.6053,34.5594],[78.7022,34.5258],[78.9514,34.3808],[79.0022,34.3105],[79.0111,34.2517],[78.985,34.2028],[78.8955,34.1447],[78.7719,34.1083],[78.7358,34.0683],[78.7344,34.0311],[78.8125,33.8139],[78.8086,33.5369],[78.8375,33.478],[78.9365,33.408],[78.9964,33.315],[79.1011,33.2533],[79.2747,33.1894],[79.3783,33.1064],[79.3561,32.965],[79.4503,32.8822],[79.5303,32.7542],[79.5303,32.728],[79.5144,32.6722],[79.4764,32.6217],[79.3139,32.4967],[80.5157,30.9633],[82.126,30.2697],[83.4996,29.3904],[84.4942,29.17],[85.5362,28.6181],[86.9097,28.1017],[88.4254,27.9909],[89.7989,27.7692],[92.545,27.8619],[92.7183,27.9736],[92.7284,28.036],[92.6752,28.0807],[92.7104,28.1419],[92.83,28.2128],[92.8873,28.1987],[93.0457,28.3103],[93.2221,28.3193],[93.2382,28.3874],[93.2155,28.4183],[93.3204,28.5405],[93.3287,28.595],[93.3519,28.6188],[93.5021,28.6792],[93.6473,28.6475],[93.7319,28.6776],[93.8585,28.6904],[93.9617,28.6692],[93.9944,28.7579],[93.9944,29.0164],[94.1966,29.0164],[94.3081,29.1412],[94.4278,29.2155],[94.5389,29.2148],[94.5812,29.2315],[94.5932,29.2724],[94.6475,29.3335],[94.6974,29.3365],[94.7923,29.2608],[94.8641,29.175],[95.13,29.1175],[95.3878,29.0353],[95.4605,29.0517],[95.5253,29.1361],[95.5414,29.1911],[95.6247,29.255],[95.7897,29.3428],[95.9542,29.3983],[96.0703,29.4675],[96.0969,29.4575],[96.1778,29.3578],[96.1869,29.3111],[96.2353,29.2544],[96.2894,29.2414],[96.3691,29.2889],[96.3953,29.2553],[96.353,29.1831],[96.2189,29.1472],[96.1489,29.0597],[96.1508,28.9303],[96.1847,28.8983],[96.3439,29.0325],[96.4708,29.0567],[96.4958,29.0361],[96.4844,28.9683],[96.6116,28.8011],[96.6178,28.7694],[96.6061,28.7394],[96.3403,28.525],[96.3616,28.3928],[96.4019,28.3511],[96.4605,28.4219],[96.5966,28.4689],[96.6539,28.4675],[96.7408,28.4264],[96.7841,28.3731],[96.9847,28.3325],[97.0208,28.335],[97.0917,28.3792],[97.135,28.3814],[97.2336,28.3178],[97.3069,28.2339],[97.3489,28.2228],[97.3161,28.0892],[97.36,28.0436],[97.3805,27.9914],[97.3611,27.9408],[97.3163,27.9131],[97.2593,27.9076],[97.1582,27.8154],[97.0178,27.7385],[96.8867,27.6061],[96.9013,27.4585],[97.16,27.1325],[97.1435,27.094],[97.0461,25.5938],[97.109,23.5163],[97.2411,23.142],[97.8401,22.6413],[98.0,22.6733],[98.0,15.0814],[97.7587,16.4129],[97.4088,17.2238],[96.9461,17.1433],[95.541,17.1053],[94.9144,17.3142],[94.5938,18.1341],[94.3988,18.7435],[93.908,19.194],[93.7054,19.9668],[93.4523,20.2004]],[[89.9549,24.0],[89.9354,24.0],[89.9513,23.9752],[89.9404,23.9707],[90.0,23.9316],[89.9507,23.9862],[89.9549,24.0]],[[89.7726,23.9642],[89.792,23.9758],[89.7912,24.0],[89.7897,23.9809],[89.7654,23.9656],[89.7869,23.9386],[89.7726,23.9642]],[[78.743,32.6394],[78.7044,32.6311],[78.6767,32.5933],[78.6386,32.5778],[78.5669,32.5664],[78.4961,32.5825],[78.4008,32.553],[78.4,32.5253],[78.4772,32.4247],[78.4816,32.3625],[78.8839,32.3929],[78.7803,32.4789],[78.765,32.5461],[78.7742,32.6161],[78.743,32.6394]],[[74.0,33.6542],[74.0,33.6176],[74.0564,33.6162],[74.0197,33.6353],[74.0,33.6542]],[[74.0419,33.825],[74.1525,33.843],[74.2358,33.8842],[74.2861,33.9342],[74.2872,33.9972],[74.2444,34.0192],[74.0858,34.0275],[74.0,34.0103],[74.0,33.7649],[74.0419,33.825]],[[74.0,34.2548],[74.0,34.1673],[74.0233,34.1972],[74.0,34.2548]],[[72.6684,21.1542],[72.6736,21.1581],[72.6707,21.1568],[72.6684,21.1542]],[[90.9703,22.712],[90.9849,22.7119],[90.9821,22.6997],[90.9966,22.7024],[90.9757,22.7222],[90.9703,22.712]]],[[[95.2369,5.5622],[95.2768,5.5533],[95.2806,5.5506],[95.2767,5.5532],[95.2658,5.5494],[95.2514,5.5494],[95.2424,5.5512],[95.2365,5.5599],[95.2369,5.5622]]],[[[95.3292,5.5868],[95.3328,5.5872],[95.3268,5.5885],[95.3292,5.5868]]],[[[95.3402,5.5881],[95.3403,5.5881],[95.3403,5.5881],[95.3402,5.5881]]],[[[95.666,5.5896],[95.6423,5.6027],[95.6337,5.6079],[95.6423,5.6027],[95.666,5.5896]]],[[[95.5382,5.6084],[95.5367,5.6087],[95.5298,5.6102],[95.5382,5.6084]]],[[[95.5391,5.6082],[95.5391,5.6082],[95.5413,5.6114],[95.5391,5.6082]]],[[[95.4651,5.6437],[95.4534,5.6508],[95.4532,5.6508],[95.4534,5.6507],[95.4651,5.6437]]],[[[80.5847,5.919],[80.5847,5.919],[80.5823,5.9252],[80.5847,5.919]]],[[[95.5624,5.6119],[95.5501,5.6136],[95.5666,5.6148],[95.5624,5.6119]]],[[[95.4974,5.5988],[95.5279,5.5973],[95.5221,5.5944],[95.5107,5.5957],[95.4974,5.5988],[95.476,5.6234],[95.4746,5.6271],[95.4974,5.5988]]],[[[95.6218,5.6144],[95.6218,5.6144],[95.62,5.6141],[95.6218,5.6144]]],[[[95.6174,5.6219],[95.6174,5.6219],[95.6165,5.6228],[95.6174,5.6219]]],[[[95.5706,5.6155],[95.5833,5.6178],[95.5954,5.6234],[95.5833,5.6178],[95.5706,5.6155]]],[[[80.4861,5.9387],[80.4861,5.9387],[80.4865,5.9389],[80.4861,5.9387]]],[[[80.4473,5.9469],[80.4473,5.9469],[80.4475,5.9471],[80.4473,5.9469]]],[[[80.6872,5.9592],[80.688,5.9592],[80.688,5.9592],[80.6872,5.9592]]],[[[80.4006,5.9607],[80.398,5.9605],[80.4019,5.9608],[80.4006,5.9607]]],[[[80.4202,5.9568],[80.4202,5.9568],[80.4207,5.9605],[80.4202,5.9568]]],[[[80.6402,5.9445],[80.6402,5.9445],[80.6471,5.9509],[80.6607,5.9561],[80.6402,5.9445]]],[[[80.451,5.9509],[80.451,5.951],[80.4522,5.9587],[80.451,5.9509]]],[[[80.37,5.9686],[80.365,5.9729],[80.3663,5.9718],[80.37,5.9686]]],[[[80.4264,5.9682],[80.4488,5.963],[80.4489,5.963],[80.4264,5.9682]]],[[[80.7356,5.9734],[80.7347,5.9771],[80.7356,5.9734],[80.7356,5.9734]]],[[[80.3411,5.9769],[80.3285,5.9864],[80.3248,5.9878],[80.3285,5.9864],[80.3411,5.9769]]],[[[80.7754,6.0052],[80.7575,5.9955],[80.7612,5.9983],[80.7754,6.0052]]],[[[80.7237,5.9686],[80.7261,5.9742],[80.7281,5.9786],[80.7237,5.9686]]],[[[80.4522,5.9588],[80.449,5.9629],[80.449,5.9629],[80.4522,5.9588]]],[[[80.4209,5.9626],[80.4209,5.9626],[80.4225,5.9651],[80.4209,5.9626]]],[[[80.6174,5.9324],[80.5983,5.9251],[80.6091,5.9306],[80.6174,5.9324],[80.62,5.9381],[80.6234,5.9415],[80.6174,5.9324]]],[[[80.5781,5.9319],[80.5532,5.9411],[80.5452,5.9422],[80.5532,5.9411],[80.5781,5.9319]]],[[[80.5201,5.9357],[80.5322,5.9366],[80.5363,5.9398],[80.5322,5.9366],[80.5201,5.9357]]],[[[80.2445,6.0071],[80.2445,6.0071],[80.2467,6.008],[80.2445,6.0071]]],[[[80.2436,6.0074],[80.2436,6.0074],[80.2431,6.0077],[80.2436,6.0074]]],[[[80.2218,6.0217],[80.2207,6.0218],[80.2226,6.0228],[80.2218,6.0217]]],[[[80.8074,6.0315],[80.8022,6.0252],[80.8057,6.0301],[80.8074,6.0315]]],[[[80.2021,6.0416],[80.2028,6.0418],[80.2028,6.0418],[80.2021,6.0416]]],[[[80.2163,6.0296],[80.2163,6.0296],[80.211,6.0359],[80.2163,6.0296]]],[[[80.2248,6.0335],[80.2248,6.0335],[80.2275,6.0346],[80.2248,6.0335]]],[[[80.2372,6.0297],[80.2372,6.0297],[80.2342,6.0322],[80.2372,6.0297]]],[[[80.1833,6.0521],[80.1728,6.0633],[80.164,6.0673],[80.1598,6.0709],[80.1728,6.0633],[80.1833,6.0521]]],[[[81.0259,6.1039],[81.0226,6.1055],[81.0259,6.1039],[81.0259,6.1039]]],[[[80.1192,6.1169],[80.1192,6.1169],[80.1108,6.1211],[80.1192,6.1169]]],[[[81.0167,6.1071],[81.0167,6.1071],[81.0181,6.1071],[81.0167,6.1071]]],[[[80.0906,6.1605],[80.0906,6.1605],[80.0839,6.1703],[80.0906,6.1605]]],[[[81.1862,6.1717],[81.1862,6.1717],[81.1871,6.1727],[81.1862,6.1717]]],[[[81.2328,6.168],[81.2328,6.168],[81.2408,6.1728],[81.2328,6.168]]],[[[81.2039,6.1746],[81.2039,6.1746],[81.2007,6.1773],[81.2039,6.1746]]],[[[81.2598,6.1799],[81.2598,6.1799],[81.2728,6.1805],[81.2598,6.1799]]],[[[81.2876,6.1878],[81.2876,6.1878],[81.2908,6.1881],[81.2876,6.1878]]],[[[81.303,6.1932],[81.303,6.1932],[81.3121,6.1937],[81.303,6.1932]]],[[[80.0599,6.2128],[80.0599,6.2128],[80.0583,6.2174],[80.0599,6.2128]]],[[[81.3555,6.2206],[81.3479,6.2199],[81.3555,6.2206],[81.3631,6.2258],[81.3674,6.226],[81.3555,6.2206]]],[[[81.4354,6.2793],[81.4332,6.271],[81.4341,6.2747],[81.4354,6.2793]]],[[[81.4604,6.296],[81.4604,6.296],[81.4634,6.2962],[81.4604,6.296]]],[[[80.0345,6.2807],[80.0357,6.2982],[80.0291,6.3148],[80.029,6.3149],[80.0345,6.2807]]],[[[81.3441,6.2111],[81.3448,6.2145],[81.3441,6.2111],[81.3441,6.2111]]],[[[81.1815,6.1505],[81.1815,6.1506],[81.188,6.1547],[81.1815,6.1505]]],[[[81.1818,6.1595],[81.1818,6.1595],[81.1818,6.1596],[81.1818,6.1595]]],[[[81.2058,6.1581],[81.2009,6.1579],[81.2058,6.1581],[81.2058,6.1581]]],[[[81.1946,6.1576],[81.1996,6.16],[81.1946,6.1576],[81.1946,6.1576]]],[[[80.2578,6.0069],[80.2578,6.0069],[80.2553,6.0077],[80.2578,6.0069]]],[[[81.4996,6.3245],[81.5045,6.3383],[81.52,6.3508],[81.5045,6.3383],[81.4996,6.3245]]],[[[81.5269,6.3554],[81.5269,6.3554],[81.5513,6.3581],[81.5269,6.3554]]],[[[81.5936,6.3894],[81.5699,6.3734],[81.5828,6.3841],[81.5936,6.3894]]],[[[81.5998,6.394],[81.6053,6.3986],[81.5999,6.394],[81.5998,6.394]]],[[[80.0055,6.4015],[80.005,6.4037],[80.005,6.4037],[80.0055,6.4015]]],[[[81.6179,6.4111],[81.6179,6.4111],[81.6179,6.4112],[81.6179,6.4111]]],[[[79.9947,6.4157],[79.9947,6.4157],[79.995,6.4169],[79.9947,6.4157]]],[[[80.0,6.4082],[79.9974,6.4106],[79.9974,6.4106],[80.0,6.4082]]],[[[81.6124,6.4173],[81.6124,6.4173],[81.6118,6.4175],[81.6124,6.4173]]],[[[81.6016,6.4188],[81.597,6.4188],[81.597,6.4188],[81.6016,6.4188]]],[[[81.5973,6.4241],[81.5973,6.4241],[81.5967,6.4198],[81.5973,6.4241]]],[[[79.9989,6.4222],[79.9998,6.423],[79.9998,6.423],[79.9989,6.4222]]],[[[79.9942,6.4276],[79.9979,6.4272],[79.9979,6.4271],[79.9963,6.4272],[79.9942,6.4276]]],[[[81.6359,6.4305],[81.6359,6.4306],[81.6395,6.4326],[81.6359,6.4305]]],[[[79.9883,6.4398],[79.9883,6.4398],[79.9873,6.4429],[79.9883,6.4398]]],[[[81.6555,6.4408],[81.6555,6.4408],[81.6597,6.4486],[81.6555,6.4408]]],[[[81.6627,6.4543],[81.6627,6.4543],[81.663,6.4546],[81.6627,6.4543]]],[[[79.9866,6.4771],[79.9866,6.4771],[79.9812,6.4839],[79.9866,6.4771]]],[[[81.7075,6.4982],[81.7101,6.5056],[81.7101,6.5056],[81.7075,6.4982]]],[[[79.9777,6.4939],[79.9777,6.4939],[79.9798,6.5023],[79.9777,6.4939]]],[[[81.7323,6.546],[81.7255,6.5522],[81.7255,6.5522],[81.7323,6.546]]],[[[81.7259,6.5559],[81.7314,6.5517],[81.7259,6.5559],[81.7257,6.5543],[81.7259,6.5559]]],[[[79.9778,6.5191],[79.9693,6.5395],[79.9654,6.5586],[79.9693,6.5395],[79.9778,6.5191]]],[[[81.7205,6.5239],[81.7205,6.5239],[81.7214,6.525],[81.7205,6.5239]]],[[[81.7412,6.5617],[81.7465,6.5721],[81.7612,6.5847],[81.7465,6.5721],[81.7412,6.5617]]],[[[79.9609,6.566],[79.9609,6.566],[79.9499,6.6031],[79.9609,6.566]]],[[[81.7315,6.56],[81.7315,6.56],[81.7311,6.561],[81.7315,6.56]]],[[[81.7336,6.5654],[81.7324,6.5669],[81.7324,6.5669],[81.7336,6.5654]]],[[[81.7662,6.5934],[81.7644,6.6058],[81.7644,6.6058],[81.7662,6.5934]]],[[[79.9351,6.6317],[79.9184,6.6758],[79.9149,6.6835],[79.9184,6.6758],[79.9351,6.6317]]],[[[81.7759,6.6639],[81.7759,6.6639],[81.7775,6.6664],[81.7759,6.6639]]],[[[81.8039,6.7045],[81.8039,6.7045],[81.8051,6.7099],[81.8039,6.7045]]],[[[81.7848,6.6825],[81.7848,6.6825],[81.785,6.6827],[81.7848,6.6825]]],[[[81.7769,6.6258],[81.7769,6.6258],[81.7775,6.631],[81.7769,6.6258]]],[[[79.8959,6.7306],[79.8947,6.7338],[79.8947,6.7338],[79.8959,6.7306]]],[[[79.8916,6.7451],[79.8916,6.7451],[79.8866,6.7585],[79.8916,6.7451]]],[[[81.8246,6.7609],[81.8259,6.7612],[81.8259,6.7612],[81.8246,6.7609]]],[[[81.818,6.7488],[81.818,6.7488],[81.8261,6.7569],[81.818,6.7488]]],[[[95.7926,5.5427],[95.7651,5.5524],[95.7361,5.5687],[95.7077,5.5766],[95.7361,5.5687],[95.7926,5.5427]]],[[[95.2815,5.5517],[95.2837,5.5616],[95.3179,5.5852],[95.2837,5.5616],[95.2815,5.5517]]],[[[95.2355,5.5676],[95.2336,5.5699],[95.2336,5.5699],[95.2355,5.5676]]],[[[81.8112,6.7681],[81.8098,6.7622],[81.8084,6.7647],[81.8112,6.7681]]]]}}