{"type":"Feature","properties":{"speciesId":284,"category":"LC","source":"IUCN Red List","simplifyTol":0.01,"clippedToSubcontinent":true},"geometry":{"type":"MultiPolygon","coordinates":[[[[72.8151,18.7252],[72.8047,18.7241],[72.8072,18.7283],[72.8151,18.7252]]],[[[72.8424,18.7313],[72.8332,18.7279],[72.84,18.7352],[72.8424,18.7313]]],[[[72.8456,18.7929],[72.8349,18.7916],[72.8432,18.7966],[72.8456,18.7929]]],[[[72.8502,18.8106],[72.844,18.8154],[72.8501,18.8209],[72.8502,18.8106]]],[[[72.9321,18.9765],[72.9223,18.9867],[72.9424,18.9926],[72.9389,18.9892],[72.9321,18.9765]]],[[[73.0594,19.0303],[73.0493,19.0304],[73.0566,19.0409],[73.0594,19.0303]]],[[[72.8672,19.3512],[72.8447,19.355],[72.838,19.3592],[72.8516,19.3616],[72.8672,19.3512]]],[[[72.7371,19.4945],[72.7327,19.4846],[72.7286,19.4933],[72.7371,19.4945]]],[[[72.8793,20.7125],[72.89,20.7122],[72.8883,20.7044],[72.8793,20.7125]]],[[[72.8697,20.741],[72.877,20.749],[72.8737,20.7146],[72.8667,20.7369],[72.8576,20.7298],[72.8726,20.6914],[72.8785,20.6999],[72.8779,20.6695],[72.8474,20.742],[72.8454,20.768],[72.8697,20.741]]],[[[72.8752,20.7759],[72.8613,20.7794],[72.8767,20.7778],[72.8752,20.7759]]],[[[72.8726,20.7918],[72.8648,20.7916],[72.866,20.793],[72.8726,20.7918]]],[[[72.9361,20.7874],[72.932,20.7943],[72.9412,20.7912],[72.9361,20.7874]]],[[[72.856,20.7873],[72.8404,20.799],[72.8406,20.8037],[72.856,20.7873]]],[[[72.8436,20.8121],[72.8407,20.8207],[72.8444,20.8225],[72.8436,20.8121]]],[[[72.817,20.9338],[72.807,20.9311],[72.8173,20.9428],[72.817,20.9338]]],[[[72.831,20.829],[72.815,20.8595],[72.7824,20.9443],[72.8226,20.8494],[72.8415,20.8292],[72.831,20.829]]],[[[72.7868,21.0157],[72.7723,21.0031],[72.7658,21.0087],[72.7751,21.0171],[72.7868,21.0157]]],[[[72.8453,21.0614],[72.8357,21.0663],[72.8453,21.0662],[72.8453,21.0614]]],[[[72.6852,21.0774],[72.6797,21.086],[72.6751,21.089],[72.6836,21.0903],[72.6852,21.0774]]],[[[72.6739,21.0945],[72.6479,21.0833],[72.6749,21.1046],[72.6739,21.0945]]],[[[72.6831,21.1319],[72.6743,21.1524],[72.6971,21.1652],[72.6959,21.1527],[72.6831,21.1319]]],[[[72.6391,21.2979],[72.6202,21.2947],[72.6254,21.3064],[72.6391,21.2979]]],[[[72.6284,21.3581],[72.6204,21.3554],[72.6267,21.362],[72.6284,21.3581]]],[[[72.3597,21.619],[72.3494,21.6227],[72.3491,21.6277],[72.3597,21.619]]],[[[72.7402,21.6614],[72.8073,21.6623],[72.7932,21.6444],[72.6902,21.6237],[72.6692,21.5943],[72.6228,21.592],[72.6295,21.6115],[72.6119,21.6294],[72.6372,21.636],[72.6387,21.6525],[72.7358,21.6733],[72.7402,21.6614]]],[[[72.8784,21.704],[72.8683,21.6962],[72.8578,21.7002],[72.8784,21.704]]],[[[72.5694,21.7768],[72.5944,21.7726],[72.5627,21.7683],[72.5694,21.7768]]],[[[72.5834,21.7988],[72.5724,21.7979],[72.5815,21.8009],[72.5834,21.7988]]],[[[72.3604,22.2075],[72.3515,22.1982],[72.3581,22.2126],[72.3604,22.2075]]],[[[72.4713,22.2383],[72.4656,22.2257],[72.4323,22.2033],[72.4442,22.2294],[72.4713,22.2383]]],[[[72.5105,22.2417],[72.5039,22.2564],[72.5175,22.2543],[72.5105,22.2417]]],[[[72.6615,22.2683],[72.7191,22.2614],[72.7317,22.2463],[72.6615,22.2683]]],[[[69.4516,22.3846],[69.4394,22.378],[69.4349,22.3814],[69.4516,22.3846]]],[[[69.3404,22.408],[69.3267,22.4028],[69.3398,22.413],[69.3404,22.408]]],[[[69.4874,22.4148],[69.4802,22.4163],[69.4831,22.4227],[69.4874,22.4148]]],[[[69.6372,22.4315],[69.6025,22.4421],[69.5834,22.4616],[69.6191,22.4816],[69.6407,22.4736],[69.6372,22.4315]]],[[[69.3209,22.4887],[69.3183,22.4715],[69.2932,22.4812],[69.2957,22.4918],[69.3209,22.4887]]],[[[69.1446,22.4775],[69.1104,22.4827],[69.086,22.4435],[69.0949,22.4827],[69.1407,22.4979],[69.1446,22.4775]]],[[[69.3501,22.5271],[69.3221,22.5326],[69.3175,22.5417],[69.3498,22.5464],[69.3501,22.5271]]],[[[69.9286,22.5434],[69.8908,22.5335],[69.8554,22.551],[69.8999,22.549],[69.8979,22.565],[69.9159,22.5694],[69.9286,22.5434]]],[[[69.9522,22.5681],[69.9398,22.5596],[69.9364,22.5693],[69.9522,22.5681]]],[[[70.0284,22.5971],[69.9779,22.5698],[69.9571,22.5784],[69.9646,22.6014],[69.9991,22.6135],[70.0284,22.5971]]],[[[69.9538,22.6182],[69.9391,22.622],[69.9586,22.6231],[69.9538,22.6182]]],[[[69.6385,22.7857],[69.6458,22.7748],[69.6294,22.7838],[69.6385,22.7857]]],[[[70.4425,22.9962],[70.4335,22.9975],[70.4491,23.0036],[70.4425,22.9962]]],[[[70.4415,23.0039],[70.4295,23.0055],[70.4484,23.0178],[70.4415,23.0039]]],[[[70.3753,22.983],[70.3896,22.984],[70.3834,22.9665],[70.351,22.9554],[70.3011,22.9673],[70.385,23.0197],[70.3919,22.9948],[70.3753,22.983]]],[[[70.3744,23.0573],[70.3961,23.0444],[70.3753,23.046],[70.3744,23.0573]]],[[[70.4574,23.0626],[70.4468,23.0552],[70.4561,23.0677],[70.4574,23.0626]]],[[[70.4133,23.0145],[70.4164,23.0474],[70.4424,23.071],[70.4312,23.0337],[70.4133,23.0145]]],[[[70.4163,23.0519],[70.4187,23.063],[70.4349,23.0737],[70.4345,23.0682],[70.4163,23.0519]]],[[[70.3915,23.059],[70.3788,23.0598],[70.3679,23.0669],[70.3954,23.082],[70.3915,23.059]]],[[[70.4728,23.0784],[70.4599,23.0764],[70.4769,23.086],[70.4728,23.0784]]],[[[90.0233,23.5933],[90.0179,23.6061],[90.0593,23.6005],[90.0233,23.5933]]],[[[68.2354,23.6041],[68.2231,23.605],[68.2215,23.6107],[68.2354,23.6041]]],[[[90.1143,23.6182],[90.0967,23.6289],[90.0878,23.6412],[90.1101,23.6307],[90.1143,23.6182]]],[[[68.4309,23.6012],[68.423,23.6334],[68.4574,23.641],[68.4612,23.627],[68.4309,23.6012]]],[[[68.2007,23.6662],[68.2567,23.6573],[68.2627,23.6326],[68.2451,23.6011],[68.2153,23.619],[68.2219,23.596],[68.1868,23.6047],[68.1659,23.6269],[68.1719,23.6527],[68.2007,23.6662]]],[[[89.932,23.7089],[89.902,23.7252],[89.8987,23.7311],[89.9318,23.7233],[89.932,23.7089]]],[[[89.8689,23.7375],[89.8656,23.7305],[89.8625,23.7358],[89.8689,23.7375]]],[[[68.4731,23.7119],[68.4681,23.7324],[68.5031,23.7398],[68.4903,23.7221],[68.4731,23.7119]]],[[[89.8686,23.7509],[89.8652,23.7464],[89.8641,23.7503],[89.8686,23.7509]]],[[[89.8568,23.7544],[89.8515,23.7519],[89.8513,23.7546],[89.8568,23.7544]]],[[[90.3547,23.7388],[90.3412,23.7485],[90.3291,23.7509],[90.3466,23.7553],[90.3547,23.7388]]],[[[68.4692,23.7416],[68.4586,23.7579],[68.4824,23.749],[68.4692,23.7416]]],[[[68.5914,23.7653],[68.5774,23.7648],[68.5917,23.7713],[68.5914,23.7653]]],[[[90.3179,23.6798],[90.288,23.6964],[90.2617,23.7481],[90.2876,23.7565],[90.3003,23.7842],[90.313,23.7561],[90.3718,23.7194],[90.3179,23.6798]]],[[[89.8001,23.756],[89.786,23.7652],[89.7868,23.7877],[89.7904,23.7834],[89.8001,23.756]]],[[[68.6101,23.7966],[68.5693,23.7814],[68.6114,23.8042],[68.6101,23.7966]]],[[[68.6373,23.8054],[68.6283,23.8066],[68.6391,23.8137],[68.6373,23.8054]]],[[[90.2259,23.7488],[90.2118,23.7789],[90.2416,23.8158],[90.2522,23.7705],[90.2259,23.7488]]],[[[89.741,23.8013],[89.6852,23.8134],[89.6826,23.8249],[89.718,23.8254],[89.741,23.8013]]],[[[89.6648,23.8277],[89.6752,23.813],[89.6375,23.81],[89.6373,23.8233],[89.6648,23.8277]]],[[[89.7791,23.7659],[89.7587,23.7869],[89.7438,23.8275],[89.7758,23.8125],[89.7791,23.7659]]],[[[89.6167,23.8272],[89.5991,23.8293],[89.5465,23.8211],[89.595,23.8389],[89.6167,23.8272]]],[[[89.5236,23.8427],[89.5155,23.8094],[89.4879,23.8405],[89.4901,23.8446],[89.5236,23.8427]]],[[[68.1913,23.8114],[68.1483,23.7485],[68.1589,23.7437],[68.15,23.7224],[68.1309,23.7188],[68.1034,23.7508],[68.0914,23.7422],[68.1074,23.7215],[68.0571,23.7403],[68.034,23.7314],[68.0705,23.7716],[68.074,23.8191],[68.1177,23.8552],[68.1551,23.8411],[68.1729,23.8467],[68.1674,23.8682],[68.1836,23.8664],[68.1913,23.8114]]],[[[68.2576,23.8795],[68.2474,23.8781],[68.2581,23.8891],[68.2576,23.8795]]],[[[90.1436,23.8508],[90.176,23.8449],[90.2026,23.8593],[90.2338,23.8451],[90.2236,23.8306],[90.2054,23.8459],[90.1823,23.8309],[90.1342,23.8358],[90.0872,23.8602],[90.1157,23.8779],[90.1171,23.8942],[90.1436,23.8508]]],[[[68.224,23.8657],[68.2062,23.872],[68.2094,23.8908],[68.2387,23.8972],[68.246,23.8838],[68.224,23.8657]]],[[[89.3479,23.9105],[89.3177,23.9105],[89.3147,23.9167],[89.3479,23.9105]]],[[[89.4108,23.9434],[89.3791,23.9301],[89.3758,23.9359],[89.398,23.9505],[89.4108,23.9434]]],[[[89.7311,23.9027],[89.6953,23.9263],[89.6912,23.9558],[89.7101,23.9432],[89.7311,23.9027]]],[[[89.6775,23.9345],[89.6611,23.9621],[89.6645,23.9661],[89.6726,23.9645],[89.6775,23.9345]]],[[[89.3709,23.9642],[89.3556,23.9167],[89.3149,23.9227],[89.2906,23.9626],[89.3709,23.9642]]],[[[89.2496,23.9661],[89.2298,23.9701],[89.2358,23.956],[89.2241,23.9554],[89.1825,23.9786],[89.2246,23.9845],[89.2496,23.9661]]],[[[67.391,24.0032],[67.4239,24.0016],[67.4094,23.981],[67.391,24.0032]]],[[[89.1722,24.0144],[89.1418,24.0141],[89.1391,24.0172],[89.1568,24.0229],[89.1722,24.0144]]],[[[67.4129,24.0831],[67.413,24.1044],[67.4223,24.089],[67.4129,24.0831]]],[[[67.3591,24.3841],[67.3371,24.388],[67.3557,24.4076],[67.3591,24.3841]]],[[[67.3154,24.3885],[67.3104,24.4069],[67.3332,24.4058],[67.3337,24.3971],[67.3154,24.3885]]],[[[67.3914,24.448],[67.3774,24.4576],[67.3951,24.4534],[67.3914,24.448]]],[[[67.3529,24.4605],[67.3632,24.4356],[67.3416,24.4397],[67.3388,24.415],[67.3054,24.418],[67.3086,24.4394],[67.34,24.4415],[67.3104,24.4518],[67.3529,24.4605]]],[[[67.3728,24.4766],[67.3059,24.4559],[67.2966,24.4655],[67.3085,24.4755],[67.3728,24.4766]]],[[[67.3163,24.4933],[67.31,24.5067],[67.3236,24.5207],[67.329,24.5161],[67.3163,24.4933]]],[[[67.3364,24.5134],[67.3143,24.5317],[67.3191,24.5433],[67.348,24.5201],[67.3364,24.5134]]],[[[67.3062,24.5341],[67.3027,24.4948],[67.2567,24.5007],[67.2746,24.5199],[67.2676,24.5424],[67.288,24.55],[67.3062,24.5341]]],[[[67.3615,24.5487],[67.3505,24.5262],[67.3218,24.5493],[67.3043,24.5414],[67.2934,24.5531],[67.32,24.5705],[67.3615,24.5487]]],[[[67.2916,24.6025],[67.3029,24.5716],[67.2732,24.5487],[67.2499,24.5621],[67.2405,24.5522],[67.2163,24.5803],[67.2275,24.601],[67.2916,24.6025]]],[[[67.3093,24.6163],[67.3017,24.6231],[67.3086,24.6277],[67.3093,24.6163]]],[[[67.348,24.637],[67.3398,24.6413],[67.3479,24.6451],[67.348,24.637]]],[[[67.3353,24.6345],[67.3177,24.6065],[67.3143,24.6335],[67.3046,24.6359],[67.2933,24.6103],[67.3043,24.6555],[67.3353,24.6345]]],[[[67.3683,24.642],[67.3476,24.653],[67.3268,24.6538],[67.3556,24.6683],[67.3725,24.6576],[67.3683,24.642]]],[[[67.3033,24.686],[67.3054,24.6635],[67.2839,24.6586],[67.281,24.6853],[67.3033,24.686]]],[[[67.3467,24.6799],[67.3584,24.6905],[67.3688,24.6875],[67.3649,24.6759],[67.3467,24.6799]]],[[[67.3449,24.6861],[67.3243,24.6644],[67.3066,24.6834],[67.3199,24.6824],[67.3343,24.7004],[67.3449,24.6861]]],[[[67.2431,24.6852],[67.283,24.6509],[67.2655,24.6221],[67.2196,24.6446],[67.22,24.6627],[67.1793,24.6522],[67.1715,24.6872],[67.1831,24.7003],[67.2431,24.6852]]],[[[67.3161,24.6873],[67.2911,24.7113],[67.3208,24.6935],[67.3161,24.6873]]],[[[67.1334,24.7017],[67.1159,24.7007],[67.1158,24.7143],[67.1334,24.7017]]],[[[67.4158,24.6937],[67.4357,24.669],[67.412,24.6812],[67.3899,24.673],[67.3699,24.6945],[67.3393,24.7058],[67.4209,24.7222],[67.4158,24.6937]]],[[[67.2449,24.6913],[67.2223,24.6916],[67.1878,24.7184],[67.2122,24.7406],[67.2199,24.7147],[67.2449,24.6913]]],[[[67.3297,24.7512],[67.3465,24.7593],[67.3915,24.7204],[67.3402,24.716],[67.3272,24.7008],[67.2873,24.7155],[67.295,24.6949],[67.2725,24.6919],[67.271,24.6774],[67.2723,24.7027],[67.2481,24.7008],[67.2173,24.7399],[67.2545,24.7301],[67.2949,24.7598],[67.3297,24.7512]]],[[[67.1515,24.7631],[67.144,24.7169],[67.1329,24.7155],[67.1134,24.7708],[67.1371,24.7791],[67.1515,24.7631]]],[[[67.189,24.7281],[67.1788,24.7595],[67.2414,24.7814],[67.2482,24.7662],[67.1991,24.748],[67.189,24.7281]]],[[[67.2966,24.7954],[67.3419,24.7794],[67.326,24.759],[67.3107,24.7704],[67.2504,24.7364],[67.2352,24.7447],[67.2966,24.7954]]],[[[67.2889,24.8016],[67.257,24.7747],[67.2367,24.8034],[67.2711,24.81],[67.2889,24.8016]]],[[[67.2278,24.809],[67.1825,24.775],[67.1645,24.7845],[67.1653,24.8001],[67.2278,24.809]]],[[[67.2318,24.8155],[67.2117,24.8262],[67.2118,24.8291],[67.2264,24.8246],[67.2318,24.8155]]],[[[66.6188,24.9192],[66.5961,24.9147],[66.6062,24.9293],[66.6188,24.9192]]],[[[63.8769,25.143],[63.8418,25.1448],[63.8788,25.1506],[63.8769,25.143]]],[[[64.1073,25.441],[64.0651,25.4394],[64.1245,25.4465],[64.1073,25.441]]],[[[66.5279,25.4835],[66.5058,25.4803],[66.5285,25.4908],[66.5279,25.4835]]],[[[66.4226,25.5458],[66.3967,25.5617],[66.3953,25.5758],[66.4199,25.576],[66.4226,25.5458]]],[[[66.3516,25.5837],[66.3428,25.5856],[66.3439,25.5873],[66.3516,25.5837]]],[[[66.3873,25.5893],[66.3798,25.5869],[66.3842,25.5923],[66.3873,25.5893]]],[[[66.1976,25.5611],[66.1624,25.5645],[66.2052,25.597],[66.1938,25.5806],[66.1976,25.5611]]],[[[66.3817,25.6045],[66.3694,25.6112],[66.3709,25.6137],[66.3817,25.6045]]],[[[66.3614,25.6092],[66.35,25.6129],[66.351,25.616],[66.3614,25.6092]]],[[[89.1733,24.0238],[89.0914,24.0229],[89.0608,24.0077],[89.0936,23.9903],[89.1225,23.9441],[89.1241,23.9779],[89.1671,23.9497],[89.2341,23.9432],[89.3047,23.8934],[89.4078,23.9216],[89.4594,23.8357],[89.5057,23.8005],[89.5362,23.8191],[89.5929,23.8213],[89.6397,23.8005],[89.7017,23.8007],[89.8567,23.6843],[89.9485,23.6595],[90.0192,23.5924],[87.9737,23.1834],[86.7362,22.5656],[85.4506,22.2799],[84.842,22.214],[84.1843,21.7497],[83.9522,20.8599],[84.1456,20.3183],[83.9908,19.5445],[82.7915,18.4613],[81.3988,17.8036],[80.8184,16.9911],[80.1994,16.4495],[79.6965,15.7918],[79.3483,15.2502],[79.3096,14.7086],[79.0388,13.8574],[78.8841,13.1224],[78.3811,12.6194],[77.9169,12.0004],[77.2979,12.3099],[76.6789,12.3099],[76.0212,12.5034],[75.3635,12.6581],[74.9379,13.0837],[74.7445,13.6253],[74.8218,14.1282],[74.2415,15.2502],[73.7386,16.14],[73.4291,16.9138],[73.1583,17.8423],[72.9402,18.3026],[72.9667,18.2953],[72.9802,18.2638],[73.063,18.2415],[73.0702,18.2206],[73.0672,18.2945],[73.0525,18.3095],[73.0458,18.291],[73.0234,18.29],[72.9142,18.3728],[72.9106,18.3914],[72.9275,18.4037],[72.8901,18.4818],[72.9047,18.5622],[72.9213,18.5524],[72.9616,18.5661],[72.9202,18.5717],[72.884,18.6542],[72.898,18.6548],[72.8664,18.6678],[72.8628,18.8183],[72.9142,18.8162],[72.9356,18.8478],[72.9886,18.7997],[72.999,18.8032],[72.9859,18.829],[73.0578,18.8265],[72.9898,18.8354],[72.9821,18.8864],[72.9381,18.8708],[72.9069,18.9103],[72.9247,18.9336],[72.942,18.9181],[72.9495,18.9696],[72.9772,18.9699],[72.9539,18.9939],[73.0908,19.0226],[73.0667,19.0381],[73.0847,19.0552],[73.0644,19.053],[73.0908,19.0667],[73.0061,19.0288],[72.9844,19.0946],[72.9952,19.1107],[72.9764,19.1307],[72.9764,19.1945],[72.9642,19.1591],[72.9522,19.1612],[72.9569,19.1315],[72.9307,19.1142],[72.9472,19.0918],[72.9137,19.0982],[72.9517,19.067],[72.9034,19.0176],[72.8784,19.0464],[72.8573,19.0332],[72.8371,18.9572],[72.8032,18.9218],[72.8212,18.9557],[72.8128,18.9746],[72.792,18.968],[72.8126,19.044],[72.8597,19.084],[72.8179,19.072],[72.8248,19.1108],[72.808,19.1673],[72.7863,19.1624],[72.7814,19.1907],[72.8011,19.2214],[72.7783,19.216],[72.787,19.33],[72.8517,19.3398],[72.9155,19.3146],[72.8509,19.3669],[72.8024,19.3552],[72.7583,19.3995],[72.7663,19.4194],[72.7441,19.4841],[72.7564,19.4976],[72.7169,19.6037],[72.7187,19.6205],[72.7449,19.6264],[72.7289,19.6335],[72.7078,19.706],[72.7005,19.7527],[72.7146,19.7708],[72.694,19.7702],[72.694,19.8243],[72.7061,19.8322],[72.694,19.8316],[72.694,19.9802],[72.7249,19.9909],[72.76,19.9471],[72.7451,19.9917],[72.7216,20.004],[72.7076,20.0908],[72.731,20.1189],[72.7483,20.2211],[72.7794,20.2308],[72.7503,20.2274],[72.7951,20.3708],[72.8183,20.3895],[72.8232,20.4607],[72.8869,20.5284],[72.8793,20.5544],[72.8946,20.5534],[72.8736,20.6682],[72.9035,20.6207],[72.8864,20.6612],[72.9015,20.6667],[72.8967,20.726],[72.9087,20.7349],[72.8907,20.7437],[72.9241,20.7796],[72.9519,20.7788],[72.9425,20.7993],[72.9178,20.7937],[72.9199,20.8131],[72.91,20.8045],[72.8745,20.8253],[72.896,20.8372],[72.8756,20.8483],[72.8948,20.8903],[72.8268,20.853],[72.8547,20.8838],[72.8245,20.9067],[72.8351,20.9303],[72.8491,20.9282],[72.8239,20.945],[72.8822,20.9784],[72.8765,20.9956],[72.8913,21.0102],[72.8308,20.9972],[72.8387,21.0093],[72.8052,21.011],[72.827,21.0378],[72.7661,21.028],[72.7425,21.0007],[72.767,20.9517],[72.7473,20.9736],[72.7229,21.0504],[72.7218,21.0807],[72.7417,21.0527],[72.7856,21.0699],[72.8068,21.0485],[72.857,21.063],[72.8419,21.0775],[72.8549,21.0915],[72.8326,21.0782],[72.8227,21.1116],[72.8419,21.1375],[72.8215,21.1215],[72.8145,21.1291],[72.8304,21.1384],[72.8143,21.1429],[72.8114,21.1721],[72.8316,21.191],[72.8059,21.1735],[72.8016,21.148],[72.7904,21.1685],[72.7878,21.1338],[72.7636,21.1465],[72.7569,21.1284],[72.7443,21.15],[72.719,21.1272],[72.7302,21.1019],[72.7016,21.1187],[72.7059,21.1596],[72.7275,21.1713],[72.6739,21.182],[72.646,21.1074],[72.6318,21.1075],[72.6178,21.1624],[72.6307,21.152],[72.6467,21.1727],[72.6293,21.1576],[72.6227,21.1672],[72.6195,21.2327],[72.6817,21.2422],[72.6431,21.2735],[72.6304,21.2644],[72.6501,21.3036],[72.6188,21.326],[72.6684,21.3658],[72.7365,21.3476],[72.6962,21.3788],[72.7016,21.3962],[72.6746,21.3724],[72.6646,21.3927],[72.6528,21.3732],[72.6459,21.3865],[72.6934,21.4902],[72.6715,21.4705],[72.6379,21.4722],[72.7409,21.5895],[72.8165,21.6374],[72.8282,21.6801],[72.8455,21.6901],[72.9193,21.6716],[73.1089,21.7439],[73.0803,21.7604],[72.9438,21.6991],[72.8728,21.712],[72.8047,21.6848],[72.7776,21.6842],[72.7389,21.7099],[72.6033,21.7002],[72.5499,21.6781],[72.5362,21.6882],[72.5351,21.7491],[72.5458,21.718],[72.5756,21.7285],[72.5659,21.7566],[72.6,21.7397],[72.5857,21.7503],[72.6033,21.7801],[72.5992,21.8192],[72.6458,21.8567],[72.6544,21.915],[72.675,21.911],[72.6786,21.9358],[72.6878,21.9098],[72.7223,21.9079],[72.7187,21.9556],[72.7786,21.9756],[72.746,22.0118],[72.7719,22.0252],[72.7754,22.0406],[72.735,22.015],[72.7203,22.045],[72.7074,22.0034],[72.6933,22.009],[72.6999,21.9954],[72.6465,21.9857],[72.6488,22.0119],[72.6368,22.0266],[72.6401,21.9786],[72.6281,21.9943],[72.6332,21.9784],[72.5304,21.9262],[72.5042,21.9669],[72.5471,22.181],[72.579,22.2224],[72.6219,22.2402],[72.7465,22.2005],[72.7668,22.2174],[72.7469,22.2499],[72.6726,22.2805],[72.6273,22.2788],[72.6127,22.291],[72.6495,22.2881],[72.6288,22.2997],[72.5679,22.289],[72.6219,22.3075],[72.5708,22.2977],[72.5231,22.257],[72.4958,22.261],[72.479,22.2443],[72.4931,22.2878],[72.4597,22.2374],[72.4151,22.2387],[72.4247,22.2244],[72.4084,22.1762],[72.381,22.1777],[72.3885,22.2162],[72.3709,22.2052],[72.3689,22.1687],[72.367,22.2096],[72.3907,22.224],[72.3697,22.2172],[72.3821,22.25],[72.3704,22.3081],[72.4013,22.3487],[72.3581,22.3368],[72.342,22.281],[72.3322,22.3237],[72.3459,22.2477],[72.3116,22.2104],[72.303,22.2549],[72.2924,22.2384],[72.3209,22.1617],[72.242,22.0274],[72.2551,21.8431],[72.2391,21.819],[72.2185,21.84],[72.2081,21.8296],[72.3028,21.6494],[72.2135,21.4485],[72.112,21.3285],[72.0758,21.3462],[72.1088,21.3165],[72.097,21.3037],[72.0872,21.3131],[72.0985,21.2899],[72.0777,21.2772],[72.1071,21.2276],[72.003,21.1637],[71.8968,21.1384],[71.8756,21.1152],[71.8063,21.0921],[71.7917,21.0742],[71.8047,21.0632],[71.6397,21.0178],[71.6229,20.9927],[71.5168,20.972],[71.4596,20.9033],[71.3942,20.8857],[71.3824,20.8952],[71.382,20.8775],[71.2142,20.8279],[71.2068,20.8127],[71.1637,20.8185],[71.0508,20.7553],[70.9961,20.7559],[70.2567,21.0147],[70.1282,21.1592],[69.9905,21.2365],[69.737,21.523],[69.5945,21.6571],[69.5993,21.6762],[69.5782,21.6601],[69.3829,21.8334],[69.3688,21.8514],[69.3897,21.8747],[69.3546,21.8574],[69.2286,21.9677],[69.2007,22.0027],[69.204,22.0215],[69.1897,22.0094],[68.9574,22.262],[68.9362,22.3209],[68.9545,22.3903],[68.9871,22.4377],[69.0672,22.4971],[69.083,22.4939],[69.0443,22.4563],[69.0531,22.4227],[69.0918,22.4137],[69.1102,22.4312],[69.1346,22.4225],[69.1912,22.4413],[69.2014,22.4224],[69.1735,22.3875],[69.1622,22.3279],[69.1994,22.2924],[69.2346,22.284],[69.3081,22.3106],[69.3313,22.3498],[69.4151,22.3416],[69.4425,22.357],[69.4534,22.3394],[69.4962,22.3903],[69.5196,22.3962],[69.5154,22.4498],[69.5553,22.4127],[69.5382,22.4017],[69.5909,22.3822],[69.5761,22.3637],[69.5856,22.3572],[69.6023,22.378],[69.6192,22.3702],[69.6216,22.3888],[69.6442,22.3793],[69.6634,22.4163],[69.6937,22.4199],[69.7228,22.4999],[69.7325,22.4629],[69.7509,22.4539],[69.751,22.4654],[69.7943,22.4235],[69.8214,22.4803],[69.8654,22.4742],[69.9041,22.4944],[69.9283,22.533],[69.9579,22.5205],[69.9446,22.5463],[69.9672,22.5606],[70.1779,22.5842],[70.2419,22.7068],[70.2655,22.713],[70.2377,22.7191],[70.2559,22.7337],[70.2514,22.7562],[70.2887,22.7619],[70.3559,22.8999],[70.4429,22.9834],[70.4865,23.0764],[70.4856,23.1126],[70.4091,23.0601],[70.4029,23.0844],[70.3715,23.0825],[70.3624,23.064],[70.3746,23.0421],[70.3943,23.0299],[70.2917,22.9672],[70.2374,22.9968],[70.2032,22.9682],[70.1582,22.9654],[70.1211,22.9825],[70.1318,23.0065],[70.1208,23.009],[70.104,22.9823],[70.1328,22.958],[70.0933,22.926],[70.0647,22.9369],[69.8084,22.8701],[69.7905,22.8444],[69.7341,22.8225],[69.7163,22.7773],[69.6953,22.7895],[69.7105,22.7699],[69.6886,22.7786],[69.7062,22.7605],[69.6524,22.7818],[69.6279,22.826],[69.6366,22.7935],[69.6022,22.7974],[69.6118,22.7819],[69.596,22.7808],[69.5709,22.7855],[69.5553,22.8222],[69.5458,22.8099],[69.5019,22.8173],[69.5156,22.81],[69.5052,22.8075],[69.4542,22.824],[69.493,22.7988],[69.4671,22.7946],[69.3616,22.8433],[69.3614,22.8557],[69.2808,22.8464],[69.1975,22.8573],[68.933,23.0078],[68.8553,23.0597],[68.8515,23.0782],[68.839,23.0681],[68.8097,23.0972],[68.7461,23.1123],[68.7718,23.1414],[68.7653,23.1555],[68.7339,23.1272],[68.6376,23.1864],[68.636,23.2015],[68.6922,23.1631],[68.7255,23.1715],[68.6553,23.1913],[68.6515,23.2174],[68.6239,23.21],[68.5846,23.2449],[68.584,23.2634],[68.6458,23.282],[68.6212,23.3077],[68.6509,23.3223],[68.6146,23.3223],[68.611,23.2951],[68.5884,23.2754],[68.5406,23.2905],[68.5446,23.312],[68.5595,23.3125],[68.5525,23.336],[68.5849,23.329],[68.5844,23.3435],[68.6165,23.3482],[68.6182,23.3744],[68.6142,23.3516],[68.5609,23.3689],[68.5141,23.3439],[68.4995,23.3735],[68.4781,23.3728],[68.5051,23.4204],[68.4955,23.4262],[68.5195,23.4411],[68.4855,23.4394],[68.4738,23.4101],[68.436,23.4452],[68.4389,23.4129],[68.3937,23.4454],[68.3886,23.4784],[68.4475,23.4996],[68.4187,23.5597],[68.4555,23.5948],[68.4391,23.5922],[68.4662,23.6235],[68.4708,23.6605],[68.5457,23.7367],[68.6186,23.7727],[68.6581,23.823],[68.6794,23.8154],[68.7146,23.8479],[68.766,23.866],[68.7823,23.8844],[68.7697,23.8998],[68.7628,23.8749],[68.726,23.8607],[68.6554,23.8635],[68.5235,23.7702],[68.5192,23.7969],[68.4902,23.7565],[68.4632,23.7624],[68.4329,23.7576],[68.3763,23.6428],[68.3827,23.6317],[68.2986,23.59],[68.2657,23.5921],[68.2784,23.6242],[68.2649,23.6563],[68.225,23.6695],[68.2611,23.6785],[68.3259,23.7498],[68.291,23.7481],[68.2403,23.695],[68.1867,23.7468],[68.2112,23.7937],[68.2074,23.861],[68.2221,23.8551],[68.2408,23.8732],[68.2556,23.8588],[68.2675,23.8615],[68.2573,23.8998],[68.2747,23.9417],[68.3201,23.9412],[68.2862,23.9621],[68.2377,23.924],[68.1856,23.9101],[68.1889,23.8739],[68.1361,23.8934],[68.1421,23.8635],[68.1035,23.8793],[68.1044,23.867],[68.073,23.8585],[68.053,23.8776],[68.0553,23.9268],[68.042,23.9357],[68.0282,23.9034],[68.0446,23.8187],[68.0336,23.8118],[67.9962,23.8105],[67.9202,23.8755],[67.9298,23.8528],[67.872,23.8824],[67.8653,23.9254],[67.9027,23.9885],[67.8939,23.9989],[67.8456,23.933],[67.836,23.8484],[67.8209,23.8352],[67.709,23.88],[67.7502,23.8253],[67.652,23.8183],[67.6269,23.8326],[67.6254,23.8667],[67.5834,23.8632],[67.5762,23.9128],[67.5651,23.8921],[67.5355,23.9168],[67.5335,23.8984],[67.4696,23.9271],[67.4626,23.9443],[67.491,23.9377],[67.4855,23.9612],[67.4661,23.9692],[67.5044,23.9898],[67.4864,23.9979],[67.4224,23.9687],[67.4365,24.0145],[67.4083,24.0238],[67.4218,24.0262],[67.41,24.0659],[67.438,24.0874],[67.4184,24.1121],[67.4489,24.1406],[67.4088,24.1078],[67.3921,24.0716],[67.3626,24.1562],[67.4118,24.1471],[67.4245,24.154],[67.3695,24.1612],[67.3344,24.1963],[67.3545,24.2066],[67.3344,24.2326],[67.342,24.259],[67.4016,24.2572],[67.4208,24.2336],[67.4312,24.2452],[67.4317,24.271],[67.4212,24.2405],[67.4143,24.2578],[67.3501,24.278],[67.3613,24.2995],[67.3814,24.297],[67.3934,24.3112],[67.3585,24.3075],[67.3259,24.2687],[67.2954,24.3248],[67.3299,24.3577],[67.3596,24.3145],[67.3386,24.3561],[67.3466,24.3666],[67.4109,24.3351],[67.4421,24.3399],[67.449,24.356],[67.4906,24.3456],[67.5146,24.3662],[67.5291,24.3583],[67.5124,24.3764],[67.4873,24.3501],[67.4566,24.366],[67.4343,24.3465],[67.3665,24.3748],[67.369,24.4095],[67.4177,24.4103],[67.4229,24.3841],[67.4278,24.4156],[67.4158,24.4252],[67.3605,24.4115],[67.3491,24.4243],[67.4169,24.4605],[67.4646,24.4473],[67.4727,24.4507],[67.3902,24.4739],[67.3707,24.4605],[67.3834,24.4782],[67.3604,24.4846],[67.3951,24.5072],[67.4218,24.4882],[67.454,24.486],[67.436,24.5035],[67.4213,24.4945],[67.4039,24.5302],[67.412,24.5453],[67.3919,24.5399],[67.4022,24.5168],[67.3743,24.4959],[67.3094,24.4827],[67.3282,24.509],[67.3523,24.5035],[67.3702,24.5542],[67.3975,24.5484],[67.3987,24.5706],[67.3684,24.5598],[67.3571,24.5742],[67.4136,24.6095],[67.4396,24.5984],[67.4071,24.6132],[67.3234,24.5729],[67.304,24.577],[67.3152,24.5827],[67.299,24.6053],[67.3203,24.5995],[67.3231,24.6144],[67.371,24.6319],[67.3838,24.6615],[67.4069,24.6596],[67.4143,24.6732],[67.4405,24.6642],[67.4532,24.6775],[67.4416,24.6717],[67.4203,24.6965],[67.4325,24.722],[67.3932,24.7284],[67.3515,24.7661],[67.3493,24.7867],[67.4528,24.7999],[67.4681,24.7776],[67.4637,24.8013],[67.3755,24.8072],[67.3296,24.795],[67.2746,24.8141],[67.2456,24.8087],[67.2199,24.8379],[67.174,24.8048],[67.1547,24.8175],[67.1224,24.8026],[67.1049,24.8214],[67.1023,24.8019],[67.0908,24.8159],[67.0931,24.7807],[67.0217,24.8321],[66.9758,24.8346],[66.9736,24.8544],[66.9627,24.8488],[66.9825,24.8817],[66.9538,24.8848],[66.9122,24.8685],[66.9578,24.8497],[66.9792,24.8155],[66.862,24.8807],[66.8191,24.8582],[66.7562,24.8675],[66.6833,24.8452],[66.6514,24.8532],[66.6843,24.8995],[66.722,24.9155],[66.6869,24.9165],[66.6754,24.9474],[66.7004,24.9734],[66.7041,25.1064],[66.7386,25.166],[66.742,25.207],[66.6783,25.2949],[66.5501,25.389],[66.5553,25.416],[66.5794,25.3967],[66.5783,25.4352],[66.5942,25.4488],[66.56,25.4767],[66.5576,25.5619],[66.5289,25.566],[66.5159,25.5872],[66.5429,25.6382],[66.5393,25.668],[66.5028,25.6012],[66.4799,25.6115],[66.4672,25.5937],[66.4552,25.6432],[66.4454,25.621],[66.3991,25.6073],[66.3676,25.6397],[66.3105,25.6339],[66.2969,25.6477],[66.2322,25.6142],[66.1901,25.6231],[66.1337,25.5681],[66.1328,25.5317],[66.0919,25.5034],[66.1956,25.5127],[66.2848,25.5659],[66.3141,25.5615],[66.3088,25.5703],[66.3349,25.577],[66.358,25.5486],[66.3972,25.5454],[66.3943,25.5304],[66.4265,25.5064],[66.4752,25.5234],[66.5174,25.5159],[66.4928,25.4716],[66.5284,25.4396],[66.5133,25.4284],[66.36,25.4839],[66.2765,25.4916],[66.0391,25.4504],[66.0238,25.4675],[66.0092,25.4606],[66.0144,25.4447],[65.9549,25.437],[65.8387,25.4432],[65.773,25.4073],[65.6357,25.3733],[65.5178,25.3942],[65.5435,25.4437],[65.5057,25.3999],[65.3711,25.414],[65.3381,25.4043],[65.3189,25.4205],[65.2514,25.4029],[65.2263,25.341],[65.1564,25.3299],[64.9953,25.349],[64.8271,25.3427],[64.7806,25.3715],[64.7927,25.3477],[64.7262,25.3405],[64.6525,25.297],[64.6402,25.2293],[64.7005,25.2104],[64.6623,25.1838],[64.5846,25.1832],[64.5832,25.2051],[64.6045,25.2129],[64.611,25.2404],[64.5436,25.2943],[64.406,25.2621],[64.3405,25.3006],[64.24,25.3308],[64.2462,25.3563],[64.2233,25.3418],[64.0838,25.3532],[64.0918,25.3897],[64.1175,25.3887],[64.0809,25.4215],[64.1419,25.435],[64.1381,25.4561],[64.1651,25.4771],[64.1243,25.4628],[64.1174,25.4783],[64.0642,25.469],[64.0473,25.4552],[64.0287,25.4888],[64.0287,25.4679],[63.9915,25.4502],[64.0198,25.4487],[64.0058,25.4304],[63.9744,25.4472],[63.9678,25.4294],[63.9913,25.4337],[64.0042,25.4082],[64.0208,25.4333],[64.0361,25.4299],[64.072,25.387],[64.0643,25.3521],[63.9296,25.3609],[63.758,25.4026],[63.6059,25.3944],[63.5356,25.3695],[63.4811,25.3082],[63.4561,25.319],[63.5039,25.25],[63.4927,25.222],[63.1395,25.2815],[63.0071,25.2344],[62.6949,25.2833],[62.4945,25.2767],[62.4599,25.2535],[62.4771,25.2397],[62.4118,25.2292],[62.3562,25.1937],[62.3394,25.137],[62.3897,25.1277],[62.3769,25.1201],[62.2735,25.1219],[62.3203,25.1443],[62.3149,25.1927],[62.2651,25.2286],[62.2034,25.2389],[62.0735,25.2023],[62.0666,25.1786],[62.0985,25.1201],[61.9847,25.1335],[61.8747,25.1265],[61.8594,25.1199],[61.8449,25.0672],[61.7645,25.0567],[61.7243,25.0779],[61.7575,25.1221],[61.7477,25.1559],[61.769,25.1478],[61.7831,25.1657],[61.7791,25.2165],[61.7523,25.1927],[61.6899,25.2291],[61.6593,25.2109],[61.6337,25.2267],[61.5691,25.2085],[61.603,25.2282],[61.5627,25.2414],[61.5696,25.2643],[61.5355,25.2615],[61.5557,25.2431],[61.5284,25.2308],[61.5556,25.2167],[61.4999,25.2183],[61.5278,25.2135],[61.4889,25.2017],[61.4883,25.2162],[61.4541,25.2093],[61.4906,25.1956],[61.4918,25.1821],[61.4742,25.131],[61.4048,25.1112],[61.4146,25.0879],[61.1805,25.1497],[61.1673,25.1905],[61.0615,25.2259],[60.7419,25.2969],[60.6057,25.3121],[60.6205,25.331],[60.5911,25.3759],[60.6039,25.4023],[60.5933,25.4401],[60.5322,25.4702],[60.4297,25.4441],[60.4006,25.4045],[60.3961,25.3743],[60.4466,25.3563],[60.4389,25.3437],[60.4587,25.3163],[60.4147,25.3423],[60.3057,25.3639],[60.2947,25.4133],[60.3257,25.3943],[60.3037,25.4276],[60.2015,25.4021],[60.1852,25.3762],[60.2071,25.3582],[60.1971,25.3525],[60.1103,25.3757],[60.1081,25.3973],[60.0875,25.4061],[60.0,25.4061],[60.0,25.9715],[60.2967,25.9405],[61.7895,25.9413],[62.5639,25.9105],[65.4358,26.1283],[66.5779,26.5923],[68.023,27.0392],[68.7215,27.7762],[69.7505,29.3274],[70.0522,30.2605],[70.0936,32.1066],[70.537,33.3582],[71.103,33.7341],[71.3191,33.7447],[71.0763,34.0863],[70.7753,34.3596],[69.9811,34.4541],[68.8186,34.4257],[67.8655,34.4524],[67.3986,34.6816],[67.3947,35.0663],[67.7439,35.4991],[68.0198,35.6281],[68.9906,35.5424],[68.8764,35.5424],[73.2497,35.3355],[73.5306,35.0285],[73.5583,34.2849],[73.759,33.7721],[73.6631,33.5119],[75.0726,32.9454],[76.5717,32.5661],[76.911,32.4275],[77.2236,32.2657],[77.53,32.002],[77.7428,31.5763],[78.0608,31.2304],[78.2397,30.7958],[78.5359,29.9902],[79.7888,28.945],[80.1175,28.8195],[84.0509,27.6504],[84.8313,27.46],[86.2161,26.8819],[87.9737,26.9656],[89.5784,27.3095],[90.8391,27.3095],[91.8133,27.3668],[92.2718,26.6218],[91.9853,24.9026],[90.3858,23.7296],[90.368,23.7424],[90.3799,23.7253],[90.3421,23.7639],[90.3176,23.7588],[90.3128,23.788],[90.2986,23.7882],[90.2817,23.7604],[90.2548,23.7541],[90.2571,23.7995],[90.2298,23.9115],[90.2396,23.8508],[90.194,23.8643],[90.1518,23.8529],[90.1319,23.8912],[90.1117,23.8974],[90.1104,23.8811],[90.0572,23.8439],[90.047,23.8493],[90.0625,23.9007],[90.0468,23.9132],[90.0262,23.9055],[90.0227,23.931],[89.9481,23.9947],[89.9523,24.0084],[89.9328,24.0084],[89.9487,23.9836],[89.9378,23.9792],[90.0192,23.9174],[90.0144,23.9007],[90.0547,23.897],[90.0409,23.8516],[90.0466,23.8412],[90.0691,23.8401],[90.0887,23.8538],[90.1247,23.8309],[90.1837,23.8261],[90.2068,23.8395],[90.2226,23.8242],[90.2415,23.8387],[90.2059,23.7775],[90.221,23.7454],[90.2524,23.7448],[90.2746,23.71],[90.2557,23.7312],[90.2383,23.735],[90.2208,23.7319],[90.1813,23.7639],[90.1924,23.7441],[90.1626,23.7436],[90.1492,23.7345],[90.1219,23.7609],[90.0698,23.7817],[90.0232,23.7873],[90.0245,23.819],[90.0011,23.8382],[90.0195,23.7865],[90.1205,23.7572],[90.1335,23.7349],[90.2505,23.7296],[90.276,23.6786],[90.307,23.6718],[90.266,23.6418],[90.1308,23.6148],[90.0996,23.6437],[89.97,23.6819],[89.9179,23.7454],[89.8638,23.7689],[89.7915,23.8315],[89.7742,23.9233],[89.7688,23.9114],[89.7046,23.9817],[89.7275,24.0014],[89.7208,24.0238],[89.7153,23.9956],[89.6983,23.9883],[89.7051,24.0229],[89.6707,24.0238],[89.6557,23.9599],[89.7033,23.8987],[89.7513,23.8897],[89.7708,23.8597],[89.7571,23.8711],[89.7242,23.8582],[89.6802,23.8864],[89.7179,23.8557],[89.6297,23.8694],[89.5468,23.8479],[89.4497,23.8944],[89.4256,23.9371],[89.3865,23.9669],[89.3288,23.9725],[89.2758,24.0119],[89.3167,23.9742],[89.2926,23.9692],[89.2414,24.0051],[89.1733,24.0238]]]]}}