{"type":"Feature","properties":{"speciesId":286,"category":"LC","source":"IUCN Red List","simplifyTol":0.01,"clippedToSubcontinent":true},"geometry":{"type":"MultiPolygon","coordinates":[[[[96.8681,4.0],[96.8812,4.0103],[96.9011,4.0016],[96.8681,4.0]]],[[[96.7665,4.1042],[96.7782,4.0904],[96.7533,4.0988],[96.7665,4.1042]]],[[[96.3434,4.0943],[96.3339,4.0893],[96.2971,4.1017],[96.3149,4.1129],[96.3434,4.0943]]],[[[96.7848,4.2213],[96.7684,4.2217],[96.7434,4.2336],[96.7573,4.2394],[96.7848,4.2213]]],[[[96.5692,4.227],[96.5614,4.2343],[96.5509,4.248],[96.5689,4.2385],[96.5692,4.227]]],[[[96.1008,4.2866],[96.1273,4.2736],[96.0976,4.2766],[96.1008,4.2866]]],[[[96.1868,4.4777],[96.2,4.4842],[96.2252,4.4514],[96.2217,4.4829],[96.2568,4.4835],[96.2881,4.4627],[96.293,4.4172],[96.2643,4.4409],[96.2513,4.4276],[96.2682,4.4101],[96.2631,4.3907],[96.2883,4.3919],[96.2995,4.4124],[96.4098,4.3336],[96.5,4.3245],[96.5154,4.3098],[96.4741,4.3258],[96.466,4.3117],[96.4819,4.3191],[96.5239,4.3006],[96.4985,4.298],[96.515,4.2783],[96.5317,4.2859],[96.5379,4.2644],[96.4827,4.2474],[96.4933,4.2127],[96.5274,4.2259],[96.5782,4.1923],[96.5692,4.2213],[96.5935,4.2169],[96.6406,4.1603],[96.7298,4.1301],[96.7306,4.0992],[96.7615,4.0833],[96.7693,4.0345],[96.7946,4.0383],[96.7817,4.0621],[96.7933,4.0875],[96.8108,4.056],[96.8126,4.0671],[96.8527,4.0359],[96.862,4.0],[96.6434,4.0056],[96.4675,4.1392],[96.4,4.1615],[96.3741,4.1354],[96.3507,4.1552],[96.3301,4.1327],[96.2933,4.1691],[96.2643,4.1722],[96.2415,4.2031],[96.2163,4.1897],[96.2016,4.2116],[96.1781,4.1998],[96.1649,4.2507],[96.1084,4.3118],[96.1176,4.3271],[96.1063,4.3337],[96.0837,4.3124],[96.0768,4.3449],[96.1033,4.3967],[96.1716,4.3977],[96.1798,4.4106],[96.1487,4.4152],[96.1467,4.4316],[96.1677,4.4932],[96.1871,4.4961],[96.1868,4.4777]]],[[[95.7917,4.5367],[95.7809,4.5592],[95.7873,4.5646],[95.7917,4.5367]]],[[[97.5884,5.1511],[97.5765,5.1603],[97.5769,5.1653],[97.5884,5.1511]]],[[[97.5477,5.2117],[97.5273,5.2057],[97.57,5.1904],[97.5722,5.1386],[97.6018,5.1419],[97.611,5.1139],[97.6525,5.1197],[97.648,5.0751],[97.806,4.9341],[97.9036,4.8846],[97.9619,4.7262],[97.9615,4.668],[97.9946,4.6349],[98.0,4.5929],[97.9604,4.5316],[97.9823,4.5447],[98.0,4.5268],[98.0,4.4208],[97.9664,4.4698],[97.9294,4.4635],[97.8799,4.4945],[97.825,4.4996],[97.7647,4.5529],[97.7091,4.6314],[97.6419,4.8006],[97.5564,4.8333],[97.3851,5.1256],[97.2922,5.1761],[97.4967,5.2537],[97.5477,5.2117]]],[[[97.998,4.6246],[98.0,4.6279],[98.0,4.6171],[97.998,4.6246]]],[[[92.7522,20.3624],[92.7468,20.3513],[92.7418,20.3584],[92.7522,20.3624]]],[[[92.8392,20.3844],[92.9108,20.3717],[92.9376,20.382],[92.877,20.3469],[92.8681,20.3551],[92.8681,20.3417],[92.8392,20.3844]]],[[[92.8766,20.4023],[92.8882,20.3848],[92.8454,20.3947],[92.8766,20.4023]]],[[[92.8278,20.4109],[92.8169,20.4066],[92.8166,20.4091],[92.8278,20.4109]]],[[[92.7623,20.4322],[92.8214,20.4216],[92.8122,20.4063],[92.8593,20.3366],[92.8305,20.3199],[92.8128,20.3389],[92.801,20.3041],[92.7647,20.3199],[92.7623,20.4322]]],[[[92.8048,20.4859],[92.7789,20.4549],[92.7891,20.4417],[92.7636,20.4417],[92.7559,20.4701],[92.7683,20.4705],[92.7972,20.4995],[92.8048,20.4859]]],[[[93.0492,20.4469],[93.0736,20.4913],[93.0899,20.5061],[93.1015,20.4772],[93.0492,20.4469]]],[[[92.7219,20.5749],[92.7008,20.5817],[92.6991,20.6049],[92.7219,20.5749]]],[[[92.3262,20.5853],[92.3129,20.627],[92.3212,20.6346],[92.3296,20.5991],[92.3262,20.5853]]],[[[92.6335,20.6965],[92.6086,20.6838],[92.5844,20.7087],[92.6185,20.7141],[92.6353,20.7243],[92.6335,20.6965]]],[[[92.3511,20.7187],[92.3599,20.7178],[92.3431,20.7244],[92.3511,20.7187]]],[[[92.5627,20.7432],[92.5806,20.749],[92.5749,20.7317],[92.5864,20.7294],[92.5754,20.7211],[92.5491,20.7402],[92.5512,20.757],[92.5627,20.7432]]],[[[92.2969,20.9277],[92.2813,20.9476],[92.3007,20.9774],[92.3098,20.9528],[92.2969,20.9277]]],[[[92.3326,20.9939],[92.3552,20.9436],[92.3145,20.9072],[92.3036,20.9269],[92.3159,20.9543],[92.3067,20.9822],[92.3326,20.9939]]],[[[92.2638,21.0272],[92.2566,21.0234],[92.2613,21.0311],[92.2638,21.0272]]],[[[92.2201,21.109],[92.211,21.1081],[92.2168,21.1148],[92.2201,21.109]]],[[[92.2179,21.1304],[92.2124,21.1257],[92.2076,21.1318],[92.2179,21.1304]]],[[[92.0109,21.5983],[92.0041,21.6176],[92.0071,21.6241],[92.0135,21.6135],[92.0109,21.5983]]],[[[92.0072,21.6281],[92.0021,21.6463],[92.0303,21.6683],[92.0347,21.6491],[92.0072,21.6281]]],[[[88.7011,21.7183],[88.6948,21.7125],[88.6971,21.7184],[88.7011,21.7183]]],[[[89.3542,21.7008],[89.3353,21.6995],[89.3422,21.7214],[89.3542,21.7008]]],[[[91.9741,21.509],[91.9479,21.4896],[91.9017,21.5093],[91.9114,21.4757],[91.8969,21.4671],[91.8684,21.4885],[91.8587,21.5221],[91.8821,21.557],[91.8742,21.6069],[91.8913,21.6376],[91.8851,21.6807],[91.9399,21.735],[91.9586,21.6702],[91.9876,21.6301],[91.9741,21.509]]],[[[90.3603,21.7406],[90.3554,21.7449],[90.3622,21.7465],[90.3603,21.7406]]],[[[89.2843,21.7036],[89.2613,21.6969],[89.2926,21.6939],[89.2953,21.6711],[89.2631,21.65],[89.1998,21.6592],[89.2319,21.7014],[89.2199,21.7399],[89.2401,21.7552],[89.2917,21.7472],[89.2843,21.7036]]],[[[91.9416,21.7483],[91.9207,21.7299],[91.9145,21.7585],[91.9416,21.7483]]],[[[91.8806,21.6342],[91.8524,21.6604],[91.8884,21.7621],[91.9121,21.7467],[91.9045,21.7087],[91.8799,21.6822],[91.8806,21.6342]]],[[[90.4467,21.7712],[90.4403,21.7679],[90.4396,21.7701],[90.4467,21.7712]]],[[[91.9443,21.7597],[91.9078,21.7618],[91.8934,21.7677],[91.9417,21.7736],[91.9443,21.7597]]],[[[88.627,21.7357],[88.5878,21.7492],[88.5729,21.7718],[88.5897,21.775],[88.5909,21.7566],[88.627,21.7357]]],[[[88.6375,21.7321],[88.5968,21.7582],[88.5998,21.7841],[88.6294,21.7804],[88.6375,21.7321]]],[[[88.5304,21.782],[88.5153,21.7781],[88.5298,21.7965],[88.5304,21.782]]],[[[88.5747,21.7536],[88.5281,21.7696],[88.5469,21.8165],[88.5779,21.7923],[88.5666,21.7684],[88.5747,21.7536]]],[[[89.7904,21.8225],[89.7773,21.8151],[89.7733,21.8198],[89.7904,21.8225]]],[[[88.4963,21.7989],[88.4767,21.8204],[88.487,21.8347],[88.5072,21.8212],[88.4963,21.7989]]],[[[90.4365,21.8359],[90.4281,21.8175],[90.4142,21.8272],[90.4365,21.8359]]],[[[90.3173,21.8476],[90.3152,21.8232],[90.2964,21.835],[90.3173,21.8476]]],[[[89.6231,21.7109],[89.5581,21.7187],[89.5646,21.7513],[89.5313,21.8231],[89.5459,21.8493],[89.6102,21.7968],[89.5922,21.7519],[89.6231,21.7109]]],[[[88.6137,21.7971],[88.5834,21.8142],[88.6003,21.8509],[88.622,21.8302],[88.6137,21.7971]]],[[[89.7771,21.856],[89.7591,21.849],[89.7553,21.8507],[89.7771,21.856]]],[[[90.51,21.8506],[90.5028,21.868],[90.538,21.8673],[90.531,21.8569],[90.51,21.8506]]],[[[89.3747,21.8824],[89.347,21.8143],[89.3432,21.7813],[89.3406,21.8292],[89.3284,21.8442],[89.329,21.8185],[89.3202,21.8415],[89.3747,21.8824]]],[[[89.6582,21.8587],[89.6452,21.8736],[89.6541,21.8891],[89.6633,21.8709],[89.6582,21.8587]]],[[[90.5626,21.8832],[90.5542,21.8824],[90.5613,21.8976],[90.5626,21.8832]]],[[[88.642,21.8673],[88.6618,21.87],[88.6451,21.7857],[88.6272,21.7976],[88.627,21.8319],[88.601,21.8612],[88.6242,21.8974],[88.642,21.8673]]],[[[88.4991,21.8986],[88.4961,21.9076],[88.5028,21.9081],[88.4991,21.8986]]],[[[91.894,21.8587],[91.8783,21.8216],[91.8714,21.8878],[91.8567,21.8746],[91.8745,21.8059],[91.8311,21.7169],[91.8467,21.8128],[91.8409,21.8963],[91.868,21.9222],[91.894,21.8587]]],[[[88.657,21.8745],[88.6408,21.8761],[88.6271,21.9038],[88.6414,21.9224],[88.6735,21.917],[88.657,21.8745]]],[[[90.5781,21.9243],[90.5651,21.9237],[90.5727,21.9301],[90.5781,21.9243]]],[[[90.6378,21.8985],[90.6209,21.9111],[90.6282,21.9359],[90.6555,21.9128],[90.6378,21.8985]]],[[[90.3972,21.9326],[90.3869,21.9302],[90.3941,21.9377],[90.3972,21.9326]]],[[[89.9725,21.9238],[89.9434,21.9296],[89.9606,21.9471],[89.9725,21.9238]]],[[[90.654,21.9222],[90.6288,21.9403],[90.6301,21.944],[90.6494,21.9476],[90.654,21.9222]]],[[[90.5431,21.8757],[90.5061,21.8778],[90.5093,21.9068],[90.5244,21.9406],[90.5607,21.9596],[90.5707,21.9475],[90.5456,21.9173],[90.5563,21.8993],[90.5431,21.8757]]],[[[89.5431,21.868],[89.5446,21.9589],[89.5495,21.9638],[89.565,21.9289],[89.5431,21.868]]],[[[90.3961,21.958],[90.3883,21.9603],[90.3958,21.9656],[90.3961,21.958]]],[[[90.0787,21.9526],[90.0953,21.9352],[90.0873,21.9],[90.1036,21.8865],[90.0644,21.8363],[90.0426,21.8319],[90.0194,21.8484],[90.0414,21.8442],[90.0217,21.8907],[90.0245,21.9466],[90.077,21.972],[90.0787,21.9526]]],[[[90.7172,21.9585],[90.7036,21.9613],[90.7099,21.9727],[90.7172,21.9585]]],[[[90.5146,21.9812],[90.4932,21.9323],[90.5012,21.9562],[90.4898,21.9609],[90.5146,21.9812]]],[[[90.3077,21.9587],[90.2712,21.8834],[90.2458,21.8987],[90.2753,21.9426],[90.2679,21.9696],[90.2862,21.9815],[90.3077,21.9587]]],[[[90.3303,21.9661],[90.3234,21.9739],[90.3317,21.9815],[90.3303,21.9661]]],[[[90.3851,21.9977],[90.355,21.8667],[90.3128,21.8557],[90.3036,21.8658],[90.3366,21.9548],[90.3496,21.9564],[90.3716,21.9963],[90.3851,21.9977]]],[[[90.5536,21.9927],[90.548,21.9916],[90.5577,22.0054],[90.5536,21.9927]]],[[[90.6835,21.9899],[90.6699,21.9968],[90.6687,22.0055],[90.6793,22.0038],[90.6835,21.9899]]],[[[88.6834,22.0024],[88.7183,22.0018],[88.7011,21.9599],[88.6871,21.9454],[88.6418,21.9509],[88.647,22.0036],[88.6639,22.0153],[88.6834,22.0024]]],[[[88.6877,22.0147],[88.6742,22.014],[88.6743,22.0171],[88.6877,22.0147]]],[[[90.5512,22.0073],[90.558,22.0227],[90.5618,22.0205],[90.5627,22.0093],[90.5512,22.0073]]],[[[90.5155,21.9906],[90.4996,21.9977],[90.5072,22.0115],[90.5409,22.027],[90.5155,21.9906]]],[[[90.4039,22.0148],[90.3995,22.0273],[90.4015,22.0338],[90.4074,22.0266],[90.4039,22.0148]]],[[[90.4543,22.0273],[90.4715,21.9969],[90.4579,21.9207],[90.4001,21.8996],[90.4216,22.016],[90.4129,22.0321],[90.4543,22.0273]]],[[[90.4401,22.0439],[90.4316,22.0338],[90.4136,22.0404],[90.4401,22.0439]]],[[[90.6684,22.028],[90.6566,22.0346],[90.6579,22.0479],[90.6684,22.028]]],[[[90.6221,21.9849],[90.6115,21.9988],[90.6455,22.0513],[90.6481,22.0182],[90.6221,21.9849]]],[[[90.6855,22.0187],[90.6742,22.0232],[90.6691,22.0671],[90.7015,22.0616],[90.6855,22.0187]]],[[[90.3447,21.9619],[90.341,21.9894],[90.3518,22.0194],[90.3958,22.0706],[90.4087,22.0466],[90.3447,21.9619]]],[[[90.6646,22.067],[90.6559,22.0635],[90.6674,22.0801],[90.6646,22.067]]],[[[91.0491,22.0834],[91.0363,22.0839],[91.0367,22.0863],[91.0491,22.0834]]],[[[90.7527,22.0551],[90.7607,22.0875],[90.7763,22.0943],[90.7704,22.0781],[90.7527,22.0551]]],[[[90.5496,22.0163],[90.5394,22.007],[90.5491,22.0314],[90.5201,22.0312],[90.4915,22.0106],[90.5574,22.0982],[90.5496,22.0163]]],[[[90.3502,22.0981],[90.3751,22.0964],[90.3757,22.0796],[90.329,22.0288],[90.3076,21.9737],[90.2821,21.985],[90.284,22.0554],[90.3145,22.0777],[90.3159,22.086],[90.3473,22.0893],[90.3372,22.1034],[90.3502,22.0981]]],[[[90.4844,22.0437],[90.4821,22.0755],[90.5167,22.1057],[90.523,22.0807],[90.4844,22.0437]]],[[[91.0757,22.1064],[91.0613,22.1034],[91.0744,22.1086],[91.0757,22.1064]]],[[[90.5522,22.1054],[90.5056,22.0443],[90.531,22.0858],[90.5252,22.1097],[90.542,22.1173],[90.5522,22.1054]]],[[[90.5935,22.1025],[90.593,22.1161],[90.5964,22.1176],[90.5935,22.1025]]],[[[91.0842,22.128],[91.0542,22.1017],[91.0344,22.1048],[91.0576,22.1273],[91.0842,22.128]]],[[[90.6614,22.0905],[90.6315,22.0708],[90.633,22.0481],[90.6158,22.0458],[90.6238,22.0883],[90.6057,22.0544],[90.6228,22.0354],[90.6062,22.0237],[90.5951,22.0693],[90.6162,22.1069],[90.6394,22.1289],[90.6644,22.1249],[90.6614,22.0905]]],[[[90.5848,22.117],[90.5773,22.128],[90.5933,22.1292],[90.5954,22.1267],[90.5848,22.117]]],[[[91.0838,22.1321],[91.0693,22.1388],[91.0842,22.1351],[91.0838,22.1321]]],[[[91.0936,22.1349],[91.0677,22.1422],[91.0397,22.1309],[91.0462,22.1754],[91.103,22.1569],[91.0936,22.1349]]],[[[90.5107,22.1361],[90.5097,22.1749],[90.5449,22.1737],[90.5386,22.1519],[90.5107,22.1361]]],[[[90.6168,22.1767],[90.6113,22.1743],[90.6161,22.1831],[90.6168,22.1767]]],[[[88.186,22.139],[88.1418,22.1874],[88.1499,22.1823],[88.186,22.139]]],[[[91.0396,22.1839],[91.0333,22.1946],[91.0382,22.2043],[91.0461,22.1954],[91.0396,22.1839]]],[[[90.9512,22.1168],[90.9211,22.1356],[90.9219,22.1646],[90.9521,22.213],[90.9512,22.1168]]],[[[90.9265,22.1974],[90.9272,22.2134],[90.9348,22.215],[90.9348,22.207],[90.9265,22.1974]]],[[[90.8322,22.1853],[90.8307,22.2096],[90.8394,22.2206],[90.8406,22.217],[90.8322,22.1853]]],[[[91.8215,22.2134],[91.8151,22.214],[91.8227,22.2236],[91.8215,22.2134]]],[[[90.5462,22.1889],[90.5387,22.1974],[90.5654,22.2313],[90.5677,22.2145],[90.5462,22.1889]]],[[[90.9819,22.1761],[90.9751,22.2175],[90.9954,22.2463],[91.0004,22.2371],[90.9819,22.1761]]],[[[90.575,22.2311],[90.5686,22.2396],[90.5825,22.2508],[90.5841,22.2483],[90.575,22.2311]]],[[[89.8708,22.2377],[89.8616,22.2442],[89.8619,22.258],[89.8699,22.2497],[89.8708,22.2377]]],[[[90.9792,22.2365],[90.9827,22.251],[90.9913,22.2609],[90.989,22.2459],[90.9792,22.2365]]],[[[91.8201,22.2775],[91.7995,22.2839],[91.806,22.2983],[91.8201,22.2775]]],[[[90.2892,22.3548],[90.2713,22.3515],[90.2864,22.3644],[90.2892,22.3548]]],[[[90.9519,22.218],[90.9299,22.2287],[90.9681,22.3788],[90.9911,22.3296],[90.9519,22.218]]],[[[90.6486,22.3674],[90.6295,22.4056],[90.632,22.4123],[90.6489,22.3871],[90.6486,22.3674]]],[[[90.6552,22.4054],[90.6487,22.4076],[90.6505,22.4138],[90.6552,22.4054]]],[[[90.6476,22.4201],[90.6393,22.4252],[90.6408,22.4303],[90.6476,22.4201]]],[[[91.167,22.4276],[91.2002,22.4298],[91.1957,22.4072],[91.167,22.4276]]],[[[91.0338,22.4077],[91.0155,22.4168],[91.0224,22.4471],[91.0381,22.4262],[91.0338,22.4077]]],[[[90.6322,22.3575],[90.5965,22.4487],[90.6059,22.463],[90.6258,22.4422],[90.6322,22.3575]]],[[[90.9897,22.476],[90.9955,22.4486],[90.9735,22.463],[90.9897,22.476]]],[[[91.022,22.4838],[91.0099,22.4991],[91.0285,22.5053],[91.0316,22.4949],[91.022,22.4838]]],[[[91.1757,22.3359],[91.1828,22.2711],[91.1556,22.1843],[91.1222,22.1649],[91.1191,22.1934],[91.1011,22.2106],[91.1115,22.1597],[91.0505,22.1794],[91.0519,22.4201],[91.0269,22.4766],[91.0408,22.508],[91.1223,22.492],[91.1369,22.3951],[91.1757,22.3359]]],[[[90.6512,22.5029],[90.6436,22.5073],[90.6452,22.5117],[90.6512,22.5029]]],[[[91.2106,22.4958],[91.1976,22.5092],[91.1975,22.5129],[91.2093,22.5065],[91.2106,22.4958]]],[[[91.192,22.4721],[91.1542,22.4888],[91.1388,22.5159],[91.1756,22.5187],[91.1942,22.4985],[91.192,22.4721]]],[[[90.6556,22.4599],[90.6239,22.5069],[90.6136,22.5392],[90.6334,22.5244],[90.6556,22.4599]]],[[[91.0309,22.5557],[91.0189,22.5533],[91.0318,22.5594],[91.0309,22.5557]]],[[[90.5632,22.6057],[90.5577,22.6218],[90.5575,22.628],[90.5686,22.6208],[90.5632,22.6057]]],[[[91.2507,22.6313],[91.2979,22.574],[91.3048,22.5574],[91.2913,22.5408],[91.2517,22.5395],[91.2314,22.5666],[91.215,22.6366],[91.2507,22.6313]]],[[[91.5582,22.4111],[91.5161,22.3469],[91.4849,22.3429],[91.4551,22.3987],[91.4007,22.4361],[91.3798,22.4944],[91.3921,22.564],[91.3567,22.66],[91.3808,22.6624],[91.4506,22.6247],[91.5454,22.4693],[91.5582,22.4111]]],[[[91.1199,22.5624],[91.0996,22.5702],[91.0918,22.5984],[91.141,22.6642],[91.1719,22.6049],[91.1574,22.5798],[91.1199,22.5624]]],[[[91.2964,22.6764],[91.2806,22.6642],[91.2851,22.6791],[91.2964,22.6764]]],[[[90.8217,22.6601],[90.7937,22.659],[90.7931,22.6879],[90.8157,22.6838],[90.8217,22.6601]]],[[[91.1284,22.6708],[91.0886,22.5983],[91.0853,22.553],[91.0658,22.569],[91.0582,22.6391],[91.0449,22.6359],[91.0554,22.6978],[91.1122,22.7],[91.1284,22.6708]]],[[[91.0417,22.6769],[91.0194,22.6926],[91.0181,22.7025],[91.0462,22.7046],[91.0417,22.6769]]],[[[90.8021,22.7146],[90.7921,22.7154],[90.7923,22.7182],[90.8021,22.7146]]],[[[90.4893,22.7199],[90.4786,22.7281],[90.4747,22.7461],[90.4833,22.7413],[90.4893,22.7199]]],[[[91.268,22.7307],[91.2995,22.7044],[91.2707,22.6674],[91.2165,22.7007],[91.2357,22.7099],[91.2122,22.7042],[91.1311,22.7361],[91.1898,22.7493],[91.268,22.7307]]],[[[91.3411,22.7184],[91.3104,22.7451],[91.3124,22.7514],[91.3474,22.7548],[91.3544,22.7304],[91.3411,22.7184]]],[[[90.5747,22.7445],[90.5676,22.7785],[90.6003,22.7771],[90.5747,22.7445]]],[[[90.7707,22.6464],[90.8678,22.5181],[90.8889,22.445],[90.8462,22.2419],[90.8319,22.2192],[90.8082,22.2193],[90.8254,22.1984],[90.8024,22.2081],[90.796,22.246],[90.7981,22.2038],[90.8209,22.1843],[90.7784,22.186],[90.8194,22.1776],[90.8219,22.1395],[90.7919,22.1083],[90.7958,22.1457],[90.783,22.1074],[90.7622,22.1112],[90.7168,22.0527],[90.7086,22.0646],[90.7371,22.132],[90.7058,22.0721],[90.6749,22.0707],[90.6781,22.1053],[90.6991,22.1114],[90.6703,22.1264],[90.6957,22.1379],[90.6597,22.1332],[90.6338,22.1481],[90.6334,22.1324],[90.6198,22.1325],[90.6111,22.1582],[90.6706,22.2784],[90.6689,22.4825],[90.6066,22.6012],[90.5888,22.6067],[90.6186,22.5467],[90.5729,22.5947],[90.5746,22.6194],[90.5634,22.6408],[90.5889,22.6338],[90.5796,22.6542],[90.5439,22.6283],[90.539,22.641],[90.5792,22.7219],[90.6594,22.7846],[90.7309,22.7736],[90.7707,22.6464]]],[[[90.4576,22.7485],[90.4348,22.7706],[90.4527,22.7883],[90.4796,22.7568],[90.4576,22.7485]]],[[[90.5473,22.7143],[90.5288,22.6841],[90.4885,22.7697],[90.5006,22.7921],[90.5482,22.768],[90.5473,22.7143]]],[[[90.9414,22.8032],[91.0171,22.7208],[91.0126,22.7056],[90.9757,22.7222],[90.9658,22.7155],[91.0357,22.6706],[91.0292,22.6419],[91.06,22.5964],[91.0553,22.5807],[91.0512,22.5934],[91.0248,22.5766],[91.0438,22.5696],[90.9943,22.5409],[90.955,22.5481],[90.9256,22.5787],[90.9401,22.5911],[90.9144,22.5899],[90.8618,22.6339],[90.8337,22.7293],[90.7969,22.7739],[90.8751,22.8055],[90.9414,22.8032]]],[[[90.6604,22.8159],[90.6197,22.783],[90.5955,22.7887],[90.6604,22.8159]]],[[[90.7021,22.8276],[90.6815,22.8128],[90.6665,22.8261],[90.7021,22.8276]]],[[[90.4706,22.8074],[90.4526,22.8264],[90.4843,22.8343],[90.4912,22.8191],[90.4706,22.8074]]],[[[90.6322,22.838],[90.639,22.8478],[90.6454,22.8492],[90.6453,22.8443],[90.6322,22.838]]],[[[90.6937,22.8538],[90.67,22.8458],[90.6796,22.8543],[90.6937,22.8538]]],[[[90.6521,22.8487],[90.6554,22.8821],[90.6724,22.8819],[90.6623,22.8542],[90.6521,22.8487]]],[[[90.6438,22.8594],[90.5568,22.7903],[90.4846,22.8396],[90.4608,22.8402],[90.4824,22.867],[90.5329,22.8745],[90.5502,22.8971],[90.5535,22.9442],[90.6496,22.8941],[90.6438,22.8594]]],[[[90.6388,22.9635],[90.6342,22.959],[90.6318,22.9651],[90.6388,22.9635]]],[[[90.3481,22.9398],[90.301,22.9519],[90.2948,22.9664],[90.3136,22.9686],[90.3481,22.9398]]],[[[90.368,22.9212],[90.3518,22.9514],[90.3227,22.9696],[90.3564,22.9623],[90.368,22.9212]]],[[[90.6884,22.9553],[90.6683,22.9639],[90.6485,22.9847],[90.6803,22.9808],[90.6884,22.9553]]],[[[90.4512,22.9721],[90.4551,23.0016],[90.5389,22.9578],[90.5453,22.9077],[90.5236,22.8788],[90.4671,22.8659],[90.4447,22.8264],[90.4491,22.8052],[90.4274,22.8167],[90.4278,22.8417],[90.3951,22.8281],[90.3898,22.839],[90.4218,22.8989],[90.4173,22.9163],[90.3845,22.856],[90.3951,22.7999],[90.4151,22.7819],[90.3844,22.7899],[90.42,22.7752],[90.3999,22.7644],[90.3323,22.8477],[90.3807,22.9076],[90.3533,22.9932],[90.4309,22.9917],[90.4512,22.9721]]],[[[90.4295,22.9979],[90.4198,23.0042],[90.4418,23.0056],[90.4295,22.9979]]],[[[90.4052,23.0052],[90.3919,23.0089],[90.4172,23.0099],[90.4052,23.0052]]],[[[90.5067,23.0154],[90.5003,23.0214],[90.5044,23.0251],[90.5067,23.0154]]],[[[90.496,23.0157],[90.4733,23.0279],[90.4772,23.042],[90.496,23.0157]]],[[[90.5628,22.9968],[90.5357,23.0213],[90.5551,23.048],[90.5669,23.0068],[90.5628,22.9968]]],[[[90.3079,23.0375],[90.2751,23.039],[90.2918,23.0496],[90.3079,23.0375]]],[[[90.5048,23.0334],[90.491,23.0532],[90.5057,23.0637],[90.5083,23.062],[90.5048,23.0334]]],[[[90.5266,23.0634],[90.5192,23.06],[90.5234,23.0689],[90.5266,23.0634]]],[[[90.5131,23.0812],[90.5003,23.1001],[90.5168,23.1384],[90.5241,23.0914],[90.5131,23.0812]]],[[[90.4691,23.1551],[90.4774,23.1301],[90.4571,23.1226],[90.4691,23.1551]]],[[[90.5338,23.169],[90.5449,23.1982],[90.5412,23.1433],[90.5221,23.1767],[90.5317,23.2004],[90.5338,23.169]]],[[[90.4922,23.0819],[90.4684,23.097],[90.4477,23.0556],[90.4435,23.1068],[90.4907,23.1312],[90.4643,23.1914],[90.4687,23.2012],[90.4724,23.1855],[90.5053,23.1688],[90.4922,23.0819]]],[[[90.5569,23.1601],[90.5541,23.1765],[90.5756,23.2083],[90.5761,23.1787],[90.5569,23.1601]]],[[[90.5566,23.1903],[90.5544,23.2059],[90.5569,23.2114],[90.5661,23.2048],[90.5566,23.1903]]],[[[90.5963,23.2287],[90.5835,23.218],[90.5954,23.2312],[90.5963,23.2287]]],[[[90.6188,23.2298],[90.6138,23.2315],[90.6161,23.2364],[90.6188,23.2298]]],[[[90.5704,23.2357],[90.5578,23.2282],[90.5631,23.2392],[90.5704,23.2357]]],[[[90.5803,23.239],[90.5713,23.2467],[90.5838,23.26],[90.586,23.2534],[90.5803,23.239]]],[[[90.6232,23.2389],[90.6198,23.2581],[90.6207,23.2617],[90.6334,23.2534],[90.6232,23.2389]]],[[[90.5699,23.3181],[90.5699,23.308],[90.5656,23.3198],[90.5699,23.3181]]],[[[90.5526,23.3295],[90.5583,23.3138],[90.5449,23.3286],[90.5526,23.3295]]],[[[90.1766,23.3369],[90.2574,23.3069],[90.2334,23.2961],[90.2286,23.2652],[90.1662,23.2687],[90.1826,23.2415],[90.1276,23.2454],[90.1311,23.2632],[90.1245,23.2738],[90.0892,23.2811],[90.1766,23.3369]]],[[[90.4511,23.3395],[90.5188,23.3285],[90.552,23.2822],[90.5409,23.2371],[90.5004,23.1797],[90.4761,23.1948],[90.5004,23.2449],[90.4938,23.299],[90.4511,23.3395]]],[[[90.591,23.3393],[90.5829,23.3499],[90.5832,23.3552],[90.5857,23.3557],[90.591,23.3393]]],[[[90.6816,23.3461],[90.6734,23.3486],[90.6783,23.3582],[90.6816,23.3461]]],[[[90.542,23.3558],[90.5275,23.3583],[90.5293,23.3648],[90.542,23.3558]]],[[[90.3749,23.3544],[90.4122,23.3025],[90.4839,23.2994],[90.4857,23.2465],[90.4622,23.2026],[90.4646,23.2254],[90.4534,23.2116],[90.4659,23.1672],[90.4326,23.0911],[90.4477,23.028],[90.3609,23.0111],[90.3426,22.9819],[90.326,22.9816],[90.3087,23.0538],[90.3259,23.0679],[90.3326,23.1087],[90.3229,23.1024],[90.2729,23.1468],[90.267,23.1328],[90.2905,23.1207],[90.2538,23.1253],[90.2444,23.1379],[90.2657,23.1601],[90.2142,23.1915],[90.1842,23.1708],[90.1781,23.1892],[90.2071,23.2097],[90.2108,23.224],[90.1721,23.262],[90.233,23.2607],[90.2526,23.2882],[90.24,23.2931],[90.2866,23.3161],[90.2985,23.35],[90.327,23.366],[90.3749,23.3544]]],[[[90.4849,23.346],[90.4467,23.3667],[90.4464,23.3699],[90.4849,23.346]]],[[[90.3463,23.3767],[90.3214,23.3768],[90.2989,23.3679],[90.3205,23.3807],[90.3463,23.3767]]],[[[90.1966,23.3718],[90.1883,23.3811],[90.1896,23.386],[90.1966,23.3718]]],[[[90.5606,23.3717],[90.5464,23.3722],[90.5471,23.3864],[90.5529,23.3901],[90.5606,23.3717]]],[[[90.4864,23.3686],[90.4649,23.3665],[90.4238,23.3903],[90.443,23.395],[90.4864,23.3686]]],[[[90.4352,23.3119],[90.3716,23.3623],[90.349,23.3965],[90.4372,23.3544],[90.4539,23.3185],[90.4352,23.3119]]],[[[90.4506,23.3978],[90.4948,23.3982],[90.501,23.3839],[90.4506,23.3978]]],[[[90.4177,23.394],[90.3949,23.4],[90.3924,23.4059],[90.4093,23.4048],[90.4177,23.394]]],[[[90.184,23.3987],[90.1658,23.4199],[90.1682,23.4225],[90.184,23.3987]]],[[[90.5905,23.4175],[90.5798,23.4195],[90.5714,23.3878],[90.5818,23.3682],[90.5719,23.3743],[90.5656,23.4056],[90.5814,23.4285],[90.5905,23.4175]]],[[[90.1768,23.4246],[90.167,23.4337],[90.1686,23.4386],[90.1768,23.4246]]],[[[90.3316,23.3845],[90.286,23.3796],[90.2958,23.3708],[90.2708,23.3264],[90.2139,23.3613],[90.245,23.326],[90.2056,23.3503],[90.1836,23.4498],[90.3316,23.3845]]],[[[90.5754,23.4453],[90.5686,23.4417],[90.5742,23.4501],[90.5754,23.4453]]],[[[90.2377,23.4724],[90.2303,23.4706],[90.2255,23.4789],[90.2377,23.4724]]],[[[90.5591,23.449],[90.544,23.4543],[90.5431,23.4794],[90.5615,23.4807],[90.5591,23.449]]],[[[90.6257,23.4934],[90.6083,23.4922],[90.6263,23.4961],[90.6257,23.4934]]],[[[90.199,23.4973],[90.1865,23.4972],[90.1838,23.5031],[90.199,23.4973]]],[[[90.7068,23.5051],[90.6946,23.4979],[90.702,23.5148],[90.7068,23.5051]]],[[[90.6821,23.4877],[90.6611,23.49],[90.6436,23.5019],[90.6637,23.5167],[90.6888,23.5014],[90.6821,23.4877]]],[[[90.5756,23.5199],[90.5607,23.5261],[90.5573,23.5384],[90.5756,23.5199]]],[[[90.7019,23.5256],[90.6906,23.5452],[90.7032,23.5522],[90.7026,23.5399],[90.7019,23.5256]]],[[[90.6949,23.5552],[90.6936,23.5641],[90.6992,23.5613],[90.6949,23.5552]]],[[[90.5668,23.5437],[90.5542,23.5553],[90.5521,23.5666],[90.5566,23.5649],[90.5668,23.5437]]],[[[90.4697,23.5534],[90.4532,23.549],[90.4394,23.5536],[90.4698,23.5718],[90.4697,23.5534]]],[[[90.6905,23.5679],[90.6789,23.5747],[90.6804,23.5794],[90.6905,23.5679]]],[[[90.4258,23.5723],[90.408,23.5882],[90.4039,23.6053],[90.4199,23.5975],[90.4258,23.5723]]],[[[90.4335,23.558],[90.4244,23.6027],[90.431,23.6061],[90.4432,23.5992],[90.4335,23.558]]],[[[90.4844,23.5823],[90.5024,23.5851],[90.4538,23.5754],[90.4477,23.6043],[90.4844,23.5823]]],[[[90.6371,23.6107],[90.6946,23.5158],[90.6576,23.5209],[90.5851,23.4883],[90.5658,23.5872],[90.5918,23.5834],[90.6371,23.6107]]],[[[90.405,23.6106],[90.3909,23.6159],[90.4177,23.611],[90.405,23.6106]]],[[[90.1143,23.5944],[90.0967,23.6051],[90.0878,23.6174],[90.1101,23.6069],[90.1143,23.5944]]],[[[90.6195,23.6099],[90.6019,23.6062],[90.6261,23.6259],[90.6195,23.6099]]],[[[90.6769,23.6476],[90.7322,23.6524],[90.7598,23.6309],[90.7358,23.6271],[90.7284,23.5956],[90.6956,23.5734],[90.6684,23.59],[90.6536,23.6235],[90.6585,23.6553],[90.6769,23.6476]]],[[[90.6474,23.6139],[90.6317,23.6169],[90.6428,23.6569],[90.6634,23.6642],[90.6503,23.6478],[90.6474,23.6139]]],[[[90.6841,23.6613],[90.6694,23.6628],[90.6724,23.669],[90.6841,23.6613]]],[[[90.6641,23.6736],[90.6529,23.6724],[90.6474,23.6798],[90.6641,23.6736]]],[[[90.7168,23.6597],[90.7013,23.6628],[90.6913,23.6714],[90.7264,23.6788],[90.7168,23.6597]]],[[[89.932,23.6851],[89.902,23.7014],[89.8987,23.7073],[89.9318,23.6995],[89.932,23.6851]]],[[[89.8689,23.7138],[89.8656,23.7068],[89.8625,23.712],[89.8689,23.7138]]],[[[90.7331,23.6942],[90.6946,23.6848],[90.7146,23.7266],[90.7331,23.6942]]],[[[89.8686,23.7271],[89.8652,23.7226],[89.8641,23.7265],[89.8686,23.7271]]],[[[89.8568,23.7306],[89.8515,23.7281],[89.8513,23.7308],[89.8568,23.7306]]],[[[90.3547,23.715],[90.3412,23.7247],[90.3291,23.7271],[90.3466,23.7315],[90.3547,23.715]]],[[[90.3778,23.6956],[90.4183,23.6844],[90.4643,23.628],[90.4239,23.6183],[90.4349,23.637],[90.429,23.6419],[90.415,23.624],[90.3878,23.6461],[90.3978,23.6253],[90.3645,23.63],[90.288,23.6726],[90.2617,23.7243],[90.2876,23.7327],[90.3085,23.7608],[90.313,23.7323],[90.3778,23.6956]]],[[[89.8001,23.7323],[89.786,23.7414],[89.7868,23.7639],[89.7904,23.7596],[89.8001,23.7323]]],[[[90.2259,23.725],[90.2118,23.7551],[90.2416,23.792],[90.2522,23.7467],[90.2259,23.725]]],[[[89.741,23.7775],[89.6852,23.7896],[89.6826,23.8011],[89.718,23.8016],[89.741,23.7775]]],[[[89.6648,23.8039],[89.6752,23.7892],[89.6375,23.7862],[89.6373,23.7995],[89.6648,23.8039]]],[[[89.7791,23.7421],[89.7587,23.7631],[89.7438,23.8037],[89.7758,23.7887],[89.7791,23.7421]]],[[[89.6167,23.8034],[89.5991,23.8055],[89.5465,23.7973],[89.595,23.8151],[89.6167,23.8034]]],[[[89.5236,23.8189],[89.5155,23.7856],[89.4879,23.8167],[89.4901,23.8208],[89.5236,23.8189]]],[[[90.1436,23.827],[90.176,23.8211],[90.2026,23.8355],[90.2338,23.8213],[90.2236,23.8068],[90.2054,23.8221],[90.1823,23.8071],[90.1342,23.812],[90.0872,23.8364],[90.1157,23.8541],[90.1171,23.8704],[90.1436,23.827]]],[[[89.3479,23.8867],[89.3177,23.8867],[89.3147,23.8929],[89.3479,23.8867]]],[[[89.4108,23.9196],[89.3791,23.9063],[89.3758,23.9121],[89.398,23.9267],[89.4108,23.9196]]],[[[89.7311,23.8789],[89.6953,23.9025],[89.6912,23.932],[89.7101,23.9194],[89.7311,23.8789]]],[[[89.6775,23.9107],[89.6611,23.9383],[89.6645,23.9423],[89.6726,23.9407],[89.6775,23.9107]]],[[[89.3709,23.9404],[89.3556,23.8929],[89.3149,23.8989],[89.2906,23.9388],[89.3709,23.9404]]],[[[89.2496,23.9423],[89.2298,23.9463],[89.2358,23.9322],[89.2241,23.9316],[89.1825,23.9548],[89.2246,23.9607],[89.2496,23.9423]]],[[[89.1722,23.9906],[89.1418,23.9903],[89.1391,23.9934],[89.1568,23.9991],[89.1722,23.9906]]],[[[89.1733,24.0],[89.0914,23.9991],[89.0608,23.9839],[89.0936,23.9665],[89.1225,23.9203],[89.1241,23.9541],[89.1671,23.9259],[89.2341,23.9194],[89.3047,23.8696],[89.4078,23.8978],[89.4594,23.8119],[89.5057,23.7768],[89.5362,23.7953],[89.5929,23.7975],[89.6397,23.7768],[89.7017,23.7769],[89.8567,23.6605],[89.9485,23.6357],[90.0246,23.5566],[90.0179,23.5823],[90.0954,23.567],[90.1529,23.4988],[90.1557,23.431],[90.2067,23.3338],[90.17,23.3466],[90.1639,23.3639],[90.1862,23.3591],[90.1608,23.3676],[90.1665,23.3332],[90.1253,23.3055],[90.1205,23.3356],[90.1417,23.3597],[90.1445,23.3786],[90.1279,23.351],[90.0995,23.359],[90.1208,23.3473],[90.1189,23.3041],[90.093,23.3005],[90.0871,23.2728],[90.1245,23.2685],[90.1217,23.2487],[90.1287,23.2416],[90.2023,23.2256],[90.1987,23.2096],[90.1681,23.2041],[90.1774,23.1665],[90.219,23.1829],[90.2485,23.1621],[90.2336,23.1421],[90.2452,23.1232],[90.3091,23.1128],[90.3167,23.0671],[90.2678,23.0431],[90.2726,23.0254],[90.3072,23.0209],[90.3206,22.9865],[90.2739,22.9687],[90.2991,22.9434],[90.3537,22.9212],[90.3456,22.884],[90.3205,22.8726],[90.3213,22.8502],[90.3726,22.7652],[90.3682,22.7366],[90.4195,22.7331],[90.4167,22.7138],[90.3964,22.729],[90.3831,22.7054],[90.4003,22.7234],[90.4204,22.7086],[90.4297,22.7305],[90.4193,22.7453],[90.378,22.7401],[90.3825,22.7586],[90.4366,22.761],[90.4832,22.7098],[90.4769,22.6561],[90.4961,22.6723],[90.5133,22.6529],[90.5042,22.5879],[90.5187,22.5991],[90.5798,22.5261],[90.6132,22.3275],[90.5912,22.2573],[90.5587,22.2382],[90.5212,22.184],[90.5066,22.1851],[90.4373,22.0668],[90.4221,22.1192],[90.4427,22.1513],[90.4269,22.1517],[90.4192,22.1262],[90.4192,22.0904],[90.3882,22.0901],[90.3847,22.1054],[90.4039,22.1682],[90.4261,22.1813],[90.3999,22.2179],[90.4165,22.2649],[90.4035,22.2838],[90.4191,22.2895],[90.3788,22.2931],[90.4149,22.3388],[90.3641,22.2952],[90.4059,22.2709],[90.395,22.204],[90.4179,22.1836],[90.3986,22.1722],[90.3831,22.1366],[90.3408,22.1621],[90.3872,22.1955],[90.3873,22.2114],[90.3562,22.1794],[90.3438,22.1957],[90.3498,22.1792],[90.3338,22.1633],[90.3784,22.1309],[90.3751,22.1053],[90.3331,22.1088],[90.2616,22.0404],[90.2751,22.0358],[90.278,21.9971],[90.2568,21.9557],[90.211,21.9826],[90.2135,22.0022],[90.1962,21.9784],[90.2287,21.9716],[90.2343,21.9583],[90.2176,21.9508],[90.2685,21.9463],[90.2409,21.8994],[90.2606,21.8846],[90.2549,21.8666],[90.2241,21.8543],[90.2042,21.8874],[90.2401,21.9344],[90.1969,21.8906],[90.2199,21.8528],[90.2631,21.8583],[90.2478,21.8376],[90.2163,21.8373],[90.2587,21.8361],[90.2469,21.8201],[90.2116,21.8183],[90.1756,21.7891],[90.1319,21.7907],[90.092,21.8147],[90.0824,21.841],[90.1222,21.8485],[90.1003,21.8554],[90.1103,21.884],[90.1543,21.8854],[90.1589,21.8603],[90.1728,21.8697],[90.1519,21.8956],[90.1886,21.9228],[90.144,21.8906],[90.1158,21.8993],[90.1162,21.9159],[90.15,21.9227],[90.1372,21.9485],[90.1685,21.9805],[90.1406,21.9702],[90.128,21.9914],[90.1418,21.9247],[90.1114,21.9219],[90.0988,21.8944],[90.0991,21.9412],[90.0725,22.0004],[90.0992,22.0506],[90.1633,22.1145],[90.2134,22.1143],[90.2283,22.1641],[90.2542,22.1638],[90.2717,22.1772],[90.2864,22.2071],[90.2723,22.2089],[90.2588,22.1722],[90.229,22.1724],[90.2401,22.1932],[90.2206,22.219],[90.2077,22.3093],[90.2269,22.3379],[90.2896,22.3505],[90.2973,22.3714],[90.2696,22.3586],[90.2657,22.3711],[90.2809,22.4069],[90.3137,22.4635],[90.3413,22.4589],[90.3619,22.4905],[90.3405,22.4664],[90.3148,22.4741],[90.2586,22.3754],[90.2548,22.3443],[90.2223,22.3421],[90.1991,22.3026],[90.2097,22.2143],[90.2298,22.1915],[90.2032,22.1238],[90.1608,22.1241],[90.0879,22.0556],[90.0534,21.9715],[90.0298,21.9971],[90.0275,21.9782],[90.0039,21.9846],[89.993,22.0361],[90.0307,22.0628],[90.0362,22.1269],[90.0717,22.1533],[90.1399,22.1551],[90.0801,22.1586],[90.0257,22.189],[90.081,22.2209],[90.1116,22.2858],[90.1016,22.3424],[90.176,22.4215],[90.2018,22.4859],[90.206,22.5118],[90.1876,22.5224],[90.2028,22.5725],[90.1858,22.6255],[90.2519,22.6212],[90.2832,22.6302],[90.2952,22.6531],[90.2487,22.6279],[90.181,22.6276],[90.1975,22.5676],[90.1819,22.5223],[90.1989,22.509],[90.1936,22.4802],[90.1724,22.4297],[90.095,22.3491],[90.1048,22.3039],[90.0739,22.2271],[90.0211,22.1868],[90.0282,22.1691],[90.0632,22.1618],[90.0225,22.1322],[90.0183,22.0663],[89.9809,22.0416],[89.9896,21.991],[89.9579,21.9789],[89.9092,22.0731],[89.9175,22.136],[89.8787,22.2524],[89.9197,22.3718],[89.9847,22.4388],[90.0,22.4869],[90.025,22.4901],[90.033,22.5719],[90.065,22.6087],[90.0571,22.6225],[90.0268,22.599],[90.0327,22.6527],[90.0059,22.6801],[90.028,22.6463],[90.0132,22.5988],[90.0307,22.5814],[90.0179,22.4944],[89.9546,22.5055],[89.9855,22.4867],[89.9872,22.466],[89.9102,22.3882],[89.8834,22.4052],[89.8834,22.4302],[89.8779,22.4031],[89.8987,22.3721],[89.8448,22.2487],[89.8905,22.1211],[89.8528,22.0679],[89.8188,22.066],[89.8534,22.0483],[89.8854,21.9055],[89.8584,21.8784],[89.8456,21.8859],[89.8408,21.856],[89.7762,21.8305],[89.7896,21.879],[89.7542,21.8561],[89.7334,21.8909],[89.7516,21.8391],[89.7383,21.8313],[89.7067,21.8491],[89.6756,21.8377],[89.6586,21.8922],[89.6795,21.9049],[89.6554,21.9134],[89.6339,21.8679],[89.7121,21.7853],[89.7073,21.7608],[89.6067,21.7601],[89.6137,21.8111],[89.5634,21.8575],[89.5901,21.9386],[89.5607,21.9692],[89.5603,21.9911],[89.5152,21.9904],[89.5251,21.9563],[89.5123,21.8993],[89.4971,21.9081],[89.4607,21.8522],[89.4337,21.8477],[89.4627,21.8461],[89.4712,21.8204],[89.459,21.8111],[89.4707,21.8137],[89.4843,21.7864],[89.4162,21.7099],[89.3867,21.7099],[89.3559,21.8004],[89.3899,21.9021],[89.3671,21.9046],[89.3181,21.8611],[89.3072,21.8207],[89.2867,21.8053],[89.2927,21.7564],[89.2312,21.7683],[89.2193,21.7572],[89.197,21.8047],[89.1643,21.79],[89.1079,21.8105],[89.1121,21.8547],[89.0887,21.908],[89.0948,21.9381],[89.0836,21.9386],[89.0634,21.9272],[89.0904,21.8542],[89.0866,21.8134],[89.1522,21.7414],[89.1374,21.7198],[89.1154,21.7204],[89.0518,21.7859],[89.0648,21.8682],[89.0397,21.9077],[89.001,21.9031],[88.9972,21.8895],[89.0372,21.8577],[89.0246,21.8014],[89.0356,21.7544],[89.0801,21.7081],[89.1033,21.645],[89.0968,21.6249],[89.0595,21.6116],[89.028,21.6634],[89.0061,21.6549],[89.0292,21.6541],[89.043,21.6175],[89.0189,21.6013],[88.9943,21.6465],[88.9947,21.6096],[88.9519,21.6408],[88.9316,21.6312],[88.8989,21.6496],[88.8754,21.701],[88.8799,21.7675],[88.8496,21.7251],[88.8616,21.6553],[88.7152,21.7055],[88.6993,21.7411],[88.7229,21.8073],[88.6998,21.8403],[88.7311,21.9352],[88.7291,21.976],[88.7903,22.0183],[88.7667,22.0237],[88.7594,22.0502],[88.7747,22.0519],[88.7486,22.0659],[88.7157,22.0484],[88.7415,22.0282],[88.735,22.0071],[88.6685,22.0226],[88.6445,22.1181],[88.631,22.1198],[88.6214,22.105],[88.6438,22.0459],[88.6084,21.972],[88.6202,21.9377],[88.5852,21.9852],[88.5792,21.9633],[88.611,21.9322],[88.6096,21.9095],[88.5833,21.8856],[88.5618,21.814],[88.5031,21.8849],[88.5314,21.9303],[88.5095,21.9704],[88.5525,21.9851],[88.5652,22.0228],[88.5449,21.9865],[88.5049,21.973],[88.5103,21.9217],[88.485,21.8966],[88.4664,21.9001],[88.4688,21.9487],[88.4597,21.9382],[88.4534,21.9068],[88.4633,21.8964],[88.4841,21.8913],[88.5001,21.8489],[88.4734,21.824],[88.4011,21.9032],[88.4164,21.9231],[88.4056,21.9516],[88.3903,21.9667],[88.4057,21.9738],[88.4124,21.9947],[88.3873,21.9675],[88.4114,21.9216],[88.3965,21.9083],[88.2352,22.0851],[88.2013,22.1795],[88.1215,22.2096],[87.3743,24.6628],[87.4635,27.2901],[88.3929,28.7716],[88.4153,28.8693],[88.4428,28.9179],[88.4237,28.9474],[88.4314,28.988],[88.4525,29.008],[88.4262,29.0622],[88.4397,29.1191],[88.4654,29.1682],[88.5026,29.1988],[88.5392,29.3166],[88.5587,29.3227],[88.5788,29.3669],[88.5606,29.3987],[88.586,29.4192],[88.5804,29.4312],[88.5226,29.4556],[88.5109,29.4908],[88.5228,29.5313],[88.5882,29.5198],[88.5925,29.5378],[88.615,29.5424],[88.6461,29.5231],[88.7311,29.5641],[88.7874,29.5608],[88.8815,29.6231],[88.9376,29.6134],[88.9492,29.6583],[89.0009,29.6737],[89.0172,29.7051],[89.0612,29.6501],[89.148,29.6448],[89.218,29.5921],[89.2302,29.5713],[89.2229,29.4822],[89.2555,29.4479],[89.2656,29.3944],[89.2379,29.3546],[89.2285,29.2037],[89.2016,29.185],[89.1551,29.0995],[89.1717,29.0703],[89.1718,29.0047],[89.1986,28.9515],[89.3156,28.863],[89.296,28.8095],[89.2003,28.7871],[89.1865,28.7357],[89.1464,28.6907],[89.2652,28.6447],[89.2757,28.6016],[89.2635,28.5255],[89.3032,28.5663],[89.3335,28.5449],[89.3344,28.5115],[89.3652,28.4971],[89.4083,28.5143],[89.4752,28.4709],[89.4982,28.4036],[89.5237,28.3868],[89.6517,28.398],[89.7626,28.4365],[89.7829,28.4146],[89.832,28.4149],[89.8524,28.3891],[89.9262,28.3915],[90.023,28.3587],[90.0299,28.3371],[90.0117,28.3006],[90.0835,28.3148],[90.1675,28.286],[90.2459,28.284],[90.2425,28.3232],[90.3038,28.305],[90.5568,28.3417],[90.5758,28.3527],[90.5771,28.4014],[90.609,28.4331],[90.6867,28.4306],[90.735,28.4724],[90.768,28.479],[90.8034,28.4799],[90.9404,28.3903],[91.0836,28.3481],[91.4319,28.3633],[91.4747,28.3923],[91.6493,28.3836],[91.7212,28.3538],[91.7677,28.3791],[91.8046,28.4372],[91.8318,28.4503],[91.8978,28.4448],[91.9275,28.3855],[91.9606,28.3758],[92.0219,28.3896],[92.102,28.3719],[92.2381,28.44],[92.27,28.4343],[92.2786,28.3889],[92.2996,28.3807],[92.2907,28.4266],[92.3206,28.4369],[92.3199,28.4753],[92.3959,28.4268],[92.4984,28.44],[92.85,28.9667],[93.5218,29.6574],[93.9539,29.8772],[94.4971,29.9878],[94.9567,30.1764],[95.2103,30.4053],[95.575,30.5272],[96.2603,30.5401],[96.5651,30.4767],[96.9138,30.5125],[98.0,30.5337],[98.0,18.0957],[97.9192,18.114],[97.8752,18.1151],[97.8677,18.0982],[97.7795,18.1015],[97.7496,18.0554],[97.7151,18.2353],[97.7333,18.2235],[97.7806,18.2164],[97.7975,18.2188],[97.8107,18.2348],[97.7794,18.2201],[97.7324,18.2308],[97.7272,18.243],[97.7445,18.2458],[97.7342,18.255],[97.7147,18.2433],[97.7168,18.2727],[97.7306,18.2717],[97.7286,18.3105],[97.7269,18.2859],[97.7074,18.2866],[97.7051,18.2443],[97.6639,18.2626],[97.6265,18.3448],[97.6365,18.3989],[97.6216,18.3852],[97.6092,18.4181],[97.6136,18.4337],[97.6531,18.4205],[97.6648,18.4269],[97.6526,18.4465],[97.6517,18.4244],[97.6094,18.4436],[97.5959,18.3893],[97.5864,18.4587],[97.6047,18.4781],[97.6057,18.5143],[97.5772,18.4675],[97.5616,18.4669],[97.5559,18.4871],[97.5939,18.5844],[97.5414,18.6443],[97.5399,18.6716],[97.5776,18.6933],[97.6,18.6638],[97.6512,18.6799],[97.6145,18.6793],[97.593,18.7102],[97.5657,18.7058],[97.5232,18.6926],[97.521,18.657],[97.5009,18.6542],[97.4753,18.7416],[97.4934,18.7642],[97.47,18.7581],[97.4459,18.8297],[97.387,18.8431],[97.3958,18.8764],[97.2982,18.9334],[97.2699,19.0305],[97.2516,18.9725],[97.2284,18.9669],[97.2357,18.9898],[97.1725,19.0663],[97.1211,19.0117],[97.1602,18.9528],[97.1091,18.9238],[97.0791,18.9428],[97.0354,18.9067],[97.055,18.8455],[97.0828,18.8243],[97.0953,18.8309],[97.0636,18.8439],[97.0721,18.9217],[97.1117,18.9146],[97.2233,18.9573],[97.2268,18.9412],[97.2309,18.9526],[97.2464,18.9378],[97.2427,18.9195],[97.2497,18.9291],[97.2977,18.8978],[97.2774,18.8883],[97.2995,18.8813],[97.2891,18.8481],[97.2201,18.7816],[97.2354,18.7772],[97.2996,18.6233],[97.2604,18.4874],[97.225,18.5036],[97.2376,18.5354],[97.2165,18.5149],[97.2419,18.464],[97.2226,18.481],[97.2117,18.4701],[97.1939,18.487],[97.1834,18.4829],[97.2199,18.4552],[97.2397,18.4136],[97.1945,18.3319],[97.1675,18.3581],[97.1612,18.3495],[97.188,18.3161],[97.1579,18.268],[96.9831,18.1129],[96.8805,18.0809],[96.7704,18.073],[96.6714,18.1301],[96.6734,18.1682],[96.7203,18.1998],[96.8135,18.1839],[96.8566,18.1891],[96.7179,18.2051],[96.6741,18.1765],[96.6644,18.1539],[96.6504,18.2238],[96.6215,18.2553],[96.6095,18.3306],[96.7023,18.4098],[96.7323,18.4098],[96.7807,18.4358],[96.795,18.4316],[96.8727,18.4463],[96.8985,18.4646],[96.8706,18.4495],[96.7815,18.4404],[96.7111,18.4148],[96.7067,18.4454],[96.7344,18.4823],[96.6874,18.4401],[96.6847,18.4172],[96.6642,18.4457],[96.6904,18.4025],[96.5902,18.3396],[96.5714,18.3529],[96.5817,18.3662],[96.5781,18.3763],[96.5991,18.3746],[96.6112,18.3875],[96.6049,18.4176],[96.5956,18.4222],[96.607,18.3873],[96.5784,18.3823],[96.5669,18.3531],[96.584,18.3361],[96.5154,18.3474],[96.5074,18.3901],[96.5022,18.3886],[96.5185,18.3353],[96.5057,18.333],[96.5787,18.3173],[96.6024,18.2471],[96.6328,18.2124],[96.6232,18.1841],[96.5601,18.1594],[96.5603,18.0927],[96.5792,18.0656],[96.5621,18.0399],[96.5283,18.0301],[96.5494,17.9941],[96.4638,17.9336],[96.404,17.9609],[96.3831,17.9871],[96.2987,17.9873],[96.3142,17.9614],[96.2779,17.821],[96.1652,17.7055],[96.141,17.703],[96.127,17.7216],[96.1136,17.8404],[96.0962,17.8495],[96.1096,17.833],[96.1248,17.6894],[96.0832,17.6224],[96.0801,17.5764],[96.035,17.5022],[95.9025,17.3645],[95.8435,17.3238],[95.8539,17.3215],[95.7579,17.2811],[95.6992,17.2842],[95.6697,17.2974],[95.6571,17.3772],[95.6658,17.4227],[95.6911,17.4291],[95.684,17.4384],[95.7061,17.4572],[95.7265,17.4564],[95.7271,17.4786],[95.7346,17.4569],[95.7676,17.4485],[95.7856,17.4532],[95.7993,17.482],[95.7737,17.4532],[95.74,17.4613],[95.7254,17.4818],[95.7222,17.4593],[95.7092,17.4631],[95.6851,17.4465],[95.7344,17.5237],[95.7507,17.6267],[95.7829,17.638],[95.7494,17.6347],[95.7235,17.6757],[95.7572,17.7256],[95.7773,17.816],[95.7129,17.769],[95.6927,17.7345],[95.7133,17.6637],[95.6658,17.6158],[95.6219,17.509],[95.5968,17.4329],[95.6093,17.3666],[95.5635,17.3443],[95.5109,17.3681],[95.496,17.4663],[95.5199,17.5957],[95.5763,17.601],[95.5794,17.6563],[95.6538,17.7259],[95.5778,17.6902],[95.5946,17.7541],[95.5665,17.7138],[95.5393,17.7153],[95.5517,17.7027],[95.5194,17.7003],[95.5274,17.8079],[95.5102,17.783],[95.519,17.7436],[95.5064,17.6917],[95.4733,17.6686],[95.4428,17.6118],[95.4567,17.5204],[95.4236,17.3802],[95.3878,17.3551],[95.3735,17.3612],[95.3709,17.4248],[95.3687,17.3364],[95.3343,17.3176],[95.2209,17.3572],[95.2264,17.3825],[95.276,17.4038],[95.2579,17.4718],[95.3374,17.5219],[95.331,17.5299],[95.2503,17.4731],[95.2597,17.4013],[95.2317,17.4062],[95.2239,17.4231],[95.2367,17.4526],[95.2251,17.5145],[95.21,17.5091],[95.215,17.5365],[95.2486,17.5764],[95.3012,17.5764],[95.3084,17.607],[95.292,17.6511],[95.3199,17.6625],[95.3422,17.7074],[95.4093,17.7114],[95.4092,17.7367],[95.4424,17.7758],[95.4433,17.7923],[95.4332,17.8155],[95.4559,17.8222],[95.4872,17.877],[95.4519,17.8241],[95.4298,17.8221],[95.4346,17.7735],[95.4004,17.738],[95.4029,17.7201],[95.3396,17.7152],[95.3171,17.6706],[95.2896,17.6594],[95.302,17.6063],[95.2785,17.5825],[95.2652,17.5879],[95.2523,17.7114],[95.2755,17.7581],[95.344,17.7726],[95.4124,17.8392],[95.4288,17.8861],[95.4516,17.8878],[95.4376,17.8891],[95.4372,17.9098],[95.4031,17.8433],[95.3389,17.7874],[95.2593,17.7636],[95.2254,17.6872],[95.2363,17.6487],[95.1061,17.4268],[95.0723,17.4135],[95.0207,17.4377],[94.9872,17.4966],[95.1051,17.5764],[95.1228,17.6399],[95.1712,17.6729],[95.1497,17.7004],[95.1743,17.708],[95.1937,17.7762],[95.2278,17.7913],[95.2386,17.8192],[95.1901,17.7826],[95.163,17.7212],[95.142,17.708],[95.1383,17.6701],[95.1062,17.6433],[95.0707,17.5764],[94.9603,17.5058],[94.9362,17.5252],[94.9367,17.5424],[94.9475,17.5331],[95.0712,17.6912],[95.0672,17.779],[95.1076,17.7793],[95.1456,17.8137],[95.1262,17.8338],[95.1433,17.8573],[95.1202,17.8328],[95.1363,17.8141],[95.1129,17.8069],[95.1059,17.7855],[95.0615,17.7916],[95.0503,17.8236],[95.0847,17.8218],[95.0953,17.8313],[95.0925,17.8433],[95.0849,17.8257],[95.0502,17.8305],[95.0856,17.9319],[95.1238,17.9304],[95.1414,17.9605],[95.1725,17.9328],[95.2001,17.9323],[95.212,17.9468],[95.1815,17.9365],[95.1385,17.9669],[95.1214,17.9372],[95.0982,17.9524],[95.1299,17.9786],[95.1366,17.9958],[95.1453,17.986],[95.1572,17.9856],[95.1706,18.0025],[95.1455,17.9901],[95.1345,18.0029],[95.0993,17.9706],[95.0832,18.0608],[95.1189,18.082],[95.133,18.1454],[95.1764,18.1542],[95.187,18.1671],[95.1331,18.1532],[95.1148,18.0909],[95.0765,18.0691],[95.0649,18.0896],[95.0879,18.1281],[95.097,18.1899],[95.1289,18.2092],[95.1083,18.2636],[95.1313,18.2721],[95.1282,18.3064],[95.1084,18.31],[95.1247,18.3009],[95.1227,18.2768],[95.104,18.2677],[95.0964,18.2301],[95.1197,18.2054],[95.0651,18.2199],[95.0855,18.2561],[95.0756,18.3159],[95.0803,18.2531],[95.0621,18.2697],[95.0689,18.2478],[95.0555,18.2288],[95.0377,18.2466],[95.0424,18.2343],[95.061,18.2261],[95.0447,18.204],[95.078,18.2154],[95.0879,18.1981],[95.0791,18.1313],[95.0511,18.0948],[95.0663,17.9696],[95.0396,17.9167],[95.0099,17.9144],[95.0269,17.9599],[94.9929,17.9136],[94.9887,17.8608],[94.9515,17.8346],[94.9177,17.8685],[94.9331,17.8844],[94.9131,17.8751],[94.8985,17.8596],[94.8975,17.7566],[94.8202,17.6461],[94.7547,17.631],[94.7286,17.5927],[94.6694,17.5764],[94.6302,17.5305],[94.585,17.6103],[94.6152,17.8283],[94.63,17.8411],[94.6176,17.8981],[94.651,17.9732],[94.6637,18.0727],[94.6482,18.1072],[94.6774,18.115],[94.6764,18.0955],[94.7016,18.096],[94.737,18.1452],[94.71,18.1768],[94.7374,18.1971],[94.7546,18.1913],[94.7429,18.2666],[94.7626,18.3336],[94.7906,18.3648],[94.7655,18.4511],[94.7752,18.4834],[94.7973,18.4659],[94.83,18.507],[94.8707,18.5196],[94.8648,18.5339],[94.8296,18.5245],[94.8448,18.557],[94.8433,18.6437],[94.8763,18.6941],[94.8424,18.7181],[94.8314,18.7554],[94.8511,18.7646],[94.886,18.7332],[94.9083,18.7451],[94.923,18.7633],[94.8881,18.7926],[94.895,18.8763],[94.9131,18.8532],[94.933,18.8667],[94.9275,18.8954],[94.9682,18.8649],[94.9783,18.8806],[94.9582,18.8935],[94.9521,19.0747],[94.9282,19.1252],[94.9496,19.1695],[94.9965,19.1129],[94.9978,19.1265],[94.9635,19.1678],[94.975,19.1956],[94.9559,19.2217],[94.9455,19.2126],[94.9283,19.2577],[94.9314,19.3113],[94.8764,19.3588],[94.8682,19.4793],[94.8241,19.572],[94.8644,19.5829],[94.8714,19.6321],[94.8336,19.7455],[94.8074,19.7673],[94.8134,19.7961],[94.7942,19.8226],[94.7238,19.818],[94.7087,19.8406],[94.7151,19.8784],[94.7777,19.8599],[94.7941,19.8871],[94.7889,19.9227],[94.7683,19.942],[94.7243,19.9426],[94.7092,20.0123],[94.6358,20.1009],[94.6493,20.1249],[94.638,20.1232],[94.6446,20.1849],[94.6269,20.2222],[94.5276,20.3124],[94.561,20.2905],[94.5612,20.3047],[94.6063,20.2946],[94.6667,20.3114],[94.6397,20.3105],[94.6358,20.3316],[94.6254,20.3111],[94.6036,20.3074],[94.5931,20.3195],[94.611,20.3576],[94.5906,20.3291],[94.5783,20.3476],[94.586,20.3695],[94.5698,20.356],[94.5332,20.3908],[94.5629,20.4111],[94.5325,20.4117],[94.539,20.4559],[94.5563,20.4664],[94.5333,20.4612],[94.5137,20.4331],[94.5036,20.433],[94.5154,20.4549],[94.4419,20.4225],[94.4176,20.4397],[94.4306,20.4609],[94.4605,20.444],[94.4773,20.457],[94.4924,20.4761],[94.522,20.4683],[94.4952,20.506],[94.4997,20.5426],[94.4731,20.4561],[94.4182,20.4728],[94.4419,20.5116],[94.4231,20.5677],[94.4498,20.6139],[94.4452,20.6362],[94.4887,20.653],[94.4763,20.6613],[94.4837,20.675],[94.5094,20.661],[94.4957,20.6815],[94.5332,20.6955],[94.5027,20.6968],[94.4412,20.6518],[94.4138,20.6556],[94.4241,20.6831],[94.5251,20.7278],[94.5224,20.756],[94.5161,20.7325],[94.4942,20.7277],[94.4793,20.7586],[94.4778,20.7248],[94.4515,20.7027],[94.4602,20.7414],[94.449,20.7645],[94.4435,20.7019],[94.4195,20.706],[94.4359,20.7969],[94.4577,20.8103],[94.4336,20.8247],[94.4286,20.8766],[94.463,20.9425],[94.4582,20.9601],[94.4182,20.9045],[94.4221,20.7941],[94.403,20.7578],[94.378,20.7993],[94.3917,20.7319],[94.3529,20.7158],[94.3305,20.7326],[94.332,20.7698],[94.2959,20.7759],[94.3544,20.7002],[94.3401,20.6649],[94.3423,20.5971],[94.3725,20.5378],[94.3426,20.4956],[94.3462,20.4745],[94.3266,20.4621],[94.3239,20.4237],[94.279,20.4687],[94.1595,20.5428],[94.1315,20.5453],[94.1017,20.5839],[94.0609,20.5866],[94.0526,20.6428],[94.0767,20.6608],[94.0843,20.691],[94.1342,20.6976],[94.0809,20.696],[94.0764,20.6725],[94.0496,20.6527],[94.026,20.7142],[93.9859,20.7277],[93.9565,20.8019],[93.8684,20.9225],[93.1072,20.4805],[93.107,20.5041],[93.087,20.5198],[93.1051,20.5307],[93.0919,20.53],[93.0844,20.5804],[93.0701,20.602],[93.0315,20.609],[93.0277,20.6439],[93.0089,20.6419],[93.0178,20.6122],[93.072,20.5823],[93.0816,20.5606],[93.0583,20.4764],[93.0246,20.4326],[93.0173,20.454],[93.0427,20.4633],[93.0402,20.4931],[93.0636,20.5246],[93.037,20.5407],[93.0556,20.5207],[93.0196,20.4791],[93.0395,20.475],[93.0135,20.4606],[93.0201,20.43],[92.9407,20.3839],[92.9161,20.4026],[92.9136,20.4177],[92.9341,20.4277],[92.8983,20.4822],[92.9285,20.4299],[92.9072,20.421],[92.9117,20.3774],[92.8867,20.4218],[92.8866,20.4039],[92.8571,20.4195],[92.8637,20.4051],[92.8418,20.4017],[92.8166,20.4429],[92.8337,20.4407],[92.8383,20.4688],[92.8487,20.4591],[92.8275,20.4968],[92.8108,20.4924],[92.7961,20.5101],[92.7639,20.4734],[92.7523,20.4794],[92.7322,20.5696],[92.7486,20.5782],[92.7524,20.5868],[92.7467,20.5986],[92.7266,20.6168],[92.7482,20.5876],[92.7311,20.5792],[92.6844,20.6278],[92.6456,20.6891],[92.6451,20.7277],[92.5832,20.7199],[92.591,20.732],[92.5697,20.7796],[92.5997,20.7956],[92.6024,20.8064],[92.5649,20.7864],[92.5494,20.8493],[92.5449,20.8118],[92.5713,20.7516],[92.5466,20.7631],[92.5441,20.7431],[92.591,20.6851],[92.607,20.6776],[92.6395,20.6883],[92.6954,20.5825],[92.7292,20.5496],[92.72,20.4706],[92.7478,20.4143],[92.7332,20.3274],[92.6759,20.347],[92.638,20.4332],[92.5281,20.5435],[92.5133,20.5993],[92.4597,20.649],[92.4661,20.6597],[92.3774,20.6957],[92.3877,20.7048],[92.3611,20.7723],[92.3901,20.8168],[92.3787,20.8246],[92.3584,20.7833],[92.3353,20.8433],[92.3602,20.8647],[92.3366,20.8509],[92.3146,20.8826],[92.3164,20.901],[92.3619,20.9419],[92.3477,20.9871],[92.3313,20.9978],[92.2968,20.9872],[92.2891,21.0036],[92.2836,20.9674],[92.272,20.9911],[92.2694,21.0182],[92.2887,21.0225],[92.2662,21.0406],[92.279,21.0368],[92.3128,21.0579],[92.3122,21.0703],[92.2734,21.0458],[92.2298,21.1046],[92.2243,21.1365],[92.198,21.1546],[92.1976,21.1198],[92.255,21.0615],[92.2494,21.026],[92.2611,20.9362],[92.313,20.8469],[92.3351,20.7437],[92.2996,20.7607],[92.2117,20.9253],[92.1847,21.0139],[92.0533,21.1632],[92.0496,21.2642],[92.0289,21.3402],[91.9535,21.4502],[91.9993,21.5054],[92.0221,21.4864],[91.9963,21.5656],[92.0246,21.6034],[92.0184,21.6251],[92.0389,21.6476],[92.0405,21.6722],[92.0251,21.6822],[92.0352,21.7006],[92.021,21.7182],[92.0119,21.6601],[91.9852,21.6542],[91.9741,21.6664],[91.9841,21.6875],[91.9796,21.7042],[91.9766,21.6841],[91.9617,21.6831],[91.9481,21.7453],[91.9694,21.7384],[91.9964,21.7558],[91.9924,21.7678],[91.9716,21.7472],[91.9545,21.7539],[91.9706,21.7862],[91.9424,21.8042],[91.9308,21.7855],[91.8912,21.7773],[91.9199,21.8473],[91.9095,21.9079],[91.9274,21.9345],[91.8949,21.9689],[91.8548,22.1276],[91.8345,22.1221],[91.8141,22.1798],[91.842,22.2605],[91.8138,22.3017],[91.8666,22.3221],[91.9129,22.4086],[92.0019,22.4046],[92.0221,22.4167],[92.0349,22.4459],[92.0815,22.4371],[92.1417,22.4616],[92.1439,22.4703],[92.0873,22.4443],[92.0331,22.4505],[92.0029,22.4124],[91.8964,22.4094],[91.8723,22.3498],[91.7955,22.2927],[91.7952,22.2778],[91.829,22.2566],[91.798,22.2196],[91.7693,22.2784],[91.7519,22.3866],[91.7001,22.4841],[91.5811,22.6536],[91.4576,22.7511],[91.4859,22.7668],[91.4692,22.7787],[91.4778,22.7633],[91.4547,22.7602],[91.4369,22.7772],[91.4746,22.8241],[91.4356,22.8048],[91.4836,22.8741],[91.4566,22.8989],[91.4922,22.9007],[91.4452,22.9007],[91.441,22.8836],[91.464,22.8832],[91.4647,22.869],[91.4204,22.8087],[91.4086,22.7609],[91.3301,22.8335],[91.3506,22.8515],[91.3427,22.8832],[91.3158,22.8394],[91.3525,22.7861],[91.3451,22.7758],[91.2963,22.8102],[91.1869,22.7977],[91.1164,22.8119],[91.1127,22.8262],[91.0831,22.8],[91.0287,22.7996],[90.9375,22.8561],[90.8246,22.8647],[90.8016,22.9088],[90.7578,22.9387],[90.7958,22.898],[90.7954,22.8634],[90.7333,22.8875],[90.6896,22.9783],[90.6294,22.9981],[90.5663,23.1036],[90.598,23.1778],[90.6524,23.2423],[90.6389,23.3166],[90.6776,23.3183],[90.6754,23.3407],[90.6978,23.3457],[90.6796,23.3628],[90.695,23.3777],[90.6733,23.3642],[90.6616,23.3375],[90.6738,23.3213],[90.5987,23.3393],[90.5796,23.3948],[90.6007,23.4314],[90.5856,23.4669],[90.6303,23.4903],[90.6817,23.4821],[90.7039,23.4901],[90.7178,23.5428],[90.7443,23.5443],[90.7254,23.5534],[90.7084,23.5386],[90.7057,23.5618],[90.732,23.5912],[90.7392,23.6216],[90.7646,23.629],[90.7414,23.6621],[90.7578,23.721],[90.7425,23.6938],[90.7403,23.7242],[90.7315,23.7102],[90.7156,23.7414],[90.6818,23.6867],[90.6429,23.6899],[90.6324,23.6392],[90.5628,23.5929],[90.5531,23.5715],[90.5147,23.5814],[90.505,23.6033],[90.4839,23.5866],[90.4539,23.6149],[90.4703,23.6298],[90.4427,23.6684],[90.368,23.7186],[90.3837,23.7022],[90.3658,23.7034],[90.3421,23.7401],[90.3176,23.735],[90.3128,23.7642],[90.2548,23.7303],[90.2571,23.7757],[90.2298,23.8877],[90.2396,23.827],[90.194,23.8405],[90.1518,23.8291],[90.1319,23.8674],[90.1117,23.8736],[90.1104,23.8573],[90.0572,23.8201],[90.047,23.8255],[90.0625,23.8769],[90.0468,23.8894],[90.0262,23.8817],[90.0227,23.9072],[89.9481,23.9709],[89.9523,23.9846],[89.9328,23.9846],[89.9487,23.9598],[89.9378,23.9554],[90.0192,23.8936],[90.0144,23.8769],[90.0547,23.8732],[90.0409,23.8278],[90.0466,23.8174],[90.0691,23.8163],[90.0887,23.83],[90.1247,23.8071],[90.1837,23.8023],[90.2068,23.8157],[90.2226,23.8004],[90.2415,23.8149],[90.2059,23.7537],[90.221,23.7216],[90.2524,23.721],[90.2746,23.6862],[90.2557,23.7074],[90.2383,23.7112],[90.2208,23.7081],[90.1813,23.7401],[90.1924,23.7203],[90.1626,23.7198],[90.1492,23.7107],[90.1219,23.7371],[90.0698,23.7579],[90.0232,23.7635],[90.0245,23.7952],[90.0021,23.816],[90.0195,23.7627],[90.1205,23.7334],[90.1497,23.7043],[90.1739,23.7165],[90.2205,23.7031],[90.2477,23.7076],[90.276,23.6548],[90.3797,23.6165],[90.4018,23.5883],[90.3789,23.5678],[90.4098,23.5802],[90.4377,23.5451],[90.4635,23.5452],[90.5054,23.5721],[90.5302,23.5669],[90.5701,23.4832],[90.538,23.4837],[90.5339,23.4659],[90.5539,23.4263],[90.5281,23.3907],[90.4858,23.4204],[90.4204,23.4161],[90.2542,23.4608],[90.1641,23.5242],[90.1103,23.6129],[89.97,23.6581],[89.9179,23.7216],[89.8638,23.7451],[89.7915,23.8077],[89.7742,23.8995],[89.7688,23.8876],[89.7046,23.9579],[89.7275,23.9776],[89.7208,24.0],[89.7153,23.9718],[89.6983,23.9645],[89.7051,23.9991],[89.6707,24.0],[89.6557,23.9361],[89.7033,23.8749],[89.7513,23.8659],[89.7708,23.8359],[89.7571,23.8473],[89.7242,23.8344],[89.6802,23.8626],[89.7179,23.8319],[89.6297,23.8456],[89.5468,23.8241],[89.4497,23.8706],[89.4256,23.9133],[89.3865,23.9431],[89.3288,23.9487],[89.2758,23.9881],[89.3167,23.9504],[89.2926,23.9454],[89.2414,23.9813],[89.1733,24.0]],[[95.2669,23.8279],[95.1,23.5499],[94.822,23.3831],[94.5717,23.0494],[94.5995,22.2431],[94.8498,21.4923],[95.1,20.9362],[95.4337,20.4913],[95.7674,20.5191],[96.0176,20.8806],[96.1566,21.6313],[96.5181,21.7982],[96.7405,21.8538],[96.7961,22.3265],[96.6571,23.0494],[96.4903,23.5499],[96.4069,24.1616],[96.4069,24.6621],[96.2679,25.1348],[96.101,25.246],[95.7118,25.0792],[95.4893,24.7177],[95.1278,24.4675],[95.2669,23.8279]],[[92.5889,28.4513],[92.5067,28.4368],[92.5082,28.4362],[92.5889,28.4513]]],[[[97.997,17.5254],[97.9902,17.5567],[97.958,17.5872],[97.9449,17.649],[97.9756,17.6623],[98.0,17.6387],[97.997,17.5254]]],[[[97.9975,17.6492],[97.9939,17.68],[97.9845,17.6734],[98.0,17.7167],[97.9975,17.6492]]]]}}