{"type":"Feature","properties":{"speciesId":287,"category":"LC","source":"IUCN Red List","simplifyTol":0.01,"clippedToSubcontinent":true},"geometry":{"type":"Polygon","coordinates":[[[82.3208,19.4165],[82.3208,19.0976],[82.0207,18.4035],[81.608,17.7845],[81.1765,17.2405],[80.9514,16.734],[80.5762,16.1337],[79.9197,15.6272],[79.4507,15.0457],[79.1881,14.4454],[78.7003,12.5883],[78.0813,12.4007],[77.0683,12.8321],[76.543,13.2448],[76.1866,13.4887],[76.0741,13.8263],[75.8865,14.2015],[75.7739,14.5579],[75.4363,15.4959],[75.3237,15.7398],[75.3237,15.9836],[75.455,16.2838],[75.6614,16.4714],[76.3555,17.4843],[76.6368,17.822],[77.3497,18.5161],[77.8749,19.0976],[78.3814,19.4915],[78.9254,19.6041],[79.3944,19.5291],[79.9197,19.5291],[80.67,19.4353],[81.6267,19.6041],[82.0582,19.6041],[82.3208,19.4165]]]}}