{"type":"Feature","properties":{"speciesId":288,"category":"LC","source":"IUCN Red List","simplifyTol":0.01,"clippedToSubcontinent":true},"geometry":{"type":"MultiPolygon","coordinates":[[[[72.8726,20.6676],[72.8729,20.6791],[72.8815,20.6466],[72.8661,20.6802],[72.8726,20.6676]]],[[[72.8793,20.6887],[72.89,20.6884],[72.8883,20.6806],[72.8793,20.6887]]],[[[72.877,20.7253],[72.8737,20.6908],[72.8695,20.6904],[72.8574,20.7192],[72.877,20.7253]]],[[[72.856,20.7635],[72.8464,20.7688],[72.8448,20.7761],[72.856,20.7635]]],[[[72.8436,20.7883],[72.8422,20.7879],[72.8449,20.7974],[72.8436,20.7883]]],[[[80.4085,20.5452],[80.0799,19.9819],[79.4965,19.7214],[78.7656,19.489],[77.8737,19.2309],[76.8077,19.0605],[75.8313,18.8502],[74.2091,18.3695],[73.8486,18.2794],[73.3078,18.2944],[73.1426,18.4296],[73.0825,18.5498],[73.0975,18.7751],[73.0825,18.7901],[73.0908,18.9988],[73.0769,19.0358],[73.0904,19.0457],[73.0752,19.0422],[73.0374,19.1806],[72.9022,19.3158],[72.8722,19.5562],[72.9022,19.8866],[72.8722,20.2321],[72.9022,20.5175],[72.874,20.6445],[72.9035,20.5969],[72.8864,20.6374],[72.9015,20.6429],[72.8967,20.7022],[72.9087,20.7111],[72.8907,20.7199],[72.9241,20.7558],[72.9519,20.755],[72.9425,20.7755],[72.9178,20.7699],[72.9199,20.7893],[72.91,20.7807],[72.8745,20.8015],[72.896,20.8134],[72.8756,20.8245],[72.8948,20.8665],[72.8602,20.8511],[72.9022,20.9982],[73.1125,21.2535],[73.5632,21.3737],[73.9838,21.4338],[75.8764,21.614],[77.2283,21.9445],[78.0244,22.2149],[78.5351,22.4252],[79.8269,22.8157],[80.2175,23.026],[80.6681,22.996],[80.8634,22.9059],[80.9084,22.4102],[80.5963,21.3197],[80.4085,20.5452]]],[[[72.8752,20.7521],[72.8613,20.7556],[72.8767,20.754],[72.8752,20.7521]]],[[[72.8726,20.768],[72.8648,20.7678],[72.866,20.7692],[72.8726,20.768]]],[[[72.9361,20.7636],[72.932,20.7705],[72.9412,20.7674],[72.9361,20.7636]]]]}}