{"type":"Feature","properties":{"speciesId":289,"category":"LC","source":"IUCN Red List","simplifyTol":0.01,"clippedToSubcontinent":true},"geometry":{"type":"Polygon","coordinates":[[[76.7834,11.3908],[76.677,11.4317],[76.5624,11.5381],[76.4887,11.6445],[76.4232,11.8165],[76.3904,11.9802],[76.3986,12.193],[76.4559,12.4304],[76.5869,12.6515],[77.1681,12.9216],[77.7248,12.9216],[77.9295,12.9462],[78.3634,13.069],[78.6335,13.1099],[79.182,13.1181],[79.4194,13.028],[79.4849,12.9462],[79.5586,12.6842],[79.5586,12.5041],[79.5422,12.2422],[79.4522,12.0784],[78.8791,11.8328],[78.3306,11.7018],[78.1014,11.6773],[77.6921,11.5954],[77.2009,11.4071],[76.7834,11.3908]]]}}