{"type":"Feature","properties":{"speciesId":292,"category":"LC","source":"IUCN Red List","simplifyTol":0.01,"clippedToSubcontinent":true},"geometry":{"type":"MultiPolygon","coordinates":[[[[76.34,20.7006],[76.3807,20.6825],[76.3966,20.6414],[76.3789,20.6011],[76.3374,20.5849],[76.2971,20.6025],[76.2808,20.644],[76.2989,20.6848],[76.34,20.7006]]],[[[74.7316,32.5876],[74.8446,32.4946],[74.9091,32.0493],[74.635,31.7365],[74.3986,31.6717],[74.2075,31.633],[73.914,31.6532],[72.5363,32.1077],[72.1651,32.5574],[71.6578,33.523],[71.5544,33.6108],[71.2442,33.9423],[71.1261,34.1624],[71.1353,34.2253],[71.3656,34.6204],[71.5761,34.8569],[71.7511,34.8845],[72.0366,34.7846],[72.2793,34.499],[72.4792,34.3848],[72.5577,34.3563],[72.4982,34.4289],[72.4479,34.7648],[72.5337,35.1193],[72.6231,35.4044],[73.0898,35.401],[73.2772,35.2983],[73.4702,35.2354],[73.7309,34.859],[73.8006,34.4363],[73.8605,33.7805],[74.7316,32.5876]]]]}}