{"type":"Feature","properties":{"speciesId":293,"category":"EN","source":"IUCN Red List","simplifyTol":0.01,"clippedToSubcontinent":true},"geometry":{"type":"Polygon","coordinates":[[[80.2112,17.3172],[80.6168,17.5675],[81.4648,18.2364],[81.8143,18.6247],[81.9136,18.8319],[81.9718,19.0412],[82.0042,19.0886],[82.0387,19.0951],[82.0732,19.0131],[82.0538,18.888],[82.0171,18.7823],[81.9632,18.6722],[81.7474,18.3809],[81.2296,17.9084],[80.5845,17.438],[80.3147,17.2848],[80.2435,17.2611],[80.2133,17.287],[80.2112,17.3172]]]}}