{"type":"Feature","properties":{"speciesId":297,"category":"LC","source":"IUCN Red List","simplifyTol":0.01,"clippedToSubcontinent":true},"geometry":{"type":"MultiPolygon","coordinates":[[[[74.2345,14.7079],[74.2316,14.7096],[74.2353,14.7098],[74.2345,14.7079]]],[[[74.3997,14.31],[74.3983,14.3133],[74.4,14.3123],[74.3997,14.31]]],[[[74.2486,14.6996],[74.246,14.702],[74.2488,14.7011],[74.2486,14.6996]]],[[[82.2462,17.3745],[82.2432,17.3657],[82.244,17.3748],[82.2462,17.3745]]],[[[83.4669,17.9095],[83.4535,17.9115],[83.4631,17.9187],[83.4669,17.9095]]],[[[81.8069,17.3218],[81.4159,17.3448],[80.7644,17.5978],[79.2851,18.5531],[78.894,18.9086],[78.7637,19.1385],[78.7876,19.3386],[78.9783,19.5984],[79.416,19.7314],[80.5943,19.8362],[81.2933,19.7901],[81.8989,19.6598],[82.4584,19.5141],[82.7939,19.4172],[83.2863,19.2228],[83.6318,19.0768],[83.9072,18.8396],[84.0769,18.6579],[84.1295,18.4026],[84.0635,18.2652],[83.9623,18.2157],[83.9344,18.2254],[83.9453,18.21],[83.8113,18.1604],[83.6734,18.085],[83.5755,18.0095],[83.5411,17.9497],[83.4674,17.8995],[83.4679,17.9212],[83.4438,17.934],[83.449,17.9081],[83.461,17.8953],[83.3437,17.8199],[83.289,17.6629],[83.1261,17.5527],[82.8187,17.3985],[82.5044,17.3448],[82.2462,17.3745],[82.2464,17.3751],[81.8069,17.3218]]],[[[72.8151,18.7014],[72.8047,18.7003],[72.8072,18.7045],[72.8151,18.7014]]],[[[72.8424,18.7075],[72.8332,18.7041],[72.84,18.7114],[72.8424,18.7075]]],[[[72.8456,18.7691],[72.8349,18.7678],[72.8432,18.7728],[72.8456,18.7691]]],[[[72.8502,18.7868],[72.844,18.7916],[72.8501,18.7971],[72.8502,18.7868]]],[[[72.9321,18.9527],[72.9223,18.9629],[72.9424,18.9688],[72.9389,18.9654],[72.9321,18.9527]]],[[[73.0594,19.0065],[73.0493,19.0066],[73.0566,19.0171],[73.0594,19.0065]]],[[[72.8387,19.3333],[72.8516,19.3378],[72.8684,19.3295],[72.8387,19.3333]]],[[[72.7286,19.4696],[72.7383,19.4681],[72.7327,19.4608],[72.7286,19.4696]]],[[[84.3854,22.3066],[84.1006,22.3504],[83.7062,22.5184],[83.4285,22.8278],[83.2679,23.2634],[83.3483,23.7673],[83.6624,24.1612],[84.1152,24.2348],[84.4877,24.1763],[84.9843,23.8988],[85.2619,23.5336],[85.3276,23.0662],[85.1815,22.5257],[84.8087,22.3131],[84.3854,22.3066]]],[[[73.2452,21.6006],[73.9776,21.2011],[74.1774,20.6684],[74.3105,19.6031],[74.3105,18.6044],[74.2439,17.6723],[74.3105,16.8733],[74.5768,16.2408],[75.0429,15.3753],[75.7753,13.1448],[76.3079,12.0129],[76.6741,11.6135],[77.2401,11.6135],[77.5561,11.9119],[77.9181,12.3141],[78.2388,12.6122],[78.5214,12.9978],[79.0377,13.3113],[79.4062,13.5609],[79.7701,13.6775],[79.9827,13.7083],[80.247,13.6026],[80.2556,13.5843],[80.3409,13.2852],[80.2956,13.1211],[80.3049,13.0927],[80.2609,13.0127],[80.2741,13.0056],[80.2429,12.8158],[80.2476,12.7533],[80.2093,12.6489],[80.0365,12.3791],[79.9448,12.15],[79.8651,12.0132],[79.8342,11.9097],[79.8187,11.9071],[79.8333,11.902],[79.7982,11.7882],[79.7762,11.7694],[79.794,11.7677],[79.7589,11.6076],[79.7651,11.4693],[79.8607,11.0709],[79.8497,10.8824],[79.8614,10.5562],[79.8094,10.3916],[79.4994,10.3473],[79.2484,10.2735],[79.0712,9.801],[78.9816,9.6768],[78.9249,9.5502],[78.7612,9.2696],[78.4069,9.1662],[78.0968,8.8414],[78.0821,8.4576],[77.863,8.2537],[77.8041,8.2336],[77.7769,8.1915],[77.7383,8.1691],[77.5938,8.1399],[77.5585,8.0975],[77.464,8.0853],[77.3183,8.1173],[77.1842,8.2175],[76.9771,8.3876],[76.5925,8.8692],[76.2414,10.0821],[75.742,11.3471],[75.5912,11.562],[75.6041,11.561],[75.5822,11.5708],[75.5294,11.6966],[75.5386,11.7048],[75.4917,11.7339],[75.4716,11.769],[75.451,11.7697],[75.2426,12.0462],[74.9284,12.6894],[74.6746,13.5565],[74.6657,13.6381],[74.6428,13.6709],[74.6058,13.8523],[74.6169,13.8576],[74.565,13.9466],[74.548,13.9485],[74.4797,14.1149],[74.464,14.1872],[74.4147,14.2874],[74.3953,14.4186],[74.3765,14.4165],[74.3538,14.5117],[74.3146,14.5165],[74.2912,14.5931],[74.2636,14.6247],[74.2946,14.6402],[74.2751,14.6467],[74.2756,14.6779],[74.2537,14.7068],[74.2633,14.7094],[74.2647,14.7201],[74.2582,14.7122],[74.2346,14.7444],[74.2123,14.7334],[73.8899,15.4192],[73.4783,16.1409],[73.3451,16.9066],[73.2956,17.0337],[73.3264,17.0286],[73.2927,17.0414],[73.2688,17.1461],[73.232,17.1973],[73.2439,17.2159],[73.1904,17.3042],[73.2207,17.3081],[73.2569,17.2599],[73.2595,17.2842],[73.2914,17.2775],[73.2946,17.2901],[73.238,17.2903],[73.2066,17.3828],[73.1732,17.3984],[73.1979,17.4394],[73.1845,17.4957],[73.1424,17.5465],[73.1696,17.5888],[73.1475,17.6041],[73.1202,17.6824],[73.135,17.7114],[73.1285,17.7446],[73.056,17.9248],[73.0362,17.9399],[73.0418,17.9741],[73.0061,18.017],[73.0225,18.0197],[73.0444,18.04],[73.0247,18.0295],[73.0296,18.0465],[73.016,18.025],[72.9955,18.0527],[72.9721,18.1247],[72.9884,18.1524],[72.9804,18.1945],[72.9313,18.2186],[72.9422,18.2792],[72.9667,18.2715],[72.9802,18.24],[73.063,18.2177],[73.0702,18.1968],[73.0672,18.2708],[73.0525,18.2857],[73.0458,18.2672],[73.0234,18.2662],[72.9142,18.349],[72.9106,18.3676],[72.9275,18.3799],[72.8901,18.458],[72.9047,18.5384],[72.9213,18.5286],[72.9616,18.5423],[72.9202,18.5479],[72.884,18.6304],[72.898,18.631],[72.8664,18.644],[72.8563,18.6884],[72.8701,18.8028],[72.9142,18.7924],[72.9356,18.8241],[72.9886,18.7759],[72.999,18.7794],[72.9859,18.8052],[73.0578,18.8027],[72.9898,18.8116],[72.9821,18.8626],[72.9381,18.847],[72.9069,18.8865],[72.9247,18.9098],[72.942,18.8943],[72.9495,18.9458],[72.9772,18.9461],[72.9539,18.9701],[73.0908,18.9988],[73.0667,19.0143],[73.0847,19.0314],[73.0644,19.0292],[73.0904,19.0457],[73.0061,19.005],[72.9844,19.0708],[72.9952,19.0869],[72.9764,19.1069],[72.9764,19.1707],[72.9642,19.1353],[72.9522,19.1374],[72.9569,19.1077],[72.9307,19.0904],[72.9472,19.068],[72.9137,19.0744],[72.9517,19.0432],[72.9034,18.9938],[72.8784,19.0226],[72.8573,19.0094],[72.8371,18.9334],[72.8032,18.898],[72.8212,18.9319],[72.8128,18.9508],[72.792,18.9442],[72.8126,19.0202],[72.8597,19.0602],[72.8179,19.0482],[72.8248,19.087],[72.808,19.1435],[72.7863,19.1386],[72.7814,19.1669],[72.8011,19.1976],[72.7783,19.1922],[72.787,19.3062],[72.8517,19.316],[72.9155,19.2908],[72.869,19.3343],[72.8509,19.3431],[72.8024,19.3314],[72.7583,19.3757],[72.7663,19.3956],[72.7441,19.4603],[72.7564,19.4738],[72.7169,19.5799],[72.7187,19.5967],[72.7449,19.6026],[72.7289,19.6097],[72.7078,19.6822],[72.7005,19.7289],[72.7146,19.747],[72.701,19.742],[72.6902,19.7581],[72.7061,19.8084],[72.6869,19.8043],[72.7227,19.9679],[72.76,19.9233],[72.7451,19.9679],[72.7246,19.9766],[72.77,20.1837],[72.8946,20.5296],[72.9002,20.5783],[72.8736,20.6444],[72.9035,20.5969],[72.8864,20.6374],[72.9015,20.6429],[72.8967,20.7022],[72.9087,20.7111],[72.8907,20.7199],[72.9241,20.7558],[72.9519,20.755],[72.9501,20.7674],[72.9276,20.7763],[72.9197,20.7682],[72.9199,20.7893],[72.91,20.7807],[72.8745,20.8015],[72.896,20.8134],[72.8756,20.8245],[72.8948,20.8665],[72.8268,20.8292],[72.8547,20.86],[72.8245,20.8829],[72.8351,20.9065],[72.8491,20.9044],[72.8239,20.9212],[72.8822,20.9546],[72.8765,20.9718],[72.8913,20.9864],[72.8308,20.9734],[72.8387,20.9855],[72.8052,20.9872],[72.827,21.014],[72.7661,21.0042],[72.7425,20.9769],[72.767,20.9279],[72.7473,20.9498],[72.7229,21.0266],[72.7218,21.0569],[72.7417,21.0289],[72.7856,21.0461],[72.8068,21.0247],[72.857,21.0392],[72.8419,21.0537],[72.8549,21.0677],[72.8326,21.0544],[72.8227,21.0878],[72.8419,21.1137],[72.8215,21.0977],[72.8145,21.1053],[72.8304,21.1146],[72.8143,21.1191],[72.8114,21.1483],[72.8316,21.1672],[72.8059,21.1497],[72.8016,21.1242],[72.7904,21.1447],[72.7878,21.11],[72.7636,21.1227],[72.7569,21.1046],[72.7443,21.1262],[72.719,21.1034],[72.7319,21.0806],[72.7209,21.079],[72.7016,21.0949],[72.7027,21.1276],[72.7275,21.1475],[72.6707,21.1568],[72.647,21.0912],[72.6178,21.1386],[72.6307,21.1283],[72.6467,21.1489],[72.6293,21.1338],[72.6145,21.1954],[72.6555,21.2226],[72.6817,21.2184],[72.6431,21.2498],[72.6304,21.2406],[72.6501,21.2798],[72.621,21.2928],[72.621,21.3125],[72.6554,21.3191],[72.6684,21.342],[72.7365,21.3238],[72.6962,21.355],[72.7016,21.3724],[72.6746,21.3486],[72.6646,21.3689],[72.6528,21.3494],[72.6448,21.3692],[72.6972,21.459],[72.6379,21.4484],[72.7078,21.5254],[72.8124,21.5673],[73.2452,21.6006]]],[[[72.8807,20.6811],[72.89,20.6884],[72.8912,20.6843],[72.8807,20.6811]]],[[[72.8567,20.7196],[72.877,20.7253],[72.8737,20.6908],[72.8667,20.7131],[72.8576,20.706],[72.8815,20.6466],[72.8706,20.6522],[72.8454,20.7442],[72.8567,20.7196]]],[[[72.8752,20.7521],[72.8613,20.7556],[72.8767,20.754],[72.8752,20.7521]]],[[[72.9361,20.7636],[72.932,20.7705],[72.9412,20.7674],[72.9361,20.7636]]],[[[72.8436,20.7883],[72.8407,20.7969],[72.8444,20.7987],[72.8436,20.7883]]],[[[72.831,20.8052],[72.815,20.8357],[72.7824,20.9205],[72.8226,20.8256],[72.8415,20.8054],[72.831,20.8052]]],[[[72.817,20.91],[72.807,20.9073],[72.8173,20.919],[72.817,20.91]]],[[[72.7723,20.9793],[72.7751,20.9933],[72.7868,20.9919],[72.7723,20.9793]]],[[[72.8453,21.0376],[72.8357,21.0425],[72.8453,21.0424],[72.8453,21.0376]]],[[[72.6758,21.0633],[72.6836,21.0665],[72.6852,21.0536],[72.6758,21.0633]]],[[[72.6739,21.0707],[72.66,21.07],[72.6749,21.0808],[72.6739,21.0707]]],[[[72.6831,21.1081],[72.6743,21.1286],[72.6971,21.1414],[72.6959,21.1289],[72.6831,21.1081]]],[[[72.6391,21.2741],[72.6202,21.2709],[72.6254,21.2826],[72.6391,21.2741]]],[[[72.6284,21.3343],[72.6204,21.3316],[72.6267,21.3382],[72.6284,21.3343]]],[[[72.8726,20.768],[72.8648,20.7678],[72.866,20.7692],[72.8726,20.768]]],[[[72.8404,20.7752],[72.856,20.7635],[72.8547,20.7598],[72.8404,20.7752]]]]}}