{"type":"Feature","properties":{"speciesId":298,"category":"DD","source":"IUCN Red List","simplifyTol":0.01,"clippedToSubcontinent":true},"geometry":{"type":"Polygon","coordinates":[[[86.2258,22.1228],[83.1651,24.708],[82.2139,25.3786],[78.6531,26.4274],[77.1654,26.5249],[75.4826,26.5249],[74.8851,26.342],[74.5193,26.3176],[74.4339,26.4518],[74.4583,26.9151],[74.69,27.6346],[74.8363,28.9882],[74.8363,29.415],[74.7997,30.2198],[74.7997,30.8905],[74.8851,31.5002],[75.2021,31.8417],[75.446,31.9392],[76.5435,32.049],[76.8728,32.049],[77.2874,32.0246],[77.4703,31.6709],[77.6166,31.2807],[77.9459,30.671],[78.6531,29.5369],[81.2505,26.9029],[85.3113,23.7568],[87.0307,22.2325],[87.238,21.8667],[87.1526,21.7813],[86.2258,22.1228]]]}}