{"type":"Feature","properties":{"speciesId":3,"category":"LC","source":"IUCN Red List","simplifyTol":0.01,"clippedToSubcontinent":true},"geometry":{"type":"Polygon","coordinates":[[[72.1779,32.395],[71.3536,32.4197],[70.3911,32.4036],[69.6937,32.3379],[69.8508,32.6805],[71.0643,35.0219],[71.7757,35.7736],[72.1065,35.8214],[75.0378,34.1372],[75.2331,34.1891],[76.5813,33.7988],[77.33,32.83],[77.6542,32.5422],[79.1548,30.9425],[79.7472,30.535],[81.112,29.8104],[82.9901,29.3112],[84.0167,28.8205],[84.1442,28.7164],[83.7539,28.5208],[83.7364,28.4633],[80.5298,26.8699],[80.1015,27.3839],[78.2896,29.9917],[77.2842,30.4417],[76.6574,30.6916],[74.5867,31.3832],[72.1779,32.395]]]}}