{"type":"Feature","properties":{"speciesId":303,"category":"LC","source":"IUCN Red List","simplifyTol":0.01,"clippedToSubcontinent":true},"geometry":{"type":"MultiPolygon","coordinates":[[[[74.0919,14.8759],[74.0891,14.8748],[74.0899,14.8778],[74.0919,14.8759]]],[[[74.1,14.8622],[74.0991,14.8645],[74.0999,14.8645],[74.1,14.8622]]],[[[74.2916,16.9528],[74.4215,16.7471],[74.4972,16.4657],[75.0601,15.1669],[75.2657,14.8854],[75.6121,14.1494],[75.861,13.868],[76.1533,13.6732],[76.229,13.4675],[76.11,13.316],[75.8827,13.2077],[75.677,13.1645],[75.5796,13.0887],[75.4064,13.0454],[75.19,13.1212],[75.0601,13.2294],[74.8977,13.435],[74.573,13.9762],[74.4539,14.2144],[74.3953,14.4186],[74.2584,14.7081],[74.2647,14.7201],[74.2582,14.7122],[74.2375,14.7447],[74.1203,14.8294],[74.0912,14.8945],[74.0397,14.9254],[74.0487,14.9568],[74.0298,14.9815],[74.0461,14.9869],[73.9108,15.0925],[73.9458,15.1408],[73.8821,15.3452],[73.8423,15.4028],[73.8757,15.3984],[73.8899,15.4192],[73.8154,15.4528],[73.8014,15.4788],[73.8177,15.5046],[73.7919,15.4965],[73.6205,15.8596],[73.5838,15.9077],[73.5014,15.957],[73.5097,15.9913],[73.4955,15.985],[73.4579,16.0616],[73.4839,16.0698],[73.4595,16.0759],[73.4705,16.113],[73.4608,16.0941],[73.4377,16.1936],[73.4522,16.2253],[73.428,16.2044],[73.4118,16.2564],[73.4119,16.2734],[73.4392,16.2897],[73.4061,16.2808],[73.3822,16.3904],[73.4084,16.4088],[73.3787,16.3978],[73.3612,16.4353],[73.3812,16.4487],[73.3569,16.4445],[73.3118,16.5411],[73.3372,16.5601],[73.3585,16.5193],[73.3494,16.5081],[73.3708,16.5129],[73.352,16.5379],[73.356,16.5666],[73.3167,16.5992],[73.3479,16.5967],[73.3593,16.6253],[73.3362,16.6211],[73.3218,16.6378],[73.3276,16.6797],[73.3429,16.6911],[73.3158,16.6968],[73.3005,16.7511],[73.3179,16.8014],[73.2954,16.8117],[73.2847,16.8776],[73.3048,16.8844],[73.276,16.8926],[73.2826,16.9486],[73.3057,16.9717],[73.2683,16.9866],[73.2792,17.0002],[73.2633,17.0435],[73.2902,17.0061],[73.2813,17.0365],[73.3264,17.0286],[73.2797,17.0446],[73.2914,17.0704],[73.272,17.1239],[73.3174,17.1693],[73.404,17.2017],[73.6313,17.2017],[73.9127,17.1368],[74.0751,17.0718],[74.2916,16.9528]]],[[[73.5407,15.9259],[73.5391,15.9262],[73.5395,15.9267],[73.5407,15.9259]]],[[[73.4981,15.9732],[73.4955,15.9713],[73.492,15.9797],[73.4981,15.9732]]],[[[73.4894,15.9858],[73.4839,15.9991],[73.4838,16.0],[73.4877,16.0],[73.4894,15.9858]]]]}}