{"type":"Feature","properties":{"speciesId":309,"category":"EN","source":"IUCN Red List","simplifyTol":0.01,"clippedToSubcontinent":true},"geometry":{"type":"MultiPolygon","coordinates":[[[[80.041,8.8663],[79.9954,8.7552],[79.9555,8.7552],[79.9248,8.7907],[79.9388,8.8093],[79.9184,8.8083],[79.9307,8.8147],[79.919,8.8188],[79.9358,8.8913],[79.9122,8.9299],[79.9846,8.9694],[80.0296,8.9157],[80.041,8.8663]]],[[[79.9178,8.902],[79.8849,8.9512],[79.923,8.8973],[79.9178,8.902]]],[[[79.9079,8.9331],[79.9106,8.9483],[79.9131,8.9481],[79.9079,8.9331]]],[[[79.8936,8.9453],[79.9027,8.9553],[79.901,8.9405],[79.8936,8.9453]]],[[[79.8023,9.0926],[79.8586,9.0731],[79.9283,9.0085],[79.8576,9.0564],[79.9232,8.9722],[79.889,8.9579],[79.8163,9.0326],[79.7063,9.0763],[79.6953,9.0992],[79.8023,9.0926]]],[[[79.689,9.075],[79.6883,9.071],[79.6856,9.0729],[79.689,9.075]]],[[[79.2245,9.2463],[79.2285,9.2435],[79.2176,9.2458],[79.2245,9.2463]]],[[[80.3297,13.3243],[80.2752,13.0183],[80.2609,13.0127],[80.2726,13.0082],[80.2429,12.8158],[80.2476,12.7533],[80.1643,12.5586],[80.1353,12.4587],[80.144,12.4432],[80.0894,12.3688],[80.0164,12.3063],[79.972,12.1931],[79.8819,12.0511],[79.8187,11.9071],[79.7982,11.7882],[79.7762,11.7694],[79.794,11.7694],[79.7932,11.7502],[79.7589,11.6076],[79.7601,11.5391],[79.8367,11.3304],[79.8424,11.2363],[79.8252,11.2306],[79.8424,11.2267],[79.8593,11.0488],[79.8598,10.3051],[79.8076,10.2703],[79.4161,10.3312],[79.3055,10.2651],[79.271,10.2303],[79.2771,10.2105],[79.2308,10.1448],[79.242,10.0353],[79.1811,9.9831],[79.0791,9.7923],[78.9816,9.6768],[78.9382,9.6016],[78.894,9.4698],[78.9897,9.348],[79.0751,9.2923],[79.2096,9.2811],[79.2686,9.29],[79.2922,9.3161],[79.3255,9.3206],[79.3367,9.3084],[79.3223,9.2665],[79.4286,9.1633],[79.3151,9.2377],[79.2237,9.2513],[79.2086,9.2757],[78.9626,9.2688],[78.8104,9.2313],[78.7299,9.2009],[78.7216,9.183],[78.6512,9.1917],[78.6449,9.1654],[78.6619,9.1519],[78.5829,9.1271],[78.492,9.1252],[78.4912,9.1361],[78.4503,9.1217],[78.3458,9.0782],[78.2327,8.9825],[78.1937,8.9249],[78.1703,8.8671],[78.1546,8.7455],[78.1822,8.758],[78.1283,8.6693],[78.1196,8.5301],[78.0587,8.5214],[77.9021,8.5649],[77.8871,8.7594],[77.8105,8.7814],[77.8929,9.2685],[77.9866,9.6374],[78.2544,9.9109],[78.7098,10.0341],[78.892,10.0463],[78.9984,10.2529],[79.1703,10.498],[79.1626,10.5445],[79.0037,10.6104],[78.7896,10.6618],[78.1607,10.7328],[77.9331,10.7053],[77.692,10.6505],[77.4108,10.6642],[77.1697,10.7053],[77.0358,10.9111],[76.9823,11.1582],[77.3974,11.4468],[77.8661,11.4468],[78.2009,11.2819],[78.58,10.8959],[78.7113,10.9576],[79.3291,10.9576],[79.4726,11.0406],[79.5462,11.1258],[79.5814,11.2187],[79.5727,11.3405],[79.5379,11.4971],[79.564,11.7755],[79.6945,12.141],[79.7902,12.3324],[79.9816,12.5934],[80.1034,13.2025],[80.173,13.3765],[80.2775,13.4113],[80.3297,13.3243]]]]}}