{"type":"Feature","properties":{"speciesId":31,"category":"CR","source":"IUCN Red List","simplifyTol":0.01,"clippedToSubcontinent":true},"geometry":{"type":"MultiPolygon","coordinates":[[[[84.4917,27.5708],[84.4828,27.572],[84.4917,27.5792],[84.4917,27.5708]]],[[[90.613,22.9216],[90.6077,22.9193],[90.6098,22.9256],[90.613,22.9216]]],[[[90.6047,22.9988],[90.5952,22.9884],[90.5968,23.0006],[90.6047,22.9988]]],[[[90.6369,22.9367],[90.6506,22.9353],[90.6545,22.9301],[90.6369,22.9367]]],[[[90.641,22.9532],[90.6257,22.9426],[90.6161,22.9694],[90.641,22.9532]]],[[[90.8361,22.6292],[90.8285,22.6301],[90.8324,22.634],[90.8361,22.6292]]],[[[90.8086,22.6406],[90.8009,22.6455],[90.8074,22.6503],[90.8086,22.6406]]],[[[90.7486,22.8167],[90.7369,22.8286],[90.7386,22.8381],[90.7585,22.8262],[90.7486,22.8167]]],[[[89.5797,22.2321],[89.578,22.2244],[89.575,22.2333],[89.5797,22.2321]]],[[[91.1203,22.4679],[91.1792,22.5208],[91.2089,22.5134],[91.1564,22.4672],[91.1203,22.4679]]],[[[90.8903,22.4917],[90.8759,22.4968],[90.866,22.5055],[90.8909,22.5076],[90.8903,22.4917]]],[[[90.8533,22.5923],[90.9241,22.5741],[90.9785,22.5272],[90.9867,22.5008],[90.927,22.4881],[90.8369,22.5658],[90.8533,22.5923]]],[[[90.6333,22.3708],[90.6405,22.3625],[90.6341,22.3581],[90.6333,22.3708]]],[[[90.9778,22.3708],[90.9493,22.3827],[90.9577,22.4188],[90.9452,22.4373],[90.9664,22.4507],[90.9882,22.411],[90.9778,22.3708]]],[[[90.9911,22.5396],[90.9827,22.5361],[90.9844,22.5465],[90.9911,22.5396]]],[[[90.8895,22.1119],[90.8789,22.1092],[90.966,22.2854],[90.966,22.3486],[90.9837,22.3548],[91.0048,22.2788],[90.991,22.1979],[90.9243,22.0716],[90.908,22.0702],[90.8947,22.0914],[90.8848,22.0785],[90.8895,22.1119]],[[90.8962,22.1137],[90.8929,22.1172],[90.8917,22.1125],[90.8962,22.1137]]],[[[91.1547,22.1341],[91.1494,22.1318],[91.1514,22.1381],[91.1547,22.1341]]],[[[90.4972,22.1371],[90.5125,22.1542],[90.5118,22.1382],[90.4972,22.1371]]],[[[90.5125,22.1542],[90.5256,22.1615],[90.5241,22.1452],[90.5125,22.1542]]],[[[90.9538,22.0146],[90.9495,22.0141],[90.9527,22.0169],[90.9538,22.0146]]],[[[90.8073,22.0463],[90.8008,22.0382],[90.7995,22.0448],[90.8073,22.0463]]],[[[91.0569,22.0208],[91.055,22.0582],[91.0882,22.0657],[91.0867,22.0467],[91.0569,22.0208]]],[[[90.9615,22.0422],[90.9553,22.0295],[90.9494,22.0231],[90.9615,22.0422]]],[[[89.8792,22.0917],[89.8868,22.0716],[89.8675,22.058],[89.8792,22.0917]]],[[[91.0042,22.1542],[91.0076,22.1426],[91.0011,22.1371],[91.0042,22.1542]]],[[[90.9885,22.0871],[91.0339,22.0716],[91.0286,22.052],[90.9843,22.0215],[90.9714,22.0522],[90.9885,22.0871]]],[[[90.8944,22.0458],[90.8744,22.0576],[90.887,22.0756],[90.9006,22.0671],[90.8944,22.0458]]],[[[90.838,22.1799],[90.8327,22.1776],[90.8348,22.1839],[90.838,22.1799]]],[[[91.0042,22.1542],[90.9971,22.1631],[91.0034,22.1615],[91.0042,22.1542]]],[[[90.8547,22.1799],[90.8494,22.1776],[90.8514,22.1839],[90.8547,22.1799]]],[[[90.8986,22.2208],[90.8912,22.2299],[90.9013,22.2756],[90.912,22.2604],[90.8986,22.2208]]],[[[90.9319,22.2417],[90.9206,22.2471],[90.9354,22.2912],[90.9464,22.2863],[90.9319,22.2417]]],[[[90.908,22.2896],[90.9037,22.2891],[90.9068,22.2919],[90.908,22.2896]]],[[[91.0083,22.0917],[91.0672,22.2451],[91.0721,22.4294],[91.1282,22.4076],[91.1578,22.3647],[91.1964,22.2841],[91.1953,22.2353],[91.1702,22.1676],[91.1355,22.1256],[91.0593,22.0744],[91.0083,22.0917]]],[[[91.0153,22.2333],[91.0035,22.2495],[91.0215,22.2704],[91.011,22.3417],[91.0381,22.3091],[91.0153,22.2333]]],[[[90.6153,22.2583],[90.6298,22.3438],[90.6493,22.3534],[90.6535,22.2885],[90.6153,22.2583]]],[[[90.9194,22.2917],[90.9048,22.3021],[90.9321,22.3583],[90.941,22.3354],[90.9194,22.2917]]],[[[90.6569,22.3542],[90.6549,22.3868],[90.6659,22.3874],[90.6673,22.364],[90.6569,22.3542]]],[[[91.0393,22.3753],[91.059,22.3715],[91.0576,22.3466],[91.0299,22.3341],[91.0006,22.3729],[90.9882,22.4575],[91.023,22.4619],[91.0548,22.4382],[91.0393,22.3753]]],[[[90.8847,22.4],[90.8861,22.3333],[90.876,22.3631],[90.858,22.3467],[90.8847,22.4]]],[[[90.8284,21.8951],[90.8295,21.8842],[90.7744,21.8759],[90.7951,21.9131],[90.8284,21.8951]],[[90.8163,21.8947],[90.8196,21.8911],[90.8208,21.8958],[90.8163,21.8947]]],[[[88.6212,21.7809],[88.6288,21.7267],[88.6142,21.708],[88.5875,21.7167],[88.6089,21.6841],[88.5953,21.6613],[88.6071,21.621],[88.575,21.625],[88.5868,21.58],[88.5505,21.5619],[88.5375,21.5792],[88.5326,21.5424],[88.5062,21.5381],[88.4833,21.5513],[88.4798,21.573],[88.4885,21.599],[88.5074,21.5954],[88.5298,21.6663],[88.4994,21.783],[88.5413,21.8131],[88.5702,21.798],[88.5662,21.7758],[88.5997,21.7923],[88.6212,21.7809]],[[88.6004,21.7178],[88.597,21.7214],[88.5958,21.7167],[88.6004,21.7178]],[[88.5863,21.7212],[88.5828,21.7179],[88.5875,21.7167],[88.5863,21.7212]],[[88.5738,21.6296],[88.5703,21.6262],[88.575,21.625],[88.5738,21.6296]],[[88.5363,21.5837],[88.5328,21.5804],[88.5375,21.5792],[88.5363,21.5837]],[[88.5208,21.5917],[88.5288,21.5884],[88.5283,21.591],[88.5208,21.5917]],[[88.5208,21.5917],[88.5128,21.5949],[88.5133,21.5923],[88.5208,21.5917]],[[88.5778,21.725],[88.5839,21.7469],[88.568,21.7672],[88.5661,21.7616],[88.5778,21.725]],[[88.562,21.6308],[88.5663,21.6312],[88.5652,21.6336],[88.562,21.6308]]],[[[90.3788,21.8726],[90.3608,21.8504],[90.3184,21.8462],[90.3038,21.8775],[90.3549,21.9824],[90.4186,22.0369],[90.4652,22.0583],[90.475,22.0458],[90.4843,22.0957],[90.574,22.1801],[90.5794,22.1908],[90.5619,22.1926],[90.5757,22.2367],[90.6324,22.2502],[90.6369,22.2145],[90.6091,22.1906],[90.6077,22.102],[90.5904,22.0541],[90.5048,21.9535],[90.4833,22.0125],[90.4952,21.952],[90.4572,21.8918],[90.4338,21.8785],[90.4087,21.8907],[90.3945,21.866],[90.3788,21.8726]],[[90.378,21.8796],[90.3744,21.8762],[90.3792,21.875],[90.378,21.8796]],[[90.3621,21.9062],[90.3579,21.9058],[90.3611,21.9042],[90.3621,21.9062]],[[90.4833,22.0292],[90.4833,22.0167],[90.4881,22.028],[90.4833,22.0292]]],[[[88.7417,21.6583],[88.6913,21.7441],[88.7087,21.7816],[88.6962,21.8608],[88.725,21.9333],[88.7215,21.9783],[88.7667,22.0167],[88.7458,22.0667],[88.7204,22.0535],[88.7,22.0792],[88.6831,22.0779],[88.6978,22.0547],[88.7378,22.0446],[88.7411,22.0136],[88.7167,22.0042],[88.68,21.9411],[88.6244,21.9577],[88.6339,21.998],[88.6629,22.0299],[88.631,22.1198],[88.6822,22.2011],[88.6755,22.2064],[88.6208,22.1125],[88.6381,22.0593],[88.5994,21.9757],[88.6161,21.9311],[88.5756,21.8783],[88.5575,21.8174],[88.5125,21.839],[88.5172,21.8551],[88.4833,21.8917],[88.5037,21.8146],[88.475,21.7958],[88.4577,21.7236],[88.4744,21.6729],[88.4534,21.6176],[88.4382,21.6137],[88.4342,21.6329],[88.4076,21.5966],[88.3881,21.6062],[88.3798,21.6866],[88.4,21.7083],[88.3542,21.6833],[88.3572,21.6426],[88.3171,21.6077],[88.3035,21.6093],[88.3092,21.6616],[88.2922,21.6272],[88.3089,21.5782],[88.2953,21.5634],[88.2688,21.5547],[88.2388,21.5711],[88.2422,21.5926],[88.2139,21.6168],[88.2172,21.6016],[88.2052,21.6045],[88.1797,21.677],[88.2172,21.7757],[88.1672,21.8645],[88.1708,21.9167],[88.1494,21.9593],[88.2119,22.0353],[88.2203,22.1022],[88.1866,22.1866],[88.0675,22.209],[88.1,22.3],[88.0792,22.2833],[88.0741,22.2424],[88.0335,22.2127],[88.0784,22.1869],[88.1366,22.1868],[88.1953,22.1061],[88.1647,22.0672],[88.0537,22.0068],[87.9826,21.8551],[87.7892,21.6913],[87.7191,21.6788],[87.7066,21.6955],[87.6608,21.6962],[87.5375,21.675],[87.5155,21.7294],[87.4958,21.7208],[87.4744,21.7855],[87.3958,21.8625],[87.4006,21.8905],[87.3507,21.9217],[87.3188,21.9785],[87.2953,21.9702],[87.2667,22.0],[87.2536,22.0507],[87.2625,22.111],[87.2384,22.1173],[87.2131,22.1592],[87.2208,22.2042],[87.1866,22.2202],[87.1483,22.208],[87.1379,22.2184],[87.1212,22.2809],[87.1292,22.3021],[87.1042,22.3125],[87.0868,22.3659],[86.9468,22.4464],[86.9504,22.4934],[86.9292,22.5042],[86.934,22.5213],[86.8965,22.5687],[86.9342,22.6077],[86.9583,22.6125],[86.983,22.6566],[86.9441,22.7205],[86.888,22.7439],[86.9469,22.7672],[86.959,22.7343],[86.9875,22.7458],[86.9758,22.7508],[86.9788,22.7899],[86.9379,22.8226],[86.933,22.8899],[86.9045,22.9149],[86.9226,22.9371],[86.9816,22.942],[87.0292,22.9958],[86.9673,23.0718],[86.9667,23.0917],[86.9826,23.1006],[87.0284,23.0703],[87.0625,23.1],[87.0316,23.1538],[86.9562,23.1745],[86.9438,23.163],[86.9042,23.1708],[86.9125,23.2583],[86.9499,23.2845],[86.9995,23.3688],[86.9125,23.5167],[86.9375,23.5167],[86.9958,23.4667],[87.0686,23.5328],[87.1208,23.5333],[87.1241,23.57],[87.0792,23.5708],[87.1042,23.6],[87.1083,23.6333],[87.0583,23.7708],[87.0826,23.7885],[87.0884,23.816],[87.125,23.8333],[87.1167,23.8667],[87.1785,23.8717],[87.2125,23.9],[87.2333,23.95],[87.2809,23.9212],[87.3157,23.9285],[87.3646,23.9125],[87.4025,23.9379],[87.4441,23.9163],[87.4875,23.9167],[87.4996,23.9476],[87.3983,24.0038],[87.3583,24.0042],[87.367,24.0309],[87.3542,24.0542],[87.3756,24.0948],[87.3622,24.0968],[87.3591,24.1492],[87.4044,24.1759],[87.3917,24.2083],[87.3636,24.2211],[87.3491,24.2699],[87.3007,24.3093],[87.2911,24.3593],[87.3079,24.3854],[87.3,24.4208],[87.3125,24.425],[87.3125,24.4542],[87.3559,24.4496],[87.3833,24.4792],[87.4274,24.4754],[87.4441,24.4879],[87.4937,24.4548],[87.5417,24.4625],[87.5506,24.5155],[87.534,24.5479],[87.5496,24.5733],[87.5333,24.6125],[87.4875,24.6542],[87.5092,24.6826],[87.55,24.6917],[87.5625,24.7292],[87.5438,24.7208],[87.4962,24.7392],[87.4992,24.799],[87.4583,24.8208],[87.4744,24.852],[87.4663,24.8907],[87.4228,24.8756],[87.3792,24.9],[87.3182,24.875],[87.2729,24.9079],[87.2257,24.8953],[87.1604,24.9125],[87.0313,24.8382],[86.9924,24.8368],[86.9829,24.7812],[86.9449,24.734],[86.9327,24.77],[86.9083,24.775],[86.8589,24.7105],[86.8667,24.6583],[86.85,24.6542],[86.8199,24.7201],[86.705,24.7509],[86.691,24.7824],[86.6564,24.7995],[86.6215,24.7866],[86.6172,24.7512],[86.548,24.7089],[86.5125,24.7042],[86.475,24.7833],[86.4566,24.7746],[86.4316,24.792],[86.3684,24.7746],[86.355,24.73],[86.3953,24.698],[86.395,24.6759],[86.2958,24.65],[86.2786,24.7341],[86.2875,24.8167],[86.2743,24.8214],[86.2583,24.8083],[86.2714,24.7841],[86.2536,24.7509],[86.2618,24.7217],[86.2174,24.6994],[86.1958,24.7083],[86.1667,24.6583],[86.117,24.6725],[86.09,24.7371],[85.991,24.759],[85.9384,24.7384],[85.8825,24.795],[85.8326,24.809],[85.8135,24.7992],[85.7865,24.7215],[85.7326,24.7256],[85.6733,24.6879],[85.5853,24.6922],[85.5756,24.7363],[85.55,24.75],[85.5208,24.65],[85.4525,24.7004],[85.4333,24.6875],[85.4369,24.6053],[85.4176,24.5952],[85.4196,24.5786],[85.3703,24.5866],[85.3881,24.6449],[85.3792,24.7125],[85.325,24.7042],[85.3256,24.6632],[85.2994,24.6216],[85.3172,24.5841],[85.3071,24.5328],[85.2604,24.5454],[85.2208,24.5125],[85.2284,24.48],[85.1353,24.4578],[85.1157,24.4339],[85.0395,24.4203],[85.0125,24.3958],[85.0074,24.4118],[84.9659,24.4078],[84.9458,24.4265],[84.9454,24.4813],[84.9137,24.5002],[84.8934,24.442],[84.8871,24.4725],[84.9034,24.5074],[84.8642,24.5038],[84.7717,24.3994],[84.7521,24.3463],[84.7167,24.3625],[84.72,24.4116],[84.6614,24.4669],[84.5875,24.4542],[84.6,24.475],[84.5642,24.4837],[84.5542,24.5042],[84.4917,24.5042],[84.4833,24.525],[84.3375,24.4792],[84.2785,24.4282],[84.2792,24.3875],[84.2704,24.4032],[84.2304,24.4036],[84.2201,24.4172],[84.1657,24.3994],[84.1304,24.4172],[84.1158,24.3923],[84.0458,24.3917],[84.02,24.3744],[83.999,24.4035],[83.9509,24.4075],[83.9125,24.375],[83.9506,24.3341],[83.9421,24.3229],[83.9625,24.2833],[83.8759,24.2826],[83.8491,24.2465],[83.7885,24.2244],[83.7741,24.1872],[83.7125,24.2125],[83.725,24.2583],[83.6828,24.3532],[83.6583,24.3542],[83.7077,24.3937],[83.7083,24.4292],[83.6824,24.4743],[83.6625,24.4792],[83.6881,24.513],[83.6827,24.5573],[83.7042,24.5792],[83.7355,24.5756],[83.8493,24.6256],[83.8774,24.617],[83.9367,24.6326],[83.9538,24.6077],[83.9826,24.6218],[83.9917,24.6458],[83.9625,24.6651],[83.9827,24.6991],[83.9673,24.7093],[83.9625,24.7542],[83.9146,24.7708],[83.9025,24.7955],[83.8434,24.8087],[83.8409,24.8285],[83.7437,24.8208],[83.6875,24.8875],[83.665,24.883],[83.6134,24.909],[83.5617,24.9575],[83.4952,24.9153],[83.4994,24.8978],[83.4708,24.8583],[83.4618,24.8825],[83.425,24.9042],[83.4375,24.9223],[83.4327,24.9406],[83.4132,24.9383],[83.4119,24.9569],[83.4333,24.968],[83.4191,24.983],[83.3733,24.992],[83.3483,24.9788],[83.3226,24.9913],[83.2813,24.9786],[83.2508,24.9534],[83.25,24.9292],[83.2132,24.9426],[83.2083,24.9708],[83.1816,24.983],[83.1551,24.9827],[83.1538,24.9559],[83.127,24.9506],[83.0758,24.9631],[83.0292,25.0083],[82.977,24.9631],[82.9542,25.0099],[82.9204,24.9929],[82.9015,24.9989],[82.933,25.0142],[82.9179,25.0239],[82.8647,24.9964],[82.8217,24.9952],[82.8214,24.949],[82.7951,24.9203],[82.6561,24.9089],[82.4542,24.9708],[82.3843,24.9451],[82.3483,24.9045],[82.29,24.9129],[82.2542,24.8792],[82.225,24.9208],[82.1618,24.9297],[82.0845,24.9161],[82.075,24.9583],[82.0483,24.9746],[81.965,24.9795],[81.9283,24.9259],[81.8958,24.9333],[81.8767,24.9212],[81.8875,24.9708],[81.874,24.9661],[81.7858,25.033],[81.7542,25.0292],[81.7083,25.0708],[81.6392,25.0587],[81.575,25.0833],[81.5339,25.152],[81.5208,25.2208],[81.4667,25.2],[81.4615,25.1827],[81.3583,25.1833],[81.3292,25.1375],[81.3159,25.1628],[81.2833,25.1542],[81.2733,25.1337],[81.2042,25.1208],[81.1786,25.2074],[81.1313,25.2375],[81.1083,25.2292],[81.1077,25.205],[81.0744,25.1907],[81.0869,25.1478],[81.055,25.12],[81.0375,25.0458],[80.9845,25.0506],[80.95,25.0208],[80.9048,25.0801],[80.9083,25.1167],[80.8022,25.0839],[80.7215,25.0926],[80.7045,25.1184],[80.7125,25.175],[80.6798,25.1967],[80.6792,25.2333],[80.6542,25.2292],[80.6396,25.2495],[80.575,25.2125],[80.5708,25.1833],[80.517,25.1441],[80.5125,25.1083],[80.4721,25.121],[80.4705,25.1524],[80.4315,25.1748],[80.4077,25.2133],[80.4241,25.1675],[80.3565,25.1432],[80.3132,25.0801],[80.2783,25.1408],[80.25,25.1375],[80.2629,25.1809],[80.2458,25.2],[80.1851,25.208],[80.1583,25.1958],[80.1583,25.1723],[80.1381,25.1605],[80.1042,25.0917],[80.05,25.1125],[80.0167,25.0792],[79.9542,25.1125],[79.9868,25.2033],[79.9395,25.2131],[79.9125,25.2625],[79.8542,25.2583],[79.8542,25.2792],[79.7895,25.3172],[79.7575,25.3616],[79.7142,25.3545],[79.6517,25.3955],[79.6316,25.367],[79.5958,25.3583],[79.575,25.3125],[79.5955,25.2975],[79.5458,25.2708],[79.5089,25.3186],[79.4958,25.3667],[79.4542,25.3667],[79.4494,25.4051],[79.5042,25.4833],[79.4631,25.4936],[79.45,25.5292],[79.4631,25.5906],[79.4341,25.5966],[79.4337,25.6475],[79.4121,25.6975],[79.4254,25.7525],[79.4785,25.7801],[79.5121,25.8649],[79.4078,25.8784],[79.4257,25.9283],[79.4534,25.9343],[79.4505,25.9521],[79.491,25.9884],[79.4923,26.0075],[79.5048,25.9994],[79.5404,26.021],[79.5284,26.0534],[79.4905,26.0836],[79.4345,26.0661],[79.3875,26.1125],[79.3395,26.1285],[79.2575,26.0299],[79.2014,26.0465],[79.1105,25.9881],[79.0506,25.9884],[79.0504,26.0358],[79.0875,26.1083],[79.0621,26.1691],[79.0275,26.1795],[78.9708,26.1125],[78.9453,26.1491],[78.8792,26.1667],[78.8532,26.241],[78.8007,26.2241],[78.8,26.2062],[78.775,26.1958],[78.7619,26.2424],[78.7792,26.2833],[78.7646,26.2755],[78.7167,26.3208],[78.7038,26.3405],[78.7158,26.3535],[78.6952,26.3671],[78.7044,26.3824],[78.6843,26.3921],[78.6292,26.3625],[78.6167,26.3875],[78.5229,26.3796],[78.4693,26.4083],[78.4354,26.4079],[78.4199,26.384],[78.399,26.3829],[78.375,26.3958],[78.3833,26.4083],[78.3549,26.426],[78.3371,26.4739],[78.3104,26.4589],[78.2322,26.5045],[78.2009,26.4952],[78.1744,26.4593],[78.175,26.4292],[78.1417,26.4458],[78.1504,26.4658],[78.1354,26.466],[78.034,26.4117],[78.0208,26.3667],[78.0286,26.3186],[78.0064,26.2881],[77.9449,26.3286],[77.9091,26.3203],[77.8686,26.3328],[77.8429,26.3123],[77.8369,26.2728],[77.7792,26.221],[77.7114,26.0872],[77.6866,26.0715],[77.6368,26.0786],[77.6233,26.0955],[77.5813,26.0833],[77.4744,26.1135],[77.4875,26.1417],[77.4667,26.1458],[77.4379,26.1191],[77.4375,26.0917],[77.4083,26.0875],[77.3714,26.0397],[77.3703,26.0198],[77.4167,25.9708],[77.3759,25.9756],[77.3366,26.0244],[77.2708,26.0417],[77.2375,25.9667],[77.2091,25.9618],[77.2042,25.9458],[77.1509,25.9839],[77.1328,26.0199],[77.0775,26.0504],[77.0467,26.0325],[77.0421,26.0104],[77.067,25.972],[77.0284,25.9578],[77.0,25.9667],[76.9458,26.0396],[76.9828,26.0895],[76.992,26.1566],[77.041,26.1801],[77.041,26.2147],[77.0206,26.2259],[77.0334,26.2345],[77.0208,26.2875],[77.0649,26.3087],[77.084,26.3366],[77.1491,26.3634],[77.1509,26.3952],[77.1661,26.4011],[77.1542,26.4792],[77.1667,26.4958],[77.1494,26.5283],[77.2157,26.551],[77.243,26.5923],[77.2669,26.5885],[77.2641,26.6002],[77.3033,26.6298],[77.3284,26.6262],[77.3566,26.6587],[77.3816,26.658],[77.4107,26.633],[77.4426,26.6451],[77.4542,26.6333],[77.4538,26.6532],[77.4051,26.6965],[77.43,26.7243],[77.4799,26.6994],[77.5616,26.7299],[77.6008,26.82],[77.6542,26.847],[77.641,26.8838],[77.6542,26.9],[77.6208,26.9542],[77.7199,26.988],[77.7542,26.9625],[77.7697,26.9668],[77.7992,27.0159],[77.7747,27.0175],[77.7827,27.0479],[77.75,27.075],[77.7908,27.0924],[77.8167,27.1333],[77.8117,27.1451],[77.7551,27.1414],[77.6823,27.2035],[77.6467,27.2087],[77.6367,27.2284],[77.5847,27.2327],[77.55,27.2583],[77.5491,27.2869],[77.5092,27.2925],[77.5079,27.3157],[77.4647,27.3411],[77.4259,27.3342],[77.4087,27.3601],[77.4415,27.4276],[77.4167,27.4625],[77.4672,27.5091],[77.4369,27.5509],[77.4545,27.6475],[77.4423,27.7199],[77.4583,27.7292],[77.4667,27.7708],[77.4235,27.7942],[77.4291,27.824],[77.3798,27.8562],[77.375,27.9],[77.3873,27.9325],[77.4132,27.9461],[77.4042,27.9875],[77.3491,27.9744],[77.325,28.0042],[77.3335,28.0279],[77.3165,28.0888],[77.3292,28.1208],[77.2458,28.125],[77.2828,28.1938],[77.2756,28.23],[77.2417,28.2417],[77.2621,28.2559],[77.2628,28.3155],[77.1924,28.3676],[77.1991,28.4118],[77.1507,28.3908],[77.15,28.3625],[77.0496,28.4197],[77.0583,28.4417],[77.1199,28.4715],[77.1333,28.5125],[77.0686,28.5297],[77.0301,28.5674],[77.058,28.585],[77.0667,28.6208],[77.0208,28.625],[76.9914,28.7033],[77.0375,28.7096],[77.0327,28.7323],[77.0583,28.7625],[77.0331,28.7989],[77.0417,28.8396],[77.0081,28.8678],[77.0284,28.895],[76.9992,28.9284],[76.9625,28.9417],[76.9463,28.9854],[76.9667,29.0208],[76.9411,29.0551],[76.9506,29.0966],[76.9083,29.1333],[76.9258,29.216],[76.9575,29.226],[76.9456,29.2741],[76.9577,29.2758],[76.9667,29.3417],[76.9979,29.3088],[77.0241,29.3158],[77.0417,29.2667],[77.0882,29.2453],[77.116,29.2592],[77.125,29.2833],[77.2034,29.2758],[77.2035,29.3409],[77.2333,29.3667],[77.2545,29.3559],[77.2559,29.3337],[77.2962,29.3142],[77.3012,29.2703],[77.325,29.275],[77.3328,29.3105],[77.2786,29.4201],[77.2885,29.4496],[77.3108,29.4496],[77.3312,29.4208],[77.3699,29.4382],[77.3811,29.4661],[77.45,29.5],[77.4786,29.552],[77.4798,29.6033],[77.4958,29.6167],[77.5424,29.6036],[77.5579,29.6271],[77.5328,29.7243],[77.5464,29.7951],[77.5119,29.8512],[77.5217,29.8702],[77.5708,29.875],[77.5873,29.8596],[77.6425,29.9491],[77.7075,29.9842],[77.75,30.0375],[77.7548,30.0658],[77.8063,30.0458],[77.8917,30.0792],[77.8921,30.1021],[77.9174,30.1283],[78.0033,30.1825],[78.0417,30.1],[78.0701,30.0824],[78.075,30.0417],[78.1483,30.0621],[78.1936,30.0381],[78.2625,30.0333],[78.2801,30.0004],[78.3905,29.9203],[78.4089,29.9507],[78.3911,29.9841],[78.4,30.0042],[78.4147,29.9994],[78.4792,29.9542],[78.4922,29.9218],[78.4792,29.8958],[78.4934,29.8837],[78.5667,29.875],[78.5702,29.8468],[78.5375,29.8292],[78.5047,29.7564],[78.5047,29.7103],[78.5304,29.6875],[78.5535,29.6949],[78.5592,29.6549],[78.608,29.6409],[78.6133,29.6164],[78.6449,29.6157],[78.7134,29.534],[78.761,29.5206],[78.75,29.5375],[78.7992,29.5331],[78.8303,29.5669],[78.9125,29.525],[79.0649,29.5121],[79.1184,29.4712],[79.1313,29.4787],[79.1958,29.4417],[79.1795,29.3816],[79.1895,29.3506],[79.2314,29.3506],[79.2701,29.3714],[79.295,29.3633],[79.3186,29.4078],[79.3811,29.4369],[79.4203,29.4366],[79.4422,29.4155],[79.4375,29.3958],[79.3869,29.3409],[79.3837,29.2517],[79.4,29.2167],[79.47,29.2007],[79.509,29.2343],[79.5083,29.2708],[79.5583,29.2458],[79.5866,29.2743],[79.5661,29.2368],[79.5756,29.2103],[79.6577,29.1282],[79.6458,29.0708],[79.6881,29.0009],[79.6744,28.9634],[79.6922,28.9299],[79.6604,28.8796],[79.5792,28.8833],[79.5934,28.867],[79.6382,28.8578],[79.6824,28.8799],[79.7037,28.9354],[79.6917,28.9813],[79.7214,29.0161],[79.7131,29.0897],[79.7217,29.1118],[79.7488,29.1379],[79.7244,29.1007],[79.7338,29.0646],[79.8042,29.0],[79.8083,28.9558],[79.8542,28.925],[79.8508,28.9008],[79.8661,28.8938],[79.8708,28.8708],[79.8375,28.8208],[79.8458,28.8083],[79.88,28.8284],[79.9333,28.825],[79.9467,28.8491],[79.9958,28.8708],[80.0042,28.8958],[80.0083,28.8833],[80.0408,28.8825],[80.077,28.8047],[80.1566,28.8371],[80.15,28.8042],[80.1866,28.7951],[80.1796,28.7521],[80.1917,28.725],[80.2063,28.7255],[80.2879,28.872],[80.2716,28.9159],[80.3035,28.9241],[80.3125,28.8708],[80.2828,28.8091],[80.3744,28.7355],[80.3441,28.692],[80.3125,28.6792],[80.3253,28.6572],[80.3125,28.6208],[80.3375,28.6235],[80.3549,28.5841],[80.3837,28.5744],[80.4367,28.5965],[80.416,28.6254],[80.4532,28.6577],[80.4786,28.6314],[80.4839,28.5853],[80.5103,28.5506],[80.5575,28.5591],[80.5673,28.5805],[80.555,28.6034],[80.5917,28.5917],[80.6133,28.5133],[80.6865,28.4949],[80.7091,28.4385],[80.7615,28.4325],[80.8542,28.3458],[80.8624,28.3738],[80.8882,28.3258],[80.9033,28.3119],[80.9278,28.3209],[80.9454,28.291],[81.0199,28.313],[81.0542,28.2625],[81.0708,28.2625],[81.0833,28.2917],[81.116,28.2909],[81.1167,28.275],[81.1313,28.2833],[81.1375,28.2667],[81.1941,28.2754],[81.2288,28.3017],[81.2601,28.3705],[81.2917,28.3708],[81.263,28.2813],[81.2743,28.2661],[81.3034,28.2756],[81.3494,28.248],[81.3375,28.1917],[81.3458,28.1307],[81.3786,28.1064],[81.4103,28.0464],[81.4292,28.0625],[81.4417,28.0292],[81.4756,28.0574],[81.4619,28.0909],[81.48,28.1366],[81.4962,28.135],[81.5004,28.0934],[81.5292,28.0875],[81.5324,28.0635],[81.5081,28.0575],[81.5245,28.0285],[81.645,28.105],[81.6625,28.1333],[81.6667,28.0667],[81.7167,28.0375],[81.7451,28.0756],[81.7823,28.0702],[81.8375,27.9875],[81.8733,27.983],[81.9226,27.9462],[82.1167,27.95],[82.152,27.9089],[82.253,27.8628],[82.2833,27.8292],[82.4025,27.7788],[82.4583,27.7292],[82.5691,27.7254],[82.623,27.7464],[82.6483,27.7754],[82.7208,27.7583],[82.7417,27.7792],[82.8,27.7667],[82.8287,27.7881],[82.8792,27.7917],[82.884,27.7676],[82.9158,27.7619],[82.9756,27.6571],[82.9625,27.6042],[82.9994,27.6145],[83.0172,27.6534],[83.0132,27.7116],[83.0535,27.7342],[83.055,27.8158],[83.0699,27.8161],[83.1004,27.6809],[83.122,27.6661],[83.1522,27.6714],[83.1955,27.7101],[83.2354,27.7958],[83.265,27.7879],[83.2851,27.8121],[83.3083,27.8125],[83.3083,27.7708],[83.3491,27.766],[83.3698,27.7453],[83.4534,27.7299],[83.4667,27.7542],[83.4715,27.7384],[83.5733,27.7038],[83.6573,27.7243],[83.6592,27.6842],[83.7667,27.6333],[83.9208,27.65],[83.9379,27.5767],[83.9708,27.5542],[83.9785,27.6033],[83.9964,27.5843],[83.9923,27.5551],[84.0167,27.5458],[84.0125,27.525],[84.1355,27.5089],[84.1663,27.5225],[84.175,27.5542],[84.2491,27.5547],[84.3103,27.5131],[84.4226,27.4795],[84.6147,27.4536],[84.65,27.4333],[84.7938,27.441],[84.9309,27.367],[84.9991,27.366],[85.0063,27.3546],[85.0774,27.3663],[85.0917,27.3625],[85.0958,27.3208],[85.1201,27.3157],[85.1587,27.2637],[85.2064,27.2786],[85.2589,27.2341],[85.2118,27.1592],[85.1792,27.15],[85.2042,27.1],[85.2417,27.1125],[85.2841,27.2327],[85.3297,27.2216],[85.3256,27.1728],[85.3547,27.1243],[85.3328,27.0326],[85.347,26.9997],[85.3708,27.025],[85.3538,27.0642],[85.4542,27.1708],[85.4809,27.1621],[85.5083,27.175],[85.565,27.1455],[85.5674,27.0549],[85.6333,27.075],[85.6121,27.035],[85.6333,27.0042],[85.7483,27.0504],[85.7958,27.15],[85.8333,27.1708],[85.8642,27.1295],[85.8823,27.1464],[85.9371,27.124],[85.9925,27.0259],[86.0782,27.0203],[86.1006,26.9427],[86.1491,26.9369],[86.155,26.9175],[86.2304,26.8661],[86.274,26.8881],[86.3257,26.8786],[86.3625,26.9125],[86.4667,26.8875],[86.4673,26.8301],[86.5035,26.8022],[86.5049,26.7635],[86.5294,26.7491],[86.5258,26.7299],[86.5701,26.7201],[86.5842,26.7006],[86.6125,26.6917],[86.6342,26.7119],[86.6625,26.7125],[86.6899,26.692],[86.7229,26.7125],[86.7458,26.6875],[86.828,26.7169],[86.8508,26.6954],[86.9012,26.7339],[87.0068,26.7042],[87.0176,26.7243],[87.0792,26.7542],[87.0699,26.7047],[87.0297,26.6689],[87.0074,26.6131],[86.9672,26.5855],[86.9762,26.5619],[87.0083,26.5792],[87.0464,26.6368],[87.0427,26.6534],[87.09,26.6837],[87.1392,26.7455],[87.1339,26.6968],[87.1688,26.6671],[87.2329,26.6926],[87.3,26.7583],[87.3089,26.7216],[87.2797,26.6478],[87.2937,26.625],[87.3,26.6417],[87.3201,26.6342],[87.4078,26.7436],[87.4089,26.7689],[87.4618,26.8134],[87.4759,26.8658],[87.5167,26.8875],[87.5617,26.8868],[87.575,26.8583],[87.5333,26.7833],[87.5464,26.7395],[87.5968,26.6923],[87.625,26.6917],[87.6869,26.7728],[87.6673,26.801],[87.6662,26.8396],[87.6384,26.866],[87.6908,26.8825],[87.7208,26.85],[87.7674,26.8286],[87.7833,26.8375],[87.7801,26.8216],[87.8162,26.8077],[87.9075,26.8132],[87.9178,26.8374],[87.9563,26.85],[87.9494,26.7811],[87.913,26.7229],[87.9212,26.6809],[87.9432,26.6583],[87.9542,26.6708],[87.9826,26.6591],[88.0616,26.8033],[88.067,26.7476],[88.0955,26.7108],[88.1042,26.6125],[88.1333,26.6208],[88.1542,26.6083],[88.1743,26.6218],[88.2036,26.6895],[88.2,26.8375],[88.237,26.8104],[88.2993,26.7033],[88.3042,26.6667],[88.385,26.6496],[88.4208,26.6667],[88.4667,26.8417],[88.5083,26.7917],[88.5813,26.784],[88.616,26.8133],[88.6292,26.8875],[88.7042,26.9542],[88.7496,26.8649],[88.7506,26.7493],[88.7369,26.7284],[88.7417,26.7042],[88.7573,26.7007],[88.7907,26.7216],[88.8167,26.7833],[88.858,26.7684],[88.875,26.8292],[88.8542,26.8979],[88.8625,26.95],[88.9026,26.9417],[88.9137,26.9589],[88.9375,26.9542],[88.8953,26.8613],[88.9059,26.8045],[88.9953,26.8686],[89.0244,26.9103],[89.0256,26.9408],[89.0342,26.8923],[89.05,26.9],[89.0449,26.8798],[89.0047,26.8522],[88.9547,26.7564],[88.9453,26.7174],[88.9592,26.6717],[89.0009,26.6259],[89.0413,26.6225],[89.0047,26.6561],[88.9786,26.7282],[89.0007,26.7824],[89.0491,26.8134],[89.0833,26.8667],[89.0708,26.7917],[89.0795,26.6309],[89.1292,26.6],[89.1559,26.5212],[89.2358,26.5455],[89.2424,26.4842],[89.3042,26.425],[89.3208,26.4458],[89.2869,26.4949],[89.2964,26.5409],[89.2786,26.5909],[89.3134,26.6408],[89.3542,26.6417],[89.3837,26.6142],[89.3962,26.5226],[89.4604,26.4755],[89.4991,26.4842],[89.55,26.5542],[89.5593,26.5216],[89.5892,26.4962],[89.6625,26.5333],[89.6504,26.4767],[89.7083,26.4542],[89.7326,26.4741],[89.7521,26.4255],[89.7917,26.4375],[89.8353,26.5452],[89.8595,26.5001],[89.8858,26.4788],[89.9083,26.4833],[89.9417,26.5667],[89.9214,26.6093],[89.9208,26.6625],[89.9262,26.6335],[89.9853,26.5756],[90.0366,26.584],[90.0667,26.6167],[90.0547,26.5561],[90.092,26.5267],[90.0917,26.4458],[90.125,26.4542],[90.2142,26.4288],[90.2538,26.4517],[90.2467,26.491],[90.2759,26.4495],[90.3285,26.4926],[90.334,26.5199],[90.3583,26.5292],[90.4047,26.6257],[90.4417,26.775],[90.4667,26.7],[90.4913,26.71],[90.5036,26.7397],[90.5131,26.6186],[90.53,26.5842],[90.5667,26.5583],[90.5917,26.5708],[90.5667,26.5208],[90.622,26.4624],[90.6582,26.4572],[90.7116,26.3829],[90.75,26.4583],[90.7976,26.4379],[90.8119,26.4478],[90.8131,26.5074],[90.8422,26.5799],[90.825,26.6333],[90.8451,26.6161],[90.8783,26.6257],[90.8875,26.6458],[90.9042,26.6354],[90.875,26.5479],[90.8879,26.535],[90.8792,26.5125],[90.9583,26.5292],[90.9638,26.4541],[90.9801,26.4285],[91.0128,26.4367],[91.0125,26.4208],[91.06,26.4163],[91.1133,26.5076],[91.1404,26.5125],[91.1536,26.5563],[91.1382,26.5675],[91.1375,26.5917],[91.1733,26.5663],[91.215,26.5871],[91.2125,26.5458],[91.2458,26.5417],[91.2411,26.5863],[91.3521,26.6329],[91.3464,26.6061],[91.3667,26.5808],[91.3297,26.5564],[91.3203,26.5132],[91.3458,26.4833],[91.3426,26.4464],[91.3991,26.4451],[91.3968,26.4298],[91.4366,26.4158],[91.4542,26.3792],[91.4753,26.3845],[91.4828,26.4061],[91.4705,26.4447],[91.4949,26.4507],[91.5125,26.4833],[91.5284,26.4826],[91.5342,26.4368],[91.5625,26.4458],[91.5909,26.43],[91.5924,26.445],[91.6202,26.4562],[91.6256,26.524],[91.6631,26.5445],[91.6494,26.5195],[91.6534,26.4675],[91.641,26.4657],[91.659,26.4296],[91.6285,26.3799],[91.6337,26.3434],[91.6542,26.3292],[91.666,26.4046],[91.7114,26.442],[91.725,26.475],[91.7464,26.4343],[91.7421,26.4104],[91.7842,26.3673],[91.81,26.3705],[91.8208,26.3917],[91.8375,26.375],[91.8799,26.4324],[91.9063,26.4131],[91.9532,26.4382],[91.9625,26.4708],[92.0226,26.458],[92.0705,26.5142],[92.075,26.5458],[92.1017,26.5045],[92.1374,26.5053],[92.155,26.5325],[92.1833,26.5417],[92.1705,26.5803],[92.1833,26.6042],[92.2569,26.5535],[92.2958,26.5958],[92.3566,26.558],[92.4,26.5667],[92.4601,26.608],[92.5238,26.5869],[92.5833,26.7167],[92.6259,26.6035],[92.6994,26.5949],[92.7158,26.5619],[92.7283,26.5632],[92.7304,26.5922],[92.7865,26.591],[92.8208,26.5542],[92.8917,26.5625],[92.8525,26.517],[92.7789,26.4989],[92.7839,26.4866],[92.7439,26.4506],[92.6884,26.4576],[92.695,26.43],[92.6717,26.4201],[92.6621,26.385],[92.6783,26.355],[92.6022,26.2797],[92.5566,26.258],[92.5118,26.2578],[92.4708,26.2875],[92.425,26.275],[92.4412,26.2354],[92.4284,26.2052],[92.4035,26.1948],[92.4119,26.177],[92.3792,26.1083],[92.2729,26.0542],[92.266,26.0741],[92.2407,26.0744],[92.2167,26.1],[92.1917,26.0917],[92.1743,26.1283],[92.122,26.1667],[92.0825,26.1258],[92.0049,26.0866],[91.9783,26.0466],[91.9396,26.0338],[91.9243,26.0547],[91.8708,26.0375],[91.8449,26.0547],[91.7625,26.0042],[91.7191,26.0462],[91.634,25.9824],[91.6201,25.9536],[91.5833,25.9792],[91.5827,26.0188],[91.5423,26.0633],[91.5417,26.0875],[91.4717,26.0825],[91.4504,26.0499],[91.489,26.0689],[91.4648,26.0239],[91.4434,26.0215],[91.4455,26.0483],[91.4233,26.083],[91.3775,26.092],[91.3312,26.0631],[91.32,26.0826],[91.2829,26.0785],[91.2284,26.1131],[91.1958,26.1],[91.1625,26.025],[91.125,26.0625],[91.0871,26.0385],[91.0632,26.0425],[91.0618,26.0699],[91.0375,26.0917],[91.0042,26.0667],[90.9958,26.025],[90.934,26.0534],[90.9256,25.995],[90.9,25.9625],[90.85,26.1],[90.8241,26.0673],[90.7875,26.0708],[90.8004,26.0309],[90.7833,25.9833],[90.7507,26.0052],[90.7493,26.0326],[90.6993,26.0506],[90.6708,26.0292],[90.7167,26.0917],[90.6625,26.0917],[90.641,26.1198],[90.6542,26.1292],[90.5758,26.1549],[90.5657,26.1756],[90.5121,26.1051],[90.4715,26.0991],[90.4701,26.0593],[90.4158,25.9965],[90.3554,25.9786],[90.3063,26.0078],[90.287,25.9994],[90.2425,26.0132],[90.2365,26.0327],[90.1847,26.0381],[90.1744,25.9811],[90.1458,25.9708],[90.1544,25.9009],[90.1354,25.8963],[90.12,25.9201],[90.0854,25.9245],[90.0093,25.9034],[90.0125,25.8833],[90.0786,25.8605],[90.0798,25.7468],[90.1072,25.7494],[90.1326,25.7119],[90.1625,25.7167],[90.1424,25.6758],[90.1575,25.6619],[90.1993,25.6742],[90.2006,25.6437],[90.2208,25.6208],[90.2108,25.5879],[90.1699,25.5964],[90.1506,25.5702],[90.1216,25.5799],[90.1115,25.609],[90.0801,25.6007],[90.0532,25.6284],[90.0301,25.6282],[90.0416,25.6097],[90.0202,25.5945],[90.0328,25.5688],[90.0122,25.5576],[90.0125,25.525],[90.059,25.4841],[90.0496,25.4392],[89.9917,25.4083],[89.983,25.3767],[89.9478,25.3703],[89.9331,25.347],[89.9074,25.3589],[89.8593,25.3454],[89.8625,25.2807],[89.8797,25.2632],[89.8784,25.2217],[89.8619,25.2071],[89.8744,25.1436],[89.8669,25.1011],[89.8212,25.0809],[89.8587,24.9892],[89.9125,24.9792],[89.9245,24.9563],[89.9119,24.8505],[89.9423,24.813],[89.9256,24.7603],[89.9578,24.7355],[89.9494,24.6514],[90.0337,24.6017],[90.0371,24.5726],[90.0167,24.5354],[90.0216,24.4799],[90.0494,24.4616],[90.0661,24.423],[90.0667,24.3625],[90.0993,24.3494],[90.1325,24.3618],[90.1577,24.3355],[90.1754,24.2934],[90.1673,24.2645],[90.188,24.2343],[90.1708,24.222],[90.2747,24.1575],[90.2966,24.1133],[90.3909,24.0993],[90.3839,23.9895],[90.4208,23.975],[90.4469,23.9131],[90.4875,23.9042],[90.5167,23.8458],[90.5742,23.8826],[90.5578,23.8549],[90.5632,23.8217],[90.6076,23.8033],[90.6125,23.7875],[90.65,23.7917],[90.6465,23.8242],[90.6667,23.8333],[90.6667,23.8099],[90.7006,23.7905],[90.6924,23.7509],[90.7208,23.7208],[90.716,23.6342],[90.7,23.6083],[90.7339,23.5145],[90.7708,23.4792],[90.8042,23.4875],[90.8384,23.3674],[90.8677,23.3374],[90.9154,23.3291],[90.9222,23.2841],[90.9534,23.2784],[90.9553,23.2622],[90.9895,23.291],[91.0121,23.2816],[90.9953,23.2298],[91.0172,23.2238],[91.0092,23.2006],[91.0283,23.1909],[91.0257,23.0799],[91.0423,23.0672],[91.0367,23.034],[91.0161,23.0238],[91.0325,22.9716],[91.0119,22.9653],[91.0714,22.8968],[91.0551,22.8702],[91.0875,22.8763],[91.0955,22.909],[91.1157,22.8992],[91.1535,22.87],[91.1758,22.8257],[91.1992,22.8243],[91.2214,22.7632],[91.1816,22.6837],[91.1708,22.6875],[91.1794,22.7033],[91.1145,22.7077],[91.0924,22.7034],[91.0873,22.6717],[91.0623,22.684],[91.0424,22.6739],[91.0424,22.6466],[91.0867,22.5993],[91.0833,22.5514],[91.1204,22.5244],[91.1493,22.534],[91.1542,22.5208],[91.0799,22.4577],[91.0784,22.4954],[91.0639,22.4832],[91.0502,22.5278],[90.9999,22.5737],[90.8873,22.6575],[90.8305,22.6793],[90.7798,22.7646],[90.7746,22.8441],[90.7441,22.8871],[90.7176,22.8796],[90.6381,22.9978],[90.6378,23.2197],[90.6176,23.2202],[90.55,23.0555],[90.5965,22.9627],[90.6007,22.9252],[90.5827,22.9089],[90.6132,22.9026],[90.6063,22.884],[90.5785,22.8825],[90.6112,22.8751],[90.6207,22.8882],[90.6786,22.8314],[90.6781,22.7923],[90.6587,22.7892],[90.7045,22.6559],[90.7621,22.6024],[90.7754,22.5434],[90.8712,22.435],[90.842,22.3649],[90.8452,22.2645],[90.8161,22.1228],[90.7009,21.9827],[90.7167,22.0208],[90.6774,21.9962],[90.6208,21.9958],[90.5784,21.884],[90.5383,21.8826],[90.5486,21.8452],[90.5403,21.8576],[90.505,21.8632],[90.5167,21.8861],[90.4952,21.8744],[90.4869,21.9008],[90.5072,21.9082],[90.4999,21.9179],[90.5089,21.9355],[90.5408,21.9633],[90.5369,21.9823],[90.5668,21.9887],[90.5494,21.9967],[90.5958,22.0333],[90.6163,22.0976],[90.6163,22.1809],[90.6746,22.2726],[90.6754,22.385],[90.658,22.4142],[90.6708,22.475],[90.6579,22.5532],[90.6042,22.5625],[90.5992,22.5425],[90.575,22.55],[90.6,22.5208],[90.6052,22.5492],[90.6207,22.5548],[90.659,22.5418],[90.6452,22.5293],[90.6451,22.3745],[90.6333,22.3833],[90.6036,22.2769],[90.5339,22.2064],[90.5244,22.1676],[90.5051,22.1659],[90.4703,22.1103],[90.3389,21.9874],[90.3369,22.0216],[90.3869,22.0853],[90.3799,22.1241],[90.3797,22.0824],[90.3385,22.0538],[90.2618,21.8385],[90.1896,21.7964],[90.0961,21.8219],[90.084,21.8617],[90.1,21.8792],[90.0772,21.8589],[90.0311,21.8714],[90.0203,21.9257],[90.0244,21.9488],[90.0699,21.9714],[90.0881,22.0439],[90.1551,22.116],[90.1924,22.1078],[90.2203,22.1311],[90.2381,22.2007],[90.2167,22.2292],[90.2083,22.3375],[90.2077,22.237],[90.234,22.1909],[90.2034,22.1216],[90.152,22.1202],[90.0844,22.0538],[90.0574,21.9747],[89.9923,22.0011],[89.9828,22.0344],[90.0199,22.0465],[90.0125,22.0625],[89.9842,22.0491],[89.9744,22.0159],[89.9922,21.9618],[89.9689,21.9422],[89.9342,21.9545],[89.9154,22.0208],[89.8925,22.0128],[89.8971,22.0374],[89.9132,22.0336],[89.8952,22.061],[89.909,22.1462],[89.8744,22.2396],[89.8621,22.2327],[89.8494,22.2549],[89.8994,22.3395],[89.8994,22.3781],[89.9739,22.4378],[89.9869,22.4687],[89.9882,22.495],[90.0125,22.4958],[89.9845,22.5006],[89.9788,22.4559],[89.9566,22.4295],[89.8975,22.3871],[89.8792,22.3958],[89.8913,22.3601],[89.842,22.2691],[89.8379,22.2267],[89.8962,22.16],[89.8792,22.0917],[89.8483,22.0629],[89.8042,22.0708],[89.858,22.0358],[89.8788,21.8976],[89.8559,21.8705],[89.8417,21.875],[89.8411,21.8509],[89.7802,21.8286],[89.7698,21.8494],[89.7458,21.8542],[89.7257,21.8286],[89.6926,21.8422],[89.6759,21.8328],[89.666,21.8741],[89.6559,21.8538],[89.6292,21.8708],[89.7047,21.7926],[89.7035,21.7718],[89.6353,21.7506],[89.6078,21.7637],[89.6083,21.8042],[89.5911,21.7632],[89.6125,21.7223],[89.5966,21.7119],[89.5635,21.7131],[89.5464,21.7353],[89.5328,21.7659],[89.5464,21.7929],[89.5286,21.8201],[89.5387,21.8547],[89.5544,21.8554],[89.5381,21.9616],[89.6004,22.1309],[89.5478,22.2078],[89.5839,22.1074],[89.5324,21.9911],[89.5078,22.0219],[89.5339,22.0801],[89.5131,22.1011],[89.4756,22.2176],[89.4912,22.2646],[89.4744,22.3022],[89.4339,22.352],[89.4464,22.4052],[89.4286,22.4855],[89.4083,22.5208],[89.4412,22.3854],[89.4257,22.3468],[89.4797,22.2759],[89.4589,22.202],[89.5214,22.0718],[89.4968,22.0286],[89.4744,22.036],[89.5131,21.9591],[89.5119,21.9135],[89.4535,21.905],[89.4755,21.9033],[89.4535,21.8498],[89.4757,21.7869],[89.4532,21.7551],[89.4159,21.7216],[89.3914,21.7202],[89.3548,21.7562],[89.3452,21.8132],[89.3785,21.877],[89.384,21.9127],[89.3507,22.0145],[89.3667,22.05],[89.3422,22.0272],[89.3547,21.9826],[89.3449,21.9703],[89.2881,22.0561],[89.3047,22.0884],[89.299,22.0952],[89.2619,22.0926],[89.2839,22.148],[89.3203,22.1853],[89.3083,22.2125],[89.3121,22.1809],[89.2795,22.1566],[89.2663,22.11],[89.2458,22.1],[89.2618,22.0828],[89.2964,22.0841],[89.2797,22.052],[89.3631,21.9132],[89.3619,21.8968],[89.325,21.875],[89.3715,21.8795],[89.3369,21.8133],[89.3346,21.7834],[89.3074,21.8506],[89.3035,21.8174],[89.2785,21.8326],[89.2744,21.8747],[89.2952,21.9021],[89.2904,21.9125],[89.2596,21.9125],[89.2355,21.941],[89.2077,21.9535],[89.2458,21.9833],[89.2049,21.9615],[89.2035,21.9492],[89.2175,21.934],[89.2397,21.9327],[89.2501,21.9137],[89.2881,21.9037],[89.2715,21.8813],[89.2672,21.8354],[89.291,21.7897],[89.2789,21.6968],[89.2965,21.6764],[89.2438,21.6506],[89.2051,21.6544],[89.2244,21.7104],[89.1764,21.8051],[89.1918,21.8342],[89.2085,21.9091],[89.17,21.8008],[89.157,21.791],[89.1003,21.8092],[89.0994,21.8688],[89.0785,21.8992],[89.091,22.0063],[89.0464,22.0895],[89.0667,22.125],[89.0217,22.163],[89.0199,22.2032],[88.9674,22.2093],[88.9619,22.2397],[88.95,22.25],[88.9672,22.1728],[88.9759,22.1592],[88.9875,22.1542],[88.9716,22.195],[89.016,22.1993],[89.0174,22.1591],[89.0535,22.1313],[89.0327,22.0918],[89.0798,21.996],[89.0576,21.9239],[89.0632,21.8854],[89.0882,21.861],[89.0798,21.8104],[89.1325,21.7739],[89.1492,21.7297],[89.1088,21.7174],[89.041,21.7849],[89.0577,21.8604],[89.0239,21.9038],[89.0263,21.9249],[89.0151,21.8993],[89.0021,21.9007],[88.9298,21.9396],[88.9257,21.9646],[88.9465,21.9915],[88.934,22.0618],[88.9743,22.0729],[88.9965,22.1332],[88.9875,22.15],[88.9701,22.0759],[88.9244,22.0593],[88.9381,21.9966],[88.9216,21.9786],[88.9047,22.0314],[88.9083,21.9292],[89.0339,21.8635],[89.0214,21.7686],[89.0964,21.6676],[89.0952,21.6343],[89.0674,21.6161],[89.0417,21.6208],[89.0213,21.5994],[88.9592,21.6132],[88.9369,21.645],[88.9548,21.6829],[88.9492,21.6995],[88.9202,21.718],[88.9298,21.737],[88.9208,21.7583],[88.9174,21.7175],[88.9453,21.6896],[88.9242,21.63],[88.8931,21.6459],[88.8702,21.695],[88.8786,21.7563],[88.8341,21.7798],[88.8536,21.8813],[88.8161,21.9245],[88.8536,21.9119],[88.8625,21.9167],[88.8272,21.9369],[88.8,21.9208],[88.8423,21.8918],[88.8215,21.8354],[88.834,21.813],[88.8243,21.7918],[88.8354,21.7673],[88.8673,21.7614],[88.841,21.7127],[88.8618,21.6354],[88.8485,21.616],[88.8077,21.6307],[88.8201,21.6604],[88.8138,21.7069],[88.8002,21.6535],[88.7752,21.6632],[88.7417,21.6583]],[[88.7493,22.0676],[88.75,22.075],[88.7458,22.0667],[88.7493,22.0676]],[[88.7546,22.0762],[88.7512,22.0797],[88.75,22.075],[88.7546,22.0762]],[[88.7155,22.0087],[88.7119,22.0054],[88.7167,22.0042],[88.7155,22.0087]],[[88.475,21.7958],[88.467,21.7991],[88.4675,21.7965],[88.475,21.7958]],[[88.353,21.6879],[88.3494,21.6845],[88.3542,21.6833],[88.353,21.6879]],[[88.1708,21.9167],[88.1741,21.9247],[88.1715,21.9242],[88.1708,21.9167]],[[90.6572,22.7962],[90.6536,22.7929],[90.6583,22.7917],[90.6572,22.7962]],[[90.7167,22.0208],[90.7208,22.025],[90.7175,22.0241],[90.7167,22.0208]],[[90.7208,22.025],[90.725,22.0292],[90.7217,22.0283],[90.7208,22.025]],[[90.725,22.0292],[90.7283,22.0372],[90.7257,22.0367],[90.725,22.0292]],[[90.6042,22.5625],[90.6,22.5667],[90.6009,22.5634],[90.6042,22.5625]],[[90.6,22.5667],[90.5958,22.5708],[90.5967,22.5675],[90.6,22.5667]],[[90.5947,22.5754],[90.5911,22.572],[90.5958,22.5708],[90.5947,22.5754]],[[90.6007,22.5134],[90.6042,22.5125],[90.6,22.5208],[90.6007,22.5134]],[[90.6115,22.5118],[90.6094,22.4746],[90.6339,22.4905],[90.6115,22.5118]],[[90.6333,22.3833],[90.6292,22.3875],[90.63,22.3842],[90.6333,22.3833]],[[90.6292,22.3875],[90.625,22.3917],[90.6259,22.3884],[90.6292,22.3875]],[[90.625,22.3917],[90.6137,22.4089],[90.6079,22.4071],[90.625,22.3917]],[[89.9012,22.0579],[89.9047,22.0613],[89.9,22.0625],[89.9012,22.0579]],[[89.8405,21.8796],[89.8369,21.8762],[89.8417,21.875],[89.8405,21.8796]],[[89.7452,21.8647],[89.741,21.8555],[89.7458,21.8542],[89.7452,21.8647]],[[89.6292,21.8708],[89.6262,21.8797],[89.6244,21.8721],[89.6292,21.8708]],[[89.6083,21.8042],[89.6042,21.8083],[89.605,21.805],[89.6083,21.8042]],[[89.6033,21.8118],[89.5958,21.8125],[89.6042,21.8083],[89.6033,21.8118]],[[89.5958,21.8125],[89.5917,21.8167],[89.5925,21.8134],[89.5958,21.8125]],[[89.5917,21.8167],[89.5875,21.8208],[89.5884,21.8175],[89.5917,21.8167]],[[89.5875,21.8208],[89.5833,21.825],[89.5842,21.8217],[89.5875,21.8208]],[[89.5824,21.8285],[89.575,21.8292],[89.5833,21.825],[89.5824,21.8285]],[[89.575,21.8292],[89.5708,21.8333],[89.5717,21.83],[89.575,21.8292]],[[89.5642,21.8337],[89.565,21.8413],[89.5583,21.8417],[89.5642,21.8337]],[[89.5572,21.8462],[89.5536,21.8429],[89.5583,21.8417],[89.5572,21.8462]],[[89.325,21.875],[89.3208,21.8708],[89.3241,21.8717],[89.325,21.875]],[[89.3163,21.8697],[89.3196,21.8661],[89.3208,21.8708],[89.3163,21.8697]],[[89.0667,22.125],[89.0708,22.1292],[89.0675,22.1283],[89.0667,22.125]],[[89.0754,22.1303],[89.072,22.1339],[89.0708,22.1292],[89.0754,22.1303]],[[89.025,21.925],[89.0208,21.9292],[89.0217,21.9259],[89.025,21.925]],[[89.0208,21.9292],[89.0167,21.9333],[89.0175,21.93],[89.0208,21.9292]],[[89.0167,21.9333],[89.0125,21.9375],[89.0134,21.9342],[89.0167,21.9333]],[[89.0125,21.9375],[89.0045,21.9408],[89.005,21.9382],[89.0125,21.9375]],[[89.0405,21.6254],[89.0369,21.622],[89.0417,21.6208],[89.0405,21.6254]],[[90.5204,22.8905],[90.5238,22.8869],[90.525,22.8917],[90.5204,22.8905]],[[90.5625,22.8917],[90.5538,22.9006],[90.525,22.8917],[90.5625,22.8917]],[[90.5637,22.8871],[90.5672,22.8905],[90.5625,22.8917],[90.5637,22.8871]],[[90.5101,22.883],[90.4962,22.8691],[90.4958,22.8583],[90.5121,22.8725],[90.5101,22.883]],[[90.4958,22.8583],[90.4917,22.8542],[90.495,22.855],[90.4958,22.8583]],[[90.4917,22.8542],[90.4875,22.85],[90.4908,22.8509],[90.4917,22.8542]],[[90.484,22.8491],[90.4833,22.8417],[90.4875,22.85],[90.484,22.8491]],[[90.4833,22.8417],[90.4801,22.8337],[90.4827,22.8342],[90.4833,22.8417]],[[90.5171,22.8845],[90.5137,22.8881],[90.5125,22.8833],[90.5171,22.8845]],[[90.5583,22.7958],[90.5333,22.7917],[90.5387,22.7788],[90.5583,22.7958]],[[90.5322,22.7962],[90.5286,22.7929],[90.5333,22.7917],[90.5322,22.7962]],[[90.5629,22.797],[90.5595,22.8006],[90.5583,22.7958],[90.5629,22.797]],[[88.4,21.8792],[88.3958,21.875],[88.3991,21.8759],[88.4,21.8792]],[[88.4046,21.8803],[88.4012,21.8839],[88.4,21.8792],[88.4046,21.8803]],[[88.3375,21.7042],[88.3417,21.7],[88.3408,21.7033],[88.3375,21.7042]],[[88.3428,21.6954],[88.3464,21.6988],[88.3417,21.7],[88.3428,21.6954]],[[88.3363,21.7087],[88.3328,21.7054],[88.3375,21.7042],[88.3363,21.7087]],[[88.9012,22.1496],[88.9047,22.153],[88.9,22.1542],[88.9012,22.1496]],[[88.8988,22.1587],[88.8953,22.1554],[88.9,22.1542],[88.8988,22.1587]],[[88.9204,22.0947],[88.9238,22.0911],[88.925,22.0958],[88.9204,22.0947]],[[88.925,22.0958],[88.9284,22.112],[88.9257,22.1118],[88.925,22.0958]],[[88.9019,22.0786],[88.8912,22.0635],[88.9042,22.0542],[88.8996,22.0684],[88.9019,22.0786]],[[88.9048,22.0395],[88.909,22.0527],[88.9042,22.0542],[88.9048,22.0395]],[[88.9087,22.0803],[88.9054,22.0839],[88.9042,22.0792],[88.9087,22.0803]],[[89.0833,22.1542],[89.0792,22.15],[89.0825,22.1509],[89.0833,22.1542]],[[89.0746,22.1488],[89.078,22.1453],[89.0792,22.15],[89.0746,22.1488]],[[89.0879,22.1553],[89.0845,22.1589],[89.0833,22.1542],[89.0879,22.1553]],[[89.0913,22.1447],[89.0946,22.1411],[89.0958,22.1458],[89.0913,22.1447]],[[89.1004,22.147],[89.097,22.1506],[89.0958,22.1458],[89.1004,22.147]],[[89.2167,22.0958],[89.2292,22.0833],[89.225,22.1],[89.2167,22.0958]],[[89.2155,22.1004],[89.2119,22.097],[89.2167,22.0958],[89.2155,22.1004]],[[89.4667,22.1417],[89.4634,22.1337],[89.466,22.1342],[89.4667,22.1417]],[[89.4667,22.1417],[89.4756,22.1447],[89.4679,22.1464],[89.4667,22.1417]],[[89.4345,21.9454],[89.4381,21.9488],[89.4333,21.95],[89.4345,21.9454]],[[89.4322,21.9546],[89.4286,21.9512],[89.4333,21.95],[89.4322,21.9546]],[[89.45,21.9417],[89.458,21.9384],[89.4575,21.941],[89.45,21.9417]],[[89.45,21.9417],[89.442,21.9449],[89.4425,21.9423],[89.45,21.9417]],[[89.7176,21.8965],[89.725,21.8958],[89.7167,21.9],[89.7176,21.8965]],[[89.7262,21.8913],[89.7282,21.8932],[89.725,21.8958],[89.7262,21.8913]],[[89.7155,21.9046],[89.7119,21.9012],[89.7167,21.9],[89.7155,21.9046]],[[90.5996,22.4655],[90.603,22.4619],[90.6042,22.4667],[90.5996,22.4655]],[[90.6087,22.4678],[90.6054,22.4714],[90.6042,22.4667],[90.6087,22.4678]],[[90.5913,22.453],[90.5946,22.4494],[90.5958,22.4542],[90.5913,22.453]],[[90.6004,22.4553],[90.597,22.4589],[90.5958,22.4542],[90.6004,22.4553]],[[90.7366,22.895],[90.7342,22.8925],[90.7375,22.8917],[90.7366,22.895]],[[90.7325,22.9033],[90.73,22.9009],[90.7333,22.9],[90.7325,22.9033]],[[90.6506,23.1214],[90.6453,23.1191],[90.6486,23.1167],[90.6506,23.1214]],[[90.6158,23.3285],[90.5871,23.3309],[90.6042,23.275],[90.6292,23.2833],[90.6158,23.3285]],[[90.5735,22.8878],[90.5736,22.8833],[90.5746,22.8854],[90.5735,22.8878]],[[90.4547,22.8339],[90.4494,22.8316],[90.4528,22.8292],[90.4547,22.8339]],[[90.4569,22.7708],[90.4534,22.8157],[90.4467,22.8173],[90.4452,22.7915],[90.4569,22.7708]],[[90.5698,22.7994],[90.5868,22.8047],[90.6506,22.8005],[90.6299,22.8089],[90.577,22.8078],[90.5698,22.7994]],[[90.5246,22.7979],[90.5204,22.7975],[90.5236,22.7958],[90.5246,22.7979]],[[90.45,22.7583],[90.5087,22.71],[90.5081,22.5843],[90.5708,22.55],[90.5405,22.6001],[90.5289,22.5967],[90.5168,22.6359],[90.5323,22.6423],[90.5343,22.6287],[90.5743,22.655],[90.566,22.698],[90.5497,22.7033],[90.5616,22.6622],[90.5383,22.6867],[90.5366,22.6593],[90.5174,22.6508],[90.521,22.7054],[90.4871,22.7489],[90.45,22.7583]],[[90.5403,22.7125],[90.5421,22.7427],[90.53,22.7548],[90.5285,22.7248],[90.5403,22.7125]],[[90.5204,22.6766],[90.5246,22.6771],[90.5235,22.6794],[90.5204,22.6766]],[[90.5412,22.6141],[90.5455,22.6146],[90.5443,22.6169],[90.5412,22.6141]],[[90.562,22.6016],[90.5663,22.6021],[90.5652,22.6044],[90.562,22.6016]],[[90.0288,22.5184],[90.0215,22.5701],[90.0167,22.4958],[90.0288,22.5184]],[[90.3691,22.4955],[90.3726,22.4879],[90.375,22.4875],[90.3691,22.4955]],[[90.3577,22.4759],[90.3548,22.4949],[90.3542,22.475],[90.3577,22.4759]],[[89.5726,22.233],[89.5542,22.2125],[89.5871,22.2267],[89.5913,22.2767],[89.633,22.3351],[89.6246,22.3983],[89.5833,22.5083],[89.5881,22.4437],[89.6256,22.3547],[89.5786,22.263],[89.5867,22.2382],[89.5726,22.233]],[[89.5825,22.5158],[89.58,22.5134],[89.5833,22.5125],[89.5825,22.5158]],[[89.5667,22.5583],[89.5757,22.5217],[89.5792,22.5208],[89.5786,22.5355],[89.5667,22.5583]],[[89.4116,22.5259],[89.4092,22.5283],[89.4083,22.525],[89.4116,22.5259]],[[89.4256,22.551],[89.4083,22.5625],[89.4214,22.5507],[89.4125,22.5333],[89.4243,22.5384],[89.4256,22.551]],[[89.5616,22.57],[89.5592,22.5675],[89.5625,22.5667],[89.5616,22.57]],[[90.4495,22.56],[90.4538,22.5604],[90.4527,22.5628],[90.4495,22.56]],[[90.0292,22.575],[90.0375,22.6083],[90.0167,22.6042],[90.0292,22.575]],[[89.5542,22.5792],[89.525,22.6125],[89.5295,22.6017],[89.5542,22.5792]],[[90.4819,22.5792],[90.4701,22.584],[90.466,22.58],[90.4819,22.5792]],[[90.0491,22.6175],[90.0467,22.62],[90.0458,22.6167],[90.0491,22.6175]],[[89.525,22.6208],[89.5216,22.6283],[89.5203,22.622],[89.525,22.6208]],[[90.0509,22.6283],[90.0533,22.6259],[90.0542,22.6292],[90.0509,22.6283]],[[90.0285,22.6342],[90.0257,22.6408],[90.025,22.6333],[90.0285,22.6342]],[[89.525,22.6417],[89.5292,22.6458],[89.5259,22.645],[89.525,22.6417]],[[89.5325,22.655],[89.53,22.6575],[89.5292,22.6542],[89.5325,22.655]],[[89.5333,22.7],[89.5333,22.6875],[89.5381,22.6988],[89.5333,22.7]],[[89.5325,22.7116],[89.53,22.7092],[89.5333,22.7083],[89.5325,22.7116]],[[90.4292,22.7458],[90.425,22.75],[90.4259,22.7467],[90.4292,22.7458]],[[90.4411,22.7605],[90.4375,22.7583],[90.4417,22.7583],[90.4411,22.7605]],[[87.9062,22.4312],[87.9083,22.4333],[87.9028,22.4333],[87.9062,22.4312]],[[87.8918,22.4327],[87.8976,22.4254],[87.9006,22.4253],[87.8918,22.4327]],[[87.9259,22.4092],[87.929,22.4101],[87.9255,22.4106],[87.9259,22.4092]],[[87.9379,22.3851],[87.9396,22.3956],[87.9393,22.3963],[87.9375,22.3958],[87.9379,22.3851]],[[89.1875,22.3875],[89.1917,22.3833],[89.1908,22.3866],[89.1875,22.3875]],[[89.2083,22.3667],[89.2125,22.3667],[89.2095,22.3714],[89.2083,22.3667]],[[88.9507,22.3574],[88.9535,22.3509],[88.9542,22.3583],[88.9507,22.3574]],[[89.2092,22.3533],[89.2116,22.3509],[89.2125,22.3542],[89.2092,22.3533]],[[89.2634,22.3425],[89.2667,22.3458],[89.2625,22.3458],[89.2634,22.3425]],[[88.95,22.3417],[88.9522,22.3381],[88.9547,22.3405],[88.95,22.3417]],[[88.9,22.3375],[88.9422,22.2966],[88.934,22.2551],[88.9458,22.25],[88.95,22.3125],[88.9316,22.308],[88.9,22.3375]],[[89.2125,22.3292],[89.2167,22.325],[89.2158,22.3283],[89.2125,22.3292]],[[88.95,22.325],[88.9478,22.3286],[88.9453,22.3262],[88.95,22.325]],[[89.267,22.3184],[89.2691,22.3205],[89.2667,22.3208],[89.267,22.3184]],[[89.411,22.3128],[89.4111,22.3083],[89.4121,22.3104],[89.411,22.3128]],[[89.2757,22.3009],[89.2785,22.3074],[89.275,22.3083],[89.2757,22.3009]],[[89.28,22.2925],[89.2825,22.295],[89.2792,22.2958],[89.28,22.2925]],[[89.2595,22.2922],[89.2625,22.2792],[89.2657,22.28],[89.2672,22.2844],[89.2595,22.2922]],[[89.3214,22.2863],[89.3125,22.2708],[89.3201,22.2759],[89.3214,22.2863]],[[89.2458,22.2667],[89.2494,22.2551],[89.25,22.2667],[89.2458,22.2667]],[[89.2925,22.2616],[89.295,22.2592],[89.2958,22.2625],[89.2925,22.2616]],[[89.4119,22.2526],[89.4172,22.2549],[89.4139,22.2589],[89.4119,22.2526]],[[87.9524,22.3192],[87.9375,22.3167],[87.9381,22.2677],[87.9918,22.2186],[87.9496,22.2838],[87.9524,22.3192]],[[88.6792,22.3208],[88.6792,22.3212],[88.6776,22.3212],[88.6792,22.3208]],[[88.0009,22.2092],[88.0158,22.204],[88.0004,22.2111],[88.0009,22.2092]],[[87.971,22.1047],[87.9776,22.1038],[87.9783,22.1041],[87.971,22.1047]],[[87.9646,22.1006],[87.973,22.0964],[87.9751,22.098],[87.9646,22.1006]],[[87.9893,22.1003],[88.002,22.0797],[88.0076,22.0783],[87.9893,22.1003]],[[88.0389,22.0246],[88.0248,22.0664],[88.0084,22.0775],[88.0259,22.0339],[88.0389,22.0246]],[[88.6462,22.2358],[88.655,22.2404],[88.6579,22.2458],[88.6462,22.2358]],[[88.6648,22.2119],[88.663,22.2173],[88.6583,22.2125],[88.6648,22.2119]],[[88.6425,22.2092],[88.6456,22.2092],[88.6419,22.2114],[88.6425,22.2092]],[[88.4759,21.8925],[88.4783,21.895],[88.475,21.8958],[88.4759,21.8925]],[[88.3958,21.8542],[88.4006,21.8655],[88.3958,21.8667],[88.3958,21.8542]],[[88.3917,21.8292],[88.3917,21.8417],[88.3869,21.8304],[88.3917,21.8292]],[[88.3958,21.8167],[88.3958,21.8208],[88.3911,21.8179],[88.3958,21.8167]],[[88.3833,21.7833],[88.3994,21.7968],[88.4006,21.8113],[88.3958,21.8125],[88.3833,21.7833]],[[88.3795,21.7725],[88.3816,21.7746],[88.3792,21.775],[88.3795,21.7725]],[[88.3759,21.7368],[88.3824,21.734],[88.3833,21.7375],[88.3759,21.7368]],[[88.3792,21.7208],[88.3941,21.7205],[88.4,21.7167],[88.3949,21.7243],[88.3792,21.7208]],[[88.2842,21.7134],[88.2866,21.7158],[88.2833,21.7167],[88.2842,21.7134]],[[88.3068,21.7128],[88.3069,21.7083],[88.308,21.7104],[88.3068,21.7128]],[[88.2991,21.7033],[88.2879,21.7059],[88.3125,21.6833],[88.2991,21.7033]],[[88.2162,21.6725],[88.2205,21.6729],[88.2193,21.6753],[88.2162,21.6725]],[[88.412,21.6808],[88.4163,21.6812],[88.4152,21.6836],[88.412,21.6808]],[[88.4162,21.6725],[88.4205,21.6729],[88.4193,21.6753],[88.4162,21.6725]],[[88.4119,21.6609],[88.4172,21.6633],[88.4139,21.6673],[88.4119,21.6609]],[[88.7829,22.1766],[88.7871,22.1771],[88.786,22.1794],[88.7829,22.1766]],[[88.9027,22.1753],[88.9028,22.1708],[88.9038,22.1729],[88.9027,22.1753]],[[88.8913,22.1687],[88.887,22.1683],[88.8903,22.1667],[88.8913,22.1687]],[[88.7955,22.1684],[88.7837,22.1608],[88.7833,22.1583],[88.7955,22.1684]],[[88.7733,22.1462],[88.7767,22.1538],[88.7708,22.1458],[88.7733,22.1462]],[[88.8495,22.1516],[88.8538,22.1521],[88.8527,22.1544],[88.8495,22.1516]],[[88.7592,22.1452],[88.7658,22.1423],[88.7667,22.1458],[88.7592,22.1452]],[[88.9068,22.1419],[88.9069,22.1375],[88.908,22.1396],[88.9068,22.1419]],[[88.7533,22.1384],[88.7509,22.1408],[88.75,22.1375],[88.7533,22.1384]],[[88.7208,22.1068],[88.7413,22.1184],[88.7417,22.1333],[88.7208,22.1068]],[[88.8277,22.1294],[88.8278,22.125],[88.8288,22.1271],[88.8277,22.1294]],[[88.9193,22.1253],[88.9194,22.1208],[88.9205,22.1229],[88.9193,22.1253]],[[88.8153,22.125],[88.8152,22.1294],[88.812,22.1266],[88.8153,22.125]],[[88.7903,22.1083],[88.7866,22.1131],[88.7827,22.1093],[88.7903,22.1083]],[[88.7788,22.1062],[88.7745,22.1058],[88.7778,22.1042],[88.7788,22.1062]],[[88.7755,22.0966],[88.7702,22.0943],[88.7736,22.0917],[88.7755,22.0966]],[[88.708,22.0979],[88.7037,22.0975],[88.7069,22.0958],[88.708,22.0979]],[[88.712,22.1016],[88.7163,22.1021],[88.7152,22.1044],[88.712,22.1016]],[[88.9152,22.0878],[88.9153,22.0833],[88.9163,22.0854],[88.9152,22.0878]],[[88.7611,22.0833],[88.761,22.0878],[88.7579,22.085],[88.7611,22.0833]],[[88.8131,22.0228],[88.8135,22.025],[88.8125,22.025],[88.8131,22.0228]],[[88.8342,22.0217],[88.8373,22.0218],[88.8339,22.0228],[88.8342,22.0217]],[[88.8708,22.0208],[88.8739,22.017],[88.8741,22.02],[88.8708,22.0208]],[[88.7778,21.725],[88.7788,21.7271],[88.7745,21.7266],[88.7778,21.725]],[[88.7922,21.7101],[88.7976,21.7127],[88.7931,21.7131],[88.7922,21.7101]],[[88.7655,21.712],[88.7634,21.7118],[88.7629,21.71],[88.7655,21.712]],[[88.7842,21.7077],[88.7838,21.706],[88.7879,21.708],[88.7842,21.7077]],[[88.7618,21.7008],[88.7579,21.7071],[88.7592,21.7003],[88.7618,21.7008]],[[88.8833,21.9208],[88.8905,21.9161],[88.8917,21.9208],[88.8833,21.9208]],[[88.87,21.9175],[88.8675,21.92],[88.8667,21.9167],[88.87,21.9175]],[[88.9509,21.7798],[88.9574,21.7827],[88.95,21.7833],[88.9509,21.7798]],[[88.9601,21.7705],[88.9566,21.7629],[88.9625,21.7708],[88.9601,21.7705]],[[88.9286,21.7647],[88.925,21.7625],[88.9292,21.7625],[88.9286,21.7647]],[[88.9458,21.7625],[88.9488,21.7578],[88.95,21.7625],[88.9458,21.7625]],[[89.0287,21.6308],[89.033,21.6312],[89.0318,21.6336],[89.0287,21.6308]],[[88.9912,21.9516],[88.9955,21.9521],[88.9943,21.9544],[88.9912,21.9516]],[[88.9954,21.9433],[88.9996,21.9437],[88.9985,21.9461],[88.9954,21.9433]],[[89.4443,22.2461],[89.4444,22.2417],[89.4455,22.2437],[89.4443,22.2461]],[[89.4121,22.2437],[89.4079,22.2433],[89.4111,22.2417],[89.4121,22.2437]],[[89.2458,22.2458],[89.2369,22.2326],[89.2469,22.2172],[89.2833,22.2167],[89.2465,22.2216],[89.2458,22.2458]],[[89.305,22.22],[89.3083,22.2167],[89.3083,22.2208],[89.305,22.22]],[[89.0413,22.2312],[89.037,22.2308],[89.0403,22.2292],[89.0413,22.2312]],[[89.3045,22.2392],[89.3066,22.2413],[89.3042,22.2417],[89.3045,22.2392]],[[89.3092,22.2283],[89.3116,22.2259],[89.3125,22.2292],[89.3092,22.2283]],[[89.0703,22.1899],[89.0756,22.1922],[89.0741,22.1997],[89.0703,22.1899]],[[89.062,22.1641],[89.0663,22.1646],[89.0652,22.1669],[89.062,22.1641]],[[89.0871,22.1396],[89.0829,22.1391],[89.0861,22.1375],[89.0871,22.1396]],[[89.2333,22.1],[89.2375,22.1],[89.2345,22.1047],[89.2333,22.1]],[[89.2337,22.0809],[89.2455,22.0517],[89.2083,22.0],[89.2458,21.9875],[89.2161,22.0095],[89.2495,22.0519],[89.2337,22.0809]],[[89.15,22.0333],[89.1625,21.9958],[89.1691,21.9964],[89.1627,22.0214],[89.15,22.0333]],[[89.1586,22.0501],[89.1559,22.0538],[89.15,22.0458],[89.1586,22.0501]],[[89.1715,22.0684],[89.1717,22.0675],[89.1734,22.0671],[89.1715,22.0684]],[[89.1664,22.0717],[89.1634,22.0717],[89.1667,22.0708],[89.1664,22.0717]],[[89.1568,22.0785],[89.155,22.0759],[89.1583,22.075],[89.1568,22.0785]],[[89.15,22.0833],[89.1489,22.0867],[89.1458,22.0875],[89.15,22.0833]],[[89.1328,21.947],[89.1379,21.9608],[89.1625,21.9875],[89.1384,21.9702],[89.1328,21.947]],[[89.1428,21.9209],[89.1518,21.9199],[89.1375,21.9375],[89.1428,21.9209]],[[89.1661,21.9255],[89.1673,21.9255],[89.1662,21.9256],[89.1661,21.9255]],[[89.1788,21.9166],[89.1907,21.9163],[89.1869,21.9173],[89.1788,21.9166]],[[89.312,21.86],[89.3163,21.8604],[89.3152,21.8628],[89.312,21.86]],[[89.3833,22.1],[89.3816,22.0955],[89.3875,22.0917],[89.3833,22.1]],[[89.3667,22.0542],[89.3756,22.0689],[89.3921,22.0863],[89.3712,22.0691],[89.3667,22.0542]],[[89.4286,22.0151],[89.4339,22.0174],[89.4306,22.0214],[89.4286,22.0151]],[[89.4327,21.9901],[89.438,21.9924],[89.4348,21.9964],[89.4327,21.9901]],[[89.4454,21.9141],[89.4496,21.9146],[89.4485,21.9169],[89.4454,21.9141]],[[89.8827,22.1526],[89.888,22.1549],[89.8848,22.1589],[89.8827,22.1526]],[[89.8167,22.0917],[89.8265,22.096],[89.8375,22.1167],[89.8342,22.1158],[89.8167,22.0917]],[[89.675,22.0542],[89.6908,22.0634],[89.6917,22.0667],[89.6851,22.0663],[89.675,22.0542]],[[89.6754,22.0475],[89.6775,22.0496],[89.675,22.05],[89.6754,22.0475]],[[89.6884,22.0382],[89.6958,22.0375],[89.6875,22.0417],[89.6884,22.0382]],[[89.7,22.0333],[89.6909,22.0009],[89.7033,22.0326],[89.7,22.0333]],[[89.6833,21.9917],[89.6833,21.9333],[89.6911,21.9436],[89.6922,21.9674],[89.6833,21.9917]],[[89.6376,21.9312],[89.6295,21.935],[89.6399,21.9253],[89.6376,21.9312]],[[89.6798,21.9283],[89.6827,21.9217],[89.6833,21.9292],[89.6798,21.9283]],[[89.7277,21.9211],[89.7278,21.9167],[89.7288,21.9187],[89.7277,21.9211]],[[89.7205,21.9146],[89.7162,21.9141],[89.7194,21.9125],[89.7205,21.9146]],[[89.6792,21.9167],[89.6576,21.8994],[89.6467,21.9075],[89.6414,21.897],[89.6566,21.8879],[89.6792,21.9167]],[[89.633,21.8854],[89.6287,21.885],[89.6319,21.8833],[89.633,21.8854]],[[89.575,21.9417],[89.5708,21.9417],[89.5738,21.9369],[89.575,21.9417]],[[89.7402,21.8753],[89.7403,21.8708],[89.7413,21.8729],[89.7402,21.8753]],[[90.3208,22.4667],[90.2994,22.4576],[90.3042,22.45],[90.3208,22.4667]],[[90.175,22.4542],[90.1703,22.4429],[90.175,22.4417],[90.175,22.4542]],[[90.3042,22.4458],[90.2839,22.423],[90.2833,22.4208],[90.2996,22.4309],[90.3042,22.4458]],[[90.1705,22.4267],[90.1629,22.4233],[90.1625,22.4208],[90.1705,22.4267]],[[90.1825,22.4675],[90.18,22.47],[90.1792,22.4667],[90.1825,22.4675]],[[90.3467,22.47],[90.3491,22.4675],[90.35,22.4708],[90.3467,22.47]],[[90.1509,22.4158],[90.1533,22.4134],[90.1542,22.4167],[90.1509,22.4158]],[[90.2708,22.4083],[90.2619,22.3645],[90.2583,22.35],[90.2663,22.3559],[90.2708,22.4083]],[[90.0991,22.3509],[90.0967,22.3533],[90.0958,22.35],[90.0991,22.3509]],[[90.1163,22.3642],[90.1045,22.3566],[90.1042,22.3542],[90.1163,22.3642]],[[90.1283,22.3842],[90.1259,22.3866],[90.125,22.3833],[90.1283,22.3842]],[[90.1371,22.3975],[90.1295,22.3941],[90.1292,22.3917],[90.1371,22.3975]],[[90.2271,22.35],[90.2396,22.3333],[90.2583,22.3458],[90.2271,22.35]],[[90.1006,22.3311],[90.0911,22.3323],[90.1086,22.3178],[90.1006,22.3311]],[[90.1045,22.3017],[90.1118,22.3076],[90.1042,22.3083],[90.1045,22.3017]],[[90.1092,22.2825],[90.1116,22.28],[90.1125,22.2833],[90.1092,22.2825]],[[90.0989,22.2794],[90.0795,22.2608],[90.0721,22.2165],[90.084,22.2605],[90.0989,22.2794]],[[90.0667,22.2167],[90.0267,22.208],[90.0208,22.1917],[90.0259,22.1993],[90.0667,22.2167]],[[89.8663,22.2687],[89.862,22.2683],[89.8653,22.2667],[89.8663,22.2687]],[[90.1037,22.2725],[90.108,22.2729],[90.1068,22.2753],[90.1037,22.2725]],[[90.024,22.0621],[90.0286,22.1259],[90.066,22.1551],[90.0672,22.1676],[90.0534,22.1797],[90.0342,22.1716],[90.0629,22.1595],[90.0161,22.1215],[90.024,22.0621]],[[90.43,22.1866],[90.4325,22.1842],[90.4333,22.1875],[90.43,22.1866]],[[90.4217,22.1825],[90.4241,22.18],[90.425,22.1833],[90.4217,22.1825]],[[90.4006,22.1699],[90.4036,22.1426],[90.4042,22.1708],[90.4006,22.1699]],[[90.1375,21.95],[90.1375,21.9542],[90.1328,21.9512],[90.1375,21.95]],[[90.1208,21.925],[90.1375,21.925],[90.122,21.9297],[90.1208,21.925]],[[90.1167,21.9125],[90.1167,21.9167],[90.1119,21.9137],[90.1167,21.9125]],[[90.1087,21.8941],[90.1121,21.885],[90.1167,21.9],[90.1087,21.8941]],[[90.5079,21.9225],[90.5121,21.9229],[90.511,21.9253],[90.5079,21.9225]],[[91.062,22.5058],[91.0663,22.5062],[91.0652,22.5086],[91.062,22.5058]]],[[[88.0199,21.5825],[88.0176,21.5674],[88.0142,21.5839],[88.0199,21.5825]]],[[[88.1903,21.5583],[88.1715,21.5687],[88.1674,21.6034],[88.1923,21.5861],[88.1903,21.5583]]],[[[88.8861,21.5458],[88.8298,21.5645],[88.8298,21.6075],[88.8949,21.5824],[88.9078,21.5604],[88.8861,21.5458]]],[[[89.3506,21.7091],[89.3285,21.6977],[89.3369,21.7215],[89.3506,21.7091]]],[[[90.609,21.7487],[90.5921,21.7406],[90.6014,21.7506],[90.609,21.7487]]],[[[88.7429,21.6536],[88.7741,21.6576],[88.7756,21.6228],[88.8006,21.5988],[88.7897,21.5797],[88.7382,21.5703],[88.7089,21.5811],[88.7172,21.6368],[88.6869,21.6826],[88.697,21.7172],[88.705,21.6884],[88.7429,21.6536]]],[[[88.6319,21.6458],[88.6256,21.6605],[88.637,21.6798],[88.641,21.6645],[88.6319,21.6458]]],[[[89.7198,21.7546],[89.7133,21.7465],[89.712,21.7531],[89.7198,21.7546]]],[[[90.5965,21.7606],[90.5827,21.7509],[90.5912,21.7631],[90.5965,21.7606]]],[[[88.2048,21.769],[88.191,21.7602],[88.1995,21.7715],[88.2048,21.769]]],[[[90.5644,21.766],[90.5638,21.7584],[90.5593,21.7798],[90.5644,21.766]]],[[[90.8153,21.8583],[90.8035,21.8662],[90.8053,21.8756],[90.8242,21.8743],[90.8153,21.8583]]],[[[89.8922,21.9631],[89.8869,21.9607],[89.8908,21.9705],[89.8922,21.9631]]],[[[90.3322,21.963],[90.3302,21.9495],[90.3245,21.9556],[90.3322,21.963]]],[[[90.8575,21.9493],[90.8512,21.9454],[90.85,21.95],[90.8575,21.9493]]],[[[90.8342,21.9506],[90.8299,21.97],[90.8491,21.9743],[90.8574,21.955],[90.8342,21.9506]]],[[[90.8589,21.9903],[90.8467,21.9798],[90.8531,21.9922],[90.8589,21.9903]]],[[[90.8285,21.9895],[90.8077,21.98],[90.8243,22.0007],[90.8285,21.9895]]],[[[88.1465,21.9174],[88.1398,21.891],[88.1134,21.9074],[88.1035,21.8843],[88.1048,21.9075],[88.1242,21.9298],[88.1465,21.9174]]],[[[88.0528,21.9083],[88.0465,21.9397],[88.072,21.9999],[88.1465,22.0273],[88.0909,21.9301],[88.0528,21.9083]]],[[[90.7736,21.8375],[90.7674,21.8615],[90.7825,21.871],[90.7839,21.8537],[90.7736,21.8375]]],[[[90.6278,21.8875],[90.6085,21.8932],[90.6257,21.97],[90.7034,21.9785],[90.6739,21.9171],[90.6278,21.8875]]],[[[90.4797,21.7738],[90.4592,21.7673],[90.4637,21.7839],[90.4797,21.7738]]],[[[90.7339,21.8466],[90.7286,21.8443],[90.7306,21.8506],[90.7339,21.8466]]],[[[90.7297,21.8071],[90.7202,21.7968],[90.7218,21.809],[90.7297,21.8071]]],[[[88.1299,21.6244],[88.0464,21.6426],[88.0328,21.6743],[88.0714,21.7814],[88.1324,21.8797],[88.1756,21.8135],[88.1756,21.7549],[88.1578,21.652],[88.1299,21.6244]]],[[[88.1881,21.7925],[88.1785,21.7862],[88.1801,21.8006],[88.1881,21.7925]]],[[[90.5744,21.773],[90.5845,21.7922],[90.5964,21.7842],[90.5897,21.7756],[90.5744,21.773]]],[[[88.1881,21.8215],[88.1744,21.8243],[88.1766,21.8298],[88.1881,21.8215]]],[[[90.3923,21.802],[90.3747,21.7883],[90.3873,21.8048],[90.3923,21.802]]],[[[90.3203,21.7979],[90.3119,21.7968],[90.3137,21.8048],[90.3203,21.7979]]],[[[90.2986,21.85],[90.2924,21.8382],[90.2911,21.8491],[90.2986,21.85]]],[[[90.3783,21.8492],[90.3676,21.8381],[90.3625,21.8443],[90.3783,21.8492]]],[[[89.8528,21.7958],[89.8383,21.7965],[89.8292,21.8154],[89.8576,21.8201],[89.8528,21.7958]]],[[[90.4536,21.8069],[90.4672,21.8135],[90.4613,21.7995],[90.4536,21.8069]]],[[[90.4406,21.8171],[90.4342,21.809],[90.4329,21.8156],[90.4406,21.8171]]],[[[90.4508,21.8215],[90.4571,21.8254],[90.4583,21.8208],[90.4508,21.8215]]],[[[89.8611,21.8292],[89.8494,21.8451],[89.8507,21.8617],[89.8703,21.8438],[89.8611,21.8292]]],[[[90.3944,21.8167],[90.3927,21.834],[90.4048,21.8323],[90.4035,21.827],[90.3944,21.8167]]],[[[90.4248,21.8318],[90.4122,21.8176],[90.4241,21.8376],[90.4248,21.8318]]],[[[90.4653,21.8292],[90.4577,21.8301],[90.4616,21.834],[90.4653,21.8292]]],[[[90.5297,21.8561],[90.5161,21.8487],[90.5297,21.8322],[90.5193,21.8215],[90.4926,21.8078],[90.4745,21.8156],[90.4936,21.8578],[90.5297,21.8561]]],[[[90.4756,21.8655],[90.4521,21.834],[90.4285,21.8357],[90.452,21.8619],[90.4756,21.8655]]],[[[88.6451,21.7883],[88.5883,21.7965],[88.5756,21.8313],[88.6438,21.9244],[88.6715,21.9156],[88.6451,21.7883]]],[[[90.6199,21.8671],[90.6069,21.8458],[90.5916,21.8569],[90.6199,21.8671]]],[[[88.5792,21.8792],[88.5866,21.8619],[88.5799,21.8635],[88.5792,21.8792]]],[[[90.4278,21.8583],[90.4202,21.8593],[90.4241,21.8631],[90.4278,21.8583]]],[[[90.5611,21.8667],[90.5535,21.8727],[90.5669,21.874],[90.5611,21.8667]]],[[[90.6281,21.8795],[90.6175,21.8715],[90.617,21.874],[90.6281,21.8795]]],[[[90.7361,21.8583],[90.718,21.8588],[90.7088,21.8815],[90.7298,21.9238],[90.7528,21.9287],[90.762,21.906],[90.7361,21.8583]]],[[[89.9002,21.9929],[89.8786,21.9935],[89.8992,21.9993],[89.9002,21.9929]]],[[[89.9137,22.0089],[89.9136,22.0006],[89.908,22.0071],[89.9137,22.0089]]],[[[90.8661,22.0021],[90.8577,22.0009],[90.8596,22.009],[90.8661,22.0021]]],[[[90.8444,21.9917],[90.8327,22.0079],[90.8412,22.0215],[90.8506,22.0197],[90.8444,21.9917]]]]}}