{"type":"Feature","properties":{"speciesId":311,"category":"LC","source":"IUCN Red List","simplifyTol":0.01,"clippedToSubcontinent":true},"geometry":{"type":"Polygon","coordinates":[[[84.8699,19.2139],[84.6929,18.9579],[84.6006,18.8682],[84.5635,18.7904],[84.4572,18.6851],[84.4484,18.6543],[84.3818,18.5947],[84.3651,18.5534],[84.1666,18.3787],[84.1375,18.3434],[84.1411,18.3142],[83.9623,18.2157],[83.9344,18.2254],[83.9453,18.21],[83.8113,18.1604],[83.6734,18.085],[83.5755,18.0095],[83.5411,17.9497],[83.4723,17.8985],[83.4679,17.9212],[83.4438,17.934],[83.4651,17.8826],[83.4135,17.8402],[83.4172,17.8083],[83.3542,17.7525],[83.3507,17.7279],[83.3031,17.6956],[82.8533,17.5362],[82.0262,17.4115],[81.7227,17.3783],[81.5897,17.4573],[81.5939,17.5154],[82.4792,17.9436],[82.9656,18.3052],[83.4436,18.5754],[84.1502,19.0368],[84.4537,19.2571],[84.7155,19.5231],[84.9192,19.9596],[85.0107,20.3378],[85.0107,20.6122],[85.0356,20.8325],[85.0938,20.9239],[85.1811,20.9198],[85.2393,20.8823],[85.2725,20.7743],[85.2642,20.4833],[85.1977,19.8889],[85.0564,19.4067],[85.0019,19.3233],[84.8699,19.2139]]]}}