{"type":"Feature","properties":{"speciesId":312,"category":"LC","source":"IUCN Red List","simplifyTol":0.01,"clippedToSubcontinent":true},"geometry":{"type":"MultiPolygon","coordinates":[[[[84.8154,19.1448],[84.6929,18.9579],[84.6006,18.8682],[84.5635,18.7904],[84.4572,18.6851],[84.4484,18.6543],[84.3818,18.5947],[84.3651,18.5534],[84.1628,18.3736],[83.8501,18.1652],[83.8113,18.1604],[83.6734,18.085],[83.5755,18.0095],[83.5411,17.9497],[83.4723,17.8985],[83.4679,17.9212],[83.4438,17.934],[83.449,17.9081],[83.4672,17.8865],[83.4164,17.8366],[82.8514,17.4094],[82.6724,17.3253],[82.4936,17.2121],[82.3045,17.0442],[82.2315,16.9553],[82.2604,16.9292],[82.2571,16.864],[82.2721,16.8873],[82.276,16.8548],[82.2921,16.8749],[82.3044,16.8567],[82.3118,16.871],[82.3205,16.8373],[82.3384,16.8588],[82.3657,16.8342],[82.3656,16.8116],[82.3712,16.8235],[82.3187,16.6502],[81.9554,16.3972],[81.842,16.3691],[81.7322,16.3135],[81.5724,16.3552],[81.4942,16.36],[81.3307,16.3152],[81.2134,16.252],[81.1458,15.9682],[81.0499,15.9049],[81.0051,15.8531],[80.9904,15.8252],[81.0046,15.7624],[80.9106,15.7154],[80.8439,15.7013],[80.8246,15.856],[80.6374,15.8848],[80.4361,15.8094],[80.2846,15.7192],[80.1468,15.3997],[80.0957,15.329],[80.0826,15.2577],[80.091,15.2043],[80.0646,15.1906],[80.0736,15.1742],[80.0457,15.0876],[80.0688,14.9409],[80.0518,14.8192],[80.0518,14.3833],[79.6594,13.6857],[79.2235,13.2498],[78.8747,13.0318],[78.3952,12.9446],[77.9592,13.2062],[77.3925,13.8165],[76.9566,14.6448],[76.7822,15.5167],[76.695,16.4322],[76.8297,17.3288],[77.0014,18.1528],[77.3489,19.0043],[77.8284,19.571],[78.4824,20.2249],[79.0491,20.5737],[80.139,20.6609],[81.316,20.5301],[82.6674,20.3121],[84.0189,19.8762],[84.7164,19.4838],[84.9542,19.2856],[84.8154,19.1448]]],[[[83.4669,17.9095],[83.4535,17.9115],[83.4631,17.9187],[83.4669,17.9095]]]]}}