{"type":"Feature","properties":{"speciesId":313,"category":"LC","source":"IUCN Red List","simplifyTol":0.01,"clippedToSubcontinent":true},"geometry":{"type":"MultiPolygon","coordinates":[[[[80.2493,9.8236],[80.3657,9.6603],[80.8117,9.2909],[80.8841,9.1219],[81.0005,8.9388],[80.993,8.918],[81.0102,8.929],[81.013,8.8911],[81.021,8.9048],[81.0589,8.8595],[81.0875,8.8584],[81.1048,8.8126],[81.2267,8.6475],[81.2208,8.6062],[81.2298,8.581],[81.2451,8.5793],[81.2471,8.5458],[81.2257,8.5323],[81.2261,8.5695],[81.1927,8.5665],[81.2119,8.5077],[81.1896,8.5018],[81.1977,8.4615],[81.2624,8.4569],[81.304,8.4326],[81.304,8.4583],[81.2958,8.4465],[81.2809,8.4568],[81.2831,8.5032],[81.3222,8.5224],[81.353,8.4909],[81.3937,8.3567],[81.4078,8.2419],[81.4769,8.0343],[81.5686,7.9227],[81.5874,7.921],[81.5671,7.8981],[81.593,7.83],[81.6268,7.8247],[81.6544,7.7729],[81.6999,7.7536],[81.7713,7.6448],[81.8718,7.3159],[81.8586,7.0907],[81.8813,7.0267],[81.8704,6.9789],[81.8489,6.9896],[81.8578,6.9672],[81.8729,6.9669],[81.8364,6.8853],[81.8518,6.8884],[81.8483,6.8675],[81.8397,6.8542],[81.8211,6.8621],[81.8444,6.8344],[81.8233,6.8088],[81.8249,6.7653],[81.8084,6.7647],[81.8279,6.7586],[81.7759,6.6639],[81.7664,6.592],[81.7324,6.5669],[81.7003,6.482],[81.6518,6.4367],[81.5973,6.4241],[81.6135,6.4056],[81.56,6.3612],[81.522,6.3525],[81.4869,6.3055],[81.3285,6.1945],[81.2222,6.1589],[81.1946,6.1576],[81.197,6.1776],[81.178,6.1441],[81.1336,6.1174],[81.0167,6.1071],[80.8659,6.0408],[81.0524,7.1738],[81.0274,7.3764],[80.8884,7.6044],[80.7834,7.6999],[80.6139,7.7927],[80.3786,7.8652],[79.9721,7.9267],[79.8896,7.9521],[79.8322,7.9951],[79.8324,8.0151],[79.7896,8.0682],[79.8086,8.0611],[79.7948,8.0793],[79.8338,8.1396],[79.8154,8.2037],[79.7946,8.2203],[79.8095,8.2174],[79.7897,8.2301],[79.8101,8.2374],[79.8342,8.2919],[79.8476,8.2742],[79.8584,8.2846],[79.8351,8.317],[79.8678,8.5277],[79.9263,8.559],[79.9193,8.5846],[79.9414,8.6155],[79.9519,8.6823],[79.9561,8.7209],[79.9248,8.7907],[79.9401,8.8068],[79.9184,8.8083],[79.9307,8.8147],[79.919,8.8188],[79.9358,8.8913],[79.9122,8.9299],[80.0403,9.0133],[80.0661,9.0562],[80.0857,9.0999],[80.0761,9.1203],[80.1173,9.2072],[80.1116,9.2768],[80.1278,9.2906],[80.0676,9.3287],[80.0549,9.3914],[80.1466,9.4347],[80.1861,9.4827],[80.1461,9.5361],[80.054,9.5979],[80.0876,9.6249],[80.0176,9.6509],[79.971,9.7077],[79.948,9.6871],[79.9099,9.7587],[79.9528,9.7921],[80.0224,9.8126],[80.1056,9.8059],[80.2147,9.8314],[80.2493,9.8236]]],[[[79.8583,14.48],[79.9643,15.2533],[80.1925,15.7991],[81.3386,16.6767],[81.4568,16.8905],[81.7241,17.0682],[82.0939,17.1952],[82.3982,17.4054],[82.9591,17.887],[83.3204,18.1282],[83.5755,18.0095],[83.5411,17.9497],[83.4723,17.8985],[83.4679,17.9212],[83.4438,17.934],[83.4672,17.8865],[83.4135,17.8402],[83.4172,17.8083],[83.3542,17.7525],[83.3507,17.7279],[83.2944,17.6912],[83.3009,17.6774],[83.2456,17.6371],[83.2152,17.5903],[83.0229,17.5088],[82.9939,17.4732],[82.8843,17.4241],[82.8832,17.4381],[82.8655,17.4155],[82.6197,17.2943],[82.4936,17.2121],[82.3045,17.0442],[82.2794,17.0015],[82.2777,16.9443],[82.2529,16.9186],[82.2666,16.8866],[82.2571,16.864],[82.2721,16.8873],[82.276,16.8548],[82.2921,16.8749],[82.3044,16.8567],[82.3193,16.8678],[82.3205,16.8373],[82.3419,16.8605],[82.3691,16.8561],[82.3656,16.8116],[82.3749,16.9175],[82.3489,16.9698],[82.3717,16.953],[82.3799,16.9037],[82.3559,16.7128],[82.3226,16.6489],[82.3214,16.6135],[82.3019,16.6042],[82.3175,16.5846],[81.9554,16.3972],[81.842,16.3691],[81.7322,16.3135],[81.5325,16.359],[81.4535,16.3547],[81.3307,16.3152],[81.2538,16.2596],[81.2018,16.179],[81.1881,16.1455],[81.2125,16.1759],[81.2069,16.1316],[81.1483,16.0],[81.1551,15.9707],[81.0499,15.9049],[80.9927,15.8316],[81.0029,15.7705],[81.0318,15.7592],[80.9388,15.7079],[80.8948,15.7157],[80.8129,15.7012],[80.7824,15.8485],[80.8093,15.7779],[80.8111,15.837],[80.7695,15.8685],[80.6054,15.8756],[80.3757,15.774],[80.2936,15.7047],[80.2494,15.6334],[80.1996,15.4623],[80.0957,15.329],[80.0826,15.2577],[80.091,15.2043],[80.0646,15.1906],[80.0736,15.1742],[80.0452,15.0673],[80.0872,14.8059],[80.1961,14.5712],[80.1695,14.3491],[80.1263,14.2069],[80.1285,14.1412],[80.1544,14.0181],[80.2558,13.78],[80.2339,13.7186],[80.2329,13.6455],[80.3233,13.4439],[80.3438,13.2798],[80.2956,13.1211],[80.3049,13.0927],[80.2609,13.0127],[80.2741,13.0056],[80.2429,12.8158],[80.2476,12.7533],[80.1758,12.5813],[80.1868,12.5753],[80.1569,12.4775],[80.1413,12.4726],[80.1367,12.4298],[80.0463,12.3104],[80.067,12.3502],[80.0576,12.351],[79.8651,12.0132],[79.8342,11.9097],[79.8187,11.9071],[79.8333,11.902],[79.7982,11.7882],[79.7762,11.7694],[79.794,11.7694],[79.7932,11.7502],[79.7576,11.5706],[79.6618,11.5949],[79.6728,11.7859],[79.8788,12.4359],[79.938,13.7563],[79.8583,14.48]]],[[[76.3456,15.3771],[76.3797,15.3615],[76.3926,15.3263],[76.3772,15.2927],[76.3421,15.2796],[76.308,15.2952],[76.2951,15.3298],[76.3105,15.364],[76.3456,15.3771]]]]}}