{"type":"Feature","properties":{"speciesId":318,"category":"LC","source":"IUCN Red List","simplifyTol":0.01,"clippedToSubcontinent":true},"geometry":{"type":"Polygon","coordinates":[[[76.104,11.7046],[76.1232,11.8344],[76.1905,12.0555],[76.2434,12.4256],[76.2386,12.9591],[76.1857,13.4878],[76.1617,14.1606],[76.2963,14.7614],[76.4597,15.1027],[76.8153,15.2372],[77.0316,15.2036],[77.0989,15.1123],[77.2527,14.4298],[77.3729,14.0068],[77.6901,13.5839],[78.7378,13.06],[79.1127,12.6611],[79.0887,12.2333],[78.7763,11.5941],[78.3726,11.2577],[77.0941,11.1327],[76.4933,11.1712],[76.3635,11.2384],[76.2242,11.3634],[76.1088,11.6037],[76.104,11.7046]]]}}