{"type":"Feature","properties":{"speciesId":319,"category":"EN","source":"IUCN Red List","simplifyTol":0.01,"clippedToSubcontinent":true},"geometry":{"type":"Polygon","coordinates":[[[81.9057,19.1677],[81.7315,19.4171],[81.5436,19.745],[81.3967,19.9278],[81.2976,20.0969],[81.2413,20.2933],[81.2515,20.3855],[81.2789,20.447],[81.3335,20.4983],[81.3694,20.5068],[81.407,20.4931],[81.5248,20.3838],[81.5692,20.2899],[81.5966,20.0285],[81.6871,19.7433],[82.0577,19.072],[82.0509,19.0601],[82.0219,19.0498],[81.9057,19.1677]]]}}