{"type":"Feature","properties":{"speciesId":322,"category":"LC","source":"IUCN Red List","simplifyTol":0.01,"clippedToSubcontinent":true},"geometry":{"type":"Polygon","coordinates":[[[77.828,12.2924],[77.7301,12.5075],[77.6373,12.5738],[77.5914,12.6472],[77.5476,12.8705],[77.5405,13.0367],[77.57,13.0887],[77.671,13.1111],[77.9911,13.1438],[78.1074,13.1417],[78.2369,13.051],[78.5682,12.7461],[78.6325,12.6696],[78.661,12.584],[78.6223,12.5544],[78.35,12.4892],[78.0961,12.3974],[77.9738,12.3495],[77.8616,12.2832],[77.828,12.2924]]]}}