{"type":"Feature","properties":{"speciesId":324,"category":"LC","source":"IUCN Red List","simplifyTol":0.01,"clippedToSubcontinent":true},"geometry":{"type":"MultiPolygon","coordinates":[[[[95.3642,4.8746],[95.387,4.8735],[95.3867,4.8631],[95.3773,4.8558],[95.3642,4.8746]]],[[[95.1456,5.5516],[95.16,5.5608],[95.1687,5.5572],[95.1651,5.5484],[95.1456,5.5516]]],[[[95.1899,5.5783],[95.2094,5.5765],[95.1773,5.5691],[95.1899,5.5783]]],[[[95.1296,5.602],[95.1213,5.5914],[95.1149,5.6165],[95.1404,5.6576],[95.1864,5.6057],[95.1411,5.5871],[95.1296,5.602]]],[[[95.0781,5.6323],[95.0535,5.6194],[95.0461,5.6207],[95.0502,5.6374],[95.0781,5.6323]]],[[[95.0594,5.7485],[95.1341,5.663],[95.0728,5.6668],[95.0494,5.6444],[95.0602,5.6681],[95.0418,5.6688],[95.0586,5.6868],[95.0399,5.7078],[95.0581,5.7165],[95.0456,5.7323],[95.0093,5.725],[95.0293,5.7484],[95.0594,5.7485]]],[[[95.2869,5.8388],[95.3217,5.8814],[95.317,5.8944],[95.3331,5.8926],[95.3736,5.8469],[95.3742,5.8025],[95.3454,5.8252],[95.3286,5.769],[95.2771,5.7845],[95.2549,5.8439],[95.218,5.8746],[95.2152,5.9044],[95.2869,5.8388]]],[[[79.9609,6.566],[79.9608,6.5662],[79.9612,6.5654],[79.9609,6.566]]],[[[81.8462,6.895],[81.8463,6.895],[81.8462,6.895],[81.8462,6.895]]],[[[81.8484,6.8979],[81.8471,6.8966],[81.8484,6.8979],[81.8484,6.8979]]],[[[93.8912,7.0949],[93.9251,7.0201],[93.9547,6.9984],[93.9206,6.9981],[93.95,6.9523],[93.9282,6.9466],[93.924,6.9097],[93.9074,6.8998],[93.9004,6.8466],[93.9191,6.8288],[93.9137,6.8025],[93.8934,6.7908],[93.8853,6.8064],[93.8663,6.8033],[93.8398,6.7471],[93.8175,6.7601],[93.8268,6.8034],[93.7974,6.8258],[93.8052,6.8429],[93.7851,6.8659],[93.7998,6.8743],[93.773,6.9125],[93.7606,6.9036],[93.7512,6.9152],[93.7477,6.9585],[93.6882,7.0176],[93.6598,7.0112],[93.6711,7.0319],[93.6573,7.0934],[93.6718,7.1099],[93.6536,7.12],[93.678,7.1442],[93.6724,7.1738],[93.6879,7.1854],[93.7329,7.1823],[93.7622,7.2069],[93.8033,7.1959],[93.8043,7.2255],[93.8427,7.2369],[93.8429,7.2201],[93.8821,7.197],[93.8912,7.0949]]],[[[81.8762,7.0079],[81.8762,7.0083],[81.8764,7.0084],[81.8762,7.0079]]],[[[81.8771,7.0111],[81.8771,7.0116],[81.8773,7.0118],[81.8771,7.0111]]],[[[93.7057,7.2258],[93.7206,7.2031],[93.7175,7.2011],[93.7057,7.2258]]],[[[79.8487,7.2712],[79.8522,7.272],[79.8515,7.2712],[79.8487,7.2712]]],[[[93.7194,7.3076],[93.6705,7.2797],[93.6453,7.2407],[93.6238,7.2634],[93.6236,7.3688],[93.6613,7.3675],[93.702,7.3899],[93.6946,7.4414],[93.7108,7.3892],[93.746,7.3621],[93.7194,7.3076]]],[[[80.2493,9.8236],[80.3642,9.6612],[80.6729,9.4159],[80.6616,9.4054],[80.6449,9.4244],[80.6525,9.4054],[80.6895,9.3853],[80.6784,9.4113],[80.8104,9.2922],[80.7938,9.2837],[80.8138,9.2856],[80.8837,9.1258],[80.8629,9.1394],[80.8654,9.1067],[80.88,9.0954],[80.8771,9.1067],[80.8845,9.1229],[81.0021,8.9333],[80.9879,8.9208],[81.0085,8.9294],[81.013,8.8911],[81.0209,8.8995],[81.0683,8.852],[81.0818,8.8597],[81.1179,8.7916],[81.1074,8.7912],[81.1054,8.7883],[81.1463,8.7665],[81.1719,8.7271],[81.1458,8.7388],[81.1371,8.7217],[81.145,8.7338],[81.165,8.7237],[81.162,8.7108],[81.1658,8.7062],[81.1756,8.723],[81.2267,8.6475],[81.2212,8.6033],[81.2451,8.5793],[81.2471,8.5458],[81.2274,8.5322],[81.2258,8.5704],[81.1927,8.5665],[81.2119,8.5077],[81.1867,8.5079],[81.1825,8.5337],[81.1695,8.5185],[81.1946,8.4658],[81.1813,8.4417],[81.2092,8.4496],[81.2061,8.4643],[81.2272,8.456],[81.2204,8.4533],[81.2225,8.4396],[81.2306,8.4577],[81.245,8.4438],[81.2624,8.4569],[81.304,8.4326],[81.304,8.4583],[81.2958,8.4465],[81.2809,8.4568],[81.2831,8.5032],[81.3208,8.522],[81.3233,8.5054],[81.3358,8.5058],[81.3421,8.5016],[81.332,8.5042],[81.3304,8.4891],[81.3429,8.5013],[81.353,8.4909],[81.4388,8.1266],[81.4596,8.1066],[81.4812,8.0217],[81.5398,7.9661],[81.5279,7.9616],[81.5404,7.9408],[81.5146,7.9175],[81.5121,7.8925],[81.5175,7.9179],[81.5625,7.9371],[81.5846,7.9175],[81.5587,7.8908],[81.5904,7.8308],[81.6221,7.8249],[81.6412,7.785],[81.7092,7.7238],[81.6954,7.7467],[81.7079,7.74],[81.7787,7.6191],[81.8179,7.4633],[81.8058,7.4954],[81.7991,7.4711],[81.8112,7.4725],[81.8437,7.4045],[81.8688,7.3183],[81.8629,7.1866],[81.855,7.2004],[81.8595,7.185],[81.8212,7.1567],[81.8433,7.1179],[81.8629,7.1816],[81.8596,7.0866],[81.8525,7.0896],[81.8488,7.0825],[81.8638,7.0863],[81.8804,7.0233],[81.8709,7.0046],[81.8587,7.0141],[81.8659,7.0012],[81.8761,7.0073],[81.8688,6.9784],[81.8454,6.9933],[81.8525,6.9696],[81.8704,6.9704],[81.8642,6.9546],[81.8608,6.9612],[81.8513,6.965],[81.8638,6.95],[81.8321,6.8875],[81.8488,6.8908],[81.8483,6.8675],[81.8138,6.8525],[81.8429,6.8325],[81.8163,6.8091],[81.8246,6.7652],[81.8084,6.7647],[81.8273,6.7594],[81.7729,6.6641],[81.7646,6.5925],[81.7221,6.5558],[81.7312,6.5458],[81.7146,6.5392],[81.7271,6.5325],[81.6988,6.485],[81.6517,6.4404],[81.6308,6.4329],[81.6396,6.4442],[81.6367,6.4512],[81.6163,6.421],[81.5973,6.4241],[81.6179,6.4111],[81.5992,6.3937],[81.555,6.3612],[81.505,6.3521],[81.4808,6.3054],[81.4083,6.2746],[81.4175,6.2604],[81.3958,6.2429],[81.3733,6.2479],[81.3746,6.2309],[81.3416,6.2196],[81.3256,6.1943],[81.2008,6.1579],[81.1933,6.1771],[81.1874,6.1546],[81.13,6.1179],[81.0166,6.1079],[80.9818,6.0857],[80.8891,6.0662],[80.8638,6.0406],[80.82,6.0446],[80.718,5.9599],[80.6525,5.9546],[80.5868,5.9168],[80.5875,5.9338],[80.5442,5.9446],[80.4711,5.9359],[80.4489,5.9431],[80.4563,5.9617],[80.4442,5.9671],[80.3828,5.9595],[80.2442,6.0069],[80.2322,6.0339],[80.2186,6.022],[80.0986,6.1289],[80.0314,6.2656],[80.0357,6.2982],[79.9947,6.4157],[80.0062,6.4292],[79.9746,6.464],[79.9866,6.4771],[79.9579,6.5808],[79.9688,6.5958],[79.9552,6.5881],[79.8947,6.7338],[79.8431,6.9333],[79.8696,6.9733],[79.8846,6.975],[79.88,6.9596],[79.8862,6.9708],[79.8862,6.9758],[79.8817,6.9796],[79.8712,6.9766],[79.819,7.1934],[79.831,7.1975],[79.8267,7.1717],[79.8572,7.0971],[79.8701,7.1533],[79.8543,7.1925],[79.8309,7.2062],[79.8456,7.2697],[79.8515,7.2696],[79.8592,7.2756],[79.8445,7.2761],[79.8027,7.4826],[79.7916,7.5935],[79.8044,7.6096],[79.8069,7.5996],[79.8181,7.6008],[79.806,7.6112],[79.7978,7.6105],[79.7977,7.7275],[79.6997,8.1126],[79.7104,8.1383],[79.6984,8.2138],[79.7254,8.2267],[79.7379,8.2767],[79.7629,8.3242],[79.7812,8.3497],[79.7563,8.3071],[79.7579,8.2534],[79.7287,8.2275],[79.7751,8.2575],[79.7688,8.2156],[79.7567,8.2213],[79.7404,8.2008],[79.7492,8.1829],[79.7296,8.1191],[79.7346,8.0724],[79.7538,8.0596],[79.7379,8.0175],[79.7468,7.9924],[79.8186,7.9719],[79.8082,7.8839],[79.8265,7.9206],[79.8338,8.015],[79.7912,8.0684],[79.8086,8.0611],[79.7952,8.0793],[79.8338,8.1396],[79.8196,8.1983],[79.7946,8.2203],[79.8087,8.2216],[79.7897,8.2301],[79.8096,8.2366],[79.8343,8.2919],[79.8476,8.2742],[79.8584,8.2846],[79.836,8.3044],[79.8446,8.4275],[79.8638,8.4508],[79.8712,8.5342],[79.9196,8.5597],[79.9404,8.555],[79.9196,8.5855],[79.9454,8.6191],[79.9612,8.72],[79.9267,8.792],[79.9412,8.805],[79.9198,8.8104],[79.9388,8.9083],[79.9224,8.9104],[79.9122,8.9299],[79.9255,8.9393],[79.9388,8.9266],[79.9296,8.9142],[79.9483,8.9129],[79.9412,8.93],[79.9571,8.94],[79.9579,8.9567],[80.0671,9.0325],[80.0857,9.0999],[80.077,9.1218],[80.1196,9.2158],[80.1116,9.2768],[80.1279,9.2925],[80.0676,9.3287],[80.0549,9.3912],[80.1466,9.4347],[80.1862,9.4817],[80.1425,9.5404],[80.054,9.5979],[80.065,9.6096],[80.0666,9.5996],[80.1733,9.5421],[80.2341,9.5346],[80.2829,9.495],[80.2491,9.5021],[80.2796,9.4733],[80.2346,9.4733],[80.2875,9.4496],[80.3341,9.4529],[80.3416,9.4671],[80.3517,9.4596],[80.3941,9.4754],[80.3988,9.4866],[80.3952,9.5143],[80.3208,9.5746],[80.1899,9.6463],[80.1604,9.645],[80.1745,9.6342],[80.1629,9.6233],[80.1837,9.6199],[80.1741,9.6054],[80.0762,9.6575],[80.0816,9.6396],[80.1371,9.6083],[80.1275,9.6046],[80.0176,9.6509],[79.971,9.7077],[79.9475,9.6879],[79.9099,9.7587],[79.9528,9.7921],[80.0224,9.8126],[80.1306,9.815],[80.1337,9.8128],[80.1296,9.8042],[80.1327,9.7921],[80.1437,9.8209],[80.2147,9.8314],[80.2493,9.8236]]],[[[93.4716,7.8823],[93.4557,7.8654],[93.4437,7.8906],[93.4193,7.899],[93.382,7.8756],[93.3489,7.8891],[93.3489,7.9229],[93.3617,7.9295],[93.3457,7.943],[93.3299,7.9121],[93.3126,7.9455],[93.3268,8.0],[93.3713,8.0189],[93.4037,8.0049],[93.4026,7.9675],[93.4593,7.9299],[93.4716,7.8823]]],[[[79.8229,7.9447],[79.8199,7.9542],[79.822,7.9553],[79.8229,7.9447]]],[[[93.5415,7.9984],[93.5585,8.0212],[93.5755,7.9936],[93.5728,7.9256],[93.5072,7.98],[93.5263,8.0229],[93.5415,7.9984]]],[[[93.5871,8.0374],[93.5698,8.0591],[93.5712,8.0722],[93.5845,8.0634],[93.5689,8.0914],[93.5767,8.112],[93.5578,8.1113],[93.5686,8.122],[93.5817,8.1185],[93.5871,8.0374]]],[[[79.7368,8.0997],[79.7346,8.0999],[79.7369,8.1029],[79.7368,8.0997]]],[[[93.5047,8.1635],[93.5171,8.1087],[93.5474,8.0776],[93.5429,8.0355],[93.5294,8.0475],[93.5052,8.0296],[93.4994,7.9924],[93.484,8.0109],[93.4839,8.0886],[93.4623,8.1053],[93.4713,8.1206],[93.4564,8.1165],[93.4513,8.1697],[93.4878,8.1987],[93.4908,8.2198],[93.5382,8.2269],[93.5349,8.1763],[93.5146,8.1818],[93.5047,8.1635]]],[[[79.7034,8.1338],[79.7021,8.1358],[79.7042,8.1371],[79.7034,8.1338]]],[[[81.4382,8.1372],[81.4379,8.1375],[81.4379,8.1382],[81.4382,8.1372]]],[[[81.4376,8.1395],[81.4371,8.14],[81.4371,8.1412],[81.4376,8.1395]]],[[[79.8028,8.1729],[79.8063,8.1708],[79.8072,8.1616],[79.8028,8.1729]]],[[[93.221,8.2279],[93.1996,8.2409],[93.2058,8.2633],[93.2216,8.2491],[93.221,8.2279]]],[[[79.7776,8.262],[79.7792,8.272],[79.7817,8.2596],[79.7776,8.262]]],[[[93.1188,8.2674],[93.1821,8.2281],[93.1834,8.201],[93.1097,8.2255],[93.0744,8.2767],[93.0827,8.3384],[93.1143,8.3577],[93.1284,8.3425],[93.1188,8.2674]]],[[[79.7967,8.2929],[79.7966,8.3042],[79.8003,8.2932],[79.7967,8.2929]]],[[[79.8073,8.3256],[79.8079,8.3171],[79.8028,8.3366],[79.8073,8.3256]]],[[[79.7904,8.3766],[79.7921,8.3783],[79.7967,8.3696],[79.7904,8.3766]]],[[[93.6286,8.3936],[93.634,8.3849],[93.6256,8.3915],[93.6286,8.3936]]],[[[79.7779,8.4905],[79.7932,8.4172],[79.7912,8.4091],[79.7779,8.4905]]],[[[93.0391,8.441],[93.0237,8.4516],[93.0301,8.471],[93.0422,8.4652],[93.0391,8.441]]],[[[93.6052,8.4193],[93.6102,8.4835],[93.5951,8.5693],[93.6254,8.4637],[93.6118,8.4665],[93.6052,8.4193]]],[[[79.7804,8.5257],[79.7778,8.4926],[79.7737,8.5131],[79.7804,8.5257]]],[[[79.9196,8.8069],[79.9212,8.8058],[79.9208,8.8054],[79.9196,8.8069]]],[[[79.9213,8.8233],[79.9213,8.8233],[79.9213,8.8233],[79.9213,8.8233]]],[[[92.8519,8.8165],[92.8485,8.8282],[92.8608,8.8389],[92.8519,8.8165]]],[[[81.0154,8.9008],[81.0156,8.9022],[81.0156,8.9005],[81.0154,8.9008]]],[[[79.9257,8.9047],[79.9271,8.9034],[79.9269,8.9014],[79.9257,8.9047]]],[[[81.0154,8.9075],[81.0173,8.9073],[81.0154,8.9063],[81.0154,8.9075]]],[[[79.9162,8.9083],[79.9112,8.9196],[79.9205,8.9054],[79.9162,8.9083]]],[[[79.9105,8.9207],[79.9096,8.9216],[79.9096,8.9222],[79.9105,8.9207]]],[[[79.9071,8.925],[79.9071,8.9252],[79.909,8.9231],[79.9071,8.925]]],[[[79.949,8.9454],[79.9391,8.9329],[79.9346,8.9342],[79.949,8.9454]]],[[[79.9338,8.9415],[79.9308,8.9371],[79.9286,8.9401],[79.9338,8.9415]]],[[[79.9129,8.94],[79.9039,8.9383],[79.9131,8.9481],[79.9129,8.94]]],[[[79.8971,8.9425],[79.8936,8.9453],[79.8925,8.9471],[79.8971,8.9425]]],[[[79.8909,8.9503],[79.9043,8.9528],[79.9017,8.9438],[79.8909,8.9503]]],[[[79.8838,8.9664],[79.8834,8.967],[79.8838,8.9666],[79.8838,8.9664]]],[[[79.8829,8.9678],[79.8821,8.9691],[79.8829,8.9683],[79.8829,8.9678]]],[[[79.7105,9.1037],[79.8586,9.0731],[79.928,9.0087],[79.8554,9.0583],[79.9243,8.9746],[79.8891,8.9621],[79.88,8.9771],[79.8163,9.0326],[79.6988,9.085],[79.7105,9.1037]]],[[[80.0734,9.0779],[80.0529,9.025],[80.0475,9.0237],[80.0734,9.0779]]],[[[92.8022,9.1234],[92.768,9.1213],[92.7825,9.1266],[92.7737,9.1384],[92.7278,9.1193],[92.7115,9.1515],[92.7122,9.2109],[92.7605,9.2171],[92.7668,9.2593],[92.8047,9.2164],[92.8242,9.1626],[92.8022,9.1234]]],[[[80.0,9.2703],[79.9981,9.2817],[80.0014,9.2873],[80.0067,9.2813],[80.0,9.2703]]],[[[79.9758,9.2788],[79.9872,9.3044],[79.9904,9.2841],[79.9758,9.2788]]],[[[80.0864,9.3108],[80.0829,9.3194],[80.0916,9.3117],[80.0864,9.3108]]],[[[80.0607,9.3299],[80.0543,9.3392],[80.0579,9.3456],[80.0607,9.3299]]],[[[80.3843,9.477],[80.3827,9.4736],[80.3813,9.4741],[80.3843,9.477]]],[[[80.3734,9.4737],[80.3716,9.4771],[80.3762,9.4767],[80.3734,9.4737]]],[[[80.0054,9.4812],[80.0189,9.477],[80.0154,9.4668],[80.0054,9.4812]]],[[[79.6787,9.5433],[79.6884,9.5211],[79.7251,9.5226],[79.7271,9.4799],[79.6583,9.5031],[79.653,9.5484],[79.6787,9.5433]]],[[[79.7958,9.5809],[79.7995,9.5898],[79.8002,9.5789],[79.7958,9.5809]]],[[[80.1837,9.5892],[80.2091,9.5838],[80.2104,9.5808],[80.1837,9.5892]]],[[[79.7955,9.5892],[79.7958,9.5879],[79.7951,9.5879],[79.7955,9.5892]]],[[[80.2026,9.5896],[80.1954,9.5925],[80.2062,9.5942],[80.2026,9.5896]]],[[[80.105,9.5904],[80.105,9.5946],[80.107,9.5917],[80.105,9.5904]]],[[[80.0966,9.5921],[80.0967,9.5971],[80.1012,9.5917],[80.0966,9.5921]]],[[[79.8325,9.5865],[79.8639,9.6054],[79.8582,9.568],[79.8082,9.5772],[79.8148,9.6248],[79.8325,9.5865]]],[[[80.19,9.5996],[80.1942,9.5937],[80.1871,9.5941],[80.19,9.5996]]],[[[80.1829,9.6025],[80.1783,9.5904],[80.1645,9.6033],[80.1683,9.6054],[80.1829,9.6025]]],[[[80.2012,9.5991],[80.1954,9.5991],[80.2008,9.6012],[80.2012,9.5991]]],[[[80.0863,9.5966],[80.0687,9.6041],[80.0687,9.6067],[80.0863,9.5966]]],[[[79.7637,9.5927],[79.7754,9.6198],[79.7733,9.5849],[79.7637,9.5927]]],[[[80.0817,9.6054],[80.0762,9.6092],[80.0854,9.6058],[80.0817,9.6054]]],[[[79.8281,9.6119],[79.8287,9.6047],[79.8256,9.6075],[79.8281,9.6119]]],[[[80.1616,9.6046],[80.1625,9.6104],[80.1654,9.6058],[80.1616,9.6046]]],[[[80.1916,9.6037],[80.1933,9.6104],[80.1996,9.6183],[80.1916,9.6037]]],[[[79.8431,9.6077],[79.8469,9.6173],[79.8545,9.6093],[79.8431,9.6077]]],[[[79.9989,9.6005],[79.9663,9.6074],[80.0061,9.6272],[79.9989,9.6005]]],[[[80.1954,9.6166],[80.1813,9.6091],[80.195,9.6221],[80.1954,9.6166]]],[[[79.8651,9.6223],[79.8571,9.6241],[79.8616,9.6279],[79.8651,9.6223]]],[[[79.8529,9.6326],[79.8596,9.6291],[79.8555,9.6254],[79.8529,9.6326]]],[[[80.0025,9.6346],[79.9942,9.6404],[80.0054,9.6346],[80.0025,9.6346]]],[[[80.009,9.6453],[80.0151,9.6393],[80.0065,9.645],[80.009,9.6453]]],[[[79.8435,9.7013],[79.8938,9.69],[79.915,9.6521],[79.9084,9.6712],[79.9308,9.6762],[79.9287,9.6575],[79.9831,9.6203],[79.9701,9.6115],[79.9249,9.6329],[79.9068,9.6135],[79.8957,9.6205],[79.8743,9.6348],[79.8663,9.651],[79.8788,9.665],[79.8611,9.6581],[79.8435,9.7013]]],[[[79.7759,9.6457],[79.777,9.6799],[79.7832,9.6837],[79.7759,9.6457]]],[[[79.7921,9.6826],[79.7953,9.6859],[79.7937,9.68],[79.7921,9.6826]]],[[[79.8091,9.6937],[79.8158,9.7103],[79.8128,9.6842],[79.8091,9.6937]]],[[[79.8939,9.7618],[79.8825,9.7029],[79.8562,9.7099],[79.8644,9.7594],[79.8939,9.7618]]],[[[79.8977,9.7621],[79.8975,9.7596],[79.8967,9.762],[79.8977,9.7621]]],[[[92.5764,10.7793],[92.5809,10.6763],[92.5642,10.6748],[92.5655,10.6512],[92.5231,10.6121],[92.5228,10.5895],[92.5511,10.5747],[92.5103,10.5126],[92.4776,10.5082],[92.4121,10.5461],[92.3599,10.5307],[92.4001,10.6138],[92.3897,10.6486],[92.3643,10.6684],[92.3655,10.7891],[92.3972,10.7866],[92.4129,10.8212],[92.4438,10.8362],[92.446,10.8639],[92.5064,10.8952],[92.5454,10.8585],[92.5491,10.8035],[92.5764,10.7793]]],[[[92.6153,10.9263],[92.6257,10.9272],[92.6253,10.9226],[92.6153,10.9263]]],[[[92.244,10.9779],[92.2173,10.9743],[92.2292,10.9837],[92.244,10.9779]]],[[[92.6794,10.9812],[92.6691,10.9785],[92.6706,10.9868],[92.6794,10.9812]]],[[[92.6905,11.1738],[92.6797,11.1812],[92.6836,11.1852],[92.6905,11.1738]]],[[[92.7087,11.2469],[92.7047,11.2811],[92.7183,11.2893],[92.718,11.261],[92.7087,11.2469]]],[[[92.7304,11.3194],[92.7326,11.3128],[92.7275,11.3095],[92.7304,11.3194]]],[[[92.6971,11.4389],[92.6624,11.4038],[92.7013,11.3901],[92.7032,11.3717],[92.65,11.3472],[92.5992,11.3593],[92.6072,11.3984],[92.6359,11.4002],[92.6249,11.4622],[92.6432,11.5097],[92.6789,11.4842],[92.6971,11.4389]]],[[[92.6173,11.5249],[92.6127,11.5205],[92.6158,11.5313],[92.6173,11.5249]]],[[[92.5658,11.5216],[92.5716,11.5359],[92.5744,11.5125],[92.5658,11.5216]]],[[[92.6207,11.5342],[92.6314,11.5518],[92.6268,11.5308],[92.6207,11.5342]]],[[[92.607,11.5278],[92.5989,11.57],[92.6014,11.5723],[92.607,11.5278]]],[[[92.2774,11.5135],[92.23,11.5263],[92.2173,11.5828],[92.2786,11.5755],[92.2901,11.5326],[92.2774,11.5135]]],[[[92.614,11.5691],[92.6272,11.5762],[92.6237,11.56],[92.614,11.5691]]],[[[92.5448,11.551],[92.5414,11.5887],[92.5491,11.6014],[92.5802,11.5851],[92.5448,11.551]]],[[[92.7748,11.6748],[92.7687,11.6757],[92.7773,11.6786],[92.7748,11.6748]]],[[[93.0892,11.7753],[93.0987,11.7832],[93.0964,11.7747],[93.0892,11.7753]]],[[[97.4887,11.7622],[97.4402,11.8008],[97.4988,11.7733],[97.4887,11.7622]]],[[[93.0693,11.8104],[93.0214,11.8266],[93.0198,11.8443],[93.0815,11.8387],[93.0693,11.8104]]],[[[92.6079,11.9095],[92.6142,11.908],[92.61,11.9049],[92.6079,11.9095]]],[[[92.7362,11.9478],[92.7387,11.9356],[92.7364,11.9356],[92.7362,11.9478]]],[[[92.6142,11.9227],[92.6001,11.9685],[92.6022,11.9718],[92.6155,11.9568],[92.6142,11.9227]]],[[[92.7713,11.9617],[92.7569,11.9403],[92.7483,11.953],[92.7713,11.9617]]],[[[93.0139,12.0238],[93.0625,11.8912],[93.0462,11.8771],[93.0067,11.9381],[93.0172,11.9428],[92.987,11.9429],[92.9709,11.976],[92.9368,11.9903],[92.9734,12.0447],[93.0139,12.0238]]],[[[92.7682,11.9826],[92.7473,11.9726],[92.7453,11.9802],[92.7682,11.9826]]],[[[92.7686,11.9989],[92.7786,12.0034],[92.7799,11.991],[92.7686,11.9989]]],[[[93.0059,12.0424],[92.9723,12.0691],[92.9842,12.0892],[92.9711,12.0999],[93.012,12.1021],[93.0059,12.0424]]],[[[92.9584,12.1064],[92.9617,12.0899],[92.9612,12.0788],[92.9584,12.1064]]],[[[93.0371,12.1643],[93.0437,12.0958],[93.0594,12.0767],[93.0531,12.0439],[93.0199,12.0787],[93.0136,12.1251],[93.0371,12.1643]]],[[[92.9962,12.141],[93.0088,12.1154],[92.9716,12.1179],[92.9656,12.1412],[92.9962,12.141]]],[[[93.1254,12.1243],[93.1209,12.1379],[93.1316,12.1435],[93.1332,12.1336],[93.1254,12.1243]]],[[[93.0756,12.0882],[93.0465,12.1297],[93.0765,12.2052],[93.1068,12.1434],[93.0986,12.095],[93.0756,12.0882]]],[[[92.9508,12.1922],[92.9378,12.206],[92.9441,12.2218],[92.9494,12.2223],[92.9508,12.1922]]],[[[92.8974,12.2276],[92.8875,12.2058],[92.8811,12.2404],[92.8957,12.2347],[92.9118,12.2512],[92.9212,12.2203],[92.8974,12.2276]]],[[[93.1132,12.2517],[93.1067,12.2037],[93.1008,12.2209],[93.0715,12.224],[93.0807,12.2561],[93.095,12.2331],[93.1132,12.2517]]],[[[92.8699,12.2417],[92.8758,12.2345],[92.8758,12.2344],[92.8699,12.2417]]],[[[92.9349,12.2276],[92.9141,12.2851],[92.9385,12.2811],[92.9443,12.3033],[92.9511,12.2681],[92.9349,12.2276]]],[[[93.8705,12.2808],[93.8734,12.262],[93.8543,12.2513],[93.8523,12.2802],[93.8705,12.2808]]],[[[93.0397,12.2753],[93.0289,12.2743],[93.0371,12.2788],[93.0397,12.2753]]],[[[92.9191,12.3476],[92.9223,12.3326],[92.9204,12.3319],[92.9191,12.3476]]],[[[92.9256,12.3656],[92.9378,12.4086],[92.9665,12.4313],[92.943,12.3576],[92.9256,12.3656]]],[[[92.6799,12.5255],[92.6943,12.5319],[92.6899,12.5157],[92.6799,12.5255]]],[[[93.0294,13.4602],[93.0418,13.4316],[93.0313,13.4264],[93.0571,13.3998],[93.071,13.4117],[93.077,13.3998],[93.0571,13.3699],[93.068,13.3762],[93.0973,13.3308],[93.0743,13.2994],[93.0674,13.3212],[93.0493,13.3208],[93.0551,13.3434],[93.0489,13.3622],[93.0492,13.3458],[93.0125,13.3479],[92.997,13.3327],[93.0011,13.3111],[93.0174,13.3157],[93.0297,13.2917],[93.0187,13.2773],[93.0525,13.2773],[93.0538,13.2552],[93.0699,13.2607],[93.0423,13.1752],[93.0383,13.0638],[93.0156,13.0284],[92.9744,13.0348],[92.9736,13.0111],[92.9476,13.0372],[92.9494,13.0607],[92.9259,13.0594],[92.9073,13.0177],[92.9283,12.9817],[92.943,12.9856],[92.9417,12.9625],[92.9166,12.947],[92.9054,12.9924],[92.8816,12.9386],[92.8633,12.9354],[92.861,12.9163],[92.8832,12.9081],[92.8818,12.8933],[92.9044,12.8971],[92.9053,12.9217],[92.9301,12.9108],[92.9119,12.8845],[92.9347,12.8837],[92.9546,12.8349],[92.9607,12.8039],[92.9439,12.7715],[92.9701,12.7532],[92.9867,12.7118],[92.972,12.7042],[92.963,12.6164],[92.9835,12.5448],[92.9782,12.4943],[92.9701,12.4848],[92.9547,12.4977],[92.9416,12.4653],[92.9618,12.4753],[92.9644,12.4644],[92.9267,12.4451],[92.9264,12.4034],[92.8901,12.3769],[92.8818,12.3519],[92.8989,12.3484],[92.9081,12.329],[92.8886,12.3331],[92.9085,12.3179],[92.8681,12.3119],[92.8931,12.2807],[92.8963,12.2556],[92.8666,12.2446],[92.8891,12.1885],[92.8597,12.2014],[92.8575,12.1639],[92.8281,12.1586],[92.8124,12.1299],[92.8178,12.1007],[92.8049,12.1042],[92.8001,12.0811],[92.77,12.0633],[92.7686,12.0479],[92.793,12.0402],[92.7888,12.0238],[92.7489,12.035],[92.7412,12.0183],[92.7649,11.997],[92.7344,11.9874],[92.7453,11.964],[92.7282,11.9525],[92.7249,11.9246],[92.7887,11.9361],[92.7999,11.8769],[92.7702,11.7022],[92.7534,11.7164],[92.7444,11.6818],[92.7675,11.666],[92.764,11.6181],[92.7214,11.4793],[92.7099,11.5102],[92.6837,11.5027],[92.6599,11.5182],[92.6571,11.578],[92.6411,11.5863],[92.6339,11.5639],[92.6201,11.615],[92.6512,11.6092],[92.6588,11.6434],[92.6494,11.6366],[92.6455,11.6596],[92.6397,11.6289],[92.6222,11.6329],[92.5993,11.7157],[92.5723,11.6971],[92.5571,11.8291],[92.5342,11.8264],[92.526,11.8449],[92.5374,11.89],[92.5741,11.9336],[92.6025,11.8786],[92.6244,11.9202],[92.6201,12.0029],[92.6383,12.0382],[92.6309,12.0922],[92.6529,12.1793],[92.6696,12.2162],[92.662,12.1797],[92.6836,12.2184],[92.6872,12.1956],[92.7243,12.307],[92.7085,12.3296],[92.7149,12.4894],[92.7026,12.5079],[92.7174,12.5638],[92.6939,12.5977],[92.7153,12.6075],[92.7252,12.6362],[92.7287,12.6197],[92.7426,12.6302],[92.756,12.6641],[92.7359,12.6873],[92.7531,12.6944],[92.7429,12.7012],[92.7549,12.7161],[92.7403,12.7338],[92.7318,12.8278],[92.7466,12.8117],[92.7462,12.8333],[92.7534,12.8242],[92.7711,12.8597],[92.7846,12.8392],[92.7786,12.8607],[92.7997,12.8622],[92.816,12.8983],[92.8015,12.9766],[92.8071,12.9891],[92.8246,12.9816],[92.8106,12.9954],[92.8338,13.0086],[92.7973,13.0152],[92.8049,13.089],[92.8178,13.0731],[92.8121,13.0953],[92.8299,13.0949],[92.8173,13.1249],[92.8489,13.1246],[92.8524,13.1401],[92.8196,13.1521],[92.8222,13.1689],[92.8417,13.1687],[92.8251,13.1786],[92.8337,13.2316],[92.8585,13.2366],[92.8296,13.2811],[92.8474,13.2968],[92.8321,13.3037],[92.8402,13.3567],[92.8737,13.38],[92.8487,13.3959],[92.8746,13.3986],[92.8906,13.4258],[92.8836,13.4678],[92.9314,13.494],[92.9209,13.5042],[92.9334,13.5173],[92.9194,13.5235],[92.9711,13.5387],[92.9934,13.5246],[92.9952,13.5646],[93.0176,13.5421],[93.0372,13.5732],[93.0526,13.5012],[93.0294,13.4602]]],[[[92.7218,12.7167],[92.7034,12.7966],[92.7203,12.8309],[92.722,12.7793],[92.7319,12.7436],[92.7257,12.7518],[92.7218,12.7167]]],[[[92.7298,12.7839],[92.7289,12.7694],[92.7277,12.7849],[92.7298,12.7839]]],[[[92.7223,12.8341],[92.7293,12.8671],[92.7335,12.8663],[92.7223,12.8341]]],[[[92.729,12.9017],[92.7056,12.841],[92.6846,12.8347],[92.6952,12.8158],[92.6762,12.7865],[92.6596,12.8588],[92.6862,12.9395],[92.6758,12.9594],[92.7045,12.995],[92.7288,12.9772],[92.729,12.9017]]],[[[92.759,12.889],[92.7619,12.9097],[92.764,12.9096],[92.7636,12.8946],[92.759,12.889]]],[[[92.7941,12.8911],[92.7977,12.9149],[92.8069,12.8977],[92.7941,12.8911]]],[[[92.868,12.9339],[92.8927,12.9321],[92.8974,12.9269],[92.88,12.9174],[92.868,12.9339]]],[[[92.7806,12.9338],[92.782,12.9218],[92.7819,12.9213],[92.7806,12.9338]]],[[[92.959,12.9365],[92.9668,12.9465],[92.9764,12.9434],[92.9756,12.9411],[92.959,12.9365]]],[[[92.9893,12.9339],[92.9593,12.9616],[92.9669,12.9868],[92.9796,12.9702],[93.0111,12.9971],[92.9874,12.9643],[92.9893,12.9339]]],[[[92.9264,13.0109],[92.9311,13.0277],[92.9448,13.0226],[92.9513,12.9965],[92.9264,13.0109]]],[[[92.7051,13.0931],[92.7339,13.0992],[92.7121,13.0669],[92.7051,13.0931]]],[[[93.0326,13.3235],[93.0301,13.3004],[93.0272,13.327],[93.0326,13.3235]]],[[[92.8168,13.3987],[92.8227,13.411],[92.8196,13.3983],[92.8168,13.3987]]],[[[93.1006,13.4135],[93.0957,13.4058],[93.0991,13.4149],[93.1006,13.4135]]],[[[93.0826,13.4199],[93.0766,13.4155],[93.0816,13.4224],[93.0826,13.4199]]],[[[93.1128,13.4274],[93.1044,13.4276],[93.1067,13.4318],[93.1128,13.4274]]],[[[92.8372,13.4161],[92.8308,13.4316],[92.8483,13.4385],[92.8372,13.4161]]],[[[94.2921,13.4198],[94.2766,13.4353],[94.2966,13.4539],[94.2921,13.4198]]],[[[92.8751,13.5026],[92.8819,13.5064],[92.8794,13.497],[92.8751,13.5026]]],[[[92.8902,13.5767],[92.9088,13.5906],[92.8928,13.5729],[92.8902,13.5767]]],[[[93.0745,13.6552],[93.0581,13.6186],[93.0551,13.6184],[93.0547,13.6402],[93.0745,13.6552]]],[[[93.0445,13.6493],[93.0425,13.6389],[93.0417,13.6506],[93.0445,13.6493]]],[[[93.0378,13.6266],[92.9799,13.6601],[93.0262,13.6789],[93.0378,13.6266]]],[[[93.2271,13.9763],[93.2259,14.0141],[93.228,14.0164],[93.2383,13.9825],[93.2271,13.9763]]],[[[93.3734,14.0615],[93.3609,14.1446],[93.3735,14.1553],[93.3851,14.1488],[93.3734,14.0615]]],[[[93.3667,14.1916],[93.3772,14.1816],[93.3641,14.1886],[93.3667,14.1916]]],[[[93.7065,14.919],[93.683,14.8725],[93.6696,14.8498],[93.7065,14.919]]],[[[97.3437,16.7175],[97.3427,16.7173],[97.3424,16.7188],[97.3437,16.7175]]],[[[97.3428,16.7291],[97.3429,16.7295],[97.3429,16.7292],[97.3428,16.7291]]],[[[97.2628,16.8487],[97.2705,16.8487],[97.265,16.8481],[97.2628,16.8487]]],[[[97.1989,16.8658],[97.1908,16.8739],[97.1928,16.8778],[97.1989,16.8658]]],[[[97.5884,5.1511],[97.5765,5.1603],[97.5769,5.1653],[97.5884,5.1511]]],[[[97.6391,8.4771],[97.6409,8.4835],[97.6504,8.4805],[97.6391,8.4771]]],[[[97.6336,8.5047],[97.6412,8.506],[97.6433,8.4996],[97.6336,8.5047]]],[[[97.6298,8.5527],[97.6266,8.5674],[97.6349,8.5638],[97.6298,8.5527]]],[[[97.6375,8.5899],[97.6308,8.5955],[97.6331,8.5957],[97.6375,8.5899]]],[[[97.6409,8.6612],[97.6449,8.615],[97.6279,8.6523],[97.6409,8.6612]]],[[[97.6446,8.6708],[97.6354,8.666],[97.6319,8.669],[97.6446,8.6708]]],[[[97.8076,8.8264],[97.8006,8.8182],[97.7981,8.82],[97.8076,8.8264]]],[[[97.8194,9.0489],[97.8121,9.0772],[97.8151,9.0784],[97.8194,9.0489]]],[[[97.8694,9.365],[97.875,9.3762],[97.8759,9.3673],[97.8694,9.365]]],[[[97.8645,9.4351],[97.8778,9.3829],[97.8395,9.4235],[97.8645,9.4351]]],[[[97.8266,9.4371],[97.8293,9.4279],[97.8203,9.4279],[97.8266,9.4371]]],[[[97.9106,9.4382],[97.8732,9.4535],[97.8839,9.4289],[97.8451,9.4516],[97.8604,9.4531],[97.8528,9.4724],[97.8899,9.4841],[97.9091,9.4669],[97.9106,9.4382]]],[[[97.9799,9.6017],[97.9537,9.6382],[97.9762,9.6376],[97.9799,9.6017]]],[[[97.9119,9.6751],[97.904,9.6738],[97.911,9.6816],[97.9119,9.6751]]],[[[97.9857,10.0312],[97.9923,10.0489],[97.9924,10.0227],[97.9857,10.0312]]],[[[97.9745,10.0747],[97.9935,10.0701],[97.9898,10.0531],[97.9745,10.0747]]],[[[97.9601,10.1236],[97.9636,10.15],[97.9844,10.175],[97.9835,10.1325],[97.9731,10.1412],[97.9601,10.1236]]],[[[97.9321,10.1495],[97.9137,10.1544],[97.9321,10.1554],[97.9321,10.1495]]],[[[97.876,10.1897],[97.8819,10.2026],[97.8851,10.192],[97.876,10.1897]]],[[[98.0,10.3201],[97.9882,10.3267],[98.0,10.3565],[98.0,10.3201]]],[[[97.9718,10.3521],[97.9674,10.3544],[97.9723,10.3615],[97.9718,10.3521]]],[[[97.9439,10.3462],[97.9419,10.3598],[97.9521,10.3678],[97.9439,10.3462]]],[[[97.9396,10.4023],[97.9507,10.3959],[97.9491,10.3912],[97.9396,10.4023]]],[[[97.9637,10.4326],[97.9674,10.4091],[97.9655,10.4069],[97.9541,10.4172],[97.9637,10.4326]]],[[[97.9352,10.4563],[97.9458,10.4198],[97.9207,10.4268],[97.9167,10.4121],[97.9425,10.4116],[97.8997,10.3938],[97.8991,10.4856],[97.9124,10.4938],[97.909,10.4651],[97.9482,10.476],[97.9352,10.4563]]],[[[97.6889,10.4663],[97.685,10.4575],[97.6794,10.4619],[97.6889,10.4663]]],[[[97.9199,10.5103],[97.9126,10.4991],[97.8979,10.4959],[97.8968,10.5042],[97.9199,10.5103]]],[[[98.0,10.5605],[97.9915,10.537],[97.9451,10.5591],[97.9812,10.5704],[98.0,10.5605]]],[[[97.9973,10.8459],[97.9894,10.8406],[97.9957,10.8498],[97.9973,10.8459]]],[[[97.9996,10.8824],[98.0,10.8828],[98.0,10.8814],[97.9996,10.8824]]],[[[97.9557,10.9273],[97.9448,10.867],[97.9226,10.8695],[97.8877,10.8414],[97.8927,10.8661],[97.9101,10.8674],[97.8944,10.8946],[97.9267,10.9327],[97.9557,10.9273]]],[[[97.9241,11.275],[97.9334,11.2752],[97.925,11.2674],[97.9241,11.275]]],[[[97.9996,11.3836],[97.9922,11.3983],[97.999,11.4087],[98.0,11.4051],[97.9996,11.3836]]],[[[97.9814,11.449],[98.0,11.4351],[97.9723,11.4422],[97.9814,11.449]]],[[[97.5053,11.6436],[97.5034,11.6356],[97.4999,11.6363],[97.5053,11.6436]]],[[[97.5315,11.7886],[97.4993,11.7818],[97.4781,11.8145],[97.5257,11.8144],[97.5315,11.7886]]],[[[97.6684,11.8048],[97.6479,11.8162],[97.6782,11.8145],[97.6684,11.8048]]],[[[97.4725,11.8145],[97.4711,11.8256],[97.4739,11.826],[97.4725,11.8145]]],[[[97.6819,11.893],[97.6905,11.8764],[97.6752,11.8304],[97.6422,11.8705],[97.6819,11.893]]],[[[98.0,11.9659],[97.9753,11.9511],[97.9697,11.9569],[98.0,11.9659]]],[[[97.9226,11.9877],[97.9311,11.9989],[97.9297,11.9857],[97.9226,11.9877]]],[[[97.7415,11.9906],[97.7355,12.0042],[97.7355,12.0086],[97.7549,11.9966],[97.7415,11.9906]]],[[[97.9935,12.0019],[97.9699,12.0103],[97.9683,12.014],[97.9849,12.0243],[97.9935,12.0019]]],[[[97.6889,12.052],[97.6676,12.0321],[97.6528,12.0075],[97.6522,12.0374],[97.6664,12.0539],[97.6889,12.052]]],[[[97.788,12.0423],[97.7688,12.0359],[97.7609,12.0447],[97.7824,12.0519],[97.788,12.0423]]],[[[97.9626,12.0469],[97.9602,12.0269],[97.9613,12.0674],[97.9829,12.0531],[97.9626,12.0469]]],[[[97.9443,12.0419],[97.9397,12.0445],[97.9451,12.0527],[97.9443,12.0419]]],[[[97.6503,12.0576],[97.6463,12.036],[97.6342,12.0365],[97.6354,12.057],[97.6503,12.0576]]],[[[97.9737,12.0957],[97.9849,12.0936],[97.9756,12.0814],[97.9737,12.0957]]],[[[97.9973,12.0954],[97.9887,12.1039],[97.9897,12.1104],[98.0,12.1081],[97.9973,12.0954]]],[[[97.9735,12.1183],[97.9673,12.1057],[97.9682,12.1183],[97.9735,12.1183]]],[[[97.7304,12.1119],[97.7141,12.1348],[97.7452,12.146],[97.748,12.1239],[97.7304,12.1119]]],[[[97.9811,12.13],[97.9746,12.1261],[97.9748,12.1337],[97.9811,12.13]]],[[[98.0,12.1232],[97.9979,12.1287],[97.9992,12.1421],[98.0,12.1232]]],[[[97.9356,12.2096],[97.927,12.2312],[97.9324,12.2427],[97.9398,12.2287],[97.9356,12.2096]]],[[[97.8664,12.2386],[97.877,12.2434],[97.8678,12.2365],[97.8664,12.2386]]],[[[97.802,12.2809],[97.7722,12.2629],[97.8035,12.3017],[97.802,12.2809]]],[[[97.9431,12.2818],[97.9553,12.2854],[97.96,12.2939],[97.9554,12.2751],[97.9431,12.2818]]],[[[97.8671,12.2991],[97.8858,12.2931],[97.8635,12.28],[97.8671,12.2991]]],[[[97.9698,12.2971],[97.9653,12.2893],[97.9674,12.2969],[97.9698,12.2971]]],[[[97.9945,12.2796],[97.9813,12.3091],[97.9605,12.3213],[97.9453,12.3129],[97.9786,12.3388],[97.9686,12.3623],[97.9426,12.3311],[97.9567,12.3773],[97.9746,12.3869],[97.9765,12.3649],[98.0,12.3864],[97.9945,12.2796]]],[[[97.8376,12.4512],[97.824,12.4268],[97.8255,12.4728],[97.8376,12.4512]]],[[[97.8027,12.4964],[97.7966,12.5111],[97.8109,12.5042],[97.8027,12.4964]]],[[[97.882,12.5668],[97.8529,12.539],[97.8266,12.5836],[97.8444,12.5842],[97.8491,12.6001],[97.882,12.5668]]],[[[97.8515,12.606],[97.8639,12.6069],[97.8573,12.6003],[97.8515,12.606]]],[[[97.8803,12.6204],[97.8634,12.6145],[97.8616,12.6209],[97.8675,12.6274],[97.8803,12.6204]]],[[[97.8536,12.769],[97.8349,12.7875],[97.8556,12.8092],[97.8456,12.8203],[97.8716,12.8064],[97.8846,12.7737],[97.8536,12.769]]],[[[97.9137,13.8684],[97.9272,13.8188],[97.9108,13.7863],[97.9137,13.8684]]],[[[97.9138,13.8958],[97.9048,13.9282],[97.9079,13.9421],[97.9189,13.9119],[97.9138,13.8958]]],[[[97.8229,14.1258],[97.8106,14.1113],[97.8045,14.109],[97.8013,14.1339],[97.8229,14.1258]]],[[[97.8229,14.1869],[97.7908,14.1353],[97.7796,14.151],[97.7883,14.176],[97.8229,14.1869]]],[[[97.8168,14.275],[97.8004,14.2705],[97.8067,14.2813],[97.8168,14.275]]],[[[97.7688,14.3967],[97.7746,14.4127],[97.7836,14.4145],[97.7804,14.3925],[97.7688,14.3967]]],[[[97.777,14.4412],[97.7741,14.4346],[97.7657,14.4346],[97.777,14.4412]]],[[[97.99,14.4763],[97.9931,14.4765],[97.9874,14.4728],[97.99,14.4763]]],[[[97.7389,15.0666],[97.7274,15.0641],[97.739,15.0756],[97.7389,15.0666]]],[[[97.7389,15.096],[97.7418,15.0802],[97.7371,15.088],[97.7389,15.096]]],[[[97.7979,15.195],[97.8046,15.1917],[97.8008,15.1887],[97.7979,15.195]]],[[[97.8062,15.1975],[97.8029,15.2008],[97.805,15.2012],[97.8062,15.1975]]],[[[97.7301,15.2004],[97.7376,15.1922],[97.7324,15.193],[97.7301,15.2004]]],[[[97.7954,15.2108],[97.7921,15.2033],[97.7933,15.2113],[97.7954,15.2108]]],[[[97.8183,15.2121],[97.7992,15.2021],[97.7954,15.215],[97.8117,15.2304],[97.8183,15.2121]]],[[[97.7929,15.2183],[97.7962,15.2192],[97.7934,15.2163],[97.7929,15.2183]]],[[[97.8071,15.2291],[97.8004,15.2267],[97.8067,15.2313],[97.8071,15.2291]]],[[[97.6454,15.5858],[97.6603,15.5643],[97.6629,15.515],[97.6552,15.494],[97.6569,15.5241],[97.6479,15.5383],[97.6454,15.5858]]],[[[97.5743,16.0053],[97.5739,16.0055],[97.5738,16.0058],[97.5743,16.0053]]],[[[97.5936,16.2399],[97.5804,16.3194],[97.5955,16.3324],[97.6154,16.2816],[97.5936,16.2399]]],[[[97.5041,16.512],[97.5793,16.4835],[97.6081,16.4883],[97.6154,16.4699],[97.5794,16.3995],[97.5903,16.3599],[97.5558,16.2254],[97.5091,16.2413],[97.4565,16.3187],[97.4829,16.3533],[97.4571,16.4149],[97.4557,16.4613],[97.472,16.4712],[97.4479,16.4733],[97.5041,16.512]]],[[[97.6046,16.3789],[97.601,16.3972],[97.6051,16.4101],[97.6131,16.3953],[97.6046,16.3789]]],[[[97.5742,16.4904],[97.5885,16.4907],[97.59,16.4888],[97.5742,16.4904]]],[[[97.5512,16.5026],[97.5285,16.5115],[97.5553,16.5053],[97.5512,16.5026]]],[[[97.6466,16.5086],[97.6558,16.5234],[97.6492,16.5078],[97.6466,16.5086]]],[[[97.6077,16.509],[97.5666,16.5238],[97.5555,16.5248],[97.5816,16.5225],[97.6077,16.509]]],[[[97.4837,16.53],[97.485,16.5287],[97.485,16.5287],[97.4837,16.53]]],[[[97.5211,16.5336],[97.505,16.5254],[97.5013,16.5283],[97.5211,16.5336]]],[[[97.5238,16.5373],[97.52,16.5387],[97.5238,16.5375],[97.5238,16.5373]]],[[[97.6646,16.5555],[97.6276,16.5296],[97.6435,16.5772],[97.6646,16.5555]]],[[[97.7111,16.5602],[97.7104,16.5604],[97.7115,16.5604],[97.7111,16.5602]]],[[[97.7067,16.5621],[97.7152,16.5643],[97.7161,16.5622],[97.7067,16.5621]]],[[[97.6573,16.5738],[97.6481,16.5788],[97.6515,16.5872],[97.6573,16.5738]]],[[[97.6359,16.5737],[97.6122,16.58],[97.6261,16.6184],[97.6445,16.6024],[97.6359,16.5737]]],[[[95.6038,5.6273],[95.879,5.5068],[95.9043,5.427],[96.049,5.327],[96.0735,5.2928],[96.1823,5.2636],[96.2587,5.2634],[96.3883,5.2149],[96.465,5.2376],[96.4908,5.2046],[96.5318,5.2027],[96.6139,5.2144],[96.7202,5.2559],[96.8273,5.2776],[96.8552,5.2774],[96.8303,5.2714],[96.8998,5.2516],[96.9753,5.2665],[97.0818,5.2327],[97.1448,5.2004],[97.1432,5.1623],[97.1981,5.1461],[97.4967,5.2537],[97.5137,5.2464],[97.5468,5.2151],[97.5273,5.2057],[97.57,5.1904],[97.5722,5.1386],[97.6018,5.1419],[97.611,5.1139],[97.6525,5.1197],[97.648,5.0751],[97.806,4.9341],[97.9015,4.8871],[97.934,4.808],[97.9619,4.7262],[97.9615,4.668],[97.9946,4.6349],[98.0,4.6047],[97.9604,4.5316],[97.9823,4.5447],[98.0,4.5268],[98.0,4.0],[96.2775,4.0],[96.1485,4.1406],[96.1249,4.128],[96.0536,4.206],[96.0229,4.196],[95.7128,4.5268],[95.6081,4.6162],[95.5654,4.6262],[95.5834,4.6462],[95.5723,4.6567],[95.5387,4.6473],[95.4818,4.7609],[95.4119,4.8179],[95.4252,4.8339],[95.3756,4.9197],[95.3694,4.9459],[95.3817,4.9568],[95.3555,4.9992],[95.3623,5.0193],[95.3045,5.0793],[95.3152,5.0834],[95.3041,5.1067],[95.2825,5.1073],[95.3067,5.1271],[95.2962,5.1834],[95.2367,5.2204],[95.2503,5.2266],[95.2336,5.2472],[95.2385,5.2724],[95.2113,5.2699],[95.2156,5.3179],[95.2336,5.3195],[95.2223,5.3417],[95.2331,5.3582],[95.2389,5.3385],[95.2483,5.3663],[95.2286,5.4272],[95.2409,5.4467],[95.2295,5.4922],[95.1897,5.5228],[95.2202,5.5705],[95.2424,5.5512],[95.2806,5.5506],[95.3247,5.5899],[95.3527,5.5887],[95.4314,5.6564],[95.4651,5.6437],[95.5107,5.5957],[95.6038,5.6273]]],[[[97.998,4.6246],[98.0,4.6279],[98.0,4.6171],[97.998,4.6246]]],[[[98.0,14.2895],[97.9679,14.3954],[98.0,14.4789],[98.0,14.2895]]],[[[97.9987,14.4811],[97.9846,14.4742],[97.9633,14.4304],[97.9521,14.4958],[97.9313,14.5375],[97.9404,14.5516],[97.9287,14.54],[97.9367,14.5229],[97.9058,14.5783],[97.9129,14.6233],[97.9044,14.6112],[97.8729,14.6706],[97.8992,14.7163],[97.9091,14.7038],[97.9242,14.7187],[97.9211,14.7324],[97.9004,14.745],[97.8783,14.7129],[97.8405,14.7184],[97.7917,14.8683],[97.8083,14.9501],[97.7988,14.995],[97.8234,15.0163],[97.8244,15.0243],[97.791,14.9984],[97.7709,15.0179],[97.7958,15.0271],[97.7931,15.0938],[97.8064,15.1105],[97.8063,15.1503],[97.7872,15.1793],[97.7996,15.1833],[97.8054,15.19],[97.8091,15.2029],[97.8233,15.2071],[97.8325,15.1929],[97.8375,15.1904],[97.8413,15.1924],[97.81,15.2337],[97.7975,15.2279],[97.7921,15.2192],[97.7918,15.1914],[97.7693,15.1941],[97.7315,15.2693],[97.7417,15.295],[97.7215,15.3328],[97.7274,15.3548],[97.7469,15.3561],[97.7488,15.3855],[97.7592,15.3829],[97.7688,15.3658],[97.7733,15.3646],[97.7607,15.3847],[97.8013,15.4033],[97.8013,15.4133],[97.7975,15.4163],[97.7823,15.4048],[97.741,15.4877],[97.7738,15.5375],[97.7608,15.5304],[97.731,15.6077],[97.7412,15.6592],[97.7266,15.658],[97.7144,15.7054],[97.7287,15.7217],[97.6994,15.7541],[97.7227,15.7793],[97.7112,15.8558],[97.7267,15.8529],[97.7313,15.8584],[97.7134,15.8604],[97.7059,15.8498],[97.6882,15.9017],[97.6103,15.949],[97.6035,15.9803],[97.5713,16.0108],[97.5596,16.075],[97.5967,16.0851],[97.6143,16.0611],[97.6277,16.0504],[97.648,16.0442],[97.6654,16.0486],[97.6772,16.0283],[97.6969,16.0274],[97.6673,16.0521],[97.6202,16.0587],[97.6083,16.1088],[97.5979,16.0971],[97.6438,16.27],[97.6155,16.3556],[97.6294,16.3873],[97.6146,16.4241],[97.6253,16.5],[97.6486,16.4984],[97.6621,16.5123],[97.6624,16.4765],[97.6823,16.4655],[97.7025,16.4706],[97.7044,16.4501],[97.7232,16.4502],[97.7199,16.4268],[97.7539,16.4141],[97.7355,16.4023],[97.7334,16.3833],[97.7784,16.3746],[97.7974,16.354],[97.7858,16.3396],[97.7874,16.3327],[97.8346,16.3236],[97.8601,16.2918],[97.8887,16.2862],[97.8521,16.3024],[97.8441,16.3234],[97.7924,16.3327],[97.8031,16.3534],[97.7905,16.3703],[97.7614,16.386],[97.7372,16.386],[97.7578,16.4177],[97.7289,16.4247],[97.7259,16.4541],[97.7068,16.4536],[97.7023,16.474],[97.6641,16.48],[97.6755,16.5007],[97.6684,16.5455],[97.7465,16.5616],[97.705,16.5704],[97.6685,16.5549],[97.6479,16.6092],[97.6183,16.6479],[97.6071,16.5808],[97.6264,16.5585],[97.6216,16.5196],[97.575,16.5363],[97.5192,16.5404],[97.4909,16.5337],[97.4886,16.5387],[97.4767,16.5271],[97.4442,16.5387],[97.3542,16.5045],[97.3304,16.6619],[97.3466,16.6471],[97.3939,16.64],[97.4108,16.6424],[97.4241,16.6584],[97.3928,16.6437],[97.3457,16.6544],[97.3406,16.6666],[97.3578,16.6694],[97.3476,16.6786],[97.33,16.6679],[97.3301,16.6963],[97.3529,16.7133],[97.3419,16.7341],[97.341,16.7129],[97.3233,16.7129],[97.3146,16.6942],[97.3179,16.6679],[97.2871,16.6792],[97.2498,16.8225],[97.2254,16.8552],[97.2664,16.8441],[97.2781,16.8505],[97.2659,16.8701],[97.2572,16.8504],[97.2071,16.8792],[97.2191,16.9379],[97.2016,16.8979],[97.2029,16.9408],[97.1942,16.9496],[97.1787,16.9292],[97.2072,17.008],[97.1639,17.0547],[97.1554,17.0987],[97.1909,17.1169],[97.2134,17.0874],[97.2646,17.1036],[97.2269,17.104],[97.2041,17.1354],[97.1791,17.1371],[97.1358,17.1188],[97.1295,17.0842],[97.1124,17.0812],[97.0887,17.1652],[97.1067,17.1878],[97.0857,17.1792],[97.0592,17.2533],[97.028,17.2634],[97.0091,17.3],[96.9644,17.3263],[96.8935,17.9386],[98.0,17.4908],[97.9987,14.4811]]]]}}