{"type":"Feature","properties":{"speciesId":325,"category":"LC","source":"IUCN Red List","simplifyTol":0.01,"clippedToSubcontinent":true},"geometry":{"type":"Polygon","coordinates":[[[73.3246,38.0],[73.4292,37.3725],[73.3722,36.973],[73.0006,36.7444],[73.1422,36.7444],[73.5065,36.8005],[73.5255,36.7277],[73.1349,36.6076],[72.6347,36.4064],[72.0227,35.5977],[71.4999,34.9645],[70.3154,33.3956],[69.7561,32.5575],[69.1028,31.1061],[68.8813,30.8029],[68.1362,30.1199],[65.8428,29.3789],[63.0869,28.8597],[63.0888,28.3246],[63.205,27.9633],[63.8916,27.0021],[63.8466,26.7773],[63.6674,26.1785],[63.2231,25.2405],[63.1107,25.2568],[63.0071,25.2106],[62.6949,25.2595],[62.4945,25.2529],[62.4637,25.2364],[62.4707,25.2126],[62.4118,25.2054],[62.3562,25.1699],[62.3394,25.1132],[62.3897,25.1037],[62.3399,25.0895],[62.2685,25.1015],[62.3202,25.1205],[62.3008,25.1858],[62.2538,25.2083],[62.1669,25.2111],[62.0735,25.1784],[62.0666,25.1548],[62.1054,25.1042],[62.0984,25.0962],[61.9847,25.1096],[61.8747,25.1027],[61.859,25.0955],[61.8449,25.0434],[61.7644,25.0328],[61.7242,25.054],[61.7575,25.0983],[61.7476,25.132],[61.769,25.124],[61.7831,25.1418],[61.7791,25.1927],[61.7523,25.1687],[61.6899,25.2053],[61.6592,25.1869],[61.6337,25.2028],[61.5696,25.1846],[61.603,25.2043],[61.5627,25.2176],[61.5696,25.2405],[61.5354,25.2376],[61.5557,25.2193],[61.5284,25.2069],[61.5555,25.1929],[61.4999,25.1944],[61.5278,25.1896],[61.4889,25.1778],[61.4883,25.1924],[61.4541,25.1854],[61.4906,25.1719],[61.4918,25.1583],[61.4742,25.1072],[61.4048,25.0874],[61.4146,25.0641],[61.1805,25.1259],[61.1673,25.1667],[61.0614,25.2019],[60.7418,25.273],[60.6056,25.2883],[60.6205,25.3072],[60.5912,25.3507],[60.6039,25.3786],[60.5932,25.4162],[60.5322,25.4464],[60.4624,25.4365],[60.4006,25.3807],[60.3961,25.3505],[60.4466,25.3325],[60.4389,25.3199],[60.4586,25.2924],[60.4146,25.3184],[60.3057,25.34],[60.2937,25.3885],[60.3257,25.3705],[60.3037,25.4038],[60.2014,25.3782],[60.1852,25.3524],[60.2072,25.3343],[60.1971,25.3287],[60.1103,25.3519],[60.108,25.3733],[60.0866,25.3824],[60.0,25.3822],[60.0,38.0],[60.6161,38.0],[61.2441,37.4153],[62.3856,36.5742],[62.9863,36.6043],[63.7673,37.0248],[64.248,37.926],[64.1951,38.0],[73.3246,38.0]]]}}