{"type":"Feature","properties":{"speciesId":347,"category":"LC","source":"IUCN Red List","simplifyTol":0.01,"clippedToSubcontinent":true},"geometry":{"type":"MultiPolygon","coordinates":[[[[81.1823,6.7001],[80.8158,6.5859],[80.7492,6.3622],[80.4135,5.956],[80.2442,6.0069],[80.2372,6.0297],[80.2186,6.022],[80.0986,6.1289],[80.0314,6.2656],[80.0252,6.3364],[79.9746,6.464],[79.9866,6.4771],[79.9796,6.5149],[79.8687,6.8057],[79.8431,6.9333],[79.8712,6.9756],[79.819,7.1934],[79.8592,7.2756],[79.8445,7.2761],[79.8408,7.3051],[80.002,7.3806],[80.3439,7.6319],[80.5953,7.8406],[80.9122,7.8486],[81.248,7.7164],[81.5439,7.4472],[81.6724,7.1712],[81.6161,6.965],[81.4012,6.8048],[81.1823,6.7001]]],[[[80.0372,8.4783],[80.058,8.5431],[80.0896,8.5412],[80.1158,8.4983],[80.092,8.465],[80.1182,8.396],[80.2823,8.3127],[80.2919,8.2913],[80.23,8.2675],[80.0746,8.336],[80.0372,8.4783]]],[[[81.1735,8.3944],[81.1587,8.4114],[81.176,8.4262],[81.1906,8.409],[81.1735,8.3944]]],[[[75.6028,13.8719],[75.8936,13.4955],[75.8936,13.3245],[75.962,13.0165],[76.1673,12.5717],[76.4582,12.2125],[76.8174,11.9558],[77.0569,11.5281],[77.0912,11.3742],[77.382,10.9294],[77.5873,10.7412],[77.8952,10.5359],[77.8952,10.3306],[77.8781,10.228],[77.7755,9.9884],[77.6899,9.595],[77.8781,8.9449],[77.8781,8.4316],[77.7241,8.1921],[77.6847,8.1571],[77.5785,8.1304],[77.5581,8.1104],[77.5526,8.069],[77.3183,8.1173],[77.193,8.2084],[77.0601,8.3174],[76.8406,8.5627],[76.6206,8.8431],[76.5579,8.883],[76.4617,9.1312],[76.497,9.067],[76.4753,9.1197],[76.4848,9.1159],[76.4921,9.1672],[76.4748,9.1621],[76.4709,9.1412],[76.4405,9.2326],[76.4196,9.2432],[76.4551,9.1423],[76.422,9.2183],[76.2934,9.6587],[76.2358,10.0056],[76.0463,10.5317],[76.0352,10.5291],[75.9261,10.7811],[75.909,10.7931],[75.8326,11.1235],[75.8054,11.1508],[75.7296,11.3316],[75.7333,11.354],[75.6866,11.4353],[75.6386,11.4611],[75.6037,11.5141],[75.5851,11.5587],[75.597,11.5363],[75.5912,11.562],[75.6041,11.561],[75.5822,11.5708],[75.5294,11.6966],[75.5386,11.7048],[75.4917,11.7339],[75.4716,11.769],[75.451,11.7697],[75.3893,11.8467],[75.3522,11.8601],[75.2491,12.0038],[75.2275,12.0209],[75.1963,12.0092],[75.1577,12.094],[75.1409,12.1782],[75.0296,12.3922],[75.0386,12.4111],[75.0229,12.3997],[75.0063,12.4371],[75.0154,12.4444],[74.9979,12.4456],[74.963,12.5147],[74.8158,12.9652],[74.6447,13.735],[74.6058,13.8523],[74.6169,13.8576],[74.565,13.9466],[74.523,13.9718],[74.3953,14.4186],[74.3538,14.5117],[74.2701,14.6253],[74.2946,14.6402],[74.2751,14.6467],[74.2756,14.6779],[74.2537,14.7068],[74.2633,14.7094],[74.2647,14.7201],[74.2582,14.7122],[74.2215,14.7472],[74.2032,14.7227],[74.1147,14.8032],[74.1249,14.8405],[74.1079,14.8451],[74.0912,14.8945],[74.0369,14.9199],[74.0487,14.9568],[74.0298,14.9815],[74.0476,14.9848],[73.9857,15.0225],[73.9786,15.0504],[73.9487,15.0737],[73.9347,15.1342],[73.9458,15.1408],[73.8667,15.4019],[73.8899,15.4192],[73.8764,15.4337],[73.8587,15.4259],[73.845,15.4491],[73.7822,15.4597],[73.8153,15.5064],[73.7626,15.4898],[73.731,15.6146],[73.6886,15.7011],[73.6525,15.9077],[73.8407,16.0104],[74.1999,16.0104],[74.4052,15.9077],[74.6276,15.6169],[74.9185,15.155],[75.6028,13.8719]]],[[[74.2465,14.6994],[74.2488,14.7011],[74.2486,14.6996],[74.2465,14.6994]]],[[[74.2316,14.7096],[74.2345,14.7079],[74.232,14.7076],[74.2316,14.7096]]],[[[74.0918,14.8414],[74.0961,14.8432],[74.0967,14.8375],[74.0918,14.8414]]],[[[74.0991,14.8645],[74.1,14.8622],[74.0991,14.8621],[74.0991,14.8645]]],[[[74.0885,14.877],[74.0919,14.8759],[74.091,14.8739],[74.0885,14.877]]]]}}