{"type":"Feature","properties":{"speciesId":348,"category":"LC","source":"IUCN Red List","simplifyTol":0.01,"clippedToSubcontinent":true},"geometry":{"type":"MultiPolygon","coordinates":[[[[93.4799,7.5159],[93.3346,7.5459],[93.2171,7.6265],[93.1353,7.752],[93.1082,7.8934],[93.1377,8.041],[93.2171,8.1605],[93.3406,8.2437],[93.4799,8.2712],[93.6191,8.2437],[93.7427,8.1605],[93.822,8.041],[93.8515,7.8934],[93.8245,7.752],[93.7427,7.6265],[93.6251,7.5459],[93.4799,7.5159]]],[[[92.7076,11.0162],[92.5624,11.0465],[92.4448,11.1278],[92.363,11.2546],[92.336,11.3974],[92.3655,11.5465],[92.4448,11.6673],[92.5684,11.7514],[92.7076,11.7792],[92.8469,11.7514],[92.9705,11.6673],[93.0498,11.5465],[93.0793,11.3974],[93.0522,11.2546],[92.9705,11.1278],[92.8529,11.0465],[92.7076,11.0162]]],[[[97.3815,4.0754],[97.193,4.1141],[97.0403,4.218],[96.9342,4.38],[96.899,4.5625],[96.9374,4.7529],[97.0403,4.9071],[97.2008,5.0144],[97.3815,5.0499],[97.5622,5.0144],[97.7227,4.9071],[97.8256,4.7529],[97.864,4.5625],[97.8288,4.38],[97.7227,4.218],[97.57,4.1141],[97.3815,4.0754]]],[[[92.8792,12.5596],[92.734,12.5901],[92.6164,12.6718],[92.5346,12.7993],[92.5076,12.943],[92.5371,13.0929],[92.6164,13.2144],[92.74,13.299],[92.8792,13.327],[93.0185,13.299],[93.1421,13.2144],[93.2214,13.0929],[93.2509,12.943],[93.2239,12.7993],[93.1421,12.6718],[93.0245,12.5901],[92.8792,12.5596]]],[[[95.9214,16.8945],[95.8211,16.9056],[95.7328,16.9348],[95.5802,17.0431],[95.474,17.2119],[95.4389,17.4023],[95.4772,17.601],[95.5802,17.7621],[95.6586,17.8292],[95.7406,17.8743],[95.9214,17.9114],[96.1021,17.8743],[96.1841,17.8292],[96.2625,17.7621],[96.3655,17.601],[96.4039,17.4023],[96.3687,17.2119],[96.2625,17.0431],[96.1099,16.9348],[96.0217,16.9056],[95.9214,16.8945]]],[[[95.5484,23.2842],[95.4481,23.2957],[95.3599,23.3261],[95.2073,23.4388],[95.1011,23.6146],[95.0659,23.8129],[95.1043,24.0201],[95.2073,24.1881],[95.2856,24.258],[95.3677,24.305],[95.5484,24.3438],[95.7292,24.305],[95.8112,24.258],[95.8896,24.1881],[95.9926,24.0201],[96.0309,23.8129],[95.9958,23.6146],[95.8896,23.4388],[95.7369,23.3261],[95.6487,23.2957],[95.5484,23.2842]]]]}}