{"type":"Feature","properties":{"speciesId":351,"category":"LC","source":"IUCN Red List","simplifyTol":0.01,"clippedToSubcontinent":true},"geometry":{"type":"MultiPolygon","coordinates":[[[[93.7185,7.2117],[93.7113,7.2013],[93.7057,7.2258],[93.7185,7.2117]]],[[[93.8348,7.2369],[93.8821,7.197],[93.897,7.0791],[93.9251,7.0201],[93.9547,6.9984],[93.9206,6.9981],[93.95,6.9522],[93.9282,6.9466],[93.924,6.9097],[93.9074,6.8998],[93.9004,6.8466],[93.9191,6.8288],[93.9137,6.8025],[93.8934,6.7908],[93.8853,6.8065],[93.8663,6.8033],[93.8397,6.7471],[93.8175,6.7602],[93.8267,6.8034],[93.7974,6.8258],[93.8052,6.8429],[93.7851,6.866],[93.7998,6.8743],[93.773,6.9125],[93.7605,6.9036],[93.7512,6.9152],[93.7477,6.9585],[93.6883,7.0176],[93.6598,7.0112],[93.6711,7.0319],[93.6573,7.0934],[93.6718,7.1098],[93.6536,7.12],[93.678,7.1442],[93.6723,7.1738],[93.6879,7.1853],[93.7329,7.1823],[93.7622,7.2069],[93.8033,7.1959],[93.8043,7.2255],[93.8348,7.2369]]],[[[93.7108,7.3892],[93.746,7.3621],[93.7339,7.3215],[93.6705,7.2797],[93.6453,7.2408],[93.6147,7.3039],[93.6295,7.3143],[93.6236,7.3688],[93.6613,7.3675],[93.702,7.3899],[93.6946,7.4414],[93.7108,7.3892]]],[[[93.4042,8.0017],[93.4055,7.9631],[93.4593,7.93],[93.464,7.8666],[93.4193,7.899],[93.382,7.8756],[93.3568,7.8827],[93.3456,7.9032],[93.3617,7.9295],[93.3457,7.943],[93.3299,7.9121],[93.3151,7.9387],[93.3343,8.0054],[93.3713,8.0189],[93.4042,8.0017]]],[[[93.5262,8.0229],[93.5448,7.9988],[93.5413,8.0197],[93.5585,8.0212],[93.5755,7.9936],[93.5728,7.9256],[93.5072,7.98],[93.5262,8.0229]]],[[[93.5817,8.1185],[93.5964,8.0474],[93.5871,8.0374],[93.5698,8.0591],[93.5712,8.0722],[93.5845,8.0634],[93.5689,8.0914],[93.5767,8.112],[93.559,8.1088],[93.5605,8.1196],[93.5817,8.1185]]],[[[93.5349,8.1763],[93.513,8.1811],[93.4996,8.1446],[93.5465,8.0824],[93.5445,8.0392],[93.5269,8.047],[93.5052,8.0296],[93.4994,7.9923],[93.484,8.0109],[93.4839,8.0886],[93.4623,8.1053],[93.4713,8.1206],[93.4564,8.1165],[93.4513,8.1697],[93.4878,8.1987],[93.4908,8.2198],[93.5188,8.2298],[93.5382,8.2269],[93.5349,8.1763]]],[[[93.221,8.2279],[93.1996,8.2409],[93.2058,8.2633],[93.2216,8.249],[93.221,8.2279]]],[[[93.1143,8.3577],[93.1148,8.275],[93.1821,8.2281],[93.1834,8.201],[93.1097,8.2255],[93.0744,8.2767],[93.0828,8.3384],[93.1143,8.3577]]],[[[93.6378,8.391],[93.6287,8.3867],[93.6256,8.3915],[93.6378,8.391]]],[[[93.0391,8.441],[93.0237,8.4516],[93.0301,8.471],[93.0422,8.4652],[93.0391,8.441]]],[[[93.6254,8.4637],[93.6118,8.4665],[93.6052,8.4193],[93.5951,8.5693],[93.6254,8.4637]]],[[[92.8519,8.8165],[92.8485,8.8282],[92.8608,8.8389],[92.8607,8.8302],[92.8519,8.8165]]],[[[92.8047,9.2164],[92.8203,9.1354],[92.7964,9.1204],[92.768,9.1213],[92.7825,9.1266],[92.7737,9.1384],[92.7236,9.1216],[92.7166,9.216],[92.7605,9.2171],[92.7668,9.2593],[92.8047,9.2164]]],[[[92.6303,12.0707],[92.7649,11.997],[92.7344,11.9874],[92.7453,11.964],[92.7249,11.9246],[92.7887,11.9361],[92.7999,11.8769],[92.7702,11.7022],[92.7534,11.7164],[92.7444,11.6818],[92.7675,11.666],[92.764,11.6181],[92.7214,11.4793],[92.7099,11.5102],[92.6837,11.5027],[92.6599,11.5182],[92.6571,11.578],[92.6411,11.5863],[92.634,11.5639],[92.6201,11.615],[92.6512,11.6092],[92.6588,11.6434],[92.6494,11.6366],[92.6455,11.6596],[92.6397,11.6289],[92.6222,11.633],[92.5993,11.7157],[92.5723,11.6971],[92.5571,11.829],[92.5342,11.8264],[92.526,11.8449],[92.5374,11.89],[92.5741,11.9336],[92.6025,11.8786],[92.6244,11.9202],[92.6303,12.0707]]],[[[92.9074,12.9213],[92.9052,12.9212],[92.9053,12.9217],[92.9074,12.9213]]],[[[93.0313,13.5727],[93.0498,13.4811],[93.0294,13.4602],[93.0418,13.4316],[93.0313,13.4264],[93.0571,13.3998],[93.071,13.4117],[93.0776,13.3959],[93.057,13.3699],[93.068,13.3762],[93.0973,13.3308],[93.0743,13.2994],[93.0674,13.3212],[93.0493,13.3208],[93.0551,13.3434],[93.0489,13.3622],[93.0492,13.3458],[93.0125,13.3479],[92.997,13.3327],[93.0011,13.3111],[93.0174,13.3157],[93.0297,13.2917],[93.0187,13.2773],[93.0525,13.2773],[93.0538,13.2552],[93.0699,13.2607],[93.0423,13.1752],[93.0383,13.0638],[93.0155,13.0284],[92.9744,13.0348],[92.9736,13.0111],[92.9476,13.0372],[92.9494,13.0607],[92.9259,13.0594],[92.9073,13.0177],[92.9283,12.9817],[92.943,12.9855],[92.9392,12.9574],[92.9166,12.947],[92.9054,12.9924],[92.8617,12.9256],[92.8059,12.9312],[92.8046,12.9873],[92.8246,12.9816],[92.8106,12.9954],[92.8338,13.0086],[92.7973,13.0152],[92.8049,13.089],[92.8178,13.0731],[92.8121,13.0953],[92.8299,13.0949],[92.8173,13.1249],[92.8489,13.1246],[92.8524,13.1401],[92.8196,13.1521],[92.8222,13.1689],[92.8417,13.1687],[92.8251,13.1786],[92.8337,13.2316],[92.8585,13.2366],[92.8296,13.2811],[92.8475,13.2967],[92.8321,13.3037],[92.8402,13.3567],[92.8737,13.38],[92.8515,13.4029],[92.8746,13.3986],[92.8924,13.4304],[92.8836,13.4678],[92.9314,13.494],[92.9209,13.5042],[92.9334,13.5173],[92.9194,13.5235],[92.9711,13.5387],[92.9934,13.5246],[92.9952,13.5646],[93.0176,13.5421],[93.0313,13.5727]]],[[[89.6644,27.3847],[90.8424,27.3847],[92.1969,27.6202],[93.3749,27.9147],[94.2583,28.1503],[95.0239,28.7393],[96.2607,28.5037],[96.4374,28.2092],[96.673,27.5613],[96.4963,27.0902],[95.6129,26.2656],[94.8472,26.2656],[94.0816,25.9712],[92.9037,25.8534],[91.3724,25.6767],[90.489,25.5],[89.4289,24.8522],[89.1933,24.3221],[88.9577,23.9098],[88.781,23.0853],[88.8147,22.937],[88.7451,22.552],[88.6043,22.3197],[88.1557,22.2735],[88.0469,22.2496],[87.9534,22.1517],[87.9033,21.8037],[87.7402,21.6753],[87.477,21.5992],[87.3639,21.5514],[87.1921,21.5361],[87.0876,21.4774],[86.8964,21.3184],[86.8266,21.1881],[86.8375,21.112],[87.0376,20.6965],[86.7418,20.4703],[86.7396,20.4072],[86.7722,20.392],[86.8114,20.4616],[86.8092,20.3746],[86.509,20.1592],[86.4916,20.1005],[86.422,20.0331],[86.4199,19.9787],[86.235,19.9004],[85.8543,19.7982],[85.6216,19.7133],[85.3779,19.5959],[84.9528,19.316],[84.932,19.2652],[84.8146,19.1586],[84.7167,18.9803],[84.6014,18.8628],[84.4165,18.6301],[84.1663,18.3799],[84.1446,18.3147],[84.0728,18.2668],[83.79,18.1363],[83.5877,18.0167],[83.4159,17.8448],[83.429,17.8122],[83.2136,17.5881],[82.7351,17.3532],[82.4936,17.214],[82.3614,17.078],[82.2848,17.0248],[82.2565,16.9378],[82.2674,16.879],[82.3675,16.8464],[82.3805,16.7899],[82.3087,16.6006],[82.1543,16.4962],[81.9259,16.3918],[81.7084,16.3178],[81.6061,16.3505],[81.4691,16.3548],[81.3951,16.3418],[81.2864,16.2874],[81.2233,16.2178],[81.1537,15.9829],[80.9949,15.8371],[81.0036,15.7545],[80.9479,15.7234],[80.86,15.7023],[80.8296,15.7088],[80.8057,15.848],[80.7013,15.8828],[80.5512,15.8567],[80.3554,15.7501],[80.2901,15.687],[80.2488,15.6218],[80.2053,15.4391],[80.1205,15.3586],[80.0879,15.2585],[80.0835,15.1693],[80.0422,15.091],[80.1009,14.7691],[80.1944,14.582],[80.1792,14.358],[80.127,14.2057],[80.1379,14.097],[80.2532,13.7816],[80.2336,13.675],[80.3184,13.4553],[80.3511,13.2834],[80.2858,13.0442],[80.2575,12.7788],[80.1923,12.5787],[80.1401,12.4308],[80.0422,12.3089],[79.8638,12.0109],[79.792,11.7825],[79.7485,11.565],[79.8116,11.4476],[79.8551,11.1952],[79.866,10.2838],[79.7964,10.2708],[79.4766,10.3165],[79.3809,10.3165],[79.357,10.2904],[79.2961,10.2664],[79.2352,10.1555],[79.2352,10.0685],[79.2656,10.038],[79.1938,9.9684],[79.1264,9.8575],[79.0003,9.7205],[78.9328,9.5834],[78.9067,9.4616],[78.9655,9.3724],[79.0329,9.3137],[79.1155,9.2963],[79.1373,9.2767],[78.7936,9.231],[78.6457,9.1832],[78.6435,9.1506],[78.4565,9.1245],[78.3673,9.0744],[78.2585,8.9961],[78.1867,8.9156],[78.1693,8.8199],[78.1802,8.7677],[78.1345,8.6611],[78.128,8.4871],[78.0627,8.411],[78.0627,8.3675],[77.8996,8.2674],[77.8082,8.2413],[77.7452,8.1652],[77.5842,8.1347],[77.5603,8.0847],[77.4885,8.076],[77.3058,8.1369],[77.1165,8.2696],[76.9708,8.411],[76.6206,8.8395],[76.5488,8.8874],[76.5118,9.0179],[76.4074,9.2332],[76.3269,9.4681],[76.2682,9.8575],[76.1638,10.1946],[76.055,10.4927],[75.9006,10.7972],[75.831,11.1191],[75.7201,11.3801],[75.6635,11.4454],[75.5982,11.4845],[75.5917,11.5541],[75.5308,11.6999],[75.4786,11.7564],[75.446,11.7673],[75.3851,11.8522],[75.3611,11.8478],[75.2372,12.0175],[75.2045,12.0044],[75.0544,12.3677],[74.9995,12.4253],[74.8152,12.8832],[74.6934,13.3487],[74.6694,13.6141],[74.6085,13.8577],[74.5781,13.9251],[74.5106,13.9817],[74.4671,14.1774],[74.3997,14.3014],[74.4084,14.3602],[74.3562,14.5015],[74.3105,14.5124],[74.3062,14.5733],[74.2714,14.6212],[74.2583,14.7147],[74.1909,14.7256],[74.1126,14.7865],[74.1017,14.8844],[74.0408,14.9214],[74.0473,14.9714],[73.9973,15.0171],[73.932,15.128],[73.9342,15.1802],[73.8798,15.3412],[73.7885,15.4021],[73.6623,15.774],[73.5644,15.9132],[73.4992,15.935],[73.3317,16.5223],[73.286,16.8921],[73.2795,17.1096],[73.2012,17.2901],[73.2055,17.3685],[73.0902,17.8274],[72.9945,18.0645],[72.9771,18.195],[72.9358,18.2255],[72.9423,18.3081],[72.9032,18.4104],[72.9075,18.5583],[72.8531,18.6366],[72.8531,18.7802],[72.8009,18.8976],[72.8227,19.0564],[72.7835,19.1652],[72.7857,19.3392],[72.6726,19.8199],[72.6878,19.9352],[72.727,20.0048],[72.7509,20.2615],[72.8901,20.5094],[72.8771,20.6943],[72.7596,21.0706],[72.6617,21.2033],[72.6421,21.3012],[72.69,21.4992],[72.8183,21.634],[72.827,21.7471],[72.7161,22.0734],[72.653,22.1865],[72.5356,22.2409],[72.4312,22.2387],[72.3441,22.1691],[72.2397,22.0169],[72.2267,21.7667],[72.305,21.6318],[72.2463,21.4818],[72.1375,21.3338],[72.094,21.2447],[72.1049,21.199],[71.2544,20.8314],[70.9933,20.7335],[70.8215,20.6987],[70.5953,20.7792],[70.3625,20.8945],[70.1972,21.0184],[70.0711,21.1381],[70.0523,21.2595],[70.0523,21.6718],[70.3468,22.2019],[70.5525,22.4002],[70.7084,22.5217],[70.7708,22.5518],[70.8487,22.6342],[71.5247,23.6743],[72.1725,24.5577],[72.2903,25.7945],[72.5259,26.8546],[72.9382,27.9147],[73.2327,29.0337],[74.0572,31.0951],[75.1762,32.7441],[75.4118,32.9208],[75.8241,33.0386],[76.413,32.8619],[76.8253,32.5674],[77.4142,32.2141],[78.3566,31.2717],[78.8277,30.8595],[80.4768,30.0349],[81.478,29.5049],[82.3614,29.1515],[83.5393,28.5626],[84.5406,28.3859],[85.8951,27.9736],[87.1908,27.738],[88.3099,27.5024],[89.6644,27.3847]]]]}}