{"type":"Feature","properties":{"speciesId":354,"category":"LC","source":"IUCN Red List","simplifyTol":0.01,"clippedToSubcontinent":true},"geometry":{"type":"MultiPolygon","coordinates":[[[[91.9625,22.4185],[91.9257,22.4192],[91.8964,22.4094],[91.8723,22.3498],[91.7966,22.2942],[91.7001,22.4841],[91.5625,22.6701],[91.2507,23.7369],[91.1184,24.8274],[91.0995,25.193],[91.0364,25.4641],[90.9104,25.8864],[90.8347,26.0629],[90.6456,26.252],[90.4628,26.3466],[90.1161,26.4159],[89.2967,26.46],[88.3196,26.4853],[87.954,26.5546],[87.809,26.6428],[87.7397,27.0084],[88.0549,27.2291],[88.7482,27.4749],[89.2336,27.5506],[89.6749,27.5947],[89.9081,27.5947],[90.5574,27.3551],[91.4336,26.5798],[92.0576,25.8297],[92.1332,25.4389],[92.0954,25.1111],[91.9315,24.5185],[91.9063,23.8945],[91.9567,23.0309],[91.9625,22.4185]]],[[[91.837,22.2367],[91.842,22.2605],[91.8147,22.3049],[91.8666,22.3221],[91.9008,22.4007],[91.9547,22.4148],[91.9757,22.2871],[91.9441,22.2493],[91.837,22.2367]]],[[[91.8201,22.2775],[91.8003,22.289],[91.806,22.2983],[91.8201,22.2775]]],[[[91.828,22.2495],[91.8157,22.267],[91.8274,22.2623],[91.828,22.2495]]]]}}