{"type":"Feature","properties":{"speciesId":361,"category":"LC","source":"IUCN Red List","simplifyTol":0.01,"clippedToSubcontinent":true},"geometry":{"type":"Polygon","coordinates":[[[90.8037,27.3294],[90.8493,27.3637],[91.1078,27.3827],[92.0315,27.5081],[92.3547,27.5841],[93.0085,27.8236],[93.5635,28.0669],[94.0121,28.3292],[94.3314,28.5839],[94.5405,28.8348],[94.9966,29.2796],[95.1715,29.386],[95.3236,29.3632],[95.3616,29.2492],[95.1715,28.8804],[94.7381,28.276],[93.8638,27.6336],[92.8146,27.109],[92.4345,27.0253],[91.5222,26.9835],[91.104,26.9949],[90.8645,27.1128],[90.7885,27.2192],[90.7885,27.3332],[90.8037,27.3294]]]}}