{"type":"Feature","properties":{"speciesId":362,"category":"NT","source":"IUCN Red List","simplifyTol":0.01,"clippedToSubcontinent":true},"geometry":{"type":"Polygon","coordinates":[[[80.527,29.1983],[80.0366,29.3088],[79.5696,29.3185],[79.4107,29.3495],[79.1549,29.5472],[78.6742,30.1576],[78.4979,30.4658],[78.4475,30.6014],[78.4397,30.6964],[78.4552,30.7351],[78.6219,30.7894],[78.901,30.832],[79.0289,30.8417],[79.0735,30.8204],[79.1122,30.7506],[79.1859,30.4367],[79.3138,30.2041],[79.5657,29.8592],[79.6781,29.7487],[79.8293,29.6344],[80.4068,29.334],[80.5153,29.2642],[80.5502,29.2099],[80.527,29.1983]]]}}