{"type":"Feature","properties":{"speciesId":363,"category":"LC","source":"IUCN Red List","simplifyTol":0.01,"clippedToSubcontinent":true},"geometry":{"type":"Polygon","coordinates":[[[76.2011,32.7615],[76.3085,32.672],[76.4429,32.5197],[76.7295,32.0898],[77.4997,31.1047],[77.8848,30.7644],[78.5027,30.5494],[79.1923,30.3882],[80.1148,30.2002],[83.1866,29.1434],[84.0016,28.7045],[85.1032,28.1493],[85.7928,27.8627],[86.7421,27.8],[86.8496,27.6925],[86.6346,27.5403],[86.4555,27.4955],[85.4256,27.5671],[85.1838,27.6567],[84.7718,27.9075],[84.1001,28.2567],[82.8911,28.7135],[81.7806,29.1702],[80.1416,29.7792],[79.0401,30.0031],[78.2699,30.1285],[77.2489,30.4688],[76.7116,31.051],[76.3712,31.5525],[76.1205,32.1525],[76.013,32.5645],[76.1026,32.7526],[76.2011,32.7615]]]}}