{"type":"Feature","properties":{"speciesId":366,"category":"LC","source":"IUCN Red List","simplifyTol":0.01,"clippedToSubcontinent":true},"geometry":{"type":"MultiPolygon","coordinates":[[[[92.874,21.6314],[92.8445,21.6612],[92.8747,21.6909],[92.904,21.6608],[92.874,21.6314]]],[[[90.3898,26.9761],[90.3936,26.9845],[90.4005,26.9868],[90.3898,26.9761]]],[[[89.6169,27.2404],[89.7292,27.2512],[90.2599,27.2073],[90.3812,27.1207],[90.3378,27.0149],[90.1712,26.9465],[89.9855,26.9571],[89.612,26.8959],[89.4658,26.8128],[89.2105,26.5866],[89.1205,26.529],[88.1825,26.4092],[87.4702,26.3693],[87.0804,26.5076],[87.0776,26.6263],[87.2022,27.0908],[87.3158,27.4343],[87.4318,27.6098],[87.5597,27.7377],[88.0984,27.8327],[88.3233,27.8148],[88.6873,27.7006],[88.9157,27.6042],[89.3469,27.2603],[89.6169,27.2404]]]]}}