{"type":"Feature","properties":{"speciesId":367,"category":"LC","source":"IUCN Red List","simplifyTol":0.01,"clippedToSubcontinent":true},"geometry":{"type":"MultiPolygon","coordinates":[[[[76.4002,10.8321],[76.3176,10.8993],[76.2501,11.0159],[76.1636,11.2842],[76.1636,11.3868],[76.2107,11.5394],[76.3251,11.6408],[76.4414,11.7139],[76.5559,11.7364],[76.6891,11.7102],[76.7679,11.6708],[76.8205,11.5995],[76.8449,11.515],[76.8436,11.3996],[76.7267,11.2205],[76.6768,11.0661],[76.6255,10.9891],[76.5998,10.8993],[76.5228,10.8352],[76.4002,10.8321]]],[[[75.0988,13.2984],[75.009,13.3369],[74.9705,13.3882],[74.9191,13.6063],[74.9254,13.6897],[74.9835,13.761],[75.0603,13.7859],[75.1629,13.7603],[75.1886,13.7346],[75.2368,13.6541],[75.265,13.5621],[75.2655,13.4395],[75.2399,13.3754],[75.1768,13.3144],[75.0988,13.2984]]]]}}