{"type":"Feature","properties":{"speciesId":368,"category":"LC","source":"IUCN Red List","simplifyTol":0.01,"clippedToSubcontinent":true},"geometry":{"type":"Polygon","coordinates":[[[76.5455,11.0336],[76.4605,11.0578],[76.3998,11.1003],[76.3573,11.2278],[76.2663,11.3552],[76.2663,11.4341],[76.2845,11.4948],[76.3634,11.5433],[76.4241,11.604],[76.5471,11.6329],[76.644,11.6366],[76.8323,11.6124],[76.9292,11.577],[77.0149,11.4931],[77.0168,11.4204],[76.9642,11.3431],[76.8792,11.2824],[76.7615,11.1017],[76.6608,11.0457],[76.5455,11.0336]]]}}