{"type":"Feature","properties":{"speciesId":369,"category":"VU","source":"IUCN Red List","simplifyTol":0.01,"clippedToSubcontinent":true},"geometry":{"type":"MultiPolygon","coordinates":[[[[77.3902,8.3965],[77.2957,8.4015],[77.2409,8.4463],[77.221,8.5558],[77.2359,8.6355],[77.3454,8.7898],[77.3454,8.8447],[77.275,9.1084],[77.2615,9.2968],[77.3019,9.4045],[77.3772,9.4583],[77.493,9.4476],[77.5522,9.3722],[77.6292,9.0885],[77.6342,8.9491],[77.6242,8.8147],[77.5446,8.5608],[77.4749,8.4662],[77.3902,8.3965]]],[[[78.6697,11.6225],[78.5253,11.6872],[78.4753,11.7488],[78.4753,11.8618],[78.5238,11.9668],[78.6149,12.0406],[78.6995,12.0904],[78.8041,12.0805],[78.8683,12.0072],[78.906,11.8941],[78.8788,11.7867],[78.7991,11.6772],[78.6697,11.6225]]],[[[73.8056,17.4951],[73.7323,17.5038],[73.5407,17.7338],[73.5407,17.8488],[73.5943,18.0942],[73.6863,18.2092],[73.8397,18.2246],[73.947,18.1325],[74.0007,18.0405],[74.0314,17.7645],[73.9701,17.6188],[73.8056,17.4951]]]]}}