{"type":"Feature","properties":{"speciesId":370,"category":"DD","source":"IUCN Red List","simplifyTol":0.01,"clippedToSubcontinent":true},"geometry":{"type":"MultiPolygon","coordinates":[[[[77.3724,9.9839],[77.2852,9.9911],[77.2053,10.0492],[77.1545,10.1146],[77.1327,10.1655],[77.14,10.2308],[77.1901,10.3058],[77.2489,10.3616],[77.5146,10.4037],[77.63,10.4439],[77.7212,10.46],[77.7775,10.4519],[77.8082,10.4269],[77.8445,10.3107],[77.8191,10.2306],[77.7426,10.169],[77.6412,10.1437],[77.5395,10.0492],[77.4523,9.9984],[77.3724,9.9839]]],[[[76.8712,10.841],[76.8159,10.8597],[76.7623,10.9063],[76.7542,10.9736],[76.7986,11.117],[76.8481,11.1641],[76.9221,11.1823],[77.0383,11.1678],[77.0964,11.1242],[77.1096,11.0622],[77.0814,10.9213],[76.9513,10.8449],[76.8712,10.841]]]]}}