{"type":"Feature","properties":{"speciesId":371,"category":"LC","source":"IUCN Red List","simplifyTol":0.01,"clippedToSubcontinent":true},"geometry":{"type":"Polygon","coordinates":[[[78.0878,10.305],[78.1576,9.9172],[77.9947,9.4053],[77.8939,9.2192],[77.8318,9.1416],[77.7698,8.9477],[77.7233,8.8857],[77.5449,8.7616],[77.4518,8.7228],[77.351,8.7073],[77.32,8.622],[77.3665,8.4048],[77.3665,8.3195],[77.3045,8.2187],[77.2449,8.169],[76.9644,8.4006],[76.6683,8.7819],[76.5758,8.8769],[76.5712,8.937],[76.6057,8.9715],[76.6603,8.9667],[76.6637,9.0038],[76.559,8.9915],[76.5341,8.965],[76.3803,9.2814],[76.3078,9.4969],[76.2444,9.9612],[76.2878,9.911],[76.2603,9.9045],[76.2863,9.8311],[76.3264,9.7697],[76.3569,9.7767],[76.3789,9.6401],[76.3529,9.5264],[76.3925,9.5036],[76.4764,9.4976],[76.4989,9.5304],[76.4244,9.5979],[76.3842,9.8603],[76.3575,9.9118],[76.3203,9.9439],[76.2401,10.1108],[76.2117,10.1285],[76.2371,9.9842],[76.2043,10.0354],[76.1642,10.1878],[76.0544,10.4679],[76.6297,10.8867],[76.8779,11.003],[77.1804,11.2124],[77.382,11.2744],[77.669,11.2899],[77.7776,11.2589],[77.8861,11.1891],[78.0102,11.0805],[78.0568,10.9565],[78.08,10.8013],[78.0723,10.6385],[78.0878,10.305]]]}}