{"type":"Feature","properties":{"speciesId":375,"category":"LC","source":"IUCN Red List","simplifyTol":0.01,"clippedToSubcontinent":true},"geometry":{"type":"Polygon","coordinates":[[[70.3914,30.665],[70.3595,30.9245],[70.3919,31.2181],[70.303,31.5042],[70.3215,31.7621],[70.3055,31.9855],[70.193,32.2917],[69.9939,32.4672],[69.7558,32.8381],[69.5972,33.2275],[69.848,34.1054],[70.1083,34.5158],[70.5751,34.841],[71.154,34.9824],[71.3636,35.0914],[71.4925,35.1964],[71.672,35.2188],[71.8608,35.1404],[72.0107,34.8763],[72.0197,34.75],[72.2249,34.5907],[72.782,34.6204],[72.9205,34.7761],[74.0278,35.1455],[74.2067,35.0893],[74.2141,34.9978],[73.7516,34.3665],[74.0937,33.2881],[75.1728,32.9534],[75.2183,32.8388],[75.2054,32.696],[74.123,31.7878],[73.58,31.4797],[71.7753,30.6094],[71.3605,30.3139],[71.0387,30.3408],[70.8273,30.2626],[70.6284,30.2575],[70.4596,30.3893],[70.3655,30.6283],[70.3914,30.665]]]}}