{"type":"Feature","properties":{"speciesId":378,"category":"LC","source":"IUCN Red List","simplifyTol":0.01,"clippedToSubcontinent":true},"geometry":{"type":"Polygon","coordinates":[[[73.2623,33.453],[72.8069,33.6655],[72.3879,34.0437],[72.0782,34.5703],[71.8961,35.049],[71.9507,35.4209],[72.1147,35.9093],[72.315,36.3214],[72.6247,36.5558],[72.9526,36.6874],[73.4627,36.7604],[73.6995,36.8188],[73.9727,36.7312],[74.082,36.6582],[74.2096,36.2186],[74.2096,34.7202],[74.2642,34.2698],[74.2096,33.4682],[74.082,33.2856],[73.8634,33.2856],[73.2623,33.453]]]}}