{"type":"Feature","properties":{"speciesId":382,"category":"LC","source":"IUCN Red List","simplifyTol":0.01,"clippedToSubcontinent":true},"geometry":{"type":"MultiPolygon","coordinates":[[[[97.842,19.2956],[97.7861,19.2716],[97.8386,19.2115],[97.832,19.099],[97.7693,19.0681],[97.7616,19.0416],[97.7385,19.0312],[97.7328,18.9722],[97.6712,18.9454],[97.6722,18.9264],[97.7449,18.8618],[97.7546,18.7326],[97.7734,18.6913],[97.7677,18.5792],[97.6715,18.5778],[97.6169,18.5602],[97.615,18.5404],[97.5515,18.526],[97.5332,18.4917],[97.4902,18.5079],[97.446,18.4936],[97.425,18.5434],[97.4002,18.5638],[97.3674,18.5645],[97.3614,18.5951],[97.3456,18.5673],[97.4516,18.3902],[97.4512,18.33],[97.5073,18.2645],[97.5382,18.2764],[97.561,18.337],[97.6347,18.3038],[97.6449,18.2823],[97.6157,18.2331],[97.6812,18.155],[97.6892,18.0587],[97.7094,18.0531],[97.7433,17.9712],[97.7396,17.9506],[97.6959,17.923],[97.6815,17.885],[97.6977,17.8203],[97.7777,17.7508],[97.772,17.7166],[97.9053,17.5868],[97.9291,17.5399],[98.0,17.5025],[98.0,16.3741],[97.9711,16.4225],[97.8219,16.5242],[97.6691,16.5677],[97.5558,16.735],[97.5092,16.8694],[97.5028,16.9372],[97.4736,16.9939],[97.4955,17.0778],[97.5267,17.1156],[97.5044,17.2525],[97.5191,17.2836],[97.445,17.4728],[97.4464,17.5428],[97.4191,17.5583],[97.3911,17.6175],[97.4133,17.7111],[97.3766,17.7019],[97.3405,17.6103],[97.2833,17.5994],[97.2561,17.575],[97.2175,17.5869],[97.185,17.7506],[97.2064,17.7808],[97.2066,17.8153],[97.1308,17.9536],[97.2086,18.1386],[97.1469,18.2297],[97.1228,18.3189],[97.0203,18.3644],[96.9794,18.4081],[96.9872,18.5817],[96.9553,18.6339],[96.9091,18.6375],[96.8339,18.6047],[96.7169,18.6061],[96.6033,18.7506],[96.658,18.7844],[96.6219,18.8272],[96.6404,18.885],[96.6839,18.9261],[96.5486,19.0553],[96.5236,19.1569],[96.5822,19.2192],[96.5067,19.2392],[96.4264,19.4261],[96.4632,19.6523],[97.8604,19.53],[97.8727,19.4864],[97.7853,19.3993],[97.842,19.2956]]],[[[95.731,26.8924],[95.6518,26.889],[95.5985,26.8092],[95.5487,26.8216],[95.512,26.8119],[95.4257,26.6936],[95.268,26.6426],[95.2408,26.6803],[95.144,26.6106],[95.1503,26.5727],[95.0727,26.4716],[95.0983,26.4047],[95.0708,26.3079],[95.0953,26.2185],[95.1238,26.1978],[95.1036,26.1712],[95.1157,26.1122],[95.1834,26.0636],[95.0917,25.9561],[95.0238,25.9246],[95.0172,25.881],[95.0423,25.7476],[94.9835,25.7139],[94.8077,25.5045],[94.7685,25.4797],[94.7422,25.4925],[94.6796,25.4546],[94.6312,25.3873],[94.603,25.3032],[94.418,25.23],[94.192,25.2062],[94.06,25.2953],[93.9303,25.3014],[93.8289,25.4525],[93.8583,25.4764],[93.8827,25.6821],[94.0017,26.1502],[94.2241,26.4933],[94.4206,26.5944],[94.9492,26.9184],[95.2145,26.9951],[95.388,27.0861],[95.5959,27.0503],[95.7576,26.9544],[95.731,26.8924]]],[[[88.6385,28.1147],[88.6805,28.0706],[88.7619,28.072],[88.8042,28.0257],[88.8408,28.01],[88.8414,27.9255],[88.8713,27.9169],[88.8862,27.8575],[88.86,27.8118],[88.8684,27.7369],[88.8483,27.7147],[88.8499,27.6749],[88.8143,27.6448],[88.79,27.5764],[88.7685,27.5675],[88.7947,27.5329],[88.7811,27.4708],[88.795,27.4321],[88.8362,27.3819],[88.8611,27.3882],[88.8889,27.3415],[88.9218,27.3273],[88.9101,27.2766],[88.9233,27.2728],[88.9093,27.2331],[88.8136,27.2107],[88.7998,27.1593],[88.7597,27.1143],[88.8785,27.0683],[88.8891,27.0253],[88.8794,26.9472],[88.9165,26.9899],[88.9468,26.9685],[88.9478,26.9351],[88.9786,26.9208],[89.0077,26.9346],[88.954,26.7562],[88.882,26.5983],[88.7942,26.4661],[88.6948,26.3654],[88.6838,26.3913],[88.6951,26.3966],[88.6746,26.4037],[88.6831,26.4144],[88.6255,26.4345],[88.6184,26.4764],[88.5599,26.4666],[88.556,26.486],[88.5234,26.485],[88.5155,26.5121],[88.4876,26.5124],[88.4794,26.5435],[88.4293,26.5536],[88.416,26.6272],[88.3946,26.6292],[88.3981,26.6022],[88.3732,26.5815],[88.3321,26.4845],[88.3538,26.4507],[88.365,26.4852],[88.483,26.4609],[88.5264,26.3726],[88.4784,26.3482],[88.4539,26.3773],[88.433,26.3433],[88.4005,26.3273],[88.4088,26.3157],[88.3641,26.3054],[88.351,26.2853],[88.2117,26.3671],[88.0934,26.5139],[88.1092,26.5728],[88.1251,26.5753],[88.1599,26.6391],[88.1885,26.7669],[88.1713,26.8676],[88.1149,26.9561],[88.1281,26.9839],[88.0776,27.0292],[88.0251,27.0476],[88.0134,27.0895],[87.9843,27.1132],[88.0287,27.293],[88.0561,27.3415],[88.0381,27.3863],[88.0659,27.4316],[88.0408,27.4947],[88.0788,27.5918],[88.116,27.6224],[88.1165,27.6477],[88.1411,27.6747],[88.1526,27.7402],[88.172,27.7463],[88.1922,27.7905],[88.1739,27.8223],[88.1993,27.8429],[88.1938,27.8548],[88.134,27.8882],[88.177,27.9526],[88.2013,27.9468],[88.2116,27.9678],[88.2398,27.9707],[88.2559,27.9443],[88.3549,27.9898],[88.408,27.9818],[88.4957,28.0447],[88.552,28.0316],[88.5609,28.0809],[88.6085,28.0886],[88.6385,28.1147]]]]}}