{"type":"Feature","properties":{"speciesId":383,"category":"DD","source":"IUCN Red List","simplifyTol":0.01,"clippedToSubcontinent":true},"geometry":{"type":"MultiPolygon","coordinates":[[[[92.6951,11.5033],[92.6837,11.5027],[92.658,11.524],[92.6762,11.5249],[92.6951,11.5033]]],[[[92.6158,11.5173],[92.6129,11.5217],[92.6167,11.5219],[92.6158,11.5173]]],[[[92.5744,11.5125],[92.5682,11.519],[92.5773,11.52],[92.5744,11.5125]]],[[[92.6507,11.5061],[92.6874,11.4719],[92.6976,11.4352],[92.6624,11.4038],[92.7013,11.3901],[92.7041,11.3741],[92.6781,11.3536],[92.6151,11.3453],[92.5979,11.3683],[92.6072,11.3984],[92.6359,11.4002],[92.6249,11.4622],[92.6507,11.5061]]],[[[92.7045,11.5074],[92.6999,11.5077],[92.698,11.5115],[92.7045,11.5074]]],[[[92.7261,11.4941],[92.718,11.4845],[92.7135,11.5019],[92.7261,11.4941]]],[[[92.7326,11.3128],[92.7304,11.3194],[92.733,11.3199],[92.7326,11.3128]]],[[[92.7064,11.2431],[92.7047,11.2811],[92.7183,11.2893],[92.718,11.261],[92.7064,11.2431]]],[[[92.6905,11.1738],[92.6797,11.1812],[92.6836,11.1852],[92.6905,11.1738]]],[[[93.7108,7.3892],[93.746,7.3621],[93.7339,7.3215],[93.6705,7.2797],[93.6453,7.2407],[93.6147,7.3039],[93.6295,7.3143],[93.6236,7.3688],[93.6613,7.3675],[93.702,7.3899],[93.6946,7.4414],[93.7108,7.3892]]],[[[93.8348,7.2369],[93.8821,7.197],[93.897,7.0791],[93.9251,7.0201],[93.9547,6.9984],[93.9206,6.9981],[93.9389,6.961],[93.8087,6.9523],[93.6655,7.0178],[93.6573,7.0934],[93.6718,7.1099],[93.6536,7.12],[93.678,7.1442],[93.6724,7.1738],[93.7573,7.1904],[93.7622,7.2069],[93.8033,7.1959],[93.8043,7.2255],[93.8348,7.2369]]],[[[93.7185,7.2117],[93.7113,7.2013],[93.7057,7.2258],[93.7185,7.2117]]]]}}