{"type":"Feature","properties":{"speciesId":385,"category":"LC","source":"IUCN Red List","simplifyTol":0.01,"clippedToSubcontinent":true},"geometry":{"type":"MultiPolygon","coordinates":[[[[78.5825,9.1049],[78.5892,9.0978],[78.5753,9.0966],[78.5825,9.1049]]],[[[78.824,9.1593],[78.8282,9.1601],[78.825,9.1519],[78.824,9.1593]]],[[[78.9476,9.1803],[78.9002,9.172],[78.9116,9.1797],[78.9476,9.1803]]],[[[79.0888,9.1881],[79.0749,9.1949],[79.0642,9.1945],[79.0712,9.2024],[79.0888,9.1881]]],[[[79.2036,9.2358],[79.188,9.2334],[79.1847,9.2426],[79.2036,9.2358]]],[[[79.2106,9.2422],[79.2207,9.2426],[79.2097,9.2387],[79.2106,9.2422]]],[[[80.0615,6.1965],[80.0643,6.1883],[80.0618,6.1923],[80.0615,6.1965]]],[[[80.0388,6.2332],[80.0083,6.3875],[79.9831,6.428],[79.9951,6.4411],[79.988,6.4788],[79.8772,6.7696],[79.8516,6.8973],[79.8797,6.9395],[79.8775,6.9667],[79.8275,7.1574],[79.8677,7.2395],[79.853,7.24],[79.8112,7.4465],[79.8062,7.6915],[79.7598,7.8956],[79.7149,8.0084],[79.7069,8.1778],[79.7264,8.1807],[79.7465,8.244],[79.7897,8.3137],[79.7648,8.271],[79.7596,8.2257],[79.774,8.2378],[79.7658,8.221],[79.785,8.2181],[79.7773,8.1795],[79.7489,8.1648],[79.7577,8.1469],[79.7401,8.0508],[79.7626,8.0221],[79.7511,7.964],[79.8271,7.9358],[79.8167,7.8479],[79.835,7.8846],[79.8425,7.9711],[79.7981,8.0322],[79.8171,8.0251],[79.8033,8.0432],[79.8423,8.1036],[79.8239,8.1677],[79.8031,8.1842],[79.818,8.1813],[79.7982,8.1941],[79.8186,8.2014],[79.8427,8.2559],[79.8561,8.2382],[79.8669,8.2485],[79.8447,8.2651],[79.853,8.3929],[79.8717,8.4136],[79.8794,8.4992],[79.9348,8.523],[79.9277,8.5486],[79.9499,8.5795],[79.9643,8.6813],[79.9332,8.7547],[79.9485,8.7708],[79.9269,8.7723],[79.9392,8.7786],[79.9275,8.7827],[79.9443,8.8553],[79.9207,8.8938],[80.0488,8.9772],[80.0746,9.0202],[80.0942,9.0639],[80.0846,9.0843],[80.1258,9.1712],[80.1201,9.2407],[80.1363,9.2545],[80.0761,9.2927],[80.0634,9.3554],[80.155,9.3987],[80.1946,9.4467],[80.1546,9.5001],[80.0625,9.5619],[80.0961,9.5889],[80.026,9.6148],[79.9795,9.6717],[79.9565,9.651],[79.9184,9.7226],[79.9857,9.7672],[80.1141,9.7699],[80.2232,9.7953],[80.2619,9.7831],[80.3742,9.6243],[80.8202,9.2549],[80.8926,9.0859],[81.009,8.9028],[81.0015,8.882],[81.0187,8.893],[81.0215,8.8551],[81.0295,8.8688],[81.0674,8.8234],[81.096,8.8224],[81.1133,8.7765],[81.2352,8.6115],[81.2293,8.5702],[81.2383,8.5449],[81.2536,8.5432],[81.2556,8.5097],[81.2342,8.4963],[81.2346,8.5335],[81.2012,8.5305],[81.2204,8.4716],[81.198,8.4658],[81.2062,8.4255],[81.2709,8.4208],[81.3125,8.3965],[81.3125,8.4223],[81.3043,8.4105],[81.2894,8.4208],[81.2916,8.4671],[81.3307,8.4863],[81.3615,8.4549],[81.4022,8.3206],[81.4162,8.2059],[81.4854,7.9982],[81.577,7.8866],[81.5959,7.8849],[81.5755,7.8621],[81.6015,7.7939],[81.6353,7.7887],[81.6628,7.7369],[81.7216,7.7037],[81.8017,7.5625],[81.8337,7.4005],[81.8803,7.2798],[81.8671,7.0547],[81.8898,6.9906],[81.8789,6.9428],[81.8574,6.9535],[81.8663,6.9312],[81.8814,6.9309],[81.8449,6.8492],[81.8603,6.8524],[81.8567,6.8315],[81.8482,6.8182],[81.8296,6.8261],[81.8529,6.7984],[81.8318,6.7727],[81.8334,6.7293],[81.8169,6.7287],[81.8364,6.7226],[81.7844,6.6279],[81.7748,6.556],[81.7409,6.5308],[81.7088,6.4459],[81.6603,6.4006],[81.6058,6.388],[81.622,6.3695],[81.5685,6.3252],[81.5305,6.3164],[81.4954,6.2695],[81.4445,6.2455],[81.4149,6.2077],[81.3564,6.1839],[81.337,6.1584],[81.2307,6.1228],[81.2031,6.1215],[81.2124,6.1386],[81.1965,6.1377],[81.1865,6.1081],[81.1421,6.0814],[81.0252,6.071],[80.8744,6.0048],[80.834,6.0054],[80.7287,5.9247],[80.6726,5.9214],[80.5953,5.8808],[80.5617,5.9051],[80.4796,5.8999],[80.4442,5.9329],[80.4264,5.919],[80.3913,5.9235],[80.2527,5.9709],[80.2407,5.9978],[80.2271,5.9859],[80.1395,6.0569],[80.0702,6.1563],[80.0692,6.1745],[80.0614,6.1968],[80.0388,6.2332]]],[[[84.811,19.1416],[84.6929,18.9579],[84.6006,18.8682],[84.5635,18.7904],[84.4572,18.6851],[84.4484,18.6543],[84.3818,18.5947],[84.3651,18.5534],[84.1666,18.3787],[84.1375,18.3434],[84.1411,18.3142],[83.9623,18.2157],[83.9344,18.2254],[83.9453,18.21],[83.8113,18.1604],[83.6734,18.085],[83.5755,18.0095],[83.5411,17.9497],[83.4723,17.8985],[83.4679,17.9212],[83.4438,17.934],[83.449,17.9081],[83.4672,17.8865],[83.4135,17.8402],[83.4172,17.8083],[83.3542,17.7525],[83.3507,17.7279],[83.2944,17.6912],[83.3009,17.6774],[83.2456,17.6371],[83.2152,17.5903],[83.0229,17.5088],[82.9939,17.4732],[82.8843,17.4241],[82.8832,17.4381],[82.8655,17.4155],[82.6197,17.2943],[82.4936,17.2121],[82.3045,17.0442],[82.2794,17.0015],[82.2777,16.9443],[82.2529,16.9186],[82.2666,16.8866],[82.2571,16.864],[82.2721,16.8873],[82.276,16.8548],[82.2921,16.8749],[82.3044,16.8567],[82.3193,16.8678],[82.3205,16.8373],[82.3419,16.8605],[82.3691,16.8561],[82.3656,16.8116],[82.3749,16.9175],[82.3489,16.9698],[82.3717,16.953],[82.3799,16.9037],[82.3559,16.7128],[82.3226,16.6489],[82.3214,16.6135],[82.3019,16.6042],[82.3175,16.5846],[81.9554,16.3972],[81.842,16.3691],[81.7322,16.3135],[81.5325,16.359],[81.4535,16.3547],[81.3307,16.3152],[81.2538,16.2596],[81.2018,16.179],[81.1881,16.1455],[81.2125,16.1759],[81.2069,16.1316],[81.1483,16.0],[81.1551,15.9707],[81.0499,15.9049],[80.9927,15.8316],[81.0029,15.7705],[81.0318,15.7592],[80.9388,15.7079],[80.8948,15.7157],[80.8151,15.6995],[80.7824,15.8485],[80.8093,15.7779],[80.8111,15.837],[80.7695,15.8685],[80.6936,15.8811],[80.5329,15.8542],[80.3757,15.774],[80.2936,15.7047],[80.2494,15.6334],[80.1996,15.4623],[80.0957,15.329],[80.0826,15.2577],[80.091,15.2043],[80.0646,15.1906],[80.0736,15.1742],[80.0452,15.0673],[80.0872,14.8059],[80.1961,14.5712],[80.1695,14.3491],[80.1263,14.2069],[80.1383,14.0834],[80.2558,13.78],[80.2339,13.7186],[80.2329,13.6455],[80.3233,13.4439],[80.3464,13.304],[80.2956,13.1211],[80.3049,13.0927],[80.2609,13.0127],[80.2741,13.0056],[80.2429,12.8158],[80.2476,12.7533],[80.1758,12.5813],[80.1868,12.5753],[80.1569,12.4775],[80.1353,12.4587],[80.1454,12.4454],[80.0463,12.3104],[80.067,12.3502],[80.0576,12.351],[79.8819,12.0511],[79.8342,11.9097],[79.8187,11.9071],[79.8333,11.902],[79.7982,11.7882],[79.7762,11.7694],[79.794,11.7694],[79.7932,11.7502],[79.7589,11.6076],[79.7601,11.5391],[79.7719,11.4914],[79.8186,11.4263],[79.8483,11.2505],[79.8252,11.2306],[79.8497,11.2282],[79.8597,11.1777],[79.8497,10.8824],[79.8704,10.3269],[79.8418,10.2754],[79.8091,10.2689],[79.3983,10.3201],[79.271,10.2303],[79.2771,10.2105],[79.2469,10.1844],[79.229,10.1341],[79.2319,10.0843],[79.2669,10.0338],[79.165,9.934],[79.1247,9.8787],[79.1204,9.8444],[78.9816,9.6768],[78.9382,9.6016],[78.9195,9.4929],[78.9019,9.4806],[78.9653,9.3763],[79.0561,9.3019],[79.2268,9.2854],[79.2222,9.2534],[79.2086,9.2757],[79.1806,9.2768],[79.0889,9.2567],[78.9918,9.2698],[78.9449,9.2668],[78.9115,9.2451],[78.8733,9.2526],[78.7415,9.2067],[78.7216,9.183],[78.6512,9.1917],[78.6449,9.1654],[78.6591,9.1502],[78.5784,9.1263],[78.492,9.1252],[78.4912,9.1361],[78.3671,9.0798],[78.2767,8.9996],[78.2658,9.0126],[78.2681,8.9925],[78.2176,8.9572],[78.174,8.8792],[78.1539,8.7474],[78.1786,8.7594],[78.1952,8.7499],[78.2012,8.7785],[78.2055,8.7605],[78.1959,8.7407],[78.1629,8.7296],[78.1322,8.6694],[78.133,8.4883],[78.0647,8.4057],[78.0697,8.3666],[77.8041,8.2336],[77.7838,8.1982],[77.7383,8.1691],[77.5938,8.1399],[77.5609,8.1154],[77.5526,8.069],[77.3074,8.1246],[76.9771,8.3876],[76.6206,8.8431],[76.5464,8.8985],[76.5204,8.9993],[76.4617,9.1312],[76.497,9.067],[76.4753,9.1197],[76.4848,9.1159],[76.4921,9.1672],[76.4748,9.1621],[76.4709,9.1412],[76.4405,9.2326],[76.4196,9.2432],[76.4551,9.1423],[76.3263,9.4527],[76.2446,9.9545],[76.2178,10.0],[76.1229,10.3207],[76.0478,10.4918],[76.0639,10.4735],[76.0463,10.5317],[76.0266,10.5323],[75.9113,10.799],[75.9104,10.7838],[75.8326,11.1235],[75.8054,11.1508],[75.7296,11.3316],[75.7333,11.354],[75.6866,11.4353],[75.6174,11.4744],[75.5851,11.5587],[75.597,11.5363],[75.5912,11.562],[75.6041,11.561],[75.5822,11.5708],[75.5647,11.6194],[76.0152,11.6669],[76.7153,11.3738],[77.3829,11.211],[78.083,11.0644],[78.8971,11.1784],[79.1087,11.2435],[79.3204,11.5692],[79.4507,11.8785],[79.5809,12.4158],[79.5646,13.2462],[79.4995,13.8323],[79.4995,14.3534],[79.6135,15.2326],[79.9391,15.8513],[80.8834,16.4049],[81.5673,17.0236],[82.9024,18.033],[84.2701,19.2216],[84.8399,19.5961],[85.0841,19.6612],[85.2391,19.5063],[85.1224,19.4198],[85.0869,19.3687],[84.9185,19.2563],[84.811,19.1416]]],[[[82.3489,16.6109],[82.3413,16.607],[82.3466,16.6111],[82.3489,16.6109]]],[[[83.4556,17.9161],[83.4612,17.9044],[83.4535,17.9115],[83.4556,17.9161]]]]}}