{"type":"Feature","properties":{"speciesId":386,"category":"LC","source":"IUCN Red List","simplifyTol":0.01,"clippedToSubcontinent":true},"geometry":{"type":"MultiPolygon","coordinates":[[[[72.6739,21.0707],[72.6479,21.0595],[72.6749,21.0808],[72.6739,21.0707]]],[[[72.6278,21.2829],[72.6319,21.2659],[72.6197,21.273],[72.6278,21.2829]]],[[[72.6204,21.3316],[72.6284,21.3343],[72.6213,21.3247],[72.6204,21.3316]]],[[[72.3604,22.1838],[72.3515,22.1744],[72.3581,22.1888],[72.3604,22.1838]]],[[[72.4713,22.2145],[72.4723,22.2008],[72.4323,22.1795],[72.4321,22.1981],[72.4713,22.2145]]],[[[72.5175,22.2305],[72.4992,22.2229],[72.5039,22.2326],[72.5175,22.2305]]],[[[70.3835,22.9598],[70.3834,22.9427],[70.3692,22.9369],[70.3835,22.9598]]],[[[70.3916,22.9728],[70.3919,22.971],[70.3891,22.9688],[70.3916,22.9728]]],[[[70.4433,22.9793],[70.4491,22.9798],[70.4335,22.9737],[70.4433,22.9793]]],[[[70.4484,22.994],[70.4415,22.9801],[70.4276,22.9771],[70.4484,22.994]]],[[[70.4424,23.0472],[70.4209,22.9958],[70.4098,22.9911],[70.4164,23.0236],[70.4424,23.0472]]],[[[70.393,23.0311],[70.375,23.0229],[70.3744,23.0335],[70.393,23.0311]]],[[[70.4523,23.0287],[70.4512,23.0406],[70.4561,23.0439],[70.4523,23.0287]]],[[[70.4345,23.0444],[70.4187,23.0392],[70.4349,23.0499],[70.4345,23.0444]]],[[[70.3954,23.0582],[70.3788,23.0361],[70.3679,23.0431],[70.3954,23.0582]]],[[[70.4728,23.0546],[70.4599,23.0526],[70.4769,23.0622],[70.4728,23.0546]]],[[[68.4628,23.6081],[68.4443,23.5811],[68.4309,23.5774],[68.4273,23.6143],[68.4448,23.6222],[68.4628,23.6081]]],[[[68.5005,23.7184],[68.4689,23.6885],[68.4644,23.7008],[68.5005,23.7184]]],[[[68.4824,23.7252],[68.4543,23.7237],[68.4549,23.7322],[68.4824,23.7252]]],[[[68.5728,23.7352],[68.5867,23.7472],[68.593,23.7448],[68.5728,23.7352]]],[[[68.6132,23.7773],[68.5794,23.7521],[68.5649,23.7532],[68.5966,23.7758],[68.6132,23.7773]]],[[[68.6373,23.7816],[68.6334,23.7882],[68.6391,23.7899],[68.6373,23.7816]]],[[[68.1204,23.8312],[68.1551,23.8173],[68.1729,23.8229],[68.1674,23.8444],[68.1836,23.8426],[68.1913,23.7876],[68.1699,23.752],[68.0907,23.8109],[68.1204,23.8312]]],[[[68.2474,23.8543],[68.2581,23.8653],[68.2513,23.8489],[68.2474,23.8543]]],[[[68.2456,23.8676],[68.224,23.8419],[68.2062,23.8482],[68.2118,23.8714],[68.2456,23.8676]]],[[[67.391,23.9794],[67.4221,23.9805],[67.4239,23.9778],[67.4128,23.9689],[67.391,23.9794]]],[[[67.4046,24.0705],[67.4231,24.0676],[67.4129,24.0593],[67.4046,24.0705]]],[[[67.3557,24.3838],[67.3579,24.3574],[67.3371,24.3642],[67.3557,24.3838]]],[[[67.3154,24.3647],[67.3104,24.3831],[67.3332,24.382],[67.3337,24.3733],[67.3154,24.3647]]],[[[67.3382,24.4001],[67.308,24.3906],[67.3086,24.4156],[67.34,24.4177],[67.3073,24.4256],[67.3607,24.4341],[67.3632,24.4118],[67.3416,24.4159],[67.3382,24.4001]]],[[[67.3865,24.4349],[67.379,24.4215],[67.3719,24.4294],[67.3865,24.4349]]],[[[67.2966,24.4417],[67.3085,24.4517],[67.3728,24.4528],[67.3059,24.4321],[67.2966,24.4417]]],[[[67.3163,24.4696],[67.31,24.4829],[67.3236,24.4969],[67.329,24.4923],[67.3163,24.4696]]],[[[67.2751,24.4673],[67.2536,24.4866],[67.2746,24.4961],[67.2676,24.5186],[67.288,24.5262],[67.3128,24.4999],[67.3027,24.471],[67.2751,24.4673]]],[[[67.3466,24.4983],[67.3364,24.4896],[67.3162,24.5171],[67.3191,24.5195],[67.3466,24.4983]]],[[[67.3218,24.5255],[67.2934,24.5293],[67.3121,24.546],[67.3618,24.5287],[67.3505,24.5024],[67.3218,24.5255]]],[[[67.3057,24.561],[67.2732,24.5249],[67.2499,24.5383],[67.2405,24.5284],[67.2163,24.5566],[67.2242,24.576],[67.2858,24.581],[67.3057,24.561]]],[[[67.3006,24.5926],[67.3086,24.6039],[67.3079,24.5882],[67.3006,24.5926]]],[[[67.3136,24.5866],[67.3143,24.6098],[67.3046,24.6121],[67.2933,24.5865],[67.2902,24.614],[67.3124,24.6349],[67.3353,24.6107],[67.3136,24.5866]]],[[[67.3398,24.6175],[67.3491,24.6178],[67.3424,24.6092],[67.3398,24.6175]]],[[[67.3332,24.6346],[67.3556,24.6445],[67.374,24.6299],[67.3623,24.6155],[67.3332,24.6346]]],[[[67.283,24.6271],[67.2562,24.5972],[67.2196,24.6208],[67.22,24.6389],[67.182,24.6243],[67.1721,24.6663],[67.1982,24.681],[67.216,24.6634],[67.2535,24.6624],[67.283,24.6271]]],[[[67.2802,24.6583],[67.2986,24.6662],[67.3054,24.6397],[67.2839,24.6348],[67.2802,24.6583]]],[[[67.3447,24.6498],[67.3671,24.667],[67.3649,24.6521],[67.3447,24.6498]]],[[[67.3199,24.6586],[67.3343,24.6766],[67.3449,24.6623],[67.3243,24.6406],[67.3066,24.6596],[67.3199,24.6586]]],[[[67.4069,24.6477],[67.3666,24.6723],[67.3474,24.6718],[67.3405,24.6858],[67.4257,24.6969],[67.4158,24.6699],[67.437,24.6484],[67.412,24.6574],[67.4069,24.6477]]],[[[67.2911,24.6875],[67.3208,24.6697],[67.3161,24.6635],[67.2911,24.6875]]],[[[67.1336,24.6752],[67.1159,24.6769],[67.1158,24.6905],[67.1211,24.6888],[67.1336,24.6752]]],[[[67.1878,24.6946],[67.2122,24.7168],[67.2199,24.6909],[67.2449,24.6676],[67.1878,24.6946]]],[[[67.3465,24.7355],[67.3915,24.6966],[67.3402,24.6922],[67.3272,24.677],[67.2873,24.6917],[67.295,24.6711],[67.2725,24.6681],[67.271,24.6536],[67.2723,24.6789],[67.2481,24.6771],[67.2171,24.7201],[67.2545,24.7063],[67.2949,24.7361],[67.3297,24.7274],[67.3465,24.7355]]],[[[67.1131,24.7399],[67.1371,24.7553],[67.1515,24.7393],[67.1414,24.6901],[67.1131,24.7399]]],[[[67.2414,24.7576],[67.2482,24.7424],[67.1991,24.7243],[67.1929,24.7052],[67.1787,24.715],[67.1861,24.7407],[67.2414,24.7576]]],[[[67.326,24.7352],[67.2878,24.7417],[67.2504,24.7126],[67.2352,24.7209],[67.3027,24.7739],[67.3412,24.7601],[67.326,24.7352]]],[[[67.2643,24.7511],[67.2367,24.7796],[67.2889,24.7778],[67.2643,24.7511]]],[[[67.1624,24.7731],[67.2151,24.7933],[67.2292,24.7821],[67.1825,24.7512],[67.1624,24.7731]]],[[[67.2318,24.7917],[67.2117,24.8024],[67.2118,24.8053],[67.2264,24.8008],[67.2318,24.7917]]],[[[64.1211,25.4265],[64.0905,25.4084],[64.0651,25.4156],[64.1084,25.4295],[64.1211,25.4265]]],[[[66.5285,25.467],[66.5071,25.4517],[66.5036,25.4535],[66.5285,25.467]]],[[[66.4199,25.5522],[66.4127,25.536],[66.4226,25.522],[66.3934,25.5442],[66.4199,25.5522]]],[[[66.1955,25.5328],[66.1671,25.5484],[66.2052,25.5732],[66.1955,25.5328]]],[[[66.3516,25.5599],[66.3428,25.5618],[66.3439,25.5636],[66.3516,25.5599]]],[[[66.3798,25.5631],[66.3873,25.5655],[66.3814,25.5534],[66.3798,25.5631]]],[[[66.3753,25.5847],[66.3817,25.5807],[66.3709,25.5899],[66.3753,25.5847]]],[[[66.35,25.5891],[66.3614,25.5854],[66.3609,25.5834],[66.35,25.5891]]],[[[80.2493,9.8236],[80.3657,9.6603],[80.8117,9.2909],[80.8841,9.1219],[81.0005,8.9388],[80.993,8.918],[81.0102,8.929],[81.013,8.8911],[81.021,8.9048],[81.0589,8.8595],[81.0875,8.8584],[81.1048,8.8126],[81.2267,8.6475],[81.2208,8.6062],[81.2298,8.581],[81.2451,8.5793],[81.2471,8.5458],[81.2257,8.5323],[81.2261,8.5695],[81.1927,8.5665],[81.2119,8.5077],[81.1896,8.5018],[81.1977,8.4615],[81.2624,8.4569],[81.304,8.4326],[81.304,8.4583],[81.2958,8.4465],[81.2809,8.4568],[81.2831,8.5032],[81.3222,8.5224],[81.353,8.4909],[81.3937,8.3567],[81.4078,8.2419],[81.4769,8.0343],[81.5686,7.9227],[81.5874,7.921],[81.5671,7.8981],[81.593,7.83],[81.6268,7.8247],[81.6544,7.7729],[81.6999,7.7536],[81.7713,7.6448],[81.8718,7.3159],[81.8586,7.0907],[81.8813,7.0267],[81.8704,6.9789],[81.8489,6.9896],[81.8578,6.9672],[81.8729,6.9669],[81.8364,6.8853],[81.8518,6.8884],[81.8483,6.8675],[81.8397,6.8542],[81.8211,6.8621],[81.8444,6.8344],[81.8233,6.8088],[81.8249,6.7653],[81.8084,6.7647],[81.8279,6.7586],[81.7759,6.6639],[81.7664,6.592],[81.7324,6.5669],[81.7003,6.482],[81.6518,6.4367],[81.5973,6.4241],[81.6135,6.4056],[81.56,6.3612],[81.522,6.3525],[81.4869,6.3055],[81.3285,6.1945],[81.2222,6.1589],[81.1946,6.1576],[81.197,6.1776],[81.178,6.1441],[81.1336,6.1174],[81.0167,6.1071],[80.8659,6.0408],[80.8255,6.0415],[80.7202,5.9607],[80.6641,5.9575],[80.5868,5.9168],[80.5532,5.9411],[80.4489,5.9431],[80.4522,5.9588],[80.4357,5.969],[80.4179,5.955],[80.3828,5.9595],[80.2442,6.0069],[80.2285,6.0351],[80.2186,6.022],[80.0986,6.1289],[80.0314,6.2656],[80.0252,6.3364],[79.9746,6.464],[79.9866,6.4771],[79.9796,6.5149],[79.8687,6.8057],[79.8431,6.9333],[79.8712,6.9756],[79.869,7.0027],[79.819,7.1934],[79.8592,7.2756],[79.8445,7.2761],[79.8027,7.4826],[79.7977,7.7275],[79.7513,7.9316],[79.7064,8.0445],[79.699,8.1154],[79.7095,8.1343],[79.6984,8.2138],[79.7179,8.2167],[79.7381,8.28],[79.7812,8.3497],[79.7563,8.3071],[79.7511,8.2617],[79.7655,8.2739],[79.7573,8.2571],[79.7766,8.2541],[79.7688,8.2156],[79.7404,8.2008],[79.7492,8.1829],[79.7316,8.0868],[79.7541,8.0582],[79.7426,8.0],[79.8186,7.9719],[79.8082,7.8839],[79.8265,7.9206],[79.834,8.0071],[79.7896,8.0682],[79.8086,8.0611],[79.7948,8.0793],[79.8338,8.1396],[79.8154,8.2037],[79.7946,8.2203],[79.8095,8.2174],[79.7897,8.2301],[79.8101,8.2374],[79.8342,8.2919],[79.8476,8.2742],[79.8584,8.2846],[79.8362,8.3011],[79.8445,8.4289],[79.8632,8.4496],[79.8709,8.5352],[79.9263,8.559],[79.9193,8.5846],[79.9414,8.6155],[79.9558,8.7174],[79.9248,8.7907],[79.9401,8.8068],[79.9184,8.8083],[79.9307,8.8147],[79.919,8.8188],[79.9358,8.8913],[79.9122,8.9299],[80.0403,9.0133],[80.0661,9.0562],[80.0857,9.0999],[80.0761,9.1203],[80.1173,9.2072],[80.1116,9.2768],[80.1278,9.2906],[80.0676,9.3287],[80.0549,9.3914],[80.1466,9.4347],[80.1861,9.4827],[80.1461,9.5361],[80.054,9.5979],[80.0876,9.6249],[80.0176,9.6509],[79.971,9.7077],[79.948,9.6871],[79.9099,9.7587],[79.9528,9.7921],[80.0224,9.8126],[80.1056,9.8059],[80.2147,9.8314],[80.2493,9.8236]]],[[[74.7182,13.2214],[74.7216,13.2204],[74.7198,13.2198],[74.7182,13.2214]]],[[[74.7253,13.2255],[74.7251,13.2229],[74.7246,13.2251],[74.7253,13.2255]]],[[[74.7113,13.2373],[74.7125,13.2347],[74.7113,13.2353],[74.7113,13.2373]]],[[[74.6851,13.2615],[74.6866,13.26],[74.6858,13.2597],[74.6851,13.2615]]],[[[74.6832,13.2658],[74.6832,13.2658],[74.6832,13.2658],[74.6832,13.2658]]],[[[74.6939,13.2747],[74.6953,13.2789],[74.6958,13.2754],[74.6939,13.2747]]],[[[74.6929,13.2805],[74.6919,13.283],[74.693,13.2828],[74.6929,13.2805]]],[[[74.6858,13.3272],[74.6867,13.3247],[74.685,13.3266],[74.6858,13.3272]]],[[[74.6783,13.3402],[74.6796,13.3374],[74.6772,13.3399],[74.6783,13.3402]]],[[[74.6725,13.3593],[74.6735,13.361],[74.6735,13.3595],[74.6725,13.3593]]],[[[74.6665,13.373],[74.6668,13.3763],[74.6689,13.3725],[74.6665,13.373]]],[[[74.4756,14.0091],[74.4729,14.011],[74.4764,14.0124],[74.4756,14.0091]]],[[[74.4806,14.0229],[74.4815,14.0259],[74.4835,14.0238],[74.4806,14.0229]]],[[[74.4634,14.0859],[74.4666,14.084],[74.4654,14.0831],[74.4634,14.0859]]],[[[74.4746,14.0957],[74.4786,14.0927],[74.4748,14.0931],[74.4746,14.0957]]],[[[74.4679,14.1047],[74.4689,14.1094],[74.4706,14.1051],[74.4679,14.1047]]],[[[74.3981,14.3085],[74.394,14.3131],[74.4,14.3123],[74.3981,14.3085]]],[[[74.2465,14.6994],[74.2473,14.7021],[74.2486,14.6996],[74.2465,14.6994]]],[[[74.2316,14.7096],[74.2345,14.7079],[74.232,14.7076],[74.2316,14.7096]]],[[[74.1432,14.7199],[74.1435,14.7234],[74.145,14.7222],[74.1432,14.7199]]],[[[74.1513,14.7341],[74.1516,14.7394],[74.1527,14.7359],[74.1513,14.7341]]],[[[74.0956,14.8436],[74.0981,14.8392],[74.0975,14.8385],[74.0956,14.8436]]],[[[74.0991,14.8645],[74.1,14.8622],[74.0991,14.8621],[74.0991,14.8645]]],[[[74.0891,14.8748],[74.0908,14.8778],[74.0918,14.8742],[74.0891,14.8748]]],[[[80.7824,15.8485],[80.7961,15.8003],[80.7895,15.803],[80.7824,15.8485]]],[[[73.5395,15.9267],[73.5395,15.9241],[73.5379,15.9247],[73.5395,15.9267]]],[[[83.4556,17.9161],[83.4536,17.9115],[83.4535,17.9115],[83.4556,17.9161]]],[[[72.8077,18.6941],[72.8151,18.7014],[72.8112,18.6914],[72.8077,18.6941]]],[[[72.8332,18.7041],[72.8424,18.7075],[72.838,18.7002],[72.8332,18.7041]]],[[[72.8349,18.7678],[72.8456,18.7691],[72.8412,18.7641],[72.8349,18.7678]]],[[[72.8502,18.7868],[72.8464,18.7967],[72.8501,18.7971],[72.8502,18.7868]]],[[[72.9321,18.9527],[72.9276,18.967],[72.9424,18.9688],[72.9321,18.9527]]],[[[73.0595,19.016],[73.0493,19.0066],[73.0566,19.0171],[73.0595,19.016]]],[[[72.8672,19.3274],[72.8447,19.3312],[72.838,19.3354],[72.8516,19.3378],[72.8672,19.3274]]],[[[86.699,20.2872],[86.6889,20.2951],[86.7056,20.2949],[86.699,20.2872]]],[[[86.808,20.4251],[86.7916,20.3953],[86.8019,20.4312],[86.808,20.4251]]],[[[70.745,32.6231],[71.3964,33.0139],[72.5689,33.0139],[73.5243,33.1008],[74.3494,33.1008],[74.9574,32.8837],[75.6088,32.8402],[76.1299,32.5797],[76.6076,32.4928],[77.3024,32.0151],[77.8236,31.4506],[78.5618,31.0163],[79.7344,30.0175],[81.1674,29.7135],[82.1228,29.1924],[83.3822,28.4541],[84.5547,28.3238],[85.7707,27.933],[87.1604,27.8461],[89.1146,28.0198],[89.8528,27.6724],[90.4608,27.2816],[91.1991,27.1513],[92.1544,27.4119],[93.0664,27.8896],[93.8915,28.2804],[94.5864,28.6712],[95.7155,28.8015],[96.4103,28.6278],[96.8445,28.0198],[97.3657,27.3684],[97.8868,27.1513],[97.9736,26.4999],[97.7131,24.8931],[97.496,24.2851],[97.2788,23.764],[96.888,23.2863],[96.8445,22.5481],[96.8445,21.0281],[97.0617,19.899],[97.2354,18.7699],[97.496,18.2054],[97.7266,17.1178],[94.4545,17.0486],[94.4896,17.1177],[94.4558,17.1417],[94.4447,17.179],[94.4644,17.1882],[94.4993,17.1568],[94.5363,17.1869],[94.5014,17.2162],[94.5083,17.2999],[94.5264,17.2768],[94.5464,17.2903],[94.5409,17.319],[94.5815,17.2885],[94.5917,17.3042],[94.5715,17.3171],[94.5654,17.4983],[94.5427,17.5553],[94.563,17.5931],[94.6099,17.5365],[94.6111,17.5501],[94.5769,17.5914],[94.5884,17.6192],[94.5693,17.6453],[94.5588,17.6362],[94.5416,17.6813],[94.5448,17.7349],[94.4898,17.7824],[94.4815,17.9029],[94.4375,17.9956],[94.4777,18.0065],[94.4847,18.0557],[94.4469,18.1691],[94.4208,18.1909],[94.4268,18.2197],[94.4075,18.2462],[94.3372,18.2416],[94.3221,18.2642],[94.3284,18.302],[94.3911,18.2835],[94.4074,18.3107],[94.4023,18.3463],[94.3816,18.3656],[94.3376,18.3662],[94.3225,18.4359],[94.2492,18.5245],[94.2626,18.5486],[94.2513,18.5468],[94.2579,18.6085],[94.2402,18.6458],[94.1409,18.736],[94.1743,18.7141],[94.1745,18.7283],[94.2197,18.7182],[94.28,18.7351],[94.253,18.7341],[94.2492,18.7552],[94.2388,18.7347],[94.2169,18.731],[94.2064,18.7431],[94.2243,18.7812],[94.2039,18.7527],[94.1916,18.7712],[94.1994,18.7931],[94.1831,18.7796],[94.1466,18.8144],[94.1762,18.8347],[94.1458,18.8353],[94.1523,18.8795],[94.1696,18.89],[94.1467,18.8848],[94.127,18.8567],[94.1169,18.8566],[94.1287,18.8786],[94.0553,18.8461],[94.0309,18.8633],[94.0439,18.8846],[94.0738,18.8676],[94.0906,18.8806],[94.1057,18.8997],[94.1353,18.8919],[94.1086,18.9296],[94.113,18.9662],[94.0864,18.8797],[94.0718,18.8743],[94.031,18.9005],[94.0552,18.9352],[94.0364,18.9913],[94.0632,19.0376],[94.0586,19.0598],[94.1021,19.0766],[94.0897,19.0849],[94.097,19.0986],[94.1228,19.0846],[94.109,19.1051],[94.1466,19.1191],[94.1161,19.1204],[94.0545,19.0754],[94.0272,19.0792],[94.0375,19.1067],[94.1385,19.1514],[94.1357,19.1796],[94.1295,19.1561],[94.1075,19.1513],[94.0927,19.1822],[94.0911,19.1484],[94.0648,19.1263],[94.0735,19.165],[94.0624,19.1881],[94.0568,19.1255],[94.0329,19.1296],[94.0492,19.2206],[94.0711,19.2339],[94.0469,19.2483],[94.0435,19.3119],[94.0762,19.3746],[94.0686,19.3853],[94.0687,19.3706],[94.0394,19.3453],[94.0315,19.3281],[94.0354,19.2177],[94.0163,19.1814],[93.9914,19.2229],[94.0,19.1502],[93.9663,19.1394],[93.9439,19.1562],[93.9453,19.1934],[93.9092,19.1995],[93.9677,19.1238],[93.9534,19.0885],[93.9557,19.0208],[93.9858,18.9614],[93.9559,18.9192],[93.9596,18.8981],[93.9399,18.8857],[93.9373,18.8473],[93.8923,18.8923],[93.7728,18.9664],[93.7448,18.9689],[93.7151,19.0075],[93.6742,19.0103],[93.6659,19.0664],[93.6901,19.0844],[93.6976,19.1146],[93.7476,19.1213],[93.6942,19.1196],[93.6897,19.0961],[93.6629,19.0763],[93.6393,19.1378],[93.5993,19.1513],[93.5699,19.2256],[93.4727,19.3633],[93.4841,19.4091],[93.5135,19.4341],[93.5509,19.4324],[93.568,19.4163],[93.5514,19.4101],[93.5682,19.4046],[93.6041,19.4144],[93.6374,19.3542],[93.6342,19.3399],[93.6172,19.3482],[93.6001,19.3227],[93.6214,19.3411],[93.6672,19.3022],[93.6417,19.2398],[93.6446,19.2238],[93.6815,19.3001],[93.7215,19.2926],[93.6948,19.2819],[93.7269,19.2754],[93.7207,19.2445],[93.739,19.2567],[93.809,19.2263],[93.8733,19.2466],[93.9559,19.3061],[93.9498,19.3369],[93.9722,19.3514],[93.9817,19.3851],[94.0108,19.381],[93.9834,19.4055],[93.9663,19.3584],[93.8921,19.2916],[93.8818,19.3076],[93.9191,19.3345],[93.9218,19.3773],[93.9111,19.3353],[93.8842,19.3196],[93.8889,19.3534],[93.8589,19.3878],[93.8824,19.3531],[93.8692,19.3068],[93.8434,19.2959],[93.8087,19.3077],[93.7751,19.3011],[93.7392,19.3449],[93.7463,19.3542],[93.7753,19.3404],[93.78,19.3542],[93.7704,19.3446],[93.7533,19.3576],[93.7323,19.3566],[93.7319,19.3826],[93.7121,19.4014],[93.7393,19.4088],[93.6516,19.4445],[93.6372,19.4889],[93.6546,19.4919],[93.6468,19.5122],[93.6875,19.5654],[93.7462,19.5422],[93.7688,19.4853],[93.7758,19.5037],[93.7933,19.5003],[93.8187,19.4643],[93.8567,19.4843],[93.8585,19.4404],[93.877,19.473],[93.9764,19.4188],[93.9971,19.4526],[93.9766,19.4629],[93.9536,19.4479],[93.9046,19.4681],[93.9484,19.5081],[93.9383,19.564],[93.9324,19.4985],[93.9024,19.4885],[93.7768,19.5911],[93.8164,19.6042],[93.7935,19.614],[93.7602,19.5991],[93.722,19.6265],[93.7476,19.6525],[93.7943,19.6598],[93.7882,19.6815],[93.8193,19.7111],[93.8181,19.7292],[93.8066,19.7392],[93.7986,19.7014],[93.727,19.6711],[93.7059,19.7028],[93.7208,19.7482],[93.7914,19.7691],[93.7976,19.8329],[93.7862,19.8628],[93.7979,19.8666],[93.8012,19.891],[93.7933,19.916],[93.7937,19.873],[93.7386,19.8852],[93.7145,19.9079],[93.7457,19.9152],[93.7085,19.9375],[93.7091,19.9673],[93.702,19.9144],[93.6219,19.9171],[93.5518,19.8885],[93.5419,19.9036],[93.5754,19.9201],[93.5867,19.9378],[93.5688,19.9212],[93.5416,19.924],[93.546,19.9363],[93.5161,19.9234],[93.5121,19.9438],[93.5365,19.9552],[93.5085,19.9613],[93.5071,19.9748],[93.5401,19.9909],[93.4818,19.9914],[93.4674,20.0443],[93.4584,20.0541],[93.4762,20.0609],[93.4548,20.0552],[93.4762,20.0065],[93.4661,19.9825],[93.4542,19.9959],[93.4392,19.9925],[93.4567,19.95],[93.416,19.9708],[93.3807,20.0659],[93.3841,20.0801],[93.4167,20.0799],[93.4148,20.1121],[93.4329,20.1052],[93.4126,20.1727],[93.3623,20.2736],[93.343,20.2772],[93.3398,20.2996],[93.3234,20.3298],[93.2966,20.33],[93.3259,20.3859],[93.3254,20.4036],[93.2805,20.3482],[93.2801,20.3282],[93.2398,20.306],[93.2306,20.2739],[93.2464,20.2454],[93.2099,20.2347],[93.1825,20.1969],[93.117,20.1857],[93.2165,20.2861],[93.2259,20.3076],[93.2124,20.3278],[93.2512,20.4261],[93.2252,20.3917],[93.198,20.3871],[93.2235,20.376],[93.203,20.3226],[93.1243,20.3281],[93.1374,20.3425],[93.1321,20.3693],[93.1564,20.3591],[93.1748,20.3741],[93.1292,20.3762],[93.1742,20.3994],[93.1647,20.422],[93.1681,20.4002],[93.0939,20.3797],[93.0884,20.4013],[93.1111,20.4138],[93.1167,20.4272],[93.107,20.5041],[93.087,20.5198],[93.1051,20.5307],[93.0919,20.53],[93.0701,20.602],[93.0483,20.5976],[93.0218,20.6219],[93.0277,20.6439],[93.0056,20.6398],[93.0178,20.6122],[93.0757,20.5791],[93.0816,20.5517],[93.0583,20.4764],[93.0258,20.4274],[93.0173,20.454],[93.0427,20.4633],[93.0402,20.4931],[93.063,20.5208],[93.055,20.5337],[93.0351,20.5378],[93.0556,20.5207],[93.0196,20.4791],[93.0333,20.4857],[93.0386,20.4686],[93.0135,20.4606],[93.0243,20.3894],[93.0091,20.2869],[92.963,20.2257],[92.9449,20.2674],[92.915,20.2419],[92.9146,20.2122],[92.8862,20.2095],[92.9203,20.1809],[92.8966,20.1094],[92.8531,20.1232],[92.7649,20.2],[92.7873,20.2401],[92.7969,20.2102],[92.8305,20.1804],[92.8458,20.1823],[92.799,20.2141],[92.7988,20.2582],[92.9446,20.3156],[92.8982,20.3078],[92.8393,20.3808],[92.9108,20.3717],[92.9315,20.3863],[92.9417,20.3522],[92.9508,20.3739],[92.9161,20.4026],[92.9136,20.4177],[92.9341,20.4277],[92.9037,20.4768],[92.8996,20.4606],[92.9285,20.4299],[92.9072,20.421],[92.9117,20.3774],[92.8867,20.4218],[92.8866,20.4039],[92.8571,20.4195],[92.8637,20.4051],[92.8418,20.4017],[92.8166,20.4429],[92.8337,20.4407],[92.8383,20.4688],[92.8487,20.4591],[92.8275,20.4968],[92.8108,20.4924],[92.7961,20.5101],[92.7639,20.4734],[92.7523,20.4794],[92.7322,20.5696],[92.7486,20.5782],[92.7524,20.5868],[92.7467,20.5986],[92.7266,20.6168],[92.7482,20.5876],[92.7311,20.5792],[92.6844,20.6278],[92.6456,20.6891],[92.6451,20.7277],[92.5832,20.7199],[92.591,20.732],[92.5697,20.7796],[92.5997,20.7956],[92.6024,20.8064],[92.5649,20.7864],[92.5494,20.8493],[92.5449,20.8118],[92.5713,20.7516],[92.5466,20.7631],[92.5441,20.7431],[92.591,20.6851],[92.607,20.6776],[92.6395,20.6883],[92.6954,20.5825],[92.7292,20.5496],[92.72,20.4706],[92.7478,20.4143],[92.7299,20.2954],[92.747,20.2559],[92.7324,20.2568],[92.638,20.4332],[92.5281,20.5435],[92.5133,20.5993],[92.4597,20.649],[92.4661,20.6597],[92.3774,20.6957],[92.3877,20.7048],[92.3611,20.7723],[92.3901,20.8168],[92.3787,20.8246],[92.3584,20.7833],[92.3353,20.8433],[92.3602,20.8647],[92.3366,20.8509],[92.3146,20.8826],[92.3164,20.901],[92.334,20.9103],[92.3619,20.9419],[92.3477,20.9871],[92.3313,20.9978],[92.2968,20.9872],[92.2891,21.0036],[92.2836,20.9674],[92.272,20.9911],[92.2694,21.0182],[92.2887,21.0225],[92.2662,21.0406],[92.279,21.0368],[92.3128,21.0579],[92.3122,21.0703],[92.2734,21.0458],[92.2298,21.1046],[92.2243,21.1365],[92.198,21.1546],[92.1976,21.1198],[92.255,21.0615],[92.2494,21.026],[92.2611,20.9362],[92.313,20.8469],[92.3351,20.7437],[92.2996,20.7607],[92.2117,20.9253],[92.1847,21.0139],[92.0474,21.1766],[92.0496,21.2642],[92.0289,21.3402],[91.9529,21.4548],[91.9993,21.5054],[92.0221,21.4864],[91.9954,21.5518],[92.0389,21.6476],[92.0405,21.6722],[92.0251,21.6822],[92.0352,21.7006],[92.0181,21.7165],[92.0192,21.6685],[91.9818,21.656],[91.9796,21.7042],[91.9667,21.6781],[91.9481,21.7453],[91.9764,21.7418],[91.9924,21.7678],[91.9716,21.7472],[91.9545,21.7539],[91.9706,21.7862],[91.9424,21.8042],[91.9308,21.7855],[91.8912,21.7773],[91.9199,21.8473],[91.9095,21.9079],[91.9274,21.9345],[91.8949,21.9689],[91.8548,22.1276],[91.8345,22.1221],[91.8141,22.1798],[91.842,22.2605],[91.8138,22.3017],[91.8666,22.3221],[91.9129,22.4086],[92.0019,22.4046],[92.0221,22.4167],[92.0349,22.4459],[92.0815,22.4371],[92.1417,22.4616],[92.1439,22.4703],[92.0873,22.4443],[92.0331,22.4505],[92.0029,22.4124],[91.8964,22.4094],[91.8723,22.3498],[91.7955,22.2927],[91.7952,22.2778],[91.829,22.2566],[91.798,22.2196],[91.7693,22.2784],[91.7519,22.3866],[91.7001,22.4841],[91.5811,22.6536],[91.4576,22.7511],[91.4859,22.7668],[91.4692,22.7787],[91.4778,22.7633],[91.4547,22.7602],[91.4369,22.7772],[91.4746,22.8241],[91.4356,22.8048],[91.4836,22.8741],[91.4566,22.8989],[91.4922,22.9007],[91.4452,22.9007],[91.441,22.8836],[91.464,22.8832],[91.4647,22.869],[91.4204,22.8087],[91.4086,22.7609],[91.3301,22.8335],[91.3506,22.8515],[91.3427,22.8832],[91.3158,22.8394],[91.3525,22.7861],[91.3451,22.7758],[91.2963,22.8102],[91.1869,22.7977],[91.1164,22.8119],[91.1127,22.8262],[91.0831,22.8],[91.0287,22.7996],[90.9375,22.8561],[90.8246,22.8647],[90.8016,22.9088],[90.7578,22.9387],[90.7958,22.898],[90.7954,22.8634],[90.7333,22.8875],[90.6896,22.9783],[90.6294,22.9981],[90.5663,23.1036],[90.598,23.1778],[90.6524,23.2423],[90.6389,23.3166],[90.6776,23.3183],[90.6754,23.3407],[90.6978,23.3457],[90.6796,23.3628],[90.695,23.3777],[90.6733,23.3642],[90.6616,23.3375],[90.6738,23.3213],[90.5987,23.3393],[90.5796,23.3948],[90.6007,23.4314],[90.5856,23.4669],[90.6303,23.4903],[90.6817,23.4821],[90.7039,23.4901],[90.7178,23.5428],[90.7443,23.5443],[90.7254,23.5534],[90.7084,23.5386],[90.7057,23.5618],[90.732,23.5912],[90.7392,23.6216],[90.7646,23.629],[90.7639,23.6432],[90.7414,23.6621],[90.7578,23.721],[90.7425,23.6938],[90.7403,23.7242],[90.7315,23.7102],[90.7156,23.7414],[90.6818,23.6867],[90.6429,23.6899],[90.6324,23.6392],[90.5628,23.5929],[90.5531,23.5715],[90.5147,23.5814],[90.505,23.6033],[90.4839,23.5866],[90.469,23.6087],[90.4539,23.6149],[90.4703,23.6298],[90.4427,23.6684],[90.368,23.7186],[90.3837,23.7022],[90.3658,23.7034],[90.3552,23.7288],[90.3421,23.7401],[90.3176,23.735],[90.3128,23.7642],[90.2986,23.7644],[90.2817,23.7366],[90.2548,23.7303],[90.2571,23.7757],[90.2298,23.8877],[90.2396,23.827],[90.194,23.8405],[90.1518,23.8291],[90.1319,23.8674],[90.1117,23.8736],[90.1104,23.8573],[90.0916,23.8514],[90.0572,23.8201],[90.047,23.8255],[90.0625,23.8769],[90.0468,23.8894],[90.0262,23.8817],[90.0227,23.9072],[89.9481,23.9709],[89.9523,23.9846],[89.9328,23.9846],[89.9487,23.9598],[89.9378,23.9554],[90.0192,23.8936],[90.0144,23.8769],[90.0547,23.8732],[90.0409,23.8278],[90.0466,23.8174],[90.0691,23.8163],[90.0887,23.83],[90.1247,23.8071],[90.1837,23.8023],[90.2068,23.8157],[90.2226,23.8004],[90.2415,23.8149],[90.2059,23.7537],[90.221,23.7216],[90.2524,23.721],[90.2746,23.6862],[90.2557,23.7074],[90.2383,23.7112],[90.2208,23.7081],[90.1813,23.7401],[90.1924,23.7203],[90.1626,23.7198],[90.1492,23.7107],[90.1219,23.7371],[90.0698,23.7579],[90.0232,23.7635],[90.0245,23.7952],[90.0021,23.816],[90.0195,23.7627],[90.1205,23.7334],[90.1497,23.7043],[90.1739,23.7165],[90.2205,23.7031],[90.2477,23.7076],[90.276,23.6548],[90.3797,23.6165],[90.4018,23.5883],[90.3789,23.5678],[90.4098,23.5802],[90.4377,23.5451],[90.4635,23.5452],[90.5054,23.5721],[90.5302,23.5669],[90.5701,23.4832],[90.538,23.4837],[90.5339,23.4659],[90.5539,23.4263],[90.5281,23.3907],[90.4858,23.4204],[90.4204,23.4161],[90.2542,23.4608],[90.1641,23.5242],[90.1103,23.6129],[89.97,23.6581],[89.9179,23.7216],[89.8638,23.7451],[89.7915,23.8077],[89.7742,23.8995],[89.7688,23.8876],[89.7046,23.9579],[89.7275,23.9776],[89.7208,24.0],[89.7153,23.9718],[89.6983,23.9645],[89.7051,23.9991],[89.6707,24.0],[89.6557,23.9361],[89.7033,23.8749],[89.7513,23.8659],[89.7708,23.8359],[89.7571,23.8473],[89.7242,23.8344],[89.6802,23.8626],[89.7179,23.8319],[89.6297,23.8456],[89.5468,23.8241],[89.4497,23.8706],[89.4256,23.9133],[89.3865,23.9431],[89.3288,23.9487],[89.2808,23.9875],[89.3161,23.9479],[89.2889,23.9467],[89.2414,23.9813],[89.1733,24.0],[89.0914,23.9991],[89.0608,23.9839],[89.0936,23.9665],[89.1225,23.9203],[89.1241,23.9541],[89.1671,23.9259],[89.2341,23.9194],[89.3047,23.8696],[89.4078,23.8978],[89.4384,23.8386],[89.4996,23.7788],[89.5929,23.7975],[89.6397,23.7768],[89.7017,23.7769],[89.8567,23.6605],[89.9485,23.6357],[90.0246,23.5566],[90.0179,23.5823],[90.083,23.573],[90.1256,23.5454],[90.1578,23.4889],[90.1593,23.4206],[90.2067,23.3338],[90.17,23.3466],[90.1639,23.3639],[90.1862,23.3591],[90.1608,23.3676],[90.1665,23.3332],[90.1408,23.3229],[90.1253,23.3055],[90.1205,23.3356],[90.1417,23.3597],[90.1445,23.3786],[90.1279,23.351],[90.0995,23.359],[90.1208,23.3473],[90.1189,23.3041],[90.093,23.3005],[90.0871,23.2728],[90.1245,23.2685],[90.1217,23.2487],[90.1287,23.2416],[90.2023,23.2256],[90.1987,23.2096],[90.1681,23.2041],[90.1774,23.1665],[90.219,23.1829],[90.2485,23.1621],[90.2336,23.1421],[90.2452,23.1232],[90.2645,23.1126],[90.3091,23.1128],[90.3167,23.0671],[90.2678,23.0431],[90.2726,23.0254],[90.3072,23.0209],[90.3206,22.9865],[90.2739,22.9687],[90.2991,22.9434],[90.3537,22.9212],[90.3456,22.884],[90.3205,22.8726],[90.3213,22.8502],[90.3726,22.7652],[90.3682,22.7366],[90.4195,22.7331],[90.4167,22.7138],[90.3964,22.729],[90.3831,22.7054],[90.4003,22.7234],[90.4204,22.7086],[90.4297,22.7305],[90.4193,22.7453],[90.378,22.7401],[90.3825,22.7586],[90.4243,22.7652],[90.4692,22.7349],[90.485,22.6991],[90.4769,22.6561],[90.4961,22.6723],[90.5194,22.6294],[90.5042,22.5879],[90.5187,22.5991],[90.5723,22.541],[90.6096,22.3743],[90.6103,22.3],[90.4608,22.2875],[90.4157,22.2687],[90.4035,22.2838],[90.4191,22.2895],[90.3788,22.2931],[90.4149,22.3388],[90.3641,22.2952],[90.4043,22.264],[90.2395,22.1953],[90.2206,22.219],[90.2077,22.3093],[90.2269,22.3379],[90.2801,22.3407],[90.2925,22.354],[90.2973,22.3714],[90.2696,22.3586],[90.2657,22.3711],[90.2809,22.4069],[90.3137,22.4635],[90.3413,22.4589],[90.3619,22.4905],[90.3405,22.4664],[90.3194,22.4782],[90.2722,22.4037],[90.2548,22.3443],[90.2223,22.3421],[90.1991,22.3026],[90.2097,22.2143],[90.2297,22.1912],[90.0318,22.1087],[90.0717,22.1533],[90.1399,22.1551],[90.0801,22.1586],[90.0257,22.189],[90.081,22.2209],[90.1116,22.2858],[90.1016,22.3424],[90.176,22.4215],[90.2018,22.4859],[90.206,22.5118],[90.1876,22.5224],[90.2028,22.5725],[90.1858,22.6255],[90.2519,22.6212],[90.2832,22.6302],[90.2952,22.6531],[90.2487,22.6279],[90.1846,22.631],[90.1975,22.5676],[90.1819,22.5223],[90.1989,22.509],[90.1936,22.4802],[90.1724,22.4297],[90.095,22.3491],[90.1048,22.3039],[90.0669,22.2145],[90.0211,22.1868],[90.0282,22.1691],[90.0632,22.1618],[90.0225,22.1322],[90.0183,22.1031],[89.9134,22.0645],[89.9175,22.136],[89.8803,22.2424],[89.8819,22.2869],[89.9304,22.3885],[89.9847,22.4388],[90.0,22.4869],[90.025,22.4901],[90.033,22.5719],[90.065,22.6087],[90.0571,22.6225],[90.0268,22.599],[90.0327,22.6527],[90.0059,22.6801],[90.028,22.6463],[90.0132,22.5988],[90.0307,22.5814],[90.0179,22.4944],[89.9546,22.5055],[89.9855,22.4867],[89.9872,22.466],[89.9102,22.3882],[89.8834,22.4052],[89.8834,22.4302],[89.8788,22.4209],[89.8806,22.3954],[89.8987,22.3721],[89.8448,22.2487],[89.8905,22.1211],[89.8528,22.0679],[89.8188,22.066],[89.8504,22.0505],[89.5577,21.9855],[89.5311,21.9954],[89.5173,21.9814],[88.7222,21.9182],[88.7309,21.9794],[88.7496,21.9784],[88.7689,22.0149],[88.7903,22.0183],[88.7667,22.0237],[88.7594,22.0502],[88.7747,22.0519],[88.7486,22.0659],[88.7157,22.0484],[88.7415,22.0282],[88.735,22.0071],[88.6685,22.0226],[88.6445,22.1181],[88.631,22.1198],[88.6214,22.105],[88.6438,22.0459],[88.6084,21.972],[88.6194,21.935],[88.5884,21.9672],[88.5897,21.9869],[88.5792,21.9633],[88.611,21.9322],[88.606,21.9037],[88.5089,21.8967],[88.5314,21.9303],[88.5095,21.9704],[88.5525,21.9851],[88.5652,22.0228],[88.5449,21.9865],[88.5049,21.973],[88.5103,21.9217],[88.4898,21.9084],[88.485,21.8967],[88.4664,21.9001],[88.4688,21.9487],[88.4521,21.9119],[88.4632,21.8967],[88.4012,21.8967],[88.4164,21.9231],[88.4056,21.9516],[88.3903,21.9667],[88.4057,21.9738],[88.4124,21.9947],[88.3873,21.9675],[88.4114,21.9216],[88.3976,21.8967],[88.1658,21.8967],[88.1748,21.9239],[88.1487,21.9596],[88.1863,21.9934],[88.2351,22.0789],[88.2142,22.1574],[88.1788,22.195],[88.0826,22.2206],[88.0342,22.2183],[88.0321,22.2018],[88.1438,22.1871],[88.1902,22.1329],[88.1961,22.1048],[88.1618,22.0645],[88.067,22.0155],[88.0074,21.8967],[87.9855,21.8967],[87.9366,21.8152],[87.8866,21.803],[87.8924,21.7812],[87.8286,21.7222],[87.7551,21.7008],[87.6922,21.6592],[87.6499,21.6646],[87.6431,21.653],[87.5078,21.6361],[87.1604,21.6361],[86.8129,21.2453],[86.828,21.1851],[86.8168,21.1382],[86.9296,20.9008],[86.9701,20.8491],[86.9754,20.8067],[86.8151,20.5396],[86.7655,20.5046],[86.7391,20.4593],[86.7409,20.4177],[86.7226,20.3935],[86.7414,20.3757],[86.7284,20.3611],[86.7785,20.3974],[86.7838,20.3862],[86.7109,20.3011],[86.6865,20.3181],[86.683,20.2911],[86.6945,20.282],[86.6717,20.2563],[86.531,20.1736],[86.4254,20.0257],[86.4299,20.0505],[86.4185,20.038],[86.4012,20.0047],[86.4288,19.9947],[86.4181,19.9776],[86.1784,19.8808],[85.901,19.8556],[85.3799,19.6819],[85.0324,19.3779],[84.972,19.3001],[84.8699,19.2139],[84.8096,19.1478],[84.8041,19.1159],[84.6929,18.9579],[84.2942,18.5094],[83.6734,18.085],[83.4671,17.9216],[83.4438,17.934],[83.449,17.9081],[83.3822,17.858],[83.3822,17.7725],[83.2152,17.5903],[83.0229,17.5088],[82.9939,17.4732],[82.8843,17.4241],[82.8832,17.4381],[82.8655,17.4155],[82.6197,17.2943],[82.4936,17.2121],[82.3045,17.0442],[82.2794,17.0015],[82.2777,16.9443],[82.2529,16.9186],[82.2666,16.8866],[82.2561,16.8663],[82.2721,16.8873],[82.276,16.8548],[82.2921,16.8749],[82.3044,16.8567],[82.3193,16.8678],[82.3239,16.8369],[82.3419,16.8605],[82.3691,16.8561],[82.3656,16.8116],[82.3741,16.9119],[82.3687,16.7865],[82.124,16.4806],[81.9559,16.4002],[81.6886,16.338],[81.4843,16.3581],[81.2543,16.2946],[81.124,15.9906],[80.8635,15.7735],[80.8104,15.7946],[80.8111,15.837],[80.7408,15.8775],[80.6072,15.8758],[80.5575,15.8956],[80.3559,15.8283],[80.3157,15.7263],[80.2494,15.6334],[80.1996,15.4623],[80.0957,15.329],[80.0826,15.2577],[80.091,15.2043],[80.0646,15.1906],[80.0736,15.1742],[80.0457,15.0876],[80.0872,14.8059],[80.1416,14.6959],[80.1766,14.5512],[80.1671,14.3417],[80.1263,14.2069],[80.1285,14.1412],[80.1489,14.0355],[80.2485,13.762],[80.2329,13.6455],[80.3008,13.4726],[80.2214,12.7586],[80.0137,12.2596],[79.8819,12.0511],[79.8342,11.9097],[79.8187,11.9071],[79.8333,11.902],[79.7982,11.7882],[79.7762,11.7694],[79.794,11.7694],[79.7905,11.7421],[79.6837,11.5262],[79.8405,11.1229],[79.8621,10.2816],[79.7578,10.2712],[79.5304,10.3131],[79.3983,10.3201],[79.3055,10.2651],[79.271,10.2303],[79.2771,10.2105],[79.2308,10.1448],[79.2319,10.0843],[79.2669,10.0338],[79.165,9.934],[79.1247,9.8787],[79.1223,9.849],[78.8119,9.5077],[78.9069,9.4627],[78.9653,9.3763],[79.0751,9.2923],[79.2803,9.2856],[79.0889,9.2567],[78.9918,9.2698],[78.9449,9.2668],[78.9115,9.2451],[78.8657,9.2509],[78.7233,9.1907],[78.6512,9.1917],[78.6459,9.1696],[78.2496,9.0615],[78.2238,8.9626],[78.1703,8.8671],[78.1546,8.7455],[78.1698,8.7555],[78.1322,8.6694],[78.1152,8.5461],[77.9148,8.2856],[77.8041,8.2336],[77.7859,8.2073],[77.6693,8.1546],[77.5938,8.1399],[77.5196,8.0869],[77.239,8.1734],[76.9771,8.3876],[76.5364,8.9338],[76.4617,9.1312],[76.497,9.067],[76.4753,9.1197],[76.4848,9.1159],[76.4921,9.1672],[76.4748,9.1621],[76.4709,9.1412],[76.4405,9.2326],[76.4196,9.2432],[76.4551,9.1423],[76.3343,9.4274],[76.2446,9.9545],[76.2184,9.9982],[76.1029,10.3754],[76.0478,10.4918],[76.0639,10.4735],[76.0463,10.5317],[76.0266,10.5323],[75.9562,10.6859],[75.9562,10.8228],[75.8375,11.084],[75.8326,11.1235],[75.8085,11.1477],[75.7296,11.3316],[75.7333,11.354],[75.6866,11.4353],[75.6174,11.4744],[75.5851,11.5587],[75.597,11.5363],[75.5912,11.562],[75.6041,11.561],[75.5822,11.5708],[75.5294,11.6966],[75.5386,11.7048],[75.4917,11.7339],[75.4716,11.769],[75.451,11.7697],[75.3893,11.8467],[75.3522,11.8601],[75.3004,11.9467],[75.2377,12.0138],[75.2249,12.0211],[75.2004,12.0032],[75.1677,12.067],[75.0648,12.3407],[75.0296,12.3922],[75.0386,12.4111],[75.0229,12.3997],[75.0063,12.4371],[75.0154,12.4444],[74.9979,12.4456],[74.983,12.475],[74.8249,12.8316],[74.776,13.0949],[74.7699,13.0782],[74.6921,13.3488],[74.6657,13.6381],[74.6428,13.6709],[74.6058,13.8523],[74.6169,13.8576],[74.565,13.9466],[74.5278,13.9626],[74.505,14.0011],[74.464,14.1872],[74.4092,14.308],[74.3953,14.4186],[74.3765,14.4165],[74.3538,14.5117],[74.3052,14.5196],[74.2912,14.5931],[74.2635,14.6245],[74.2946,14.6402],[74.2751,14.6467],[74.2756,14.6779],[74.2537,14.7068],[74.2633,14.7094],[74.2647,14.7201],[74.2582,14.7122],[74.2215,14.7472],[74.1993,14.7176],[74.1765,14.7446],[74.1477,14.7464],[74.1341,14.7778],[74.1215,14.7745],[74.1116,14.801],[74.1249,14.8405],[74.1079,14.8451],[74.0912,14.8945],[74.0709,14.9093],[73.9586,15.2089],[73.9095,15.265],[73.8737,15.3601],[73.8357,15.361],[73.781,15.4119],[73.8757,15.3984],[73.8899,15.4192],[73.8764,15.4337],[73.8584,15.4258],[73.845,15.4491],[73.7822,15.4597],[73.8153,15.5064],[73.7574,15.4939],[73.731,15.6146],[73.6841,15.7202],[73.6509,15.7384],[73.655,15.7734],[73.6238,15.8436],[73.5838,15.9077],[73.5296,15.9314],[73.4705,16.113],[73.458,16.1156],[73.4377,16.1936],[73.4522,16.2253],[73.428,16.2044],[73.4118,16.2564],[73.4119,16.2734],[73.4392,16.2897],[73.4061,16.2808],[73.3862,16.363],[73.3699,16.3641],[73.3717,16.3896],[73.3948,16.3901],[73.4084,16.4088],[73.3688,16.3999],[73.3586,16.4351],[73.3812,16.4487],[73.3485,16.4519],[73.3254,16.5086],[73.3198,16.556],[73.3343,16.5599],[73.3585,16.5193],[73.3494,16.5081],[73.3708,16.5129],[73.352,16.5379],[73.356,16.5666],[73.3167,16.5992],[73.3479,16.5967],[73.3593,16.6253],[73.3362,16.6211],[73.3218,16.6378],[73.3276,16.6797],[73.3429,16.6911],[73.3158,16.6968],[73.3005,16.7561],[73.3179,16.8014],[73.2954,16.8117],[73.2847,16.8776],[73.3048,16.8844],[73.2793,16.9006],[73.2826,16.9486],[73.3057,16.9717],[73.2692,16.9864],[73.2792,17.0002],[73.2612,17.0441],[73.2902,17.0061],[73.2813,17.0365],[73.3264,17.0286],[73.2797,17.0446],[73.2914,17.0704],[73.2688,17.1461],[73.2314,17.1954],[73.2439,17.2159],[73.2017,17.3017],[73.2207,17.3081],[73.2569,17.2599],[73.2657,17.2889],[73.297,17.2812],[73.2909,17.2948],[73.238,17.2903],[73.2066,17.3828],[73.1816,17.3889],[73.1769,17.4093],[73.1979,17.4394],[73.1845,17.4957],[73.142,17.5606],[73.1696,17.5888],[73.1475,17.6041],[73.1202,17.6824],[73.135,17.7114],[73.1285,17.7446],[73.056,17.9248],[73.0362,17.9399],[73.0418,17.9741],[73.0061,18.017],[73.0225,18.0197],[73.0444,18.04],[73.0247,18.0295],[73.0296,18.0465],[73.016,18.025],[72.9929,18.0573],[72.999,18.0722],[72.9721,18.1247],[72.9884,18.1524],[72.9804,18.1945],[72.9414,18.2264],[72.9422,18.2792],[72.9667,18.2715],[72.9802,18.24],[73.063,18.2177],[73.0702,18.1968],[73.0672,18.2708],[73.0525,18.2857],[73.0458,18.2672],[73.0234,18.2662],[72.9142,18.349],[72.9106,18.3676],[72.9275,18.3799],[72.8901,18.458],[72.9047,18.5384],[72.9213,18.5286],[72.9616,18.5423],[72.9202,18.5479],[72.884,18.6304],[72.898,18.631],[72.8664,18.644],[72.8563,18.6884],[72.8701,18.8028],[72.9142,18.7924],[72.9356,18.8241],[72.9886,18.7759],[72.999,18.7794],[72.9859,18.8052],[73.0578,18.8027],[72.9898,18.8116],[72.9821,18.8626],[72.9381,18.847],[72.9069,18.8865],[72.9247,18.9098],[72.942,18.8943],[72.9495,18.9458],[72.9772,18.9461],[72.9539,18.9701],[73.0908,18.9988],[73.0667,19.0143],[73.0847,19.0314],[73.0644,19.0292],[73.0904,19.0457],[73.0061,19.005],[72.9844,19.0708],[72.9952,19.0869],[72.9764,19.1069],[72.9764,19.1707],[72.9642,19.1353],[72.9522,19.1374],[72.9569,19.1077],[72.9307,19.0904],[72.9472,19.068],[72.9137,19.0744],[72.9517,19.0432],[72.9034,18.9938],[72.8784,19.0226],[72.8573,19.0094],[72.8371,18.9334],[72.8032,18.898],[72.8212,18.9319],[72.8128,18.9508],[72.792,18.9442],[72.8126,19.0202],[72.8597,19.0602],[72.8179,19.0482],[72.8248,19.087],[72.808,19.1435],[72.7863,19.1386],[72.7814,19.1669],[72.8011,19.1976],[72.7783,19.1922],[72.787,19.3062],[72.8517,19.316],[72.9155,19.2908],[72.8583,19.3403],[72.8067,19.3298],[72.7751,19.3545],[72.7583,19.3757],[72.7663,19.3956],[72.7441,19.4603],[72.7564,19.4738],[72.7426,19.5035],[72.7426,19.9443],[72.76,19.9233],[72.7426,19.9511],[72.7426,20.1596],[72.7504,20.1984],[72.7794,20.207],[72.7517,20.2047],[72.778,20.3365],[72.8183,20.3657],[72.8232,20.4369],[72.8869,20.5046],[72.8793,20.5306],[72.8946,20.5296],[72.8736,20.6444],[72.9035,20.5969],[72.8864,20.6374],[72.9015,20.6429],[72.8967,20.7022],[72.9087,20.7111],[72.8907,20.7199],[72.9241,20.7558],[72.9519,20.755],[72.9501,20.7674],[72.9276,20.7763],[72.9197,20.7682],[72.9199,20.7893],[72.91,20.7807],[72.8745,20.8015],[72.896,20.8134],[72.8756,20.8245],[72.8948,20.8665],[72.8268,20.8292],[72.8547,20.86],[72.8245,20.8829],[72.8351,20.9065],[72.8491,20.9044],[72.8239,20.9212],[72.8822,20.9546],[72.8765,20.9718],[72.8913,20.9864],[72.8308,20.9734],[72.8387,20.9855],[72.8052,20.9872],[72.827,21.014],[72.7661,21.0042],[72.7425,20.9769],[72.767,20.9279],[72.7473,20.9498],[72.7229,21.0266],[72.7218,21.0569],[72.7417,21.0289],[72.7856,21.0461],[72.8068,21.0247],[72.857,21.0392],[72.8419,21.0537],[72.8549,21.0677],[72.8326,21.0544],[72.8227,21.0878],[72.8419,21.1137],[72.8215,21.0977],[72.8145,21.1053],[72.8304,21.1146],[72.8143,21.1191],[72.8114,21.1483],[72.8316,21.1672],[72.8059,21.1497],[72.8016,21.1242],[72.7904,21.1447],[72.7878,21.11],[72.7636,21.1227],[72.7569,21.1046],[72.7443,21.1262],[72.719,21.1034],[72.7302,21.0781],[72.7016,21.0949],[72.7059,21.1358],[72.7275,21.1475],[72.6707,21.1568],[72.6369,21.0816],[72.6178,21.1386],[72.6307,21.1283],[72.6467,21.1489],[72.6293,21.1338],[72.6145,21.1954],[72.6555,21.2226],[72.6817,21.2184],[72.6431,21.2498],[72.6304,21.2406],[72.6501,21.2798],[72.621,21.2928],[72.621,21.3125],[72.6554,21.3191],[72.6684,21.342],[72.7365,21.3238],[72.6962,21.355],[72.7016,21.3724],[72.6746,21.3486],[72.6646,21.3689],[72.6528,21.3494],[72.6459,21.3627],[72.6972,21.459],[72.6379,21.4484],[72.6719,21.4929],[72.7409,21.5657],[72.8165,21.6136],[72.8406,21.6659],[72.9193,21.6478],[73.0375,21.7005],[73.0901,21.7051],[73.1077,21.7297],[73.064,21.7327],[72.9364,21.6744],[72.8728,21.6882],[72.7887,21.6599],[72.7389,21.6861],[72.6123,21.6772],[72.5992,21.7954],[72.6312,21.8088],[72.6544,21.8912],[72.675,21.8872],[72.6682,21.9049],[72.6874,21.9044],[72.6878,21.886],[72.7223,21.8841],[72.7187,21.9318],[72.7511,21.9531],[72.7776,21.9495],[72.7647,21.9815],[72.746,21.988],[72.7719,22.0014],[72.7754,22.0168],[72.735,21.9912],[72.7186,22.0205],[72.718,21.9943],[72.7074,21.9796],[72.6933,21.9852],[72.6999,21.9716],[72.6719,21.9749],[72.6605,21.9605],[72.6465,21.9619],[72.6488,21.9881],[72.6368,22.0028],[72.6401,21.9548],[72.6281,21.9705],[72.6332,21.9546],[72.5304,21.9024],[72.5042,21.9431],[72.5384,22.1322],[72.5709,22.1909],[72.6099,22.2151],[72.6631,22.211],[72.7419,22.1758],[72.7668,22.1936],[72.7581,22.2163],[72.7121,22.2444],[72.6273,22.255],[72.6127,22.2672],[72.6495,22.2643],[72.6288,22.2759],[72.5679,22.2652],[72.6254,22.2802],[72.5931,22.2817],[72.479,22.2205],[72.4931,22.2641],[72.4597,22.2136],[72.4151,22.2149],[72.4247,22.2006],[72.4084,22.1524],[72.381,22.1539],[72.3885,22.1924],[72.3709,22.1814],[72.3689,22.1449],[72.367,22.1858],[72.3907,22.2002],[72.3697,22.1934],[72.3821,22.2262],[72.3704,22.2843],[72.4013,22.3249],[72.3892,22.3311],[72.3581,22.313],[72.342,22.2572],[72.3322,22.2999],[72.3459,22.2239],[72.3116,22.1866],[72.2953,22.2249],[72.3209,22.1379],[72.2782,22.0847],[72.2947,22.0824],[72.2507,22.0166],[72.1781,22.0269],[72.1781,21.8532],[72.2329,21.7747],[72.238,21.7346],[72.2807,21.6872],[72.3028,21.6256],[72.2626,21.5469],[72.0912,21.3755],[72.0044,21.1584],[71.1793,20.811],[70.8753,20.7676],[70.441,20.8978],[69.9633,21.3321],[69.4422,21.8967],[69.0948,22.2441],[69.8765,22.3744],[70.0806,22.5493],[70.1779,22.5604],[70.2419,22.683],[70.2655,22.6892],[70.2377,22.6953],[70.2559,22.7099],[70.2514,22.7324],[70.2887,22.7381],[70.3559,22.8761],[70.4429,22.9596],[70.4865,23.0526],[70.4856,23.0888],[70.4091,23.0363],[70.4029,23.0606],[70.3715,23.0588],[70.3616,23.0466],[70.3717,23.0225],[70.0502,22.9823],[69.9379,22.8758],[69.8084,22.8463],[69.7652,22.809],[69.397,22.8086],[69.3616,22.8195],[69.3614,22.8319],[69.2851,22.8239],[69.0079,22.9823],[68.4314,23.5559],[68.4555,23.571],[68.4391,23.5684],[68.4662,23.5997],[68.4708,23.6367],[68.5457,23.7129],[68.6186,23.7489],[68.6581,23.7992],[68.6794,23.7916],[68.7146,23.8241],[68.766,23.8422],[68.7823,23.8606],[68.7697,23.876],[68.7628,23.8511],[68.726,23.8369],[68.6554,23.8397],[68.5235,23.7464],[68.5192,23.7731],[68.4902,23.7327],[68.4329,23.7338],[68.3696,23.6022],[68.2789,23.6702],[68.3208,23.7322],[68.291,23.7243],[68.2619,23.6829],[68.1903,23.7367],[68.2112,23.7699],[68.2074,23.8372],[68.2221,23.8313],[68.2408,23.8494],[68.2556,23.835],[68.2675,23.8377],[68.2573,23.8761],[68.2747,23.9179],[68.3201,23.9174],[68.2862,23.9383],[68.2377,23.9002],[68.1856,23.8863],[68.1889,23.8501],[68.1361,23.8696],[68.1421,23.8397],[68.1035,23.8555],[68.1044,23.8432],[68.076,23.8332],[68.053,23.8538],[68.0456,23.911],[68.0298,23.9032],[68.0357,23.8476],[67.8861,23.9473],[67.9027,23.9647],[67.8939,23.9751],[67.8729,23.9561],[67.8354,23.9811],[67.7485,23.8943],[67.4842,23.953],[67.5044,23.966],[67.4927,23.9733],[67.4563,23.9592],[67.4244,23.9663],[67.4365,23.9907],[67.4083,24.0],[67.4218,24.0024],[67.4092,24.0392],[67.438,24.0636],[67.4184,24.0883],[67.4489,24.1168],[67.4088,24.084],[67.3921,24.0478],[67.3626,24.1324],[67.4118,24.1233],[67.4245,24.1302],[67.3828,24.1326],[67.3453,24.1558],[67.3347,24.1763],[67.3545,24.1828],[67.3344,24.2088],[67.342,24.2352],[67.3625,24.2386],[67.4125,24.2296],[67.4168,24.2109],[67.4281,24.2126],[67.4317,24.2472],[67.4212,24.2167],[67.4143,24.234],[67.3501,24.2542],[67.3613,24.2757],[67.3814,24.2732],[67.3934,24.2874],[67.3585,24.2837],[67.3259,24.2449],[67.2954,24.301],[67.3299,24.3339],[67.3596,24.2907],[67.3386,24.3323],[67.3466,24.3428],[67.4109,24.3113],[67.4421,24.3161],[67.449,24.3322],[67.4906,24.3218],[67.5146,24.3424],[67.5291,24.3345],[67.5124,24.3526],[67.4873,24.3263],[67.4566,24.3422],[67.4343,24.3227],[67.3665,24.351],[67.369,24.3857],[67.4177,24.3865],[67.4229,24.3603],[67.4278,24.3918],[67.4158,24.4014],[67.3605,24.3877],[67.3491,24.4005],[67.4169,24.4368],[67.4646,24.4235],[67.4727,24.4269],[67.3902,24.4501],[67.3753,24.4341],[67.3834,24.4544],[67.3604,24.4608],[67.4009,24.4844],[67.4218,24.4644],[67.4504,24.4602],[67.455,24.4655],[67.436,24.4797],[67.4213,24.4707],[67.4039,24.5064],[67.412,24.5215],[67.3919,24.5161],[67.4022,24.493],[67.3743,24.4721],[67.3424,24.4591],[67.3099,24.4622],[67.3258,24.4653],[67.3282,24.4852],[67.3523,24.4797],[67.3702,24.5304],[67.3975,24.5246],[67.3987,24.5468],[67.3684,24.536],[67.3552,24.546],[67.3807,24.571],[67.4136,24.5857],[67.4396,24.5746],[67.4071,24.5894],[67.3234,24.5491],[67.304,24.5532],[67.3152,24.5589],[67.299,24.5815],[67.3203,24.5757],[67.3231,24.5906],[67.371,24.6081],[67.3838,24.6377],[67.4069,24.6358],[67.4143,24.6494],[67.4405,24.6404],[67.4532,24.6537],[67.4416,24.6479],[67.4203,24.6727],[67.4325,24.6982],[67.3932,24.7046],[67.3515,24.7423],[67.3493,24.7629],[67.4528,24.7761],[67.4681,24.7538],[67.4637,24.7775],[67.3755,24.7834],[67.3296,24.7712],[67.2456,24.7849],[67.2199,24.8141],[67.174,24.781],[67.1547,24.7937],[67.1224,24.7788],[67.1049,24.7976],[67.1023,24.7781],[67.0908,24.7921],[67.0931,24.7569],[67.0217,24.8083],[66.9758,24.8108],[66.9736,24.8306],[66.9627,24.825],[66.9825,24.8579],[66.9119,24.8495],[66.9578,24.8259],[66.9792,24.7917],[66.7063,24.9365],[66.7041,25.0826],[66.7386,25.1422],[66.742,25.1833],[66.6569,25.2904],[66.8604,26.3246],[67.1722,27.4136],[68.1453,28.6803],[68.1442,30.032],[68.5609,30.7067],[69.1816,31.3637],[69.6593,31.798],[70.441,32.1888],[70.745,32.6231]]],[[[72.8793,20.6887],[72.89,20.6884],[72.8883,20.6806],[72.8793,20.6887]]],[[[72.8737,20.6908],[72.8584,20.7102],[72.8779,20.6457],[72.8474,20.7183],[72.8454,20.7442],[72.855,20.7205],[72.877,20.7253],[72.8737,20.6908]]],[[[72.8652,20.7515],[72.8613,20.7556],[72.8767,20.754],[72.8652,20.7515]]],[[[72.8696,20.7604],[72.8726,20.768],[72.8728,20.7588],[72.8696,20.7604]]],[[[72.9297,20.7693],[72.9412,20.7674],[72.9309,20.7624],[72.9297,20.7693]]],[[[72.8404,20.7752],[72.856,20.7635],[72.8547,20.7598],[72.8404,20.7752]]],[[[72.8454,20.7961],[72.8404,20.7849],[72.8444,20.7987],[72.8454,20.7961]]],[[[72.7824,20.9205],[72.8226,20.8256],[72.8415,20.8054],[72.8261,20.8098],[72.7824,20.9205]]],[[[72.807,20.9073],[72.8144,20.9178],[72.8173,20.919],[72.817,20.91],[72.807,20.9073]]],[[[72.7868,20.9919],[72.7723,20.9793],[72.7658,20.9849],[72.7751,20.9933],[72.7868,20.9919]]],[[[72.8357,21.0425],[72.8453,21.0376],[72.835,21.04],[72.8357,21.0425]]],[[[72.6797,21.0622],[72.6836,21.0665],[72.6852,21.0536],[72.6797,21.0622]]],[[[72.6983,21.1384],[72.686,21.1092],[72.6796,21.1095],[72.6814,21.1409],[72.6983,21.1384]]],[[[72.8043,21.6302],[72.6902,21.5999],[72.674,21.5873],[72.6865,21.5808],[72.6432,21.5644],[72.6228,21.5682],[72.6295,21.5877],[72.6123,21.5993],[72.6478,21.6331],[72.7358,21.6496],[72.7402,21.6376],[72.807,21.6431],[72.8043,21.6302]]],[[[72.8759,21.6719],[72.8605,21.6794],[72.8816,21.6769],[72.8759,21.6719]]],[[[88.0893,21.8967],[88.0922,21.8982],[88.0933,21.8967],[88.0893,21.8967]]],[[[88.4888,21.9004],[88.5039,21.9058],[88.4917,21.8976],[88.4888,21.9004]]],[[[88.1279,21.8976],[88.1019,21.8987],[88.0937,21.9267],[88.1172,21.9101],[88.1279,21.8976]]],[[[88.6366,21.9081],[88.6414,21.9224],[88.6735,21.917],[88.6737,21.9121],[88.6366,21.9081]]],[[[88.1026,21.9253],[88.1212,21.9632],[88.1543,21.928],[88.1422,21.8976],[88.1026,21.9253]]],[[[88.7183,22.0018],[88.6871,21.9454],[88.6418,21.9509],[88.647,22.0036],[88.6639,22.0153],[88.6834,22.0024],[88.7183,22.0018]]],[[[88.1304,21.9842],[88.102,21.9713],[88.0954,21.9897],[88.1346,22.0231],[88.1304,21.9842]]],[[[88.6836,22.0086],[88.6743,22.0171],[88.6877,22.0147],[88.6836,22.0086]]],[[[72.7317,22.2225],[72.6615,22.2445],[72.7191,22.2376],[72.7317,22.2225]]],[[[89.2362,23.9352],[89.2241,23.9316],[89.1825,23.9548],[89.2314,23.9586],[89.2524,23.9367],[89.2298,23.9463],[89.2362,23.9352]]],[[[89.1485,23.9986],[89.1773,23.9953],[89.1391,23.9934],[89.1485,23.9986]]],[[[89.8676,22.2385],[89.8594,22.2516],[89.8619,22.258],[89.8699,22.2497],[89.8676,22.2385]]],[[[90.2892,22.3548],[90.2713,22.3515],[90.2864,22.3644],[90.2892,22.3548]]],[[[90.484,22.7216],[90.4723,22.7396],[90.4747,22.7461],[90.4833,22.7413],[90.484,22.7216]]],[[[90.5325,22.6863],[90.4885,22.7697],[90.509,22.7926],[90.5502,22.7612],[90.5325,22.6863]]],[[[90.4527,22.7883],[90.4796,22.7568],[90.4576,22.7485],[90.4346,22.7747],[90.4527,22.7883]]],[[[90.4876,22.8323],[90.4912,22.8191],[90.4579,22.8101],[90.4547,22.8299],[90.4876,22.8323]]],[[[90.4551,23.0016],[90.5413,22.9533],[90.5431,22.8996],[90.515,22.8747],[90.4671,22.8659],[90.4447,22.8264],[90.4491,22.8052],[90.4274,22.8167],[90.4278,22.8417],[90.3951,22.8281],[90.3898,22.839],[90.4218,22.8989],[90.4173,22.9163],[90.3845,22.856],[90.3951,22.7999],[90.4151,22.7819],[90.3844,22.7899],[90.42,22.7752],[90.3923,22.7672],[90.3323,22.8477],[90.3807,22.9076],[90.3533,22.9932],[90.4309,22.9917],[90.4512,22.9721],[90.4551,23.0016]]],[[[90.3227,22.9696],[90.3564,22.9623],[90.368,22.9212],[90.3518,22.9514],[90.3227,22.9696]]],[[[90.2948,22.9664],[90.3136,22.9686],[90.3481,22.9398],[90.301,22.9519],[90.2948,22.9664]]],[[[90.4224,22.9963],[90.4343,23.0095],[90.4418,23.0056],[90.4224,22.9963]]],[[[90.3919,23.0089],[90.4081,23.0135],[90.4172,23.0099],[90.4052,23.0052],[90.3919,23.0089]]],[[[90.5034,23.0104],[90.5003,23.0214],[90.5044,23.0251],[90.5034,23.0104]]],[[[90.5551,23.048],[90.5669,23.0068],[90.5628,22.9968],[90.5353,23.0249],[90.5551,23.048]]],[[[90.48,23.0407],[90.496,23.0157],[90.4929,23.0117],[90.4733,23.0279],[90.48,23.0407]]],[[[90.3079,23.0375],[90.2751,23.039],[90.2918,23.0496],[90.3079,23.0375]]],[[[90.5057,23.0637],[90.5048,23.0334],[90.4968,23.0355],[90.491,23.0532],[90.5057,23.0637]]],[[[90.5192,23.06],[90.5266,23.0634],[90.5237,23.0524],[90.5192,23.06]]],[[[90.5112,23.1357],[90.5241,23.0914],[90.5131,23.0812],[90.5003,23.1001],[90.5112,23.1357]]],[[[90.4684,23.097],[90.4477,23.0556],[90.4435,23.1068],[90.4907,23.1312],[90.4643,23.1914],[90.4687,23.2012],[90.4724,23.1855],[90.5053,23.1688],[90.5079,23.1439],[90.4922,23.0819],[90.4684,23.097]]],[[[90.4691,23.1551],[90.479,23.1329],[90.4571,23.1226],[90.4623,23.1283],[90.4691,23.1551]]],[[[90.5439,23.1493],[90.5221,23.1767],[90.5317,23.2004],[90.5338,23.169],[90.5468,23.1967],[90.5439,23.1493]]],[[[90.4674,23.3095],[90.4857,23.2465],[90.4622,23.2026],[90.4646,23.2254],[90.4534,23.2116],[90.4659,23.1672],[90.4326,23.0911],[90.4459,23.0225],[90.3609,23.0111],[90.3426,22.9819],[90.326,22.9816],[90.3087,23.0538],[90.3259,23.0679],[90.3326,23.1087],[90.3229,23.1024],[90.2729,23.1468],[90.267,23.1328],[90.2905,23.1207],[90.2538,23.1253],[90.2444,23.1379],[90.2657,23.1601],[90.2142,23.1915],[90.1842,23.1708],[90.1781,23.1892],[90.2071,23.2097],[90.2108,23.224],[90.1721,23.262],[90.2124,23.2553],[90.233,23.2607],[90.2526,23.2882],[90.24,23.2931],[90.2866,23.3161],[90.3026,23.3547],[90.3339,23.3674],[90.393,23.3396],[90.4122,23.3025],[90.4674,23.3095]]],[[[90.552,23.2822],[90.5051,23.1817],[90.4788,23.1889],[90.4982,23.2794],[90.4511,23.3395],[90.5188,23.3285],[90.552,23.2822]]],[[[90.2305,23.2897],[90.2286,23.2652],[90.1662,23.2687],[90.1801,23.2409],[90.1276,23.2454],[90.1245,23.2738],[90.0892,23.2811],[90.1807,23.3378],[90.2557,23.3117],[90.2305,23.2897]]],[[[90.4206,23.3182],[90.349,23.3965],[90.4311,23.3598],[90.4532,23.3159],[90.4206,23.3182]]],[[[90.4683,23.3604],[90.4776,23.3424],[90.4464,23.3699],[90.4683,23.3604]]],[[[90.5399,23.3589],[90.5382,23.3497],[90.5293,23.3648],[90.5399,23.3589]]],[[[90.2989,23.3679],[90.3364,23.3819],[90.3463,23.3767],[90.2989,23.3679]]],[[[90.1966,23.3718],[90.1914,23.373],[90.1896,23.386],[90.1966,23.3718]]],[[[90.5464,23.3722],[90.5529,23.3901],[90.5602,23.3673],[90.5464,23.3722]]],[[[90.4238,23.3903],[90.443,23.395],[90.4864,23.3686],[90.4649,23.3665],[90.4238,23.3903]]],[[[90.2708,23.3264],[90.2182,23.3603],[90.2488,23.3252],[90.2056,23.3503],[90.1836,23.4498],[90.2382,23.4169],[90.3299,23.3948],[90.3316,23.3845],[90.286,23.3796],[90.2958,23.3708],[90.2708,23.3264]]],[[[90.4904,23.3804],[90.4739,23.3845],[90.4506,23.3978],[90.4948,23.3982],[90.4904,23.3804]]],[[[90.4177,23.394],[90.3949,23.4],[90.3924,23.4059],[90.4093,23.4048],[90.4177,23.394]]],[[[90.184,23.3987],[90.1817,23.3936],[90.1682,23.4225],[90.184,23.3987]]],[[[90.1768,23.4246],[90.1765,23.4189],[90.1686,23.4386],[90.1768,23.4246]]],[[[90.5431,23.4794],[90.5615,23.4807],[90.5557,23.4454],[90.544,23.4543],[90.5431,23.4794]]],[[[90.2303,23.4706],[90.2377,23.4724],[90.2391,23.4676],[90.2303,23.4706]]],[[[90.199,23.4973],[90.1865,23.4972],[90.1838,23.5031],[90.199,23.4973]]],[[[90.4698,23.5718],[90.4666,23.5501],[90.4394,23.5536],[90.453,23.568],[90.4698,23.5718]]],[[[90.4251,23.6052],[90.4426,23.5675],[90.4335,23.558],[90.4251,23.6052]]],[[[90.4199,23.5975],[90.4285,23.5723],[90.4039,23.6053],[90.4199,23.5975]]],[[[90.4538,23.5754],[90.4564,23.6062],[90.4791,23.5844],[90.5024,23.5851],[90.4538,23.5754]]],[[[90.0876,23.6147],[90.1101,23.6069],[90.1143,23.5944],[90.0967,23.6051],[90.0876,23.6147]]],[[[90.3979,23.6086],[90.3909,23.6159],[90.4177,23.611],[90.3979,23.6086]]],[[[90.4646,23.6349],[90.4381,23.6157],[90.4239,23.6183],[90.4349,23.637],[90.429,23.6419],[90.415,23.624],[90.3878,23.6461],[90.3978,23.6253],[90.3645,23.63],[90.288,23.6726],[90.2617,23.7243],[90.2876,23.7327],[90.3085,23.7608],[90.313,23.7323],[90.3713,23.6956],[90.3979,23.6982],[90.4646,23.6349]]],[[[89.9129,23.7073],[89.932,23.6851],[89.8982,23.705],[89.9129,23.7073]]],[[[89.8656,23.7068],[89.8689,23.7138],[89.8759,23.7073],[89.8656,23.7068]]],[[[89.8686,23.7271],[89.8746,23.7189],[89.8652,23.7226],[89.8686,23.7271]]],[[[90.3547,23.715],[90.3412,23.7247],[90.3291,23.7271],[90.3466,23.7315],[90.3547,23.715]]],[[[89.8515,23.7281],[89.8568,23.7306],[89.8623,23.7229],[89.8515,23.7281]]],[[[89.7966,23.7381],[89.786,23.7414],[89.7868,23.7639],[89.7966,23.7381]]],[[[90.2441,23.7912],[90.2522,23.7467],[90.2259,23.725],[90.2118,23.7551],[90.2441,23.7912]]],[[[89.7791,23.7421],[89.746,23.8048],[89.7758,23.7887],[89.7791,23.7421]]],[[[89.731,23.7948],[89.741,23.7775],[89.6823,23.7919],[89.6855,23.804],[89.731,23.7948]]],[[[89.6412,23.7843],[89.6436,23.8032],[89.6754,23.8006],[89.6752,23.7892],[89.6412,23.7843]]],[[[89.4901,23.8208],[89.5325,23.8154],[89.5155,23.7856],[89.4921,23.8079],[89.4901,23.8208]]],[[[89.5669,23.8019],[89.5575,23.8056],[89.595,23.8151],[89.62,23.8056],[89.5465,23.7973],[89.5669,23.8019]]],[[[90.232,23.8149],[90.2054,23.8221],[90.1823,23.8071],[90.1342,23.812],[90.0872,23.8364],[90.1157,23.8541],[90.1171,23.8704],[90.1436,23.827],[90.176,23.8211],[90.2026,23.8355],[90.232,23.8149]]],[[[89.3342,23.8807],[89.3147,23.8929],[89.3479,23.8867],[89.3342,23.8807]]],[[[89.6885,23.9281],[89.7101,23.9194],[89.7311,23.8789],[89.7008,23.8954],[89.6885,23.9281]]],[[[89.3791,23.9063],[89.398,23.9267],[89.4109,23.9196],[89.3791,23.9063]]],[[[89.3149,23.8989],[89.2906,23.9388],[89.3638,23.9429],[89.3787,23.9275],[89.3556,23.8929],[89.3149,23.8989]]],[[[89.6726,23.9407],[89.6795,23.9164],[89.6775,23.9107],[89.6611,23.9383],[89.6726,23.9407]]],[[[90.9897,22.3367],[90.951,22.3284],[90.9681,22.3788],[90.9811,22.3663],[90.9897,22.3367]]],[[[90.6295,22.4056],[90.6509,22.3808],[90.6486,22.3674],[90.6295,22.4056]]],[[[90.6487,22.4076],[90.6505,22.4138],[90.6512,22.3998],[90.6487,22.4076]]],[[[90.5994,22.4435],[90.6059,22.463],[90.6258,22.4422],[90.6322,22.3575],[90.5994,22.4435]]],[[[90.6445,22.415],[90.6433,22.4292],[90.6472,22.4162],[90.6445,22.415]]],[[[91.0254,22.4465],[91.0381,22.4262],[91.0338,22.4077],[91.0155,22.4168],[91.0254,22.4465]]],[[[91.1721,22.426],[91.1715,22.4341],[91.1815,22.4307],[91.1721,22.426]]],[[[91.0269,22.4766],[91.0457,22.5097],[91.1111,22.5023],[91.1365,22.4474],[91.134,22.407],[91.0504,22.3652],[91.0519,22.4201],[91.0269,22.4766]]],[[[90.9735,22.463],[90.9897,22.476],[91.0007,22.4545],[90.9955,22.4486],[90.9735,22.463]]],[[[91.022,22.4838],[91.0099,22.4991],[91.0285,22.5053],[91.0316,22.4949],[91.022,22.4838]]],[[[91.1388,22.5159],[91.1942,22.4985],[91.192,22.4721],[91.1542,22.4888],[91.1388,22.5159]]],[[[90.6194,22.538],[90.6566,22.4803],[90.6556,22.4599],[90.6239,22.5069],[90.6194,22.538]]],[[[91.1976,22.5092],[91.2093,22.5065],[91.2106,22.4958],[91.2079,22.4964],[91.1976,22.5092]]],[[[90.6512,22.5029],[90.6461,22.5016],[90.6452,22.5117],[90.6512,22.5029]]],[[[90.8695,22.503],[90.8889,22.445],[90.8611,22.3209],[90.6697,22.3049],[90.6689,22.4825],[90.6066,22.6012],[90.5888,22.6067],[90.6186,22.5467],[90.5729,22.5947],[90.5746,22.6194],[90.5634,22.6408],[90.5889,22.6338],[90.5796,22.6542],[90.5401,22.6309],[90.5569,22.6934],[90.6594,22.7846],[90.726,22.7769],[90.778,22.6269],[90.8695,22.503]]],[[[91.0189,22.5533],[91.0278,22.5595],[91.0326,22.5576],[91.0189,22.5533]]],[[[91.3018,22.5518],[91.2704,22.5356],[91.2417,22.5466],[91.2151,22.6068],[91.2173,22.6408],[91.2663,22.6246],[91.3018,22.5518]]],[[[91.0912,22.595],[91.1259,22.648],[91.141,22.6642],[91.1723,22.6084],[91.1656,22.5866],[91.1132,22.5611],[91.0912,22.595]]],[[[90.5577,22.6218],[90.5686,22.6208],[90.5632,22.6057],[90.5577,22.6218]]],[[[91.0879,22.5894],[91.0853,22.553],[91.0658,22.569],[91.0582,22.6391],[91.0449,22.6359],[91.0663,22.7043],[91.1122,22.7],[91.1284,22.6708],[91.0879,22.5894]]],[[[91.2851,22.6791],[91.2933,22.6646],[91.2806,22.6642],[91.2851,22.6791]]],[[[90.7937,22.659],[90.7931,22.6879],[90.8039,22.6905],[90.8206,22.6552],[90.7937,22.659]]],[[[90.9711,22.7579],[90.9863,22.7638],[91.0202,22.7154],[91.0079,22.7052],[90.9757,22.7222],[90.9658,22.7155],[91.0357,22.6706],[91.0292,22.6419],[91.06,22.5964],[91.0553,22.5807],[91.0512,22.5934],[91.0248,22.5766],[91.0438,22.5696],[90.9869,22.5398],[90.9385,22.5619],[90.9256,22.5787],[90.9401,22.5911],[90.9144,22.5899],[90.8618,22.6339],[90.8337,22.7293],[90.7969,22.7739],[90.9095,22.8108],[90.9778,22.7739],[90.9711,22.7579]]],[[[91.0466,22.6858],[91.0344,22.6788],[91.0146,22.698],[91.0372,22.709],[91.0466,22.6858]]],[[[91.2753,22.6703],[91.2165,22.7007],[91.2357,22.7099],[91.2122,22.7042],[91.1311,22.7361],[91.1898,22.7493],[91.268,22.7307],[91.2995,22.7044],[91.2753,22.6703]]],[[[90.8021,22.7146],[90.7921,22.7154],[90.7923,22.7182],[90.8021,22.7146]]],[[[90.5657,22.7763],[90.6003,22.7771],[90.571,22.7444],[90.5657,22.7763]]],[[[90.5986,22.7863],[90.6042,22.8025],[90.6604,22.8159],[90.6273,22.786],[90.5986,22.7863]]],[[[90.6686,22.8296],[90.7021,22.8276],[90.7026,22.8205],[90.6815,22.8128],[90.6686,22.8296]]],[[[90.6322,22.838],[90.639,22.8478],[90.6454,22.8492],[90.6453,22.8443],[90.6322,22.838]]],[[[90.6912,22.8563],[90.6745,22.8379],[90.6692,22.8416],[90.6912,22.8563]]],[[[90.6714,22.8821],[90.6623,22.8542],[90.6521,22.8487],[90.6554,22.8821],[90.6714,22.8821]]],[[[90.5568,22.7903],[90.4846,22.8396],[90.4608,22.8402],[90.4824,22.867],[90.5329,22.8745],[90.5502,22.8971],[90.5535,22.9442],[90.6506,22.8863],[90.6175,22.8316],[90.5568,22.7903]]],[[[90.6342,22.959],[90.6388,22.9635],[90.6432,22.9568],[90.6342,22.959]]],[[[90.6928,22.964],[90.6683,22.9639],[90.6485,22.9847],[90.6803,22.9808],[90.6928,22.964]]],[[[90.5756,23.2083],[90.5761,23.1787],[90.5569,23.1601],[90.5541,23.1765],[90.5756,23.2083]]],[[[90.5574,23.1984],[90.5661,23.2048],[90.5566,23.1903],[90.5574,23.1984]]],[[[90.5899,23.2108],[90.5855,23.2229],[90.5954,23.2312],[90.5899,23.2108]]],[[[90.6131,23.2232],[90.6161,23.2364],[90.6141,23.2223],[90.6131,23.2232]]],[[[90.5631,23.2392],[90.5731,23.2392],[90.5578,23.2282],[90.5631,23.2392]]],[[[90.5816,23.2599],[90.5803,23.239],[90.5713,23.2467],[90.5816,23.2599]]],[[[90.6207,23.2617],[90.6333,23.2495],[90.6232,23.2389],[90.6207,23.2617]]],[[[90.5699,23.308],[90.5656,23.3198],[90.5748,23.3061],[90.5699,23.308]]],[[[90.5583,23.3138],[90.5526,23.3295],[90.5608,23.3132],[90.5583,23.3138]]],[[[90.5857,23.3557],[90.591,23.3393],[90.5829,23.3499],[90.5857,23.3557]]],[[[90.6734,23.3486],[90.6783,23.3582],[90.6816,23.3461],[90.6734,23.3486]]],[[[90.5845,23.3687],[90.5719,23.3743],[90.5652,23.3945],[90.5851,23.43],[90.5714,23.3878],[90.5845,23.3687]]],[[[90.573,23.4345],[90.5723,23.4496],[90.5742,23.4501],[90.573,23.4345]]],[[[90.6132,23.4946],[90.6263,23.4961],[90.6184,23.4883],[90.6132,23.4946]]],[[[90.6637,23.5167],[90.6879,23.4906],[90.6436,23.5019],[90.6637,23.5167]]],[[[90.702,23.5148],[90.7068,23.5051],[90.6983,23.492],[90.6946,23.4979],[90.702,23.5148]]],[[[90.5726,23.5117],[90.5573,23.5384],[90.5753,23.5125],[90.5726,23.5117]]],[[[90.6906,23.5452],[90.7032,23.5522],[90.7019,23.5256],[90.6906,23.5452]]],[[[90.6669,23.5693],[90.6946,23.5158],[90.6576,23.5209],[90.5851,23.4883],[90.58,23.5629],[90.5632,23.583],[90.6371,23.6107],[90.6737,23.5817],[90.684,23.562],[90.6669,23.5693]]],[[[90.5594,23.5478],[90.5566,23.5649],[90.5668,23.5437],[90.5594,23.5478]]],[[[90.6949,23.5552],[90.6936,23.5641],[90.6992,23.5613],[90.6949,23.5552]]],[[[90.6905,23.5679],[90.6789,23.5747],[90.6804,23.5794],[90.6905,23.5679]]],[[[90.6769,23.6476],[90.7599,23.6419],[90.7598,23.6309],[90.7358,23.6271],[90.7284,23.5956],[90.6991,23.573],[90.6684,23.59],[90.6585,23.6553],[90.6769,23.6476]]],[[[90.6122,23.6053],[90.6261,23.6259],[90.6274,23.6239],[90.6122,23.6053]]],[[[90.6317,23.6169],[90.6428,23.6569],[90.6634,23.6642],[90.6503,23.6478],[90.6474,23.6139],[90.6317,23.6169]]],[[[90.6841,23.6613],[90.6694,23.6628],[90.6724,23.669],[90.6841,23.6613]]],[[[90.7287,23.6768],[90.7168,23.6597],[90.6913,23.6714],[90.6989,23.6808],[90.7287,23.6768]]],[[[90.6641,23.6736],[90.6529,23.6724],[90.6474,23.6798],[90.6641,23.6736]]],[[[90.6946,23.6848],[90.7146,23.7266],[90.7319,23.6849],[90.6946,23.6848]]],[[[93.5372,19.4683],[93.5311,19.4769],[93.5522,19.4705],[93.5372,19.4683]]],[[[93.5116,19.4978],[93.5338,19.4866],[93.5197,19.4767],[93.5116,19.4978]]],[[[93.5768,19.4794],[93.5243,19.5071],[93.5182,19.5238],[93.5768,19.4794]]],[[[93.5319,19.5332],[93.531,19.5284],[93.525,19.5391],[93.5319,19.5332]]],[[[93.4902,19.5639],[93.4999,19.5532],[93.5014,19.5448],[93.4938,19.5531],[93.4902,19.5639]]],[[[93.5469,19.649],[93.5394,19.6491],[93.5373,19.6578],[93.5469,19.649]]],[[[93.5,19.7047],[93.5017,19.6741],[93.457,19.6908],[93.4078,19.7406],[93.4406,19.7464],[93.5,19.7047]]],[[[93.5042,19.7178],[93.4829,19.7251],[93.4726,19.7381],[93.4967,19.7301],[93.5042,19.7178]]],[[[93.4054,19.7978],[93.3998,19.7956],[93.4035,19.8074],[93.4054,19.7978]]],[[[93.471,19.9033],[93.4978,19.8995],[93.5115,19.8611],[93.5051,19.8348],[93.4822,19.8391],[93.4692,19.8297],[93.499,19.8213],[93.5212,19.7592],[93.5112,19.7345],[93.4446,19.7876],[93.3958,19.9583],[93.4274,19.9541],[93.471,19.9033]]],[[[93.5264,19.9144],[93.5298,19.8836],[93.5187,19.8667],[93.5011,19.9039],[93.5264,19.9144]]],[[[93.5031,19.9166],[93.4897,19.9217],[93.5078,19.9272],[93.5031,19.9166]]],[[[93.2272,19.8161],[93.1633,19.9447],[93.1267,20.0519],[93.1576,20.0248],[93.1809,19.9394],[93.2507,19.8162],[93.2272,19.8161]]],[[[93.4942,19.9558],[93.4944,19.9309],[93.4678,19.9349],[93.4942,19.9558]]],[[[93.4612,19.9413],[93.4711,19.9623],[93.4875,19.9522],[93.4779,19.9436],[93.4612,19.9413]]],[[[93.0093,19.9024],[92.9159,20.0553],[92.926,20.0833],[92.9602,20.0616],[93.02,19.9194],[93.0358,19.8746],[93.0291,19.8189],[93.0093,19.9024]]],[[[93.0564,20.1217],[93.0872,20.0864],[93.074,20.0766],[93.1218,20.0396],[93.1382,20.0047],[93.103,19.9467],[93.1733,19.7869],[93.0568,19.9513],[93.0421,20.0089],[92.9792,20.0713],[92.9746,20.1264],[92.9967,20.1116],[93.0564,20.1217]]],[[[93.4609,19.9581],[93.4445,19.9836],[93.4499,19.9931],[93.4636,19.9765],[93.4609,19.9581]]],[[[93.4864,19.9612],[93.4747,19.9808],[93.4747,19.9909],[93.497,19.9809],[93.4864,19.9612]]],[[[93.1373,20.0718],[93.1742,20.0586],[93.1781,20.046],[93.1655,20.0426],[93.1373,20.0718]]],[[[93.3333,20.0521],[93.3349,20.0721],[93.3391,20.0728],[93.3333,20.0521]]],[[[93.1188,20.0584],[93.1284,20.062],[93.1217,20.0559],[93.1188,20.0584]]],[[[93.0991,20.0887],[93.1195,20.0869],[93.0909,20.0952],[93.0736,20.1239],[93.0954,20.1426],[93.1267,20.079],[93.1119,20.0615],[93.0991,20.0887]]],[[[93.2903,20.1555],[93.3034,20.1704],[93.3109,20.1152],[93.3309,20.0821],[93.3039,20.0484],[93.2862,20.0946],[93.2934,20.1158],[93.2903,20.1555]]],[[[93.3118,20.1313],[93.3256,20.1211],[93.328,20.1069],[93.3118,20.1313]]],[[[93.2035,20.0935],[93.1892,20.0627],[93.1329,20.0846],[93.0981,20.1542],[93.123,20.1798],[93.1761,20.1878],[93.1898,20.168],[93.2242,20.1518],[93.2312,20.113],[93.2035,20.0935]]],[[[93.0895,20.1485],[93.0718,20.1291],[93.0643,20.1276],[93.0841,20.1652],[93.0895,20.1485]]],[[[93.2782,20.0899],[93.2911,20.0604],[93.275,20.0333],[93.2057,20.0497],[93.2079,20.0922],[93.2467,20.116],[93.2317,20.1537],[93.1829,20.1916],[93.2167,20.2346],[93.2528,20.2428],[93.2513,20.2636],[93.2766,20.2438],[93.3004,20.1904],[93.2837,20.1579],[93.251,20.146],[93.2806,20.1526],[93.2782,20.0899]]],[[[93.0985,20.1618],[93.095,20.1789],[93.113,20.179],[93.1024,20.1719],[93.0985,20.1618]]],[[[93.3364,20.2789],[93.3906,20.2092],[93.4112,20.1214],[93.4012,20.1103],[93.3839,20.1859],[93.3959,20.1024],[93.3666,20.084],[93.3799,20.0275],[93.3672,20.0156],[93.3556,20.0728],[93.3143,20.1414],[93.3067,20.2079],[93.2713,20.2575],[93.2776,20.2882],[93.2677,20.2972],[93.2839,20.3204],[93.3206,20.3269],[93.3364,20.2789]]],[[[92.978,20.1795],[92.965,20.1694],[92.9516,20.1975],[92.9752,20.2112],[92.978,20.1795]]],[[[92.9273,20.2467],[92.9465,20.2489],[92.9509,20.2204],[92.9286,20.1897],[92.9164,20.2045],[92.9273,20.2467]]],[[[92.9608,20.2151],[92.9763,20.2319],[92.9804,20.2315],[92.9744,20.2179],[92.9608,20.2151]]],[[[92.7405,20.2161],[92.7322,20.232],[92.7337,20.2383],[92.7405,20.2161]]],[[[93.2135,20.2929],[93.143,20.2188],[93.1272,20.2428],[93.1284,20.2167],[93.0613,20.1595],[93.0187,20.1333],[92.9977,20.1385],[93.0012,20.2153],[93.0221,20.2687],[93.0399,20.2773],[93.04,20.3263],[93.0911,20.3689],[93.12,20.3744],[93.1322,20.3447],[93.1199,20.3296],[93.1403,20.3166],[93.1334,20.3059],[93.1755,20.3243],[93.2129,20.3129],[93.2135,20.2929]]],[[[93.2548,20.3126],[93.2708,20.3147],[93.2636,20.2969],[93.2728,20.2683],[93.2666,20.2652],[93.2347,20.2758],[93.2548,20.3126]]],[[[93.2914,20.353],[93.2847,20.3436],[93.2902,20.3544],[93.2914,20.353]]],[[[92.7522,20.3624],[92.7468,20.3513],[92.7418,20.3584],[92.7522,20.3624]]],[[[92.8122,20.4063],[92.8664,20.3114],[92.8411,20.2875],[92.7948,20.2773],[92.8025,20.3036],[92.8357,20.3129],[92.8128,20.3389],[92.8143,20.3141],[92.8056,20.3113],[92.7807,20.2786],[92.7647,20.3199],[92.7623,20.4322],[92.8064,20.4314],[92.8214,20.4216],[92.8122,20.4063]]],[[[92.8461,20.3965],[92.8766,20.4023],[92.8916,20.3885],[92.8718,20.3864],[92.8461,20.3965]]],[[[92.8255,20.3996],[92.8278,20.4109],[92.8326,20.402],[92.8255,20.3996]]],[[[93.0778,20.3641],[93.0397,20.3561],[93.0348,20.411],[93.0899,20.5061],[93.1102,20.4209],[93.0785,20.4073],[93.0778,20.3641]]],[[[92.7784,20.4415],[92.7636,20.4417],[92.7559,20.4701],[92.7683,20.4705],[92.7972,20.4995],[92.8048,20.4859],[92.7784,20.4415]]],[[[92.7219,20.5749],[92.7008,20.5817],[92.6991,20.6049],[92.7084,20.5986],[92.7219,20.5749]]],[[[92.324,20.6323],[92.3262,20.5853],[92.3212,20.6346],[92.324,20.6323]]],[[[92.5844,20.7087],[92.6378,20.7237],[92.6335,20.6965],[92.6086,20.6838],[92.5844,20.7087]]],[[[92.3511,20.7187],[92.3599,20.7178],[92.3431,20.7244],[92.3511,20.7187]]],[[[92.5864,20.7294],[92.5754,20.7211],[92.5491,20.7402],[92.5512,20.757],[92.5627,20.7432],[92.5806,20.749],[92.5749,20.7317],[92.5864,20.7294]]],[[[92.3194,20.9071],[92.3036,20.9269],[92.3159,20.9543],[92.3067,20.9822],[92.3326,20.9939],[92.3552,20.9436],[92.3194,20.9071]]],[[[92.3007,20.9774],[92.3098,20.9528],[92.2969,20.9277],[92.2822,20.9527],[92.3007,20.9774]]],[[[92.2638,21.0272],[92.2566,21.0234],[92.2613,21.0311],[92.2638,21.0272]]],[[[92.211,21.1081],[92.2168,21.1148],[92.2195,21.103],[92.211,21.1081]]],[[[92.2076,21.1318],[92.2179,21.1304],[92.2178,21.1235],[92.2076,21.1318]]],[[[92.0082,21.6005],[92.0041,21.6176],[92.0071,21.6241],[92.0135,21.6135],[92.0082,21.6005]]],[[[91.891,21.6853],[91.9399,21.735],[91.9876,21.6301],[91.9741,21.509],[91.9479,21.4896],[91.9187,21.506],[91.891,21.6853]]],[[[92.0321,21.6658],[92.0347,21.6491],[92.0072,21.6281],[92.0021,21.6463],[92.0321,21.6658]]],[[[91.9121,21.7467],[91.8882,21.6909],[91.8719,21.7235],[91.8859,21.7611],[91.9121,21.7467]]],[[[91.9416,21.7483],[91.9239,21.7286],[91.9145,21.7585],[91.9315,21.7571],[91.9416,21.7483]]],[[[91.9417,21.7736],[91.9399,21.7579],[91.8934,21.7677],[91.9173,21.7749],[91.9417,21.7736]]],[[[91.8821,21.8237],[91.8757,21.8544],[91.8714,21.8878],[91.8567,21.8746],[91.8745,21.8059],[91.8551,21.7571],[91.8417,21.7839],[91.8409,21.8963],[91.868,21.9222],[91.894,21.8587],[91.8821,21.8237]]],[[[91.8173,22.2085],[91.8198,22.223],[91.8227,22.2236],[91.8173,22.2085]]],[[[91.8201,22.2775],[91.7995,22.2839],[91.806,22.2983],[91.8201,22.2775]]],[[[91.3538,22.6574],[91.4162,22.6484],[91.4162,22.5481],[91.3851,22.5325],[91.389,22.577],[91.3538,22.6574]]],[[[91.342,22.7563],[91.3556,22.7385],[91.3411,22.7184],[91.3098,22.7485],[91.342,22.7563]]],[[[94.2738,15.8646],[94.2838,15.8652],[94.2777,15.8603],[94.2738,15.8646]]],[[[94.4557,15.9113],[94.464,15.9157],[94.4628,15.9129],[94.4557,15.9113]]],[[[94.5213,15.9207],[94.5197,15.9423],[94.5225,15.9426],[94.5213,15.9207]]],[[[94.6647,15.9598],[94.6672,15.9685],[94.6686,15.9667],[94.6647,15.9598]]],[[[94.3263,15.9799],[94.2799,15.9896],[94.3488,16.0111],[94.3263,15.9799]]],[[[94.7214,16.0352],[94.6923,16.0023],[94.7171,16.0504],[94.7214,16.0352]]],[[[94.5799,16.0431],[94.5922,16.0997],[94.5718,16.0745],[94.573,16.0451],[94.5966,16.0307],[94.5938,16.0155],[94.5131,15.9889],[94.4469,15.9199],[94.3974,15.8322],[94.4109,15.8631],[94.3929,15.9017],[94.3863,16.0],[94.4535,16.0189],[94.5847,16.1991],[94.6492,16.2476],[94.6728,16.2033],[94.6476,16.1113],[94.5953,16.038],[94.5799,16.0431]]],[[[94.6513,16.0928],[94.6214,16.0421],[94.6173,16.0416],[94.6513,16.0928]]],[[[94.6674,16.1206],[94.665,16.1337],[94.6683,16.1346],[94.6674,16.1206]]],[[[94.5203,16.1307],[94.5276,16.1457],[94.5448,16.1502],[94.5345,16.1377],[94.5203,16.1307]]],[[[94.5233,16.2828],[94.5602,16.2407],[94.5404,16.2011],[94.5185,16.2316],[94.5233,16.2828]]],[[[94.6579,16.2763],[94.6604,16.2697],[94.6576,16.2671],[94.6579,16.2763]]],[[[94.6135,16.2865],[94.6165,16.3223],[94.6499,16.3302],[94.6864,16.3779],[94.6279,16.2577],[94.5788,16.2248],[94.5746,16.2472],[94.6135,16.2865]]],[[[94.6779,16.2989],[94.6843,16.31],[94.6827,16.2978],[94.6779,16.2989]]],[[[94.695,16.3713],[94.7034,16.387],[94.6979,16.3684],[94.695,16.3713]]],[[[94.227,16.3781],[94.234,16.3846],[94.2308,16.3756],[94.227,16.3781]]],[[[94.253,16.5291],[94.2422,16.5182],[94.2493,16.5399],[94.253,16.5291]]],[[[94.5929,17.5688],[94.5905,17.5607],[94.588,17.5735],[94.5929,17.5688]]],[[[94.0882,18.0462],[94.0826,18.0583],[94.0996,18.0615],[94.0994,18.0544],[94.0882,18.0462]]],[[[94.4471,18.1291],[94.4448,18.1371],[94.452,18.1374],[94.4471,18.1291]]],[[[94.3727,18.3476],[94.3823,18.3461],[94.371,18.3442],[94.3727,18.3476]]],[[[94.2436,18.5307],[94.242,18.5408],[94.2478,18.5369],[94.2436,18.5307]]],[[[93.9942,18.7482],[94.0091,18.7307],[93.9837,18.7412],[93.9942,18.7482]]],[[[93.9494,18.8263],[93.9726,18.8367],[93.975,18.8024],[93.9923,18.7854],[93.9608,18.78],[93.9424,18.7993],[93.9494,18.8263]]],[[[94.1191,18.8079],[94.0733,18.8313],[94.0678,18.8476],[94.1155,18.8697],[94.1131,18.8492],[94.1376,18.8564],[94.1191,18.8079]]],[[[94.0394,19.0214],[94.0409,19.0389],[94.0542,19.0382],[94.0545,19.0336],[94.0394,19.0214]]],[[[94.0199,19.0422],[94.0346,19.0609],[94.0409,19.0594],[94.0346,19.0444],[94.0199,19.0422]]],[[[94.0031,19.0962],[94.0101,19.1091],[94.0167,19.1014],[94.0031,19.0962]]],[[[93.8263,19.2521],[93.8354,19.2629],[93.8359,19.2586],[93.8263,19.2521]]],[[[93.7518,19.2755],[93.7538,19.2865],[93.7604,19.2793],[93.7518,19.2755]]],[[[93.8451,19.2768],[93.8392,19.2841],[93.8367,19.2933],[93.8451,19.2768]]],[[[93.8623,19.2975],[93.8639,19.2796],[93.8486,19.2721],[93.8502,19.296],[93.8623,19.2975]]],[[[93.7766,19.2976],[93.8275,19.295],[93.8326,19.2758],[93.7868,19.2761],[93.7766,19.2976]]],[[[94.0466,19.337],[94.0419,19.3426],[94.0545,19.3488],[94.0466,19.337]]],[[[93.6534,19.3393],[93.6445,19.3665],[93.6746,19.377],[93.6879,19.3625],[93.6534,19.3393]]],[[[93.6891,19.3979],[93.6776,19.3885],[93.6631,19.4074],[93.6891,19.3979]]],[[[93.6363,19.4039],[93.6319,19.4231],[93.6274,19.4313],[93.6406,19.4241],[93.6363,19.4039]]],[[[93.6616,19.429],[93.6551,19.4218],[93.6531,19.4273],[93.6616,19.429]]],[[[93.6173,19.439],[93.5999,19.442],[93.614,19.4516],[93.6173,19.439]]],[[[93.5967,19.4615],[93.5902,19.4722],[93.5827,19.4751],[93.5946,19.4729],[93.5967,19.4615]]],[[[93.6058,19.4669],[93.6031,19.4878],[93.6175,19.4951],[93.6441,19.4497],[93.6058,19.4669]]],[[[93.8359,19.4826],[93.7709,19.5239],[93.7689,19.5315],[93.8592,19.5001],[93.8359,19.4826]]],[[[93.6362,19.5433],[93.6397,19.5666],[93.6662,19.5656],[93.6621,19.5474],[93.6362,19.5433]]],[[[93.5892,19.559],[93.6007,19.5511],[93.5878,19.5576],[93.5892,19.559]]],[[[93.6597,19.5781],[93.6728,19.5734],[93.6734,19.5696],[93.6681,19.5679],[93.6597,19.5781]]],[[[93.7034,19.6042],[93.7184,19.5938],[93.7067,19.5966],[93.7034,19.6042]]],[[[93.6013,19.6074],[93.6156,19.6299],[93.6354,19.6136],[93.6013,19.6074]]],[[[93.6614,19.6301],[93.6539,19.6291],[93.6549,19.6392],[93.6614,19.6301]]],[[[93.6921,19.6539],[93.6973,19.6616],[93.7,19.6579],[93.6921,19.6539]]],[[[93.5654,19.664],[93.5801,19.6701],[93.5906,19.6634],[93.5746,19.648],[93.5654,19.664]]],[[[93.8094,19.7149],[93.8138,19.7246],[93.8111,19.7096],[93.8094,19.7149]]],[[[93.5445,19.6975],[93.5539,19.687],[93.5246,19.6804],[93.5162,19.7214],[93.5825,19.7697],[93.5762,19.7142],[93.5445,19.6975]]],[[[93.6946,19.7183],[93.6318,19.7184],[93.6308,19.7333],[93.6489,19.7721],[93.6629,19.7797],[93.6663,19.76],[93.6911,19.7895],[93.7046,19.7612],[93.6946,19.7183]]],[[[93.5806,19.7961],[93.5772,19.782],[93.5489,19.7621],[93.5456,19.7889],[93.5806,19.7961]]],[[[93.6735,19.8221],[93.6742,19.7998],[93.6318,19.7618],[93.5996,19.7099],[93.5916,19.7776],[93.6301,19.8135],[93.6423,19.8601],[93.7012,19.8521],[93.6735,19.8221]]],[[[93.6995,19.7988],[93.7213,19.8073],[93.7435,19.8326],[93.7368,19.7887],[93.7179,19.7834],[93.6995,19.7988]]],[[[93.7925,19.8314],[93.7726,19.7636],[93.717,19.7625],[93.7037,19.7795],[93.7469,19.7906],[93.7545,19.8254],[93.7409,19.8452],[93.7634,19.8635],[93.7925,19.8314]]],[[[93.583,19.8359],[93.5964,19.8282],[93.5822,19.8034],[93.5446,19.8059],[93.583,19.8359]]],[[[93.6753,19.7916],[93.6872,19.8262],[93.734,19.8509],[93.7326,19.8242],[93.6753,19.7916]]],[[[93.5996,19.843],[93.5459,19.8272],[93.5471,19.8669],[93.5941,19.8746],[93.6184,19.9037],[93.6589,19.9056],[93.5996,19.843]]],[[[93.7357,19.8838],[93.6902,19.8775],[93.6633,19.8581],[93.6521,19.8729],[93.6831,19.8949],[93.719,19.882],[93.7357,19.8838]]],[[[93.7206,19.8914],[93.7226,19.8864],[93.7106,19.8934],[93.7206,19.8914]]],[[[93.5936,19.9044],[93.6032,19.8948],[93.5699,19.8837],[93.5936,19.9044]]],[[[93.7112,19.9182],[93.7142,19.9279],[93.7264,19.9232],[93.7112,19.9182]]],[[[97.7274,15.0641],[97.739,15.0756],[97.7359,15.0584],[97.7274,15.0641]]],[[[97.7416,15.0953],[97.7418,15.0802],[97.7381,15.0962],[97.7416,15.0953]]],[[[97.7301,15.2004],[97.7408,15.2026],[97.7376,15.1921],[97.7301,15.2004]]],[[[95.1104,15.6706],[95.1155,15.6605],[95.1074,15.6644],[95.1104,15.6706]]],[[[95.0718,15.6742],[95.0564,15.6728],[95.0717,15.6793],[95.0718,15.6742]]],[[[95.189,15.6793],[95.2064,15.6698],[95.1831,15.6708],[95.189,15.6793]]],[[[95.2757,15.6791],[95.2641,15.6731],[95.2634,15.6823],[95.2757,15.6791]]],[[[95.0611,15.738],[95.0606,15.7203],[95.0196,15.7162],[95.0263,15.7323],[95.0611,15.738]]],[[[95.0663,15.8118],[95.0534,15.8195],[95.0646,15.8444],[95.0697,15.8263],[95.0663,15.8118]]],[[[94.7306,15.814],[94.7914,15.9258],[94.8121,15.9418],[94.8402,15.869],[94.8108,15.7875],[94.7375,15.7916],[94.7306,15.814]]],[[[95.0606,15.8772],[95.0666,15.8747],[95.0628,15.8664],[95.0606,15.8772]]],[[[94.8409,15.8952],[94.8346,15.8899],[94.8309,15.9062],[94.8409,15.8952]]],[[[95.3142,15.9296],[95.3209,15.9478],[95.3327,15.9568],[95.3321,15.9424],[95.3142,15.9296]]],[[[95.2678,15.9852],[95.2643,15.9466],[95.241,15.9118],[95.2678,15.9852]]],[[[95.3384,15.9631],[95.3465,15.9631],[95.3396,15.9546],[95.3384,15.9631]]],[[[95.1236,15.988],[95.104,15.939],[95.1207,15.9944],[95.1236,15.988]]],[[[95.3489,16.0],[95.2606,15.8575],[95.2349,15.8718],[95.273,15.9563],[95.2842,16.0323],[95.3264,16.0786],[95.3489,16.0]]],[[[94.8607,16.0474],[94.8491,16.0],[94.8099,15.9774],[94.8423,16.0604],[94.8607,16.0474]]],[[[95.0807,16.0085],[95.078,16.0303],[95.0836,16.0383],[95.0807,16.0085]]],[[[95.1377,16.0363],[95.1026,15.9778],[95.0962,16.0279],[95.1202,16.0802],[95.1719,16.1117],[95.2087,16.1057],[95.1806,16.075],[95.1854,16.028],[95.1377,16.0363]]],[[[95.1454,16.1152],[95.1418,16.1198],[95.1617,16.1199],[95.1454,16.1152]]],[[[95.1272,16.1448],[95.1336,16.1565],[95.1277,16.1379],[95.1272,16.1448]]],[[[95.3666,16.2017],[95.3641,16.1565],[95.3263,16.1146],[95.3112,16.1458],[95.3183,16.1719],[95.3666,16.2017]]],[[[95.8876,16.2228],[95.8727,16.2216],[95.8943,16.2393],[95.8876,16.2228]]],[[[95.9009,16.2616],[95.9078,16.2866],[95.9016,16.2554],[95.9009,16.2616]]],[[[97.5912,16.331],[97.6161,16.2774],[97.5936,16.2399],[97.5769,16.2936],[97.5912,16.331]]],[[[95.9161,16.2831],[95.913,16.3313],[95.9399,16.3786],[95.9563,16.3263],[95.9441,16.2474],[95.9064,16.2095],[95.871,16.2021],[95.8981,16.2329],[95.9161,16.2831]]],[[[96.0412,16.2625],[95.927,16.2097],[95.9557,16.2478],[95.9886,16.3774],[96.0188,16.3769],[96.0736,16.3414],[96.0819,16.3101],[96.0412,16.2625]]],[[[95.9655,16.3391],[95.9615,16.2951],[95.9577,16.3487],[95.9655,16.3391]]],[[[96.0648,16.3563],[96.0779,16.3521],[96.0805,16.3436],[96.0648,16.3563]]],[[[97.6162,16.4666],[97.5794,16.3995],[97.5904,16.3597],[97.5642,16.2884],[97.5706,16.2383],[97.5368,16.2262],[97.5009,16.2468],[97.4565,16.3187],[97.482,16.3525],[97.4418,16.4469],[97.472,16.4712],[97.4465,16.4702],[97.5023,16.5124],[97.5793,16.4835],[97.6081,16.4883],[97.6162,16.4666]]],[[[95.9334,16.3835],[95.9291,16.3683],[95.9277,16.3687],[95.9334,16.3835]]],[[[95.9544,16.4042],[95.9924,16.3898],[95.9658,16.3464],[95.9522,16.3705],[95.9544,16.4042]]],[[[95.9515,16.3792],[95.9437,16.3836],[95.9477,16.39],[95.9515,16.3792]]],[[[95.9967,16.3988],[96.0071,16.3859],[95.9936,16.3955],[95.9967,16.3988]]],[[[95.9387,16.3893],[95.9399,16.3965],[95.9418,16.3884],[95.9387,16.3893]]],[[[97.6046,16.3789],[97.601,16.3972],[97.6051,16.4101],[97.6131,16.3953],[97.6046,16.3789]]],[[[96.3028,16.4527],[96.2944,16.4457],[96.3266,16.4653],[96.3322,16.4318],[96.281,16.3911],[96.155,16.322],[96.1241,16.314],[96.0992,16.3264],[96.0897,16.3464],[96.1023,16.3716],[96.1432,16.3846],[96.1689,16.4176],[96.1488,16.4548],[96.1804,16.4603],[96.1831,16.4835],[96.1985,16.4841],[96.1788,16.5142],[96.1801,16.5847],[96.2356,16.5983],[96.3028,16.4527]]],[[[96.3192,16.4688],[96.309,16.4677],[96.3076,16.4757],[96.3192,16.4688]]],[[[97.5818,16.4865],[97.5718,16.4957],[97.5905,16.4882],[97.5818,16.4865]]],[[[97.5339,16.514],[97.5449,16.512],[97.5553,16.5053],[97.5467,16.5019],[97.5339,16.514]]],[[[97.6083,16.5084],[97.5876,16.5066],[97.5555,16.5248],[97.5816,16.5225],[97.6083,16.5084]]],[[[97.6492,16.5078],[97.651,16.5202],[97.6558,16.5234],[97.6492,16.5078]]],[[[97.5211,16.5336],[97.5148,16.5236],[97.4991,16.5271],[97.5085,16.5321],[97.5211,16.5336]]],[[[97.6435,16.5772],[97.6647,16.5554],[97.6564,16.5387],[97.6276,16.5296],[97.6435,16.5772]]],[[[97.7111,16.5602],[97.7152,16.5643],[97.7161,16.5622],[97.7111,16.5602]]],[[[97.6508,16.5698],[97.6515,16.5872],[97.6534,16.5681],[97.6508,16.5698]]],[[[97.6261,16.6184],[97.6445,16.6024],[97.6325,16.5706],[97.6122,16.58],[97.6261,16.6184]]],[[[96.3016,16.8461],[96.3085,16.8575],[96.3078,16.8424],[96.3016,16.8461]]],[[[97.1988,16.8715],[97.1843,16.8505],[97.189,16.8778],[97.1988,16.8715]]]]}}