{"type":"Feature","properties":{"speciesId":391,"category":"NT","source":"IUCN Red List","simplifyTol":0.01,"clippedToSubcontinent":true},"geometry":{"type":"Polygon","coordinates":[[[88.1866,26.8351],[88.2529,27.121],[88.3086,27.2604],[88.5039,27.5951],[88.6398,27.6718],[88.7932,27.6683],[89.7763,27.5254],[91.7705,27.2883],[92.3596,27.1733],[92.4572,27.0617],[92.4503,27.0059],[92.4224,26.9885],[92.1365,26.9571],[91.5857,26.9745],[90.1424,27.1698],[89.6613,27.2569],[89.4068,27.2744],[89.1139,27.2116],[88.9187,27.1454],[88.4446,26.8839],[88.3261,26.8002],[88.1866,26.8351]]]}}