{"type":"Feature","properties":{"speciesId":392,"category":"DD","source":"IUCN Red List","simplifyTol":0.01,"clippedToSubcontinent":true},"geometry":{"type":"MultiPolygon","coordinates":[[[[84.8154,19.1448],[84.6929,18.9579],[84.6006,18.8682],[84.5635,18.7904],[84.5035,18.7385],[84.3696,18.5684],[83.3421,18.3349],[81.5342,17.8327],[80.7881,17.4166],[80.1711,16.857],[79.6546,16.2544],[79.5398,15.8383],[79.6259,15.3791],[79.5972,14.9056],[79.468,14.016],[79.0519,12.9542],[78.5641,12.122],[78.0906,11.4333],[77.9328,11.0602],[77.9902,10.7876],[79.0376,10.2137],[79.2466,10.1835],[79.2299,10.0933],[79.2669,10.0338],[79.155,9.9211],[79.1178,9.8639],[79.1204,9.8444],[79.0095,9.7177],[78.9601,9.6257],[77.8036,9.7545],[77.2727,9.9124],[77.0001,10.0415],[76.8279,10.1706],[76.7705,10.6011],[76.6558,11.1033],[76.4405,11.9212],[76.3831,12.4233],[75.3787,14.8769],[74.2309,16.6131],[73.3843,18.4353],[73.3126,18.9806],[73.5995,19.4971],[74.1161,19.9276],[75.0631,20.8459],[75.5796,21.2763],[75.9957,21.5633],[76.4549,21.6781],[76.9714,21.6781],[80.2142,21.3194],[84.1169,20.645],[85.1357,20.0137],[85.2629,19.5225],[85.1224,19.4198],[85.0869,19.3687],[84.9185,19.2563],[84.8154,19.1448]]],[[[80.2386,9.8235],[80.3134,9.724],[80.0598,9.5935],[80.0876,9.6249],[80.0176,9.6509],[79.971,9.7077],[79.948,9.6871],[79.9099,9.7587],[79.9528,9.7921],[80.0224,9.8126],[80.1056,9.8059],[80.2147,9.8314],[80.2386,9.8235]]],[[[79.8964,9.7559],[79.8922,9.7076],[79.8562,9.7099],[79.8644,9.7594],[79.8964,9.7559]]],[[[79.8128,9.6842],[79.8091,9.6937],[79.815,9.7137],[79.8122,9.6974],[79.8128,9.6842]]],[[[79.8512,9.6993],[79.8868,9.6968],[79.9108,9.6559],[79.9084,9.6712],[79.9334,9.6776],[79.9271,9.6624],[79.9831,9.6203],[79.9701,9.6115],[79.9249,9.6329],[79.9068,9.6135],[79.8743,9.6348],[79.8766,9.6666],[79.8611,9.6581],[79.8512,9.6993]]],[[[79.7956,9.6829],[79.7918,9.6851],[79.7943,9.687],[79.7956,9.6829]]],[[[79.7759,9.6457],[79.7643,9.6596],[79.7832,9.6837],[79.7849,9.6647],[79.7759,9.6457]]],[[[80.0129,9.6428],[80.0071,9.6431],[80.0065,9.645],[80.0129,9.6428]]],[[[80.0064,9.6328],[79.9936,9.6407],[79.9973,9.6451],[80.0,9.6437],[80.0064,9.6328]]],[[[79.8648,9.6259],[79.8559,9.6243],[79.8543,9.6348],[79.8648,9.6259]]],[[[80.0,9.6016],[79.9864,9.5962],[79.9663,9.6074],[79.9863,9.6088],[79.9993,9.6302],[80.0,9.6016]]],[[[79.8325,9.5865],[79.8639,9.6054],[79.8582,9.568],[79.8082,9.5772],[79.8102,9.6223],[79.8325,9.5865]]],[[[79.7733,9.5849],[79.7619,9.5986],[79.7722,9.6206],[79.7757,9.6141],[79.7733,9.5849]]],[[[79.8466,9.6175],[79.8431,9.6077],[79.8414,9.613],[79.8466,9.6175]]],[[[79.8336,9.6055],[79.8273,9.6121],[79.8372,9.6099],[79.8336,9.6055]]],[[[79.7995,9.5898],[79.794,9.5846],[79.7955,9.5892],[79.7995,9.5898]]],[[[79.685,9.5355],[79.6529,9.5392],[79.653,9.5535],[79.6746,9.5498],[79.685,9.5355]]]]}}