{"type":"Feature","properties":{"speciesId":396,"category":"LC","source":"IUCN Red List","simplifyTol":0.01,"clippedToSubcontinent":true},"geometry":{"type":"MultiPolygon","coordinates":[[[[79.8229,7.9447],[79.8199,7.9542],[79.822,7.9553],[79.8229,7.9447]]],[[[79.8083,8.166],[79.8027,8.1732],[79.8053,8.174],[79.8083,8.166]]],[[[79.7844,8.2605],[79.7777,8.261],[79.7791,8.2723],[79.7844,8.2605]]],[[[79.8009,8.2925],[79.7926,8.2999],[79.7966,8.3042],[79.8009,8.2925]]],[[[79.8078,8.3169],[79.8009,8.3335],[79.8028,8.3366],[79.8047,8.3357],[79.8078,8.3169]]],[[[79.7812,8.3497],[79.7511,8.2617],[79.7655,8.2739],[79.7573,8.2571],[79.7766,8.2541],[79.7688,8.2156],[79.7404,8.2008],[79.7492,8.1829],[79.7316,8.0868],[79.7541,8.0582],[79.7381,8.0128],[79.7618,7.9858],[79.8163,7.9776],[79.8176,7.9333],[79.7469,7.9453],[79.7064,8.0445],[79.6984,8.2138],[79.7179,8.2167],[79.7381,8.28],[79.7812,8.3497]]],[[[79.7939,8.368],[79.7868,8.3829],[79.7887,8.3867],[79.7958,8.3849],[79.7939,8.368]]],[[[79.7896,8.408],[79.7756,8.4782],[79.7801,8.526],[79.7777,8.4911],[79.7896,8.408]]],[[[81.2153,8.5394],[81.2059,8.54],[81.2108,8.5453],[81.2153,8.5394]]],[[[79.9145,8.9439],[79.9039,8.9383],[79.9131,8.9481],[79.9145,8.9439]]],[[[79.923,8.8973],[79.888,8.9431],[79.8849,8.9512],[79.9086,8.9236],[79.923,8.8973]]],[[[79.9038,8.945],[79.8909,8.9525],[79.9027,8.9553],[79.9038,8.945]]],[[[79.6883,9.071],[79.689,9.075],[79.6993,9.0734],[79.6883,9.071]]],[[[78.5892,9.0978],[78.5753,9.0966],[78.5884,9.1038],[78.5892,9.0978]]],[[[79.6983,9.1014],[79.8586,9.0731],[79.9283,9.0085],[79.8576,9.0564],[79.9232,8.9722],[79.889,8.9579],[79.8163,9.0326],[79.7004,9.0805],[79.6983,9.1014]]],[[[78.8327,9.1623],[78.824,9.1593],[78.8333,9.1667],[78.8327,9.1623]]],[[[78.9463,9.1779],[78.9362,9.1745],[78.9002,9.172],[78.9116,9.1797],[78.9463,9.1779]]],[[[79.0642,9.1945],[79.0938,9.1926],[79.0888,9.1881],[79.0642,9.1945]]],[[[79.1895,9.2363],[79.2036,9.2358],[79.1847,9.2426],[79.1895,9.2363]]],[[[79.2282,9.2423],[79.2162,9.2428],[79.2097,9.2387],[79.2167,9.2457],[79.2282,9.2423]]],[[[80.0034,9.2659],[79.9981,9.2817],[80.0026,9.2875],[80.0067,9.2814],[80.0034,9.2659]]],[[[79.9918,9.2845],[79.971,9.2862],[79.9843,9.3061],[79.9872,9.3044],[79.9918,9.2845]]],[[[80.0916,9.3117],[80.0807,9.3119],[80.0761,9.3176],[80.0916,9.3117]]],[[[80.0607,9.3299],[80.0543,9.3392],[80.0579,9.3456],[80.0607,9.3299]]],[[[80.0129,9.4664],[80.0054,9.4812],[80.0059,9.4858],[80.0189,9.477],[80.0129,9.4664]]],[[[79.6916,9.5207],[79.7251,9.5226],[79.7271,9.4799],[79.6604,9.5007],[79.653,9.5535],[79.6746,9.5498],[79.6916,9.5207]]],[[[79.7995,9.5898],[79.794,9.5846],[79.7955,9.5892],[79.7995,9.5898]]],[[[79.8336,9.6055],[79.8273,9.6121],[79.8372,9.6099],[79.8336,9.6055]]],[[[79.8466,9.6175],[79.8431,9.6077],[79.8414,9.613],[79.8466,9.6175]]],[[[79.7733,9.5849],[79.7619,9.5986],[79.7722,9.6206],[79.7757,9.6141],[79.7733,9.5849]]],[[[79.8325,9.5865],[79.8639,9.6054],[79.8582,9.568],[79.8082,9.5772],[79.8102,9.6223],[79.8325,9.5865]]],[[[80.0,9.6016],[79.9864,9.5962],[79.9663,9.6074],[79.9863,9.6088],[79.9993,9.6302],[80.0,9.6016]]],[[[79.8648,9.6259],[79.8559,9.6243],[79.8543,9.6348],[79.8648,9.6259]]],[[[80.0064,9.6328],[79.9936,9.6407],[79.9973,9.6451],[80.0,9.6437],[80.0064,9.6328]]],[[[80.0129,9.6428],[80.0071,9.6431],[80.0065,9.645],[80.0129,9.6428]]],[[[79.7759,9.6457],[79.7643,9.6596],[79.7832,9.6837],[79.7849,9.6647],[79.7759,9.6457]]],[[[79.7956,9.6829],[79.7918,9.6851],[79.7943,9.687],[79.7956,9.6829]]],[[[79.8512,9.6993],[79.8868,9.6968],[79.9108,9.6559],[79.9084,9.6712],[79.9334,9.6776],[79.9271,9.6624],[79.9831,9.6203],[79.9701,9.6115],[79.9249,9.6329],[79.9068,9.6135],[79.8743,9.6348],[79.8766,9.6666],[79.8611,9.6581],[79.8512,9.6993]]],[[[79.8128,9.6842],[79.8091,9.6937],[79.815,9.7137],[79.8122,9.6974],[79.8128,9.6842]]],[[[79.8964,9.7559],[79.8922,9.7076],[79.8562,9.7099],[79.8644,9.7594],[79.8964,9.7559]]],[[[80.2386,9.8235],[80.3657,9.6603],[80.8117,9.2909],[80.8841,9.1219],[81.0005,8.9388],[80.993,8.918],[81.0102,8.929],[81.013,8.8911],[81.021,8.9048],[81.0589,8.8595],[81.0875,8.8584],[81.1048,8.8126],[81.2267,8.6475],[81.2208,8.6062],[81.2298,8.581],[81.2451,8.5793],[81.2471,8.5458],[81.2257,8.5323],[81.2261,8.5695],[81.1927,8.5665],[81.2119,8.5077],[81.1896,8.5018],[81.1977,8.4615],[81.2624,8.4569],[81.304,8.4326],[81.304,8.4583],[81.2958,8.4465],[81.2809,8.4568],[81.2831,8.5032],[81.3222,8.5224],[81.353,8.4909],[81.3937,8.3567],[81.4078,8.2419],[81.4831,8.0242],[81.1284,7.8166],[80.6956,7.7548],[79.8249,7.9318],[79.8324,8.0151],[79.7896,8.0682],[79.8086,8.0611],[79.7948,8.0793],[79.8338,8.1396],[79.8154,8.2037],[79.7946,8.2203],[79.8095,8.2174],[79.7897,8.2301],[79.8101,8.2374],[79.8342,8.2919],[79.8476,8.2742],[79.8584,8.2846],[79.8362,8.3011],[79.8445,8.4289],[79.8632,8.4496],[79.8709,8.5352],[79.9263,8.559],[79.9193,8.5846],[79.9414,8.6155],[79.9558,8.7174],[79.9248,8.7907],[79.9401,8.8068],[79.9184,8.8083],[79.9307,8.8147],[79.919,8.8188],[79.9358,8.8913],[79.9122,8.9299],[80.0403,9.0133],[80.0661,9.0562],[80.0857,9.0999],[80.0761,9.1203],[80.1173,9.2072],[80.1116,9.2768],[80.1278,9.2906],[80.0676,9.3287],[80.0549,9.3914],[80.1466,9.4347],[80.1861,9.4827],[80.1461,9.5361],[80.054,9.5979],[80.0876,9.6249],[80.0176,9.6509],[79.971,9.7077],[79.948,9.6871],[79.9099,9.7587],[79.9528,9.7921],[80.0224,9.8126],[80.1056,9.8059],[80.2147,9.8314],[80.2386,9.8235]]],[[[82.3479,16.6034],[82.3413,16.607],[82.3489,16.6109],[82.3479,16.6034]]],[[[83.4669,17.9095],[83.4535,17.9115],[83.4631,17.9187],[83.4669,17.9095]]],[[[86.7002,20.2874],[86.6889,20.2951],[86.7088,20.2939],[86.7002,20.2874]]],[[[86.7981,20.3886],[86.7909,20.4204],[86.8043,20.4822],[86.8161,20.4409],[86.7981,20.3886]]],[[[77.2442,14.8049],[77.4703,14.9031],[78.8269,15.9106],[79.0105,16.2574],[79.7835,16.7058],[81.1284,17.3241],[82.4116,18.0507],[85.0397,19.8904],[85.8899,20.5397],[86.5083,20.9107],[86.7866,20.9571],[86.9271,20.9169],[86.9701,20.8491],[86.9758,20.768],[87.0013,20.7584],[87.0139,20.7253],[86.996,20.6992],[87.0246,20.6897],[87.052,20.7035],[86.7655,20.5046],[86.7358,20.4491],[86.7409,20.4177],[86.7226,20.3935],[86.7414,20.3757],[86.7284,20.3611],[86.7785,20.3974],[86.7709,20.3651],[86.7859,20.3717],[86.7636,20.3353],[86.8031,20.3666],[86.8079,20.3953],[86.8074,20.3638],[86.7191,20.2992],[86.6865,20.3181],[86.683,20.2911],[86.6943,20.2819],[86.7649,20.3146],[86.5418,20.1847],[86.4254,20.0257],[86.4299,20.0505],[86.4185,20.038],[86.4012,20.0047],[86.4288,19.9947],[86.4181,19.9776],[86.1519,19.8703],[86.0522,19.8561],[86.0654,19.8472],[85.688,19.7458],[85.3729,19.5944],[85.2341,19.5029],[85.1224,19.4198],[85.0869,19.3687],[85.0017,19.3233],[84.8699,19.2139],[84.8096,19.1478],[84.8041,19.1159],[84.6929,18.9579],[84.6006,18.8682],[84.5635,18.7904],[84.4572,18.6851],[84.4484,18.6543],[84.3818,18.5947],[84.3651,18.5534],[84.1666,18.3787],[84.1375,18.3434],[84.1411,18.3142],[83.9623,18.2157],[83.9344,18.2254],[83.9453,18.21],[83.8113,18.1604],[83.6734,18.085],[83.5755,18.0095],[83.5411,17.9497],[83.4723,17.8985],[83.4679,17.9212],[83.4438,17.934],[83.449,17.9081],[83.4672,17.8865],[83.4135,17.8402],[83.4172,17.8083],[83.3542,17.7525],[83.3507,17.7279],[83.2944,17.6912],[83.3009,17.6774],[83.2456,17.6371],[83.2152,17.5903],[83.0229,17.5088],[82.9939,17.4732],[82.8843,17.4241],[82.8832,17.4381],[82.8655,17.4155],[82.6197,17.2943],[82.4936,17.2121],[82.3045,17.0442],[82.2794,17.0015],[82.2777,16.9443],[82.2529,16.9186],[82.2666,16.8866],[82.2571,16.864],[82.2721,16.8873],[82.276,16.8548],[82.2921,16.8749],[82.3044,16.8567],[82.3193,16.8678],[82.3205,16.8373],[82.3419,16.8605],[82.3691,16.8561],[82.3656,16.8116],[82.3749,16.9175],[82.3489,16.9698],[82.3717,16.953],[82.3799,16.9037],[82.3559,16.7128],[82.3226,16.6489],[82.3214,16.6135],[82.3019,16.6042],[82.3175,16.5846],[81.9554,16.3972],[81.842,16.3691],[81.7322,16.3135],[81.5325,16.359],[81.4535,16.3547],[81.3307,16.3152],[81.2538,16.2596],[81.2018,16.179],[81.1881,16.1455],[81.2125,16.1759],[81.2069,16.1316],[81.1483,16.0],[81.1551,15.9707],[81.0499,15.9049],[80.9927,15.8316],[81.0029,15.7705],[81.0318,15.7592],[80.9388,15.7079],[80.8948,15.7157],[80.8151,15.6995],[80.7824,15.8485],[80.8093,15.7779],[80.8111,15.837],[80.7695,15.8685],[80.6936,15.8811],[80.5329,15.8542],[80.3757,15.774],[80.2936,15.7047],[80.2494,15.6334],[80.1996,15.4623],[80.0957,15.329],[80.0826,15.2577],[80.091,15.2043],[80.0646,15.1906],[80.0736,15.1742],[80.0452,15.0673],[80.0872,14.8059],[80.1961,14.5712],[80.1695,14.3491],[80.1263,14.2069],[80.1383,14.0834],[80.2558,13.78],[80.2339,13.7186],[80.2329,13.6455],[80.3233,13.4439],[80.3464,13.304],[80.2956,13.1211],[80.3049,13.0927],[80.2609,13.0127],[80.2741,13.0056],[80.2429,12.8158],[80.2476,12.7533],[80.1758,12.5813],[80.1868,12.5753],[80.1569,12.4775],[80.1353,12.4587],[80.1454,12.4454],[80.0463,12.3104],[80.067,12.3502],[80.0576,12.351],[79.8819,12.0511],[79.8342,11.9097],[79.8187,11.9071],[79.8333,11.902],[79.7982,11.7882],[79.7762,11.7694],[79.794,11.7694],[79.7932,11.7502],[79.7589,11.6076],[79.7601,11.5391],[79.7719,11.4914],[79.8186,11.4263],[79.8483,11.2505],[79.8252,11.2306],[79.8497,11.2282],[79.8597,11.1777],[79.8497,10.8824],[79.8726,10.2847],[79.7578,10.2712],[79.5304,10.3131],[79.3983,10.3201],[79.3055,10.2651],[79.271,10.2303],[79.2771,10.2105],[79.2308,10.1448],[79.2319,10.0843],[79.2669,10.0338],[79.155,9.9211],[79.1178,9.8639],[79.1204,9.8444],[79.0095,9.7177],[78.9314,9.5843],[78.9046,9.4673],[78.9908,9.3522],[79.0751,9.2923],[79.1615,9.283],[79.2686,9.29],[79.2922,9.3161],[79.3255,9.3206],[79.3367,9.3084],[79.3223,9.2665],[79.4423,9.1539],[79.3151,9.2377],[79.2237,9.2513],[79.2086,9.2757],[79.0889,9.2567],[78.9626,9.2688],[78.9115,9.2451],[78.8733,9.2526],[78.8104,9.2313],[78.7299,9.2009],[78.7216,9.183],[78.6512,9.1917],[78.6449,9.1654],[78.6591,9.1502],[78.5784,9.1263],[78.492,9.1252],[78.4912,9.1361],[78.3671,9.0798],[78.2767,8.9996],[78.2658,9.0126],[78.2681,8.9925],[78.2176,8.9572],[78.174,8.8792],[78.1539,8.7474],[78.1786,8.7594],[78.1952,8.7499],[78.2012,8.7785],[78.2055,8.7605],[78.1959,8.7407],[78.1629,8.7296],[78.1322,8.6694],[78.133,8.4883],[78.0647,8.4057],[78.0697,8.3666],[77.8041,8.2336],[77.7838,8.1982],[77.7383,8.1691],[77.5938,8.1399],[77.5609,8.1154],[77.5526,8.069],[77.3183,8.1173],[77.0133,8.3543],[76.6238,8.839],[76.4133,9.6563],[76.3051,10.8157],[76.4007,11.2867],[76.2903,11.4754],[76.2818,13.2412],[76.4621,14.3343],[76.7648,14.614],[77.0318,14.7531],[77.2442,14.8049]]]]}}