{"type":"Feature","properties":{"speciesId":397,"category":"LC","source":"IUCN Red List","simplifyTol":0.01,"clippedToSubcontinent":true},"geometry":{"type":"MultiPolygon","coordinates":[[[[97.1871,16.8463],[97.183,16.8705],[97.1928,16.8778],[97.1989,16.8658],[97.1871,16.8463]]],[[[96.6759,17.3463],[96.6653,17.3236],[96.655,17.3371],[96.6759,17.3463]]],[[[96.778,17.3694],[96.7677,17.3663],[96.7776,17.3754],[96.778,17.3694]]],[[[96.8399,17.4047],[96.7884,17.3795],[96.7385,17.4383],[96.792,17.4828],[96.8078,17.4389],[96.8399,17.4047]]],[[[94.5929,17.5688],[94.5871,17.5687],[94.588,17.5735],[94.5929,17.5688]]],[[[94.4506,18.1328],[94.4417,18.1332],[94.4503,18.1388],[94.4506,18.1328]]],[[[94.3823,18.3461],[94.371,18.3442],[94.3806,18.3498],[94.3823,18.3461]]],[[[94.2478,18.5369],[94.2351,18.5354],[94.2353,18.5403],[94.2478,18.5369]]],[[[94.0065,18.7291],[93.9915,18.7312],[93.9846,18.744],[93.9961,18.7476],[94.0065,18.7291]]],[[[93.9661,18.7794],[93.9393,18.8167],[93.9726,18.8367],[93.975,18.8024],[93.9923,18.7854],[93.9661,18.7794]]],[[[94.1131,18.8492],[94.1386,18.8543],[94.1191,18.8079],[94.0678,18.8476],[94.0864,18.8476],[94.1155,18.8697],[94.1131,18.8492]]],[[[94.0394,19.0214],[94.0409,19.0389],[94.0542,19.0382],[94.0545,19.0336],[94.0394,19.0214]]],[[[94.0403,19.0527],[94.0186,19.0454],[94.0375,19.0623],[94.0403,19.0527]]],[[[94.0167,19.1014],[93.9972,19.103],[94.0165,19.106],[94.0167,19.1014]]],[[[93.8359,19.2586],[93.8194,19.2598],[93.8354,19.2629],[93.8359,19.2586]]],[[[93.7538,19.2865],[93.7518,19.2755],[93.7439,19.2818],[93.7538,19.2865]]],[[[93.8451,19.2768],[93.8351,19.2743],[93.8367,19.2933],[93.8451,19.2768]]],[[[93.8654,19.2833],[93.8532,19.2712],[93.8486,19.2721],[93.8502,19.296],[93.8654,19.2833]]],[[[93.8326,19.2758],[93.7868,19.2761],[93.7766,19.2976],[93.8275,19.295],[93.8326,19.2758]]],[[[94.0555,19.3461],[94.0403,19.3418],[94.0545,19.3488],[94.0555,19.3461]]],[[[93.6879,19.3625],[93.6571,19.3361],[93.6422,19.3591],[93.6746,19.377],[93.6879,19.3625]]],[[[93.6891,19.3979],[93.6737,19.391],[93.6631,19.4074],[93.6891,19.3979]]],[[[93.6616,19.429],[93.6551,19.4218],[93.6531,19.4273],[93.6616,19.429]]],[[[93.6363,19.4039],[93.6319,19.4231],[93.6274,19.4313],[93.6406,19.4241],[93.6363,19.4039]]],[[[93.6173,19.439],[93.5999,19.442],[93.614,19.4516],[93.6173,19.439]]],[[[93.5967,19.4615],[93.5902,19.4722],[93.5827,19.4751],[93.5946,19.4729],[93.5967,19.4615]]],[[[93.5372,19.4683],[93.5311,19.4769],[93.5522,19.4705],[93.5372,19.4683]]],[[[93.6273,19.4906],[93.6412,19.4492],[93.6058,19.4669],[93.6031,19.4878],[93.6273,19.4906]]],[[[93.5197,19.4767],[93.5116,19.4978],[93.5149,19.5022],[93.5338,19.4866],[93.5197,19.4767]]],[[[93.5182,19.5238],[93.5768,19.4794],[93.5489,19.4801],[93.5182,19.5238]]],[[[93.7689,19.5315],[93.8592,19.5001],[93.8301,19.4819],[93.7689,19.5315]]],[[[93.5319,19.5332],[93.5248,19.5359],[93.525,19.5391],[93.5319,19.5332]]],[[[93.6007,19.5511],[93.5878,19.5576],[93.5987,19.5569],[93.6007,19.5511]]],[[[93.4999,19.5532],[93.4938,19.5531],[93.4902,19.5639],[93.4999,19.5532]]],[[[93.6626,19.5572],[93.6503,19.5431],[93.6303,19.546],[93.6397,19.5666],[93.6626,19.5572]]],[[[93.6743,19.5716],[93.659,19.5754],[93.6597,19.5781],[93.6743,19.5716]]],[[[93.7184,19.5938],[93.7067,19.5966],[93.7034,19.6042],[93.7184,19.5938]]],[[[93.6354,19.6136],[93.6225,19.6185],[93.5988,19.612],[93.6156,19.6299],[93.6354,19.6136]]],[[[93.6614,19.6301],[93.6539,19.6291],[93.6549,19.6392],[93.6614,19.6301]]],[[[93.5469,19.649],[93.5394,19.6491],[93.5373,19.6578],[93.5469,19.649]]],[[[93.7,19.6579],[93.6921,19.6539],[93.6886,19.6621],[93.7,19.6579]]],[[[93.5894,19.6599],[93.5746,19.648],[93.5628,19.6584],[93.5801,19.6701],[93.5894,19.6599]]],[[[93.814,19.7108],[93.8094,19.7149],[93.8121,19.7273],[93.814,19.7108]]],[[[93.5022,19.7176],[93.4829,19.7251],[93.4726,19.7381],[93.4967,19.7301],[93.5022,19.7176]]],[[[93.4078,19.7406],[93.4406,19.7464],[93.495,19.7145],[93.5017,19.6741],[93.457,19.6908],[93.4078,19.7406]]],[[[93.5891,19.7461],[93.572,19.7093],[93.5452,19.7002],[93.5539,19.687],[93.5246,19.6804],[93.5162,19.7214],[93.5825,19.7697],[93.5891,19.7461]]],[[[93.704,19.7568],[93.69,19.7132],[93.6318,19.7184],[93.6559,19.7784],[93.6663,19.76],[93.6911,19.7895],[93.704,19.7568]]],[[[93.5518,19.7607],[93.5456,19.7889],[93.5806,19.7961],[93.5772,19.782],[93.5518,19.7607]]],[[[93.4054,19.7978],[93.3997,19.8053],[93.4035,19.8074],[93.4054,19.7978]]],[[[93.7368,19.7887],[93.6991,19.7962],[93.7435,19.8326],[93.7452,19.8097],[93.7368,19.7887]]],[[[93.5822,19.8034],[93.5507,19.8014],[93.5446,19.8059],[93.583,19.8359],[93.5964,19.8282],[93.5822,19.8034]]],[[[93.7265,19.8506],[93.7326,19.8242],[93.6781,19.7891],[93.6827,19.8216],[93.7265,19.8506]]],[[[93.6423,19.8601],[93.7012,19.8521],[93.5996,19.7099],[93.593,19.7818],[93.6301,19.8135],[93.6423,19.8601]]],[[[93.7634,19.8635],[93.7925,19.8314],[93.7771,19.7662],[93.7124,19.7645],[93.7041,19.7837],[93.7335,19.7817],[93.7469,19.7906],[93.7545,19.8254],[93.7409,19.8452],[93.7634,19.8635]]],[[[93.7206,19.8914],[93.7113,19.8909],[93.7106,19.8934],[93.7206,19.8914]]],[[[93.6945,19.8948],[93.719,19.882],[93.7357,19.8838],[93.7369,19.8696],[93.6902,19.8775],[93.6633,19.8581],[93.6547,19.8793],[93.6945,19.8948]]],[[[93.5751,19.8794],[93.5936,19.9044],[93.6058,19.9024],[93.5855,19.8796],[93.5751,19.8794]]],[[[93.6607,19.9012],[93.5996,19.843],[93.5459,19.8272],[93.5471,19.8669],[93.5941,19.8746],[93.6184,19.9037],[93.6607,19.9012]]],[[[93.5187,19.8667],[93.5011,19.9039],[93.5199,19.9157],[93.531,19.9023],[93.5187,19.8667]]],[[[93.7233,19.9209],[93.7142,19.9279],[93.7264,19.9232],[93.7233,19.9209]]],[[[93.5093,19.9231],[93.4897,19.9217],[93.5036,19.9304],[93.5093,19.9231]]],[[[93.4994,19.9347],[93.4678,19.9349],[93.4991,19.9572],[93.4994,19.9347]]],[[[93.3958,19.9583],[93.4274,19.9541],[93.4602,19.9091],[93.4978,19.8995],[93.5081,19.8392],[93.4692,19.8297],[93.499,19.8213],[93.5212,19.7592],[93.5112,19.7345],[93.4446,19.7876],[93.4313,19.8676],[93.3966,19.9247],[93.3958,19.9583]]],[[[93.4629,19.939],[93.4711,19.9623],[93.4875,19.9522],[93.4779,19.9436],[93.4629,19.939]]],[[[93.4864,19.9612],[93.4747,19.9808],[93.4747,19.9909],[93.497,19.9809],[93.4864,19.9612]]],[[[93.4609,19.9581],[93.4445,19.9836],[93.4499,19.9931],[93.4636,19.9765],[93.4609,19.9581]]],[[[93.235,19.8134],[93.1633,19.9447],[93.1267,20.0519],[93.1639,20.0113],[93.1809,19.9394],[93.2492,19.8221],[93.235,19.8134]]],[[[93.1284,20.062],[93.1188,20.0584],[93.1264,20.0691],[93.1284,20.062]]],[[[93.1585,20.0669],[93.1752,20.0428],[93.1373,20.0718],[93.1585,20.0669]]],[[[93.3333,20.0521],[93.3316,20.0642],[93.3391,20.0728],[93.3416,20.066],[93.3333,20.0521]]],[[[93.0291,19.8189],[93.0134,19.8954],[92.9159,20.0553],[92.926,20.0833],[92.9602,20.0616],[93.02,19.9194],[93.0358,19.8746],[93.0291,19.8189]]],[[[92.9967,20.1116],[93.0682,20.116],[93.0872,20.0864],[93.074,20.0766],[93.1218,20.0396],[93.14,19.9983],[93.1133,19.9816],[93.1051,19.9366],[93.175,19.7877],[93.0568,19.9513],[93.0421,20.0089],[92.9792,20.0713],[92.9746,20.1264],[92.9967,20.1116]]],[[[93.328,20.1069],[93.3118,20.1313],[93.3129,20.1366],[93.3256,20.1211],[93.328,20.1069]]],[[[93.1267,20.079],[93.1119,20.0615],[93.0987,20.0779],[93.0949,20.0879],[93.1195,20.0869],[93.0855,20.1002],[93.0736,20.1239],[93.0877,20.1388],[93.1092,20.1359],[93.1267,20.079]]],[[[93.0665,20.1258],[93.0674,20.1456],[93.0863,20.1643],[93.0895,20.1485],[93.0665,20.1258]]],[[[93.2991,20.0481],[93.2862,20.0946],[93.3034,20.1704],[93.3109,20.1152],[93.3309,20.0821],[93.2991,20.0481]]],[[[93.0953,20.1603],[93.095,20.1789],[93.113,20.179],[93.1024,20.1719],[93.0953,20.1603]]],[[[93.2119,20.1599],[93.2312,20.113],[93.2035,20.0935],[93.1892,20.0627],[93.1329,20.0846],[93.1113,20.1403],[93.0981,20.1542],[93.123,20.1798],[93.1717,20.1884],[93.1898,20.168],[93.2119,20.1599]]],[[[92.965,20.1694],[92.9516,20.1975],[92.9752,20.2112],[92.978,20.1795],[92.965,20.1694]]],[[[92.9744,20.2179],[92.9608,20.2151],[92.9804,20.2315],[92.9744,20.2179]]],[[[92.7417,20.2186],[92.7343,20.2213],[92.7337,20.2383],[92.7417,20.2186]]],[[[92.9286,20.1897],[92.9164,20.2045],[92.9252,20.2444],[92.9426,20.2506],[92.9504,20.2119],[92.9286,20.1897]]],[[[93.2528,20.1437],[93.2845,20.1445],[93.2744,20.0854],[93.2911,20.0604],[93.275,20.0333],[93.2057,20.0497],[93.2079,20.0922],[93.2467,20.116],[93.2317,20.1537],[93.1829,20.1916],[93.2081,20.2124],[93.2167,20.2346],[93.2528,20.2428],[93.2513,20.2636],[93.2766,20.2438],[93.3004,20.1904],[93.2837,20.1579],[93.2528,20.1437]]],[[[93.2728,20.2683],[93.2347,20.2758],[93.2548,20.3126],[93.2708,20.3147],[93.2636,20.2969],[93.2728,20.2683]]],[[[93.3231,20.3224],[93.3364,20.2789],[93.3577,20.27],[93.3906,20.2092],[93.4112,20.1214],[93.4012,20.1103],[93.3839,20.1859],[93.3959,20.1024],[93.3666,20.084],[93.3799,20.0275],[93.3672,20.0156],[93.3556,20.0728],[93.3143,20.1414],[93.3067,20.2079],[93.2713,20.2575],[93.2776,20.2882],[93.2677,20.2972],[93.2839,20.3204],[93.3231,20.3224]]],[[[93.2914,20.353],[93.2847,20.3436],[93.2902,20.3544],[93.2914,20.353]]],[[[92.7522,20.3624],[92.7468,20.3513],[92.7418,20.3584],[92.7522,20.3624]]],[[[93.1334,20.3059],[93.1755,20.3243],[93.2152,20.3051],[93.143,20.2188],[93.1272,20.2428],[93.1284,20.2167],[93.0046,20.1324],[92.9958,20.1906],[93.0221,20.2687],[93.0399,20.2773],[93.04,20.3263],[93.0911,20.3689],[93.12,20.3744],[93.1322,20.3447],[93.1199,20.3296],[93.1288,20.321],[93.1403,20.3166],[93.1334,20.3059]]],[[[92.8766,20.4023],[92.8882,20.3848],[92.8454,20.3947],[92.8766,20.4023]]],[[[92.8278,20.4109],[92.8169,20.4066],[92.8166,20.4091],[92.8278,20.4109]]],[[[92.7623,20.4322],[92.8214,20.4216],[92.8122,20.4063],[92.8664,20.3114],[92.8411,20.2875],[92.7948,20.2773],[92.8025,20.3036],[92.8357,20.3129],[92.8128,20.3389],[92.8143,20.3141],[92.8056,20.3113],[92.7807,20.2786],[92.7647,20.3199],[92.7623,20.4322]]],[[[92.8048,20.4859],[92.7789,20.4549],[92.7891,20.4417],[92.7636,20.4417],[92.7559,20.4701],[92.7683,20.4705],[92.7972,20.4995],[92.8048,20.4859]]],[[[93.1093,20.4186],[93.0785,20.4073],[93.0778,20.3641],[93.0435,20.3504],[93.038,20.423],[93.0851,20.5053],[93.1093,20.4186]]],[[[92.7219,20.5749],[92.7008,20.5817],[92.6991,20.6049],[92.7219,20.5749]]],[[[92.6335,20.6965],[92.6086,20.6838],[92.5844,20.7087],[92.6185,20.7141],[92.6353,20.7243],[92.6335,20.6965]]],[[[92.3511,20.7187],[92.3599,20.7178],[92.3431,20.7244],[92.3511,20.7187]]],[[[92.5627,20.7432],[92.5806,20.749],[92.5749,20.7317],[92.5864,20.7294],[92.5754,20.7211],[92.5491,20.7402],[92.5512,20.757],[92.5627,20.7432]]],[[[92.2969,20.9277],[92.2813,20.9476],[92.3007,20.9774],[92.3098,20.9528],[92.2969,20.9277]]],[[[92.3326,20.9939],[92.3552,20.9436],[92.3145,20.9072],[92.3036,20.9269],[92.3159,20.9543],[92.3067,20.9822],[92.3326,20.9939]]],[[[92.2638,21.0272],[92.2566,21.0234],[92.2613,21.0311],[92.2638,21.0272]]],[[[92.2201,21.109],[92.211,21.1081],[92.2168,21.1148],[92.2201,21.109]]],[[[92.2179,21.1304],[92.2124,21.1257],[92.2076,21.1318],[92.2179,21.1304]]],[[[97.996,16.8666],[97.7147,16.7597],[97.3419,16.7341],[97.246,16.7417],[97.2498,16.8225],[97.2349,16.8088],[97.2231,16.8521],[97.2664,16.8441],[97.2781,16.8505],[97.2659,16.8701],[97.265,16.8481],[97.2299,16.8711],[97.2059,16.8157],[97.1998,16.8823],[97.2181,16.9017],[97.2191,16.9379],[97.1906,16.8911],[97.1749,16.8905],[97.1693,16.9107],[97.2066,17.0126],[97.1506,17.0846],[97.1675,17.1114],[97.1909,17.1169],[97.2134,17.0874],[97.2646,17.1036],[97.2278,17.1029],[97.2063,17.1338],[97.1791,17.1294],[97.1365,17.1162],[97.1343,17.0806],[97.1143,17.0778],[97.0887,17.1652],[97.1067,17.1878],[97.0833,17.1817],[97.0592,17.2533],[97.0003,17.2668],[97.0091,17.3],[96.9116,17.357],[96.8832,17.4541],[96.8649,17.3961],[96.8417,17.3905],[96.849,17.4134],[96.8209,17.4331],[96.7918,17.4904],[96.7344,17.4353],[96.7735,17.3764],[96.7225,17.3474],[96.6924,17.3664],[96.6584,17.3486],[96.6488,17.3303],[96.6683,17.2691],[96.6962,17.2479],[96.7086,17.2545],[96.6769,17.2675],[96.6854,17.3453],[96.7251,17.3382],[96.8366,17.3809],[96.8401,17.3648],[96.8443,17.3762],[96.8597,17.3614],[96.856,17.3431],[96.863,17.3527],[96.9111,17.3214],[96.8907,17.3119],[96.9129,17.3049],[96.9024,17.2717],[96.8626,17.2407],[96.8469,17.2061],[96.834,17.2139],[96.9001,17.0889],[96.9121,17.0177],[96.8737,16.911],[96.8383,16.9272],[96.8509,16.9591],[96.8346,16.9511],[96.8316,16.9194],[96.8552,16.8876],[96.8359,16.9046],[96.8251,16.8937],[96.8073,16.9106],[96.7968,16.9065],[96.8333,16.8788],[96.8531,16.8372],[96.8085,16.7562],[96.7808,16.7817],[96.7897,16.7643],[96.7258,16.7918],[96.5053,16.9944],[96.3969,17.0636],[96.1061,17.1266],[95.5958,17.2731],[94.9195,17.3935],[94.7672,17.4131],[94.6411,17.4092],[94.5604,17.4458],[94.5619,17.5177],[94.5416,17.5488],[94.5561,17.5868],[94.6099,17.5365],[94.6111,17.5501],[94.5769,17.5914],[94.5884,17.6192],[94.5693,17.6453],[94.5588,17.6362],[94.5416,17.6813],[94.5448,17.7349],[94.4898,17.7824],[94.4815,17.9029],[94.4375,17.9956],[94.4808,18.0107],[94.4817,18.0676],[94.4469,18.1691],[94.4208,18.1909],[94.4167,18.2398],[94.3372,18.2416],[94.3221,18.2642],[94.3284,18.302],[94.3911,18.2835],[94.4074,18.3107],[94.4023,18.3463],[94.3816,18.3656],[94.3376,18.3662],[94.3225,18.4359],[94.2492,18.5245],[94.2626,18.5486],[94.2513,18.5468],[94.2579,18.6085],[94.2402,18.6458],[94.1409,18.736],[94.1743,18.7141],[94.1745,18.7283],[94.2197,18.7182],[94.28,18.7351],[94.253,18.7341],[94.2492,18.7552],[94.2388,18.7347],[94.2169,18.731],[94.2064,18.7431],[94.2243,18.7812],[94.2039,18.7527],[94.1916,18.7712],[94.1994,18.7931],[94.1831,18.7796],[94.1466,18.8144],[94.1762,18.8347],[94.1458,18.8353],[94.1523,18.8795],[94.1696,18.89],[94.1467,18.8848],[94.127,18.8567],[94.1169,18.8566],[94.1287,18.8786],[94.0553,18.8461],[94.0309,18.8633],[94.0439,18.8846],[94.0738,18.8676],[94.0906,18.8806],[94.1057,18.8997],[94.1353,18.8919],[94.1086,18.9296],[94.113,18.9662],[94.0864,18.8797],[94.0315,18.8964],[94.0552,18.9352],[94.0364,18.9913],[94.0632,19.0376],[94.0586,19.0598],[94.1021,19.0766],[94.0897,19.0849],[94.097,19.0986],[94.1228,19.0846],[94.109,19.1051],[94.1466,19.1191],[94.1161,19.1204],[94.0545,19.0754],[94.0272,19.0792],[94.0375,19.1067],[94.1385,19.1514],[94.1357,19.1796],[94.1295,19.1561],[94.1075,19.1513],[94.0927,19.1822],[94.0911,19.1484],[94.0648,19.1263],[94.0735,19.165],[94.0624,19.1881],[94.0568,19.1255],[94.0329,19.1296],[94.0492,19.2206],[94.0711,19.2339],[94.0469,19.2483],[94.042,19.3002],[94.0763,19.3661],[94.0715,19.3837],[94.0687,19.3706],[94.0394,19.3453],[94.0315,19.3281],[94.0354,19.2177],[94.0163,19.1814],[93.9914,19.2229],[94.005,19.1555],[93.9663,19.1394],[93.9439,19.1562],[93.9453,19.1934],[93.9092,19.1995],[93.9677,19.1238],[93.9534,19.0885],[93.9557,19.0208],[93.9858,18.9614],[93.9559,18.9192],[93.9596,18.8981],[93.9399,18.8857],[93.9373,18.8473],[93.8923,18.8923],[93.7728,18.9664],[93.7448,18.9689],[93.7151,19.0075],[93.6742,19.0103],[93.6659,19.0664],[93.6901,19.0844],[93.6976,19.1146],[93.7476,19.1213],[93.6942,19.1196],[93.6897,19.0961],[93.6629,19.0763],[93.6393,19.1378],[93.5993,19.1513],[93.5699,19.2256],[93.4727,19.3633],[93.4841,19.4091],[93.5135,19.4341],[93.5509,19.4324],[93.568,19.4163],[93.5514,19.4101],[93.5682,19.4046],[93.6041,19.4144],[93.6374,19.3542],[93.6342,19.3399],[93.6172,19.3482],[93.6001,19.3227],[93.6214,19.3411],[93.6672,19.3022],[93.6417,19.2398],[93.6446,19.2238],[93.6815,19.3001],[93.7215,19.2926],[93.6948,19.2819],[93.7269,19.2754],[93.7207,19.2445],[93.739,19.2567],[93.809,19.2263],[93.8733,19.2466],[93.9559,19.3061],[93.9498,19.3369],[93.9722,19.3514],[93.9817,19.3851],[94.0108,19.381],[93.9834,19.4055],[93.9663,19.3584],[93.8921,19.2916],[93.8818,19.3076],[93.9191,19.3345],[93.9218,19.3773],[93.9111,19.3353],[93.8842,19.3196],[93.8889,19.3534],[93.8589,19.3878],[93.8824,19.3531],[93.8692,19.3068],[93.7751,19.3011],[93.7392,19.3449],[93.7463,19.3542],[93.7753,19.3404],[93.78,19.3542],[93.7704,19.3446],[93.7533,19.3576],[93.7323,19.3566],[93.7319,19.3826],[93.7121,19.4014],[93.7393,19.4088],[93.6516,19.4445],[93.6372,19.4889],[93.6546,19.4919],[93.6468,19.5122],[93.6875,19.5654],[93.7462,19.5422],[93.7688,19.4853],[93.7758,19.5037],[93.7933,19.5003],[93.8187,19.4643],[93.8567,19.4843],[93.8585,19.4404],[93.877,19.473],[93.9764,19.4188],[93.9971,19.4526],[93.9766,19.4629],[93.9536,19.4479],[93.9046,19.4681],[93.9484,19.5081],[93.9383,19.564],[93.9324,19.4985],[93.9024,19.4885],[93.7768,19.5911],[93.8164,19.6042],[93.7935,19.614],[93.7602,19.5991],[93.722,19.6265],[93.7476,19.6525],[93.7943,19.6598],[93.7882,19.6815],[93.8193,19.7111],[93.8181,19.7292],[93.8066,19.7392],[93.7986,19.7014],[93.727,19.6711],[93.7059,19.7028],[93.7208,19.7482],[93.7914,19.7691],[93.7976,19.8329],[93.7862,19.8628],[93.7979,19.8666],[93.8012,19.891],[93.7933,19.916],[93.7937,19.873],[93.7386,19.8852],[93.7145,19.9079],[93.7457,19.9152],[93.7085,19.9375],[93.7091,19.9673],[93.702,19.9144],[93.6219,19.9171],[93.5518,19.8885],[93.5419,19.9036],[93.5754,19.9201],[93.5867,19.9378],[93.5688,19.9212],[93.5416,19.924],[93.546,19.9363],[93.5161,19.9234],[93.5121,19.9438],[93.5365,19.9552],[93.5085,19.9613],[93.5071,19.9748],[93.5401,19.9909],[93.4818,19.9914],[93.4674,20.0443],[93.4584,20.0541],[93.4762,20.0609],[93.4548,20.0552],[93.4762,20.0065],[93.4661,19.9825],[93.4542,19.9959],[93.4392,19.9925],[93.4567,19.95],[93.416,19.9708],[93.3807,20.0659],[93.3841,20.0801],[93.4167,20.0799],[93.4148,20.1121],[93.4329,20.1052],[93.4126,20.1727],[93.3623,20.2736],[93.343,20.2772],[93.3234,20.3298],[93.2966,20.33],[93.3259,20.3859],[93.3254,20.4036],[93.2805,20.3482],[93.2801,20.3282],[93.2398,20.306],[93.2306,20.2739],[93.2464,20.2454],[93.2099,20.2347],[93.1825,20.1969],[93.117,20.1857],[93.2165,20.2861],[93.2259,20.3076],[93.2124,20.3278],[93.2512,20.4261],[93.2252,20.3917],[93.198,20.3871],[93.2235,20.376],[93.203,20.3226],[93.1243,20.3281],[93.1374,20.3425],[93.1321,20.3693],[93.1564,20.3591],[93.1748,20.3741],[93.1292,20.3762],[93.1742,20.3994],[93.1647,20.422],[93.1681,20.4002],[93.0939,20.3797],[93.0884,20.4013],[93.1111,20.4138],[93.1167,20.4272],[93.107,20.5041],[93.087,20.5198],[93.1051,20.5307],[93.0919,20.53],[93.0701,20.602],[93.0483,20.5976],[93.0218,20.6219],[93.0277,20.6439],[93.0056,20.6398],[93.0178,20.6122],[93.0757,20.5791],[93.0816,20.5517],[93.0583,20.4764],[93.0258,20.4274],[93.0173,20.454],[93.0427,20.4633],[93.0402,20.4931],[93.063,20.5208],[93.055,20.5337],[93.0351,20.5378],[93.0556,20.5207],[93.0196,20.4791],[93.0333,20.4857],[93.0386,20.4686],[93.0135,20.4606],[93.0243,20.3894],[93.0091,20.2869],[92.963,20.2257],[92.9449,20.2674],[92.915,20.2419],[92.9146,20.2122],[92.8862,20.2095],[92.9203,20.1809],[92.8966,20.1094],[92.8531,20.1232],[92.7649,20.2],[92.7873,20.2401],[92.7969,20.2102],[92.8305,20.1804],[92.8458,20.1823],[92.799,20.2141],[92.7988,20.2582],[92.9446,20.3156],[92.8982,20.3078],[92.8393,20.3808],[92.9108,20.3717],[92.9315,20.3863],[92.9417,20.3522],[92.9508,20.3739],[92.9161,20.4026],[92.9136,20.4177],[92.9341,20.4277],[92.9037,20.4768],[92.8996,20.4606],[92.9285,20.4299],[92.9072,20.421],[92.9117,20.3774],[92.8867,20.4218],[92.8866,20.4039],[92.8571,20.4195],[92.8637,20.4051],[92.8418,20.4017],[92.8166,20.4429],[92.8337,20.4407],[92.8383,20.4688],[92.8487,20.4591],[92.8275,20.4968],[92.8108,20.4924],[92.7961,20.5101],[92.7639,20.4734],[92.7523,20.4794],[92.7322,20.5696],[92.7486,20.5782],[92.7524,20.5868],[92.7467,20.5986],[92.7266,20.6168],[92.7482,20.5876],[92.7311,20.5792],[92.6844,20.6278],[92.6456,20.6891],[92.6451,20.7277],[92.5832,20.7199],[92.591,20.732],[92.5697,20.7796],[92.5997,20.7956],[92.6024,20.8064],[92.5649,20.7864],[92.5494,20.8493],[92.5449,20.8118],[92.5713,20.7516],[92.5466,20.7631],[92.5441,20.7431],[92.591,20.6851],[92.607,20.6776],[92.6395,20.6883],[92.6954,20.5825],[92.7292,20.5496],[92.72,20.4706],[92.7478,20.4143],[92.7299,20.2954],[92.747,20.2559],[92.7324,20.2568],[92.638,20.4332],[92.5281,20.5435],[92.5133,20.5993],[92.4597,20.649],[92.4661,20.6597],[92.3774,20.6957],[92.3877,20.7048],[92.3611,20.7723],[92.3901,20.8168],[92.3787,20.8246],[92.3584,20.7833],[92.3353,20.8433],[92.3602,20.8647],[92.3366,20.8509],[92.3146,20.8826],[92.3164,20.901],[92.3619,20.9419],[92.3477,20.9871],[92.3313,20.9978],[92.2968,20.9872],[92.2891,21.0036],[92.2836,20.9674],[92.272,20.9911],[92.2694,21.0182],[92.2887,21.0225],[92.2662,21.0406],[92.279,21.0368],[92.3128,21.0579],[92.3122,21.0703],[92.2734,21.0458],[92.2298,21.1046],[92.2243,21.1365],[92.198,21.1546],[92.1976,21.1198],[92.255,21.0615],[92.257,20.9744],[92.1763,21.1467],[92.1639,21.3022],[92.2475,21.426],[92.391,21.4956],[92.5695,21.4938],[92.5944,21.5507],[92.5718,21.9515],[92.5255,22.0074],[92.4554,22.2085],[92.4396,22.3004],[92.3492,22.3571],[92.3368,22.3824],[92.2491,22.6544],[92.2136,23.0344],[92.2283,23.4101],[92.1763,23.4513],[92.1108,23.4513],[92.0317,23.4316],[91.9651,23.3921],[91.8848,23.2763],[91.8724,23.0643],[91.7131,22.9466],[91.5764,22.9223],[91.5031,22.9647],[91.483,23.0231],[91.4432,23.0458],[91.3331,23.0603],[91.2822,23.1078],[91.2337,23.373],[91.1578,23.5283],[91.0968,23.6149],[91.0819,23.6768],[91.13,23.9134],[91.1695,23.9905],[91.3299,24.1802],[91.5404,24.3554],[91.8066,24.4764],[91.9295,24.5499],[92.2331,24.8583],[92.3849,24.92],[92.3859,24.9411],[92.34,24.9799],[92.2491,25.0112],[92.1348,25.0778],[91.9776,25.1209],[91.5116,25.0947],[91.2294,25.1428],[90.7644,25.0998],[90.6394,25.1099],[90.3112,25.0998],[90.2011,25.1259],[89.8174,25.2676],[89.7886,25.3714],[89.8238,25.5524],[89.8253,25.6317],[89.7841,25.7106],[89.7848,25.7903],[89.8091,25.8911],[89.7949,25.9505],[89.7265,26.0715],[89.6998,26.0892],[89.6677,26.085],[89.6602,26.0228],[89.5821,25.9512],[89.5298,25.9544],[89.4457,25.9891],[89.4285,25.9378],[89.2489,25.9692],[89.1453,26.0406],[88.8383,26.1992],[88.685,26.2406],[88.6086,26.2817],[88.5204,26.2674],[88.2816,26.3666],[87.9466,26.9094],[87.9117,27.0501],[87.9067,27.2923],[87.9466,27.4639],[87.9766,27.8069],[88.0058,27.8945],[88.2305,28.0104],[88.3931,28.0516],[88.5557,28.1269],[88.8286,28.1031],[88.9249,27.9899],[88.9644,27.7361],[88.9512,27.5163],[89.0026,27.2235],[89.0503,27.1671],[89.1583,27.1138],[89.2326,27.0214],[89.5577,26.8903],[89.7876,26.837],[90.0,26.8633],[90.0895,26.9041],[90.3225,26.9661],[90.4367,26.9695],[90.6721,26.9217],[90.8147,26.8731],[91.015,26.8594],[91.1712,26.8841],[91.2893,26.8662],[91.4201,26.8973],[91.6585,26.8766],[91.7816,26.8869],[91.8387,26.9213],[91.9398,26.9454],[92.1815,26.9523],[92.2782,26.973],[92.4979,26.9868],[92.6693,26.9936],[93.1528,26.9627],[93.4253,27.0005],[93.5879,27.0522],[93.7988,27.207],[94.1592,27.5782],[94.3394,27.6571],[94.7261,27.7772],[95.1129,27.9419],[95.3071,28.0966],[95.3458,28.1715],[95.4117,28.2057],[95.8644,28.3564],[95.9699,28.3564],[96.1149,28.2947],[96.3391,28.2571],[96.5193,28.1852],[96.5588,28.1406],[96.7698,28.0104],[96.9478,27.9375],[97.0774,27.9042],[97.1477,27.9179],[97.2181,27.9727],[97.24,28.0207],[97.284,28.2947],[97.4949,28.5582],[97.5696,28.5855],[97.6575,28.5924],[97.7894,28.5479],[98.0,28.4139],[97.996,16.8666]]]]}}