{"type":"Feature","properties":{"speciesId":398,"category":"LC","source":"IUCN Red List","simplifyTol":0.01,"clippedToSubcontinent":true},"geometry":{"type":"MultiPolygon","coordinates":[[[[72.3515,22.1744],[72.3581,22.1888],[72.3604,22.1838],[72.3515,22.1744]]],[[[72.4321,22.1981],[72.4713,22.2145],[72.4785,22.2097],[72.4323,22.1795],[72.4321,22.1981]]],[[[69.642,22.4325],[69.6372,22.4077],[69.6078,22.4179],[69.642,22.4325]]],[[[69.8562,22.5242],[69.8999,22.5252],[69.8979,22.5412],[69.9159,22.5456],[69.9302,22.5282],[69.9162,22.51],[69.8562,22.5242]]],[[[69.9429,22.5487],[69.9469,22.5329],[69.9364,22.5418],[69.9429,22.5487]]],[[[70.01,22.5864],[70.0284,22.5733],[70.0175,22.5603],[69.9779,22.5461],[69.9571,22.5546],[69.9593,22.5685],[70.01,22.5864]]],[[[70.351,22.9316],[70.3011,22.9435],[70.385,22.9959],[70.3919,22.971],[70.3688,22.9605],[70.3896,22.9602],[70.3834,22.9427],[70.351,22.9316]]],[[[70.4469,22.9759],[70.4335,22.9737],[70.4491,22.9798],[70.4469,22.9759]]],[[[70.4295,22.9817],[70.4484,22.994],[70.4415,22.9801],[70.4295,22.9817]]],[[[70.4164,23.0236],[70.4424,23.0472],[70.4098,22.9911],[70.4164,23.0236]]],[[[70.3842,23.0233],[70.3766,23.034],[70.3961,23.0206],[70.3842,23.0233]]],[[[70.4512,23.0406],[70.4523,23.0287],[70.4474,23.0241],[70.4512,23.0406]]],[[[70.4345,23.0444],[70.4163,23.0281],[70.4187,23.0392],[70.4345,23.0444]]],[[[70.3679,23.0431],[70.3954,23.0582],[70.3915,23.0352],[70.3679,23.0431]]],[[[70.4713,23.061],[70.462,23.0467],[70.4592,23.0503],[70.4713,23.061]]],[[[68.4628,23.6081],[68.4457,23.5941],[68.4335,23.6185],[68.4448,23.6222],[68.4628,23.6081]]],[[[68.5024,23.7137],[68.4827,23.6926],[68.4653,23.6921],[68.4718,23.7097],[68.5024,23.7137]]],[[[68.5914,23.7415],[68.5774,23.741],[68.5917,23.7475],[68.5914,23.7415]]],[[[68.5693,23.7576],[68.6101,23.7728],[68.5676,23.7489],[68.5693,23.7576]]],[[[68.6391,23.7899],[68.6294,23.7773],[68.6271,23.7793],[68.6391,23.7899]]],[[[67.4227,24.0664],[67.4046,24.0705],[67.4118,24.0805],[67.4227,24.0664]]],[[[66.3264,25.5528],[66.4265,25.4826],[66.4752,25.4995],[66.5174,25.492],[66.4928,25.4478],[66.5264,25.4114],[66.5059,25.4053],[66.36,25.4601],[66.2952,25.4674],[66.3264,25.5528]]],[[[63.1638,35.3084],[62.5865,35.193],[62.0992,35.2503],[61.3743,35.4816],[61.1434,35.193],[60.9785,34.3405],[60.8837,33.721],[60.9414,32.7686],[60.9414,31.8739],[60.7971,31.7007],[60.4219,31.9893],[60.0,32.8329],[60.0,37.634],[61.2589,36.8381],[61.4898,36.5784],[61.7207,36.4918],[62.3845,36.5206],[63.0483,36.6361],[63.539,36.8093],[63.943,36.9824],[64.4625,37.2422],[64.7223,37.4154],[64.8753,37.4625],[65.2468,38.0],[66.4815,38.0],[65.7805,36.5205],[64.8891,36.0],[63.4711,35.6362],[63.1638,35.3084]]],[[[74.4666,14.084],[74.4634,14.0859],[74.4654,14.0868],[74.4666,14.084]]],[[[74.4706,14.1051],[74.4668,14.1079],[74.4689,14.1094],[74.4706,14.1051]]],[[[74.3985,14.3133],[74.3938,14.3089],[74.3921,14.3117],[74.3985,14.3133]]],[[[74.2488,14.7011],[74.2465,14.6994],[74.246,14.702],[74.2488,14.7011]]],[[[72.9389,18.9654],[72.9321,18.9527],[72.9234,18.9567],[72.9276,18.967],[72.9389,18.9654]]],[[[73.0566,19.0171],[73.0544,19.0031],[73.0493,19.0066],[73.0566,19.0171]]],[[[72.8387,19.3333],[72.8516,19.3378],[72.8684,19.3295],[72.8387,19.3333]]],[[[72.8807,20.6811],[72.89,20.6884],[72.8912,20.6843],[72.8807,20.6811]]],[[[72.877,20.7253],[72.8737,20.6908],[72.8667,20.7131],[72.8576,20.706],[72.8726,20.6676],[72.8785,20.6761],[72.8779,20.6457],[72.8474,20.7183],[72.8454,20.7442],[72.855,20.7205],[72.877,20.7253]]],[[[72.8752,20.7521],[72.8613,20.7556],[72.8767,20.754],[72.8752,20.7521]]],[[[72.8726,20.768],[72.8696,20.7604],[72.866,20.7692],[72.8726,20.768]]],[[[72.9309,20.7624],[72.9366,20.7718],[72.9412,20.7674],[72.9309,20.7624]]],[[[72.856,20.7635],[72.8404,20.7752],[72.8406,20.7799],[72.856,20.7635]]],[[[72.8436,20.7883],[72.8407,20.7969],[72.8444,20.7987],[72.8436,20.7883]]],[[[72.7829,20.9207],[72.8226,20.8256],[72.8415,20.8054],[72.8261,20.8098],[72.7829,20.9207]]],[[[72.8144,20.9178],[72.8112,20.9064],[72.807,20.9073],[72.8144,20.9178]]],[[[72.7751,20.9933],[72.7723,20.9793],[72.7658,20.9849],[72.7751,20.9933]]],[[[72.8465,21.0385],[72.8357,21.0425],[72.8453,21.0424],[72.8465,21.0385]]],[[[72.6387,21.6287],[72.807,21.6431],[72.7991,21.6238],[72.6902,21.5999],[72.6692,21.5706],[72.6228,21.5682],[72.6295,21.5877],[72.6119,21.6056],[72.6372,21.6122],[72.6387,21.6287]]],[[[72.8784,21.6802],[72.8683,21.6724],[72.8578,21.6764],[72.8784,21.6802]]],[[[72.5701,21.7394],[72.5716,21.7534],[72.5944,21.7488],[72.5701,21.7394]]],[[[72.5834,21.775],[72.5724,21.7741],[72.5815,21.7771],[72.5834,21.775]]],[[[72.4992,22.2229],[72.5175,22.2305],[72.5105,22.2179],[72.4992,22.2229]]],[[[72.7317,22.2225],[72.6691,22.2351],[72.663,22.2475],[72.7191,22.2376],[72.7317,22.2225]]],[[[80.2493,9.8236],[80.3657,9.6603],[80.8117,9.2909],[80.8841,9.1219],[81.0005,8.9388],[80.993,8.918],[81.0102,8.929],[81.013,8.8911],[81.021,8.9048],[81.0589,8.8595],[81.0875,8.8584],[81.1048,8.8126],[81.2267,8.6475],[81.2208,8.6062],[81.2298,8.581],[81.2451,8.5793],[81.2471,8.5458],[81.2257,8.5323],[81.2261,8.5695],[81.1927,8.5665],[81.2119,8.5077],[81.1896,8.5018],[81.1977,8.4615],[81.2624,8.4569],[81.304,8.4326],[81.304,8.4583],[81.2958,8.4465],[81.2809,8.4568],[81.2831,8.5032],[81.3222,8.5224],[81.353,8.4909],[81.3937,8.3567],[81.4078,8.2419],[81.4769,8.0343],[81.5686,7.9227],[81.5874,7.921],[81.5671,7.8981],[81.593,7.83],[81.6268,7.8247],[81.6544,7.7729],[81.6999,7.7536],[81.7713,7.6448],[81.8718,7.3159],[81.8586,7.0907],[81.8813,7.0267],[81.8704,6.9789],[81.8489,6.9896],[81.8578,6.9672],[81.8729,6.9669],[81.8364,6.8853],[81.8518,6.8884],[81.8483,6.8675],[81.8397,6.8542],[81.8211,6.8621],[81.8444,6.8344],[81.8233,6.8088],[81.8249,6.7653],[81.8084,6.7647],[81.8279,6.7586],[81.7759,6.6639],[81.7664,6.592],[81.7324,6.5669],[81.7003,6.482],[81.6518,6.4367],[81.5973,6.4241],[81.6135,6.4056],[81.56,6.3612],[81.522,6.3525],[81.4869,6.3055],[81.3285,6.1945],[81.2222,6.1589],[81.1946,6.1576],[81.197,6.1776],[81.178,6.1441],[81.1336,6.1174],[81.0167,6.1071],[80.8659,6.0408],[80.8255,6.0415],[80.7202,5.9607],[80.6641,5.9575],[80.5868,5.9168],[80.5532,5.9411],[80.4489,5.9431],[80.4522,5.9588],[80.4357,5.969],[80.4179,5.955],[80.3828,5.9595],[80.2442,6.0069],[80.2285,6.0351],[80.2186,6.022],[80.0986,6.1289],[80.0314,6.2656],[80.0252,6.3364],[79.9746,6.464],[79.9866,6.4771],[79.9796,6.5149],[79.8687,6.8057],[79.8431,6.9333],[79.8712,6.9756],[79.869,7.0027],[79.819,7.1934],[79.8592,7.2756],[79.8445,7.2761],[79.8027,7.4826],[79.7977,7.7275],[79.7513,7.9316],[79.7064,8.0445],[79.699,8.1154],[79.7095,8.1343],[79.6984,8.2138],[79.7179,8.2167],[79.7381,8.28],[79.7812,8.3497],[79.7563,8.3071],[79.7511,8.2617],[79.7655,8.2739],[79.7573,8.2571],[79.7766,8.2541],[79.7688,8.2156],[79.7404,8.2008],[79.7492,8.1829],[79.7316,8.0868],[79.7541,8.0582],[79.7426,8.0],[79.8186,7.9719],[79.8082,7.8839],[79.8265,7.9206],[79.834,8.0071],[79.7896,8.0682],[79.8086,8.0611],[79.7948,8.0793],[79.8338,8.1396],[79.8154,8.2037],[79.7946,8.2203],[79.8095,8.2174],[79.7897,8.2301],[79.8101,8.2374],[79.8342,8.2919],[79.8476,8.2742],[79.8584,8.2846],[79.8362,8.3011],[79.8445,8.4289],[79.8632,8.4496],[79.8709,8.5352],[79.9263,8.559],[79.9193,8.5846],[79.9414,8.6155],[79.9558,8.7174],[79.9248,8.7907],[79.9401,8.8068],[79.9184,8.8083],[79.9307,8.8147],[79.919,8.8188],[79.9358,8.8913],[79.9122,8.9299],[80.0403,9.0133],[80.0661,9.0562],[80.0857,9.0999],[80.0761,9.1203],[80.1173,9.2072],[80.1116,9.2768],[80.1278,9.2906],[80.0676,9.3287],[80.0549,9.3914],[80.1466,9.4347],[80.1861,9.4827],[80.1461,9.5361],[80.054,9.5979],[80.0876,9.6249],[80.0176,9.6509],[79.971,9.7077],[79.948,9.6871],[79.9099,9.7587],[79.9528,9.7921],[80.0224,9.8126],[80.1056,9.8059],[80.2147,9.8314],[80.2493,9.8236]]],[[[76.4814,9.0958],[76.4797,9.0989],[76.4811,9.0972],[76.4814,9.0958]]],[[[76.4625,9.1309],[76.4631,9.1307],[76.4732,9.111],[76.4625,9.1309]]],[[[74.7213,13.222],[74.7182,13.2214],[74.7188,13.2231],[74.7213,13.222]]],[[[74.7246,13.2251],[74.7261,13.2244],[74.7251,13.2229],[74.7246,13.2251]]],[[[74.7125,13.2347],[74.7113,13.2373],[74.7126,13.2378],[74.7125,13.2347]]],[[[74.6866,13.26],[74.6851,13.2615],[74.6864,13.2627],[74.6866,13.26]]],[[[74.6832,13.2658],[74.6813,13.2659],[74.6826,13.2664],[74.6832,13.2658]]],[[[74.6953,13.2789],[74.6924,13.2757],[74.6928,13.2788],[74.6953,13.2789]]],[[[74.6916,13.281],[74.693,13.2828],[74.6929,13.2805],[74.6916,13.281]]],[[[74.6867,13.3247],[74.685,13.3266],[74.6858,13.3272],[74.6867,13.3247]]],[[[74.6771,13.3389],[74.6783,13.3402],[74.6796,13.3374],[74.6771,13.3389]]],[[[74.6725,13.3593],[74.6735,13.361],[74.6735,13.3595],[74.6725,13.3593]]],[[[74.6689,13.3725],[74.6647,13.3747],[74.6668,13.3763],[74.6689,13.3725]]],[[[74.4769,14.0113],[74.4729,14.011],[74.4764,14.0124],[74.4769,14.0113]]],[[[74.4835,14.0253],[74.4799,14.0237],[74.4815,14.0259],[74.4835,14.0253]]],[[[74.4786,14.0953],[74.4748,14.0931],[74.4746,14.0957],[74.4786,14.0953]]],[[[81.2099,16.1752],[81.2126,16.1745],[81.2094,16.1697],[81.2099,16.1752]]],[[[82.3629,16.9537],[82.3507,16.9606],[82.3489,16.9698],[82.3599,16.9686],[82.3629,16.9537]]],[[[83.4662,17.9166],[83.4535,17.9115],[83.4556,17.9161],[83.4662,17.9166]]],[[[86.7088,20.2939],[86.6907,20.288],[86.6889,20.2951],[86.7088,20.2939]]],[[[86.8054,20.392],[86.8045,20.3942],[86.8072,20.395],[86.8054,20.392]]],[[[86.7909,20.4204],[86.8009,20.4779],[86.8043,20.4822],[86.8161,20.4409],[86.7981,20.3886],[86.7909,20.4204]]],[[[67.3897,24.062],[67.3626,24.1323],[67.4118,24.1233],[67.4248,24.1292],[67.3828,24.1326],[67.3453,24.1557],[67.3347,24.1763],[67.3545,24.1828],[67.3371,24.2264],[67.4016,24.2334],[67.4208,24.2098],[67.4312,24.2214],[67.4317,24.2472],[67.4205,24.2173],[67.4143,24.234],[67.3501,24.2542],[67.3613,24.2756],[67.3814,24.2732],[67.3946,24.287],[67.3585,24.2837],[67.3289,24.2443],[67.3098,24.2638],[67.3579,24.3574],[67.4709,24.7585],[67.9689,25.42],[68.3604,25.8304],[68.4066,27.1331],[68.7999,27.6561],[69.1451,28.0411],[70.0,28.574],[70.6377,29.2812],[70.7899,31.3111],[71.3314,32.1572],[73.5277,33.4993],[74.2597,33.4993],[74.5038,32.6452],[75.4799,32.5232],[76.9441,32.2792],[78.0422,31.9131],[78.0422,31.1291],[78.7238,30.4476],[79.7741,29.6973],[80.9746,29.1471],[82.225,28.5469],[83.4754,28.1468],[84.4758,27.6966],[84.6759,26.8463],[85.026,25.5959],[85.4761,24.7456],[86.0764,24.1454],[86.8766,23.3951],[87.0267,22.8449],[87.2268,21.9446],[86.9267,21.4944],[86.9267,21.3427],[86.8946,21.3136],[86.8248,21.1757],[86.8168,21.1382],[86.9267,20.9198],[86.9267,20.6172],[86.7655,20.5046],[86.7391,20.4593],[86.7242,20.3826],[86.7412,20.3809],[86.728,20.3641],[86.7414,20.3623],[86.7819,20.3969],[86.7709,20.3651],[86.7859,20.3717],[86.7697,20.3371],[86.7191,20.2992],[86.6865,20.3181],[86.6849,20.2869],[86.7006,20.2823],[86.7273,20.2947],[86.7153,20.2827],[86.5525,20.1937],[86.4813,20.0932],[86.4268,20.0442],[86.1764,19.8939],[85.7762,19.7938],[85.406,19.6229],[85.126,19.4937],[84.8759,19.2937],[84.5635,18.7904],[83.9756,18.2933],[83.6755,18.1433],[83.4723,17.8985],[83.4679,17.9212],[83.4438,17.934],[83.449,17.9081],[83.4672,17.8865],[83.4135,17.8402],[83.4172,17.8083],[83.3542,17.7525],[83.3507,17.7279],[83.2944,17.6912],[83.3009,17.6774],[83.2456,17.6371],[83.2152,17.5903],[82.9753,17.543],[82.325,17.1429],[82.3398,17.0688],[82.2794,17.0015],[82.2777,16.9443],[82.2529,16.9186],[82.2666,16.8866],[82.2561,16.8663],[82.2721,16.8873],[82.276,16.8548],[82.2921,16.8749],[82.3044,16.8567],[82.3193,16.8678],[82.3239,16.8369],[82.3419,16.8605],[82.3691,16.8561],[82.3656,16.8116],[82.3744,16.8302],[82.3728,16.9041],[82.3805,16.8409],[82.3567,16.7415],[81.8775,16.3821],[81.7964,16.3426],[81.4843,16.3581],[81.3307,16.3152],[81.2408,16.2425],[81.1979,16.1524],[81.0246,15.8925],[80.8052,15.7608],[80.7916,15.7844],[80.7824,15.8485],[80.8001,15.7801],[80.8115,15.7798],[80.815,15.8127],[80.7933,15.8552],[80.747,15.8766],[80.6716,15.8795],[80.6244,15.9425],[80.2936,15.7047],[80.2494,15.6334],[80.1996,15.4623],[80.0957,15.329],[80.0826,15.2577],[80.091,15.2043],[80.0646,15.1906],[80.0736,15.1742],[80.0452,15.0673],[80.0872,14.8059],[80.1243,14.7336],[80.1243,14.0418],[80.2407,13.6161],[80.2743,13.5416],[80.2743,13.1915],[80.2878,13.0697],[80.2773,13.0223],[80.2609,13.0127],[80.2741,13.0056],[80.2429,12.8158],[80.2542,12.784],[80.1758,12.5813],[80.1868,12.5753],[79.9242,12.2412],[79.8342,11.9097],[79.8187,11.9071],[79.8333,11.902],[79.7982,11.7882],[79.7762,11.7694],[79.794,11.7694],[79.7932,11.7502],[79.7574,11.5668],[79.7719,11.4914],[79.7866,11.4791],[79.8241,10.9907],[79.8241,10.2905],[79.7578,10.2712],[79.5304,10.3131],[79.3983,10.3201],[79.274,10.2405],[79.0586,9.7667],[79.0095,9.7177],[78.9382,9.6016],[78.9195,9.4929],[78.9019,9.4806],[78.9774,9.3649],[78.9738,9.3401],[79.0062,9.3401],[79.0751,9.2923],[79.1605,9.2834],[79.0889,9.2567],[78.9626,9.2688],[78.9115,9.2451],[78.6737,9.2401],[78.3671,9.0798],[78.2767,8.9996],[78.2658,9.0126],[78.2681,8.9925],[78.2176,8.9572],[78.174,8.8792],[78.1539,8.7474],[78.1736,8.758],[78.1736,8.7375],[78.1322,8.6694],[78.1408,8.579],[78.1063,8.4606],[78.0647,8.4057],[78.0697,8.3666],[77.8041,8.2336],[77.7838,8.1982],[77.7383,8.1691],[77.5935,8.1397],[77.4733,8.1397],[76.7331,8.6948],[76.6157,8.8464],[76.4753,9.1197],[76.4848,9.1159],[76.4921,9.1672],[76.4748,9.1621],[76.4709,9.1412],[76.4291,9.2481],[76.4197,9.2395],[76.4567,9.1416],[76.4433,9.1665],[76.3263,9.4527],[76.2446,9.9545],[76.2184,9.9982],[76.0841,10.421],[75.9728,10.9407],[75.8578,11.1707],[75.7977,11.1707],[75.7296,11.3316],[75.7333,11.3539],[75.6866,11.4352],[75.6172,11.4751],[75.5859,11.5595],[75.597,11.5362],[75.5912,11.562],[75.6039,11.561],[75.5822,11.5707],[75.5294,11.6965],[75.5386,11.7047],[75.4513,11.7709],[75.3893,11.8467],[75.3522,11.8601],[75.2491,12.0038],[75.2262,12.021],[75.2004,12.0031],[75.1677,12.0669],[75.0648,12.3407],[75.0296,12.3922],[75.038,12.4118],[75.0229,12.3997],[75.0145,12.4455],[74.9979,12.4456],[74.983,12.475],[74.8249,12.8315],[74.776,13.0949],[74.7699,13.0781],[74.6921,13.3488],[74.6651,13.6391],[74.6428,13.6709],[74.6058,13.8523],[74.6169,13.8576],[74.565,13.9465],[74.5278,13.9625],[74.505,14.0011],[74.464,14.1871],[74.4092,14.308],[74.3953,14.4185],[74.3765,14.4165],[74.3468,14.5185],[74.3052,14.5196],[74.2912,14.5931],[74.2635,14.6244],[74.2946,14.6402],[74.2751,14.6467],[74.2756,14.6779],[74.2537,14.7068],[74.2638,14.7102],[74.2647,14.72],[74.2582,14.7122],[74.2211,14.7463],[74.1993,14.7175],[74.1765,14.7445],[74.1477,14.7464],[74.1341,14.7778],[74.1039,14.7842],[74.0911,14.8021],[74.1171,14.8034],[74.1249,14.8404],[74.1079,14.8451],[74.0912,14.8945],[74.0369,14.9199],[74.0487,14.9568],[74.0299,14.9806],[74.0476,14.9848],[73.9857,15.0225],[73.9786,15.0504],[73.95,15.0729],[73.9051,15.0871],[73.9458,15.1408],[73.8821,15.3452],[73.862,15.3694],[73.8357,15.361],[73.8032,15.3769],[73.7794,15.4089],[73.8757,15.3984],[73.8899,15.4192],[73.8764,15.4337],[73.8584,15.4258],[73.845,15.449],[73.7822,15.4597],[73.8153,15.5064],[73.7574,15.4939],[73.731,15.6146],[73.6841,15.7202],[73.6509,15.7384],[73.655,15.7733],[73.6238,15.8436],[73.5838,15.9077],[73.5041,15.94],[73.5093,15.9921],[73.4955,15.985],[73.4563,16.058],[73.4834,16.0701],[73.459,16.0794],[73.4699,16.1132],[73.4608,16.094],[73.4377,16.1936],[73.4522,16.2253],[73.428,16.2044],[73.4118,16.2564],[73.4119,16.2733],[73.4384,16.2902],[73.4061,16.2808],[73.3862,16.363],[73.3699,16.364],[73.3717,16.3895],[73.3948,16.3901],[73.4084,16.4088],[73.3688,16.3999],[73.3586,16.4351],[73.3812,16.4486],[73.3485,16.4519],[73.3116,16.5402],[73.3372,16.5601],[73.3585,16.5193],[73.3494,16.5081],[73.3708,16.5129],[73.352,16.5379],[73.3565,16.5655],[73.3167,16.5992],[73.3487,16.5979],[73.3593,16.6253],[73.3362,16.6211],[73.3218,16.6377],[73.3422,16.6921],[73.3158,16.6967],[73.3005,16.751],[73.3179,16.8014],[73.2954,16.8116],[73.2847,16.8776],[73.3048,16.8844],[73.276,16.8926],[73.2826,16.9485],[73.3057,16.9717],[73.268,16.9875],[73.2792,17.0002],[73.2564,17.021],[73.2583,17.0442],[73.2913,17.0069],[73.2813,17.0365],[73.3258,17.0276],[73.2797,17.0445],[73.2914,17.0704],[73.2688,17.1461],[73.2316,17.1963],[73.2439,17.2158],[73.1898,17.3009],[73.2207,17.308],[73.2569,17.2599],[73.2657,17.2889],[73.297,17.2812],[73.2909,17.2947],[73.238,17.2902],[73.2066,17.3828],[73.1711,17.4039],[73.1979,17.4393],[73.1845,17.4957],[73.1424,17.5465],[73.1696,17.5888],[73.1475,17.6041],[73.1202,17.6823],[73.135,17.7114],[73.1285,17.7445],[73.056,17.9248],[73.0362,17.9399],[73.0418,17.9741],[73.0066,18.0183],[73.0225,18.0197],[73.0444,18.04],[73.0247,18.0295],[73.0296,18.0465],[73.016,18.025],[72.9955,18.0526],[72.9721,18.1247],[72.9884,18.1524],[72.9804,18.1945],[72.9313,18.2186],[72.9422,18.2792],[72.9667,18.2715],[72.9797,18.2402],[73.063,18.2177],[73.0702,18.1968],[73.0672,18.2708],[73.0525,18.2857],[73.0458,18.2672],[73.0234,18.2661],[72.9142,18.349],[72.9275,18.3799],[72.8901,18.458],[72.9047,18.5383],[72.9213,18.5286],[72.9615,18.5423],[72.9202,18.5479],[72.8845,18.6345],[72.8979,18.6302],[72.8664,18.644],[72.8563,18.6884],[72.8701,18.8028],[72.9142,18.7924],[72.9356,18.8241],[72.9892,18.7764],[72.9859,18.8052],[73.0578,18.8027],[72.9898,18.8115],[72.9821,18.8626],[72.9381,18.847],[72.9069,18.8864],[72.9247,18.9098],[72.942,18.8943],[72.9495,18.9458],[72.9772,18.9461],[72.9539,18.9701],[73.0908,18.9988],[73.0667,19.0143],[73.0847,19.0314],[73.0644,19.0292],[73.0908,19.0429],[73.0061,19.005],[72.9844,19.0708],[72.9952,19.0869],[72.9764,19.1069],[72.9764,19.1706],[72.9642,19.1353],[72.9522,19.1374],[72.9569,19.1077],[72.9307,19.0904],[72.9472,19.068],[72.9137,19.0744],[72.9517,19.0432],[72.9034,18.9938],[72.8784,19.0226],[72.8573,19.0094],[72.8371,18.9334],[72.8032,18.8979],[72.8212,18.9319],[72.8128,18.9507],[72.792,18.9442],[72.8126,19.0201],[72.8592,19.0612],[72.8179,19.0482],[72.8248,19.087],[72.808,19.1434],[72.7863,19.1386],[72.7814,19.1669],[72.8011,19.1976],[72.7783,19.1922],[72.787,19.3061],[72.8518,19.316],[72.9155,19.2908],[72.869,19.3343],[72.8509,19.3431],[72.8024,19.3313],[72.7583,19.3756],[72.7663,19.3956],[72.7441,19.4603],[72.7564,19.4738],[72.7169,19.5799],[72.7187,19.5966],[72.7449,19.6025],[72.7289,19.6097],[72.7078,19.6822],[72.7005,19.7288],[72.7146,19.7469],[72.701,19.7419],[72.6902,19.7581],[72.7058,19.8094],[72.6859,19.8043],[72.6594,19.8391],[72.686,19.8741],[72.6716,19.9365],[72.7035,19.9651],[72.7249,19.9671],[72.76,19.9233],[72.7451,19.9679],[72.7216,19.9802],[72.7068,20.0701],[72.731,20.095],[72.7453,20.1957],[72.7795,20.2082],[72.7456,20.203],[72.749,20.2818],[72.778,20.3364],[72.8183,20.3656],[72.8262,20.4424],[72.8869,20.5046],[72.8771,20.5274],[72.8946,20.5296],[72.8828,20.5439],[72.8927,20.5834],[72.8736,20.6444],[72.9023,20.5964],[72.8864,20.6374],[72.9015,20.6428],[72.8967,20.7022],[72.9083,20.7106],[72.8907,20.7199],[72.9241,20.7558],[72.9519,20.755],[72.9425,20.7754],[72.9197,20.7682],[72.9188,20.7891],[72.8861,20.7872],[72.8745,20.8015],[72.8953,20.8143],[72.8756,20.8245],[72.8948,20.8664],[72.8268,20.8291],[72.8547,20.86],[72.8245,20.8829],[72.8351,20.9065],[72.8491,20.9044],[72.8239,20.9212],[72.8822,20.9546],[72.8765,20.9718],[72.8913,20.9864],[72.8308,20.9733],[72.8387,20.9855],[72.8052,20.9872],[72.827,21.014],[72.7661,21.0041],[72.7425,20.9769],[72.767,20.9279],[72.7473,20.9498],[72.7229,21.0266],[72.7221,21.0568],[72.7417,21.0289],[72.7856,21.0461],[72.8068,21.0247],[72.857,21.0392],[72.8419,21.0537],[72.8554,21.0667],[72.8326,21.0544],[72.8227,21.0878],[72.8419,21.1136],[72.8215,21.0977],[72.8145,21.1053],[72.8304,21.1146],[72.8143,21.119],[72.8114,21.1483],[72.8314,21.167],[72.8059,21.1496],[72.8016,21.1242],[72.791,21.1452],[72.7878,21.11],[72.7636,21.1227],[72.7569,21.1046],[72.7443,21.1262],[72.7187,21.102],[72.7302,21.078],[72.7016,21.0949],[72.7059,21.1358],[72.7275,21.1475],[72.6739,21.1582],[72.646,21.0836],[72.6259,21.0892],[72.6178,21.1386],[72.6295,21.128],[72.6467,21.1489],[72.6293,21.1337],[72.6145,21.1954],[72.6555,21.2225],[72.6817,21.2184],[72.6431,21.2497],[72.6304,21.2405],[72.6501,21.2798],[72.621,21.2927],[72.621,21.3125],[72.6554,21.3191],[72.6684,21.342],[72.7365,21.3238],[72.6962,21.355],[72.698,21.3731],[72.6746,21.3486],[72.6646,21.3689],[72.6528,21.3494],[72.6459,21.3627],[72.6934,21.4664],[72.6715,21.4467],[72.6379,21.4484],[72.7409,21.5657],[72.8165,21.6136],[72.8406,21.6659],[72.9193,21.6478],[73.0375,21.7005],[73.0901,21.7051],[73.1077,21.7297],[73.064,21.7327],[72.9438,21.6752],[72.8728,21.6882],[72.7776,21.6604],[72.7389,21.686],[72.6033,21.6764],[72.543,21.6563],[72.5317,21.7209],[72.5458,21.6942],[72.5746,21.7039],[72.5659,21.7328],[72.5994,21.7153],[72.5857,21.7265],[72.6033,21.7563],[72.5992,21.7954],[72.6458,21.8329],[72.6544,21.8912],[72.6753,21.888],[72.6786,21.912],[72.6878,21.886],[72.7223,21.8841],[72.7187,21.9318],[72.7511,21.9531],[72.7781,21.9507],[72.746,21.988],[72.7722,22.0022],[72.7754,22.0168],[72.735,21.9912],[72.7195,22.0208],[72.7074,21.9796],[72.6933,21.9852],[72.6999,21.9716],[72.6465,21.9619],[72.6488,21.9881],[72.6369,22.0026],[72.6401,21.9548],[72.6277,21.9694],[72.6332,21.9546],[72.5304,21.9023],[72.5042,21.943],[72.5471,22.1572],[72.6099,22.2151],[72.6631,22.211],[72.7419,22.1758],[72.7657,22.1941],[72.7121,22.2443],[72.6273,22.2549],[72.6127,22.2671],[72.6487,22.2636],[72.6288,22.2758],[72.5679,22.2652],[72.6251,22.2814],[72.5931,22.2816],[72.479,22.2204],[72.4931,22.264],[72.4597,22.2136],[72.4151,22.2148],[72.4247,22.2006],[72.4084,22.1524],[72.381,22.1538],[72.3885,22.1924],[72.3716,22.182],[72.3689,22.1449],[72.367,22.1858],[72.3907,22.2002],[72.3697,22.1934],[72.3821,22.2262],[72.3704,22.2843],[72.4013,22.3249],[72.3892,22.331],[72.3581,22.313],[72.342,22.2572],[72.3322,22.2999],[72.3459,22.2239],[72.3116,22.1865],[72.2953,22.2249],[72.3209,22.1379],[72.242,22.0035],[72.2551,21.8192],[72.2391,21.7952],[72.2185,21.8162],[72.2081,21.8058],[72.3028,21.6256],[72.2135,21.4247],[72.112,21.3046],[72.0758,21.3224],[72.1088,21.2927],[72.097,21.2798],[72.0886,21.289],[72.0985,21.266],[72.0777,21.2534],[72.1071,21.2038],[72.003,21.1399],[71.8968,21.1146],[71.8756,21.0914],[71.8063,21.0683],[71.7917,21.0504],[71.8047,21.0393],[71.6397,20.994],[71.6229,20.9689],[71.5168,20.9482],[71.4596,20.8795],[71.3942,20.8618],[71.3824,20.8714],[71.382,20.8537],[71.2142,20.8041],[71.1424,20.7545],[71.0869,20.7508],[71.0512,20.7313],[71.0014,20.7354],[70.9853,20.7226],[70.9914,20.7047],[70.8524,20.7055],[70.8269,20.6883],[70.6904,20.7436],[70.6749,20.7589],[70.6817,20.7773],[70.6564,20.7576],[70.6483,20.7718],[70.6113,20.7678],[70.4429,20.8502],[70.4116,20.8754],[70.4256,20.8804],[70.3381,20.9142],[70.0863,21.1186],[69.737,21.4992],[69.5945,21.6333],[69.5993,21.6524],[69.5782,21.6363],[69.4081,21.785],[69.3688,21.8275],[69.387,21.8533],[69.3546,21.8335],[69.2286,21.9439],[69.2007,21.9788],[69.204,21.9977],[69.1897,21.9855],[68.9574,22.2382],[68.9348,22.3057],[68.9871,22.4139],[69.0672,22.4733],[69.0826,22.4704],[69.0443,22.4325],[69.0531,22.3989],[69.0907,22.3899],[69.1102,22.4074],[69.1346,22.3986],[69.1912,22.4174],[69.2014,22.3985],[69.1735,22.3637],[69.1622,22.3041],[69.1994,22.2686],[69.2346,22.2602],[69.3081,22.2868],[69.3313,22.326],[69.4151,22.3178],[69.4425,22.3332],[69.4534,22.3156],[69.4962,22.3665],[69.5196,22.3724],[69.5059,22.4204],[69.5168,22.4262],[69.5553,22.3889],[69.5382,22.3779],[69.5909,22.3584],[69.5761,22.3399],[69.5856,22.3334],[69.6023,22.3542],[69.6181,22.3463],[69.6216,22.3651],[69.643,22.3555],[69.6634,22.3925],[69.6937,22.3961],[69.7228,22.4761],[69.7325,22.4391],[69.7509,22.4301],[69.751,22.4416],[69.7944,22.3997],[69.8214,22.4565],[69.8654,22.4504],[69.9041,22.4706],[69.9283,22.5092],[69.9579,22.4968],[69.9446,22.5225],[69.9672,22.5368],[70.1779,22.5604],[70.2419,22.683],[70.2655,22.6892],[70.2377,22.6953],[70.2559,22.7099],[70.2514,22.7324],[70.2887,22.7381],[70.3559,22.8761],[70.4429,22.9596],[70.4865,23.0526],[70.4856,23.0887],[70.4091,23.0363],[70.4029,23.0605],[70.3715,23.0587],[70.3624,23.0403],[70.3746,23.0183],[70.3943,23.0061],[70.2917,22.9434],[70.2364,22.9726],[70.2032,22.9444],[70.1582,22.9416],[70.1211,22.9586],[70.1318,22.9827],[70.1208,22.9851],[70.104,22.9584],[70.1328,22.9342],[70.0933,22.9021],[70.0647,22.913],[69.8084,22.8462],[69.7905,22.8205],[69.7341,22.7987],[69.7163,22.7535],[69.6951,22.7645],[69.7062,22.7366],[69.6524,22.7579],[69.6279,22.8021],[69.6366,22.7697],[69.6022,22.7735],[69.6118,22.7581],[69.596,22.7569],[69.5709,22.7617],[69.5553,22.7984],[69.5052,22.7837],[69.4542,22.8002],[69.493,22.775],[69.4671,22.7707],[69.3616,22.8195],[69.3614,22.8319],[69.2808,22.8226],[69.1975,22.8334],[68.933,22.9839],[68.8553,23.0358],[68.8515,23.0543],[68.839,23.0442],[68.8097,23.0733],[68.7461,23.0885],[68.7673,23.1297],[68.7339,23.1034],[68.6376,23.1626],[68.636,23.1777],[68.6922,23.1393],[68.7255,23.1477],[68.6553,23.1675],[68.6515,23.1936],[68.6239,23.1862],[68.5846,23.221],[68.584,23.2396],[68.6458,23.2582],[68.6212,23.2839],[68.6509,23.2985],[68.6146,23.2984],[68.611,23.2713],[68.5884,23.2516],[68.5406,23.2667],[68.5446,23.2881],[68.559,23.2898],[68.5525,23.3121],[68.5859,23.3059],[68.5844,23.3197],[68.6165,23.3244],[68.6182,23.3506],[68.6142,23.3278],[68.561,23.3445],[68.5141,23.3201],[68.4999,23.3492],[68.4781,23.349],[68.5051,23.3965],[68.4955,23.4023],[68.5195,23.4172],[68.4855,23.4156],[68.4738,23.3863],[68.436,23.4214],[68.4403,23.3894],[68.3937,23.4216],[68.3886,23.4545],[68.4473,23.4768],[68.4187,23.5359],[68.4552,23.5719],[68.4399,23.5677],[68.4662,23.5997],[68.4708,23.6367],[68.5457,23.7129],[68.6186,23.7489],[68.6581,23.7992],[68.6794,23.7916],[68.7146,23.8241],[68.766,23.8422],[68.7823,23.8606],[68.7697,23.8759],[68.7628,23.851],[68.726,23.8369],[68.6554,23.8397],[68.5235,23.7464],[68.5192,23.7731],[68.4902,23.7327],[68.4329,23.7337],[68.3763,23.619],[68.3827,23.6079],[68.3105,23.5674],[68.2657,23.5683],[68.2784,23.6004],[68.2649,23.6325],[68.2261,23.6465],[68.2611,23.6546],[68.3259,23.7259],[68.291,23.7243],[68.2403,23.6712],[68.1867,23.723],[68.2112,23.7698],[68.2074,23.8372],[68.2221,23.8313],[68.2408,23.8493],[68.2556,23.835],[68.2675,23.8377],[68.2573,23.876],[68.2747,23.9179],[68.3065,23.9135],[68.3188,23.9235],[68.2745,23.9371],[68.2377,23.9001],[68.1856,23.8863],[68.1897,23.851],[68.1361,23.8695],[68.1427,23.8406],[68.1035,23.8555],[68.1044,23.8432],[68.076,23.8332],[68.053,23.8537],[68.0553,23.903],[68.042,23.9118],[68.0277,23.8692],[68.0446,23.7949],[67.9962,23.7867],[67.9202,23.8517],[67.9298,23.829],[67.872,23.8586],[67.8655,23.9024],[67.9027,23.9647],[67.8939,23.975],[67.8456,23.9091],[67.8274,23.8136],[67.709,23.8562],[67.7502,23.8014],[67.652,23.7945],[67.6269,23.8088],[67.6261,23.8423],[67.5841,23.8388],[67.5762,23.8889],[67.5651,23.8682],[67.5355,23.893],[67.5343,23.8753],[67.4655,23.9066],[67.4626,23.9205],[67.491,23.9139],[67.4855,23.9373],[67.4661,23.9453],[67.5007,23.9698],[67.4224,23.9449],[67.4361,23.9916],[67.4083,24.0],[67.4218,24.0024],[67.4092,24.0391],[67.438,24.0636],[67.4183,24.0872],[67.4465,24.1202],[67.4088,24.084],[67.405,24.0763],[67.4014,24.0464],[67.3785,24.0686],[67.3897,24.062]]]]}}