{"type":"Feature","properties":{"speciesId":4,"category":"LC","source":"IUCN Red List","simplifyTol":0.01,"clippedToSubcontinent":true},"geometry":{"type":"Polygon","coordinates":[[[80.7453,31.9928],[80.9719,31.9638],[81.6897,31.3265],[83.6731,30.3813],[85.1087,29.3734],[86.2043,28.963],[86.5254,28.4195],[86.4309,28.1547],[86.1287,27.9337],[85.8454,27.9337],[85.3731,28.4048],[84.0131,28.8309],[83.0309,29.1829],[81.8031,29.8268],[80.953,29.8268],[80.2578,30.5897],[79.083,30.9344],[78.4785,31.6164],[78.3652,32.2529],[78.7619,32.6424],[79.3286,32.6712],[79.763,32.6424],[80.7453,31.9928]]]}}