{"type":"Feature","properties":{"speciesId":400,"category":"LC","source":"IUCN Red List","simplifyTol":0.01,"clippedToSubcontinent":true},"geometry":{"type":"MultiPolygon","coordinates":[[[[72.8502,18.7868],[72.844,18.7916],[72.8501,18.7971],[72.8502,18.7868]]],[[[72.9321,18.9527],[72.9223,18.9629],[72.9424,18.9688],[72.9389,18.9654],[72.9321,18.9527]]],[[[74.2345,14.7079],[74.2316,14.7096],[74.2353,14.7098],[74.2345,14.7079]]],[[[74.0961,14.8432],[74.0918,14.8414],[74.0919,14.8455],[74.0961,14.8432]]],[[[74.1,14.8622],[74.0991,14.8645],[74.0999,14.8645],[74.1,14.8622]]],[[[74.0919,14.8759],[74.0891,14.8748],[74.0899,14.8778],[74.0919,14.8759]]],[[[74.7216,13.2204],[74.7182,13.2214],[74.7202,13.2234],[74.7216,13.2204]]],[[[74.7261,13.2235],[74.7246,13.2251],[74.7253,13.2255],[74.7261,13.2235]]],[[[74.7132,13.2372],[74.7113,13.2373],[74.7126,13.2378],[74.7132,13.2372]]],[[[74.6958,13.2754],[74.6923,13.2776],[74.6953,13.2789],[74.6958,13.2754]]],[[[74.693,13.2828],[74.6916,13.281],[74.6919,13.283],[74.693,13.2828]]],[[[74.6866,13.3263],[74.685,13.3266],[74.6858,13.3272],[74.6866,13.3263]]],[[[74.6783,13.3402],[74.6771,13.3389],[74.6772,13.3399],[74.6783,13.3402]]],[[[74.6725,13.3593],[74.6723,13.3617],[74.6735,13.361],[74.6725,13.3593]]],[[[74.6668,13.3763],[74.6665,13.373],[74.6652,13.3757],[74.6668,13.3763]]],[[[74.4835,14.0238],[74.4799,14.0248],[74.4835,14.0253],[74.4835,14.0238]]],[[[74.4666,14.084],[74.4634,14.0859],[74.4654,14.0868],[74.4666,14.084]]],[[[74.4786,14.0953],[74.4748,14.0931],[74.4746,14.0957],[74.4786,14.0953]]],[[[74.4706,14.1051],[74.4668,14.1079],[74.4689,14.1094],[74.4706,14.1051]]],[[[74.3985,14.3133],[74.3938,14.3089],[74.3921,14.3117],[74.3985,14.3133]]],[[[74.2486,14.6996],[74.246,14.702],[74.2488,14.7011],[74.2486,14.6996]]],[[[86.8665,21.5515],[86.8665,21.2641],[86.8168,21.1382],[86.8634,21.0366],[86.6984,20.4755],[86.4293,20.072],[86.0258,19.8702],[85.017,19.4667],[84.5463,18.7942],[83.8401,18.1889],[83.3357,17.8526],[83.2152,17.5903],[83.0229,17.5088],[82.9939,17.4732],[82.8843,17.4241],[82.8832,17.4381],[82.8655,17.4155],[82.6724,17.3253],[82.4936,17.2121],[82.3913,17.1161],[82.2597,17.0456],[82.2561,16.8663],[82.3269,16.7766],[82.2626,16.5612],[82.1874,16.5106],[81.9571,16.4067],[81.6677,16.3349],[81.5325,16.359],[81.4535,16.3547],[81.3307,16.3152],[81.2828,16.284],[81.2018,16.179],[81.1881,16.1455],[81.2125,16.1759],[81.2037,16.1208],[81.1837,16.1041],[81.1099,15.9417],[81.0499,15.9049],[80.9927,15.8316],[81.0029,15.7705],[81.028,15.7616],[81.0114,15.7438],[80.881,15.7678],[80.7801,15.9023],[80.5329,15.8542],[80.4102,15.8014],[80.2936,15.7047],[80.2494,15.6334],[80.1996,15.4623],[80.0957,15.329],[80.0826,15.2577],[80.0916,15.2278],[80.0747,15.1873],[80.0646,15.1906],[80.0736,15.1742],[80.0452,15.0673],[80.0872,14.8059],[80.1082,14.754],[80.1587,14.3248],[80.1263,14.2069],[80.1383,14.0834],[80.2487,13.7996],[80.2329,13.6455],[80.2671,13.5596],[80.2757,13.4476],[80.3405,13.3396],[80.3464,13.304],[80.2956,13.1211],[80.3049,13.0927],[80.2609,13.0127],[80.2741,13.0056],[80.2429,12.8158],[80.2476,12.7533],[80.1758,12.5813],[80.1868,12.5753],[80.1569,12.4775],[80.1353,12.4587],[80.1454,12.4454],[80.0463,12.3104],[80.067,12.3502],[80.0576,12.351],[79.8819,12.0511],[79.8342,11.9097],[79.8187,11.9071],[79.8333,11.902],[79.799,11.791],[79.7377,11.699],[79.7641,11.6304],[79.7574,11.5668],[79.7719,11.4914],[79.8104,11.4524],[79.8388,11.3486],[79.8471,11.2392],[79.8252,11.2306],[79.8497,11.2282],[79.8597,11.1777],[79.8591,10.5846],[79.8386,10.2867],[79.7578,10.2712],[79.5304,10.3131],[79.3983,10.3201],[79.3055,10.2651],[79.271,10.2303],[79.2771,10.2105],[79.2469,10.1844],[79.2292,10.1355],[78.8634,9.6478],[78.8971,9.4124],[78.9979,9.2779],[78.902,9.246],[78.8657,9.2509],[78.7415,9.2067],[78.717,9.1843],[78.6512,9.1917],[78.6456,9.1635],[78.5237,9.1303],[78.492,9.1252],[78.4912,9.1361],[78.3254,9.0762],[78.1573,8.8744],[78.0228,8.4037],[77.6966,8.159],[77.5938,8.1399],[77.5609,8.1154],[77.5587,8.0934],[77.4736,8.0828],[77.3183,8.1173],[77.2807,8.1564],[77.239,8.1734],[76.9771,8.3876],[76.6206,8.8431],[76.5464,8.8985],[76.5204,8.9993],[76.4617,9.1312],[76.497,9.067],[76.4753,9.1197],[76.4848,9.1159],[76.4921,9.1672],[76.4748,9.1621],[76.4709,9.1412],[76.4405,9.2326],[76.4196,9.2432],[76.4551,9.1423],[76.3343,9.4274],[76.2446,9.9545],[76.1596,10.1757],[76.0725,10.4885],[75.8034,11.2283],[75.7615,11.2642],[75.7296,11.3316],[75.7333,11.354],[75.6866,11.4353],[75.6174,11.4744],[75.5851,11.5587],[75.597,11.5363],[75.5912,11.562],[75.6041,11.561],[75.5822,11.5708],[75.5294,11.6966],[75.5386,11.7048],[75.4917,11.7339],[75.4716,11.769],[75.451,11.7697],[75.3893,11.8467],[75.3522,11.8601],[75.3004,11.9467],[75.2377,12.0138],[75.2249,12.0211],[75.2004,12.0032],[75.1677,12.067],[75.0648,12.3407],[75.0296,12.3922],[75.0386,12.4111],[75.0229,12.3997],[75.0063,12.4371],[75.0154,12.4444],[74.9979,12.4456],[74.8913,12.6853],[74.7929,12.967],[74.776,13.0949],[74.7699,13.0782],[74.6921,13.3488],[74.6657,13.6381],[74.6428,13.6709],[74.6058,13.8523],[74.6169,13.8576],[74.565,13.9466],[74.5278,13.9626],[74.505,14.0011],[74.464,14.1872],[74.4092,14.308],[74.3953,14.4186],[74.3765,14.4165],[74.3538,14.5117],[74.3052,14.5196],[74.2912,14.5931],[74.2635,14.6245],[74.2946,14.6402],[74.2751,14.6467],[74.2756,14.6779],[74.2537,14.7068],[74.2633,14.7094],[74.2647,14.7201],[74.2582,14.7122],[74.2215,14.7472],[74.1993,14.7176],[74.1765,14.7446],[74.1525,14.7463],[74.11,14.7994],[74.1249,14.8405],[74.1079,14.8451],[74.0912,14.8945],[74.0369,14.9199],[74.0487,14.9568],[74.0298,14.9815],[74.0476,14.9848],[73.9172,15.0863],[73.9118,15.1089],[73.9458,15.1408],[73.8821,15.3452],[73.862,15.3694],[73.8357,15.361],[73.8032,15.377],[73.7826,15.4127],[73.8714,15.3981],[73.8899,15.4192],[73.8764,15.4337],[73.8584,15.4258],[73.845,15.4491],[73.7822,15.4597],[73.8153,15.5064],[73.7574,15.4939],[73.731,15.6146],[73.6872,15.7154],[73.6509,15.7384],[73.655,15.7734],[73.6238,15.8436],[73.5838,15.9077],[73.552,15.925],[73.5169,16.0032],[73.4247,16.2798],[73.4392,16.2897],[73.4232,16.2842],[73.3871,16.3925],[73.4084,16.4088],[73.3838,16.4025],[73.3714,16.4397],[73.3812,16.4487],[73.3695,16.4452],[73.3318,16.5583],[73.3553,16.506],[73.3708,16.5129],[73.3474,16.5549],[73.3569,16.5645],[73.3174,16.6016],[73.3479,16.5967],[73.3593,16.6253],[73.3362,16.6211],[73.3218,16.6378],[73.3276,16.6797],[73.3429,16.6911],[73.3158,16.6968],[73.3005,16.7511],[73.3179,16.8014],[73.2954,16.8117],[73.2851,16.8783],[73.3048,16.8844],[73.2838,16.89],[73.2802,16.9222],[73.2937,16.9705],[73.3057,16.9717],[73.273,16.9875],[73.267,17.0412],[73.2902,17.0061],[73.2813,17.0365],[73.3264,17.0286],[73.2797,17.0446],[73.2914,17.0704],[73.2685,17.1133],[73.2322,17.2828],[73.2569,17.2599],[73.2657,17.2889],[73.297,17.2812],[73.2909,17.2948],[73.238,17.2903],[73.2236,17.3203],[73.0797,17.9535],[72.984,18.2408],[73.063,18.2177],[73.0702,18.1968],[73.0672,18.2708],[73.0525,18.2857],[73.0458,18.2672],[73.0234,18.2662],[72.9604,18.315],[72.9039,18.4947],[72.9047,18.5384],[72.9213,18.5286],[72.9616,18.5423],[72.9202,18.5479],[72.884,18.6304],[72.898,18.631],[72.8737,18.6398],[72.8589,18.711],[72.8701,18.8028],[72.9142,18.7924],[72.9356,18.8241],[72.9886,18.7759],[72.999,18.7794],[72.9859,18.8052],[73.0578,18.8027],[72.9898,18.8116],[72.9821,18.8626],[72.9381,18.847],[72.9069,18.8865],[72.9247,18.9098],[72.942,18.8943],[72.9495,18.9458],[72.9772,18.9461],[72.9539,18.9701],[73.0908,18.9988],[73.0667,19.0143],[73.0847,19.0314],[73.0644,19.0292],[73.0904,19.0457],[73.0061,19.005],[72.9844,19.0708],[72.9952,19.0869],[72.9764,19.1069],[72.9764,19.1707],[72.9642,19.1353],[72.9522,19.1374],[72.9569,19.1077],[72.9307,19.0904],[72.9472,19.068],[72.9137,19.0744],[72.9517,19.0432],[72.9034,18.9938],[72.8784,19.0226],[72.8573,19.0094],[72.8176,18.9089],[72.8048,18.9705],[72.8126,19.0202],[72.8597,19.0602],[72.8179,19.0482],[72.8248,19.087],[72.808,19.1435],[72.7926,19.1315],[72.7804,19.1626],[72.8011,19.1976],[72.7783,19.1922],[72.7799,19.2804],[72.7907,19.3107],[72.8107,19.2999],[72.8444,19.316],[72.9155,19.2908],[72.869,19.3343],[72.8509,19.3431],[72.8024,19.3314],[72.7583,19.3757],[72.7663,19.3956],[72.7441,19.4603],[72.7564,19.4738],[72.7174,19.5775],[72.7187,19.5967],[72.7449,19.6026],[72.7289,19.6097],[72.709,19.678],[72.7146,19.747],[72.7037,19.7423],[72.6869,19.9433],[72.7196,19.969],[72.76,19.9233],[72.7451,19.9679],[72.7216,19.9802],[72.7068,20.0701],[72.731,20.0951],[72.7448,20.1954],[72.7794,20.207],[72.7456,20.203],[72.7421,20.2227],[72.7967,20.3474],[72.8183,20.3657],[72.8453,20.4584],[72.8869,20.5046],[72.8771,20.5274],[72.8946,20.5296],[72.8828,20.5439],[72.9116,20.61],[72.8936,20.6657],[72.9087,20.7111],[72.8907,20.7199],[72.9241,20.7558],[72.9519,20.755],[72.9425,20.7755],[72.9178,20.7699],[72.9199,20.7893],[72.91,20.7807],[72.8745,20.8015],[72.896,20.8134],[72.8756,20.8245],[72.8948,20.8665],[72.8268,20.8292],[72.8547,20.86],[72.8245,20.8829],[72.8351,20.9065],[72.8491,20.9044],[72.8239,20.9212],[72.8822,20.9546],[72.8765,20.9718],[72.8944,20.9825],[72.8308,20.9734],[72.8387,20.9855],[72.8052,20.9872],[72.8241,21.0145],[72.7661,21.0042],[72.7539,20.9885],[72.7435,21.0135],[72.7419,21.0289],[72.7856,21.0461],[72.8068,21.0247],[72.8457,21.0319],[72.8559,21.0658],[72.8297,21.0602],[72.8388,21.0687],[72.8227,21.0878],[72.8419,21.1137],[72.8215,21.0977],[72.8145,21.1053],[72.8304,21.1146],[72.8143,21.1191],[72.8114,21.1483],[72.8316,21.1672],[72.8059,21.1497],[72.8016,21.1242],[72.7904,21.1447],[72.7878,21.11],[72.7636,21.1227],[72.7569,21.1046],[72.7475,21.1288],[72.734,21.1085],[72.7112,21.3365],[72.7365,21.3238],[72.7103,21.3449],[72.6972,21.459],[72.6781,21.4977],[72.7409,21.5657],[72.8165,21.6136],[72.8406,21.6659],[72.9193,21.6478],[73.1089,21.7201],[73.0803,21.7366],[72.9438,21.6753],[72.8728,21.6882],[72.8047,21.661],[72.7776,21.6604],[72.7389,21.6861],[72.6397,21.6771],[72.6128,21.8025],[72.6458,21.8329],[72.6405,21.8591],[72.6578,21.8942],[72.675,21.8872],[72.6682,21.9049],[72.6874,21.9044],[72.6878,21.886],[72.7223,21.8841],[72.7187,21.9318],[72.7511,21.9531],[72.7776,21.9495],[72.7647,21.9815],[72.746,21.988],[72.7719,22.0014],[72.7754,22.0168],[72.735,21.9912],[72.7186,22.0205],[72.718,21.9943],[72.7074,21.9796],[72.6933,21.9852],[72.6999,21.9716],[72.6719,21.9749],[72.6605,21.9605],[72.6465,21.9619],[72.6488,21.9881],[72.6368,22.0028],[72.6401,21.9548],[72.6281,21.9705],[72.6332,21.9546],[72.5664,21.9162],[72.517,22.0274],[72.5471,22.1572],[72.579,22.1986],[72.6321,22.2166],[72.7419,22.1758],[72.7668,22.1936],[72.7581,22.2163],[72.7121,22.2444],[72.6273,22.255],[72.6127,22.2672],[72.6495,22.2643],[72.6288,22.2759],[72.5679,22.2652],[72.6219,22.2837],[72.5708,22.2739],[72.5231,22.2332],[72.5056,22.2389],[72.7098,22.9975],[73.0125,23.401],[73.3824,23.8045],[74.2566,24.1071],[75.2318,24.3089],[76.2406,24.4434],[77.552,24.5106],[79.536,24.5443],[81.2509,24.4098],[84.6808,23.5355],[86.2276,22.3922],[86.8665,21.5515]]],[[[73.0594,19.0065],[73.0493,19.0066],[73.0566,19.0171],[73.0594,19.0065]]],[[[72.8672,19.3274],[72.8447,19.3312],[72.838,19.3354],[72.8516,19.3378],[72.8672,19.3274]]],[[[72.7371,19.4707],[72.7327,19.4608],[72.7286,19.4696],[72.7371,19.4707]]],[[[72.8793,20.6887],[72.89,20.6884],[72.8883,20.6806],[72.8793,20.6887]]],[[[72.8754,20.6968],[72.8736,20.7013],[72.8757,20.6977],[72.8754,20.6968]]],[[[72.877,20.7253],[72.8723,20.7044],[72.8669,20.7173],[72.877,20.7253]]],[[[72.8752,20.7521],[72.8613,20.7556],[72.8767,20.754],[72.8752,20.7521]]],[[[72.8436,20.7883],[72.8407,20.7969],[72.8444,20.7987],[72.8436,20.7883]]],[[[72.8415,20.8054],[72.8298,20.8063],[72.7824,20.9205],[72.8226,20.8256],[72.8415,20.8054]]],[[[72.817,20.91],[72.807,20.9073],[72.8173,20.919],[72.817,20.91]]],[[[72.7868,20.9919],[72.7723,20.9793],[72.7658,20.9849],[72.7751,20.9933],[72.7868,20.9919]]],[[[72.8453,21.0376],[72.8357,21.0425],[72.8453,21.0424],[72.8453,21.0376]]],[[[72.8726,20.768],[72.8648,20.7678],[72.866,20.7692],[72.8726,20.768]]],[[[72.9361,20.7636],[72.932,20.7705],[72.9412,20.7674],[72.9361,20.7636]]],[[[72.856,20.7635],[72.8446,20.7707],[72.8409,20.7796],[72.856,20.7635]]],[[[72.7402,21.6376],[72.8073,21.6385],[72.7932,21.6206],[72.6902,21.5999],[72.674,21.5873],[72.6865,21.5808],[72.6623,21.5716],[72.6491,21.6334],[72.7358,21.6496],[72.7402,21.6376]]],[[[72.8784,21.6802],[72.8683,21.6724],[72.8578,21.6764],[72.8784,21.6802]]],[[[72.5105,22.2179],[72.5039,22.2326],[72.5175,22.2305],[72.5105,22.2179]]],[[[72.6615,22.2445],[72.7191,22.2376],[72.7317,22.2225],[72.6615,22.2445]]]]}}