{"type":"Feature","properties":{"speciesId":405,"category":"LC","source":"IUCN Red List","simplifyTol":0.01,"clippedToSubcontinent":true},"geometry":{"type":"MultiPolygon","coordinates":[[[[70.1971,31.8653],[69.0456,30.7942],[67.7695,29.901],[66.8125,29.4544],[66.621,29.3905],[65.9192,29.6777],[65.983,29.7734],[66.0787,30.1881],[66.4615,30.9218],[66.621,31.3047],[67.1315,31.3685],[67.4505,31.2728],[67.7057,31.3685],[67.8971,31.6875],[68.4076,31.8789],[68.7585,31.7513],[69.0137,31.6875],[69.1413,31.7194],[69.3646,32.4531],[69.4078,32.5444],[70.1971,31.8653]]],[[[61.7687,38.0],[61.9958,37.2657],[62.1574,37.0983],[62.3193,37.0497],[62.4897,37.0467],[62.6803,37.2149],[62.6946,37.3675],[62.5436,38.0],[70.2988,38.0],[70.247,37.9625],[70.2569,37.9332],[70.2176,37.9369],[70.2001,37.9186],[70.1672,37.9406],[70.1555,37.9134],[70.1687,37.8581],[70.2413,37.8217],[70.2778,37.7341],[70.2847,37.6985],[70.2582,37.6632],[70.25,37.6122],[70.2082,37.6118],[70.1951,37.572],[70.1601,37.5389],[70.1176,37.5304],[69.9591,37.5657],[69.921,37.6142],[69.8855,37.6171],[69.8047,37.5843],[69.7498,37.6],[69.6624,37.5764],[69.5794,37.5816],[69.4988,37.552],[69.4087,37.4603],[69.3835,37.4577],[69.3718,37.3905],[69.4111,37.2938],[69.4153,37.2404],[69.4469,37.2364],[69.4487,37.223],[69.4121,37.1939],[69.4021,37.1653],[69.3573,37.1548],[69.3369,37.1296],[69.2714,37.0998],[69.2431,37.0974],[69.1229,37.1666],[68.9819,37.322],[68.8853,37.3376],[68.8884,37.3115],[68.9227,37.2932],[68.9227,37.2746],[68.8815,37.2837],[68.8673,37.3194],[68.8384,37.3267],[68.8088,37.3203],[68.824,37.2462],[68.7595,37.2823],[68.6554,37.2722],[68.6661,37.2497],[68.6351,37.2415],[68.625,37.1995],[68.5512,37.1916],[68.5249,37.1643],[68.4064,37.1469],[68.4129,37.1074],[68.3708,37.0992],[68.312,37.1154],[68.2825,37.1034],[68.272,37.0744],[68.2839,37.0191],[68.2467,37.0057],[68.1843,37.0242],[68.1137,36.9644],[68.0207,36.9251],[67.9085,37.0152],[67.8813,37.0669],[67.788,37.0941],[67.776,37.1108],[67.7807,37.1842],[67.7643,37.2147],[67.6496,37.2512],[67.5668,37.2163],[67.548,37.2211],[67.5264,37.27],[67.4949,37.2852],[67.3948,37.2167],[67.3166,37.2097],[67.264,37.1867],[67.2291,37.1937],[67.1775,37.2667],[67.1156,37.2799],[67.0958,37.3458],[67.0155,37.3839],[66.7716,37.3699],[66.6824,37.3399],[66.6309,37.3616],[66.5224,37.3649],[66.4425,37.3208],[66.412,37.3468],[66.2602,37.3429],[66.0493,37.4462],[65.6318,37.3386],[65.5719,37.2628],[65.5261,37.2492],[65.3042,37.2466],[64.9939,37.1751],[64.7817,37.0276],[64.8014,36.9388],[64.6345,36.6869],[64.6078,36.5976],[64.6315,36.5278],[64.6295,36.4444],[64.515,36.2853],[64.4484,36.2407],[64.4166,36.2495],[64.325,36.2202],[64.2847,36.1535],[64.2772,36.1709],[64.1975,36.1714],[64.1246,36.1391],[64.0592,36.0877],[64.0691,36.0023],[64.0006,36.0392],[63.9334,36.0457],[63.8004,35.9865],[63.6489,35.9702],[63.5843,35.9504],[63.5297,35.9053],[63.355,35.8607],[63.1943,35.7232],[63.2367,35.6967],[63.1374,35.653],[63.0995,35.6005],[63.1036,35.5492],[63.1241,35.5385],[63.0885,35.4292],[62.9846,35.4166],[62.8379,35.3261],[62.7668,35.2999],[62.7309,35.2581],[62.6228,35.2212],[62.5545,35.2346],[62.5158,35.2755],[62.4622,35.2884],[62.3054,35.1488],[62.2707,35.2029],[62.2725,35.2831],[62.2532,35.3019],[61.8039,35.3243],[61.1678,35.506],[61.1298,34.6437],[60.9002,34.1845],[60.0,34.2971],[60.0,38.0],[61.7687,38.0]]],[[[71.7598,37.7778],[71.7756,37.6223],[71.5306,36.9216],[71.4977,36.8927],[71.4674,36.919],[71.4542,36.9532],[71.4621,37.002],[71.4278,37.0665],[71.4371,37.1732],[71.4529,37.1824],[71.4489,37.2088],[71.4962,37.3082],[71.4959,37.3668],[71.441,37.2808],[71.4004,37.0455],[71.3744,37.0789],[71.4063,37.5574],[71.3879,37.9085],[71.3396,37.891],[71.2961,37.9227],[71.254,37.924],[71.2658,37.9859],[71.2842,38.0],[71.655,38.0],[71.7598,37.7778]]]]}}