{"type":"Feature","properties":{"speciesId":406,"category":"LC","source":"IUCN Red List","simplifyTol":0.01,"clippedToSubcontinent":true},"geometry":{"type":"MultiPolygon","coordinates":[[[[95.1481,5.5496],[95.16,5.5609],[95.1687,5.5572],[95.1651,5.5484],[95.1481,5.5496]]],[[[95.1766,5.5707],[95.1899,5.5783],[95.2094,5.5765],[95.1998,5.5714],[95.1766,5.5707]]],[[[95.137,5.5921],[95.1138,5.6084],[95.1404,5.6576],[95.1864,5.6057],[95.137,5.5921]]],[[[95.0797,5.6372],[95.0535,5.6194],[95.0461,5.6207],[95.0503,5.6374],[95.0797,5.6372]]],[[[95.0594,5.7485],[95.1341,5.663],[95.0728,5.6668],[95.0494,5.6444],[95.0602,5.6681],[95.0418,5.6688],[95.0586,5.6868],[95.0399,5.7078],[95.0581,5.7165],[95.0456,5.7323],[95.0093,5.725],[95.0293,5.7484],[95.0594,5.7485]]],[[[95.2869,5.8388],[95.2997,5.8668],[95.3217,5.8814],[95.313,5.8913],[95.3331,5.8926],[95.3736,5.847],[95.3742,5.8025],[95.3454,5.8252],[95.3354,5.773],[95.2859,5.778],[95.2549,5.8439],[95.218,5.8746],[95.2152,5.9044],[95.2869,5.8388]]],[[[93.8912,7.0949],[93.9251,7.0201],[93.9547,6.9984],[93.9206,6.9981],[93.95,6.9522],[93.9282,6.9466],[93.924,6.9097],[93.9074,6.8998],[93.9004,6.8466],[93.9191,6.8288],[93.9137,6.8025],[93.8934,6.7908],[93.8853,6.8065],[93.8663,6.8033],[93.8397,6.7471],[93.8175,6.7602],[93.8267,6.8034],[93.7974,6.8258],[93.8052,6.8429],[93.7851,6.866],[93.7998,6.8743],[93.773,6.9125],[93.7605,6.9036],[93.7512,6.9152],[93.7477,6.9585],[93.6883,7.0176],[93.6598,7.0112],[93.6711,7.0319],[93.6573,7.0934],[93.6718,7.1098],[93.6536,7.12],[93.678,7.1442],[93.6723,7.1738],[93.6879,7.1853],[93.7329,7.1823],[93.7622,7.2069],[93.8033,7.1959],[93.8043,7.2255],[93.8427,7.2369],[93.8429,7.2201],[93.8821,7.197],[93.8912,7.0949]]],[[[93.7148,7.218],[93.7113,7.2013],[93.7057,7.2258],[93.7148,7.218]]],[[[93.7233,7.3142],[93.6705,7.2797],[93.6453,7.2408],[93.6238,7.2634],[93.6236,7.3688],[93.6613,7.3675],[93.702,7.3899],[93.6946,7.4414],[93.7108,7.3892],[93.746,7.3621],[93.7233,7.3142]]],[[[93.4629,7.9157],[93.464,7.8666],[93.4193,7.899],[93.382,7.8756],[93.3568,7.8827],[93.3456,7.9032],[93.3617,7.9295],[93.3457,7.943],[93.3299,7.9121],[93.3126,7.9455],[93.3268,8.0],[93.3713,8.0189],[93.3914,8.0125],[93.4055,7.9631],[93.4629,7.9157]]],[[[93.5415,7.9984],[93.5585,8.0212],[93.5755,7.9936],[93.5728,7.9256],[93.5072,7.98],[93.5262,8.0229],[93.5415,7.9984]]],[[[93.5921,8.0386],[93.5698,8.0591],[93.5712,8.0722],[93.5845,8.0634],[93.5689,8.0914],[93.5767,8.112],[93.559,8.1088],[93.5605,8.1196],[93.5817,8.1185],[93.5921,8.0386]]],[[[93.5103,8.1714],[93.4996,8.1446],[93.5474,8.0776],[93.5429,8.0355],[93.5294,8.0475],[93.5052,8.0296],[93.4994,7.9923],[93.484,8.0109],[93.4839,8.0886],[93.4623,8.1053],[93.4713,8.1206],[93.4564,8.1165],[93.4513,8.1697],[93.4878,8.1987],[93.4908,8.2198],[93.5382,8.2269],[93.5349,8.1763],[93.5103,8.1714]]],[[[93.221,8.2279],[93.1996,8.2409],[93.2058,8.2633],[93.2216,8.249],[93.221,8.2279]]],[[[93.1148,8.275],[93.1821,8.2281],[93.1834,8.201],[93.1097,8.2255],[93.0744,8.2767],[93.0828,8.3384],[93.1143,8.3577],[93.1284,8.3425],[93.1148,8.275]]],[[[93.6286,8.3936],[93.634,8.3849],[93.6256,8.3915],[93.6286,8.3936]]],[[[93.0391,8.441],[93.0237,8.4516],[93.0301,8.471],[93.0422,8.4652],[93.0391,8.441]]],[[[93.6052,8.4193],[93.6102,8.4835],[93.5951,8.5693],[93.6254,8.4637],[93.6118,8.4665],[93.6052,8.4193]]],[[[92.8519,8.8165],[92.8578,8.8382],[92.8608,8.8389],[92.8519,8.8165]]],[[[92.8221,9.1389],[92.7726,9.1189],[92.7737,9.1384],[92.7352,9.1183],[92.7142,9.1414],[92.7122,9.2109],[92.7605,9.2171],[92.7668,9.2593],[92.8171,9.1878],[92.8221,9.1389]]],[[[93.2295,13.9736],[93.226,13.9869],[93.228,14.0164],[93.2383,13.9825],[93.2295,13.9736]]],[[[93.3704,14.0686],[93.3609,14.1446],[93.3735,14.1553],[93.3851,14.1488],[93.3839,14.1007],[93.3704,14.0686]]],[[[93.3777,14.1913],[93.3739,14.1813],[93.3641,14.1886],[93.3777,14.1913]]],[[[93.7065,14.919],[93.683,14.8725],[93.6696,14.8498],[93.7065,14.919]]],[[[95.119,15.6651],[95.1074,15.6644],[95.1104,15.6706],[95.119,15.6651]]],[[[95.0564,15.6728],[95.0718,15.6742],[95.0529,15.667],[95.0564,15.6728]]],[[[95.2044,15.6826],[95.2064,15.6698],[95.1831,15.6708],[95.189,15.6793],[95.2044,15.6826]]],[[[95.2757,15.6743],[95.2634,15.6823],[95.2779,15.6769],[95.2757,15.6743]]],[[[95.0196,15.7162],[95.0263,15.7323],[95.0611,15.738],[95.0605,15.7203],[95.0196,15.7162]]],[[[95.0549,15.8119],[95.0562,15.8294],[95.0646,15.8444],[95.0689,15.8164],[95.0549,15.8119]]],[[[94.7344,15.7929],[94.7913,15.9258],[94.8121,15.9418],[94.8402,15.869],[94.8107,15.7875],[94.7344,15.7929]]],[[[94.2838,15.8652],[94.2738,15.8646],[94.2795,15.8707],[94.2838,15.8652]]],[[[95.0666,15.8747],[95.0606,15.8772],[95.0651,15.8834],[95.0666,15.8747]]],[[[94.8309,15.9062],[94.8409,15.8952],[94.8422,15.884],[94.8346,15.8899],[94.8309,15.9062]]],[[[94.4628,15.9129],[94.4518,15.9193],[94.464,15.9157],[94.4628,15.9129]]],[[[94.5197,15.9423],[94.5213,15.9208],[94.515,15.9145],[94.5155,15.9292],[94.5197,15.9423]]],[[[95.3299,15.9568],[95.3321,15.9424],[95.3142,15.9296],[95.313,15.9345],[95.3299,15.9568]]],[[[95.2683,15.9572],[95.241,15.9118],[95.2678,15.9852],[95.2683,15.9572]]],[[[94.6603,15.9655],[94.6647,15.9598],[94.6597,15.9602],[94.6603,15.9655]]],[[[95.1026,15.9426],[95.1036,15.9645],[95.1207,15.9944],[95.1186,15.9526],[95.1026,15.9426]]],[[[95.2573,15.8591],[95.2349,15.8718],[95.273,15.9563],[95.28,16.022],[95.3264,16.0786],[95.3489,16.0],[95.2573,15.8591]]],[[[94.3218,15.978],[94.2823,15.9942],[94.3502,16.0084],[94.3218,15.978]]],[[[94.852,16.007],[94.8075,15.9799],[94.845,16.0629],[94.8619,16.0538],[94.852,16.007]]],[[[95.0846,16.0328],[95.0807,16.0085],[95.0752,16.0156],[95.0846,16.0328]]],[[[94.6923,16.0022],[94.7095,16.0423],[94.7171,16.0504],[94.7196,16.0274],[94.6923,16.0022]]],[[[94.5922,16.0997],[94.5718,16.0745],[94.573,16.0451],[94.5966,16.0307],[94.5938,16.0155],[94.5131,15.9889],[94.4469,15.9199],[94.3974,15.8322],[94.4109,15.8631],[94.3929,15.9017],[94.3863,16.0],[94.4535,16.0189],[94.5847,16.1991],[94.6492,16.2476],[94.6728,16.2032],[94.6594,16.1444],[94.5953,16.038],[94.5788,16.0516],[94.5922,16.0997]]],[[[95.1377,16.0363],[95.1026,15.9778],[95.0962,16.0279],[95.1202,16.0803],[95.1719,16.1117],[95.2087,16.1057],[95.1806,16.075],[95.1854,16.028],[95.1377,16.0363]]],[[[94.6173,16.0416],[94.6182,16.0528],[94.6513,16.0928],[94.6425,16.0649],[94.6173,16.0416]]],[[[95.1418,16.1198],[95.1617,16.1199],[95.1399,16.1177],[95.1418,16.1198]]],[[[94.665,16.1337],[94.6674,16.1206],[94.663,16.1192],[94.665,16.1337]]],[[[94.5203,16.1307],[94.537,16.151],[94.5448,16.1502],[94.5203,16.1307]]],[[[95.1362,16.1514],[95.1277,16.1379],[95.1335,16.1565],[95.1362,16.1514]]],[[[94.5233,16.2828],[94.5602,16.2407],[94.5347,16.2006],[94.5185,16.2316],[94.5233,16.2828]]],[[[94.6604,16.2697],[94.6579,16.2763],[94.6624,16.2782],[94.6604,16.2697]]],[[[94.6165,16.3223],[94.6499,16.3302],[94.6864,16.3779],[94.6279,16.2577],[94.5831,16.2228],[94.5746,16.2472],[94.6086,16.2773],[94.6165,16.3223]]],[[[94.6843,16.31],[94.678,16.2989],[94.6812,16.3123],[94.6843,16.31]]],[[[94.698,16.3876],[94.7021,16.3785],[94.6979,16.3684],[94.698,16.3876]]],[[[94.2308,16.3756],[94.2304,16.3866],[94.2321,16.3873],[94.2308,16.3756]]],[[[94.2472,16.516],[94.246,16.5378],[94.2493,16.5399],[94.2472,16.516]]],[[[94.5871,17.5687],[94.5919,17.5724],[94.5905,17.5607],[94.5871,17.5687]]],[[[94.0826,18.0583],[94.0958,18.0631],[94.0994,18.0544],[94.0883,18.0462],[94.0826,18.0583]]],[[[94.4448,18.1372],[94.4471,18.1291],[94.4425,18.1309],[94.4448,18.1372]]],[[[94.3767,18.3504],[94.3768,18.3426],[94.371,18.3442],[94.3767,18.3504]]],[[[93.9066,18.4304],[93.9055,18.4414],[93.9109,18.4304],[93.9066,18.4304]]],[[[94.2341,18.5377],[94.2478,18.5369],[94.2436,18.5307],[94.2341,18.5377]]],[[[93.7935,18.6657],[93.8008,18.6079],[93.7859,18.6024],[93.7754,18.6206],[93.7935,18.6657]]],[[[93.8182,18.7147],[93.811,18.7247],[93.8158,18.7252],[93.8182,18.7147]]],[[[94.0091,18.7307],[93.9915,18.7312],[93.9846,18.744],[93.9961,18.7475],[94.0091,18.7307]]],[[[93.7356,18.8791],[93.7474,18.7242],[93.7201,18.6758],[93.6913,18.6669],[93.6373,18.6853],[93.5448,18.7668],[93.4825,18.8677],[93.5766,18.8837],[93.6152,18.9146],[93.6532,18.873],[93.7102,18.8666],[93.7356,18.8791]]],[[[93.9726,18.8367],[93.975,18.8025],[93.9923,18.7854],[93.9608,18.78],[93.9393,18.8168],[93.9726,18.8367]]],[[[94.1157,18.8095],[94.0733,18.8313],[94.0678,18.8476],[94.0864,18.8476],[94.1155,18.8697],[94.1131,18.8492],[94.1376,18.8564],[94.1346,18.8248],[94.1157,18.8095]]],[[[93.5252,18.8954],[93.5329,18.8997],[93.5366,18.8949],[93.5252,18.8954]]],[[[94.0314,19.028],[94.0559,19.0356],[94.0332,19.0228],[94.0314,19.028]]],[[[94.0346,19.0609],[94.0346,19.0444],[94.0199,19.0422],[94.0186,19.0454],[94.0346,19.0609]]],[[[94.0101,19.1091],[94.0031,19.0962],[93.9972,19.103],[94.0101,19.1091]]],[[[93.8276,19.264],[93.8263,19.2521],[93.8195,19.2598],[93.8276,19.264]]],[[[93.7439,19.2818],[93.7604,19.2793],[93.7547,19.2753],[93.7439,19.2818]]],[[[93.8367,19.2933],[93.8451,19.2768],[93.8394,19.2715],[93.8351,19.2742],[93.8367,19.2933]]],[[[93.8623,19.2975],[93.8486,19.2721],[93.8502,19.296],[93.8623,19.2975]]],[[[93.8275,19.295],[93.8326,19.2758],[93.8046,19.266],[93.7747,19.2932],[93.8275,19.295]]],[[[94.0403,19.3418],[94.0502,19.3391],[94.042,19.3377],[94.0403,19.3418]]],[[[93.6422,19.3591],[93.6746,19.377],[93.6879,19.3625],[93.6631,19.3369],[93.6422,19.3591]]],[[[93.6776,19.3885],[93.6643,19.4031],[93.6631,19.4074],[93.6891,19.3979],[93.6776,19.3885]]],[[[93.6262,19.4295],[93.6429,19.4154],[93.6362,19.4039],[93.6262,19.4295]]],[[[93.6665,19.4201],[93.6616,19.429],[93.6675,19.4217],[93.6665,19.4201]]],[[[93.6089,19.4347],[93.614,19.4516],[93.6173,19.439],[93.6089,19.4347]]],[[[93.5902,19.4722],[93.5907,19.4761],[93.5981,19.4617],[93.5902,19.4722]]],[[[93.5311,19.4769],[93.5498,19.4732],[93.5522,19.4705],[93.5325,19.4645],[93.5311,19.4769]]],[[[93.6021,19.4703],[93.6064,19.4912],[93.6273,19.4906],[93.6441,19.4497],[93.6021,19.4703]]],[[[93.5338,19.4866],[93.5167,19.4802],[93.5149,19.5022],[93.5338,19.4866]]],[[[93.5163,19.5215],[93.5535,19.4855],[93.5751,19.4766],[93.5489,19.4801],[93.5163,19.5215]]],[[[93.8301,19.4819],[93.7709,19.5239],[93.7689,19.5315],[93.8592,19.5002],[93.8301,19.4819]]],[[[93.531,19.5284],[93.525,19.5391],[93.5334,19.5293],[93.531,19.5284]]],[[[93.6303,19.546],[93.6397,19.5666],[93.6662,19.5656],[93.6621,19.5474],[93.6303,19.546]]],[[[93.4999,19.5532],[93.5015,19.5447],[93.4903,19.5639],[93.4999,19.5532]]],[[[93.6007,19.5511],[93.5878,19.5576],[93.5987,19.5569],[93.6007,19.5511]]],[[[93.6597,19.5781],[93.6681,19.5679],[93.659,19.5753],[93.6597,19.5781]]],[[[93.7184,19.5938],[93.7067,19.5966],[93.7034,19.6042],[93.7184,19.5938]]],[[[93.6095,19.6292],[93.6304,19.6242],[93.635,19.6109],[93.6013,19.6075],[93.6095,19.6292]]],[[[93.6614,19.6301],[93.6539,19.6291],[93.6549,19.6392],[93.6614,19.6301]]],[[[93.5469,19.649],[93.5359,19.6551],[93.5373,19.6578],[93.5469,19.649]]],[[[93.6973,19.6616],[93.6921,19.6539],[93.6886,19.6621],[93.6973,19.6616]]],[[[93.5654,19.664],[93.5894,19.6599],[93.5687,19.6491],[93.5654,19.664]]],[[[93.495,19.7145],[93.5017,19.6741],[93.457,19.6907],[93.4077,19.7406],[93.4407,19.7464],[93.495,19.7145]]],[[[93.8138,19.7246],[93.8093,19.7149],[93.8121,19.7273],[93.8138,19.7246]]],[[[93.551,19.6856],[93.5246,19.6804],[93.5139,19.7164],[93.5825,19.7697],[93.5891,19.7461],[93.572,19.7093],[93.5452,19.7002],[93.551,19.6856]]],[[[93.5022,19.7176],[93.4726,19.7381],[93.5049,19.7199],[93.5022,19.7176]]],[[[93.6317,19.7182],[93.6559,19.7785],[93.6663,19.76],[93.6934,19.7879],[93.7046,19.7612],[93.69,19.7132],[93.6317,19.7182]]],[[[93.5772,19.782],[93.5583,19.7629],[93.5489,19.7621],[93.5456,19.7889],[93.5667,19.8012],[93.5772,19.782]]],[[[93.6721,19.8115],[93.6743,19.7998],[93.6318,19.7618],[93.5996,19.7099],[93.5916,19.7776],[93.6301,19.8135],[93.6423,19.8601],[93.7012,19.8521],[93.6721,19.8115]]],[[[93.4054,19.7978],[93.3997,19.8053],[93.4035,19.8074],[93.4054,19.7978]]],[[[93.7015,19.7919],[93.7354,19.8192],[93.7435,19.8326],[93.7368,19.7887],[93.7015,19.7919]]],[[[93.7771,19.7662],[93.717,19.7625],[93.7037,19.7795],[93.7469,19.7906],[93.7545,19.8254],[93.7409,19.8453],[93.7634,19.8635],[93.7925,19.8314],[93.7771,19.7662]]],[[[93.5925,19.8151],[93.5822,19.8035],[93.5446,19.8059],[93.583,19.8359],[93.5925,19.8151]]],[[[93.6806,19.7981],[93.6872,19.8262],[93.734,19.8509],[93.7327,19.8242],[93.6806,19.7981]]],[[[93.4978,19.8995],[93.5081,19.8392],[93.4692,19.8297],[93.4989,19.8214],[93.5212,19.7592],[93.5112,19.7345],[93.4446,19.7875],[93.3958,19.9583],[93.4275,19.9541],[93.4602,19.9091],[93.4978,19.8995]]],[[[93.5996,19.843],[93.5459,19.8272],[93.5471,19.8669],[93.594,19.8746],[93.6184,19.9037],[93.6589,19.9056],[93.5996,19.843]]],[[[93.6902,19.8775],[93.6744,19.8587],[93.6521,19.8729],[93.6831,19.8949],[93.739,19.8765],[93.6902,19.8775]]],[[[93.7226,19.8864],[93.7106,19.8934],[93.7238,19.8882],[93.7226,19.8864]]],[[[93.5199,19.9157],[93.5269,19.8703],[93.5187,19.8667],[93.5011,19.9039],[93.5199,19.9157]]],[[[93.6058,19.9024],[93.5855,19.8796],[93.5699,19.8837],[93.5936,19.9044],[93.6058,19.9024]]],[[[93.7264,19.9232],[93.7112,19.9182],[93.7097,19.9207],[93.7142,19.9279],[93.7264,19.9232]]],[[[93.5036,19.9304],[93.5031,19.9166],[93.4897,19.9217],[93.4945,19.9236],[93.5036,19.9304]]],[[[93.2272,19.8161],[93.1633,19.9447],[93.1267,20.0519],[93.1575,20.0248],[93.1809,19.9394],[93.2507,19.8162],[93.2272,19.8161]]],[[[93.4994,19.9347],[93.4678,19.935],[93.4991,19.9572],[93.4994,19.9347]]],[[[93.4711,19.9623],[93.4875,19.9522],[93.4629,19.939],[93.4711,19.9623]]],[[[93.0159,19.8894],[92.9159,20.0553],[92.926,20.0833],[92.9602,20.0616],[93.02,19.9194],[93.0358,19.8746],[93.0291,19.8189],[93.0159,19.8894]]],[[[93.0872,20.0864],[93.074,20.0766],[93.1218,20.0396],[93.1382,20.0047],[93.103,19.9467],[93.1733,19.787],[93.0568,19.9513],[93.0421,20.0089],[92.9793,20.0713],[92.9746,20.1264],[92.9967,20.1116],[93.0564,20.1218],[93.0872,20.0864]]],[[[93.4444,19.9893],[93.4635,19.9765],[93.4609,19.9581],[93.4495,19.9708],[93.4444,19.9893]]],[[[93.4831,19.9701],[93.4747,19.9808],[93.4747,19.9909],[93.497,19.9809],[93.4831,19.9701]]],[[[93.1585,20.0669],[93.1752,20.0428],[93.1373,20.0718],[93.1585,20.0669]]],[[[93.3349,20.0721],[93.3381,20.0574],[93.3333,20.0521],[93.3349,20.0721]]],[[[93.1285,20.062],[93.1188,20.0584],[93.1264,20.0691],[93.1285,20.062]]],[[[93.1178,20.089],[93.0855,20.1002],[93.0736,20.1239],[93.0877,20.1388],[93.1092,20.1359],[93.1267,20.079],[93.1119,20.0615],[93.0945,20.0858],[93.1178,20.089]]],[[[93.3059,20.1638],[93.3109,20.1152],[93.3309,20.0821],[93.2991,20.0481],[93.2885,20.1464],[93.3059,20.1638]]],[[[93.3256,20.1211],[93.328,20.1069],[93.313,20.1366],[93.3256,20.1211]]],[[[93.1956,20.0704],[93.1548,20.0721],[93.1272,20.0921],[93.1113,20.1403],[93.0981,20.1542],[93.123,20.1798],[93.1761,20.1878],[93.1898,20.168],[93.2242,20.1518],[93.2312,20.113],[93.2035,20.0935],[93.1956,20.0704]]],[[[93.0665,20.1258],[93.0674,20.1456],[93.0863,20.1643],[93.0895,20.1485],[93.0665,20.1258]]],[[[93.2806,20.1526],[93.2911,20.0604],[93.275,20.0333],[93.2176,20.0388],[93.1996,20.065],[93.2079,20.0922],[93.2467,20.116],[93.2292,20.1567],[93.1829,20.1916],[93.2081,20.2124],[93.2167,20.2346],[93.2528,20.2427],[93.2512,20.2636],[93.2766,20.2438],[93.3004,20.1904],[93.2837,20.158],[93.251,20.146],[93.2806,20.1526]]],[[[93.0953,20.1603],[93.095,20.1789],[93.1138,20.1767],[93.0953,20.1603]]],[[[93.3721,20.2413],[93.4112,20.1214],[93.4012,20.1103],[93.3839,20.1859],[93.3959,20.1024],[93.3666,20.084],[93.3799,20.0275],[93.3672,20.0156],[93.3556,20.0728],[93.3143,20.1414],[93.3067,20.2079],[93.2713,20.2575],[93.2776,20.2882],[93.2691,20.3011],[93.2839,20.3204],[93.3205,20.3269],[93.3364,20.2789],[93.3721,20.2413]]],[[[92.9544,20.1771],[92.9516,20.1975],[92.9752,20.2112],[92.978,20.1795],[92.9544,20.1771]]],[[[92.9488,20.2425],[92.9504,20.2119],[92.9238,20.1903],[92.9252,20.2444],[92.9488,20.2425]]],[[[92.9763,20.2319],[92.9744,20.2179],[92.9575,20.21],[92.9763,20.2319]]],[[[92.7343,20.2213],[92.7365,20.2369],[92.7405,20.2161],[92.7343,20.2213]]],[[[93.1963,20.2853],[93.143,20.2188],[93.1272,20.2428],[93.1284,20.2167],[93.0613,20.1595],[93.0187,20.1333],[92.9977,20.1385],[93.0012,20.2153],[93.0221,20.2687],[93.04,20.2773],[93.04,20.3263],[93.0911,20.3689],[93.12,20.3744],[93.1322,20.3447],[93.1199,20.3296],[93.1288,20.321],[93.1403,20.3166],[93.1334,20.3059],[93.1755,20.3243],[93.2129,20.3129],[93.2135,20.2929],[93.1963,20.2853]]],[[[93.2708,20.3147],[93.2636,20.2969],[93.2728,20.2683],[93.2385,20.2685],[93.2445,20.3053],[93.2708,20.3147]]],[[[93.2847,20.3436],[93.2902,20.3544],[93.286,20.3375],[93.2847,20.3436]]],[[[92.7522,20.3625],[92.751,20.3509],[92.7419,20.3554],[92.7522,20.3625]]],[[[92.8122,20.4063],[92.8665,20.3114],[92.8411,20.2875],[92.7758,20.2801],[92.7623,20.4323],[92.8202,20.4236],[92.8122,20.4063]]],[[[92.8454,20.3947],[92.8766,20.4023],[92.8908,20.3856],[92.8454,20.3947]]],[[[92.8278,20.4109],[92.8255,20.3996],[92.8166,20.4091],[92.8278,20.4109]]],[[[93.0397,20.3561],[93.038,20.423],[93.0899,20.5061],[93.1102,20.4209],[93.0785,20.4073],[93.0778,20.3641],[93.0397,20.3561]]],[[[92.7753,20.4392],[92.7559,20.4701],[92.7683,20.4705],[92.7973,20.4995],[92.8037,20.4826],[92.7789,20.4549],[92.7891,20.4417],[92.7753,20.4392]]],[[[92.7207,20.5712],[92.6979,20.5897],[92.6991,20.6048],[92.7207,20.5712]]],[[[92.6353,20.7243],[92.6335,20.6965],[92.6086,20.6838],[92.5844,20.7087],[92.6185,20.7141],[92.6353,20.7243]]],[[[92.5795,20.723],[92.5491,20.7402],[92.5512,20.757],[92.5627,20.7432],[92.5806,20.749],[92.5795,20.723]]],[[[92.3088,20.9121],[92.3159,20.9543],[92.3067,20.9822],[92.3326,20.9939],[92.3553,20.9436],[92.3446,20.9386],[92.3255,20.9092],[92.3088,20.9121]]],[[[92.2969,20.9277],[92.2813,20.9476],[92.3007,20.9774],[92.3098,20.9528],[92.2969,20.9277]]],[[[92.2566,21.0234],[92.2613,21.0311],[92.2623,21.0194],[92.2566,21.0234]]],[[[91.9017,21.5092],[91.8969,21.4671],[91.8684,21.4885],[91.8587,21.522],[91.8821,21.557],[91.8742,21.6069],[91.8913,21.6376],[91.8851,21.6807],[91.94,21.735],[91.9585,21.6702],[91.9875,21.6301],[91.9859,21.5872],[91.9727,21.5058],[91.9479,21.4896],[91.9017,21.5092]]],[[[92.0049,21.6227],[92.0135,21.6135],[92.0109,21.5983],[92.0082,21.6005],[92.0049,21.6227]]],[[[92.0347,21.6491],[92.0131,21.6296],[92.0032,21.6316],[92.0276,21.6687],[92.0347,21.6491]]],[[[91.886,21.7611],[91.9121,21.7468],[91.9045,21.7087],[91.8799,21.6822],[91.8806,21.6342],[91.8524,21.6604],[91.886,21.7611]]],[[[91.9207,21.73],[91.9187,21.7478],[91.9145,21.7585],[91.9416,21.7483],[91.9207,21.73]]],[[[91.9442,21.7597],[91.9078,21.7618],[91.8934,21.7677],[91.9417,21.7736],[91.9442,21.7597]]],[[[91.8783,21.8216],[91.8757,21.8544],[91.8714,21.8878],[91.8567,21.8746],[91.8745,21.8059],[91.8311,21.7169],[91.8468,21.8128],[91.8409,21.8963],[91.8725,21.922],[91.894,21.8587],[91.8783,21.8216]]],[[[91.8198,22.223],[91.8215,22.2134],[91.8145,22.2101],[91.8198,22.223]]],[[[91.7995,22.2839],[91.8095,22.2977],[91.8201,22.2775],[91.8119,22.272],[91.7995,22.2839]]],[[[95.3773,4.8558],[95.3642,4.8747],[95.387,4.8735],[95.3773,4.8558]]],[[[97.5884,5.1511],[97.5765,5.1602],[97.5769,5.1653],[97.5884,5.1511]]],[[[97.6512,8.4805],[97.6472,8.4754],[97.6391,8.4849],[97.6512,8.4805]]],[[[97.6364,8.5074],[97.6483,8.497],[97.6486,8.4951],[97.643,8.4952],[97.6364,8.5074]]],[[[97.6405,8.5687],[97.6363,8.5619],[97.6322,8.5734],[97.6405,8.5687]]],[[[97.636,8.5967],[97.6407,8.5914],[97.6377,8.5865],[97.636,8.5967]]],[[[97.6512,8.6601],[97.6524,8.6326],[97.6492,8.6287],[97.6368,8.66],[97.6512,8.6601]]],[[[97.6497,8.681],[97.641,8.6783],[97.6409,8.6802],[97.6497,8.681]]],[[[97.8027,8.828],[97.7962,8.8277],[97.8023,8.8294],[97.8027,8.828]]],[[[97.8181,9.0681],[97.8098,9.0731],[97.8084,9.0838],[97.8181,9.0681]]],[[[97.8627,9.3659],[97.8699,9.3699],[97.866,9.3651],[97.8627,9.3659]]],[[[97.8636,9.4241],[97.8627,9.405],[97.8825,9.3808],[97.8401,9.4145],[97.8636,9.4241]]],[[[97.8284,9.4188],[97.8347,9.4245],[97.8333,9.4187],[97.8284,9.4188]]],[[[97.8544,9.4554],[97.9037,9.4491],[97.9001,9.4218],[97.8775,9.4426],[97.8801,9.4145],[97.8462,9.4366],[97.8611,9.436],[97.8544,9.4554]]],[[[97.9799,9.6017],[97.9537,9.6382],[97.9762,9.6376],[97.9799,9.6017]]],[[[97.9119,9.6751],[97.904,9.6738],[97.911,9.6816],[97.9119,9.6751]]],[[[97.9924,10.0227],[97.986,10.0374],[97.9923,10.0489],[97.9924,10.0227]]],[[[97.9784,10.0757],[97.9935,10.0701],[97.9897,10.0531],[97.9758,10.0616],[97.9784,10.0757]]],[[[97.9628,10.1231],[97.9636,10.15],[97.9844,10.175],[97.9835,10.1325],[97.9731,10.1413],[97.9628,10.1231]]],[[[97.9321,10.1555],[97.916,10.1479],[97.9137,10.1544],[97.9321,10.1555]]],[[[97.8851,10.192],[97.8737,10.2003],[97.8819,10.2026],[97.8851,10.192]]],[[[98.0,10.3201],[97.9882,10.3267],[98.0,10.3565],[98.0,10.3201]]],[[[97.9732,10.3578],[97.9676,10.347],[97.9702,10.3617],[97.9732,10.3578]]],[[[97.9439,10.3462],[97.9419,10.3598],[97.9521,10.3678],[97.9439,10.3462]]],[[[97.9396,10.4023],[97.9507,10.3959],[97.9491,10.3912],[97.9396,10.4023]]],[[[97.9541,10.4173],[97.96,10.4338],[97.9637,10.4326],[97.9674,10.4091],[97.9541,10.4173]]],[[[97.9482,10.476],[97.9458,10.4198],[97.9207,10.4268],[97.9132,10.4151],[97.9425,10.4115],[97.8997,10.3938],[97.8991,10.4856],[97.9124,10.4938],[97.909,10.4651],[97.9482,10.476]]],[[[97.689,10.4663],[97.685,10.4575],[97.6794,10.4619],[97.689,10.4663]]],[[[97.9208,10.5161],[97.9126,10.4991],[97.898,10.4959],[97.8968,10.5042],[97.9208,10.5161]]],[[[98.0,10.5605],[97.9915,10.537],[97.9451,10.5591],[97.9812,10.5704],[98.0,10.5605]]],[[[97.9957,10.8498],[97.9915,10.8362],[97.9913,10.8487],[97.9957,10.8498]]],[[[97.9996,10.8825],[98.0,10.8828],[98.0,10.8814],[97.9996,10.8825]]],[[[97.9541,10.9303],[97.9448,10.867],[97.9226,10.8695],[97.8877,10.8415],[97.8927,10.8661],[97.9101,10.8674],[97.8944,10.8946],[97.9197,10.9295],[97.9541,10.9303]]],[[[97.9241,11.275],[97.932,11.2717],[97.925,11.2674],[97.9241,11.275]]],[[[97.9996,11.3836],[97.9922,11.3983],[97.999,11.4087],[98.0,11.4051],[97.9996,11.3836]]],[[[97.9814,11.449],[98.0,11.4351],[97.9723,11.4422],[97.9814,11.449]]],[[[97.5053,11.6437],[97.5034,11.6356],[97.4999,11.6363],[97.5053,11.6437]]],[[[97.4887,11.7622],[97.4402,11.8008],[97.4988,11.7733],[97.4887,11.7622]]],[[[97.5257,11.8144],[97.5285,11.7808],[97.4993,11.7818],[97.4781,11.8145],[97.5257,11.8144]]],[[[97.6782,11.8145],[97.66,11.8108],[97.6479,11.8162],[97.6782,11.8145]]],[[[97.4725,11.8145],[97.4711,11.8256],[97.4739,11.826],[97.4725,11.8145]]],[[[97.6742,11.8987],[97.6905,11.8764],[97.6752,11.8304],[97.6422,11.8705],[97.6742,11.8987]]],[[[98.0,11.9659],[97.9753,11.9511],[97.9697,11.9569],[98.0,11.9659]]],[[[97.9226,11.9877],[97.9311,11.9989],[97.9297,11.9857],[97.9226,11.9877]]],[[[97.7415,11.9906],[97.7355,12.0042],[97.7355,12.0086],[97.7549,11.9966],[97.7415,11.9906]]],[[[97.9849,12.0243],[97.9935,12.0019],[97.9683,12.014],[97.9849,12.0243]]],[[[97.6756,12.0571],[97.6889,12.052],[97.6528,12.0075],[97.6503,12.0337],[97.6756,12.0571]]],[[[97.7824,12.052],[97.7688,12.0359],[97.7609,12.0447],[97.7824,12.052]]],[[[97.9602,12.0269],[97.9533,12.058],[97.9612,12.0674],[97.9829,12.0531],[97.9626,12.0469],[97.9602,12.0269]]],[[[97.9443,12.0419],[97.9397,12.0445],[97.9451,12.0528],[97.9443,12.0419]]],[[[97.6354,12.057],[97.6463,12.036],[97.6342,12.0365],[97.6354,12.057]]],[[[97.9737,12.0957],[97.9849,12.0936],[97.9756,12.0814],[97.9737,12.0957]]],[[[97.9973,12.0954],[97.9887,12.1039],[97.9897,12.1104],[98.0,12.1081],[97.9973,12.0954]]],[[[97.9746,12.1048],[97.9682,12.1183],[97.9735,12.1183],[97.9746,12.1048]]],[[[97.7304,12.1119],[97.7141,12.1348],[97.7453,12.146],[97.748,12.1239],[97.7304,12.1119]]],[[[97.9811,12.13],[97.9745,12.1261],[97.9748,12.1337],[97.9811,12.13]]],[[[98.0,12.1232],[97.9979,12.1288],[97.9992,12.1421],[98.0,12.1232]]],[[[97.9377,12.2073],[97.927,12.2312],[97.9324,12.2427],[97.9398,12.2287],[97.9377,12.2073]]],[[[97.8679,12.242],[97.877,12.2434],[97.8678,12.2365],[97.8679,12.242]]],[[[97.802,12.2809],[97.7722,12.2629],[97.8035,12.3017],[97.802,12.2809]]],[[[97.9431,12.2818],[97.9553,12.2854],[97.96,12.2939],[97.9554,12.2751],[97.9431,12.2818]]],[[[97.8699,12.2982],[97.8839,12.2866],[97.8635,12.28],[97.8617,12.284],[97.8699,12.2982]]],[[[97.9704,12.2819],[97.9653,12.2893],[97.9698,12.2971],[97.9704,12.2819]]],[[[97.9945,12.2795],[97.9813,12.3091],[97.9605,12.3213],[97.9453,12.3129],[97.9786,12.3388],[97.9686,12.3623],[97.9425,12.3311],[97.9567,12.3773],[97.9746,12.3869],[97.9765,12.3649],[98.0,12.3864],[97.9945,12.2795]]],[[[97.8376,12.4512],[97.824,12.4268],[97.8255,12.4728],[97.8376,12.4512]]],[[[97.8027,12.4964],[97.795,12.5089],[97.7966,12.5111],[97.81,12.5065],[97.8027,12.4964]]],[[[97.8811,12.5643],[97.8529,12.539],[97.8266,12.5836],[97.8444,12.5842],[97.8491,12.6],[97.8811,12.5643]]],[[[97.8515,12.606],[97.8639,12.6069],[97.8573,12.6003],[97.8515,12.606]]],[[[97.8803,12.6204],[97.8634,12.6145],[97.8616,12.621],[97.8675,12.6274],[97.8803,12.6204]]],[[[97.8625,12.7683],[97.835,12.7875],[97.8557,12.8093],[97.8456,12.8203],[97.8716,12.8064],[97.8846,12.7737],[97.8625,12.7683]]],[[[97.9278,13.8521],[97.9134,13.7836],[97.9026,13.797],[97.9125,13.8685],[97.9278,13.8521]]],[[[97.9074,13.9421],[97.919,13.911],[97.9173,13.8862],[97.9074,13.9421]]],[[[97.8244,14.1246],[97.8045,14.109],[97.8013,14.1339],[97.8244,14.1246]]],[[[97.7883,14.176],[97.8243,14.1837],[97.8134,14.1559],[97.7919,14.1344],[97.7792,14.1517],[97.7883,14.176]]],[[[97.8008,14.2684],[97.8168,14.275],[97.81,14.2617],[97.8008,14.2684]]],[[[97.7677,14.3957],[97.7746,14.4127],[97.7835,14.4145],[97.7802,14.389],[97.7677,14.3957]]],[[[97.7758,14.4338],[97.7657,14.4376],[97.7782,14.4396],[97.7758,14.4338]]],[[[97.739,15.0756],[97.7358,15.0583],[97.7323,15.0554],[97.739,15.0756]]],[[[97.744,15.0871],[97.7371,15.088],[97.7381,15.0963],[97.744,15.0871]]],[[[97.7407,15.2026],[97.7301,15.2004],[97.7351,15.2073],[97.7407,15.2026]]],[[[97.6608,15.5668],[97.6552,15.494],[97.6462,15.5884],[97.6504,15.5634],[97.6608,15.5668]]],[[[95.3452,15.9714],[95.3453,15.9583],[95.3396,15.9546],[95.3452,15.9714]]],[[[95.3657,16.1657],[95.3296,16.116],[95.3213,16.1173],[95.3113,16.1457],[95.3251,16.1811],[95.3666,16.2017],[95.3657,16.1657]]],[[[95.881,16.2157],[95.8853,16.234],[95.8943,16.2393],[95.881,16.2157]]],[[[95.9078,16.2866],[95.9104,16.2657],[95.9016,16.2554],[95.9078,16.2866]]],[[[97.5912,16.331],[97.6161,16.2773],[97.5936,16.2399],[97.5768,16.2936],[97.5912,16.331]]],[[[95.9178,16.273],[95.913,16.3313],[95.9399,16.3786],[95.9563,16.3263],[95.9441,16.2473],[95.8751,16.2001],[95.9178,16.273]]],[[[96.0412,16.2625],[95.927,16.2097],[95.9558,16.2478],[95.9886,16.3774],[96.0187,16.3769],[96.0736,16.3414],[96.0818,16.3101],[96.0412,16.2625]]],[[[95.9615,16.2951],[95.9605,16.3331],[95.9577,16.3487],[95.9672,16.3175],[95.9615,16.2951]]],[[[96.0779,16.3521],[96.0805,16.3436],[96.0648,16.3563],[96.0779,16.3521]]],[[[97.5825,16.4071],[97.5904,16.3597],[97.5642,16.2884],[97.5721,16.2436],[97.559,16.2244],[97.5368,16.2263],[97.5009,16.2468],[97.4565,16.3187],[97.482,16.3525],[97.4418,16.4469],[97.472,16.4712],[97.449,16.4757],[97.5023,16.5124],[97.5793,16.4835],[97.6081,16.4883],[97.6115,16.4467],[97.5825,16.4071]]],[[[95.9343,16.3798],[95.9279,16.3735],[95.9334,16.3835],[95.9343,16.3798]]],[[[95.9544,16.4043],[95.9924,16.3848],[95.9658,16.3464],[95.9544,16.4043]]],[[[95.9515,16.3793],[95.9437,16.3836],[95.9477,16.39],[95.9515,16.3793]]],[[[96.0038,16.385],[95.9967,16.3987],[96.0071,16.3859],[96.0038,16.385]]],[[[95.9325,16.3958],[95.943,16.391],[95.9418,16.3884],[95.9325,16.3958]]],[[[97.6029,16.3816],[97.6051,16.4101],[97.606,16.3791],[97.6029,16.3816]]],[[[96.2944,16.4457],[96.3266,16.4653],[96.3211,16.447],[96.336,16.4437],[96.3069,16.408],[96.155,16.322],[96.1241,16.314],[96.0992,16.3264],[96.0897,16.3464],[96.1023,16.3716],[96.1432,16.3846],[96.1689,16.4176],[96.1488,16.4548],[96.1585,16.453],[96.1804,16.4603],[96.1895,16.4766],[96.1831,16.4835],[96.1985,16.4841],[96.1788,16.5142],[96.1851,16.5578],[96.1801,16.5847],[96.2356,16.5983],[96.2628,16.5187],[96.3026,16.4723],[96.2944,16.4457]]],[[[96.3185,16.4672],[96.3095,16.4759],[96.3192,16.4688],[96.3185,16.4672]]],[[[97.5739,16.4879],[97.5885,16.4907],[97.5905,16.4882],[97.5739,16.4879]]],[[[97.5449,16.512],[97.5467,16.5019],[97.5285,16.5115],[97.5449,16.512]]],[[[97.6083,16.5085],[97.5699,16.5187],[97.5555,16.5248],[97.6083,16.5085]]],[[[97.651,16.5202],[97.6557,16.5165],[97.6466,16.5085],[97.651,16.5202]]],[[[97.5148,16.5236],[97.4991,16.5271],[97.5211,16.5336],[97.5148,16.5236]]],[[[97.6647,16.5554],[97.6425,16.5285],[97.6276,16.5296],[97.6435,16.5772],[97.6647,16.5554]]],[[[97.7045,16.5644],[97.7111,16.5602],[97.7035,16.5633],[97.7045,16.5644]]],[[[97.6515,16.5872],[97.6508,16.5698],[97.6493,16.5865],[97.6515,16.5872]]],[[[97.6424,16.5868],[97.6325,16.5706],[97.6122,16.58],[97.6261,16.6184],[97.6424,16.5868]]],[[[96.3016,16.8571],[96.3107,16.8499],[96.3047,16.8419],[96.3016,16.8571]]],[[[97.1843,16.8505],[97.183,16.8705],[97.1928,16.8777],[97.1989,16.8658],[97.1843,16.8505]]],[[[96.6759,17.3462],[96.6652,17.3236],[96.655,17.3372],[96.6759,17.3462]]],[[[96.778,17.3694],[96.7677,17.3663],[96.7776,17.3754],[96.778,17.3694]]],[[[96.7884,17.3795],[96.7385,17.4383],[96.7865,17.4833],[96.8078,17.4389],[96.8428,17.407],[96.819,17.3837],[96.7884,17.3795]]],[[[96.2773,4.0002],[96.1485,4.1405],[96.1249,4.128],[96.0536,4.206],[96.023,4.196],[95.7128,4.5268],[95.6081,4.6162],[95.5654,4.6262],[95.5834,4.6462],[95.5723,4.6567],[95.5387,4.6473],[95.4818,4.7609],[95.4119,4.8179],[95.4253,4.8339],[95.3755,4.9197],[95.3694,4.9459],[95.3817,4.9568],[95.3555,4.9993],[95.3623,5.0194],[95.3045,5.0793],[95.3152,5.0834],[95.3041,5.1067],[95.2825,5.1073],[95.3068,5.1271],[95.3055,5.1652],[95.2368,5.2204],[95.2503,5.2267],[95.2336,5.2472],[95.2385,5.2724],[95.2113,5.2699],[95.2156,5.3179],[95.2336,5.3195],[95.2223,5.3417],[95.2331,5.3582],[95.239,5.3385],[95.2483,5.3663],[95.2286,5.4272],[95.2409,5.4467],[95.2295,5.4922],[95.1897,5.5228],[95.2202,5.5705],[95.2424,5.5512],[95.2806,5.5506],[95.3247,5.5899],[95.3527,5.5887],[95.4315,5.6564],[95.4651,5.6437],[95.5107,5.5957],[95.6132,5.6266],[95.6729,5.5857],[95.879,5.5067],[95.9042,5.427],[96.049,5.327],[96.0735,5.2929],[96.1823,5.2636],[96.2587,5.2634],[96.3882,5.2149],[96.465,5.2376],[96.4908,5.2046],[96.5305,5.2024],[96.6139,5.2144],[96.7202,5.2559],[96.8273,5.2776],[96.8553,5.2775],[96.8303,5.2714],[96.8998,5.2516],[96.9753,5.2665],[97.0818,5.2328],[97.1454,5.2],[97.1432,5.1623],[97.1981,5.1461],[97.5013,5.2528],[97.5468,5.2152],[97.5273,5.2057],[97.57,5.1904],[97.5722,5.1386],[97.6017,5.1419],[97.611,5.1139],[97.6525,5.1197],[97.648,5.0751],[97.806,4.9341],[97.9036,4.8846],[97.9619,4.7262],[97.9615,4.668],[97.9946,4.6349],[98.0,4.6047],[97.9604,4.5316],[97.9823,4.5447],[98.0,4.5268],[98.0,4.0],[96.2773,4.0002]]],[[[97.998,4.6246],[98.0,4.6279],[98.0,4.6171],[97.998,4.6246]]],[[[94.7548,16.3841],[94.7858,16.3564],[94.8134,16.3558],[94.8254,16.3704],[94.7948,16.3601],[94.7519,16.3905],[94.7347,16.3608],[94.714,16.3708],[94.75,16.4194],[94.7586,16.4096],[94.7705,16.4093],[94.7839,16.4261],[94.7588,16.4138],[94.7478,16.4265],[94.7126,16.3942],[94.6956,16.481],[94.7323,16.5056],[94.7463,16.569],[94.7898,16.5778],[94.8004,16.5907],[94.7465,16.5768],[94.7281,16.5145],[94.6898,16.4927],[94.6782,16.5132],[94.7012,16.5517],[94.7103,16.6135],[94.7423,16.6328],[94.7216,16.6872],[94.7447,16.6957],[94.7416,16.7301],[94.7218,16.7336],[94.738,16.7245],[94.7361,16.7004],[94.7173,16.6913],[94.7098,16.6537],[94.733,16.629],[94.6784,16.6436],[94.6989,16.6797],[94.6889,16.7396],[94.6936,16.6767],[94.6754,16.6933],[94.6823,16.6714],[94.6688,16.6524],[94.6511,16.6702],[94.6557,16.6579],[94.6743,16.6497],[94.6581,16.6276],[94.6913,16.6391],[94.7012,16.6217],[94.6924,16.5549],[94.6644,16.5184],[94.6796,16.3932],[94.6529,16.3403],[94.6233,16.338],[94.6403,16.3835],[94.6062,16.3372],[94.6021,16.2844],[94.5648,16.2582],[94.531,16.2921],[94.5464,16.308],[94.5265,16.2987],[94.5119,16.2832],[94.5109,16.1802],[94.4336,16.0697],[94.3681,16.0546],[94.3419,16.0163],[94.2827,16.0],[94.2435,15.9541],[94.1976,16.0363],[94.2285,16.252],[94.2433,16.2647],[94.2309,16.3217],[94.2643,16.3968],[94.2771,16.4963],[94.2615,16.5308],[94.2907,16.5387],[94.2897,16.5191],[94.3149,16.5196],[94.3503,16.5688],[94.3234,16.6005],[94.3508,16.6207],[94.368,16.6149],[94.3563,16.6903],[94.3759,16.7572],[94.4039,16.7885],[94.3788,16.8748],[94.3885,16.907],[94.4106,16.8895],[94.4434,16.9306],[94.484,16.9432],[94.4782,16.9576],[94.443,16.9481],[94.4582,16.9806],[94.4567,17.0673],[94.4896,17.1177],[94.4558,17.1417],[94.4447,17.179],[94.4644,17.1882],[94.4993,17.1568],[94.5216,17.1687],[94.5363,17.1869],[94.5014,17.2162],[94.5083,17.2999],[94.5264,17.2768],[94.5464,17.2903],[94.5409,17.319],[94.5815,17.2885],[94.5917,17.3042],[94.5715,17.3171],[94.5654,17.4983],[94.5416,17.5488],[94.563,17.5931],[94.6099,17.5365],[94.6112,17.5501],[94.5769,17.5914],[94.5884,17.6192],[94.5692,17.6453],[94.5588,17.6362],[94.5416,17.6813],[94.5448,17.7349],[94.4897,17.7824],[94.4815,17.9029],[94.4375,17.9956],[94.4777,18.0065],[94.4847,18.0557],[94.4469,18.1691],[94.4198,18.1937],[94.4268,18.2197],[94.4075,18.2462],[94.3372,18.2416],[94.322,18.2642],[94.3284,18.302],[94.3911,18.2835],[94.4074,18.3107],[94.4023,18.3463],[94.3816,18.3656],[94.3376,18.3662],[94.3225,18.4359],[94.2492,18.5245],[94.2626,18.5486],[94.2513,18.5468],[94.2579,18.6085],[94.2402,18.6458],[94.1409,18.736],[94.1744,18.714],[94.1745,18.7283],[94.2197,18.7182],[94.28,18.7351],[94.253,18.7341],[94.2492,18.7552],[94.2388,18.7347],[94.2169,18.731],[94.2064,18.7431],[94.2243,18.7812],[94.2039,18.7527],[94.1916,18.7712],[94.1993,18.7931],[94.1831,18.7796],[94.1465,18.8144],[94.1762,18.8347],[94.1458,18.8353],[94.1523,18.8795],[94.1696,18.89],[94.1467,18.8848],[94.127,18.8567],[94.1169,18.8566],[94.1287,18.8786],[94.0553,18.8461],[94.0309,18.8633],[94.0439,18.8846],[94.0738,18.8676],[94.0906,18.8806],[94.1057,18.8997],[94.1353,18.892],[94.1086,18.9296],[94.113,18.9662],[94.0864,18.8798],[94.0718,18.8743],[94.031,18.9005],[94.0552,18.9352],[94.0364,18.9913],[94.0632,19.0376],[94.0586,19.0598],[94.1021,19.0766],[94.0897,19.085],[94.097,19.0986],[94.1228,19.0846],[94.109,19.1051],[94.1466,19.1191],[94.1161,19.1204],[94.0545,19.0754],[94.0272,19.0792],[94.0375,19.1067],[94.1385,19.1514],[94.1357,19.1796],[94.1295,19.1561],[94.1075,19.1513],[94.0927,19.1822],[94.0911,19.1484],[94.0648,19.1263],[94.0735,19.165],[94.0624,19.1881],[94.0568,19.1255],[94.0329,19.1296],[94.0492,19.2206],[94.0711,19.2339],[94.0469,19.2483],[94.0435,19.312],[94.0762,19.3746],[94.0686,19.3853],[94.0687,19.3706],[94.0394,19.3453],[94.0315,19.3281],[94.0355,19.2177],[94.0163,19.1814],[93.9914,19.2229],[94.0,19.1502],[93.9663,19.1395],[93.9438,19.1562],[93.938,19.2012],[93.9092,19.1995],[93.9677,19.1238],[93.9534,19.0885],[93.9557,19.0208],[93.9858,18.9614],[93.9325,18.8475],[93.8923,18.8923],[93.7728,18.9664],[93.7448,18.9689],[93.7151,19.0075],[93.6742,19.0102],[93.6659,19.0664],[93.6901,19.0844],[93.6976,19.1146],[93.7476,19.1212],[93.6942,19.1196],[93.6897,19.0961],[93.6629,19.0763],[93.6393,19.1378],[93.5992,19.1513],[93.5699,19.2256],[93.4722,19.3669],[93.4841,19.4091],[93.5135,19.4341],[93.5509,19.4324],[93.568,19.4163],[93.5514,19.4101],[93.5682,19.4046],[93.6041,19.4145],[93.6374,19.3542],[93.6343,19.3399],[93.6172,19.3482],[93.6001,19.3227],[93.6214,19.3411],[93.6672,19.3022],[93.6417,19.2398],[93.6446,19.2238],[93.6815,19.3001],[93.7215,19.2926],[93.6948,19.2819],[93.7269,19.2754],[93.7207,19.2445],[93.739,19.2567],[93.809,19.2263],[93.8733,19.2466],[93.9559,19.3061],[93.9498,19.3369],[93.9722,19.3514],[93.9817,19.385],[94.0108,19.381],[93.9834,19.4055],[93.9663,19.3584],[93.8921,19.2916],[93.8817,19.3076],[93.9191,19.3345],[93.9218,19.3772],[93.9111,19.3353],[93.8842,19.3196],[93.8889,19.3534],[93.8589,19.3878],[93.8824,19.3531],[93.8692,19.3068],[93.7751,19.301],[93.7392,19.345],[93.7463,19.3542],[93.7753,19.3403],[93.78,19.3542],[93.7704,19.3447],[93.7533,19.3575],[93.7323,19.3566],[93.7319,19.3826],[93.7121,19.4014],[93.7393,19.4088],[93.6517,19.4445],[93.6372,19.4889],[93.6546,19.4919],[93.6468,19.5122],[93.6875,19.5654],[93.7462,19.5422],[93.7688,19.4853],[93.7758,19.5037],[93.7933,19.5003],[93.8187,19.4643],[93.8567,19.4843],[93.8585,19.4404],[93.877,19.473],[93.9764,19.4188],[93.9971,19.4525],[93.9766,19.4629],[93.9536,19.4479],[93.9046,19.468],[93.9485,19.5081],[93.9383,19.564],[93.9323,19.4985],[93.9024,19.4885],[93.7768,19.5911],[93.8164,19.6042],[93.7935,19.614],[93.7602,19.5991],[93.722,19.6265],[93.7476,19.6525],[93.7943,19.6598],[93.7882,19.6815],[93.8193,19.7111],[93.8181,19.7292],[93.8066,19.7392],[93.7986,19.7014],[93.727,19.6711],[93.7059,19.7028],[93.7208,19.7483],[93.7914,19.7691],[93.7976,19.8329],[93.7863,19.8628],[93.7979,19.8666],[93.8012,19.891],[93.7933,19.916],[93.7937,19.873],[93.7386,19.8852],[93.7145,19.9079],[93.7457,19.9152],[93.7085,19.9375],[93.7091,19.9673],[93.702,19.9144],[93.6218,19.917],[93.5518,19.8885],[93.5419,19.9036],[93.5754,19.9201],[93.5867,19.9378],[93.5688,19.9212],[93.5416,19.924],[93.546,19.9363],[93.5161,19.9234],[93.5121,19.9438],[93.5365,19.9552],[93.5085,19.9613],[93.5071,19.9748],[93.5401,19.9909],[93.4818,19.9914],[93.4674,20.0443],[93.4585,20.0541],[93.4762,20.0609],[93.4548,20.0552],[93.4762,20.0065],[93.4661,19.9825],[93.4392,19.9925],[93.4567,19.95],[93.416,19.9708],[93.3807,20.0659],[93.3841,20.0801],[93.4167,20.0799],[93.4148,20.1121],[93.4329,20.1052],[93.3623,20.2736],[93.343,20.2772],[93.3234,20.3297],[93.2966,20.33],[93.3259,20.3859],[93.3254,20.4036],[93.2805,20.3482],[93.2801,20.3282],[93.2398,20.306],[93.2306,20.2739],[93.2464,20.2454],[93.2099,20.2347],[93.1825,20.1969],[93.117,20.1857],[93.2165,20.2861],[93.2259,20.3076],[93.2124,20.3278],[93.2512,20.4261],[93.2252,20.3917],[93.198,20.3871],[93.2235,20.376],[93.203,20.3226],[93.1243,20.3281],[93.1374,20.3425],[93.1321,20.3693],[93.1563,20.3591],[93.1748,20.3741],[93.1293,20.3762],[93.1742,20.3994],[93.1648,20.422],[93.1681,20.4002],[93.0939,20.3798],[93.0884,20.4013],[93.1111,20.4138],[93.1167,20.4272],[93.107,20.5041],[93.087,20.5198],[93.1051,20.5307],[93.0919,20.53],[93.0702,20.602],[93.0483,20.5975],[93.0217,20.6219],[93.0277,20.6439],[93.0055,20.6398],[93.0178,20.6122],[93.0757,20.5792],[93.081,20.5411],[93.0258,20.4274],[93.0173,20.454],[93.0428,20.4633],[93.0402,20.4931],[93.0636,20.5246],[93.035,20.5378],[93.0556,20.5207],[93.0195,20.4791],[93.0333,20.4857],[93.0386,20.4686],[93.0135,20.4606],[93.0243,20.3894],[93.0091,20.2869],[92.963,20.2257],[92.945,20.2675],[92.915,20.2419],[92.9146,20.2122],[92.8862,20.2095],[92.9203,20.1809],[92.8966,20.1094],[92.8531,20.1232],[92.7649,20.2],[92.7873,20.2401],[92.7969,20.2102],[92.8305,20.1805],[92.8458,20.1823],[92.799,20.2141],[92.7988,20.2583],[92.9445,20.3156],[92.8982,20.3078],[92.8393,20.3808],[92.9108,20.3717],[92.9315,20.3863],[92.9417,20.3522],[92.9508,20.374],[92.9127,20.414],[92.9289,20.4212],[92.9326,20.4327],[92.8983,20.4822],[92.9285,20.4299],[92.9072,20.421],[92.9175,20.3833],[92.9063,20.3787],[92.8867,20.4218],[92.8866,20.4039],[92.8571,20.4195],[92.8637,20.4051],[92.8418,20.4017],[92.8166,20.4429],[92.8337,20.4407],[92.8383,20.4688],[92.8487,20.4591],[92.8275,20.4968],[92.8108,20.4924],[92.7961,20.5101],[92.7639,20.4734],[92.7523,20.4794],[92.7322,20.5696],[92.7486,20.5782],[92.7524,20.5867],[92.7468,20.5986],[92.7266,20.6168],[92.7482,20.5876],[92.731,20.5792],[92.6844,20.6278],[92.6456,20.6891],[92.645,20.7277],[92.5832,20.7199],[92.591,20.732],[92.5697,20.7796],[92.5997,20.7956],[92.6024,20.8064],[92.5649,20.7864],[92.5494,20.8493],[92.5449,20.8118],[92.5713,20.7516],[92.5466,20.7631],[92.5441,20.743],[92.591,20.6851],[92.607,20.6776],[92.6395,20.6883],[92.6954,20.5825],[92.7292,20.5496],[92.72,20.4706],[92.7478,20.4143],[92.7299,20.2954],[92.747,20.256],[92.7285,20.26],[92.638,20.4332],[92.5281,20.5435],[92.5133,20.5993],[92.4633,20.6445],[92.4661,20.6597],[92.3774,20.6957],[92.3877,20.7048],[92.3611,20.7723],[92.3901,20.8168],[92.3787,20.8246],[92.3584,20.7833],[92.3353,20.8433],[92.3602,20.8647],[92.3366,20.8509],[92.3146,20.8826],[92.3164,20.901],[92.3619,20.9419],[92.3477,20.9871],[92.3313,20.9978],[92.2968,20.9872],[92.2891,21.0036],[92.2933,20.98],[92.2798,20.9694],[92.2694,21.0182],[92.2887,21.0225],[92.2646,21.0358],[92.2942,21.0494],[92.2734,21.0458],[92.2381,21.083],[92.2564,21.054],[92.2494,21.026],[92.2627,20.9273],[92.2957,20.884],[92.3286,20.7952],[92.2974,20.7786],[92.2117,20.9253],[92.1847,21.0139],[92.0473,21.1766],[92.0496,21.2642],[92.0289,21.3402],[91.9529,21.4548],[91.9993,21.5054],[92.0221,21.4864],[91.9954,21.5518],[92.0389,21.6476],[92.0405,21.6722],[92.0251,21.6822],[92.0352,21.7006],[92.0181,21.7165],[92.0193,21.6685],[91.9817,21.656],[91.9796,21.7042],[91.9667,21.6782],[91.9481,21.7453],[91.9764,21.7418],[91.9925,21.7678],[91.9716,21.7472],[91.9545,21.7539],[91.9706,21.7862],[91.9424,21.8042],[91.9308,21.7855],[91.8912,21.7773],[91.9199,21.8473],[91.9095,21.9079],[91.9275,21.9345],[91.8949,21.9689],[91.8548,22.1276],[91.8345,22.1221],[91.8118,22.1905],[91.8351,22.2151],[91.842,22.2605],[91.8147,22.3049],[91.8665,22.3221],[91.9008,22.4007],[91.9451,22.4162],[92.0019,22.4046],[92.022,22.4167],[92.0349,22.4459],[92.0815,22.4371],[92.1417,22.4615],[92.1439,22.4703],[92.0873,22.4443],[92.0331,22.4505],[92.0029,22.4124],[91.9541,22.421],[91.8964,22.4094],[91.8722,22.3498],[91.7955,22.2927],[91.7952,22.2778],[91.829,22.2565],[91.798,22.2196],[91.7818,22.2343],[91.7421,22.4091],[91.5992,22.6334],[91.8833,22.6944],[92.2861,22.7083],[92.5286,22.6496],[92.5367,22.575],[92.5253,22.5539],[92.5456,22.5169],[92.5768,22.2712],[92.609,22.1642],[92.6039,22.1259],[92.5644,22.1293],[92.5963,22.0583],[92.6088,21.9759],[92.6436,22.0117],[92.6775,22.0155],[92.6919,22.1382],[92.7066,22.1506],[92.8652,22.0589],[92.8977,21.9495],[92.9265,22.0116],[92.9496,22.0273],[92.9814,21.9872],[93.0017,21.9841],[92.9937,22.0504],[93.008,22.1027],[93.0596,22.1079],[93.0456,22.1962],[93.0685,22.2118],[93.1055,22.2055],[93.1412,22.176],[93.168,22.1851],[93.143,22.2377],[93.1988,22.2599],[93.1826,22.4089],[93.1667,22.4442],[93.1367,22.452],[93.1373,22.4876],[93.9251,22.4012],[94.6092,21.9253],[94.8189,20.9583],[96.2451,19.6351],[96.721,19.07],[98.0,18.3078],[98.0,14.4825],[97.9851,14.4713],[97.9669,14.4417],[97.9654,14.4261],[97.9407,14.5262],[97.9058,14.5783],[97.9134,14.6195],[97.9047,14.6107],[97.8728,14.671],[97.8944,14.7054],[97.8855,14.7229],[97.8678,14.7078],[97.8392,14.7187],[97.7918,14.8683],[97.8083,14.9501],[97.7969,14.9973],[97.8132,15.0062],[97.8244,15.0243],[97.791,14.9984],[97.7707,15.0183],[97.7958,15.0271],[97.8063,15.1503],[97.787,15.1795],[97.7951,15.1903],[97.7653,15.1971],[97.7387,15.2445],[97.7417,15.295],[97.7215,15.3328],[97.7275,15.3548],[97.7469,15.3561],[97.7465,15.3837],[97.7828,15.397],[97.7408,15.4871],[97.762,15.5281],[97.6994,15.7541],[97.7217,15.7717],[97.7179,15.8434],[97.6754,15.9144],[97.6103,15.949],[97.6035,15.9803],[97.5713,16.0108],[97.5582,16.0726],[97.5967,16.0851],[97.6143,16.0611],[97.6277,16.0504],[97.648,16.0442],[97.6654,16.0486],[97.6772,16.0283],[97.6969,16.0275],[97.6673,16.0521],[97.6202,16.0587],[97.6072,16.1036],[97.5978,16.097],[97.6438,16.27],[97.6155,16.3556],[97.6294,16.3873],[97.6141,16.4256],[97.6284,16.4532],[97.6253,16.5],[97.6621,16.5123],[97.6624,16.4765],[97.6823,16.4655],[97.7025,16.4706],[97.7044,16.4501],[97.7232,16.4502],[97.7198,16.4268],[97.7539,16.4141],[97.7355,16.4023],[97.7334,16.3833],[97.7784,16.3746],[97.7974,16.354],[97.7858,16.3396],[97.7874,16.3327],[97.8346,16.3236],[97.8601,16.2918],[97.8887,16.2862],[97.8521,16.3024],[97.8441,16.3234],[97.7924,16.3327],[97.8031,16.3534],[97.7905,16.3703],[97.7614,16.386],[97.7372,16.386],[97.7578,16.4177],[97.7289,16.4247],[97.7259,16.4541],[97.7068,16.4536],[97.7023,16.474],[97.6641,16.48],[97.6755,16.5007],[97.6684,16.5455],[97.7465,16.5616],[97.7089,16.5706],[97.6685,16.5549],[97.6442,16.6134],[97.6214,16.6433],[97.6076,16.581],[97.6264,16.5585],[97.6215,16.5187],[97.5325,16.5376],[97.4885,16.5387],[97.481,16.5218],[97.3928,16.5251],[97.3629,16.479],[97.3284,16.6589],[97.3466,16.6471],[97.3939,16.64],[97.4108,16.6424],[97.424,16.6584],[97.3927,16.6437],[97.3457,16.6544],[97.3406,16.6666],[97.3578,16.6694],[97.3476,16.6786],[97.328,16.667],[97.3301,16.6963],[97.3439,16.6953],[97.3419,16.7341],[97.3403,16.7095],[97.3207,16.7102],[97.3185,16.668],[97.2772,16.6862],[97.2398,16.7684],[97.2498,16.8225],[97.2349,16.8088],[97.2226,16.8417],[97.227,16.8573],[97.2664,16.8442],[97.2781,16.8505],[97.2659,16.8701],[97.265,16.8481],[97.2228,16.8672],[97.2092,16.8129],[97.1998,16.8823],[97.218,16.9017],[97.2191,16.9379],[97.1906,16.8911],[97.1748,16.8905],[97.1693,16.9107],[97.2072,17.008],[97.1547,17.0678],[97.1533,17.0952],[97.1909,17.1169],[97.2134,17.0874],[97.2645,17.1036],[97.2278,17.1029],[97.2063,17.1338],[97.1791,17.1294],[97.1365,17.1162],[97.1343,17.0806],[97.1143,17.0778],[97.0887,17.1652],[97.1067,17.1878],[97.0833,17.1817],[97.0592,17.2533],[97.0003,17.2667],[97.0091,17.3],[96.9116,17.357],[96.8832,17.4541],[96.8649,17.3961],[96.8434,17.3893],[96.849,17.4134],[96.7859,17.49],[96.7344,17.4353],[96.7735,17.3763],[96.7225,17.3474],[96.6924,17.3664],[96.6498,17.3383],[96.6683,17.2691],[96.6962,17.2479],[96.7086,17.2545],[96.6769,17.2675],[96.6854,17.3453],[96.725,17.3382],[96.8366,17.3809],[96.8401,17.3648],[96.8443,17.3762],[96.8597,17.3615],[96.856,17.3431],[96.863,17.3527],[96.9111,17.3215],[96.8907,17.3119],[96.9129,17.3049],[96.9024,17.2717],[96.8335,17.2052],[96.8487,17.2008],[96.8771,17.1123],[96.9001,17.0889],[96.9121,17.0177],[96.8737,16.911],[96.8383,16.9272],[96.8509,16.9591],[96.8346,16.9511],[96.8316,16.9194],[96.8552,16.8877],[96.8359,16.9046],[96.8251,16.8937],[96.8072,16.9106],[96.7967,16.9065],[96.8333,16.8788],[96.853,16.8372],[96.8078,16.7555],[96.7808,16.7818],[96.7746,16.7731],[96.8013,16.7397],[96.7713,16.6916],[96.5964,16.5366],[96.4938,16.5046],[96.3837,16.4966],[96.2847,16.5537],[96.2867,16.5918],[96.3336,16.6234],[96.4268,16.6076],[96.4699,16.6127],[96.3313,16.6287],[96.2874,16.6001],[96.2778,16.5775],[96.2638,16.6474],[96.2348,16.6789],[96.2228,16.7542],[96.3156,16.8334],[96.3456,16.8333],[96.3941,16.8594],[96.4084,16.8552],[96.4861,16.8699],[96.5119,16.8882],[96.4839,16.8731],[96.3948,16.864],[96.3244,16.8384],[96.32,16.869],[96.3477,16.9059],[96.3007,16.8637],[96.298,16.8408],[96.2776,16.8693],[96.3037,16.8261],[96.2035,16.7632],[96.1847,16.7765],[96.195,16.7898],[96.1915,16.7999],[96.2124,16.7983],[96.2246,16.8111],[96.2182,16.8412],[96.2089,16.8458],[96.2203,16.8109],[96.1917,16.8059],[96.1802,16.7767],[96.1973,16.7597],[96.1288,16.7711],[96.1207,16.8138],[96.1155,16.8122],[96.1319,16.7589],[96.119,16.7566],[96.1921,16.7409],[96.2157,16.6707],[96.2461,16.636],[96.2366,16.6078],[96.1735,16.5831],[96.1736,16.5163],[96.1926,16.4892],[96.1805,16.4874],[96.1754,16.4635],[96.1417,16.4537],[96.1628,16.4177],[96.0771,16.3572],[96.0173,16.3845],[95.9964,16.4107],[95.9121,16.4109],[95.9275,16.385],[95.9059,16.3295],[95.8912,16.2446],[95.7785,16.1291],[95.7544,16.1266],[95.7403,16.1452],[95.7269,16.264],[95.7096,16.2731],[95.7229,16.2566],[95.7382,16.1126],[95.6966,16.046],[95.6931,15.9992],[95.6483,15.9258],[95.5158,15.7881],[95.4264,15.7213],[95.358,15.7039],[95.2868,15.7187],[95.2704,15.8008],[95.2792,15.8463],[95.3045,15.8527],[95.2973,15.8621],[95.3195,15.8808],[95.3399,15.88],[95.3404,15.9022],[95.3479,15.8805],[95.3809,15.8721],[95.3989,15.8768],[95.4126,15.9057],[95.3871,15.8768],[95.3534,15.8849],[95.3388,15.9054],[95.3356,15.8829],[95.3225,15.8868],[95.2984,15.8701],[95.3478,15.9473],[95.364,16.0503],[95.3962,16.0616],[95.3628,16.0583],[95.3368,16.0993],[95.3705,16.1492],[95.3907,16.2396],[95.3263,16.1926],[95.306,16.1581],[95.3266,16.0873],[95.2792,16.0394],[95.2352,15.9326],[95.2101,15.8565],[95.2226,15.7902],[95.1768,15.7679],[95.1243,15.7917],[95.1094,15.8899],[95.1332,16.0193],[95.1896,16.0246],[95.1927,16.0799],[95.2671,16.1495],[95.1911,16.1138],[95.2079,16.1777],[95.1799,16.1374],[95.1526,16.1389],[95.165,16.1263],[95.1328,16.1239],[95.1442,16.168],[95.1293,16.2051],[95.1408,16.2315],[95.1236,16.2067],[95.1323,16.1672],[95.1198,16.1153],[95.0867,16.0923],[95.0561,16.0355],[95.0701,15.944],[95.037,15.8038],[95.0011,15.7787],[94.9868,15.7848],[94.9842,15.8484],[94.9821,15.76],[94.9476,15.7412],[94.8343,15.7808],[94.8397,15.8061],[94.8893,15.8274],[94.8713,15.8954],[94.9508,15.9456],[94.9443,15.9536],[94.8637,15.8967],[94.873,15.8249],[94.845,15.8298],[94.8373,15.8467],[94.8501,15.8762],[94.8384,15.9381],[94.8233,15.9327],[94.8283,15.9601],[94.8619,16.0],[94.9145,16.0],[94.9218,16.0306],[94.9054,16.0747],[94.9333,16.0862],[94.9555,16.131],[95.0226,16.135],[95.0225,16.1603],[95.0557,16.1994],[95.0566,16.216],[95.0465,16.2391],[95.0693,16.2458],[95.1006,16.3006],[95.0652,16.2477],[95.0432,16.2457],[95.0479,16.1971],[95.0137,16.1616],[95.0162,16.1437],[94.9529,16.1388],[94.9304,16.0942],[94.903,16.083],[94.9154,16.0299],[94.8918,16.0061],[94.8785,16.0115],[94.8656,16.1351],[94.8888,16.1818],[94.9573,16.1962],[95.0257,16.2628],[95.0421,16.3097],[95.0649,16.3114],[95.0509,16.3127],[95.0505,16.3334],[95.0165,16.2669],[94.9522,16.211],[94.8727,16.1872],[94.8388,16.1108],[94.8497,16.0723],[94.7194,15.8505],[94.6856,15.8371],[94.634,15.8613],[94.6005,15.9203],[94.6697,15.9557],[94.7184,16.0],[94.7362,16.0636],[94.7845,16.0965],[94.763,16.1241],[94.7876,16.1316],[94.8071,16.1998],[94.8374,16.2115],[94.8529,16.2398],[94.8035,16.2062],[94.7764,16.1448],[94.7554,16.1316],[94.7516,16.0937],[94.7196,16.0669],[94.6841,16.0],[94.5696,15.929],[94.5501,15.966],[94.5608,15.9567],[94.5826,16.0],[94.6173,16.0191],[94.6846,16.1148],[94.6806,16.2026],[94.7209,16.2029],[94.7589,16.2373],[94.7395,16.2574],[94.76,16.2809],[94.7336,16.2564],[94.7496,16.2377],[94.7262,16.2305],[94.7192,16.2091],[94.6772,16.2134],[94.6632,16.2429],[94.7059,16.2498],[94.7058,16.2669],[94.6983,16.2493],[94.6636,16.2541],[94.6881,16.3066],[94.6968,16.35],[94.7372,16.354],[94.7548,16.3841]]],[[[98.0,14.2877],[97.9679,14.3955],[98.0,14.4789],[98.0,14.2877]]]]}}