{"type":"Feature","properties":{"speciesId":407,"category":"CR","source":"IUCN Red List","simplifyTol":0.01,"clippedToSubcontinent":true},"geometry":{"type":"MultiPolygon","coordinates":[[[[95.5882,5.3471],[95.8869,5.1389],[96.2751,5.0199],[96.753,4.9306],[97.201,4.8116],[97.5593,4.633],[97.6489,4.3651],[97.8742,4.0],[96.7345,4.0],[96.6037,4.1566],[96.2453,4.3353],[95.9167,4.6033],[95.4389,4.8414],[95.2597,5.3471],[95.5882,5.4363],[95.5882,5.3471]]],[[[97.8281,17.1439],[98.0,17.1439],[98.0,15.692],[97.7684,16.2858],[97.7983,16.6295],[97.7983,17.201],[97.8281,17.1439]]],[[[95.2,27.0186],[95.3493,26.992],[95.409,26.8589],[95.409,26.7522],[95.1104,26.6722],[94.8416,26.1908],[94.5728,25.9225],[94.5728,25.6267],[94.3936,25.3841],[94.2741,25.0328],[94.0651,24.7348],[94.0054,24.4904],[93.5275,24.1366],[93.2587,23.8911],[93.2288,23.5904],[93.3184,23.1792],[93.2288,22.9319],[93.2288,22.4083],[93.2886,21.8272],[93.3483,21.5497],[93.4976,21.021],[93.7963,20.714],[94.3339,19.8737],[94.4533,19.3673],[94.5728,19.1136],[94.5429,18.7463],[94.2443,18.7463],[94.1845,18.9442],[94.0949,19.3955],[93.9158,19.7613],[93.7067,19.986],[93.647,20.1263],[93.2886,20.4064],[93.1691,20.6023],[92.9302,20.8536],[92.7809,20.8536],[92.5718,21.1046],[92.3926,21.5497],[92.303,21.9935],[92.2732,22.5738],[92.303,23.2615],[92.303,23.973],[92.4822,24.4361],[92.5419,24.9787],[92.3329,25.2491],[92.0342,25.5189],[91.5862,25.6805],[91.6161,25.9762],[92.1537,26.0031],[92.5121,25.7881],[92.9003,25.7613],[93.199,25.8688],[92.9302,26.164],[93.199,26.3783],[93.5872,26.4585],[93.6768,26.164],[94.0949,26.1372],[94.6027,26.6722],[95.1701,27.0452],[95.2,27.0186]]]]}}