{"type":"Feature","properties":{"speciesId":414,"category":"LC","source":"IUCN Red List","simplifyTol":0.01,"clippedToSubcontinent":true},"geometry":{"type":"MultiPolygon","coordinates":[[[[75.981,11.7446],[75.9433,11.7792],[75.9465,11.8263],[75.9779,11.8546],[76.0156,11.8546],[76.0722,11.8012],[76.0627,11.7729],[75.981,11.7446]]],[[[75.6919,12.3983],[75.6416,12.4015],[75.6353,12.4329],[75.6479,12.4361],[75.6321,12.4769],[75.7013,12.4863],[75.7107,12.4392],[75.6919,12.3983]]],[[[75.0997,13.4727],[75.076,13.4953],[75.0781,13.5324],[75.0966,13.5417],[75.1193,13.5149],[75.0997,13.4727]]]]}}