{"type":"Feature","properties":{"speciesId":415,"category":"LC","source":"IUCN Red List","simplifyTol":0.01,"clippedToSubcontinent":true},"geometry":{"type":"Polygon","coordinates":[[[69.8793,26.5811],[70.1005,26.5916],[69.4769,25.5444],[69.0322,25.1175],[68.8237,24.6401],[68.5587,23.9632],[68.3849,23.9642],[68.3742,23.9832],[68.3349,23.9654],[68.3259,23.922],[68.2789,23.9386],[68.2377,23.9002],[68.1856,23.8863],[68.1889,23.8501],[68.1361,23.8696],[68.1421,23.8397],[68.1035,23.8555],[68.1044,23.8432],[68.073,23.8347],[68.053,23.8538],[68.0553,23.903],[68.042,23.9119],[68.0282,23.8796],[68.0446,23.7949],[68.0336,23.788],[67.9962,23.7867],[67.9202,23.8517],[67.9298,23.829],[67.872,23.8586],[67.8653,23.9016],[67.9027,23.9647],[67.8939,23.9751],[67.8456,23.9092],[67.8274,23.8136],[67.7051,23.8556],[67.7465,23.7996],[67.652,23.7945],[67.6269,23.8088],[67.6254,23.8429],[67.5834,23.8394],[67.5762,23.889],[67.5651,23.8683],[67.5355,23.893],[67.5335,23.8746],[67.4696,23.9033],[67.4626,23.9205],[67.491,23.9139],[67.4855,23.9374],[67.4661,23.9454],[67.5007,23.9699],[67.4224,23.9449],[67.4365,23.9907],[67.4083,24.0],[67.4218,24.0024],[67.4092,24.0392],[67.438,24.0636],[67.4184,24.0883],[67.4489,24.1168],[67.4088,24.084],[67.3921,24.0478],[67.3626,24.1324],[67.4118,24.1233],[67.4245,24.1302],[67.3828,24.1326],[67.3453,24.1558],[67.3347,24.1763],[67.3545,24.1828],[67.3344,24.2088],[67.342,24.2352],[67.3625,24.2386],[67.4125,24.2296],[67.4168,24.2109],[67.4281,24.2126],[67.4317,24.2472],[67.4212,24.2167],[67.4143,24.234],[67.3501,24.2542],[67.3613,24.2757],[67.3814,24.2732],[67.3934,24.2874],[67.3585,24.2837],[67.3259,24.2449],[67.2954,24.301],[67.3299,24.3339],[67.3596,24.2907],[67.3386,24.3323],[67.3466,24.3428],[67.4109,24.3113],[67.4421,24.3161],[67.449,24.3322],[67.4906,24.3218],[67.5146,24.3424],[67.5291,24.3345],[67.5124,24.3526],[67.4873,24.3263],[67.4566,24.3422],[67.4343,24.3227],[67.3665,24.351],[67.369,24.3857],[67.4177,24.3865],[67.4229,24.3603],[67.4278,24.3918],[67.4158,24.4014],[67.3605,24.3877],[67.3491,24.4005],[67.4169,24.4368],[67.4646,24.4235],[67.4727,24.4269],[67.3902,24.4501],[67.3753,24.4341],[67.3834,24.4544],[67.3604,24.4608],[67.4009,24.4844],[67.4218,24.4644],[67.4504,24.4602],[67.455,24.4655],[67.436,24.4797],[67.4213,24.4707],[67.4039,24.5064],[67.412,24.5215],[67.3919,24.5161],[67.4022,24.493],[67.3743,24.4721],[67.3424,24.4591],[67.3099,24.4622],[67.3258,24.4653],[67.3282,24.4852],[67.3523,24.4797],[67.3702,24.5304],[67.3975,24.5246],[67.3987,24.5468],[67.3684,24.536],[67.3552,24.546],[67.3807,24.571],[67.4136,24.5857],[67.4396,24.5746],[67.4071,24.5894],[67.3234,24.5491],[67.304,24.5532],[67.3152,24.5589],[67.299,24.5815],[67.3203,24.5757],[67.3231,24.5906],[67.371,24.6081],[67.3838,24.6377],[67.4069,24.6358],[67.4143,24.6494],[67.4405,24.6404],[67.4532,24.6537],[67.4416,24.6479],[67.4203,24.6727],[67.4325,24.6982],[67.3932,24.7046],[67.3515,24.7423],[67.3493,24.7629],[67.4528,24.7761],[67.4681,24.7538],[67.4609,24.7801],[67.3296,24.7712],[67.2456,24.7849],[67.2199,24.8141],[67.174,24.781],[67.1547,24.7937],[67.1224,24.7788],[67.1049,24.7976],[67.1023,24.7781],[67.0908,24.7921],[67.0931,24.7569],[67.0217,24.8083],[66.9758,24.8108],[66.9736,24.8306],[66.9627,24.825],[66.9825,24.8579],[66.9538,24.861],[66.9122,24.8447],[66.9578,24.8259],[66.9792,24.7917],[66.862,24.8569],[66.8191,24.8344],[66.7562,24.8438],[66.6833,24.8214],[66.6514,24.8294],[66.6843,24.8757],[66.722,24.8918],[66.6869,24.8927],[66.6754,24.9236],[66.7004,24.9496],[66.7041,25.0826],[66.7386,25.1422],[66.742,25.1833],[66.6783,25.2711],[66.5501,25.3652],[66.5553,25.3922],[66.5794,25.3729],[66.5783,25.4114],[66.5942,25.425],[66.56,25.4529],[66.5576,25.5381],[66.5289,25.5422],[66.5159,25.5634],[66.5429,25.6144],[66.5393,25.6442],[66.5028,25.5774],[66.4799,25.5877],[66.4672,25.5699],[66.4552,25.6194],[66.4454,25.5972],[66.3991,25.5835],[66.3676,25.6159],[66.3105,25.6101],[66.2969,25.6239],[66.2322,25.5904],[66.1901,25.5993],[66.1337,25.5443],[66.1328,25.5079],[66.0919,25.4796],[66.1956,25.4889],[66.2848,25.5421],[66.3141,25.5377],[66.3088,25.5465],[66.3349,25.5532],[66.358,25.5248],[66.3972,25.5216],[66.3943,25.5066],[66.4265,25.4826],[66.4752,25.4996],[66.5174,25.4921],[66.4928,25.4478],[66.5284,25.4158],[66.5133,25.4046],[66.36,25.4601],[66.2765,25.4678],[66.0391,25.4266],[66.0238,25.4437],[66.0092,25.4368],[66.0144,25.4209],[65.9549,25.4132],[65.8387,25.4194],[65.773,25.3835],[65.6357,25.3495],[65.5178,25.3704],[65.5435,25.4199],[65.5057,25.3761],[65.3711,25.3902],[65.3381,25.3805],[65.3189,25.3967],[65.2514,25.3791],[65.2263,25.3172],[65.1564,25.3061],[64.9953,25.3252],[64.8271,25.3189],[64.7806,25.3477],[64.7927,25.3239],[64.7262,25.3167],[64.6525,25.2732],[64.6402,25.2055],[64.7005,25.1866],[64.6784,25.1655],[64.6166,25.1546],[64.5846,25.1594],[64.58,25.1736],[64.6094,25.1965],[64.6053,25.23],[64.5436,25.2705],[64.406,25.2383],[64.3405,25.2768],[64.24,25.307],[64.2462,25.3325],[64.2233,25.318],[64.0838,25.3294],[64.0918,25.3659],[64.1175,25.3649],[64.0809,25.3978],[64.1419,25.4112],[64.1381,25.4323],[64.1651,25.4533],[64.1243,25.439],[64.1174,25.4545],[64.0642,25.4452],[64.0473,25.4314],[64.0287,25.465],[64.0287,25.4441],[63.9915,25.4264],[64.0198,25.4249],[64.0058,25.4066],[63.9744,25.4234],[63.9678,25.4056],[63.9913,25.4099],[64.0042,25.3844],[64.0208,25.4095],[64.0361,25.4061],[64.072,25.3632],[64.0643,25.3283],[63.9296,25.3371],[63.758,25.3788],[63.6059,25.3706],[63.5356,25.3457],[63.4811,25.2844],[63.4561,25.2952],[63.5039,25.2262],[63.4927,25.1982],[63.1395,25.2577],[63.0071,25.2106],[62.6949,25.2595],[62.4945,25.2529],[62.4599,25.2297],[62.4771,25.2159],[62.4118,25.2054],[62.3562,25.1699],[62.3394,25.1132],[62.3899,25.1027],[62.3399,25.0895],[62.269,25.1003],[62.3202,25.1206],[62.3149,25.1687],[62.2884,25.1941],[62.2172,25.2152],[62.0735,25.1785],[61.7034,25.1901],[61.6899,25.2053],[61.6689,25.1912],[61.6337,25.2028],[61.5675,25.1902],[61.603,25.2044],[61.5627,25.2176],[61.5696,25.2405],[61.5421,25.2388],[61.5527,25.2118],[61.5284,25.207],[61.549,25.2034],[61.5446,25.1877],[61.4999,25.1944],[61.5279,25.1897],[61.1718,25.1468],[61.1673,25.1667],[61.0614,25.2019],[60.7418,25.273],[60.6056,25.2883],[60.6205,25.3072],[60.5912,25.3507],[60.6039,25.3786],[60.5932,25.4162],[60.5322,25.4464],[60.4624,25.4365],[60.4006,25.3807],[60.3961,25.3505],[60.4466,25.3325],[60.4389,25.3199],[60.4586,25.2924],[60.4146,25.3184],[60.3057,25.34],[60.2937,25.3885],[60.3257,25.3705],[60.3037,25.4038],[60.2014,25.3782],[60.1852,25.3524],[60.2072,25.3343],[60.1971,25.3287],[60.1103,25.3519],[60.108,25.3733],[60.0866,25.3824],[60.0,25.3822],[60.0,26.5927],[61.8273,26.1384],[62.2426,26.1025],[63.7964,26.0236],[65.4128,26.1708],[66.3167,26.4389],[67.668,26.7214],[68.7809,26.9957],[69.2949,27.0529],[69.5867,27.178],[69.5132,27.0169],[69.4837,26.8062],[69.5076,26.7484],[69.7219,26.6538],[69.8154,26.5922],[69.8793,26.5811]]]}}