{"type":"Feature","properties":{"speciesId":416,"category":"LC","source":"IUCN Red List","simplifyTol":0.01,"clippedToSubcontinent":true},"geometry":{"type":"MultiPolygon","coordinates":[[[[68.3208,23.7322],[68.3224,23.7302],[68.3186,23.7313],[68.3208,23.7322]]],[[[68.7269,23.8309],[68.6794,23.7916],[68.6581,23.7992],[68.6186,23.7489],[68.5274,23.6949],[68.4731,23.6881],[68.4192,23.7032],[68.4329,23.7338],[68.4902,23.7327],[68.5192,23.7731],[68.5235,23.7464],[68.6554,23.8397],[68.726,23.8369],[68.7733,23.8611],[68.7637,23.8777],[68.7811,23.8663],[68.766,23.8422],[68.7269,23.8309]]],[[[67.4227,24.0664],[67.4046,24.0705],[67.4118,24.0805],[67.4227,24.0664]]],[[[60.3716,37.8436],[61.4482,37.6478],[61.6173,37.6478],[61.7967,37.9117],[62.4958,37.8119],[62.5356,37.7572],[62.6878,36.9335],[62.7544,36.0451],[63.133,35.7711],[63.4124,35.742],[64.6756,36.0135],[64.8891,36.0],[64.7469,35.6756],[64.4056,35.5095],[64.1326,34.9635],[63.6445,34.1094],[63.6445,33.6213],[64.0105,33.1333],[65.1087,32.6452],[66.0848,32.4012],[67.0609,32.6452],[67.915,33.4993],[68.6447,34.7147],[69.0131,35.4516],[69.2572,35.5736],[69.7452,35.4516],[70.3553,34.8415],[71.0874,34.4754],[72.3075,34.3534],[73.2836,34.2314],[73.4956,33.9135],[73.5847,33.3392],[73.8599,32.536],[73.8242,31.8222],[73.6291,30.0241],[73.3965,29.939],[73.2748,29.5562],[73.0966,29.2554],[73.0009,29.1509],[72.9444,29.0341],[72.7302,28.9501],[72.5064,28.8228],[72.4114,28.7862],[72.3298,28.7038],[72.3019,28.6648],[72.1844,28.358],[71.992,28.2036],[71.9223,28.114],[71.8996,27.9642],[71.6749,27.8855],[71.2441,27.8494],[70.8655,27.7051],[70.7577,27.7172],[70.6784,27.8391],[70.6721,27.9143],[70.5626,28.0198],[70.4791,28.0338],[70.3662,28.0082],[70.1569,27.8341],[70.1078,27.7669],[70.0163,27.556],[69.9362,27.5021],[69.862,27.4028],[69.5867,27.178],[69.5132,27.0169],[69.4837,26.8062],[69.5154,26.7401],[69.7219,26.6538],[69.8154,26.5922],[69.8793,26.5811],[70.0662,26.5993],[70.1677,26.5508],[70.1839,26.4868],[70.1646,26.2909],[70.1727,26.2451],[70.1452,26.1662],[70.0826,26.0739],[70.0961,25.9443],[70.2754,25.7113],[70.3746,25.6813],[70.5265,25.6885],[70.6048,25.7185],[70.6593,25.7015],[70.6724,25.6715],[70.6659,25.396],[70.7372,25.3257],[70.7525,25.2717],[70.8812,25.1459],[70.9179,24.9864],[70.9556,24.9017],[71.0861,24.6934],[71.065,24.6626],[71.0081,24.6357],[70.9894,24.6032],[70.9944,24.4734],[71.0202,24.4333],[71.1179,24.4272],[71.1244,24.4094],[71.1116,24.3987],[71.0382,24.3561],[70.9809,24.3634],[70.8727,24.3049],[70.8658,24.2843],[70.9041,24.2651],[70.8941,24.2571],[70.8057,24.2227],[70.7258,24.2209],[70.6553,24.2251],[70.5742,24.2523],[70.5878,24.2854],[70.5723,24.2936],[70.5874,24.3101],[70.5614,24.3584],[70.5959,24.4002],[70.5601,24.4186],[70.119,24.2907],[70.0593,24.1928],[70.0241,24.1694],[69.9787,24.1651],[69.7246,24.1751],[69.5901,24.2868],[69.5042,24.263],[69.3103,24.2767],[69.1998,24.2352],[69.0929,24.2691],[69.0005,24.2259],[68.9706,24.2375],[68.9267,24.2939],[68.8973,24.2769],[68.8736,24.2143],[68.8525,24.2057],[68.8264,24.3084],[68.7641,24.2841],[68.7493,23.9621],[68.3849,23.9642],[68.3742,23.9832],[68.3349,23.9654],[68.3201,23.9174],[68.2747,23.9179],[68.2573,23.8761],[68.2675,23.8377],[68.2408,23.8494],[68.2221,23.8313],[68.2074,23.8372],[68.2078,23.7622],[67.7339,23.8947],[67.5307,23.8929],[67.5168,23.8811],[67.4617,23.9168],[67.491,23.9139],[67.4855,23.9373],[67.466,23.9421],[67.5044,23.966],[67.4927,23.9733],[67.4224,23.9449],[67.4361,23.9916],[67.4083,24.0],[67.4218,24.0024],[67.4092,24.0391],[67.438,24.0636],[67.4183,24.0872],[67.4489,24.1168],[67.4088,24.084],[67.3921,24.0477],[67.3626,24.1323],[67.4118,24.1233],[67.4248,24.1292],[67.3828,24.1326],[67.3453,24.1557],[67.3347,24.1763],[67.3545,24.1828],[67.3346,24.214],[67.342,24.2351],[67.3625,24.2385],[67.4125,24.2295],[67.4208,24.2098],[67.4312,24.2214],[67.4317,24.2472],[67.4205,24.2173],[67.4143,24.234],[67.3501,24.2542],[67.3613,24.2756],[67.3814,24.2732],[67.3946,24.287],[67.3585,24.2837],[67.3259,24.2448],[67.2954,24.301],[67.3299,24.3339],[67.3596,24.2907],[67.3386,24.3323],[67.3466,24.3428],[67.4109,24.3113],[67.4421,24.316],[67.449,24.3321],[67.4906,24.3218],[67.5146,24.3424],[67.5291,24.3345],[67.5124,24.3525],[67.4873,24.3263],[67.4573,24.3417],[67.4343,24.3227],[67.3665,24.3509],[67.369,24.3857],[67.4177,24.3864],[67.4229,24.3603],[67.4278,24.3918],[67.4158,24.4014],[67.3605,24.3877],[67.3491,24.4005],[67.4169,24.4367],[67.4646,24.4234],[67.4727,24.4268],[67.3932,24.4497],[67.3757,24.4337],[67.3834,24.4544],[67.3608,24.4601],[67.4009,24.4844],[67.4218,24.4644],[67.4504,24.4601],[67.455,24.4655],[67.4366,24.4788],[67.4213,24.4707],[67.4039,24.5064],[67.412,24.5215],[67.3915,24.5151],[67.4022,24.493],[67.3743,24.472],[67.3424,24.4591],[67.3099,24.4622],[67.3258,24.4652],[67.3294,24.4856],[67.3523,24.4797],[67.3702,24.5304],[67.3975,24.5246],[67.3987,24.5467],[67.3684,24.5359],[67.3552,24.5459],[67.3807,24.571],[67.4136,24.5856],[67.4396,24.5746],[67.4071,24.5894],[67.3234,24.5491],[67.3048,24.5523],[67.3149,24.5579],[67.2998,24.5822],[67.3203,24.5757],[67.3231,24.5906],[67.371,24.608],[67.3838,24.6377],[67.4069,24.6357],[67.4143,24.6493],[67.4405,24.6404],[67.4532,24.6537],[67.4428,24.6478],[67.4206,24.6728],[67.4325,24.6982],[67.3932,24.7046],[67.3515,24.7423],[67.3493,24.7629],[67.4528,24.776],[67.467,24.7541],[67.4634,24.7761],[67.3755,24.7834],[67.3296,24.7712],[67.2456,24.7849],[67.2199,24.8141],[67.1748,24.7814],[67.1547,24.7937],[67.1224,24.7788],[67.1049,24.7976],[67.1023,24.7781],[67.0908,24.7921],[67.0931,24.7569],[67.0217,24.8083],[66.9758,24.8108],[66.9654,24.8414],[66.9825,24.8578],[66.9538,24.861],[66.9122,24.8447],[66.9578,24.8258],[66.9792,24.7917],[66.862,24.8568],[66.8191,24.8344],[66.7562,24.8437],[66.6833,24.8214],[66.6514,24.8293],[66.6843,24.8757],[66.7217,24.893],[66.6869,24.8927],[66.6754,24.9236],[66.7004,24.9496],[66.7041,25.0826],[66.7386,25.1422],[66.742,25.1832],[66.6783,25.2711],[66.5501,25.3652],[66.5553,25.3922],[66.5661,25.371],[66.58,25.374],[66.5783,25.4114],[66.5942,25.425],[66.56,25.4529],[66.5576,25.5381],[66.5289,25.5422],[66.5159,25.5634],[66.5428,25.6148],[66.5381,25.6439],[66.5021,25.5767],[66.4799,25.5877],[66.4672,25.5699],[66.4552,25.6194],[66.4454,25.5972],[66.3984,25.584],[66.3676,25.6159],[66.3105,25.61],[66.2969,25.6239],[66.2314,25.5902],[66.1964,25.6014],[66.1337,25.5442],[66.1328,25.5078],[66.0925,25.4805],[66.1956,25.4889],[66.2848,25.5421],[66.3141,25.5377],[66.3349,25.5531],[66.358,25.5248],[66.3972,25.5215],[66.3943,25.5066],[66.4265,25.4826],[66.4752,25.4995],[66.5174,25.492],[66.4928,25.4478],[66.5284,25.4158],[66.5133,25.4045],[66.36,25.4601],[66.2765,25.4678],[66.0391,25.4266],[66.0238,25.4437],[66.0094,25.4361],[66.0144,25.4209],[65.9549,25.4131],[65.8387,25.4194],[65.773,25.3834],[65.6357,25.3494],[65.5174,25.3712],[65.5435,25.4198],[65.5057,25.3761],[65.3718,25.39],[65.3381,25.3805],[65.3189,25.3966],[65.2545,25.3817],[65.2268,25.3178],[65.1564,25.306],[64.9953,25.3252],[64.8271,25.3189],[64.7806,25.3477],[64.7927,25.3239],[64.7262,25.3167],[64.6525,25.2732],[64.6402,25.2055],[64.7005,25.1866],[64.6623,25.16],[64.5838,25.1604],[64.611,25.2166],[64.5436,25.2704],[64.406,25.2382],[64.3405,25.2767],[64.2392,25.308],[64.2462,25.3324],[64.2233,25.318],[64.0838,25.3294],[64.0927,25.3664],[64.1175,25.3648],[64.081,25.3965],[64.1419,25.4112],[64.1381,25.4322],[64.1651,25.4533],[64.1243,25.439],[64.1174,25.4544],[64.0642,25.4452],[64.0473,25.4314],[64.0287,25.465],[64.0287,25.444],[63.9934,25.4298],[64.02,25.424],[64.0058,25.4065],[63.9744,25.4234],[63.9674,25.4073],[63.9913,25.4099],[64.0042,25.3843],[64.0208,25.4094],[64.0361,25.4061],[64.072,25.3631],[64.0643,25.3283],[63.9296,25.3371],[63.758,25.3787],[63.6059,25.3706],[63.5366,25.3462],[63.4811,25.2844],[63.4561,25.2951],[63.5039,25.2262],[63.4927,25.1981],[63.1395,25.2577],[63.0071,25.2106],[62.6949,25.2595],[62.4945,25.2528],[62.4637,25.2364],[62.4707,25.2126],[62.4118,25.2054],[62.3562,25.1699],[62.3394,25.1132],[62.3897,25.1037],[62.3769,25.0961],[62.2734,25.098],[62.3202,25.1205],[62.3149,25.1687],[62.2651,25.2048],[62.2034,25.215],[62.0735,25.1784],[62.0666,25.1547],[62.1054,25.1042],[62.0984,25.0961],[61.9847,25.1096],[61.8747,25.1027],[61.859,25.0955],[61.8449,25.0434],[61.7644,25.0327],[61.7242,25.054],[61.7575,25.0983],[61.7476,25.132],[61.769,25.124],[61.7831,25.1418],[61.7791,25.1926],[61.7523,25.1687],[61.6899,25.2053],[61.6592,25.1869],[61.6337,25.2028],[61.5696,25.1845],[61.603,25.2043],[61.5627,25.2175],[61.5702,25.2398],[61.5354,25.2375],[61.5557,25.2192],[61.5284,25.2069],[61.5556,25.1929],[61.4999,25.1944],[61.5279,25.1896],[61.4889,25.1778],[61.4893,25.192],[61.4541,25.1854],[61.4906,25.1719],[61.4918,25.1583],[61.4742,25.1072],[61.4048,25.0874],[61.4146,25.064],[61.1805,25.1258],[61.1673,25.1667],[61.0614,25.2019],[60.7418,25.273],[60.6056,25.2883],[60.6205,25.3072],[60.591,25.352],[60.6039,25.3785],[60.5932,25.4162],[60.5315,25.4464],[60.4296,25.4201],[60.4004,25.38],[60.3961,25.3504],[60.4466,25.3324],[60.4393,25.3188],[60.4586,25.2924],[60.4146,25.3183],[60.3057,25.3399],[60.2946,25.3894],[60.3257,25.3705],[60.3042,25.4029],[60.2014,25.3782],[60.1852,25.3524],[60.2072,25.3343],[60.1971,25.3286],[60.1103,25.3519],[60.108,25.3733],[60.0875,25.3822],[60.0,25.3822],[60.0,37.9747],[60.3716,37.8436]]]]}}