{"type":"Feature","properties":{"speciesId":42,"category":"LC","source":"IUCN Red List","simplifyTol":0.01,"clippedToSubcontinent":true},"geometry":{"type":"Polygon","coordinates":[[[94.0052,25.2616],[92.3733,23.0871],[92.3583,23.1037],[92.3484,23.2343],[92.3856,23.2652],[92.3669,23.3232],[92.3766,23.3484],[92.3405,23.4249],[92.3274,23.4231],[92.3021,23.5803],[92.2732,23.6265],[92.2881,23.6979],[92.2464,23.7211],[92.2129,23.6503],[92.2114,23.6963],[92.1605,23.7335],[92.0846,23.6741],[92.0741,23.6452],[92.0297,23.6394],[91.9795,23.7215],[91.9538,23.7264],[91.9388,23.6541],[91.9666,23.4871],[91.9416,23.463],[91.9358,23.4298],[91.9016,23.4345],[91.8421,23.3999],[91.7704,23.2676],[91.8138,23.1011],[91.8279,23.0906],[91.81,23.0652],[91.7756,23.0642],[91.7751,23.0254],[91.7121,22.9829],[91.6449,22.9769],[91.614,22.9296],[91.6045,22.9674],[91.5753,22.9632],[91.5446,22.9926],[91.5416,23.0358],[91.5224,23.0508],[91.5287,23.0884],[91.4919,23.1595],[91.4973,23.1869],[91.4699,23.192],[91.4762,23.2132],[91.4532,23.2173],[91.4613,23.2315],[91.4277,23.2591],[91.3917,23.2581],[91.3816,23.1984],[91.4037,23.0552],[91.3495,23.0854],[91.2977,23.2956],[91.3077,23.3023],[91.2878,23.3194],[91.3135,23.3556],[91.2898,23.3493],[91.2434,23.4841],[91.1971,23.5195],[91.2073,23.5418],[91.1626,23.5952],[91.1509,23.6411],[91.1636,23.667],[91.197,23.6479],[91.2004,23.6753],[91.1963,23.6876],[91.1556,23.6904],[91.1587,23.7341],[91.2193,23.7458],[91.246,23.8334],[91.2294,23.8927],[91.2418,23.9194],[91.2666,23.9254],[91.2619,23.9587],[91.3025,23.9877],[91.3702,23.9776],[91.3682,24.0061],[91.3957,24.0443],[91.3766,24.0956],[91.3882,24.1085],[91.5369,24.071],[91.5944,24.0774],[91.6379,24.1053],[91.6521,24.2269],[91.6928,24.1594],[91.7534,24.1376],[91.7514,24.2364],[91.8098,24.2114],[91.8415,24.2254],[91.838,24.1952],[91.8832,24.1428],[91.9061,24.1452],[91.9333,24.2794],[91.9204,24.3264],[91.9587,24.3522],[91.9881,24.3192],[91.9964,24.3264],[91.9639,24.3751],[92.1056,24.3746],[92.1376,24.3988],[92.1288,24.5131],[92.1936,24.5727],[92.2739,24.7851],[92.2603,24.8302],[92.2809,24.8554],[92.4851,24.8651],[92.4864,24.9365],[92.4508,24.94],[92.4632,24.9599],[92.4209,24.9748],[92.4131,25.0205],[92.3384,25.0474],[92.3344,25.0783],[92.2702,25.0778],[92.2188,25.1006],[92.2104,25.1225],[92.1827,25.133],[92.1762,25.12],[92.1567,25.1458],[92.1387,25.1369],[92.1224,25.1662],[92.0553,25.1851],[91.9789,25.1646],[91.9498,25.1801],[91.7599,25.1688],[91.7417,25.1454],[91.7008,25.1555],[91.6827,25.1266],[91.6324,25.1226],[91.6014,25.1378],[91.5991,25.1664],[91.5509,25.1434],[91.4765,25.1351],[91.2615,25.2024],[91.0697,25.1946],[90.8893,25.1541],[90.8389,25.1533],[90.7708,25.1804],[90.725,25.1568],[90.6762,25.1606],[90.649,25.1859],[90.6192,25.1668],[90.5117,25.1728],[90.4432,25.1456],[90.3604,25.1591],[90.3184,25.1874],[90.1078,25.2265],[89.9522,25.302],[89.9025,25.3059],[89.8672,25.2814],[89.8449,25.2891],[89.8157,25.3716],[89.8686,25.5826],[89.8727,25.6542],[89.8217,25.7281],[89.8389,25.7646],[89.8203,25.8149],[89.8386,25.8831],[89.8803,25.9313],[89.8245,25.9458],[89.857,25.981],[89.8268,25.9856],[89.8007,26.0343],[89.776,26.0444],[89.7894,26.0794],[89.7441,26.1567],[89.6856,26.1554],[89.6909,26.2072],[89.6753,26.2288],[89.6322,26.2189],[89.6235,26.1879],[89.6517,26.1736],[89.6152,26.175],[89.5901,26.1504],[89.6009,26.1179],[89.6299,26.1179],[89.5988,26.1073],[89.6008,26.0869],[89.6296,26.1032],[89.64,26.0705],[89.5834,26.0364],[89.5826,25.9782],[89.5687,25.9604],[89.5471,25.9656],[89.5323,26.0038],[89.4691,26.0004],[89.4304,26.0397],[89.3845,26.0055],[89.3574,26.0083],[89.2624,26.0603],[89.2671,26.0894],[89.2299,26.1203],[89.1676,26.1386],[89.1405,26.1844],[89.1446,26.2335],[89.105,26.2836],[89.1026,26.3113],[89.1312,26.2991],[89.1386,26.3151],[89.0906,26.3257],[89.1036,26.355],[89.0841,26.3663],[89.1002,26.396],[89.0493,26.397],[88.9913,26.4206],[88.9572,26.462],[88.9372,26.4303],[88.9247,26.4387],[88.9332,26.4188],[88.9011,26.4069],[88.915,26.4035],[88.9154,26.3635],[88.9494,26.3679],[88.9459,26.3441],[88.9818,26.3502],[88.9824,26.3354],[88.997,26.3367],[88.9806,26.3149],[88.9864,26.2979],[89.0245,26.3109],[89.0254,26.2898],[89.0555,26.2893],[89.0646,26.257],[89.0034,26.2289],[88.966,26.2344],[88.9116,26.2885],[88.8787,26.2887],[88.8579,26.2639],[88.8717,26.2352],[88.857,26.2318],[88.8067,26.2562],[88.8142,26.2947],[88.7956,26.3121],[88.7451,26.3117],[88.7453,26.2922],[88.7176,26.299],[88.7147,26.2835],[88.667,26.2735],[88.6641,26.3001],[88.7016,26.2855],[88.6971,26.3197],[88.755,26.3333],[88.7391,26.3359],[88.745,26.3538],[88.7086,26.3474],[88.6838,26.3913],[88.6951,26.3966],[88.6746,26.4037],[88.6831,26.4144],[88.6255,26.4344],[88.6184,26.4764],[88.5599,26.4666],[88.556,26.4859],[88.5234,26.485],[88.5154,26.5121],[88.5018,26.5133],[88.2928,27.1113],[88.2624,27.2807],[88.3081,27.3624],[88.3795,27.3944],[88.5123,27.3774],[88.628,27.232],[88.7683,26.9703],[89.3278,26.6896],[90.1213,26.47],[90.9738,26.4615],[91.9358,26.664],[92.7373,26.9226],[92.802,26.8989],[92.9084,26.9182],[93.0875,26.8824],[93.6244,26.9593],[93.7458,27.0194],[93.8292,27.0372],[93.8612,27.1909],[93.9861,27.3258],[94.1336,27.4482],[94.485,27.6039],[94.5242,27.5997],[94.8851,27.7468],[95.0012,27.8267],[95.2594,27.927],[95.305,27.9669],[95.4541,27.9095],[95.4256,27.7324],[94.0052,25.2616]]]}}