{"type":"Feature","properties":{"speciesId":420,"category":"LC","source":"IUCN Red List","simplifyTol":0.01,"clippedToSubcontinent":true},"geometry":{"type":"MultiPolygon","coordinates":[[[[76.3349,11.9496],[76.5221,11.9683],[76.597,12.0432],[76.8029,12.0806],[77.0837,12.0993],[77.402,11.987],[77.6454,12.0057],[77.87,12.118],[78.5627,12.118],[78.7873,12.0244],[78.8622,11.8934],[78.8622,11.6313],[78.7686,11.4815],[78.5627,11.3879],[78.207,11.3505],[77.7015,11.3505],[77.4581,11.2756],[77.2709,11.2382],[77.1399,11.0697],[77.065,10.8825],[77.1399,10.7327],[77.2148,10.6578],[77.6266,10.6578],[77.9074,10.6952],[78.0385,10.5829],[78.1883,10.3957],[78.0385,10.2272],[77.7015,10.0213],[77.6828,9.4784],[77.5705,9.3099],[77.5705,9.1414],[77.5517,9.0104],[77.6454,8.9167],[77.7764,8.7295],[77.7202,8.3738],[77.5892,8.2241],[77.3271,8.1866],[77.0837,8.3738],[76.9152,8.6172],[76.8029,9.1414],[76.728,9.3848],[76.6719,9.6843],[76.5034,10.04],[76.2413,10.3021],[76.1477,10.6578],[76.1664,10.9386],[76.0728,11.1258],[76.0166,11.3318],[75.8481,11.4815],[75.6422,11.8934],[75.2865,12.2304],[75.1742,12.792],[75.0244,13.1664],[74.9121,13.26],[74.8746,13.5221],[74.8746,13.6906],[75.1555,13.7281],[75.3239,13.597],[75.6048,13.3349],[75.7358,12.9979],[75.923,12.7171],[76.2038,12.2304],[76.3349,11.9496]]],[[[73.2765,18.8715],[73.2054,18.901],[73.1759,18.9721],[73.2054,19.0432],[73.2765,19.0727],[73.3476,19.0432],[73.3771,18.9721],[73.3476,18.901],[73.2765,18.8715]]]]}}