{"type":"Feature","properties":{"speciesId":422,"category":"LC","source":"IUCN Red List","simplifyTol":0.01,"clippedToSubcontinent":true},"geometry":{"type":"MultiPolygon","coordinates":[[[[74.0919,14.8759],[74.0891,14.8748],[74.0899,14.8778],[74.0919,14.8759]]],[[[78.6126,15.2664],[78.0801,15.5622],[77.9322,16.0652],[78.3759,16.3019],[79.2339,15.651],[78.9676,15.3551],[78.6126,15.2664]]],[[[74.2345,14.7079],[74.2316,14.7096],[74.2353,14.7098],[74.2345,14.7079]]],[[[74.1524,14.7386],[74.1492,14.7349],[74.1488,14.7389],[74.1524,14.7386]]],[[[74.0961,14.8432],[74.0918,14.8414],[74.0919,14.8455],[74.0961,14.8432]]],[[[74.1,14.8622],[74.0991,14.8645],[74.0999,14.8645],[74.1,14.8622]]],[[[74.7261,13.2244],[74.7248,13.2253],[74.7253,13.2255],[74.7261,13.2244]]],[[[74.4756,14.0091],[74.4729,14.011],[74.4764,14.0124],[74.4756,14.0091]]],[[[74.4835,14.0238],[74.4799,14.0248],[74.4835,14.0253],[74.4835,14.0238]]],[[[74.4666,14.084],[74.4634,14.0859],[74.4654,14.0868],[74.4666,14.084]]],[[[74.4786,14.0953],[74.4748,14.0931],[74.4746,14.0957],[74.4786,14.0953]]],[[[74.4706,14.1051],[74.4668,14.1079],[74.4689,14.1094],[74.4706,14.1051]]],[[[74.3985,14.3133],[74.3938,14.3089],[74.3921,14.3117],[74.3985,14.3133]]],[[[74.2486,14.6996],[74.246,14.702],[74.2488,14.7011],[74.2486,14.6996]]],[[[88.4989,21.5975],[88.4997,21.5997],[88.5059,21.5975],[88.4989,21.5975]]],[[[72.9321,18.9527],[72.9223,18.9629],[72.9424,18.9688],[72.9389,18.9654],[72.9321,18.9527]]],[[[79.3226,18.6982],[79.0268,18.8166],[78.9972,19.0532],[79.2339,19.3195],[79.6185,19.1124],[79.3226,18.6982]]],[[[73.0594,19.0065],[73.0493,19.0066],[73.0566,19.0171],[73.0594,19.0065]]],[[[72.8672,19.3274],[72.8447,19.3312],[72.838,19.3354],[72.8516,19.3378],[72.8672,19.3274]]],[[[72.9361,20.7636],[72.932,20.7705],[72.9412,20.7674],[72.9361,20.7636]]],[[[88.5231,21.5975],[88.5266,21.6569],[88.5941,21.5975],[88.5703,21.5975],[88.5231,21.5975]]],[[[88.762,21.6462],[88.7734,21.656],[88.7839,21.6398],[88.7602,21.5975],[88.7125,21.5975],[88.7252,21.6306],[88.6902,21.6844],[88.6971,21.7184],[88.7103,21.6829],[88.762,21.6462]]],[[[74.4707,21.0058],[74.5595,20.3845],[74.8258,19.7041],[74.6778,19.4378],[74.7962,18.0178],[74.5891,16.2131],[74.9737,15.5031],[75.5654,14.5564],[76.4529,12.8109],[77.163,12.8109],[77.873,13.0771],[78.4943,12.8109],[78.2576,12.515],[77.5771,11.9529],[77.1925,11.3908],[77.6067,10.3849],[77.6067,9.7636],[77.7546,8.9057],[77.8434,8.2844],[77.6972,8.1591],[77.577,8.1291],[77.163,8.2844],[77.0446,8.5211],[76.6896,8.8169],[76.4233,9.5565],[76.305,10.0003],[76.1275,10.4737],[75.7429,11.6866],[75.2695,12.2192],[74.8849,12.7221],[74.6888,13.3677],[74.737,13.728],[74.5999,13.8679],[74.565,13.9466],[74.5451,13.9483],[74.512,13.9846],[74.464,14.1872],[74.4147,14.2874],[74.3953,14.4186],[74.3765,14.4165],[74.3538,14.5117],[74.3052,14.5196],[74.2912,14.5931],[74.2635,14.6245],[74.2946,14.6402],[74.2751,14.6467],[74.2756,14.6779],[74.2537,14.7068],[74.2633,14.7094],[74.2647,14.7201],[74.2582,14.7122],[74.2215,14.7472],[74.1993,14.7176],[74.1765,14.7446],[74.1477,14.7464],[74.1341,14.7778],[74.1183,14.7742],[74.099,14.8048],[74.1171,14.8034],[74.1249,14.8405],[74.1079,14.8451],[74.0912,14.8945],[74.0369,14.9199],[74.0487,14.9568],[74.0298,14.9815],[74.0476,14.9848],[73.9348,15.0762],[73.9271,15.1147],[73.9458,15.1408],[73.8703,15.3991],[73.8899,15.4192],[73.8645,15.428],[73.524,16.6569],[73.2282,18.0769],[72.9197,18.7967],[72.9356,18.8241],[72.9886,18.7759],[72.999,18.7794],[72.9859,18.8052],[73.0578,18.8027],[72.9898,18.8116],[72.9821,18.8626],[72.9381,18.847],[72.9069,18.8865],[72.9247,18.9098],[72.942,18.8943],[72.9495,18.9458],[72.9772,18.9461],[72.9539,18.9701],[73.0908,18.9988],[73.0667,19.0143],[73.0847,19.0314],[73.0644,19.0292],[73.0904,19.0457],[73.0061,19.005],[72.9844,19.0708],[72.9952,19.0869],[72.9764,19.1069],[72.9764,19.1707],[72.9642,19.1353],[72.9522,19.1374],[72.9569,19.1077],[72.9307,19.0904],[72.9472,19.068],[72.9137,19.0744],[72.9517,19.0432],[72.9034,18.9938],[72.8784,19.0226],[72.8573,19.0094],[72.8507,18.9728],[72.8313,19.0366],[72.8597,19.0602],[72.8258,19.0473],[72.808,19.1435],[72.7952,19.1391],[72.7854,19.1687],[72.8011,19.1976],[72.7783,19.1922],[72.7907,19.3107],[72.8107,19.2999],[72.8517,19.316],[72.9155,19.2908],[72.8583,19.3403],[72.8067,19.3298],[72.7627,19.3701],[72.7844,19.6745],[72.8949,20.6024],[72.9051,20.5993],[72.912,20.7461],[72.9519,20.755],[72.9425,20.7755],[72.9159,20.7763],[72.9323,20.9171],[72.8732,21.2129],[72.8436,21.6271],[72.8489,21.6655],[72.9193,21.6478],[73.1089,21.7201],[73.0803,21.7366],[72.9438,21.6753],[72.8728,21.6882],[72.8512,21.6819],[72.9619,22.4851],[73.5832,22.8401],[74.1749,22.7513],[74.5891,22.278],[74.4707,21.0058]]],[[[77.0742,21.1833],[76.9559,21.4496],[76.8967,21.6271],[77.2221,21.7454],[77.5771,21.5383],[77.5476,21.3017],[77.37,21.2129],[77.0742,21.1833]]],[[[72.8784,21.6802],[72.8683,21.6724],[72.8578,21.6764],[72.8784,21.6802]]],[[[88.6877,22.0147],[88.6742,22.014],[88.6743,22.0171],[88.6877,22.0147]]],[[[88.6639,22.0153],[88.7183,22.0018],[88.7011,21.9599],[88.6871,21.9454],[88.6418,21.9509],[88.647,22.0036],[88.6639,22.0153]]],[[[88.6459,21.6462],[88.6324,21.6546],[88.6509,21.6829],[88.6459,21.6462]]],[[[88.3064,21.7345],[88.3014,21.7308],[88.3016,21.7348],[88.3064,21.7345]]],[[[88.5229,21.7156],[88.572,21.6819],[88.5599,21.6377],[88.5332,21.6558],[88.5229,21.7156]]],[[[88.3583,21.674],[88.3296,21.7026],[88.3518,21.6872],[88.3583,21.674]]],[[[88.4865,21.7932],[88.4591,21.7264],[88.4841,21.675],[88.4526,21.6002],[88.4315,21.6008],[88.4483,21.6233],[88.427,21.6599],[88.4273,21.6899],[88.4436,21.7026],[88.4366,21.7671],[88.4564,21.7929],[88.4865,21.7932]]],[[[88.58,21.7201],[88.6154,21.679],[88.6017,21.6541],[88.6125,21.6055],[88.5642,21.6419],[88.5808,21.6629],[88.5699,21.7091],[88.5233,21.7224],[88.5069,21.7573],[88.5331,21.7746],[88.5469,21.8165],[88.5779,21.7923],[88.5666,21.7684],[88.58,21.7201]]],[[[88.3724,21.7312],[88.4033,21.7103],[88.3778,21.6847],[88.3606,21.6916],[88.3486,21.7126],[88.3573,21.7176],[88.36,21.7617],[88.4005,21.7602],[88.3724,21.7312]]],[[[88.6158,21.7249],[88.5867,21.7213],[88.5729,21.7718],[88.587,21.7766],[88.5909,21.7566],[88.6224,21.7421],[88.6158,21.7249]]],[[[88.6178,21.7021],[88.6055,21.7109],[88.6277,21.7412],[88.5968,21.7582],[88.5942,21.7781],[88.6169,21.788],[88.6377,21.7533],[88.6178,21.7021]]],[[[88.3873,21.7702],[88.3684,21.7709],[88.3493,21.7566],[88.3528,21.7212],[88.3365,21.7285],[88.3345,21.7054],[88.3145,21.7178],[88.3144,21.7844],[88.3309,21.7846],[88.3603,21.7984],[88.3864,21.7918],[88.3873,21.7702]]],[[[88.5304,21.782],[88.5145,21.7764],[88.5298,21.7965],[88.5304,21.782]]],[[[88.298,21.7928],[88.3134,21.7922],[88.3183,21.7914],[88.3091,21.7865],[88.298,21.7928]]],[[[88.5096,21.8101],[88.4734,21.8011],[88.4606,21.8159],[88.4925,21.8357],[88.5096,21.8101]]],[[[88.6137,21.7971],[88.5834,21.8142],[88.6003,21.8509],[88.622,21.8302],[88.6137,21.7971]]],[[[88.642,21.8673],[88.6618,21.87],[88.6451,21.7857],[88.6272,21.7976],[88.627,21.8319],[88.601,21.8612],[88.6242,21.8974],[88.642,21.8673]]],[[[88.1917,21.8544],[88.1907,21.8416],[88.1811,21.8622],[88.1917,21.8544]]],[[[88.657,21.8745],[88.6408,21.8761],[88.6271,21.9038],[88.6414,21.9224],[88.6735,21.917],[88.657,21.8745]]],[[[88.1422,21.8976],[88.1093,21.9229],[88.127,21.9559],[88.1557,21.9241],[88.1422,21.8976]]],[[[88.4991,21.8986],[88.4961,21.9076],[88.5028,21.9081],[88.4991,21.8986]]],[[[88.9672,21.8638],[88.8849,21.7578],[88.8723,21.7659],[88.8067,21.6573],[88.7594,21.6566],[88.7243,21.6805],[88.6993,21.7411],[88.7229,21.8073],[88.6998,21.8403],[88.7311,21.9352],[88.7291,21.976],[88.7903,22.0183],[88.7667,22.0237],[88.7594,22.0502],[88.7747,22.0519],[88.7486,22.0659],[88.7157,22.0484],[88.7415,22.0282],[88.735,22.0071],[88.6685,22.0226],[88.6445,22.1181],[88.631,22.1198],[88.6214,22.105],[88.6438,22.0459],[88.6084,21.972],[88.6202,21.9377],[88.5852,21.9852],[88.5792,21.9633],[88.611,21.9322],[88.6096,21.9095],[88.5833,21.8856],[88.5618,21.814],[88.5031,21.8849],[88.5314,21.9303],[88.5095,21.9704],[88.5525,21.9851],[88.5652,22.0228],[88.5449,21.9865],[88.5049,21.973],[88.5103,21.9217],[88.485,21.8966],[88.4664,21.9001],[88.4688,21.9487],[88.4597,21.9382],[88.4534,21.9068],[88.4633,21.8964],[88.4841,21.8913],[88.5001,21.8489],[88.4583,21.8201],[88.469,21.7932],[88.4479,21.8015],[88.4292,21.7659],[88.4363,21.7042],[88.4196,21.6881],[88.4183,21.6661],[88.4412,21.6244],[88.4222,21.61],[88.3929,21.6393],[88.3891,21.6672],[88.4108,21.7218],[88.3795,21.7303],[88.3991,21.7368],[88.4075,21.7646],[88.3915,21.7795],[88.4082,21.7984],[88.4001,21.8346],[88.4213,21.8892],[88.3996,21.8993],[88.4164,21.9231],[88.4056,21.9516],[88.3903,21.9667],[88.4057,21.9738],[88.4124,21.9947],[88.3873,21.9675],[88.4114,21.9216],[88.396,21.9071],[88.3979,21.8949],[88.4077,21.8854],[88.3976,21.8749],[88.4004,21.8004],[88.3717,21.8007],[88.3643,21.8528],[88.3642,21.8014],[88.3296,21.7886],[88.3146,21.7988],[88.2816,21.7969],[88.2765,21.8073],[88.3154,21.8303],[88.3238,21.8496],[88.311,21.8646],[88.2686,21.865],[88.3175,21.8502],[88.2589,21.8013],[88.2841,21.7481],[88.166,21.888],[88.1748,21.9239],[88.1487,21.9596],[88.2198,22.0425],[88.2352,22.0848],[88.2198,22.1282],[88.3164,22.3075],[88.8193,22.278],[88.9672,21.8638]]]]}}