{"type":"Feature","properties":{"speciesId":423,"category":"EN","source":"IUCN Red List","simplifyTol":0.01,"clippedToSubcontinent":true},"geometry":{"type":"MultiPolygon","coordinates":[[[[78.0822,28.971],[78.0542,28.9937],[78.0694,29.0132],[78.0621,29.0014],[78.0822,28.971]]],[[[90.6047,22.9988],[90.5952,22.9884],[90.5968,23.0006],[90.6047,22.9988]]],[[[90.9911,22.5396],[90.9827,22.5361],[90.9844,22.5465],[90.9911,22.5396]]],[[[90.613,22.9216],[90.6077,22.9193],[90.6098,22.9256],[90.613,22.9216]]],[[[90.6369,22.9367],[90.6506,22.9353],[90.6545,22.9301],[90.6369,22.9367]]],[[[90.641,22.9532],[90.6257,22.9426],[90.6161,22.9694],[90.641,22.9532]]],[[[90.6333,22.3708],[90.6405,22.3625],[90.6341,22.3581],[90.6333,22.3708]]],[[[90.8903,22.4917],[90.8759,22.4968],[90.866,22.5055],[90.8909,22.5076],[90.8903,22.4917]]],[[[90.9778,22.3708],[90.9493,22.3827],[90.9577,22.4188],[90.9452,22.4373],[90.9664,22.4507],[90.9882,22.411],[90.9778,22.3708]]],[[[90.8533,22.5923],[90.9241,22.5741],[90.9785,22.5272],[90.9867,22.5008],[90.927,22.4881],[90.8369,22.5658],[90.8533,22.5923]]],[[[88.0034,22.0835],[87.9926,22.0922],[87.9893,22.1003],[87.9967,22.099],[88.0034,22.0835]]],[[[90.9319,22.2417],[90.9206,22.2471],[90.9354,22.2912],[90.9464,22.2863],[90.9319,22.2417]]],[[[91.0153,22.2333],[91.0035,22.2495],[91.0215,22.2704],[91.011,22.3417],[91.0381,22.3091],[91.0153,22.2333]]],[[[90.908,22.2896],[90.9037,22.2891],[90.9068,22.2919],[90.908,22.2896]]],[[[91.0393,22.3753],[91.059,22.3715],[91.0576,22.3466],[91.0299,22.3341],[91.0006,22.3729],[90.9882,22.4575],[91.023,22.4619],[91.0548,22.4382],[91.0393,22.3753]]],[[[90.9194,22.2917],[90.9048,22.3021],[90.9321,22.3583],[90.941,22.3354],[90.9194,22.2917]]],[[[90.6153,22.2583],[90.6298,22.3438],[90.6493,22.3534],[90.6535,22.2885],[90.6153,22.2583]]],[[[90.8847,22.4],[90.8861,22.3333],[90.876,22.3631],[90.858,22.3467],[90.8847,22.4]]],[[[90.6569,22.3542],[90.6549,22.3868],[90.6659,22.3874],[90.6673,22.364],[90.6569,22.3542]]],[[[90.8895,22.1119],[90.8789,22.1092],[90.966,22.2854],[90.966,22.3486],[90.9837,22.3548],[91.0048,22.2788],[90.991,22.1979],[90.9243,22.0716],[90.908,22.0702],[90.8947,22.0914],[90.8848,22.0785],[90.8895,22.1119]],[[90.8962,22.1137],[90.8929,22.1172],[90.8917,22.1125],[90.8962,22.1137]]],[[[88.0358,22.033],[88.0244,22.0507],[88.0248,22.0664],[88.0279,22.0646],[88.0358,22.033]]],[[[90.8944,22.0458],[90.8744,22.0576],[90.887,22.0756],[90.9006,22.0671],[90.8944,22.0458]]],[[[90.8073,22.0463],[90.8008,22.0382],[90.7995,22.0448],[90.8073,22.0463]]],[[[88.0528,21.9083],[88.0465,21.9397],[88.072,21.9999],[88.1465,22.0273],[88.0909,21.9301],[88.0528,21.9083]]],[[[89.9002,21.9929],[89.8786,21.9935],[89.8992,21.9993],[89.9002,21.9929]]],[[[90.8661,22.0021],[90.8577,22.0009],[90.8596,22.009],[90.8661,22.0021]]],[[[89.9137,22.0089],[89.9136,22.0006],[89.908,22.0071],[89.9137,22.0089]]],[[[90.8444,21.9917],[90.8327,22.0079],[90.8412,22.0215],[90.8506,22.0197],[90.8444,21.9917]]],[[[90.8547,22.1799],[90.8494,22.1776],[90.8514,22.1839],[90.8547,22.1799]]],[[[90.838,22.1799],[90.8327,22.1776],[90.8348,22.1839],[90.838,22.1799]]],[[[89.8792,22.0917],[89.8868,22.0716],[89.8675,22.058],[89.8792,22.0917]]],[[[90.4972,22.1371],[90.5125,22.1542],[90.5118,22.1382],[90.4972,22.1371]]],[[[90.5125,22.1542],[90.5256,22.1615],[90.5241,22.1452],[90.5125,22.1542]]],[[[87.9854,22.2171],[88.0303,22.2],[88.0335,22.2127],[88.0532,22.2077],[88.0784,22.1869],[88.1366,22.1868],[88.1964,22.1135],[88.1911,22.0978],[88.1647,22.0672],[88.0648,22.0126],[88.0423,22.0691],[87.9987,22.1073],[87.9579,22.1125],[87.9503,22.1866],[87.9139,22.1827],[87.9077,22.2522],[87.8875,22.2875],[87.9201,22.2924],[87.9366,22.3196],[87.9381,22.2677],[87.9854,22.2171]]],[[[89.5797,22.2321],[89.578,22.2244],[89.575,22.2333],[89.5797,22.2321]]],[[[90.8986,22.2208],[90.8912,22.2299],[90.9013,22.2756],[90.912,22.2604],[90.8986,22.2208]]],[[[90.8284,21.8951],[90.8295,21.8842],[90.7744,21.8759],[90.7951,21.9131],[90.8284,21.8951]],[[90.8163,21.8947],[90.8196,21.8911],[90.8208,21.8958],[90.8163,21.8947]]],[[[88.6212,21.7809],[88.6288,21.7267],[88.6142,21.708],[88.5875,21.7167],[88.6089,21.6841],[88.5953,21.6613],[88.6071,21.621],[88.575,21.625],[88.5868,21.58],[88.5505,21.5619],[88.5375,21.5792],[88.5326,21.5424],[88.5062,21.5381],[88.4833,21.5513],[88.4798,21.573],[88.4885,21.599],[88.5074,21.5954],[88.5298,21.6663],[88.4994,21.783],[88.5413,21.8131],[88.5702,21.798],[88.5662,21.7758],[88.5997,21.7923],[88.6212,21.7809]],[[88.6004,21.7178],[88.597,21.7214],[88.5958,21.7167],[88.6004,21.7178]],[[88.5863,21.7212],[88.5828,21.7179],[88.5875,21.7167],[88.5863,21.7212]],[[88.5738,21.6296],[88.5703,21.6262],[88.575,21.625],[88.5738,21.6296]],[[88.5363,21.5837],[88.5328,21.5804],[88.5375,21.5792],[88.5363,21.5837]],[[88.5208,21.5917],[88.5288,21.5884],[88.5283,21.591],[88.5208,21.5917]],[[88.5208,21.5917],[88.5128,21.5949],[88.5133,21.5923],[88.5208,21.5917]],[[88.5778,21.725],[88.5839,21.7469],[88.568,21.7672],[88.5661,21.7616],[88.5778,21.725]],[[88.562,21.6308],[88.5663,21.6312],[88.5652,21.6336],[88.562,21.6308]]],[[[90.3788,21.8726],[90.3608,21.8504],[90.3184,21.8462],[90.3038,21.8775],[90.3549,21.9824],[90.4186,22.0369],[90.4652,22.0583],[90.475,22.0458],[90.4843,22.0957],[90.574,22.1801],[90.5794,22.1908],[90.5619,22.1926],[90.5757,22.2367],[90.6324,22.2502],[90.6369,22.2145],[90.6091,22.1906],[90.6077,22.102],[90.5904,22.0541],[90.5048,21.9535],[90.4833,22.0125],[90.4952,21.952],[90.4572,21.8918],[90.4338,21.8785],[90.4087,21.8907],[90.3945,21.866],[90.3788,21.8726]],[[90.378,21.8796],[90.3744,21.8762],[90.3792,21.875],[90.378,21.8796]],[[90.3621,21.9062],[90.3579,21.9058],[90.3611,21.9042],[90.3621,21.9062]],[[90.4833,22.0292],[90.4833,22.0167],[90.4881,22.028],[90.4833,22.0292]]],[[[88.7417,21.6583],[88.6913,21.7441],[88.7087,21.7816],[88.6962,21.8608],[88.725,21.9333],[88.7215,21.9783],[88.7667,22.0167],[88.7458,22.0667],[88.7204,22.0535],[88.7,22.0792],[88.6831,22.0779],[88.6978,22.0547],[88.7378,22.0446],[88.7411,22.0136],[88.7167,22.0042],[88.68,21.9411],[88.6244,21.9577],[88.6339,21.998],[88.6629,22.0299],[88.631,22.1198],[88.6822,22.2011],[88.6755,22.2064],[88.6208,22.1125],[88.6381,22.0593],[88.5994,21.9757],[88.6161,21.9311],[88.5756,21.8783],[88.5575,21.8174],[88.5125,21.839],[88.5172,21.8551],[88.4833,21.8917],[88.5037,21.8146],[88.475,21.7958],[88.4577,21.7236],[88.4744,21.6729],[88.4534,21.6176],[88.4382,21.6137],[88.4342,21.6329],[88.4076,21.5966],[88.3881,21.6062],[88.3798,21.6866],[88.3978,21.7078],[88.3542,21.6833],[88.3572,21.6426],[88.3171,21.6077],[88.3035,21.6093],[88.3092,21.6616],[88.2911,21.6032],[88.3089,21.5782],[88.2855,21.5589],[88.252,21.5589],[88.2324,21.6076],[88.2139,21.6168],[88.2172,21.6016],[88.2052,21.6045],[88.1839,21.6603],[88.1786,21.6923],[88.1967,21.7367],[88.2071,21.7244],[88.2172,21.7757],[88.1672,21.8645],[88.1708,21.9167],[88.1494,21.9593],[88.2119,22.0353],[88.2203,22.1022],[88.2078,22.1522],[88.1689,22.1953],[88.0675,22.209],[88.1042,22.3],[88.0792,22.2833],[88.0741,22.2424],[88.0469,22.2161],[88.0325,22.2208],[87.9734,22.2798],[87.9572,22.4181],[87.895,22.4464],[87.9139,22.4823],[87.9292,22.4833],[87.9119,22.5424],[87.9339,22.5591],[87.9213,22.5771],[87.9337,22.6017],[87.9167,22.6208],[87.9454,22.6604],[87.9208,22.6917],[87.9417,22.775],[87.9215,22.8897],[87.9593,22.9881],[88.0,22.9708],[87.9996,22.9816],[87.9958,23.0208],[87.9548,23.0134],[87.9673,23.0509],[87.9372,23.0907],[87.8292,23.1375],[87.8907,23.1506],[87.8958,23.1958],[87.9208,23.225],[87.9092,23.245],[87.9618,23.2369],[87.9824,23.2589],[88.0533,23.2548],[88.1167,23.275],[88.0941,23.2996],[88.0566,23.2955],[88.0083,23.3083],[88.009,23.3201],[88.0867,23.3427],[88.1076,23.3676],[88.1167,23.4292],[88.1363,23.4244],[88.1425,23.4408],[88.1866,23.4506],[88.2042,23.4708],[88.2035,23.5158],[88.1814,23.5286],[88.1368,23.5078],[88.1,23.5208],[88.1292,23.5917],[88.1083,23.6333],[88.1288,23.6434],[88.1208,23.6667],[88.1453,23.7061],[88.1384,23.7533],[88.2,23.7667],[88.2089,23.8007],[88.1667,23.8875],[88.1955,23.9101],[88.1864,23.9753],[88.1458,23.9625],[88.1792,24.0792],[88.1375,24.1042],[88.141,24.1657],[88.1203,24.1762],[88.1214,24.2355],[88.1375,24.2625],[88.1118,24.2714],[88.0728,24.2536],[88.0464,24.2199],[88.0495,24.1813],[88.0173,24.1801],[88.0077,24.2158],[87.9757,24.2342],[87.9702,24.2616],[87.9458,24.2667],[87.9333,24.3],[87.8051,24.334],[87.8134,24.3536],[87.8657,24.3548],[87.8869,24.377],[87.8542,24.4583],[87.8247,24.4631],[87.8033,24.4371],[87.7831,24.4575],[87.7,24.4625],[87.7297,24.5137],[87.7176,24.545],[87.8046,24.4994],[87.8448,24.509],[87.9,24.5514],[87.895,24.5741],[87.8384,24.5872],[87.823,24.6077],[87.7708,24.6125],[87.7938,24.6329],[87.8458,24.6375],[87.9125,24.6875],[87.9076,24.7031],[87.877,24.7006],[87.8368,24.7464],[87.777,24.7369],[87.7583,24.7042],[87.7425,24.7048],[87.6699,24.7827],[87.6259,24.805],[87.6383,24.8409],[87.6833,24.8625],[87.7142,24.8045],[87.7775,24.7788],[87.8399,24.7837],[87.9211,24.8178],[87.9167,24.8333],[87.897,24.8286],[87.8563,24.8579],[87.7812,24.8255],[87.7718,24.8339],[87.6631,24.9978],[87.6958,25.0625],[87.67,25.0908],[87.6054,25.0828],[87.5559,25.1205],[87.5405,25.0759],[87.4994,25.0448],[87.4992,25.0176],[87.4688,25.0006],[87.39,25.0212],[87.3145,24.9922],[87.2509,25.0259],[87.2369,25.1022],[87.2167,25.1292],[87.1583,25.1042],[87.1493,25.0676],[87.0921,25.0365],[87.0531,24.9754],[86.9966,24.9367],[86.9542,24.8833],[86.9229,24.9167],[86.8342,24.93],[86.8812,24.9702],[86.9116,24.9706],[86.9202,25.0062],[86.8958,25.0542],[86.8483,25.0504],[86.8292,25.0333],[86.8196,24.9619],[86.7792,24.9542],[86.7663,24.8767],[86.7375,24.85],[86.7083,24.8458],[86.6409,24.966],[86.5899,25.0038],[86.4792,24.975],[86.4158,25.0575],[86.3708,25.0458],[86.3438,25.0579],[86.301,25.0288],[86.2741,24.9799],[86.2456,24.9803],[86.25,24.9917],[86.2216,24.9784],[86.2288,24.9309],[86.195,24.8509],[86.1667,24.8458],[86.1434,24.8621],[86.1042,24.8583],[86.0958,24.8375],[86.0441,24.8371],[85.9792,24.8583],[85.9798,24.8385],[86.0162,24.8021],[85.9608,24.742],[85.9259,24.7592],[85.9032,24.8368],[85.8205,24.8845],[85.8271,24.9833],[85.7674,24.9116],[85.7578,24.8632],[85.7545,24.8059],[85.8172,24.7841],[85.7964,24.7605],[85.7954,24.7312],[85.7017,24.7163],[85.6733,24.6879],[85.65,24.6875],[85.6547,24.7177],[85.6,24.8208],[85.5583,24.8375],[85.5672,24.7907],[85.5174,24.6842],[85.4921,24.8021],[85.5214,24.8674],[85.5,24.925],[85.4833,24.9167],[85.4869,24.8895],[85.4369,24.801],[85.4325,24.7592],[85.4,24.7875],[85.3375,24.7625],[85.3292,24.8042],[85.3616,24.809],[85.4116,24.8589],[85.3875,24.9167],[85.2865,24.8548],[85.252,24.8869],[85.1754,24.8324],[85.1458,24.7708],[85.1076,24.8243],[85.0833,24.8292],[85.026,24.7742],[85.0333,24.7208],[85.0034,24.7339],[84.9866,24.6965],[84.9629,24.7017],[84.9691,24.7496],[84.8884,24.7491],[84.8411,24.6618],[84.85,24.6125],[84.8206,24.6074],[84.8246,24.5975],[84.8167,24.5917],[84.8167,24.6083],[84.802,24.6078],[84.7605,24.5672],[84.7458,24.5708],[84.7661,24.6061],[84.7631,24.6674],[84.7384,24.6799],[84.7243,24.7325],[84.7042,24.7458],[84.67,24.7009],[84.65,24.7042],[84.641,24.6884],[84.5726,24.6996],[84.5203,24.6257],[84.5294,24.5761],[84.5167,24.5458],[84.4233,24.4962],[84.3511,24.5044],[84.3342,24.5216],[84.3284,24.5782],[84.2812,24.6292],[84.2625,24.6208],[84.262,24.5229],[84.2287,24.491],[84.2132,24.4966],[84.2078,24.526],[84.2464,24.5799],[84.2203,24.6382],[84.2292,24.6833],[84.1816,24.733],[84.1083,24.7042],[84.1413,24.7608],[84.1,24.7958],[84.1131,24.8302],[84.0708,24.875],[84.1208,24.8875],[84.1078,24.9049],[84.1078,25.0009],[84.1358,25.0705],[84.1135,25.0663],[84.0923,25.0283],[84.1006,24.9699],[84.0866,24.9423],[84.0351,24.9379],[83.995,24.9825],[83.9032,24.9922],[83.8507,24.9615],[83.7788,24.826],[83.7437,24.8208],[83.6875,24.8875],[83.6517,24.8879],[83.5534,24.959],[83.4952,24.9153],[83.4994,24.8978],[83.4708,24.8583],[83.4618,24.8825],[83.425,24.9042],[83.4375,24.9223],[83.4119,24.9569],[83.4333,24.968],[83.4024,24.9871],[83.3483,24.9788],[83.3226,24.9913],[83.2687,24.9744],[83.25,24.9292],[83.2132,24.9426],[83.2083,24.9708],[83.1816,24.983],[83.1551,24.9827],[83.1538,24.9559],[83.127,24.9506],[83.0758,24.9631],[83.0292,25.0083],[82.977,24.9631],[82.9542,25.0099],[82.9756,25.0139],[82.9667,25.0464],[82.9359,25.0497],[82.9259,25.0342],[82.9199,25.0493],[82.8798,25.0592],[82.8792,25.075],[82.8387,25.0714],[82.8199,25.0382],[82.7875,25.0208],[82.7631,24.9908],[82.7619,24.9353],[82.7399,24.9129],[82.6561,24.9089],[82.5059,24.9462],[82.4542,24.9708],[82.4756,25.0405],[82.4423,25.0592],[82.4411,25.0863],[82.4875,25.1313],[82.4784,25.1573],[82.459,25.1592],[82.4583,25.1875],[82.4175,25.1785],[82.4125,25.1542],[82.2858,25.1545],[82.2566,25.1413],[82.2292,25.175],[82.2421,25.1947],[82.1926,25.1993],[82.134,25.1658],[82.1333,25.1208],[82.1167,25.1167],[82.1173,25.1674],[82.0875,25.1847],[82.1083,25.2292],[82.0775,25.2337],[82.0458,25.2208],[82.0502,25.2091],[81.9758,25.195],[81.9833,25.1646],[81.9624,25.1349],[81.9825,25.105],[81.947,25.1172],[81.9326,25.1036],[81.8551,25.1257],[81.8506,25.1588],[81.8159,25.1951],[81.7407,25.2005],[81.6759,25.1798],[81.65,25.2125],[81.6333,25.2125],[81.6467,25.2408],[81.678,25.2586],[81.6703,25.2882],[81.6871,25.3532],[81.6592,25.3634],[81.6443,25.3917],[81.577,25.3703],[81.5566,25.3462],[81.5345,25.3547],[81.5021,25.338],[81.4583,25.4208],[81.4053,25.4501],[81.3755,25.4979],[81.3839,25.5299],[81.3708,25.5625],[81.3839,25.5799],[81.3592,25.616],[81.3803,25.6294],[81.4199,25.6118],[81.4429,25.5494],[81.4708,25.5542],[81.4919,25.5886],[81.4703,25.6326],[81.4871,25.6899],[81.4691,25.6913],[81.4542,25.7167],[81.4173,25.7158],[81.4118,25.6758],[81.3588,25.6535],[81.325,25.6583],[81.3076,25.7159],[81.2667,25.6875],[81.1917,25.7208],[81.1576,25.6952],[81.145,25.7159],[81.1009,25.7173],[81.095,25.8159],[81.058,25.8133],[81.0409,25.849],[80.9926,25.8713],[80.9958,25.8875],[80.9438,25.8505],[80.9083,25.8708],[80.7792,25.8],[80.6689,25.8328],[80.6092,25.8299],[80.5917,25.8708],[80.6214,25.9363],[80.5125,25.975],[80.5083,25.9333],[80.474,25.9575],[80.4341,25.9507],[80.4036,26.0112],[80.4203,26.0438],[80.3854,26.062],[80.3631,26.0551],[80.3579,26.1188],[80.3324,26.1493],[80.3076,26.1547],[80.2625,26.125],[80.2295,26.1434],[80.2547,26.2091],[80.1745,26.2301],[80.2286,26.2811],[80.2078,26.303],[80.2339,26.3299],[80.1674,26.3799],[80.15,26.475],[80.1174,26.4758],[80.1116,26.5032],[80.0354,26.5494],[79.9632,26.5427],[79.9157,26.6244],[79.8167,26.6042],[79.8298,26.6407],[79.7803,26.6543],[79.733,26.7358],[79.6831,26.7553],[79.6792,26.7708],[79.7077,26.7884],[79.7162,26.8188],[79.7172,26.8571],[79.6958,26.8875],[79.5717,26.9164],[79.5756,26.9421],[79.5534,26.9701],[79.4542,26.9708],[79.4458,27.0042],[79.4,27.0042],[79.3825,27.0451],[79.323,27.0827],[79.2437,27.0923],[79.2074,27.166],[79.1417,27.175],[79.1092,27.1632],[79.076,27.2047],[79.0284,27.2297],[78.992,27.2267],[79.0083,27.275],[78.8465,27.3425],[78.8458,27.3708],[78.8771,27.363],[78.9119,27.3936],[78.9213,27.4451],[78.9083,27.4542],[78.9292,27.4792],[78.9534,27.4799],[78.9619,27.5632],[78.9797,27.5924],[78.9625,27.6057],[78.9708,27.6167],[78.9295,27.6267],[78.9025,27.683],[78.8833,27.6833],[78.8885,27.734],[78.9243,27.7468],[78.9494,27.7884],[78.9542,27.8375],[78.8968,27.8049],[78.8833,27.8208],[78.8919,27.8572],[78.8262,27.8536],[78.8208,27.8917],[78.8024,27.8996],[78.7508,27.891],[78.7446,27.85],[78.7083,27.8417],[78.6534,27.9118],[78.5965,27.8966],[78.5967,27.9285],[78.6589,27.9716],[78.6456,27.9845],[78.6708,28.0313],[78.6583,28.0625],[78.5497,28.1095],[78.5583,28.1375],[78.5439,28.1453],[78.525,28.1375],[78.5243,28.1092],[78.5,28.0792],[78.4589,28.1061],[78.4536,28.1355],[78.4167,28.175],[78.4425,28.2534],[78.4627,28.255],[78.4459,28.2929],[78.4667,28.3],[78.4708,28.3333],[78.4453,28.37],[78.4175,28.3757],[78.3792,28.4417],[78.3504,28.4559],[78.3369,28.5397],[78.2706,28.6053],[78.292,28.7225],[78.2792,28.7417],[78.2208,28.7292],[78.2006,28.7468],[78.2047,28.7821],[78.175,28.8042],[78.1702,28.8338],[78.1878,28.8551],[78.1881,28.8903],[78.1604,28.8833],[78.105,28.9009],[78.1129,28.9475],[78.074,28.9982],[78.1244,29.1228],[78.0792,29.1542],[78.1125,29.2146],[78.0958,29.2604],[78.1045,29.2975],[78.0792,29.3375],[78.0369,29.3632],[78.0625,29.4083],[78.0473,29.4],[78.0099,29.4375],[77.9988,29.4203],[77.977,29.4214],[77.9625,29.475],[78.0292,29.475],[78.0295,29.5475],[78.0,29.5833],[78.024,29.601],[78.0381,29.6465],[78.0249,29.6612],[78.0619,29.7104],[78.0466,29.7216],[78.041,29.7628],[78.0465,29.7938],[78.0708,29.8167],[78.0342,29.8134],[78.0131,29.8344],[78.0036,29.9218],[78.0215,29.9533],[78.1033,30.009],[78.0875,30.0417],[78.1483,30.0621],[78.1936,30.0381],[78.2625,30.0333],[78.2453,30.1946],[78.3186,30.2578],[78.3375,30.2417],[78.3132,30.1759],[78.3708,30.1333],[78.3917,30.1333],[78.4214,30.2241],[78.4658,30.2243],[78.5033,30.1991],[78.5256,30.1228],[78.577,30.0714],[78.6466,30.0453],[78.7167,30.0708],[78.742,30.0434],[78.7462,30.0059],[78.8163,29.9615],[78.8292,29.8708],[78.78,29.8134],[78.8228,29.7839],[78.9375,29.7542],[78.9544,29.7009],[78.9244,29.6948],[78.9494,29.6563],[78.9384,29.6259],[78.9591,29.5966],[79.0621,29.5608],[79.0467,29.5134],[79.1958,29.4417],[79.18,29.355],[79.295,29.3633],[79.3048,29.3991],[79.3811,29.4369],[79.4203,29.4366],[79.4422,29.4155],[79.3869,29.3409],[79.3837,29.2517],[79.4091,29.2048],[79.47,29.2007],[79.509,29.2343],[79.5083,29.2708],[79.5583,29.2458],[79.5866,29.2743],[79.6175,29.2384],[79.6717,29.2173],[79.7667,29.2167],[79.8493,29.1449],[79.8542,29.125],[79.8958,29.1375],[79.9909,29.1159],[80.0342,29.0384],[80.0784,29.0164],[80.0816,29.0288],[80.0882,28.9925],[80.102,28.9881],[80.2,29.0792],[80.2292,29.0458],[80.3125,29.0583],[80.3868,29.0506],[80.4226,29.0295],[80.465,29.033],[80.5131,28.967],[80.4119,28.8631],[80.4275,28.833],[80.4533,28.8382],[80.5271,28.9245],[80.5605,28.9214],[80.6059,28.9413],[80.6366,28.9326],[80.6464,28.9132],[80.6286,28.8821],[80.6375,28.8333],[80.6255,28.7769],[80.6426,28.7048],[80.675,28.7],[80.6745,28.7479],[80.6546,28.7896],[80.6634,28.8535],[80.7147,28.8756],[80.7375,28.9042],[80.8417,28.8708],[80.8746,28.7983],[80.8746,28.7351],[80.858,28.6975],[80.8708,28.6521],[80.9441,28.5996],[80.9837,28.6108],[80.9795,28.64],[81.0042,28.6625],[81.0254,28.6184],[81.0208,28.5917],[81.0375,28.5875],[81.041,28.6698],[81.0617,28.6801],[81.1042,28.775],[81.1158,28.7744],[81.2333,28.6625],[81.2578,28.6615],[81.263,28.6343],[81.2449,28.5715],[81.1671,28.4729],[81.18,28.4092],[81.2113,28.4084],[81.2215,28.4438],[81.2828,28.5062],[81.2744,28.5175],[81.3197,28.5459],[81.375,28.6167],[81.3941,28.6121],[81.4833,28.5271],[81.4705,28.4975],[81.4788,28.4559],[81.4551,28.409],[81.5191,28.4038],[81.6042,28.3375],[81.6375,28.35],[81.7042,28.3375],[81.7866,28.295],[81.8,28.275],[81.7782,28.2254],[81.7507,28.2074],[81.7494,28.1135],[81.7337,28.0767],[81.7991,28.0576],[81.7963,28.0396],[81.8375,27.9875],[81.8733,27.983],[81.9226,27.9462],[82.1167,27.95],[82.152,27.9089],[82.253,27.8628],[82.2833,27.8292],[82.4025,27.7788],[82.4583,27.7292],[82.5691,27.7254],[82.623,27.7464],[82.6483,27.7754],[82.7208,27.7583],[82.7417,27.7792],[82.8,27.7667],[82.8287,27.7881],[82.8792,27.7917],[82.884,27.7676],[82.9158,27.7619],[82.9756,27.6571],[82.9625,27.6042],[82.9948,27.6089],[83.0172,27.6534],[83.0132,27.7116],[83.0535,27.7342],[83.0631,27.7576],[83.0494,27.7868],[83.0583,27.8167],[83.0713,27.8115],[83.1004,27.6809],[83.122,27.6661],[83.1522,27.6714],[83.1955,27.7101],[83.2354,27.7958],[83.265,27.7879],[83.2851,27.8121],[83.3083,27.8125],[83.3159,27.7661],[83.4417,27.7292],[83.4667,27.7542],[83.4715,27.7384],[83.5733,27.7038],[83.6158,27.709],[83.6218,27.7256],[83.7233,27.7121],[83.7983,27.7246],[83.925,27.7042],[83.9301,27.7327],[83.9958,27.7375],[84.0083,27.7667],[84.0353,27.7786],[84.0792,27.7625],[84.1149,27.7746],[84.1583,27.7542],[84.2,27.7667],[84.2009,27.7256],[84.2323,27.716],[84.2625,27.6625],[84.3483,27.6746],[84.3708,27.6417],[84.4667,27.6917],[84.4464,27.6145],[84.4917,27.5833],[84.6074,27.6049],[84.6508,27.6784],[84.6792,27.6833],[84.7089,27.6405],[84.7039,27.6136],[84.7214,27.6071],[84.7042,27.5583],[84.7491,27.5466],[84.8184,27.6038],[84.8586,27.595],[84.9051,27.5465],[84.9375,27.5458],[84.9667,27.525],[84.95,27.4875],[85.0458,27.4542],[85.0329,27.426],[84.9756,27.399],[84.9717,27.3592],[85.1396,27.3667],[85.1592,27.334],[85.1936,27.3172],[85.291,27.3116],[85.3493,27.2783],[85.3715,27.2176],[85.4199,27.1911],[85.5743,27.2381],[85.6646,27.2327],[85.6937,27.2048],[85.8059,27.1629],[85.8333,27.1708],[85.8642,27.1295],[85.8823,27.1464],[85.9371,27.124],[85.9465,27.0884],[86.002,27.0214],[86.1066,27.0163],[86.1833,26.9875],[86.2311,26.9506],[86.2825,26.9533],[86.3476,26.9129],[86.4208,26.9083],[86.4603,26.8881],[86.5625,26.8917],[86.5994,26.823],[86.6048,26.7801],[86.6714,26.7446],[86.6625,26.7125],[86.6767,26.692],[86.7229,26.7125],[86.7522,26.6881],[86.8,26.7167],[86.828,26.7169],[86.8508,26.6954],[86.9012,26.7339],[87.0068,26.7042],[87.0176,26.7243],[87.0792,26.7542],[87.0699,26.7047],[87.0297,26.6689],[87.0074,26.6131],[86.9672,26.5855],[86.9762,26.5619],[87.0083,26.5792],[87.0464,26.6368],[87.0427,26.6534],[87.09,26.6837],[87.1392,26.7455],[87.1339,26.6968],[87.1688,26.6671],[87.2329,26.6926],[87.3,26.7583],[87.3089,26.7216],[87.2797,26.6478],[87.2937,26.625],[87.3,26.6417],[87.3201,26.6342],[87.4078,26.7436],[87.4089,26.7689],[87.4583,26.8125],[87.4839,26.7594],[87.4578,26.6216],[87.4589,26.4885],[87.4792,26.475],[87.5119,26.5687],[87.5077,26.7698],[87.5366,26.7825],[87.5551,26.7299],[87.5968,26.6923],[87.6292,26.6958],[87.6167,26.5917],[87.6351,26.5879],[87.6496,26.6158],[87.6354,26.643],[87.6446,26.6921],[87.6623,26.7232],[87.6395,26.6405],[87.6528,26.6147],[87.6425,26.5916],[87.7158,26.6663],[87.7025,26.708],[87.7133,26.7393],[87.7188,26.6833],[87.7503,26.6881],[87.7242,26.6801],[87.7157,26.6587],[87.6723,26.6001],[87.646,26.5863],[87.6649,26.5795],[87.7,26.6],[87.7093,26.6369],[87.8042,26.7333],[87.7467,26.7884],[87.7208,26.85],[87.7674,26.8286],[87.7833,26.8375],[87.7801,26.8216],[87.8162,26.8077],[87.9075,26.8132],[87.9228,26.841],[87.9625,26.8458],[87.9494,26.7811],[87.913,26.7229],[87.9129,26.6934],[87.9432,26.6583],[87.9542,26.6708],[87.9826,26.6591],[88.0536,26.7728],[88.0539,26.8155],[88.1022,26.8328],[88.1547,26.7966],[88.1547,26.6571],[88.1333,26.6208],[88.1575,26.6092],[88.1911,26.652],[88.2078,26.7103],[88.1964,26.8676],[88.1833,26.8875],[88.245,26.895],[88.2625,26.8667],[88.3125,26.9292],[88.3917,26.9167],[88.405,26.8759],[88.4625,26.8625],[88.5083,26.7917],[88.5813,26.784],[88.616,26.8133],[88.6292,26.8875],[88.7119,26.9645],[88.7339,27.0507],[88.7078,27.1091],[88.7292,27.1375],[88.7708,27.0917],[88.8158,27.0783],[88.8299,27.0133],[88.8576,27.0031],[88.8625,26.95],[88.9026,26.9417],[88.9137,26.9589],[88.9451,26.9549],[88.9718,27.0157],[89.0208,27.0375],[89.0286,26.9049],[89.0342,26.8923],[89.05,26.9],[89.0458,26.8833],[89.0951,26.9006],[89.1616,26.8869],[89.2191,26.8996],[89.2417,26.8667],[89.2895,26.8506],[89.3189,26.8464],[89.3408,26.8617],[89.3375,26.8],[89.3566,26.792],[89.4083,26.8167],[89.4004,26.7767],[89.4155,26.7619],[89.4259,26.7868],[89.4801,26.8243],[89.5458,26.8458],[89.5625,26.8042],[89.6397,26.7828],[89.6708,26.7542],[89.7184,26.7496],[89.7333,26.7667],[89.8167,26.7875],[89.8423,26.7778],[89.8343,26.7327],[89.9608,26.7337],[90.0042,26.7458],[90.0208,26.775],[90.0092,26.7991],[90.0408,26.8297],[90.0824,26.8256],[90.1034,26.8506],[90.1417,26.8542],[90.1507,26.9032],[90.1896,26.9412],[90.2049,26.9051],[90.2616,26.8509],[90.3119,26.9134],[90.325,26.9542],[90.3163,26.9934],[90.3364,27.0169],[90.3451,27.0036],[90.3866,27.0159],[90.4411,26.9647],[90.4369,26.8574],[90.4968,26.8037],[90.5659,26.8631],[90.5938,26.859],[90.6132,26.8825],[90.6417,26.8875],[90.6917,26.9625],[90.7275,26.9621],[90.7994,26.8855],[90.8006,26.8436],[90.8167,26.8292],[90.9542,26.8375],[90.9875,26.825],[91.1108,26.8545],[91.1771,26.8379],[91.2358,26.8496],[91.2476,26.8295],[91.2729,26.825],[91.325,26.8625],[91.4033,26.8325],[91.4354,26.7833],[91.4705,26.8142],[91.4583,26.8583],[91.5108,26.8754],[91.5767,26.9246],[91.6167,26.8917],[91.6525,26.8913],[91.6733,26.8538],[91.7788,26.8801],[91.8,26.9583],[91.7667,27.0],[91.7934,27.0163],[91.8441,26.9996],[91.8629,26.9684],[91.8583,26.9458],[91.8792,26.9333],[91.9667,26.9708],[92.0434,26.9295],[92.0829,26.9325],[92.105,26.8956],[92.1283,26.8965],[92.1467,26.9368],[92.1828,26.9509],[92.1926,26.9829],[92.2118,26.9884],[92.2126,27.0193],[92.3079,27.076],[92.3217,27.12],[92.3479,27.1088],[92.397,27.1256],[92.4167,27.1208],[92.4122,27.0928],[92.4339,27.0821],[92.4299,27.0592],[92.5252,27.0534],[92.5517,27.0004],[92.6083,26.9917],[92.6241,27.0044],[92.752,26.9381],[92.8149,26.9413],[92.8686,26.9006],[92.9103,26.9619],[92.9743,26.9676],[92.9875,27.0125],[93.0292,26.9458],[93.0483,26.942],[93.0887,26.9714],[93.1858,26.9288],[93.2314,26.8839],[93.3042,26.9458],[93.3129,26.972],[93.3009,26.9911],[93.3855,26.9797],[93.409,27.0158],[93.4375,27.025],[93.4603,26.9922],[93.4993,27.0047],[93.5316,26.9962],[93.5424,27.0159],[93.595,27.0215],[93.7283,27.0758],[93.7311,27.0911],[93.7542,27.0958],[93.7458,27.1417],[93.8116,27.1674],[93.833,27.2101],[93.8255,27.2438],[93.8506,27.2946],[93.8292,27.3208],[93.8792,27.3375],[93.9458,27.2875],[94.0163,27.2934],[94.0205,27.3316],[93.9837,27.3684],[93.9788,27.4017],[94.0342,27.4533],[94.0958,27.4792],[94.1667,27.4583],[94.2326,27.4964],[94.2808,27.4834],[94.2596,27.5297],[94.2896,27.4792],[94.325,27.4875],[94.3078,27.551],[94.3375,27.5833],[94.4066,27.5879],[94.4245,27.6186],[94.4282,27.6411],[94.3417,27.6667],[94.3559,27.6871],[94.399,27.7006],[94.4741,27.7076],[94.4738,27.6834],[94.4382,27.67],[94.4333,27.6375],[94.4728,27.6006],[94.6208,27.6583],[94.6761,27.6122],[94.6953,27.6353],[94.7006,27.7073],[94.725,27.725],[94.7434,27.6212],[94.8125,27.5958],[94.8297,27.6446],[94.8131,27.6603],[94.8158,27.6827],[94.8408,27.67],[94.8562,27.638],[94.8958,27.6417],[94.8958,27.6],[94.925,27.5667],[94.9198,27.5424],[94.9035,27.5408],[94.9187,27.5256],[94.9538,27.5423],[94.9634,27.5202],[94.9952,27.523],[94.9917,27.4875],[94.9453,27.4468],[94.9708,27.3917],[95.0677,27.4255],[95.225,27.3917],[95.1855,27.3631],[95.1493,27.3672],[95.1007,27.345],[95.125,27.3125],[95.1121,27.303],[95.1208,27.2833],[95.0395,27.2619],[95.0325,27.2257],[94.9875,27.2236],[95.0131,27.1906],[95.0093,27.1546],[95.0625,27.1458],[95.0241,27.0882],[94.9993,27.0828],[94.9512,27.1047],[94.9079,27.0744],[94.8926,27.0785],[94.9,27.0042],[94.9203,26.9645],[94.8125,26.7792],[94.7686,26.7786],[94.7574,26.7298],[94.7053,26.7038],[94.6581,26.7091],[94.6542,26.7417],[94.5917,26.7458],[94.6042,26.725],[94.5174,26.6616],[94.5033,26.6134],[94.4535,26.5759],[94.3854,26.5829],[94.3158,26.5298],[94.2892,26.5413],[94.1979,26.4296],[94.1382,26.4509],[94.1191,26.483],[94.0684,26.4712],[94.0312,26.4917],[93.9833,26.4458],[93.9351,26.4496],[93.8792,26.4042],[93.8341,26.4174],[93.8459,26.443],[93.8369,26.5003],[93.8791,26.5388],[93.8576,26.5701],[93.8333,26.575],[93.7871,26.5434],[93.7875,26.4708],[93.7413,26.466],[93.5833,26.4708],[93.5533,26.5202],[93.4259,26.4882],[93.3939,26.5203],[93.2892,26.5496],[93.2625,26.4583],[93.1688,26.45],[93.0772,26.3964],[93.0333,26.3917],[92.9295,26.2983],[92.925,26.275],[92.9059,26.2754],[92.8886,26.3007],[92.8742,26.2549],[92.8509,26.2491],[92.837,26.2219],[92.8505,26.2094],[92.8458,26.1724],[92.7508,26.1368],[92.6983,26.0337],[92.6733,26.0629],[92.6408,26.0215],[92.5993,26.0078],[92.5741,26.0172],[92.5333,25.9958],[92.5173,26.0008],[92.521,26.0323],[92.5014,26.0285],[92.4953,26.0564],[92.4782,26.0631],[92.4429,26.0547],[92.4323,25.9965],[92.3979,26.0037],[92.3395,25.9714],[92.3009,25.9908],[92.3869,26.0478],[92.4006,26.0821],[92.391,26.0991],[92.3767,26.108],[92.2729,26.0542],[92.266,26.0741],[92.2059,26.0996],[92.1385,26.0661],[92.0743,26.0714],[92.0613,26.0536],[92.0095,26.0751],[91.9396,26.0338],[91.9243,26.0547],[91.8978,26.0494],[91.8708,26.0375],[91.8708,25.9875],[91.8368,26.0048],[91.7863,25.9624],[91.7667,25.9708],[91.7625,26.0042],[91.7191,26.0462],[91.634,25.9824],[91.6283,25.9549],[91.6,25.9625],[91.5673,25.8931],[91.5259,25.8878],[91.5159,25.8632],[91.4716,25.8711],[91.4752,25.8949],[91.4508,25.9089],[91.4536,25.9605],[91.4417,25.9708],[91.4119,25.9162],[91.4659,25.8742],[91.4617,25.8468],[91.3509,25.8298],[91.3338,25.8854],[91.3417,25.9125],[91.2594,25.8784],[91.2202,25.8527],[91.2334,25.8263],[91.191,25.7922],[91.1924,25.7716],[91.2125,25.7625],[91.1953,25.7382],[91.2042,25.7083],[91.1549,25.7175],[91.1536,25.7841],[91.1785,25.8052],[91.1922,25.8509],[91.1833,25.8667],[91.1542,25.8583],[91.1417,25.875],[91.0579,25.801],[90.9712,25.7615],[90.9524,25.7254],[90.9076,25.7547],[90.8603,25.7422],[90.8458,25.7708],[90.9,25.8417],[90.8559,25.8587],[90.8542,25.8833],[90.8208,25.8667],[90.7962,25.8892],[90.7858,25.933],[90.7042,25.8667],[90.7003,25.8905],[90.675,25.9042],[90.5708,25.9],[90.5786,25.9593],[90.608,26.0059],[90.5937,26.0333],[90.5366,25.9592],[90.4963,25.9354],[90.4993,25.9051],[90.4708,25.875],[90.4549,25.8757],[90.4542,25.8958],[90.4135,25.8952],[90.4032,25.8706],[90.3507,25.8616],[90.3171,25.7937],[90.3462,25.7475],[90.3342,25.7257],[90.3662,25.7021],[90.3453,25.6716],[90.3708,25.575],[90.327,25.5672],[90.291,25.6074],[90.2208,25.6208],[90.2163,25.5934],[90.1958,25.5833],[90.2006,25.5385],[90.3375,25.4583],[90.4271,25.4667],[90.5125,25.4417],[90.5202,25.4177],[90.5047,25.3978],[90.5966,25.2799],[90.6339,25.255],[90.63,25.2217],[90.6512,25.2339],[90.6958,25.2167],[90.6833,25.125],[90.7267,25.1045],[90.7917,25.175],[90.7833,25.1515],[90.8119,25.123],[90.8167,25.0917],[90.9826,25.0787],[90.9958,25.1125],[91.0534,25.0744],[91.0771,25.0995],[91.1022,25.0953],[91.109,25.0676],[91.128,25.0578],[91.1674,25.1657],[91.2235,25.15],[91.2407,25.1618],[91.2767,25.1087],[91.3083,25.1042],[91.3052,25.0549],[91.3413,25.0274],[91.3417,25.0042],[91.3614,24.9997],[91.3728,25.0203],[91.4208,25.0208],[91.3921,25.0979],[91.3966,25.1533],[91.4073,25.1534],[91.4217,25.1086],[91.4617,25.0993],[91.4411,25.0676],[91.4576,25.03],[91.4375,25.0208],[91.475,24.9958],[91.5655,25.0631],[91.6144,25.1245],[91.6708,25.0417],[91.6875,25.0792],[91.7199,25.0715],[91.734,25.1074],[91.7625,25.0792],[91.7828,25.1186],[91.7792,25.1583],[91.8551,25.1131],[91.9217,25.1036],[91.95,25.15],[92.0241,25.1299],[92.0297,25.1939],[92.0667,25.225],[92.0674,25.1758],[92.1006,25.1656],[92.0827,25.1527],[92.1009,25.134],[92.1875,25.15],[92.2292,25.1167],[92.3365,25.1201],[92.3284,25.0841],[92.291,25.0421],[92.3172,25.0007],[92.3036,24.9799],[92.3083,24.9458],[92.3517,24.9705],[92.3875,24.9708],[92.4161,24.9522],[92.4417,24.9],[92.4009,24.8827],[92.3913,24.8551],[92.35,24.8708],[92.3342,24.8616],[92.2926,24.8077],[92.2589,24.7439],[92.2451,24.6383],[92.2225,24.608],[92.2,24.6083],[92.17,24.5378],[92.1436,24.5328],[92.1199,24.4881],[92.1042,24.4875],[92.075,24.375],[92.05,24.3708],[92.0493,24.4034],[92.002,24.3994],[91.9208,24.3417],[91.9292,24.275],[91.8509,24.3086],[91.8367,24.284],[91.7869,24.2696],[91.7964,24.2509],[91.7542,24.1646],[91.7542,24.1125],[91.6345,24.1244],[91.6042,24.1625],[91.5581,24.1261],[91.5881,24.1092],[91.5827,24.0509],[91.5625,24.0208],[91.5012,24.0036],[91.4875,24.0375],[91.4637,24.0422],[91.4354,24.0213],[91.3632,24.0159],[91.3625,23.9958],[91.3134,23.9997],[91.3117,24.0118],[91.2716,24.0034],[91.284,23.9343],[91.3203,23.9022],[91.3066,23.8879],[91.2245,23.9173],[91.209,23.9117],[91.2083,23.8917],[91.15,23.8875],[91.1417,23.85],[91.0801,23.8798],[91.0605,23.9369],[90.9823,23.8953],[90.9423,23.9116],[90.8833,23.8],[90.8042,23.8],[90.7952,23.7635],[90.7423,23.7283],[90.7458,23.6875],[90.725,23.6875],[90.716,23.6342],[90.6664,23.5822],[90.6745,23.5646],[90.6619,23.5436],[90.605,23.5241],[90.5875,23.475],[90.6167,23.4542],[90.6417,23.3875],[90.6167,23.325],[90.6292,23.2833],[90.575,23.2583],[90.5792,23.2417],[90.6292,23.2208],[90.5964,23.1897],[90.55,23.0555],[90.5965,22.9627],[90.6007,22.9252],[90.5827,22.9089],[90.6132,22.9026],[90.6063,22.884],[90.5785,22.8825],[90.6112,22.8751],[90.6207,22.8882],[90.6786,22.8314],[90.6781,22.7923],[90.6587,22.7892],[90.7045,22.6559],[90.7621,22.6024],[90.7754,22.5434],[90.8712,22.435],[90.842,22.3649],[90.8452,22.2645],[90.8161,22.1228],[90.7009,21.9827],[90.7167,22.0208],[90.6774,21.9962],[90.6208,21.9958],[90.5784,21.884],[90.5383,21.8826],[90.5486,21.8452],[90.5403,21.8576],[90.505,21.8632],[90.5167,21.8861],[90.4952,21.8744],[90.4869,21.9008],[90.5072,21.9082],[90.4999,21.9179],[90.5089,21.9355],[90.5408,21.9633],[90.5369,21.9823],[90.5668,21.9887],[90.5494,21.9967],[90.5958,22.0333],[90.6163,22.0976],[90.6163,22.1809],[90.6746,22.2726],[90.6754,22.385],[90.658,22.4142],[90.6708,22.475],[90.6579,22.5532],[90.6042,22.5625],[90.5992,22.5425],[90.575,22.55],[90.6,22.5208],[90.6052,22.5492],[90.6207,22.5548],[90.659,22.5418],[90.6452,22.5293],[90.6451,22.3745],[90.6333,22.3833],[90.6036,22.2769],[90.5339,22.2064],[90.5244,22.1676],[90.5051,22.1659],[90.4703,22.1103],[90.3389,21.9874],[90.3369,22.0216],[90.3869,22.0853],[90.3799,22.1241],[90.3797,22.0824],[90.3385,22.0538],[90.2618,21.8385],[90.1896,21.7964],[90.0961,21.8219],[90.084,21.8617],[90.1,21.8792],[90.0772,21.8589],[90.0311,21.8714],[90.0203,21.9257],[90.0244,21.9488],[90.0699,21.9714],[90.0881,22.0439],[90.1551,22.116],[90.1924,22.1078],[90.2203,22.1311],[90.2381,22.2007],[90.2167,22.2292],[90.2083,22.3375],[90.2077,22.237],[90.234,22.1909],[90.2034,22.1216],[90.152,22.1202],[90.0844,22.0538],[90.0574,21.9747],[89.9923,22.0011],[89.9828,22.0344],[90.0199,22.0465],[90.0125,22.0625],[89.9842,22.0491],[89.9744,22.0159],[89.9922,21.9618],[89.9689,21.9422],[89.9342,21.9545],[89.9154,22.0208],[89.8925,22.0128],[89.8971,22.0374],[89.9132,22.0336],[89.8952,22.061],[89.909,22.1462],[89.8744,22.2396],[89.8621,22.2327],[89.8494,22.2549],[89.8994,22.3395],[89.8994,22.3781],[89.9739,22.4378],[89.9869,22.4687],[89.9882,22.495],[90.0125,22.4958],[89.9845,22.5006],[89.9788,22.4559],[89.9566,22.4295],[89.8975,22.3871],[89.8792,22.3958],[89.8913,22.3601],[89.842,22.2691],[89.8379,22.2267],[89.8962,22.16],[89.8792,22.0917],[89.8483,22.0629],[89.8042,22.0708],[89.858,22.0358],[89.8788,21.8976],[89.8559,21.8705],[89.8417,21.875],[89.8411,21.8509],[89.7802,21.8286],[89.7698,21.8494],[89.7458,21.8542],[89.7257,21.8286],[89.6926,21.8422],[89.6759,21.8328],[89.666,21.8741],[89.6559,21.8538],[89.6292,21.8708],[89.7047,21.7926],[89.7035,21.7718],[89.6353,21.7506],[89.6078,21.7637],[89.6083,21.8042],[89.5911,21.7632],[89.6125,21.7223],[89.5966,21.7119],[89.5635,21.7131],[89.5464,21.7353],[89.5328,21.7659],[89.5464,21.7929],[89.5286,21.8201],[89.5387,21.8547],[89.5544,21.8554],[89.5381,21.9616],[89.6004,22.1309],[89.5478,22.2078],[89.5839,22.1074],[89.5324,21.9911],[89.5078,22.0219],[89.5339,22.0801],[89.5131,22.1011],[89.4756,22.2176],[89.4912,22.2646],[89.4744,22.3022],[89.4339,22.352],[89.4464,22.4052],[89.4286,22.4855],[89.4083,22.5208],[89.4412,22.3854],[89.4257,22.3468],[89.4797,22.2759],[89.4589,22.202],[89.5214,22.0718],[89.4968,22.0286],[89.4744,22.036],[89.5131,21.9591],[89.5119,21.9135],[89.4535,21.905],[89.4755,21.9033],[89.4535,21.8498],[89.4757,21.7869],[89.4532,21.7551],[89.4159,21.7216],[89.3914,21.7202],[89.3548,21.7562],[89.3452,21.8132],[89.3785,21.877],[89.384,21.9127],[89.3507,22.0145],[89.3667,22.05],[89.3422,22.0272],[89.3547,21.9826],[89.3449,21.9703],[89.2881,22.0561],[89.3047,22.0884],[89.299,22.0952],[89.2619,22.0926],[89.2839,22.148],[89.3203,22.1853],[89.3083,22.2125],[89.3121,22.1809],[89.2795,22.1566],[89.2663,22.11],[89.2458,22.1],[89.2618,22.0828],[89.2964,22.0841],[89.2797,22.052],[89.3631,21.9132],[89.3619,21.8968],[89.325,21.875],[89.3715,21.8795],[89.3369,21.8133],[89.3346,21.7834],[89.3074,21.8506],[89.3035,21.8174],[89.2785,21.8326],[89.2744,21.8747],[89.2952,21.9021],[89.2904,21.9125],[89.2596,21.9125],[89.2355,21.941],[89.2077,21.9535],[89.2458,21.9833],[89.2049,21.9615],[89.2035,21.9492],[89.2175,21.934],[89.2397,21.9327],[89.2501,21.9137],[89.2881,21.9037],[89.2715,21.8813],[89.2672,21.8354],[89.291,21.7897],[89.2789,21.6968],[89.2965,21.6764],[89.2438,21.6506],[89.2051,21.6544],[89.2244,21.7104],[89.1764,21.8051],[89.1918,21.8342],[89.2085,21.9091],[89.17,21.8008],[89.157,21.791],[89.1003,21.8092],[89.0994,21.8688],[89.0785,21.8992],[89.091,22.0063],[89.0464,22.0895],[89.0667,22.125],[89.0217,22.163],[89.0199,22.2032],[88.9674,22.2093],[88.9619,22.2397],[88.95,22.25],[88.9672,22.1728],[88.9759,22.1592],[88.9875,22.1542],[88.9716,22.195],[89.016,22.1993],[89.0174,22.1591],[89.0535,22.1313],[89.0327,22.0918],[89.0798,21.996],[89.0576,21.9239],[89.0632,21.8854],[89.0882,21.861],[89.0798,21.8104],[89.1325,21.7739],[89.1492,21.7297],[89.1088,21.7174],[89.041,21.7849],[89.0577,21.8604],[89.0239,21.9038],[89.0263,21.9249],[89.0151,21.8993],[89.0021,21.9007],[88.9298,21.9396],[88.9257,21.9646],[88.9465,21.9915],[88.934,22.0618],[88.9743,22.0729],[88.9965,22.1332],[88.9875,22.15],[88.9701,22.0759],[88.9244,22.0593],[88.9381,21.9966],[88.9216,21.9786],[88.9047,22.0314],[88.9083,21.9292],[89.0339,21.8635],[89.0214,21.7686],[89.0964,21.6676],[89.0952,21.6343],[89.0674,21.6161],[89.0417,21.6208],[89.0213,21.5994],[88.9592,21.6132],[88.9369,21.645],[88.9548,21.6829],[88.9492,21.6995],[88.9202,21.718],[88.9298,21.737],[88.9208,21.7583],[88.9174,21.7175],[88.9453,21.6896],[88.9242,21.63],[88.8931,21.6459],[88.8702,21.695],[88.8786,21.7563],[88.8341,21.7798],[88.8536,21.8813],[88.8161,21.9245],[88.8536,21.9119],[88.8625,21.9167],[88.8272,21.9369],[88.8,21.9208],[88.8423,21.8918],[88.8215,21.8354],[88.834,21.813],[88.8243,21.7918],[88.8354,21.7673],[88.8673,21.7614],[88.841,21.7127],[88.8618,21.6354],[88.8485,21.616],[88.8077,21.6307],[88.8201,21.6604],[88.8138,21.7069],[88.8002,21.6535],[88.7752,21.6632],[88.7417,21.6583]],[[88.7493,22.0676],[88.75,22.075],[88.7458,22.0667],[88.7493,22.0676]],[[88.7546,22.0762],[88.7512,22.0797],[88.75,22.075],[88.7546,22.0762]],[[88.7155,22.0087],[88.7119,22.0054],[88.7167,22.0042],[88.7155,22.0087]],[[88.475,21.7958],[88.467,21.7991],[88.4675,21.7965],[88.475,21.7958]],[[88.353,21.6879],[88.3494,21.6845],[88.3542,21.6833],[88.353,21.6879]],[[88.1708,21.9167],[88.1741,21.9247],[88.1715,21.9242],[88.1708,21.9167]],[[80.8625,25.85],[80.8672,25.853],[80.8625,25.8542],[80.8625,25.85]],[[78.9587,27.8387],[78.9554,27.8422],[78.9542,27.8375],[78.9587,27.8387]],[[90.4587,25.897],[90.4554,25.9006],[90.4542,25.8958],[90.4587,25.897]],[[90.6572,22.7962],[90.6536,22.7929],[90.6583,22.7917],[90.6572,22.7962]],[[90.7167,22.0208],[90.7208,22.025],[90.7175,22.0241],[90.7167,22.0208]],[[90.7208,22.025],[90.725,22.0292],[90.7217,22.0283],[90.7208,22.025]],[[90.725,22.0292],[90.7283,22.0372],[90.7257,22.0367],[90.725,22.0292]],[[90.6042,22.5625],[90.6,22.5667],[90.6009,22.5634],[90.6042,22.5625]],[[90.6,22.5667],[90.5958,22.5708],[90.5967,22.5675],[90.6,22.5667]],[[90.5947,22.5754],[90.5911,22.572],[90.5958,22.5708],[90.5947,22.5754]],[[90.6007,22.5134],[90.6042,22.5125],[90.6,22.5208],[90.6007,22.5134]],[[90.6115,22.5118],[90.6094,22.4746],[90.6339,22.4905],[90.6115,22.5118]],[[90.6333,22.3833],[90.6292,22.3875],[90.63,22.3842],[90.6333,22.3833]],[[90.6292,22.3875],[90.625,22.3917],[90.6259,22.3884],[90.6292,22.3875]],[[90.625,22.3917],[90.6137,22.4089],[90.6079,22.4071],[90.625,22.3917]],[[89.9012,22.0579],[89.9047,22.0613],[89.9,22.0625],[89.9012,22.0579]],[[89.8405,21.8796],[89.8369,21.8762],[89.8417,21.875],[89.8405,21.8796]],[[89.7452,21.8647],[89.741,21.8555],[89.7458,21.8542],[89.7452,21.8647]],[[89.6292,21.8708],[89.6262,21.8797],[89.6244,21.8721],[89.6292,21.8708]],[[89.6083,21.8042],[89.6042,21.8083],[89.605,21.805],[89.6083,21.8042]],[[89.6033,21.8118],[89.5958,21.8125],[89.6042,21.8083],[89.6033,21.8118]],[[89.5958,21.8125],[89.5917,21.8167],[89.5925,21.8134],[89.5958,21.8125]],[[89.5917,21.8167],[89.5875,21.8208],[89.5884,21.8175],[89.5917,21.8167]],[[89.5875,21.8208],[89.5833,21.825],[89.5842,21.8217],[89.5875,21.8208]],[[89.5824,21.8285],[89.575,21.8292],[89.5833,21.825],[89.5824,21.8285]],[[89.575,21.8292],[89.5708,21.8333],[89.5717,21.83],[89.575,21.8292]],[[89.5642,21.8337],[89.565,21.8413],[89.5583,21.8417],[89.5642,21.8337]],[[89.5572,21.8462],[89.5536,21.8429],[89.5583,21.8417],[89.5572,21.8462]],[[89.325,21.875],[89.3208,21.8708],[89.3241,21.8717],[89.325,21.875]],[[89.3163,21.8697],[89.3196,21.8661],[89.3208,21.8708],[89.3163,21.8697]],[[89.0667,22.125],[89.0708,22.1292],[89.0675,22.1283],[89.0667,22.125]],[[89.0754,22.1303],[89.072,22.1339],[89.0708,22.1292],[89.0754,22.1303]],[[89.025,21.925],[89.0208,21.9292],[89.0217,21.9259],[89.025,21.925]],[[89.0208,21.9292],[89.0167,21.9333],[89.0175,21.93],[89.0208,21.9292]],[[89.0167,21.9333],[89.0125,21.9375],[89.0134,21.9342],[89.0167,21.9333]],[[89.0125,21.9375],[89.0045,21.9408],[89.005,21.9382],[89.0125,21.9375]],[[89.0405,21.6254],[89.0369,21.622],[89.0417,21.6208],[89.0405,21.6254]],[[90.5204,22.8905],[90.5238,22.8869],[90.525,22.8917],[90.5204,22.8905]],[[90.5625,22.8917],[90.5538,22.9006],[90.525,22.8917],[90.5625,22.8917]],[[90.5637,22.8871],[90.5672,22.8905],[90.5625,22.8917],[90.5637,22.8871]],[[90.5101,22.883],[90.4962,22.8691],[90.4958,22.8583],[90.5121,22.8725],[90.5101,22.883]],[[90.4958,22.8583],[90.4917,22.8542],[90.495,22.855],[90.4958,22.8583]],[[90.4917,22.8542],[90.4875,22.85],[90.4908,22.8509],[90.4917,22.8542]],[[90.484,22.8491],[90.4833,22.8417],[90.4875,22.85],[90.484,22.8491]],[[90.4833,22.8417],[90.4801,22.8337],[90.4827,22.8342],[90.4833,22.8417]],[[90.5171,22.8845],[90.5137,22.8881],[90.5125,22.8833],[90.5171,22.8845]],[[90.5583,22.7958],[90.5333,22.7917],[90.5387,22.7788],[90.5583,22.7958]],[[90.5322,22.7962],[90.5286,22.7929],[90.5333,22.7917],[90.5322,22.7962]],[[90.5629,22.797],[90.5595,22.8006],[90.5583,22.7958],[90.5629,22.797]],[[88.4,21.8792],[88.3958,21.875],[88.3991,21.8759],[88.4,21.8792]],[[88.4046,21.8803],[88.4012,21.8839],[88.4,21.8792],[88.4046,21.8803]],[[88.3375,21.7042],[88.3417,21.7],[88.3408,21.7033],[88.3375,21.7042]],[[88.3428,21.6954],[88.3464,21.6988],[88.3417,21.7],[88.3428,21.6954]],[[88.3363,21.7087],[88.3328,21.7054],[88.3375,21.7042],[88.3363,21.7087]],[[88.9012,22.1496],[88.9047,22.153],[88.9,22.1542],[88.9012,22.1496]],[[88.8988,22.1587],[88.8953,22.1554],[88.9,22.1542],[88.8988,22.1587]],[[88.9204,22.0947],[88.9238,22.0911],[88.925,22.0958],[88.9204,22.0947]],[[88.925,22.0958],[88.9284,22.112],[88.9257,22.1118],[88.925,22.0958]],[[88.9019,22.0786],[88.8912,22.0635],[88.9042,22.0542],[88.8996,22.0684],[88.9019,22.0786]],[[88.9048,22.0395],[88.909,22.0527],[88.9042,22.0542],[88.9048,22.0395]],[[88.9087,22.0803],[88.9054,22.0839],[88.9042,22.0792],[88.9087,22.0803]],[[89.0833,22.1542],[89.0792,22.15],[89.0825,22.1509],[89.0833,22.1542]],[[89.0746,22.1488],[89.078,22.1453],[89.0792,22.15],[89.0746,22.1488]],[[89.0879,22.1553],[89.0845,22.1589],[89.0833,22.1542],[89.0879,22.1553]],[[89.0913,22.1447],[89.0946,22.1411],[89.0958,22.1458],[89.0913,22.1447]],[[89.1004,22.147],[89.097,22.1506],[89.0958,22.1458],[89.1004,22.147]],[[89.2167,22.0958],[89.2292,22.0833],[89.225,22.1],[89.2167,22.0958]],[[89.2155,22.1004],[89.2119,22.097],[89.2167,22.0958],[89.2155,22.1004]],[[89.4667,22.1417],[89.4634,22.1337],[89.466,22.1342],[89.4667,22.1417]],[[89.4667,22.1417],[89.4756,22.1447],[89.4679,22.1464],[89.4667,22.1417]],[[89.4345,21.9454],[89.4381,21.9488],[89.4333,21.95],[89.4345,21.9454]],[[89.4322,21.9546],[89.4286,21.9512],[89.4333,21.95],[89.4322,21.9546]],[[89.45,21.9417],[89.458,21.9384],[89.4575,21.941],[89.45,21.9417]],[[89.45,21.9417],[89.442,21.9449],[89.4425,21.9423],[89.45,21.9417]],[[89.7176,21.8965],[89.725,21.8958],[89.7167,21.9],[89.7176,21.8965]],[[89.7262,21.8913],[89.7282,21.8932],[89.725,21.8958],[89.7262,21.8913]],[[89.7155,21.9046],[89.7119,21.9012],[89.7167,21.9],[89.7155,21.9046]],[[90.5996,22.4655],[90.603,22.4619],[90.6042,22.4667],[90.5996,22.4655]],[[90.6087,22.4678],[90.6054,22.4714],[90.6042,22.4667],[90.6087,22.4678]],[[90.5913,22.453],[90.5946,22.4494],[90.5958,22.4542],[90.5913,22.453]],[[90.6004,22.4553],[90.597,22.4589],[90.5958,22.4542],[90.6004,22.4553]],[[91.3772,25.8366],[91.4272,25.8728],[91.447,25.8596],[91.4537,25.8697],[91.4225,25.8835],[91.3663,25.8481],[91.3772,25.8366]],[[80.275,26.5625],[80.3125,26.6042],[80.2833,26.6083],[80.3042,26.6375],[80.2816,26.6288],[80.2566,26.642],[80.2381,26.6228],[80.2792,26.575],[80.275,26.5625]],[[78.2075,29.7425],[78.2,29.7458],[78.2,29.7417],[78.2075,29.7425]],[[87.8458,25.0708],[87.875,25.0875],[87.8741,25.0909],[87.8333,25.0792],[87.8458,25.0708]],[[90.3176,24.0786],[90.3333,24.1],[90.3794,24.0909],[90.3765,24.0799],[90.3958,24.0875],[90.3184,24.1163],[90.3176,24.0786]],[[90.5735,22.8878],[90.5736,22.8833],[90.5746,22.8854],[90.5735,22.8878]],[[90.4547,22.8339],[90.4494,22.8316],[90.4528,22.8292],[90.4547,22.8339]],[[90.4569,22.7708],[90.4534,22.8157],[90.4467,22.8173],[90.4452,22.7915],[90.4569,22.7708]],[[90.5698,22.7994],[90.5868,22.8047],[90.6506,22.8005],[90.6299,22.8089],[90.577,22.8078],[90.5698,22.7994]],[[90.5246,22.7979],[90.5204,22.7975],[90.5236,22.7958],[90.5246,22.7979]],[[90.45,22.7583],[90.5087,22.71],[90.5081,22.5843],[90.5708,22.55],[90.5405,22.6001],[90.5289,22.5967],[90.5168,22.6359],[90.5323,22.6423],[90.5343,22.6287],[90.5743,22.655],[90.566,22.698],[90.5497,22.7033],[90.5616,22.6622],[90.5383,22.6867],[90.5366,22.6593],[90.5174,22.6508],[90.521,22.7054],[90.4871,22.7489],[90.45,22.7583]],[[90.5403,22.7125],[90.5421,22.7427],[90.53,22.7548],[90.5285,22.7248],[90.5403,22.7125]],[[90.5204,22.6766],[90.5246,22.6771],[90.5235,22.6794],[90.5204,22.6766]],[[90.5412,22.6141],[90.5455,22.6146],[90.5443,22.6169],[90.5412,22.6141]],[[90.562,22.6016],[90.5663,22.6021],[90.5652,22.6044],[90.562,22.6016]],[[90.0288,22.5184],[90.0215,22.5701],[90.0167,22.4958],[90.0288,22.5184]],[[90.3691,22.4955],[90.3726,22.4879],[90.375,22.4875],[90.3691,22.4955]],[[90.3577,22.4759],[90.3548,22.4949],[90.3542,22.475],[90.3577,22.4759]],[[89.5726,22.233],[89.5542,22.2125],[89.5871,22.2267],[89.5913,22.2767],[89.633,22.3351],[89.6246,22.3983],[89.5833,22.5083],[89.5881,22.4437],[89.6256,22.3547],[89.5786,22.263],[89.5867,22.2382],[89.5726,22.233]],[[89.5825,22.5158],[89.58,22.5134],[89.5833,22.5125],[89.5825,22.5158]],[[89.5667,22.5583],[89.5757,22.5217],[89.5792,22.5208],[89.5786,22.5355],[89.5667,22.5583]],[[89.4116,22.5259],[89.4092,22.5283],[89.4083,22.525],[89.4116,22.5259]],[[89.4256,22.551],[89.4083,22.5625],[89.4214,22.5507],[89.4125,22.5333],[89.4243,22.5384],[89.4256,22.551]],[[89.5616,22.57],[89.5592,22.5675],[89.5625,22.5667],[89.5616,22.57]],[[90.4495,22.56],[90.4538,22.5604],[90.4527,22.5628],[90.4495,22.56]],[[90.0292,22.575],[90.0375,22.6083],[90.0167,22.6042],[90.0292,22.575]],[[89.5542,22.5792],[89.525,22.6125],[89.5295,22.6017],[89.5542,22.5792]],[[90.4819,22.5792],[90.4701,22.584],[90.466,22.58],[90.4819,22.5792]],[[90.0491,22.6175],[90.0467,22.62],[90.0458,22.6167],[90.0491,22.6175]],[[89.525,22.6208],[89.5216,22.6283],[89.5203,22.622],[89.525,22.6208]],[[90.0509,22.6283],[90.0533,22.6259],[90.0542,22.6292],[90.0509,22.6283]],[[90.0285,22.6342],[90.0257,22.6408],[90.025,22.6333],[90.0285,22.6342]],[[89.525,22.6417],[89.5292,22.6458],[89.5259,22.645],[89.525,22.6417]],[[89.5325,22.655],[89.53,22.6575],[89.5292,22.6542],[89.5325,22.655]],[[89.5333,22.7],[89.5333,22.6875],[89.5381,22.6988],[89.5333,22.7]],[[89.5325,22.7116],[89.53,22.7092],[89.5333,22.7083],[89.5325,22.7116]],[[90.4292,22.7458],[90.425,22.75],[90.4259,22.7467],[90.4292,22.7458]],[[90.4411,22.7605],[90.4375,22.7583],[90.4417,22.7583],[90.4411,22.7605]],[[89.1884,22.3842],[89.1908,22.3866],[89.1875,22.3875],[89.1884,22.3842]],[[89.2083,22.3667],[89.2125,22.3667],[89.2095,22.3714],[89.2083,22.3667]],[[88.9507,22.3574],[88.9535,22.3509],[88.9542,22.3583],[88.9507,22.3574]],[[89.2092,22.3533],[89.2116,22.3509],[89.2125,22.3542],[89.2092,22.3533]],[[89.2634,22.3425],[89.2667,22.3458],[89.2625,22.3458],[89.2634,22.3425]],[[88.95,22.3417],[88.9522,22.3381],[88.9547,22.3405],[88.95,22.3417]],[[88.9,22.3375],[88.9422,22.2966],[88.934,22.2551],[88.9458,22.25],[88.95,22.3125],[88.9316,22.308],[88.9,22.3375]],[[89.2125,22.3292],[89.2167,22.325],[89.2158,22.3283],[89.2125,22.3292]],[[88.95,22.325],[88.9478,22.3286],[88.9453,22.3262],[88.95,22.325]],[[89.267,22.3184],[89.2691,22.3205],[89.2667,22.3208],[89.267,22.3184]],[[89.411,22.3128],[89.4111,22.3083],[89.4121,22.3104],[89.411,22.3128]],[[89.2757,22.3009],[89.2785,22.3074],[89.275,22.3083],[89.2757,22.3009]],[[89.28,22.2925],[89.2825,22.295],[89.2792,22.2958],[89.28,22.2925]],[[89.2595,22.2922],[89.2625,22.2792],[89.2657,22.28],[89.2672,22.2844],[89.2595,22.2922]],[[89.3214,22.2863],[89.3125,22.2708],[89.3201,22.2759],[89.3214,22.2863]],[[89.2458,22.2667],[89.2494,22.2551],[89.25,22.2667],[89.2458,22.2667]],[[89.2925,22.2616],[89.295,22.2592],[89.2958,22.2625],[89.2925,22.2616]],[[89.4119,22.2526],[89.4172,22.2549],[89.4139,22.2589],[89.4119,22.2526]],[[88.6776,22.3212],[88.6792,22.3208],[88.6792,22.3212],[88.6776,22.3212]],[[88.6462,22.2358],[88.655,22.2404],[88.6579,22.2458],[88.6462,22.2358]],[[88.6648,22.2119],[88.663,22.2173],[88.6583,22.2125],[88.6648,22.2119]],[[88.6425,22.2092],[88.6456,22.2092],[88.6419,22.2114],[88.6425,22.2092]],[[88.4759,21.8925],[88.4783,21.895],[88.475,21.8958],[88.4759,21.8925]],[[88.3958,21.8542],[88.4006,21.8655],[88.3958,21.8667],[88.3958,21.8542]],[[88.3917,21.8292],[88.3917,21.8417],[88.3869,21.8304],[88.3917,21.8292]],[[88.3958,21.8167],[88.3958,21.8208],[88.3911,21.8179],[88.3958,21.8167]],[[88.3833,21.7833],[88.3994,21.7968],[88.4006,21.8113],[88.3958,21.8125],[88.3833,21.7833]],[[88.3795,21.7725],[88.3816,21.7746],[88.3792,21.775],[88.3795,21.7725]],[[88.3759,21.7368],[88.3824,21.734],[88.3833,21.7375],[88.3759,21.7368]],[[88.3792,21.7208],[88.3941,21.7205],[88.4,21.7167],[88.3949,21.7243],[88.3792,21.7208]],[[88.2842,21.7134],[88.2866,21.7158],[88.2833,21.7167],[88.2842,21.7134]],[[88.3068,21.7128],[88.3069,21.7083],[88.308,21.7104],[88.3068,21.7128]],[[88.2991,21.7033],[88.2879,21.7059],[88.3125,21.6833],[88.2991,21.7033]],[[88.2162,21.6725],[88.2205,21.6729],[88.2193,21.6753],[88.2162,21.6725]],[[88.412,21.6808],[88.4163,21.6812],[88.4152,21.6836],[88.412,21.6808]],[[88.4162,21.6725],[88.4205,21.6729],[88.4193,21.6753],[88.4162,21.6725]],[[88.4119,21.6609],[88.4172,21.6633],[88.4139,21.6673],[88.4119,21.6609]],[[88.7829,22.1766],[88.7871,22.1771],[88.786,22.1794],[88.7829,22.1766]],[[88.9027,22.1753],[88.9028,22.1708],[88.9038,22.1729],[88.9027,22.1753]],[[88.8913,22.1687],[88.887,22.1683],[88.8903,22.1667],[88.8913,22.1687]],[[88.7955,22.1684],[88.7837,22.1608],[88.7833,22.1583],[88.7955,22.1684]],[[88.7733,22.1462],[88.7767,22.1538],[88.7708,22.1458],[88.7733,22.1462]],[[88.8495,22.1516],[88.8538,22.1521],[88.8527,22.1544],[88.8495,22.1516]],[[88.7592,22.1452],[88.7658,22.1423],[88.7667,22.1458],[88.7592,22.1452]],[[88.9068,22.1419],[88.9069,22.1375],[88.908,22.1396],[88.9068,22.1419]],[[88.7533,22.1384],[88.7509,22.1408],[88.75,22.1375],[88.7533,22.1384]],[[88.7208,22.1068],[88.7413,22.1184],[88.7417,22.1333],[88.7208,22.1068]],[[88.8277,22.1294],[88.8278,22.125],[88.8288,22.1271],[88.8277,22.1294]],[[88.9193,22.1253],[88.9194,22.1208],[88.9205,22.1229],[88.9193,22.1253]],[[88.8153,22.125],[88.8152,22.1294],[88.812,22.1266],[88.8153,22.125]],[[88.7903,22.1083],[88.7866,22.1131],[88.7827,22.1093],[88.7903,22.1083]],[[88.7788,22.1062],[88.7745,22.1058],[88.7778,22.1042],[88.7788,22.1062]],[[88.7755,22.0966],[88.7702,22.0943],[88.7736,22.0917],[88.7755,22.0966]],[[88.708,22.0979],[88.7037,22.0975],[88.7069,22.0958],[88.708,22.0979]],[[88.712,22.1016],[88.7163,22.1021],[88.7152,22.1044],[88.712,22.1016]],[[88.9152,22.0878],[88.9153,22.0833],[88.9163,22.0854],[88.9152,22.0878]],[[88.7611,22.0833],[88.761,22.0878],[88.7579,22.085],[88.7611,22.0833]],[[88.8131,22.0228],[88.8135,22.025],[88.8125,22.025],[88.8131,22.0228]],[[88.8342,22.0217],[88.8373,22.0218],[88.8339,22.0228],[88.8342,22.0217]],[[88.8708,22.0208],[88.8739,22.017],[88.8741,22.02],[88.8708,22.0208]],[[88.7778,21.725],[88.7788,21.7271],[88.7745,21.7266],[88.7778,21.725]],[[88.7922,21.7101],[88.7976,21.7127],[88.7931,21.7131],[88.7922,21.7101]],[[88.7655,21.712],[88.7634,21.7118],[88.7629,21.71],[88.7655,21.712]],[[88.7842,21.7077],[88.7838,21.706],[88.7879,21.708],[88.7842,21.7077]],[[88.7618,21.7008],[88.7579,21.7071],[88.7592,21.7003],[88.7618,21.7008]],[[88.8833,21.9208],[88.8905,21.9161],[88.8917,21.9208],[88.8833,21.9208]],[[88.87,21.9175],[88.8675,21.92],[88.8667,21.9167],[88.87,21.9175]],[[88.9509,21.7798],[88.9574,21.7827],[88.95,21.7833],[88.9509,21.7798]],[[88.9601,21.7705],[88.9566,21.7629],[88.9625,21.7708],[88.9601,21.7705]],[[88.9286,21.7647],[88.925,21.7625],[88.9292,21.7625],[88.9286,21.7647]],[[88.9458,21.7625],[88.9488,21.7578],[88.95,21.7625],[88.9458,21.7625]],[[89.0287,21.6308],[89.033,21.6312],[89.0318,21.6336],[89.0287,21.6308]],[[88.9912,21.9516],[88.9955,21.9521],[88.9943,21.9544],[88.9912,21.9516]],[[88.9954,21.9433],[88.9996,21.9437],[88.9985,21.9461],[88.9954,21.9433]],[[89.4443,22.2461],[89.4444,22.2417],[89.4455,22.2437],[89.4443,22.2461]],[[89.4121,22.2437],[89.4079,22.2433],[89.4111,22.2417],[89.4121,22.2437]],[[89.2458,22.2458],[89.2369,22.2326],[89.2469,22.2172],[89.2833,22.2167],[89.2465,22.2216],[89.2458,22.2458]],[[89.305,22.22],[89.3083,22.2167],[89.3083,22.2208],[89.305,22.22]],[[89.0413,22.2312],[89.037,22.2308],[89.0403,22.2292],[89.0413,22.2312]],[[89.3045,22.2392],[89.3066,22.2413],[89.3042,22.2417],[89.3045,22.2392]],[[89.3092,22.2283],[89.3116,22.2259],[89.3125,22.2292],[89.3092,22.2283]],[[89.0703,22.1899],[89.0756,22.1922],[89.0741,22.1997],[89.0703,22.1899]],[[89.062,22.1641],[89.0663,22.1646],[89.0652,22.1669],[89.062,22.1641]],[[89.0871,22.1396],[89.0829,22.1391],[89.0861,22.1375],[89.0871,22.1396]],[[89.2333,22.1],[89.2375,22.1],[89.2345,22.1047],[89.2333,22.1]],[[89.2337,22.0809],[89.2455,22.0517],[89.2083,22.0],[89.2458,21.9875],[89.2161,22.0095],[89.2495,22.0519],[89.2337,22.0809]],[[89.15,22.0333],[89.1625,21.9958],[89.1691,21.9964],[89.1627,22.0214],[89.15,22.0333]],[[89.1586,22.0501],[89.1559,22.0538],[89.15,22.0458],[89.1586,22.0501]],[[89.1715,22.0684],[89.1717,22.0675],[89.1734,22.0671],[89.1715,22.0684]],[[89.1664,22.0717],[89.1634,22.0717],[89.1667,22.0708],[89.1664,22.0717]],[[89.1568,22.0785],[89.155,22.0759],[89.1583,22.075],[89.1568,22.0785]],[[89.15,22.0833],[89.1489,22.0867],[89.1458,22.0875],[89.15,22.0833]],[[89.1328,21.947],[89.1379,21.9608],[89.1625,21.9875],[89.1384,21.9702],[89.1328,21.947]],[[89.1428,21.9209],[89.1518,21.9199],[89.1375,21.9375],[89.1428,21.9209]],[[89.1661,21.9255],[89.1673,21.9255],[89.1662,21.9256],[89.1661,21.9255]],[[89.1788,21.9166],[89.1907,21.9163],[89.1869,21.9173],[89.1788,21.9166]],[[89.312,21.86],[89.3163,21.8604],[89.3152,21.8628],[89.312,21.86]],[[89.3833,22.1],[89.3816,22.0955],[89.3875,22.0917],[89.3833,22.1]],[[89.3667,22.0542],[89.3756,22.0689],[89.3921,22.0863],[89.3712,22.0691],[89.3667,22.0542]],[[89.4286,22.0151],[89.4339,22.0174],[89.4306,22.0214],[89.4286,22.0151]],[[89.4327,21.9901],[89.438,21.9924],[89.4348,21.9964],[89.4327,21.9901]],[[89.4454,21.9141],[89.4496,21.9146],[89.4485,21.9169],[89.4454,21.9141]],[[89.8827,22.1526],[89.888,22.1549],[89.8848,22.1589],[89.8827,22.1526]],[[89.8167,22.0917],[89.8265,22.096],[89.8375,22.1167],[89.8342,22.1158],[89.8167,22.0917]],[[89.675,22.0542],[89.6908,22.0634],[89.6917,22.0667],[89.6851,22.0663],[89.675,22.0542]],[[89.6754,22.0475],[89.6775,22.0496],[89.675,22.05],[89.6754,22.0475]],[[89.6884,22.0382],[89.6958,22.0375],[89.6875,22.0417],[89.6884,22.0382]],[[89.7,22.0333],[89.6909,22.0009],[89.7033,22.0326],[89.7,22.0333]],[[89.6833,21.9917],[89.6833,21.9333],[89.6911,21.9436],[89.6922,21.9674],[89.6833,21.9917]],[[89.6376,21.9312],[89.6295,21.935],[89.6399,21.9253],[89.6376,21.9312]],[[89.6798,21.9283],[89.6827,21.9217],[89.6833,21.9292],[89.6798,21.9283]],[[89.7277,21.9211],[89.7278,21.9167],[89.7288,21.9187],[89.7277,21.9211]],[[89.7205,21.9146],[89.7162,21.9141],[89.7194,21.9125],[89.7205,21.9146]],[[89.6792,21.9167],[89.6576,21.8994],[89.6467,21.9075],[89.6414,21.897],[89.6566,21.8879],[89.6792,21.9167]],[[89.633,21.8854],[89.6287,21.885],[89.6319,21.8833],[89.633,21.8854]],[[89.575,21.9417],[89.5708,21.9417],[89.5738,21.9369],[89.575,21.9417]],[[89.7402,21.8753],[89.7403,21.8708],[89.7413,21.8729],[89.7402,21.8753]],[[90.3208,22.4667],[90.2994,22.4576],[90.3042,22.45],[90.3208,22.4667]],[[90.175,22.4542],[90.1703,22.4429],[90.175,22.4417],[90.175,22.4542]],[[90.3042,22.4458],[90.2839,22.423],[90.2833,22.4208],[90.2996,22.4309],[90.3042,22.4458]],[[90.1705,22.4267],[90.1629,22.4233],[90.1625,22.4208],[90.1705,22.4267]],[[90.1825,22.4675],[90.18,22.47],[90.1792,22.4667],[90.1825,22.4675]],[[90.3467,22.47],[90.3491,22.4675],[90.35,22.4708],[90.3467,22.47]],[[90.1509,22.4158],[90.1533,22.4134],[90.1542,22.4167],[90.1509,22.4158]],[[90.2708,22.4083],[90.2619,22.3645],[90.2583,22.35],[90.2663,22.3559],[90.2708,22.4083]],[[90.0991,22.3509],[90.0967,22.3533],[90.0958,22.35],[90.0991,22.3509]],[[90.1163,22.3642],[90.1045,22.3566],[90.1042,22.3542],[90.1163,22.3642]],[[90.1283,22.3842],[90.1259,22.3866],[90.125,22.3833],[90.1283,22.3842]],[[90.1371,22.3975],[90.1295,22.3941],[90.1292,22.3917],[90.1371,22.3975]],[[90.2271,22.35],[90.2396,22.3333],[90.2583,22.3458],[90.2271,22.35]],[[90.1006,22.3311],[90.0911,22.3323],[90.1086,22.3178],[90.1006,22.3311]],[[90.1045,22.3017],[90.1118,22.3076],[90.1042,22.3083],[90.1045,22.3017]],[[90.1092,22.2825],[90.1116,22.28],[90.1125,22.2833],[90.1092,22.2825]],[[90.0989,22.2794],[90.0795,22.2608],[90.0721,22.2165],[90.084,22.2605],[90.0989,22.2794]],[[90.0667,22.2167],[90.0267,22.208],[90.0208,22.1917],[90.0259,22.1993],[90.0667,22.2167]],[[89.8663,22.2687],[89.862,22.2683],[89.8653,22.2667],[89.8663,22.2687]],[[90.1037,22.2725],[90.108,22.2729],[90.1068,22.2753],[90.1037,22.2725]],[[90.024,22.0621],[90.0286,22.1259],[90.066,22.1551],[90.0672,22.1676],[90.0534,22.1797],[90.0342,22.1716],[90.0629,22.1595],[90.0161,22.1215],[90.024,22.0621]],[[90.43,22.1866],[90.4325,22.1842],[90.4333,22.1875],[90.43,22.1866]],[[90.4217,22.1825],[90.4241,22.18],[90.425,22.1833],[90.4217,22.1825]],[[90.4006,22.1699],[90.4036,22.1426],[90.4042,22.1708],[90.4006,22.1699]],[[90.1375,21.95],[90.1375,21.9542],[90.1328,21.9512],[90.1375,21.95]],[[90.1208,21.925],[90.1375,21.925],[90.122,21.9297],[90.1208,21.925]],[[90.1167,21.9125],[90.1167,21.9167],[90.1119,21.9137],[90.1167,21.9125]],[[90.1087,21.8941],[90.1121,21.885],[90.1167,21.9],[90.1087,21.8941]],[[90.5079,21.9225],[90.5121,21.9229],[90.511,21.9253],[90.5079,21.9225]]],[[[88.1903,21.5583],[88.1715,21.5687],[88.1674,21.6034],[88.1923,21.5861],[88.1903,21.5583]]],[[[89.3506,21.7091],[89.3285,21.6977],[89.3369,21.7215],[89.3506,21.7091]]],[[[88.8861,21.5458],[88.8298,21.5645],[88.8298,21.6075],[88.8949,21.5824],[88.9078,21.5604],[88.8861,21.5458]]],[[[88.6319,21.6458],[88.6256,21.6605],[88.637,21.6798],[88.641,21.6645],[88.6319,21.6458]]],[[[88.7429,21.6536],[88.7741,21.6576],[88.7756,21.6228],[88.8006,21.5988],[88.7897,21.5797],[88.7382,21.5703],[88.7089,21.5811],[88.7172,21.6368],[88.6869,21.6826],[88.697,21.7172],[88.705,21.6884],[88.7429,21.6536]]],[[[90.609,21.7487],[90.5921,21.7406],[90.6014,21.7506],[90.609,21.7487]]],[[[89.7198,21.7546],[89.7133,21.7465],[89.712,21.7531],[89.7198,21.7546]]],[[[90.5965,21.7606],[90.5827,21.7509],[90.5912,21.7631],[90.5965,21.7606]]],[[[88.2048,21.769],[88.191,21.7602],[88.1995,21.7715],[88.2048,21.769]]],[[[90.5644,21.766],[90.5638,21.7584],[90.5593,21.7798],[90.5644,21.766]]],[[[90.8575,21.9493],[90.8512,21.9454],[90.85,21.95],[90.8575,21.9493]]],[[[90.3322,21.963],[90.3302,21.9495],[90.3245,21.9556],[90.3322,21.963]]],[[[90.7736,21.8375],[90.7674,21.8615],[90.7825,21.871],[90.7839,21.8537],[90.7736,21.8375]]],[[[90.8153,21.8583],[90.8035,21.8662],[90.8053,21.8756],[90.8242,21.8743],[90.8153,21.8583]]],[[[88.5792,21.8792],[88.5866,21.8619],[88.5799,21.8635],[88.5792,21.8792]]],[[[90.6281,21.8795],[90.6175,21.8715],[90.617,21.874],[90.6281,21.8795]]],[[[90.6278,21.8875],[90.6085,21.8932],[90.6257,21.97],[90.7034,21.9785],[90.6739,21.9171],[90.6278,21.8875]]],[[[90.7339,21.8466],[90.7286,21.8443],[90.7306,21.8506],[90.7339,21.8466]]],[[[90.2986,21.85],[90.2924,21.8382],[90.2911,21.8491],[90.2986,21.85]]],[[[90.3783,21.8492],[90.3676,21.8381],[90.3625,21.8443],[90.3783,21.8492]]],[[[90.3944,21.8167],[90.3927,21.834],[90.4048,21.8323],[90.4035,21.827],[90.3944,21.8167]]],[[[90.4508,21.8215],[90.4571,21.8254],[90.4583,21.8208],[90.4508,21.8215]]],[[[89.8611,21.8292],[89.8494,21.8451],[89.8507,21.8617],[89.8703,21.8438],[89.8611,21.8292]]],[[[90.4248,21.8318],[90.4122,21.8176],[90.4241,21.8376],[90.4248,21.8318]]],[[[90.4653,21.8292],[90.4577,21.8301],[90.4616,21.834],[90.4653,21.8292]]],[[[90.4756,21.8655],[90.4521,21.834],[90.4285,21.8357],[90.452,21.8619],[90.4756,21.8655]]],[[[90.6199,21.8671],[90.6069,21.8458],[90.5916,21.8569],[90.6199,21.8671]]],[[[90.4278,21.8583],[90.4202,21.8593],[90.4241,21.8631],[90.4278,21.8583]]],[[[90.5611,21.8667],[90.5535,21.8727],[90.5669,21.874],[90.5611,21.8667]]],[[[90.7361,21.8583],[90.718,21.8588],[90.7088,21.8815],[90.7298,21.9238],[90.7528,21.9287],[90.762,21.906],[90.7361,21.8583]]],[[[90.7297,21.8071],[90.7202,21.7968],[90.7218,21.809],[90.7297,21.8071]]],[[[90.3203,21.7979],[90.3119,21.7968],[90.3137,21.8048],[90.3203,21.7979]]],[[[90.3923,21.802],[90.3747,21.7883],[90.3873,21.8048],[90.3923,21.802]]],[[[90.4797,21.7738],[90.4592,21.7673],[90.4637,21.7839],[90.4797,21.7738]]],[[[90.5744,21.773],[90.5845,21.7922],[90.5964,21.7842],[90.5897,21.7756],[90.5744,21.773]]],[[[88.6451,21.7883],[88.5883,21.7965],[88.5756,21.8313],[88.6438,21.9244],[88.6715,21.9156],[88.6451,21.7883]]],[[[90.5297,21.8561],[90.5161,21.8487],[90.5297,21.8322],[90.5193,21.8215],[90.4926,21.8078],[90.4745,21.8156],[90.4936,21.8578],[90.5297,21.8561]]],[[[89.8528,21.7958],[89.8383,21.7965],[89.8292,21.8154],[89.8576,21.8201],[89.8528,21.7958]]],[[[90.4536,21.8069],[90.4672,21.8135],[90.4613,21.7995],[90.4536,21.8069]]],[[[90.4406,21.8171],[90.4342,21.809],[90.4329,21.8156],[90.4406,21.8171]]],[[[90.8342,21.9506],[90.8299,21.97],[90.8491,21.9743],[90.8574,21.955],[90.8342,21.9506]]],[[[89.8922,21.9631],[89.8869,21.9607],[89.8908,21.9705],[89.8922,21.9631]]],[[[90.8589,21.9903],[90.8467,21.9798],[90.8531,21.9922],[90.8589,21.9903]]],[[[90.8285,21.9895],[90.8077,21.98],[90.8243,22.0007],[90.8285,21.9895]]]]}}