{"type":"Feature","properties":{"speciesId":424,"category":"DD","source":"IUCN Red List","simplifyTol":0.01,"clippedToSubcontinent":true},"geometry":{"type":"MultiPolygon","coordinates":[[[[67.4129,24.0593],[67.4118,24.0805],[67.4227,24.0664],[67.4129,24.0593]]],[[[62.3657,29.1994],[62.2299,29.2043],[62.1098,29.2588],[62.0168,29.3579],[61.9692,29.4853],[61.9736,29.6171],[62.0295,29.741],[62.1288,29.8337],[62.2563,29.8809],[62.3871,29.8765],[62.5152,29.8175],[62.6043,29.7203],[62.6508,29.5963],[62.6458,29.4604],[62.5917,29.3407],[62.4864,29.2429],[62.3657,29.1994]]],[[[61.1379,29.4373],[61.0021,29.4422],[60.882,29.4967],[60.789,29.5958],[60.7414,29.7232],[60.7458,29.855],[60.8017,29.9789],[60.901,30.0716],[61.0285,30.1188],[61.1593,30.1144],[61.2874,30.0554],[61.3765,29.9582],[61.423,29.8342],[61.418,29.6983],[61.3639,29.5786],[61.2586,29.4808],[61.1379,29.4373]]],[[[67.4014,24.0464],[67.378,24.0656],[67.395,24.0662],[67.371,24.0873],[67.3626,24.1323],[67.4118,24.1233],[67.4248,24.1292],[67.3828,24.1326],[67.3453,24.1557],[67.3347,24.1763],[67.3545,24.1828],[67.3346,24.214],[67.342,24.2351],[67.3625,24.2385],[67.4125,24.2295],[67.4208,24.2098],[67.4312,24.2214],[67.4317,24.2472],[67.4205,24.2173],[67.4143,24.234],[67.3501,24.2542],[67.3613,24.2756],[67.3814,24.2732],[67.3946,24.287],[67.3585,24.2837],[67.3259,24.2448],[67.2972,24.3073],[67.3299,24.3339],[67.3596,24.2907],[67.3386,24.3323],[67.3466,24.3428],[67.4109,24.3113],[67.4421,24.316],[67.449,24.3321],[67.4906,24.3218],[67.5146,24.3424],[67.5291,24.3345],[67.5124,24.3525],[67.4873,24.3263],[67.4573,24.3417],[67.4343,24.3227],[67.3665,24.3509],[67.369,24.3857],[67.4177,24.3864],[67.4229,24.3603],[67.4278,24.3918],[67.4158,24.4014],[67.3605,24.3877],[67.3491,24.4005],[67.4169,24.4367],[67.4646,24.4234],[67.4727,24.4268],[67.3932,24.4497],[67.3712,24.4371],[67.3834,24.4544],[67.3608,24.4601],[67.3951,24.4834],[67.4218,24.4644],[67.454,24.4621],[67.4366,24.4788],[67.4213,24.4707],[67.4039,24.5064],[67.412,24.5215],[67.3915,24.5151],[67.4022,24.493],[67.3743,24.472],[67.3424,24.4591],[67.3099,24.4622],[67.3258,24.4652],[67.3294,24.4856],[67.3523,24.4797],[67.3702,24.5304],[67.3975,24.5246],[67.3987,24.5467],[67.3684,24.5359],[67.3552,24.5459],[67.3807,24.571],[67.4136,24.5856],[67.4386,24.5718],[67.4071,24.5894],[67.3541,24.5562],[67.3991,24.6357],[67.4143,24.6493],[67.4405,24.6404],[67.4532,24.6537],[67.4428,24.6478],[67.4206,24.6728],[67.549,24.8973],[67.4269,26.6055],[67.0609,28.3137],[66.5728,29.7779],[67.4269,30.0219],[68.6471,30.754],[69.5012,31.3641],[70.3553,32.5842],[70.5993,33.5603],[69.9892,34.4144],[70.5993,34.6585],[72.2081,33.9194],[73.7717,33.4383],[75.7239,33.0723],[77.0661,32.5842],[77.9202,31.8521],[78.1642,30.876],[77.9202,29.7779],[77.0661,29.1678],[76.578,28.1917],[76.212,26.9716],[75.1138,25.5074],[73.2836,24.6533],[69.3792,23.4331],[68.7099,23.1208],[68.6523,23.1498],[68.633,23.177],[68.6922,23.1393],[68.7244,23.1516],[68.6553,23.1675],[68.6515,23.1936],[68.6239,23.1862],[68.5846,23.221],[68.584,23.2396],[68.6458,23.2582],[68.622,23.2903],[68.6509,23.2984],[68.6146,23.2984],[68.611,23.2713],[68.5884,23.2516],[68.5406,23.2667],[68.5446,23.2881],[68.559,23.2898],[68.5525,23.3121],[68.5859,23.3059],[68.5844,23.3196],[68.6165,23.3244],[68.6182,23.3506],[68.6142,23.3278],[68.561,23.3445],[68.5141,23.3201],[68.4999,23.3492],[68.4781,23.349],[68.5051,23.3965],[68.4955,23.4023],[68.5195,23.4172],[68.4855,23.4156],[68.4738,23.3863],[68.4299,23.4224],[68.4403,23.3894],[68.3937,23.4216],[68.3851,23.4485],[68.4473,23.4768],[68.4187,23.5359],[68.4552,23.5719],[68.4399,23.5677],[68.4662,23.5997],[68.4708,23.6367],[68.5457,23.7129],[68.6186,23.7489],[68.6581,23.7992],[68.6794,23.7915],[68.7146,23.824],[68.766,23.8422],[68.7823,23.8606],[68.7697,23.8759],[68.7628,23.851],[68.726,23.8369],[68.6554,23.8397],[68.5235,23.7464],[68.5192,23.7731],[68.4902,23.7327],[68.4329,23.7337],[68.3763,23.619],[68.3827,23.6079],[68.3105,23.5674],[68.2657,23.5683],[68.2784,23.6004],[68.2649,23.6325],[68.2261,23.6465],[68.2611,23.6546],[68.3259,23.7259],[68.291,23.7243],[68.2403,23.6712],[68.1867,23.723],[68.2112,23.7698],[68.2074,23.8372],[68.2221,23.8313],[68.2408,23.8493],[68.2556,23.835],[68.2675,23.8377],[68.2573,23.876],[68.2747,23.9179],[68.3065,23.9135],[68.3188,23.9235],[68.2745,23.9371],[68.2377,23.9001],[68.1856,23.8863],[68.1897,23.851],[68.1361,23.8695],[68.1427,23.8406],[68.1035,23.8555],[68.1044,23.8432],[68.076,23.8332],[68.053,23.8537],[68.0553,23.903],[68.042,23.9118],[68.0277,23.8692],[68.0446,23.7949],[67.9962,23.7867],[67.9202,23.8517],[67.9298,23.829],[67.872,23.8586],[67.8655,23.9024],[67.9027,23.9647],[67.8939,23.975],[67.8456,23.9091],[67.8274,23.8136],[67.709,23.8562],[67.7502,23.8014],[67.652,23.7945],[67.6269,23.8088],[67.6261,23.8423],[67.5841,23.8388],[67.5762,23.8889],[67.5651,23.8682],[67.5355,23.893],[67.5343,23.8753],[67.4655,23.9066],[67.4626,23.9205],[67.491,23.9139],[67.4855,23.9373],[67.4661,23.9453],[67.5007,23.9698],[67.4224,23.9449],[67.4361,23.9916],[67.4083,24.0],[67.4218,24.0024],[67.4092,24.0391],[67.438,24.0636],[67.4183,24.0872],[67.4465,24.1202],[67.4088,24.084],[67.4014,24.0464]]]]}}