{"type":"Feature","properties":{"speciesId":427,"category":"LC","source":"IUCN Red List","simplifyTol":0.01,"clippedToSubcontinent":true},"geometry":{"type":"MultiPolygon","coordinates":[[[[72.6278,21.2829],[72.6391,21.2741],[72.6346,21.2663],[72.6202,21.2709],[72.6278,21.2829]]],[[[72.624,21.3251],[72.6204,21.3316],[72.6267,21.3382],[72.624,21.3251]]],[[[72.5701,21.7394],[72.5716,21.7534],[72.5944,21.7488],[72.5701,21.7394]]],[[[72.5733,21.7649],[72.5815,21.7771],[72.5834,21.775],[72.5733,21.7649]]],[[[72.3581,22.1888],[72.3604,22.1838],[72.3515,22.1744],[72.3581,22.1888]]],[[[72.4442,22.2056],[72.4713,22.2145],[72.4785,22.2097],[72.4323,22.1795],[72.4442,22.2056]]],[[[72.5175,22.2305],[72.5105,22.2179],[72.4992,22.2229],[72.5039,22.2326],[72.5175,22.2305]]],[[[69.4552,22.3572],[69.4394,22.3542],[69.4349,22.3576],[69.4425,22.3616],[69.4552,22.3572]]],[[[69.3309,22.3776],[69.3355,22.3862],[69.3398,22.3836],[69.3309,22.3776]]],[[[69.4802,22.3925],[69.4874,22.391],[69.4801,22.387],[69.4802,22.3925]]],[[[69.5834,22.4378],[69.6248,22.4583],[69.645,22.4439],[69.6399,22.4108],[69.5834,22.4378]]],[[[69.1104,22.4589],[69.086,22.4197],[69.0949,22.4589],[69.1485,22.4705],[69.1446,22.4537],[69.1104,22.4589]]],[[[69.8554,22.5272],[69.8999,22.5252],[69.8979,22.5412],[69.9159,22.5456],[69.9302,22.5282],[69.9162,22.51],[69.8554,22.5272]]],[[[69.9468,22.5487],[69.9398,22.5358],[69.9364,22.5455],[69.9468,22.5487]]],[[[70.0175,22.5603],[69.9571,22.5546],[69.9646,22.5776],[69.9991,22.5897],[70.0256,22.5811],[70.0175,22.5603]]],[[[69.9539,22.5946],[69.9538,22.5944],[69.9532,22.5944],[69.9539,22.5946]]],[[[70.3896,22.9602],[70.389,22.957],[70.3843,22.9598],[70.3896,22.9602]]],[[[70.4469,22.9759],[70.4335,22.9737],[70.4491,22.9798],[70.4469,22.9759]]],[[[70.3907,22.9694],[70.3771,22.9641],[70.3572,22.9761],[70.385,22.9959],[70.3907,22.9694]]],[[[70.4295,22.9817],[70.4484,22.994],[70.4415,22.9801],[70.4295,22.9817]]],[[[70.4424,23.0472],[70.4312,23.0099],[70.4098,22.9911],[70.4164,23.0236],[70.4424,23.0472]]],[[[70.3842,23.0233],[70.3766,23.034],[70.3961,23.0206],[70.3842,23.0233]]],[[[70.4583,23.0414],[70.4456,23.0256],[70.4561,23.0439],[70.4583,23.0414]]],[[[70.4163,23.0281],[70.4187,23.0392],[70.4349,23.0499],[70.4345,23.0444],[70.4163,23.0281]]],[[[70.3954,23.0582],[70.3915,23.0352],[70.3679,23.0431],[70.3828,23.0558],[70.3954,23.0582]]],[[[70.4769,23.0622],[70.462,23.0467],[70.4592,23.0503],[70.4769,23.0622]]],[[[68.5914,23.7415],[68.5774,23.741],[68.5917,23.7475],[68.5914,23.7415]]],[[[68.5693,23.7576],[68.6101,23.7728],[68.5676,23.7489],[68.5693,23.7576]]],[[[68.6391,23.7899],[68.6294,23.7773],[68.6271,23.7793],[68.6391,23.7899]]],[[[73.774,15.3587],[73.7725,15.3522],[73.7666,15.3553],[73.774,15.3587]]],[[[73.7607,15.3543],[73.7569,15.3573],[73.7605,15.3574],[73.7607,15.3543]]],[[[73.7914,15.3752],[73.7865,15.3772],[73.7904,15.3776],[73.7914,15.3752]]],[[[73.5395,15.9241],[73.5395,15.9267],[73.5407,15.9259],[73.5395,15.9241]]],[[[73.4707,15.9724],[73.4701,15.9747],[73.471,15.9736],[73.4707,15.9724]]],[[[73.4838,16.0],[73.4957,15.9712],[73.4863,15.9812],[73.4838,16.0]]],[[[72.8151,18.7014],[72.8074,18.6944],[72.8072,18.7045],[72.8151,18.7014]]],[[[72.8424,18.7075],[72.8332,18.7041],[72.84,18.7114],[72.8424,18.7075]]],[[[72.8456,18.7691],[72.8349,18.7678],[72.8432,18.7728],[72.8456,18.7691]]],[[[72.8502,18.7868],[72.844,18.7916],[72.8501,18.7971],[72.8502,18.7868]]],[[[72.9321,18.9527],[72.9223,18.9629],[72.9424,18.9688],[72.9389,18.9654],[72.9321,18.9527]]],[[[73.0595,19.016],[73.0493,19.0066],[73.0566,19.0171],[73.0595,19.016]]],[[[72.8516,19.3378],[72.8684,19.3295],[72.838,19.3354],[72.8516,19.3378]]],[[[72.7286,19.4696],[72.7383,19.4681],[72.7327,19.4608],[72.7286,19.4696]]],[[[72.8815,20.6466],[72.8706,20.6522],[72.8618,20.6932],[72.8726,20.6676],[72.8785,20.6761],[72.8815,20.6466]]],[[[72.8807,20.6811],[72.89,20.6884],[72.8883,20.6806],[72.8807,20.6811]]],[[[72.8671,20.6949],[72.877,20.7253],[72.8737,20.6908],[72.8671,20.6949]]],[[[72.8752,20.7521],[72.8618,20.7557],[72.8767,20.754],[72.8752,20.7521]]],[[[72.8726,20.768],[72.8696,20.7604],[72.866,20.7692],[72.8726,20.768]]],[[[72.9309,20.7624],[72.9366,20.7718],[72.9412,20.7674],[72.9309,20.7624]]],[[[72.8185,20.9139],[72.8097,20.9123],[72.8173,20.919],[72.8185,20.9139]]],[[[72.7854,20.9937],[72.7723,20.9793],[72.7658,20.9849],[72.7751,20.9933],[72.7854,20.9937]]],[[[72.8453,21.0376],[72.8357,21.0425],[72.8453,21.0424],[72.8453,21.0376]]],[[[72.6852,21.0536],[72.6797,21.0622],[72.6751,21.0652],[72.6836,21.0665],[72.6852,21.0536]]],[[[72.6749,21.0808],[72.6506,21.0508],[72.6466,21.0522],[72.6749,21.0808]]],[[[72.6844,21.1426],[72.6983,21.1384],[72.6831,21.1081],[72.6731,21.1247],[72.6844,21.1426]]],[[[72.807,21.6431],[72.7932,21.6206],[72.6902,21.5999],[72.674,21.5873],[72.6865,21.5808],[72.6432,21.5644],[72.6228,21.5682],[72.6295,21.5877],[72.6119,21.5992],[72.6601,21.6362],[72.807,21.6431]]],[[[72.8784,21.6802],[72.8683,21.6724],[72.8578,21.6764],[72.8784,21.6802]]],[[[72.7317,22.2225],[72.6691,22.2351],[72.663,22.2475],[72.7191,22.2376],[72.7317,22.2225]]],[[[80.2534,9.8191],[80.3657,9.6603],[80.8117,9.2909],[80.8841,9.1219],[81.0005,8.9388],[80.993,8.918],[81.0102,8.929],[81.013,8.8911],[81.021,8.9048],[81.0589,8.8595],[81.0875,8.8584],[81.1048,8.8126],[81.2267,8.6475],[81.2208,8.6062],[81.2298,8.581],[81.2451,8.5793],[81.2471,8.5458],[81.2257,8.5323],[81.2261,8.5695],[81.1927,8.5665],[81.2119,8.5077],[81.1896,8.5018],[81.1977,8.4615],[81.2624,8.4569],[81.304,8.4326],[81.304,8.4583],[81.2958,8.4465],[81.2809,8.4568],[81.2831,8.5032],[81.3222,8.5224],[81.353,8.4909],[81.3937,8.3567],[81.4078,8.2419],[81.4769,8.0343],[81.5686,7.9227],[81.5874,7.921],[81.5671,7.8981],[81.593,7.83],[81.6268,7.8247],[81.6544,7.7729],[81.6999,7.7536],[81.7713,7.6448],[81.8718,7.3159],[81.8586,7.0907],[81.8813,7.0267],[81.8704,6.9789],[81.8489,6.9896],[81.8578,6.9672],[81.8729,6.9669],[81.8364,6.8853],[81.8518,6.8884],[81.8483,6.8675],[81.8397,6.8542],[81.8211,6.8621],[81.8444,6.8344],[81.8233,6.8088],[81.8249,6.7653],[81.8084,6.7647],[81.8279,6.7586],[81.7759,6.6639],[81.7664,6.592],[81.7324,6.5669],[81.7003,6.482],[81.6518,6.4367],[81.5973,6.4241],[81.6135,6.4056],[81.56,6.3612],[81.522,6.3525],[81.4869,6.3055],[81.3285,6.1945],[81.2222,6.1589],[81.1946,6.1576],[81.197,6.1776],[81.178,6.1441],[81.1336,6.1174],[81.0167,6.1071],[80.8659,6.0408],[80.8255,6.0415],[80.7202,5.9607],[80.6641,5.9575],[80.5868,5.9168],[80.5532,5.9411],[80.4489,5.9431],[80.4522,5.9588],[80.4357,5.969],[80.4179,5.955],[80.3828,5.9595],[80.2442,6.0069],[80.2285,6.0351],[80.2186,6.022],[80.0986,6.1289],[80.0314,6.2656],[80.0252,6.3364],[79.9746,6.464],[79.9866,6.4771],[79.9796,6.5149],[79.8687,6.8057],[79.8431,6.9333],[79.8712,6.9756],[79.869,7.0027],[79.819,7.1934],[79.8592,7.2756],[79.8445,7.2761],[79.8027,7.4826],[79.7977,7.7275],[79.7513,7.9316],[79.7064,8.0445],[79.699,8.1154],[79.7095,8.1343],[79.6984,8.2138],[79.7179,8.2167],[79.7381,8.28],[79.7812,8.3497],[79.7563,8.3071],[79.7511,8.2617],[79.7655,8.2739],[79.7573,8.2571],[79.7766,8.2541],[79.7688,8.2156],[79.7404,8.2008],[79.7492,8.1829],[79.7316,8.0868],[79.7541,8.0582],[79.7426,8.0],[79.8186,7.9719],[79.8082,7.8839],[79.8265,7.9206],[79.834,8.0071],[79.7896,8.0682],[79.8086,8.0611],[79.7948,8.0793],[79.8338,8.1396],[79.8154,8.2037],[79.7946,8.2203],[79.8095,8.2174],[79.7897,8.2301],[79.8101,8.2374],[79.8342,8.2919],[79.8476,8.2742],[79.8584,8.2846],[79.8362,8.3011],[79.8445,8.4289],[79.8632,8.4496],[79.8709,8.5352],[79.9263,8.559],[79.9193,8.5846],[79.9414,8.6155],[79.9558,8.7174],[79.9248,8.7907],[79.9401,8.8068],[79.9184,8.8083],[79.9307,8.8147],[79.919,8.8188],[79.9358,8.8913],[79.9122,8.9299],[80.0403,9.0133],[80.0661,9.0562],[80.0857,9.0999],[80.0761,9.1203],[80.1173,9.2072],[80.1116,9.2768],[80.1278,9.2906],[80.0676,9.3287],[80.0549,9.3914],[80.1466,9.4347],[80.1861,9.4827],[80.1461,9.5361],[80.054,9.5979],[80.0876,9.6249],[80.0176,9.6509],[79.971,9.7077],[79.948,9.6871],[79.9099,9.7587],[79.9528,9.7921],[80.0224,9.8126],[80.1056,9.8059],[80.2147,9.8314],[80.2534,9.8191]]],[[[74.7216,13.2204],[74.7182,13.2214],[74.7202,13.2234],[74.7216,13.2204]]],[[[74.7246,13.2251],[74.7261,13.2244],[74.7251,13.2229],[74.7246,13.2251]]],[[[74.7125,13.2347],[74.7113,13.2373],[74.7126,13.2378],[74.7125,13.2347]]],[[[74.6866,13.26],[74.6851,13.2615],[74.6864,13.2627],[74.6866,13.26]]],[[[74.6817,13.2632],[74.6832,13.2658],[74.6824,13.2632],[74.6817,13.2632]]],[[[74.6953,13.2789],[74.6924,13.2757],[74.6928,13.2788],[74.6953,13.2789]]],[[[74.693,13.2828],[74.6929,13.2805],[74.6916,13.281],[74.693,13.2828]]],[[[74.6857,13.3251],[74.6858,13.3272],[74.6867,13.3247],[74.6857,13.3251]]],[[[74.6771,13.3389],[74.6783,13.3402],[74.6796,13.3374],[74.6771,13.3389]]],[[[74.6723,13.3617],[74.6735,13.3595],[74.6725,13.3593],[74.6723,13.3617]]],[[[74.6689,13.3725],[74.6647,13.3747],[74.6668,13.3763],[74.6689,13.3725]]],[[[74.4769,14.0113],[74.4729,14.011],[74.4764,14.0124],[74.4769,14.0113]]],[[[74.4835,14.0253],[74.4799,14.0237],[74.4815,14.0259],[74.4835,14.0253]]],[[[74.4666,14.084],[74.4634,14.0859],[74.4665,14.0862],[74.4666,14.084]]],[[[74.4786,14.0953],[74.4748,14.0931],[74.4746,14.0957],[74.4786,14.0953]]],[[[74.4706,14.1051],[74.4668,14.1079],[74.4689,14.1094],[74.4706,14.1051]]],[[[74.3985,14.3133],[74.3938,14.3089],[74.3921,14.3117],[74.3985,14.3133]]],[[[74.2488,14.7011],[74.2458,14.7002],[74.246,14.702],[74.2488,14.7011]]],[[[74.232,14.7076],[74.2337,14.7107],[74.2353,14.7098],[74.232,14.7076]]],[[[74.1435,14.7234],[74.1432,14.7199],[74.1419,14.7216],[74.1435,14.7234]]],[[[74.1524,14.7386],[74.1492,14.7349],[74.1488,14.7389],[74.1524,14.7386]]],[[[74.1152,14.754],[74.1045,14.7529],[74.1052,14.7621],[74.1152,14.754]]],[[[74.0835,14.7921],[74.0817,14.7939],[74.0833,14.7935],[74.0835,14.7921]]],[[[74.0567,14.8188],[74.0503,14.8138],[74.0496,14.8142],[74.0499,14.8172],[74.0567,14.8188]]],[[[74.0961,14.8432],[74.0961,14.8374],[74.0912,14.8449],[74.0961,14.8432]]],[[[74.1,14.8622],[74.0991,14.8645],[74.0999,14.8645],[74.1,14.8622]]],[[[74.0908,14.8778],[74.0891,14.8748],[74.0885,14.877],[74.0908,14.8778]]],[[[89.0608,23.9839],[89.0936,23.9665],[89.1225,23.9203],[89.1241,23.9541],[89.1671,23.9259],[89.2341,23.9194],[89.3047,23.8696],[89.4078,23.8978],[89.4594,23.8119],[89.5057,23.7768],[89.5362,23.7953],[89.5572,23.7892],[89.5929,23.7975],[89.6397,23.7768],[89.7017,23.7769],[89.8567,23.6605],[89.9485,23.6357],[90.0246,23.5566],[90.0179,23.5823],[90.0954,23.567],[90.156,23.4924],[88.251,22.7343],[86.7992,21.324],[86.8821,20.7432],[86.6332,20.3284],[86.4254,20.0257],[86.427,20.0519],[86.3922,19.9668],[85.6377,19.7477],[85.0985,19.4574],[84.9619,19.2923],[84.8096,19.1478],[84.8041,19.1159],[84.7292,19.0112],[84.3214,18.5185],[84.1666,18.3787],[84.1375,18.3434],[84.1411,18.3142],[83.9623,18.2157],[83.9344,18.2254],[83.9453,18.21],[83.8113,18.1604],[83.6734,18.085],[83.5755,18.0095],[83.5411,17.9497],[83.4723,17.8985],[83.4679,17.9212],[83.4438,17.934],[83.4651,17.8826],[83.3148,17.7567],[83.1405,17.5574],[83.0229,17.5088],[82.9939,17.4732],[82.8869,17.4246],[82.8877,17.4393],[82.8661,17.4298],[82.8655,17.4155],[82.5828,17.2719],[82.4936,17.2121],[82.3045,17.0442],[82.2794,16.9809],[82.2363,16.9271],[82.2658,16.8921],[82.2571,16.864],[82.2771,16.8844],[82.276,16.8548],[82.2908,16.8726],[82.3608,16.8026],[81.9554,16.3973],[81.8801,16.3831],[81.8029,16.3463],[81.5325,16.359],[81.3238,16.3463],[81.1579,16.1804],[81.1938,16.0905],[81.1483,16.0],[81.1551,15.9707],[81.0499,15.9049],[81.0051,15.8531],[80.9904,15.8252],[80.9998,15.7776],[81.0291,15.7613],[80.9388,15.7079],[80.8948,15.7157],[80.8151,15.6995],[80.7824,15.8485],[80.8093,15.7779],[80.8111,15.837],[80.7695,15.8685],[80.6936,15.8811],[80.5329,15.8542],[80.3757,15.774],[80.2936,15.7047],[80.2494,15.6334],[80.1996,15.4623],[80.0957,15.329],[80.0834,15.2531],[80.0379,15.1849],[80.0872,14.8059],[80.1209,14.6871],[80.1524,14.309],[80.1263,14.2069],[80.1285,14.1412],[80.1544,14.0181],[80.2558,13.78],[80.2339,13.7186],[80.2329,13.6455],[80.3233,13.4439],[80.3464,13.304],[80.2956,13.1211],[80.3049,13.0927],[80.2609,13.0127],[80.2741,13.0056],[80.2429,12.8158],[80.2476,12.7533],[80.1758,12.5813],[80.1868,12.5753],[80.1624,12.5066],[79.8819,12.0511],[79.8342,11.9097],[79.8187,11.9071],[79.8333,11.902],[79.7982,11.7882],[79.7762,11.7694],[79.794,11.7694],[79.7932,11.7502],[79.7589,11.6076],[79.7601,11.5391],[79.7719,11.4914],[79.8104,11.4524],[79.8388,11.3486],[79.8471,11.2392],[79.8252,11.2306],[79.8497,11.2282],[79.8611,11.1486],[79.8497,10.8824],[79.8681,10.4425],[79.819,10.2706],[79.3983,10.3201],[79.3002,10.2603],[79.2308,10.1448],[79.2299,10.0933],[79.2498,10.0414],[78.8764,9.5851],[78.8764,9.3777],[79.0748,9.2925],[78.8657,9.2509],[78.5861,9.1703],[78.5484,9.1326],[78.492,9.1252],[78.4912,9.1361],[78.4198,9.1097],[78.2767,8.9996],[78.2658,9.0126],[78.2681,8.9925],[78.2176,8.9572],[78.174,8.8792],[78.1539,8.7474],[78.1786,8.7594],[78.1952,8.7499],[78.2012,8.7785],[78.2055,8.7605],[78.1959,8.7407],[78.1629,8.7296],[78.1322,8.6694],[78.133,8.4883],[78.0647,8.4057],[78.0697,8.3666],[77.8041,8.2336],[77.7838,8.1982],[77.7383,8.1691],[77.5938,8.1399],[77.5609,8.1154],[77.5635,8.0834],[77.5479,8.071],[77.3183,8.1173],[77.0133,8.3543],[76.6206,8.8431],[76.5464,8.8985],[76.5204,8.9993],[76.4617,9.1312],[76.497,9.067],[76.4753,9.1197],[76.4848,9.1159],[76.4921,9.1672],[76.4748,9.1621],[76.4709,9.1412],[76.4405,9.2326],[76.4196,9.2432],[76.4551,9.1423],[76.3263,9.4527],[76.2446,9.9545],[76.2184,9.9982],[76.1029,10.3754],[76.0478,10.4918],[76.0639,10.4735],[76.0463,10.5317],[76.0266,10.5323],[75.9113,10.799],[75.9104,10.7838],[75.8326,11.1235],[75.8054,11.1508],[75.7296,11.3316],[75.7333,11.354],[75.6782,11.4458],[75.6174,11.4744],[75.5851,11.5587],[75.597,11.5363],[75.5912,11.562],[75.6041,11.561],[75.5822,11.5708],[75.5294,11.6966],[75.5386,11.7048],[75.4917,11.7339],[75.4716,11.769],[75.451,11.7697],[75.3893,11.8467],[75.3522,11.8601],[75.3004,11.9467],[75.2377,12.0138],[75.2249,12.0211],[75.2004,12.0032],[75.1677,12.067],[75.0648,12.3407],[75.0296,12.3922],[75.0386,12.4111],[75.0229,12.3997],[75.0063,12.4371],[75.0154,12.4444],[74.9979,12.4456],[74.983,12.475],[74.8249,12.8316],[74.776,13.0949],[74.7699,13.0782],[74.6921,13.3488],[74.6657,13.6381],[74.6428,13.6709],[74.6058,13.8523],[74.6169,13.8576],[74.565,13.9466],[74.5278,13.9626],[74.505,14.0011],[74.464,14.1872],[74.4092,14.308],[74.3953,14.4186],[74.3765,14.4165],[74.3538,14.5117],[74.3052,14.5196],[74.2912,14.5931],[74.2635,14.6245],[74.2946,14.6402],[74.2751,14.6467],[74.2756,14.6779],[74.2537,14.7068],[74.2633,14.7094],[74.2647,14.7201],[74.2582,14.7122],[74.2215,14.7472],[74.1993,14.7176],[74.1765,14.7446],[74.1477,14.7464],[74.1341,14.7778],[74.1039,14.7843],[74.0911,14.8021],[74.1171,14.8034],[74.1249,14.8405],[74.1079,14.8451],[74.0912,14.8945],[74.0388,14.9156],[74.0487,14.9568],[74.0298,14.9815],[74.0476,14.9848],[73.9857,15.0225],[73.9786,15.0504],[73.95,15.0729],[73.9051,15.0871],[73.9458,15.1408],[73.8821,15.3452],[73.862,15.3694],[73.8357,15.361],[73.8032,15.377],[73.7794,15.4089],[73.8757,15.3984],[73.8899,15.4192],[73.8764,15.4337],[73.8584,15.4258],[73.845,15.4491],[73.7822,15.4597],[73.8153,15.5064],[73.7574,15.4939],[73.731,15.6146],[73.6841,15.7202],[73.6509,15.7384],[73.655,15.7734],[73.6238,15.8436],[73.5838,15.9077],[73.5376,15.9339],[73.5041,15.94],[73.5097,15.9913],[73.4955,15.985],[73.4563,16.0581],[73.4839,16.0698],[73.4595,16.0759],[73.4705,16.113],[73.4608,16.0941],[73.4377,16.1936],[73.4522,16.2253],[73.428,16.2044],[73.4118,16.2564],[73.4119,16.2734],[73.4392,16.2897],[73.4061,16.2808],[73.3862,16.363],[73.3699,16.3641],[73.3717,16.3896],[73.3948,16.3901],[73.4084,16.4088],[73.3688,16.3999],[73.3586,16.4351],[73.3812,16.4487],[73.3485,16.4519],[73.3116,16.5403],[73.3372,16.5601],[73.3585,16.5193],[73.3494,16.5081],[73.3708,16.5129],[73.352,16.5379],[73.356,16.5666],[73.3167,16.5992],[73.3479,16.5967],[73.3593,16.6253],[73.3362,16.6211],[73.3218,16.6378],[73.3276,16.6797],[73.3429,16.6911],[73.3158,16.6968],[73.3005,16.7511],[73.3179,16.8014],[73.2954,16.8117],[73.2847,16.8776],[73.3048,16.8844],[73.276,16.8926],[73.2826,16.9486],[73.3057,16.9717],[73.2683,16.9866],[73.2792,17.0002],[73.2564,17.0211],[73.2575,17.0443],[73.2902,17.0061],[73.2813,17.0365],[73.3264,17.0286],[73.2797,17.0446],[73.2914,17.0704],[73.2688,17.1461],[73.2314,17.1954],[73.2439,17.2159],[73.1893,17.3016],[73.2207,17.3081],[73.2569,17.2599],[73.2657,17.2889],[73.297,17.2812],[73.2909,17.2948],[73.238,17.2903],[73.2066,17.3828],[73.1711,17.4039],[73.1979,17.4394],[73.1845,17.4957],[73.1424,17.5465],[73.1696,17.5888],[73.1475,17.6041],[73.1202,17.6824],[73.135,17.7114],[73.1285,17.7446],[73.0114,18.0213],[73.0225,18.0197],[73.0444,18.04],[73.0247,18.0295],[73.0296,18.0465],[73.016,18.025],[73.0024,18.0497],[72.9764,18.1313],[72.9884,18.1524],[72.9804,18.1945],[72.9495,18.2158],[72.9383,18.2694],[72.9667,18.2715],[72.9764,18.2421],[73.0232,18.2377],[73.063,18.2177],[73.0702,18.1968],[73.0672,18.2708],[73.0525,18.2857],[73.0458,18.2672],[73.0234,18.2662],[72.9142,18.349],[72.9106,18.3676],[72.9275,18.3799],[72.8901,18.458],[72.9047,18.5384],[72.9213,18.5286],[72.9616,18.5423],[72.9202,18.5479],[72.884,18.6304],[72.898,18.631],[72.8664,18.644],[72.8563,18.6884],[72.8701,18.8028],[72.9142,18.7924],[72.9356,18.8241],[72.9886,18.7759],[72.999,18.7794],[72.9859,18.8052],[73.0578,18.8027],[72.9898,18.8116],[72.9821,18.8626],[72.9381,18.847],[72.9069,18.8865],[72.9247,18.9098],[72.942,18.8943],[72.9495,18.9458],[72.9772,18.9461],[72.9539,18.9701],[73.0908,18.9988],[73.0667,19.0143],[73.0847,19.0314],[73.0644,19.0292],[73.0904,19.0457],[73.0061,19.005],[72.9844,19.0708],[72.9952,19.0869],[72.9764,19.1069],[72.9764,19.1707],[72.9642,19.1353],[72.9522,19.1374],[72.9569,19.1077],[72.9307,19.0904],[72.9472,19.068],[72.9137,19.0744],[72.9517,19.0432],[72.9034,18.9938],[72.8784,19.0226],[72.8573,19.0094],[72.8371,18.9334],[72.8032,18.898],[72.8212,18.9319],[72.8128,18.9508],[72.792,18.9442],[72.8126,19.0202],[72.8597,19.0602],[72.8179,19.0482],[72.8248,19.087],[72.808,19.1435],[72.7863,19.1386],[72.7814,19.1669],[72.8011,19.1976],[72.7783,19.1922],[72.787,19.3062],[72.8517,19.316],[72.9155,19.2908],[72.869,19.3343],[72.8509,19.3431],[72.8024,19.3314],[72.7583,19.3757],[72.7663,19.3956],[72.7441,19.4603],[72.7564,19.4738],[72.7169,19.5799],[72.7187,19.5967],[72.7449,19.6026],[72.7289,19.6097],[72.7078,19.6822],[72.7005,19.7289],[72.7146,19.747],[72.701,19.742],[72.6902,19.7581],[72.7061,19.8084],[72.6859,19.8043],[72.6594,19.8391],[72.686,19.8742],[72.6716,19.9365],[72.7035,19.9651],[72.7249,19.9671],[72.76,19.9233],[72.7451,19.9679],[72.7216,19.9802],[72.7068,20.0701],[72.731,20.0951],[72.7448,20.1954],[72.7794,20.207],[72.7456,20.203],[72.749,20.2818],[72.778,20.3364],[72.8183,20.3657],[72.8262,20.4424],[72.8869,20.5046],[72.8771,20.5274],[72.8946,20.5296],[72.8828,20.5439],[72.8927,20.5834],[72.8736,20.6444],[72.9035,20.5969],[72.8864,20.6374],[72.9015,20.6429],[72.8967,20.7022],[72.9087,20.7111],[72.8907,20.7199],[72.9241,20.7558],[72.9519,20.755],[72.9425,20.7755],[72.9178,20.7699],[72.9199,20.7893],[72.91,20.7807],[72.8745,20.8015],[72.896,20.8134],[72.8756,20.8245],[72.8948,20.8665],[72.8618,20.8522],[72.8306,20.8945],[72.8491,20.9044],[72.8239,20.9212],[72.8822,20.9546],[72.8765,20.9718],[72.8913,20.9864],[72.8308,20.9734],[72.8387,20.9855],[72.8052,20.9872],[72.8241,21.0145],[72.7661,21.0042],[72.743,20.9818],[72.7482,20.9651],[72.7229,21.0266],[72.7218,21.0569],[72.7417,21.0289],[72.7856,21.0461],[72.8068,21.0247],[72.857,21.0392],[72.8419,21.0537],[72.8549,21.0677],[72.8326,21.0544],[72.8227,21.0878],[72.8419,21.1137],[72.8215,21.0977],[72.8145,21.1053],[72.8304,21.1146],[72.8143,21.1191],[72.8114,21.1483],[72.8316,21.1672],[72.8059,21.1497],[72.8016,21.1242],[72.7904,21.1447],[72.7878,21.11],[72.7636,21.1227],[72.7569,21.1046],[72.7443,21.1262],[72.719,21.1034],[72.7302,21.0781],[72.7016,21.0949],[72.7059,21.1358],[72.7275,21.1475],[72.6739,21.1582],[72.646,21.0836],[72.6259,21.0892],[72.6178,21.1386],[72.6307,21.1283],[72.6467,21.1489],[72.6293,21.1338],[72.6227,21.1434],[72.6195,21.2089],[72.6817,21.2184],[72.6431,21.2498],[72.6304,21.2406],[72.6501,21.2798],[72.621,21.2928],[72.621,21.3125],[72.6554,21.3191],[72.6684,21.342],[72.7365,21.3238],[72.6962,21.355],[72.7016,21.3724],[72.6746,21.3486],[72.6646,21.3689],[72.6528,21.3494],[72.6459,21.3627],[72.6934,21.4664],[72.6715,21.4468],[72.6379,21.4484],[72.7409,21.5657],[72.8165,21.6136],[72.8406,21.6659],[72.9193,21.6478],[73.0375,21.7005],[73.0901,21.7051],[73.1077,21.7297],[73.064,21.7327],[72.9438,21.6753],[72.8728,21.6882],[72.7776,21.6604],[72.7389,21.6861],[72.6033,21.6764],[72.5563,21.6562],[72.5489,21.6967],[72.5756,21.7047],[72.5659,21.7328],[72.6,21.7159],[72.5857,21.7265],[72.6033,21.7563],[72.5992,21.7954],[72.6458,21.8329],[72.6544,21.8912],[72.675,21.8872],[72.6786,21.912],[72.6878,21.886],[72.7223,21.8841],[72.7187,21.9318],[72.7786,21.9518],[72.746,21.988],[72.7719,22.0014],[72.7754,22.0168],[72.735,21.9912],[72.7203,22.0212],[72.7074,21.9796],[72.6933,21.9852],[72.6999,21.9716],[72.6465,21.9619],[72.6488,21.9881],[72.6368,22.0028],[72.6401,21.9548],[72.6281,21.9705],[72.6332,21.9546],[72.5304,21.9024],[72.5042,21.9431],[72.5471,22.1572],[72.6099,22.2151],[72.6631,22.211],[72.7419,22.1758],[72.7668,22.1936],[72.7581,22.2163],[72.7121,22.2444],[72.6273,22.255],[72.6127,22.2672],[72.6495,22.2643],[72.6288,22.2759],[72.5679,22.2652],[72.6254,22.2802],[72.5931,22.2817],[72.479,22.2205],[72.4931,22.2641],[72.4597,22.2136],[72.4151,22.2149],[72.4247,22.2006],[72.4084,22.1524],[72.381,22.1539],[72.3885,22.1924],[72.3709,22.1814],[72.3689,22.1449],[72.367,22.1858],[72.3907,22.2002],[72.3697,22.1934],[72.3821,22.2262],[72.3704,22.2843],[72.4013,22.3249],[72.3667,22.3217],[72.342,22.2572],[72.3386,22.3066],[72.3287,22.2926],[72.3459,22.2239],[72.3116,22.1866],[72.2953,22.2249],[72.3209,22.1379],[72.242,22.0036],[72.2456,21.9326],[72.1981,21.8217],[72.2811,21.6143],[72.2114,21.4226],[72.112,21.3047],[72.0758,21.3224],[72.1088,21.2927],[72.097,21.2799],[72.0872,21.2893],[72.0985,21.2661],[72.0777,21.2534],[72.1071,21.2038],[72.003,21.1399],[71.8968,21.1146],[71.8756,21.0914],[71.8063,21.0683],[71.7917,21.0504],[71.8047,21.0394],[71.6397,20.994],[71.6229,20.9689],[71.5168,20.9482],[71.4825,20.9164],[71.4787,20.8892],[71.4416,20.8724],[71.3824,20.8714],[71.382,20.8538],[71.2108,20.7971],[70.8293,20.7018],[70.7454,20.7167],[70.6764,20.7539],[70.6808,20.7778],[70.6564,20.7576],[70.6481,20.7725],[70.6113,20.7678],[70.4429,20.8502],[70.4116,20.8754],[70.4257,20.8804],[70.3381,20.9142],[70.0863,21.1186],[69.737,21.4993],[69.5945,21.6333],[69.5993,21.6524],[69.5782,21.6363],[69.4081,21.785],[69.3688,21.8276],[69.387,21.8534],[69.3546,21.8336],[69.2286,21.9439],[69.2007,21.9789],[69.204,21.9977],[69.1897,21.9856],[68.9951,22.1947],[68.9348,22.3057],[68.9545,22.3665],[69.0021,22.4302],[69.0754,22.4584],[69.0443,22.4325],[69.0465,22.4064],[69.0727,22.3914],[69.1912,22.4175],[69.2014,22.3986],[69.1735,22.3637],[69.1622,22.3041],[69.1994,22.2686],[69.2346,22.2602],[69.3081,22.2868],[69.3313,22.326],[69.4151,22.3178],[69.4425,22.3332],[69.4534,22.3156],[69.4962,22.3665],[69.5196,22.3724],[69.5075,22.4188],[69.5205,22.4245],[69.5553,22.3889],[69.5382,22.3779],[69.5909,22.3584],[69.5761,22.3399],[69.5856,22.3334],[69.6023,22.3542],[69.6192,22.3464],[69.6216,22.3651],[69.6442,22.3555],[69.6634,22.3925],[69.6937,22.3961],[69.7228,22.4761],[69.7325,22.4391],[69.7509,22.4301],[69.751,22.4416],[69.7943,22.3997],[69.8214,22.4565],[69.8654,22.4504],[69.9041,22.4706],[69.9283,22.5092],[69.9579,22.4967],[69.9446,22.5225],[69.9672,22.5368],[70.1779,22.5604],[70.2419,22.683],[70.2655,22.6892],[70.2377,22.6953],[70.2559,22.7099],[70.2514,22.7324],[70.2887,22.7381],[70.3559,22.8761],[70.4429,22.9596],[70.4865,23.0526],[70.4856,23.0888],[70.4091,23.0363],[70.4029,23.0606],[70.3616,23.0509],[70.3746,23.0183],[70.3955,23.0107],[70.3519,22.9793],[70.2071,23.0661],[69.9997,22.9002],[69.4604,22.8173],[69.1286,22.9832],[68.6244,23.272],[68.622,23.2903],[68.6509,23.2985],[68.6146,23.2985],[68.6076,23.2809],[68.5528,23.3122],[68.5849,23.3052],[68.5844,23.3197],[68.6165,23.3244],[68.6205,23.347],[68.6142,23.3278],[68.5609,23.3451],[68.5435,23.3283],[68.5064,23.4395],[68.519,23.6846],[68.6186,23.7489],[68.6581,23.7992],[68.6794,23.7916],[68.7823,23.8606],[68.7637,23.8777],[68.7733,23.8611],[68.726,23.8369],[68.6554,23.8397],[68.5235,23.7464],[68.5894,25.0572],[69.1286,26.3431],[69.8338,27.4216],[71.2441,28.2512],[74.3136,29.7859],[75.724,30.657],[76.5121,31.3622],[77.7565,31.3622],[78.752,30.4496],[81.4897,29.1222],[83.3148,28.7074],[85.2644,28.3341],[87.5043,27.5875],[88.7487,27.6704],[90.5324,28.4171],[91.279,28.583],[92.2331,28.5],[93.3115,28.5],[94.39,28.3756],[95.3026,27.7119],[95.427,26.9238],[92.316,24.352],[90.7258,23.7192],[90.7156,23.7414],[90.6911,23.7054],[90.4595,23.6132],[90.4703,23.6298],[90.4427,23.6684],[90.368,23.7186],[90.3837,23.7022],[90.3658,23.7034],[90.3552,23.7288],[90.3421,23.7401],[90.3176,23.735],[90.3128,23.7642],[90.2986,23.7644],[90.2817,23.7366],[90.2548,23.7303],[90.2571,23.7757],[90.2298,23.8877],[90.2396,23.827],[90.194,23.8405],[90.1518,23.8291],[90.1319,23.8674],[90.1117,23.8736],[90.1104,23.8573],[90.0916,23.8514],[90.0572,23.8201],[90.047,23.8255],[90.0625,23.8769],[90.0468,23.8894],[90.0262,23.8817],[90.0227,23.9072],[89.9481,23.9709],[89.9523,23.9846],[89.9328,23.9846],[89.9487,23.9598],[89.9378,23.9554],[90.0192,23.8936],[90.0144,23.8769],[90.0547,23.8732],[90.0409,23.8278],[90.0466,23.8174],[90.0691,23.8163],[90.0887,23.83],[90.1247,23.8071],[90.1837,23.8023],[90.2068,23.8157],[90.2226,23.8004],[90.2415,23.8149],[90.2059,23.7537],[90.221,23.7216],[90.2524,23.721],[90.2746,23.6862],[90.2557,23.7074],[90.2383,23.7112],[90.2208,23.7081],[90.1813,23.7401],[90.1924,23.7203],[90.1626,23.7198],[90.1492,23.7107],[90.1219,23.7371],[90.0698,23.7579],[90.0232,23.7635],[90.0245,23.7952],[90.0021,23.816],[90.0195,23.7627],[90.1205,23.7334],[90.1497,23.7043],[90.1739,23.7165],[90.2205,23.7031],[90.2477,23.7076],[90.276,23.6548],[90.29,23.6596],[90.3997,23.599],[90.1942,23.5076],[90.1494,23.5403],[90.1103,23.6129],[89.97,23.6581],[89.9179,23.7216],[89.8058,23.7917],[89.7878,23.8166],[89.7742,23.8995],[89.7688,23.8876],[89.7046,23.9579],[89.7275,23.9776],[89.7208,24.0],[89.7153,23.9718],[89.6983,23.9645],[89.7051,23.9991],[89.6707,24.0],[89.6557,23.9361],[89.7033,23.8749],[89.7513,23.8659],[89.7708,23.8359],[89.7571,23.8473],[89.7242,23.8344],[89.6802,23.8626],[89.7179,23.8319],[89.6297,23.8456],[89.5468,23.8241],[89.4497,23.8706],[89.4256,23.9133],[89.3865,23.9431],[89.3288,23.9487],[89.2808,23.9875],[89.3161,23.9479],[89.2889,23.9467],[89.2414,23.9813],[89.1733,24.0],[89.0914,23.9991],[89.0608,23.9839]]],[[[83.4662,17.9166],[83.4535,17.9115],[83.4556,17.9161],[83.4662,17.9166]]],[[[90.4074,23.5924],[90.4039,23.6053],[90.4199,23.5975],[90.4074,23.5924]]],[[[90.4258,23.5998],[90.431,23.6061],[90.4354,23.6036],[90.4258,23.5998]]],[[[90.1143,23.5944],[90.0967,23.6051],[90.0878,23.6174],[90.1101,23.6069],[90.1143,23.5944]]],[[[90.405,23.6106],[90.3909,23.6159],[90.4177,23.611],[90.405,23.6106]]],[[[90.3979,23.6982],[90.4643,23.628],[90.4239,23.6183],[90.4349,23.637],[90.429,23.6419],[90.415,23.624],[90.3878,23.6461],[90.3978,23.6253],[90.3645,23.63],[90.288,23.6726],[90.2617,23.7243],[90.2876,23.7327],[90.3085,23.7608],[90.313,23.7323],[90.3713,23.6956],[90.3979,23.6982]]],[[[89.8982,23.705],[89.9318,23.6995],[89.932,23.6851],[89.8982,23.705]]],[[[89.8759,23.7073],[89.8656,23.7068],[89.8625,23.712],[89.8759,23.7073]]],[[[90.7146,23.7266],[90.7034,23.7103],[90.7023,23.7119],[90.7146,23.7266]]],[[[89.8652,23.7226],[89.8686,23.7271],[89.8746,23.7189],[89.8652,23.7226]]],[[[90.3413,23.7334],[90.3547,23.715],[90.3291,23.7271],[90.3413,23.7334]]],[[[89.8623,23.7229],[89.8515,23.7281],[89.8513,23.7308],[89.8623,23.7229]]],[[[89.786,23.7414],[89.7904,23.7596],[89.8001,23.7323],[89.786,23.7414]]],[[[90.2409,23.791],[90.2522,23.7467],[90.2259,23.725],[90.2118,23.7551],[90.2409,23.791]]],[[[89.7791,23.7421],[89.746,23.8048],[89.7758,23.7887],[89.7791,23.7421]]],[[[89.693,23.8042],[89.718,23.8016],[89.7424,23.7792],[89.6852,23.7896],[89.693,23.8042]]],[[[89.6657,23.7865],[89.6412,23.7843],[89.6341,23.7937],[89.6716,23.8044],[89.6657,23.7865]]],[[[89.5155,23.7856],[89.4901,23.8208],[89.5325,23.8154],[89.5155,23.7856]]],[[[89.5506,23.7994],[89.595,23.8151],[89.62,23.8056],[89.5659,23.796],[89.5506,23.7994]]],[[[90.2324,23.8245],[90.2236,23.8068],[90.2054,23.8221],[90.1823,23.8071],[90.0872,23.8364],[90.1157,23.8541],[90.1171,23.8704],[90.1436,23.827],[90.176,23.8211],[90.2026,23.8355],[90.2324,23.8245]]],[[[89.3448,23.8902],[89.328,23.8813],[89.3139,23.8911],[89.3448,23.8902]]],[[[89.6883,23.9217],[89.7056,23.9242],[89.7347,23.8824],[89.7008,23.8954],[89.6883,23.9217]]],[[[89.3791,23.9063],[89.3822,23.9226],[89.4109,23.9196],[89.393,23.9167],[89.3791,23.9063]]],[[[89.3125,23.902],[89.2906,23.9388],[89.3753,23.9363],[89.3556,23.8929],[89.3125,23.902]]],[[[89.6611,23.9383],[89.6726,23.9407],[89.6775,23.9107],[89.6611,23.9383]]],[[[89.2328,23.9465],[89.2241,23.9316],[89.1825,23.9548],[89.2314,23.9586],[89.2505,23.9331],[89.2328,23.9465]]],[[[89.1485,23.9986],[89.1773,23.9953],[89.1391,23.9934],[89.1485,23.9986]]]]}}