{"type":"Feature","properties":{"speciesId":428,"category":"NT","source":"IUCN Red List","simplifyTol":0.01,"clippedToSubcontinent":true},"geometry":{"type":"Polygon","coordinates":[[[67.7768,32.7693],[68.8813,33.9791],[69.0908,34.3514],[69.0527,34.5787],[69.0658,34.8413],[69.329,35.1253],[69.6735,35.0181],[70.5739,35.0086],[71.3867,35.3631],[71.7367,35.7759],[72.3645,35.2541],[72.6574,35.2747],[74.0935,35.2945],[75.5871,34.8295],[76.2779,34.1948],[76.1367,33.8654],[75.4046,32.8892],[73.2083,31.7911],[72.4762,30.815],[71.7449,30.0837],[69.5007,29.7004],[69.0384,29.6882],[65.5939,29.3576],[65.0713,29.2033],[64.8787,29.169],[64.6679,29.1847],[64.273,29.2964],[64.109,29.3258],[63.8835,29.3349],[63.1907,29.3135],[62.8887,29.3507],[62.5697,29.4138],[62.1412,29.5363],[61.7417,29.6958],[61.2375,29.9592],[60.9253,30.1781],[60.7444,30.3668],[60.5814,30.6192],[60.3798,31.0495],[60.2546,31.4048],[60.1598,31.766],[60.0883,32.1201],[60.0401,32.476],[60.0151,32.8304],[60.0157,33.2956],[60.0,33.3375],[60.0,38.0],[66.5909,38.0],[66.6465,37.976],[66.5184,37.6051],[66.8267,37.7774],[66.9798,38.0],[69.8701,38.0],[69.8534,37.8916],[69.684,37.5836],[69.8577,37.3376],[70.3643,36.9166],[69.5783,36.4934],[69.2333,36.1246],[68.9765,35.6892],[68.6436,35.605],[68.1953,35.3605],[68.2222,35.7594],[67.8681,36.0463],[66.9419,35.8661],[66.5044,35.8061],[66.0932,36.0001],[65.7416,36.0123],[65.5283,35.9678],[65.3715,35.7484],[65.2647,35.6428],[64.8502,35.668],[64.4272,35.5731],[64.4185,35.5817],[64.255,35.4364],[64.4585,35.2846],[64.6432,35.4039],[64.7497,35.27],[64.658,35.1358],[64.0047,35.0469],[63.493,34.5872],[63.7969,34.4911],[63.6903,34.3436],[63.4133,34.3886],[63.2473,33.9516],[62.728,34.2803],[62.7247,33.6817],[63.3205,33.4922],[63.6664,33.5033],[63.8742,33.275],[63.9617,33.2736],[63.3597,33.045],[63.7278,32.9292],[63.8864,32.4875],[64.2397,32.6228],[64.8699,32.953],[64.9211,33.2455],[65.1517,32.7631],[65.46,33.5455],[65.6375,33.7364],[65.7333,33.3983],[65.9972,33.1844],[66.2262,33.0719],[66.2247,32.7575],[66.2817,32.4728],[66.5738,32.4447],[66.5787,32.5432],[66.6739,32.6669],[66.9024,32.7573],[67.1546,32.9096],[67.0397,32.58],[67.155,32.2867],[67.3636,32.6658],[67.7768,32.7693]]]}}