{"type":"Feature","properties":{"speciesId":429,"category":"EN","source":"IUCN Red List","simplifyTol":0.01,"clippedToSubcontinent":true},"geometry":{"type":"MultiPolygon","coordinates":[[[[92.8856,12.9221],[92.88,12.9174],[92.8722,12.9218],[92.8856,12.9221]]],[[[92.92,12.9095],[92.9119,12.8845],[92.9347,12.8837],[92.9609,12.8074],[92.9439,12.7715],[92.9701,12.7532],[92.9867,12.7118],[92.972,12.7042],[92.963,12.6164],[92.9835,12.5448],[92.9782,12.4943],[92.9701,12.4848],[92.9547,12.4977],[92.9416,12.4653],[92.9618,12.4753],[92.9644,12.4644],[92.9267,12.4451],[92.9333,12.4226],[92.8901,12.3769],[92.8818,12.3519],[92.8989,12.3484],[92.8886,12.3331],[92.9007,12.3174],[92.8681,12.3119],[92.8931,12.2807],[92.8963,12.2556],[92.8666,12.2446],[92.8891,12.1885],[92.8597,12.2014],[92.8575,12.1639],[92.8281,12.1586],[92.8124,12.1299],[92.8178,12.1007],[92.8049,12.1042],[92.8001,12.0811],[92.77,12.0633],[92.7686,12.0479],[92.793,12.0402],[92.7888,12.0238],[92.7489,12.035],[92.7412,12.0183],[92.7649,11.997],[92.7344,11.9874],[92.7453,11.964],[92.7282,11.9525],[92.7249,11.9246],[92.7887,11.9361],[92.7999,11.8769],[92.7675,11.7139],[92.6412,11.696],[92.5639,11.7262],[92.5571,11.8291],[92.5342,11.8264],[92.526,11.8449],[92.5374,11.89],[92.5741,11.9336],[92.6025,11.8786],[92.6244,11.9202],[92.6201,12.0029],[92.6383,12.0382],[92.6309,12.0922],[92.6529,12.1793],[92.6696,12.2162],[92.662,12.1797],[92.6836,12.2184],[92.6872,12.1956],[92.7243,12.307],[92.7085,12.3296],[92.7149,12.4894],[92.7026,12.5079],[92.7174,12.5638],[92.6939,12.5977],[92.7153,12.6075],[92.7252,12.6362],[92.7287,12.6197],[92.7426,12.6302],[92.756,12.6641],[92.7364,12.6838],[92.7549,12.7161],[92.7273,12.8158],[92.7383,12.8341],[92.7466,12.8117],[92.7693,12.859],[92.7846,12.8392],[92.7786,12.8607],[92.7997,12.8622],[92.816,12.8983],[92.8089,12.9069],[92.834,12.9211],[92.8614,12.9216],[92.8818,12.8933],[92.9044,12.8971],[92.9053,12.9217],[92.92,12.9095]]],[[[92.8069,12.8977],[92.7924,12.8966],[92.8052,12.9048],[92.8069,12.8977]]],[[[92.7278,12.842],[92.7189,12.8354],[92.7327,12.8557],[92.7278,12.842]]],[[[92.7319,12.7436],[92.7257,12.7518],[92.7185,12.7176],[92.7034,12.7966],[92.7203,12.8309],[92.722,12.7793],[92.7319,12.7436]]],[[[92.7323,12.7769],[92.7289,12.7694],[92.7277,12.7849],[92.7323,12.7769]]],[[[92.6927,12.526],[92.6917,12.5345],[92.6943,12.5319],[92.6927,12.526]]],[[[92.9053,12.2502],[92.9184,12.2219],[92.8974,12.2276],[92.8875,12.2058],[92.8811,12.2404],[92.8957,12.2347],[92.9053,12.2502]]],[[[92.8771,12.2441],[92.8699,12.2417],[92.8752,12.2468],[92.8771,12.2441]]],[[[92.7799,11.991],[92.7686,11.9989],[92.7732,12.0045],[92.7786,12.0034],[92.7799,11.991]]],[[[92.7656,11.9855],[92.7473,11.9726],[92.7453,11.9802],[92.7656,11.9855]]],[[[92.6142,11.9227],[92.6001,11.9685],[92.6022,11.9718],[92.6155,11.9568],[92.6142,11.9227]]],[[[92.7595,11.9398],[92.7483,11.953],[92.7713,11.9617],[92.7741,11.949],[92.7595,11.9398]]],[[[92.7387,11.9356],[92.7362,11.9478],[92.7436,11.9543],[92.7387,11.9356]]],[[[92.6142,11.908],[92.6079,11.9095],[92.615,11.9156],[92.6142,11.908]]]]}}