{"type":"Feature","properties":{"speciesId":43,"category":"LC","source":"IUCN Red List","simplifyTol":0.01,"clippedToSubcontinent":true},"geometry":{"type":"Polygon","coordinates":[[[89.4635,26.9588],[88.6899,26.7882],[88.0073,26.7768],[87.5636,26.9474],[86.7445,27.2091],[86.0506,27.2546],[85.5728,27.3456],[85.1177,27.6186],[84.6854,27.9144],[84.219,28.1875],[83.6388,28.4605],[81.2839,28.8132],[80.442,28.9155],[79.7822,28.961],[79.02,29.2113],[78.6787,29.4389],[78.235,29.8029],[77.4387,30.1897],[77.0519,30.531],[76.9495,30.7016],[76.8699,30.9519],[76.9381,31.1339],[77.086,31.1908],[77.4614,31.1681],[78.6332,30.3717],[79.0883,30.1442],[80.0439,29.8598],[80.6127,29.6664],[82.1712,29.4957],[82.3874,29.4047],[84.1735,29.0862],[84.6399,28.8359],[85.2087,28.4605],[86.0506,28.1192],[86.6421,28.0168],[87.2792,27.7893],[88.3941,27.5618],[89.0767,27.5276],[89.873,27.5276],[90.3167,27.5731],[90.5215,27.5276],[90.6125,27.4594],[90.6011,27.3911],[90.5556,27.3115],[90.4873,27.2546],[89.4635,26.9588]]]}}