{"type":"Feature","properties":{"speciesId":432,"category":"CR","source":"IUCN Red List","simplifyTol":0.01,"clippedToSubcontinent":true},"geometry":{"type":"MultiPolygon","coordinates":[[[[81.0236,15.7542],[81.0162,15.761],[81.033,15.765],[81.0236,15.7542]]],[[[80.9426,15.7161],[80.8187,15.7131],[80.7798,15.777],[80.7862,15.7964],[80.8114,15.7411],[80.7701,15.8615],[80.6601,15.8788],[80.5375,15.85],[80.4395,15.8078],[80.3256,15.7324],[80.2616,15.6467],[80.232,15.6589],[80.2159,15.641],[80.1,15.6792],[80.1078,15.7022],[80.033,15.7816],[80.0458,15.8187],[80.0379,15.8566],[80.0625,15.8917],[80.0441,15.908],[79.973,15.8423],[79.9551,15.841],[79.95,15.8708],[79.9449,15.8506],[79.9187,15.8463],[79.8311,15.8589],[79.7375,15.9],[79.6928,15.8745],[79.6744,15.9174],[79.7,15.975],[79.6824,15.9952],[79.6311,15.9869],[79.5625,15.95],[79.5708,16.0083],[79.4676,16.0215],[79.4292,16.0417],[79.4243,16.0741],[79.384,16.0574],[79.372,16.0288],[79.3576,16.0659],[79.3042,16.0875],[79.1601,16.1087],[79.1316,16.1254],[79.075,16.0875],[79.0574,16.0423],[78.9608,16.0295],[78.9093,15.9949],[78.9159,15.9756],[78.88,15.9575],[78.8493,15.9052],[78.8076,15.9214],[78.7625,15.9083],[78.7135,15.8661],[78.6451,15.8589],[78.5866,15.8132],[78.5316,15.8295],[78.4726,15.8205],[78.4167,15.775],[78.3191,15.7462],[78.1708,15.7458],[78.1702,15.7302],[78.1382,15.7199],[78.116,15.6843],[78.0708,15.6667],[78.0536,15.6424],[78.0662,15.5354],[78.0286,15.5092],[78.0547,15.4841],[78.05,15.4667],[78.0208,15.4583],[78.0121,15.4267],[77.9493,15.3717],[77.885,15.3543],[77.8458,15.2625],[77.7842,15.241],[77.7655,15.208],[77.7375,15.2208],[77.7339,15.2635],[77.6967,15.3049],[77.6917,15.3375],[77.6608,15.3538],[77.6275,15.3455],[77.5875,15.3833],[77.5382,15.3449],[77.5327,15.3094],[77.5032,15.3172],[77.4619,15.2801],[77.4,15.2583],[77.375,15.2292],[77.3661,15.1549],[77.3795,15.0975],[77.4042,15.0729],[77.3575,14.9925],[77.3125,14.9792],[77.3083,14.9458],[77.2467,14.8911],[77.2333,14.8542],[77.2417,14.8125],[77.2167,14.7625],[77.2333,14.725],[77.2202,14.6353],[77.15,14.5917],[77.1176,14.5369],[77.0917,14.5375],[77.0792,14.5542],[77.015,14.5371],[76.9417,14.6083],[76.9157,14.5506],[76.88,14.5342],[76.8714,14.5821],[76.8343,14.6046],[76.8167,14.6708],[76.7625,14.6792],[76.7587,14.7316],[76.7795,14.7517],[76.7535,14.8241],[76.7176,14.8379],[76.7042,14.8792],[76.8542,14.8417],[76.7686,14.8881],[76.7379,14.9267],[76.7333,14.9583],[76.7075,14.9494],[76.65,15.0042],[76.5549,15.0048],[76.5372,15.0256],[76.4733,15.0212],[76.4375,14.9833],[76.3667,14.9875],[76.3167,14.9708],[76.2792,14.9],[76.1833,14.9583],[76.167,14.9441],[76.2061,14.9006],[76.3083,14.8375],[76.2733,14.8288],[76.2396,14.8417],[76.2115,14.7994],[76.1595,14.8294],[76.1994,14.727],[76.1875,14.7042],[76.134,14.7116],[76.1032,14.6676],[76.0591,14.6451],[76.0542,14.6],[76.0292,14.5792],[76.0506,14.5674],[76.0371,14.5387],[76.0536,14.5189],[76.05,14.4792],[76.0715,14.4134],[76.1161,14.3772],[76.1583,14.3167],[76.1754,14.2559],[76.2211,14.2136],[76.1619,14.1217],[76.0909,14.0994],[76.0576,14.1131],[76.0333,14.0958],[76.0775,14.083],[76.1,14.0458],[76.0658,14.0091],[76.0458,14.0125],[76.0246,13.9725],[76.0292,13.9],[76.1,13.8625],[76.0958,13.8333],[76.0548,13.8115],[76.0452,13.7385],[75.9924,13.6699],[75.9917,13.6417],[75.8851,13.6205],[75.875,13.6021],[75.8958,13.5583],[75.8823,13.5382],[75.848,13.5215],[75.7708,13.5208],[75.7628,13.422],[75.7167,13.3875],[75.7409,13.3744],[75.7991,13.3785],[75.7966,13.3508],[75.875,13.2958],[75.8754,13.2475],[75.9,13.2333],[75.934,13.1592],[76.0145,13.1006],[76.0408,13.0967],[76.0675,13.1368],[76.1458,13.1875],[76.1576,13.1578],[76.1907,13.1714],[76.25,13.15],[76.2917,13.075],[76.3897,13.0869],[76.5042,13.0208],[76.5339,12.9757],[76.5333,12.8917],[76.575,12.8708],[76.575,12.8458],[76.6226,12.7837],[76.6427,12.8046],[76.6783,12.7993],[76.697,12.7338],[76.7408,12.7076],[76.7625,12.6625],[76.7587,12.5601],[76.7842,12.4842],[76.8201,12.4823],[76.8216,12.4674],[76.8771,12.4333],[76.9292,12.45],[76.9858,12.4371],[77.0062,12.45],[77.0866,12.4493],[77.0993,12.4369],[77.1355,12.4411],[77.1549,12.4092],[77.2284,12.4131],[77.2775,12.383],[77.3047,12.3427],[77.2881,12.2551],[77.3083,12.25],[77.3134,12.2215],[77.3292,12.2167],[77.3116,12.1842],[77.2509,12.1702],[77.1744,12.1201],[77.1869,12.0645],[77.1458,11.9792],[77.1458,11.9625],[77.1797,11.9424],[77.1757,11.8801],[77.192,11.8434],[77.1715,11.6967],[77.2042,11.7],[77.2045,11.66],[77.2708,11.5917],[77.2757,11.6116],[77.3034,11.6256],[77.3532,11.6218],[77.3826,11.6631],[77.3884,11.6452],[77.4242,11.6546],[77.4292,11.6208],[77.4875,11.6542],[77.5134,11.7116],[77.5327,11.7218],[77.5256,11.748],[77.55,11.7708],[77.575,11.7208],[77.5983,11.7754],[77.6333,11.7542],[77.7021,11.7785],[77.7409,11.7576],[77.7441,11.7045],[77.7587,11.7566],[77.7977,11.8083],[77.8123,11.8028],[77.8038,11.7684],[77.7371,11.6017],[77.75,11.5687],[77.7333,11.55],[77.7458,11.5375],[77.7744,11.5686],[77.7756,11.6031],[77.8125,11.6292],[77.8121,11.6684],[77.8458,11.7292],[77.8382,11.7574],[77.8814,11.7589],[77.9,11.775],[77.9616,11.7535],[77.9917,11.7083],[77.9869,11.6853],[77.9465,11.6491],[77.95,11.6042],[78.05,11.6167],[78.0453,11.5865],[78.059,11.5717],[78.1375,11.5375],[78.1248,11.5179],[78.1368,11.4885],[78.12,11.4591],[78.0966,11.4532],[78.0792,11.4042],[78.1741,11.3283],[78.1462,11.2691],[78.1625,11.2125],[78.1414,11.1636],[78.1658,11.1619],[78.1811,11.1422],[78.2408,11.1342],[78.3101,11.2246],[78.3409,11.2119],[78.4021,11.2292],[78.475,11.1917],[78.4958,11.2167],[78.5116,11.2091],[78.5326,11.2506],[78.55,11.2417],[78.5542,11.1292],[78.5906,11.1298],[78.6103,11.1536],[78.6533,11.1634],[78.6828,11.1978],[78.6922,11.2424],[78.6625,11.2708],[78.7408,11.3175],[78.741,11.3772],[78.695,11.4201],[78.6542,11.425],[78.658,11.4566],[78.625,11.4833],[78.5637,11.4744],[78.5333,11.5],[78.558,11.5054],[78.6072,11.5628],[78.6408,11.559],[78.6667,11.5833],[78.6795,11.6225],[78.6708,11.7],[78.7116,11.7086],[78.7272,11.6922],[78.7996,11.7184],[78.815,11.7962],[78.865,11.7746],[78.9955,11.7892],[78.9875,11.9],[78.8667,11.9583],[78.9176,11.9578],[78.9478,11.9828],[79.0147,11.9881],[79.0328,12.0103],[79.0283,12.0243],[78.9771,12.0296],[78.9615,12.0494],[78.9083,12.05],[78.9542,12.0958],[78.9743,12.0924],[78.9917,12.1708],[78.9577,12.2495],[78.9667,12.2833],[78.9545,12.3066],[78.9712,12.3608],[79.0672,12.4218],[79.0458,12.5167],[78.9792,12.55],[79.04,12.6045],[79.0625,12.6],[79.0853,12.6203],[79.1875,12.65],[79.2038,12.6642],[79.2089,12.7049],[79.188,12.7479],[79.2077,12.7634],[79.2089,12.7882],[79.1757,12.8135],[79.1833,12.8458],[79.0673,12.8325],[79.0438,12.7963],[79.0004,12.81],[79.0215,12.8824],[79.0867,12.9258],[79.0805,13.059],[79.1201,13.0635],[79.1676,13.1256],[79.2202,13.0967],[79.225,13.1625],[79.2784,13.1839],[79.3,13.1708],[79.3508,13.2324],[79.4314,13.2381],[79.4947,13.2628],[79.5201,13.2453],[79.5701,13.2756],[79.6368,13.2408],[79.6425,13.2175],[79.6926,13.1882],[79.7167,13.1917],[79.7208,13.1458],[79.7899,13.1545],[79.8251,13.178],[79.7923,13.2062],[79.7992,13.2451],[79.7333,13.275],[79.7678,13.313],[79.7917,13.2917],[79.8605,13.2828],[79.8895,13.2631],[80.0032,13.2618],[80.0097,13.2452],[80.0451,13.259],[80.1033,13.2424],[80.1331,13.2715],[80.1669,13.2717],[80.1619,13.2988],[80.1833,13.3208],[80.2833,13.3542],[80.3066,13.4247],[80.3299,13.3955],[80.3184,13.4256],[80.3284,13.4458],[80.3504,13.3267],[80.3005,13.1271],[80.3078,13.0936],[80.2837,13.0524],[80.2629,12.9524],[80.258,12.7809],[80.158,12.4642],[80.0625,12.3417],[79.8879,12.0649],[79.842,11.9566],[79.7952,11.7592],[79.7799,11.7534],[79.7875,11.7333],[79.7465,11.7199],[79.7797,11.6946],[79.7589,11.5645],[79.8292,11.3607],[79.8423,11.3592],[79.8625,11.1417],[79.8493,11.1742],[79.8163,11.184],[79.7657,11.1703],[79.7437,11.1829],[79.6917,11.1417],[79.6633,11.1591],[79.6667,11.1958],[79.6417,11.2042],[79.6042,11.1542],[79.6452,11.1355],[79.6375,11.0833],[79.5983,11.0962],[79.5267,11.0621],[79.515,11.0379],[79.4923,11.0408],[79.4996,10.9892],[79.4816,10.9712],[79.3909,10.9536],[79.3,10.9708],[79.2156,10.9214],[79.1659,10.9172],[79.123,10.8839],[78.7936,10.8244],[78.7744,10.7909],[78.7958,10.7583],[78.7833,10.7187],[78.8,10.6479],[78.7875,10.6083],[78.7782,10.5923],[78.7392,10.5913],[78.6875,10.5417],[78.6661,10.6132],[78.6756,10.6593],[78.6616,10.6785],[78.525,10.6042],[78.4992,10.6868],[78.39,10.6788],[78.3696,10.7129],[78.358,10.6927],[78.2925,10.6741],[78.2616,10.609],[78.2368,10.6036],[78.2042,10.625],[78.1468,10.6077],[78.1208,10.5625],[78.1412,10.5438],[78.1369,10.5176],[78.1147,10.4922],[77.9936,10.4922],[77.9757,10.5047],[77.9149,10.4712],[77.8417,10.475],[77.7417,10.4333],[77.7328,10.4591],[77.75,10.4723],[77.7367,10.5158],[77.6642,10.4962],[77.5937,10.5583],[77.5458,10.5333],[77.5313,10.5088],[77.4733,10.4962],[77.4083,10.4542],[77.3734,10.4958],[77.3583,10.4875],[77.3333,10.5083],[77.2718,10.5131],[77.2417,10.4792],[77.209,10.4699],[77.2042,10.4417],[77.1547,10.5145],[77.1712,10.5767],[77.1483,10.5913],[77.0771,10.5797],[76.9917,10.6042],[76.975,10.5542],[76.9343,10.5633],[76.9274,10.5788],[76.9,10.575],[76.8688,10.5255],[76.836,10.5458],[76.7691,10.5538],[76.6877,10.5363],[76.6507,10.5074],[76.6446,10.4828],[76.6093,10.4869],[76.5638,10.4291],[76.5826,10.4242],[76.6173,10.3384],[76.65,10.3208],[76.6653,10.3167],[76.6875,10.3417],[76.701,10.3216],[76.7573,10.3202],[76.7625,10.3375],[76.8167,10.3458],[76.8542,10.325],[76.8708,10.2792],[76.8867,10.2824],[76.9063,10.2587],[76.9378,10.2658],[76.941,10.2176],[76.8833,10.1625],[76.9075,10.145],[76.9091,10.08],[76.9521,10.0671],[77.0042,10.075],[77.0103,10.0547],[77.0411,10.048],[77.0547,10.0071],[77.0458,9.9932],[77.0667,9.975],[77.0453,9.9491],[77.0621,9.9267],[76.9792,9.9333],[77.0525,9.8955],[77.0658,9.8592],[77.0576,9.8425],[77.0341,9.845],[77.025,9.8208],[76.9441,9.8538],[76.9217,9.845],[76.9158,9.8215],[76.885,9.7996],[76.8955,9.7984],[76.8964,9.7353],[76.9203,9.7105],[76.9125,9.7],[76.7792,9.8083],[76.725,9.8083],[76.7458,9.7333],[76.6955,9.7489],[76.7006,9.7304],[76.6821,9.7161],[76.663,9.7271],[76.6625,9.7693],[76.5855,9.8161],[76.5104,9.8004],[76.4843,9.813],[76.4375,9.7833],[76.441,9.8147],[76.4207,9.8363],[76.3785,9.8392],[76.3578,9.9022],[76.3329,9.908],[76.3098,9.9642],[76.3048,9.9205],[76.2875,9.9466],[76.2724,10.015],[76.2827,10.0127],[76.2907,10.0272],[76.2785,10.0213],[76.2502,10.0478],[76.2434,10.0645],[76.2528,10.0583],[76.2589,10.0762],[76.2285,10.1152],[76.2387,10.0882],[76.2379,10.0719],[76.2101,10.1339],[76.2432,9.9708],[76.2212,9.9767],[76.1163,10.3316],[76.0212,10.5351],[76.0341,10.591],[76.0536,10.598],[75.9926,10.6674],[75.9453,10.7759],[75.9625,10.7937],[75.9417,10.825],[75.9497,10.8616],[75.9628,10.8634],[75.9676,10.8949],[75.9993,10.9134],[76.0,10.9333],[75.9633,10.9424],[75.9669,10.9947],[75.9167,11.0583],[75.97,11.084],[75.976,11.109],[76.0451,11.0842],[76.0301,11.1381],[76.135,11.1038],[76.1437,11.1496],[76.1701,11.1467],[76.225,11.1792],[76.2258,11.166],[76.2741,11.1783],[76.3146,11.1167],[76.4125,11.1542],[76.4292,11.2042],[76.4583,11.2],[76.4715,11.1425],[76.4836,11.1407],[76.4833,11.1083],[76.4494,11.0903],[76.4635,11.066],[76.5774,11.0629],[76.6699,11.1298],[76.6833,11.1583],[76.7316,11.1754],[76.7667,11.1667],[76.7792,11.2167],[76.7625,11.225],[76.8101,11.2663],[76.8833,11.2875],[76.8512,11.3214],[76.9,11.3083],[76.9125,11.3625],[76.9742,11.366],[76.987,11.3494],[77.0083,11.3625],[76.9458,11.45],[76.9214,11.4468],[76.9125,11.4667],[76.8994,11.5093],[76.9369,11.5427],[76.9272,11.5703],[76.85,11.5375],[76.8408,11.591],[76.7667,11.5958],[76.7458,11.6125],[76.6858,11.6045],[76.6316,11.567],[76.5259,11.5408],[76.5208,11.5208],[76.4868,11.5339],[76.4407,11.5161],[76.4125,11.5292],[76.3708,11.4833],[76.3476,11.4837],[76.3368,11.5284],[76.2673,11.5676],[76.2316,11.633],[76.2125,11.6292],[76.2254,11.5809],[76.2147,11.5506],[76.1696,11.5369],[76.1384,11.5507],[76.1465,11.5675],[76.1117,11.62],[76.0331,11.6968],[76.0375,11.7542],[75.9667,11.7542],[75.9616,11.7744],[75.9132,11.8051],[75.938,11.8593],[75.925,11.9208],[75.9661,11.9645],[75.975,12.05],[75.9701,12.07],[75.9424,12.0718],[75.9242,12.1117],[75.8942,12.1291],[75.8258,12.1259],[75.8042,12.1583],[75.8172,12.2257],[75.7923,12.2593],[75.7833,12.3083],[75.8042,12.314],[75.7872,12.3655],[75.8,12.3792],[75.7866,12.4035],[75.7494,12.4216],[75.7954,12.4381],[75.8158,12.4287],[75.8295,12.485],[75.8129,12.5267],[75.8212,12.56],[75.792,12.585],[75.7712,12.6642],[75.7337,12.6976],[75.7375,12.7417],[75.7616,12.7425],[75.7922,12.7925],[75.7581,12.8239],[75.7704,12.8354],[75.7578,12.9564],[75.7066,12.9712],[75.6708,12.9458],[75.6314,12.9703],[75.6131,12.9592],[75.6083,12.9875],[75.5708,12.975],[75.584,13.0242],[75.5509,13.0257],[75.5381,13.0882],[75.5174,13.1008],[75.5215,13.132],[75.4687,13.1423],[75.4284,13.1701],[75.3563,13.187],[75.3384,13.1827],[75.3064,13.1339],[75.2351,13.142],[75.1712,13.2101],[75.1494,13.2855],[75.1187,13.288],[75.0879,13.3392],[75.15,13.3958],[75.1583,13.4583],[75.1094,13.4756],[75.1131,13.4905],[75.084,13.5176],[75.0875,13.5417],[75.05,13.5708],[75.0634,13.5866],[75.1323,13.5923],[75.1547,13.6179],[75.1465,13.6491],[75.1788,13.6858],[75.125,13.7208],[75.1545,13.7303],[75.1333,13.7833],[75.1549,13.809],[75.182,13.791],[75.1952,13.8052],[75.192,13.8483],[75.2367,13.8757],[75.2424,13.9117],[75.2751,13.947],[75.2757,13.9823],[75.3211,14.0174],[75.3161,14.0522],[75.2899,14.0788],[75.2521,14.0833],[75.2125,14.0625],[75.2214,14.1049],[75.2035,14.1491],[75.1478,14.1672],[75.1292,14.1917],[75.1125,14.1875],[75.0958,14.1],[75.0604,14.0958],[75.0272,14.1203],[74.9978,14.1214],[74.9465,14.151],[74.9157,14.2035],[74.8625,14.2042],[74.8381,14.2342],[74.8422,14.2651],[74.825,14.2625],[74.8493,14.2968],[74.8799,14.4076],[74.9167,14.4333],[74.9089,14.528],[74.8917,14.539],[74.8868,14.5866],[74.8375,14.625],[74.8621,14.6392],[74.8851,14.683],[74.9241,14.7009],[74.9375,14.7792],[75.0243,14.7592],[75.0333,14.7917],[75.0744,14.8186],[75.1215,14.9533],[75.141,14.9635],[75.1542,15.0083],[75.1125,15.1083],[75.1458,15.1708],[75.2,15.225],[75.1708,15.2958],[75.1701,15.3533],[75.1075,15.4118],[75.0618,15.4077],[75.0066,15.4455],[74.9841,15.4369],[74.9343,15.4548],[74.9288,15.4941],[74.9053,15.4997],[74.874,15.5494],[74.8451,15.5506],[74.8167,15.5292],[74.7741,15.5658],[74.6872,15.5673],[74.6343,15.5409],[74.6167,15.4792],[74.6078,15.523],[74.548,15.5578],[74.527,15.5578],[74.4774,15.5004],[74.4259,15.5132],[74.3875,15.5417],[74.445,15.6175],[74.4413,15.6324],[74.3483,15.6788],[74.2292,15.675],[74.2284,15.6993],[74.2135,15.7007],[74.2316,15.7504],[74.2604,15.7375],[74.3333,15.7458],[74.3286,15.7674],[74.3589,15.7966],[74.3247,15.8136],[74.325,15.8417],[74.2125,15.8125],[74.1907,15.8493],[74.0887,15.8453],[74.0625,15.8792],[74.0333,15.8792],[74.0298,15.9048],[74.0049,15.9174],[74.0048,15.9896],[74.0422,16.0286],[74.0135,16.0504],[74.0089,16.0967],[73.8798,16.1051],[73.8708,16.1333],[73.9155,16.1286],[73.9667,16.2042],[73.9467,16.2174],[73.946,16.2526],[73.9283,16.2494],[73.8917,16.2792],[73.9125,16.3375],[73.8542,16.3208],[73.8463,16.3438],[73.8662,16.3729],[73.85,16.4083],[73.8833,16.4292],[73.8964,16.4591],[73.8549,16.4926],[73.8506,16.5299],[73.8333,16.5417],[73.8708,16.6057],[73.859,16.6302],[73.8663,16.6816],[73.8337,16.7101],[73.8458,16.7458],[73.824,16.7701],[73.7622,16.7843],[73.7673,16.8009],[73.7417,16.825],[73.7703,16.8478],[73.7583,16.9],[73.8038,16.9142],[73.7744,16.9696],[73.7917,16.9875],[73.8368,16.9883],[73.8417,17.05],[73.8173,17.0717],[73.8292,17.1042],[73.7542,17.1083],[73.7129,17.1559],[73.7214,17.2132],[73.7006,17.2385],[73.6913,17.3483],[73.6667,17.3833],[73.7162,17.4271],[73.7089,17.5064],[73.7408,17.53],[73.75,17.5583],[73.7256,17.577],[73.7158,17.6577],[73.6917,17.6875],[73.6576,17.7116],[73.5941,17.708],[73.5792,17.725],[73.5885,17.7579],[73.6292,17.7917],[73.5922,17.8311],[73.6006,17.851],[73.5869,17.873],[73.5542,17.9021],[73.5792,17.9333],[73.6417,17.9667],[73.6369,17.9868],[73.6583,18.0042],[73.6625,18.0333],[73.6167,18.0583],[73.6167,18.1042],[73.6409,18.1091],[73.6508,18.1327],[73.6772,18.134],[73.6828,18.1522],[73.6657,18.1786],[73.5811,18.1964],[73.5417,18.225],[73.5333,18.2958],[73.4826,18.3089],[73.4554,18.2994],[73.4375,18.3333],[73.4333,18.4208],[73.4125,18.425],[73.4246,18.5191],[73.4104,18.5292],[73.3936,18.5172],[73.3717,18.5341],[73.3784,18.5742],[73.3417,18.5792],[73.3952,18.651],[73.392,18.7024],[73.4172,18.7424],[73.4177,18.8307],[73.4616,18.88],[73.4536,18.9076],[73.4702,18.9217],[73.4714,18.9533],[73.5417,18.95],[73.5337,18.9733],[73.5667,18.9958],[73.5453,19.0424],[73.5583,19.0792],[73.542,19.0892],[73.5542,19.1625],[73.5853,19.1869],[73.6292,19.1875],[73.6642,19.233],[73.6816,19.2337],[73.6955,19.2475],[73.6966,19.2993],[73.7784,19.3297],[73.8036,19.3217],[73.7917,19.3958],[73.7593,19.4008],[73.7,19.4458],[73.7167,19.4792],[73.6994,19.5189],[73.65,19.5417],[73.6417,19.5917],[73.5708,19.625],[73.5464,19.6728],[73.5659,19.7117],[73.5381,19.7353],[73.5464,19.7509],[73.5255,19.7813],[73.5333,19.7958],[73.565,19.792],[73.5917,19.8313],[73.55,19.8729],[73.5792,19.8917],[73.5708,19.9208],[73.5025,19.908],[73.4795,19.9184],[73.4917,20.0458],[73.5551,20.1077],[73.598,20.1089],[73.6202,20.1259],[73.609,20.1573],[73.6493,20.1716],[73.625,20.3417],[73.6715,20.4074],[73.7199,20.4256],[73.7375,20.45],[73.8283,20.4327],[73.9858,20.3621],[74.0116,20.3634],[74.0292,20.3833],[74.1243,20.3703],[74.172,20.3794],[74.1833,20.3625],[74.2483,20.3538],[74.2608,20.3371],[74.2875,20.3417],[74.35,20.2083],[74.4351,20.1879],[74.5066,20.1996],[74.5175,20.1675],[74.5949,20.166],[74.6417,20.1],[74.6941,20.0996],[74.715,20.0746],[74.7417,20.0792],[74.7507,20.0341],[74.7784,20.0201],[74.8,19.925],[74.8292,19.9083],[74.8496,19.8566],[74.8417,19.7167],[74.8711,19.6386],[74.8464,19.6061],[74.8542,19.5875],[74.9316,19.5663],[74.9845,19.4953],[75.0036,19.4939],[75.0077,19.4426],[74.992,19.4142],[75.0167,19.3542],[75.0574,19.3535],[75.0786,19.3189],[75.1246,19.1608],[75.1083,19.1167],[75.1826,19.0784],[75.184,19.0509],[75.2417,19.0042],[75.2708,18.9042],[75.3625,18.8708],[75.3839,18.8238],[75.3757,18.7885],[75.4083,18.7667],[75.4741,18.7575],[75.5545,18.6892],[75.5542,18.6167],[75.5825,18.6201],[75.6134,18.5798],[75.6992,18.5868],[75.7458,18.55],[75.7292,18.5167],[75.8079,18.4824],[75.8311,18.4172],[75.8699,18.4076],[75.9134,18.3706],[75.9417,18.375],[75.9375,18.3521],[75.9744,18.3022],[75.9719,18.2799],[75.9991,18.27],[76.0417,18.2208],[76.0464,18.177],[76.1,18.0667],[76.1896,18.0417],[76.2333,18.0125],[76.275,18.0125],[76.3175,17.9466],[76.3691,17.9538],[76.4476,17.9254],[76.5434,17.9455],[76.6049,17.9286],[76.6792,17.9375],[76.8186,17.8547],[76.8333,17.875],[76.8522,17.8703],[76.9407,17.8203],[76.975,17.8167],[77.047,17.7328],[77.0657,17.7422],[77.1105,17.7286],[77.1799,17.6425],[77.2108,17.633],[77.2649,17.6295],[77.2908,17.6464],[77.3324,17.634],[77.3436,17.6536],[77.3833,17.6625],[77.3917,17.6167],[77.422,17.5994],[77.4534,17.6172],[77.548,17.6089],[77.5771,17.6333],[77.6354,17.6375],[77.6795,17.5767],[77.6851,17.5337],[77.7375,17.55],[77.7618,17.5161],[77.8115,17.5118],[77.8491,17.47],[77.8542,17.425],[77.8767,17.417],[77.9125,17.4167],[77.9392,17.4413],[78.0191,17.4462],[78.066,17.4717],[78.0708,17.4958],[78.1272,17.4839],[78.1478,17.5119],[78.223,17.5339],[78.2333,17.55],[78.274,17.5285],[78.3271,17.4381],[78.345,17.4424],[78.3746,17.4892],[78.38,17.5366],[78.4118,17.5509],[78.4244,17.577],[78.397,17.5872],[78.3881,17.6104],[78.4173,17.6755],[78.4,17.6958],[78.4092,17.7119],[78.5022,17.7036],[78.5458,17.6833],[78.6583,17.7292],[78.7333,17.7125],[78.7717,17.7616],[78.8292,17.7917],[78.8458,17.8333],[78.9375,17.8583],[79.1149,17.8379],[79.1465,17.8866],[79.2042,17.9292],[79.1875,17.9792],[79.2458,18.0042],[79.2792,18.0708],[79.3134,18.0424],[79.3491,18.0425],[79.4603,18.1452],[79.5125,18.1583],[79.5792,18.2083],[79.5375,18.2375],[79.6147,18.2756],[79.6292,18.3125],[79.5826,18.2994],[79.5551,18.3087],[79.5917,18.45],[79.5708,18.45],[79.5792,18.4875],[79.5468,18.5087],[79.5327,18.5421],[79.5503,18.5593],[79.5452,18.5824],[79.4814,18.6078],[79.4292,18.6],[79.367,18.6184],[79.4333,18.675],[79.4175,18.6759],[79.3958,18.7458],[79.3994,18.8071],[79.4292,18.8646],[79.3911,19.0076],[79.4033,19.0297],[79.4409,19.0119],[79.4542,19.0208],[79.4132,19.0592],[79.3783,19.141],[79.3458,19.15],[79.3458,19.1792],[79.3163,19.2142],[79.3333,19.2458],[79.2958,19.3],[79.2775,19.2871],[79.2176,19.2965],[79.2448,19.3339],[79.2833,19.3292],[79.2871,19.3399],[79.2295,19.3809],[79.2589,19.4176],[79.2132,19.4426],[79.1996,19.4824],[79.0958,19.5417],[79.1292,19.5917],[79.0962,19.61],[79.0875,19.6375],[79.0646,19.6213],[79.0042,19.6542],[78.8667,19.6542],[78.8411,19.7446],[78.867,19.7892],[78.8417,19.8458],[78.8213,19.8437],[78.8244,19.7927],[78.8076,19.7717],[78.7508,19.7576],[78.7355,19.734],[78.7381,19.7574],[78.7125,19.7708],[78.6525,19.7754],[78.6,19.7542],[78.588,19.7687],[78.6035,19.8009],[78.5991,19.8366],[78.5583,19.8625],[78.4833,19.8708],[78.4542,19.8958],[78.4533,19.92],[78.4208,19.9292],[78.4083,20.0042],[78.2774,19.9871],[78.2458,20.0083],[78.2708,20.0583],[78.266,20.0908],[78.2492,20.1576],[78.2215,20.177],[78.2337,20.1887],[78.2006,20.2353],[78.2047,20.2552],[78.1574,20.3077],[78.0926,20.3131],[78.075,20.3458],[78.0949,20.3993],[78.0436,20.4214],[77.9965,20.4801],[77.9884,20.5118],[78.0035,20.5176],[78.0088,20.5729],[78.033,20.6108],[77.9756,20.7061],[77.9547,20.7895],[77.9631,20.8551],[77.9326,20.9033],[77.8833,20.9208],[77.8833,20.9333],[77.9316,20.9629],[78.0441,20.9587],[78.1199,21.0462],[78.1125,21.0917],[78.0,21.15],[78.0621,21.2684],[78.0229,21.3067],[78.0482,21.3275],[78.0389,21.3421],[78.0678,21.3472],[78.0514,21.3664],[78.058,21.378],[78.0699,21.3653],[78.0787,21.3771],[78.0672,21.4634],[78.0423,21.4897],[78.0909,21.5133],[78.1167,21.5708],[78.1583,21.5667],[78.2449,21.609],[78.2542,21.6292],[78.3188,21.6329],[78.4024,21.6004],[78.4212,21.6392],[78.3592,21.6715],[78.35,21.6917],[78.3816,21.7045],[78.3934,21.7288],[78.4657,21.716],[78.4994,21.6897],[78.5048,21.6551],[78.5657,21.6161],[78.6033,21.63],[78.6086,21.6614],[78.5631,21.6936],[78.5625,21.725],[78.6167,21.7125],[78.6936,21.6381],[78.775,21.625],[78.7792,21.65],[78.7423,21.6717],[78.7328,21.723],[78.7047,21.752],[78.7083,21.7792],[78.7333,21.7792],[78.784,21.7009],[78.8229,21.7079],[78.8446,21.6911],[78.855,21.7159],[78.8949,21.7382],[78.9,21.7625],[78.9339,21.7405],[78.9333,21.7042],[79.0326,21.7424],[79.0285,21.7922],[79.0417,21.8167],[79.0941,21.8163],[79.1017,21.792],[79.1354,21.7667],[79.165,21.7663],[79.2143,21.7211],[79.2083,21.7517],[79.2419,21.7788],[79.282,21.7767],[79.3125,21.8125],[79.3256,21.8009],[79.3161,21.7728],[79.2796,21.7354],[79.2917,21.7125],[79.3208,21.7083],[79.3688,21.734],[79.4167,21.7958],[79.4575,21.7742],[79.5042,21.675],[79.5625,21.75],[79.5771,21.7213],[79.6746,21.6782],[79.7167,21.6208],[79.7375,21.6333],[79.7583,21.7042],[79.7958,21.7],[79.8253,21.6782],[79.809,21.6342],[79.8573,21.5993],[79.8634,21.5672],[79.8979,21.534],[79.9167,21.5208],[79.9343,21.5381],[79.9582,21.528],[79.9673,21.4687],[79.9958,21.4333],[80.0146,21.4167],[80.0417,21.4292],[80.0833,21.4167],[80.0922,21.3387],[80.0661,21.3137],[80.2022,21.2911],[80.3208,21.2042],[80.3125,21.1333],[80.2958,21.1104],[80.3125,21.0729],[80.3,21.0167],[80.3454,20.999],[80.3663,20.9726],[80.35,20.925],[80.3048,20.9241],[80.2583,20.8917],[80.2701,20.8744],[80.2909,20.8782],[80.2774,20.8504],[80.225,20.85],[80.2212,20.8439],[80.2491,20.8285],[80.28,20.7717],[80.3119,20.7689],[80.2989,20.7414],[80.275,20.7417],[80.275,20.6625],[80.3184,20.617],[80.3958,20.5958],[80.383,20.56],[80.3417,20.5229],[80.3407,20.4872],[80.3215,20.4813],[80.3333,20.4458],[80.3247,20.4095],[80.3375,20.3958],[80.308,20.353],[80.3203,20.2865],[80.362,20.2439],[80.3708,20.1667],[80.3581,20.1428],[80.3794,20.128],[80.4177,20.0049],[80.4544,19.9614],[80.4386,19.9414],[80.3708,19.9625],[80.3712,19.9434],[80.4824,19.8419],[80.5076,19.7702],[80.5574,19.7574],[80.5853,19.7215],[80.6437,19.6881],[80.6794,19.7197],[80.6757,19.705],[80.7159,19.6951],[80.7386,19.6549],[80.7917,19.6458],[80.767,19.5642],[80.8159,19.5036],[80.8949,19.5285],[80.9,19.4792],[80.8754,19.4691],[80.8667,19.4146],[80.8983,19.3996],[80.9179,19.3661],[80.9647,19.3673],[81.0151,19.4],[81.034,19.3635],[81.0625,19.3625],[81.0634,19.3342],[81.125,19.2792],[81.1438,19.3],[81.1816,19.2754],[81.1882,19.2951],[81.2252,19.3048],[81.311,19.2827],[81.3792,19.3292],[81.425,19.2792],[81.4493,19.3009],[81.475,19.4042],[81.4949,19.4077],[81.5135,19.3712],[81.5409,19.3674],[81.5425,19.383],[81.6042,19.4208],[81.6125,19.4458],[81.6771,19.4213],[81.7083,19.475],[81.7575,19.484],[81.7593,19.4965],[81.8034,19.4909],[81.8342,19.4381],[81.8708,19.4333],[81.8842,19.3884],[81.9667,19.3542],[82.0589,19.4659],[82.0539,19.5072],[82.0816,19.517],[82.125,19.5167],[82.2033,19.4493],[82.2208,19.4],[82.2458,19.4125],[82.2833,19.3833],[82.3167,19.4098],[82.3309,19.4455],[82.3851,19.4746],[82.3883,19.4258],[82.4325,19.4134],[82.5083,19.4792],[82.526,19.5285],[82.5458,19.5333],[82.5634,19.505],[82.6,19.4875],[82.6292,19.4125],[82.6913,19.3907],[82.7,19.3208],[82.7134,19.2966],[82.7326,19.2951],[82.6881,19.2283],[82.6875,19.1979],[82.7328,19.148],[82.7454,19.1063],[82.7208,19.0667],[82.7381,19.0301],[82.7363,18.9286],[82.7,18.9417],[82.6797,18.9147],[82.6917,18.8167],[82.6476,18.8205],[82.6158,18.7675],[82.6084,18.7851],[82.6286,18.8073],[82.6008,18.7876],[82.5922,18.7728],[82.6056,18.7775],[82.6067,18.7631],[82.5369,18.6716],[82.5411,18.6468],[82.5083,18.6292],[82.5022,18.6047],[82.4676,18.5993],[82.4382,18.5741],[82.4299,18.5342],[82.4739,18.5547],[82.4792,18.5417],[82.3458,18.4042],[82.3636,18.3539],[82.3776,18.3624],[82.4229,18.3171],[82.4451,18.3256],[82.4917,18.2958],[82.475,18.2583],[82.4174,18.2161],[82.3603,18.2328],[82.2708,18.1833],[82.25,18.15],[82.2708,18.0938],[82.2792,17.9875],[82.2021,17.9458],[82.1833,17.9625],[82.1075,17.9494],[82.0583,18.0083],[82.0286,17.9718],[82.0333,17.9417],[82.0095,17.9461],[81.948,17.8964],[81.8532,17.913],[81.8094,17.887],[81.7667,17.9042],[81.7542,17.8854],[81.7708,17.8292],[81.7208,17.775],[81.7501,17.7571],[81.7474,17.729],[81.8083,17.6792],[81.7583,17.6583],[81.7741,17.6535],[81.7801,17.6048],[81.8283,17.5868],[81.816,17.5339],[81.8541,17.5071],[81.8414,17.4758],[81.8667,17.4625],[81.9244,17.4699],[81.9801,17.3914],[82.009,17.3903],[81.9792,17.275],[82.0316,17.2712],[82.1,17.3083],[82.1553,17.2621],[82.1991,17.2759],[82.2201,17.3074],[82.2256,17.2302],[82.2583,17.2],[82.2542,17.1167],[82.3333,17.0833],[82.3542,17.0917],[82.2962,17.0274],[82.2742,16.9383],[82.2505,16.9271],[82.2719,16.8799],[82.314,16.8535],[82.3498,16.8535],[82.3577,16.9438],[82.3206,16.9909],[82.3399,16.992],[82.3618,16.9646],[82.3451,16.7341],[82.3211,16.7326],[82.2916,16.7035],[82.3199,16.7093],[82.326,16.7298],[82.3537,16.716],[82.3699,16.7297],[82.3256,16.6605],[82.3153,16.5994],[82.2967,16.6086],[82.2931,16.5668],[82.3199,16.5718],[81.9671,16.4035],[81.9509,16.4159],[81.9447,16.3922],[81.8478,16.3703],[81.7218,16.3079],[81.6899,16.3288],[81.5583,16.35],[81.4392,16.3496],[81.3062,16.3036],[81.2173,16.2022],[81.1952,16.1103],[81.1411,16.013],[81.1492,15.9715],[81.0884,15.9283],[81.0009,15.8283],[80.9964,15.8061],[81.0167,15.7723],[81.0008,15.766],[81.0075,15.755],[80.9426,15.7161]],[[80.9292,15.725],[80.925,15.7292],[80.9259,15.7259],[80.9292,15.725]],[[80.9238,15.7337],[80.9203,15.7304],[80.925,15.7292],[80.9238,15.7337]],[[80.9905,15.7754],[80.9869,15.772],[80.9917,15.7708],[80.9905,15.7754]],[[80.9928,15.7663],[80.9964,15.7696],[80.9917,15.7708],[80.9928,15.7663]],[[80.975,15.7833],[80.9708,15.7875],[80.9717,15.7842],[80.975,15.7833]],[[80.9697,15.7921],[80.9661,15.7887],[80.9708,15.7875],[80.9697,15.7921]],[[80.9762,15.7788],[80.9797,15.7821],[80.975,15.7833],[80.9762,15.7788]],[[82.2792,16.5667],[82.2881,16.5697],[82.2804,16.5714],[82.2792,16.5667]],[[82.2746,16.5655],[82.278,16.5619],[82.2792,16.5667],[82.2746,16.5655]],[[80.8333,15.7417],[80.8311,15.7453],[80.8286,15.7429],[80.8333,15.7417]],[[80.8366,15.7509],[80.8342,15.7533],[80.8333,15.75],[80.8366,15.7509]],[[80.7926,15.8506],[80.7967,15.8215],[80.8069,15.8208],[80.8089,15.8343],[80.7926,15.8506]],[[80.783,15.8562],[80.7787,15.8558],[80.7819,15.8542],[80.783,15.8562]],[[73.9194,16.2942],[73.9556,16.3081],[73.9664,16.2939],[74.0027,16.3302],[74.0189,16.3039],[74.0072,16.332],[74.02,16.3496],[74.0045,16.3561],[73.9816,16.3214],[73.9313,16.3172],[73.9194,16.2942]],[[81.7174,16.3449],[81.7244,16.3342],[81.725,16.3458],[81.7174,16.3449]],[[73.8744,16.375],[73.8981,16.3741],[73.9164,16.3992],[73.9618,16.4133],[73.9478,16.4222],[73.9128,16.4017],[73.8999,16.3804],[73.8701,16.383],[73.8704,16.3621],[73.8744,16.375]],[[81.9569,16.4256],[81.9583,16.4333],[81.9542,16.425],[81.9569,16.4256]],[[82.2955,16.6146],[82.2912,16.6141],[82.2944,16.6125],[82.2955,16.6146]],[[82.2913,16.6229],[82.287,16.6225],[82.2903,16.6208],[82.2913,16.6229]],[[82.283,16.6396],[82.2787,16.6391],[82.2819,16.6375],[82.283,16.6396]],[[82.2539,16.7036],[82.2774,16.7075],[82.2458,16.7125],[82.2539,16.7036]],[[73.6902,19.7201],[73.7425,19.7297],[73.7503,19.7462],[73.7339,19.7818],[73.75,19.78],[73.7514,19.8055],[73.7131,19.777],[73.7333,19.765],[73.7367,19.7306],[73.67,19.7458],[73.6889,19.7389],[73.6902,19.7201]],[[73.6436,19.9913],[73.6847,20.0212],[73.6769,20.0542],[73.6204,20.0532],[73.6564,20.0358],[73.6358,20.0006],[73.6436,19.9913]],[[75.9983,10.6764],[76.0063,10.6913],[75.9918,10.7281],[76.0034,10.7369],[75.9703,10.7864],[75.9983,10.6764]],[[76.211,10.1932],[76.1678,10.1795],[76.2119,10.1859],[76.2755,10.1435],[76.2176,10.1898],[76.2397,10.2221],[76.2201,10.2122],[76.1948,10.2612],[76.211,10.1932]],[[80.8333,15.725],[80.8367,15.7175],[80.8381,15.7238],[80.8333,15.725]]],[[[79.0833,12.9375],[79.0717,12.9384],[79.072,12.9462],[79.0833,12.9375]]],[[[80.8213,15.7017],[80.8187,15.7017],[80.8191,15.7054],[80.8213,15.7017]]]]}}