{"type":"Feature","properties":{"speciesId":436,"category":"LC","source":"IUCN Red List","simplifyTol":0.01,"clippedToSubcontinent":true},"geometry":{"type":"MultiPolygon","coordinates":[[[[72.8151,18.7014],[72.8074,18.6944],[72.8072,18.7045],[72.8151,18.7014]]],[[[72.8424,18.7075],[72.8332,18.7041],[72.84,18.7114],[72.8424,18.7075]]],[[[72.8456,18.7691],[72.8349,18.7678],[72.8379,18.7721],[72.8456,18.7691]]],[[[72.8519,18.7925],[72.8435,18.7877],[72.8464,18.7967],[72.8519,18.7925]]],[[[72.7286,19.4696],[72.7383,19.4681],[72.7327,19.4608],[72.7286,19.4696]]],[[[72.856,20.7635],[72.8404,20.7752],[72.8406,20.7799],[72.856,20.7635]]],[[[72.8436,20.7883],[72.8407,20.7969],[72.8444,20.7987],[72.8436,20.7883]]],[[[72.7849,20.9214],[72.8226,20.8256],[72.8415,20.8054],[72.8261,20.8098],[72.7849,20.9214]]],[[[72.8173,20.919],[72.8112,20.9064],[72.807,20.9073],[72.8173,20.919]]],[[[72.7751,20.9933],[72.7723,20.9793],[72.7658,20.9849],[72.7751,20.9933]]],[[[72.8465,21.0385],[72.8357,21.0425],[72.8453,21.0424],[72.8465,21.0385]]],[[[72.6836,21.0665],[72.6852,21.0536],[72.6751,21.0652],[72.6836,21.0665]]],[[[72.6749,21.0808],[72.6506,21.0508],[72.6474,21.0496],[72.6749,21.0808]]],[[[72.6844,21.1426],[72.6983,21.1384],[72.6831,21.1081],[72.6731,21.1247],[72.6844,21.1426]]],[[[72.6278,21.2829],[72.6391,21.2741],[72.6346,21.2663],[72.6202,21.2709],[72.6278,21.2829]]],[[[72.6284,21.3343],[72.6204,21.3316],[72.6267,21.3382],[72.6284,21.3343]]],[[[72.6387,21.6287],[72.807,21.6431],[72.7991,21.6238],[72.6902,21.5999],[72.6692,21.5706],[72.6228,21.5682],[72.6295,21.5877],[72.6119,21.6056],[72.6372,21.6122],[72.6387,21.6287]]],[[[72.5701,21.7394],[72.5716,21.7534],[72.5944,21.7488],[72.5701,21.7394]]],[[[72.5733,21.7649],[72.5815,21.7771],[72.5834,21.775],[72.5733,21.7649]]],[[[72.4321,22.1981],[72.4713,22.2145],[72.4785,22.2097],[72.4323,22.1795],[72.4321,22.1981]]],[[[72.4992,22.2229],[72.5175,22.2305],[72.5105,22.2179],[72.4992,22.2229]]],[[[72.7317,22.2225],[72.6691,22.2351],[72.663,22.2475],[72.7191,22.2376],[72.7317,22.2225]]],[[[70.4469,22.9759],[70.4335,22.9737],[70.4491,22.9798],[70.4469,22.9759]]],[[[70.4295,22.9817],[70.4484,22.994],[70.4415,22.9801],[70.4295,22.9817]]],[[[70.4519,23.0411],[70.4523,23.0287],[70.4474,23.0241],[70.4519,23.0411]]],[[[70.4713,23.061],[70.462,23.0467],[70.4592,23.0503],[70.4713,23.061]]],[[[74.3226,14.0179],[74.3309,14.0178],[74.3283,14.0133],[74.3226,14.0179]]],[[[74.3985,14.3133],[74.3938,14.3089],[74.3921,14.3117],[74.3985,14.3133]]],[[[74.2488,14.7011],[74.2458,14.7002],[74.246,14.702],[74.2488,14.7011]]],[[[74.2345,14.7079],[74.2316,14.7096],[74.2353,14.7098],[74.2345,14.7079]]],[[[74.1435,14.7234],[74.1432,14.7199],[74.1419,14.7216],[74.1435,14.7234]]],[[[74.1516,14.7394],[74.1492,14.7349],[74.1488,14.7389],[74.1516,14.7394]]],[[[74.1152,14.754],[74.1045,14.7529],[74.1052,14.7621],[74.1152,14.754]]],[[[74.0835,14.7921],[74.0817,14.7939],[74.0833,14.7935],[74.0835,14.7921]]],[[[74.0525,14.8187],[74.0529,14.817],[74.0496,14.8142],[74.0525,14.8187]]],[[[74.0912,14.8449],[74.0981,14.8392],[74.0967,14.8375],[74.0912,14.8449]]],[[[74.1,14.8622],[74.0991,14.8645],[74.0999,14.8645],[74.1,14.8622]]],[[[74.0919,14.8759],[74.0891,14.8748],[74.0899,14.8778],[74.0919,14.8759]]],[[[73.774,15.3587],[73.7725,15.3522],[73.7666,15.3553],[73.774,15.3587]]],[[[73.7605,15.3574],[73.7579,15.3541],[73.7569,15.3573],[73.7605,15.3574]]],[[[73.7904,15.3776],[73.7866,15.3716],[73.7865,15.3772],[73.7904,15.3776]]],[[[73.5407,15.925],[73.5379,15.9247],[73.5395,15.9267],[73.5407,15.925]]],[[[73.4872,15.9983],[73.4981,15.9732],[73.4957,15.9712],[73.4863,15.9812],[73.4872,15.9983]]],[[[72.9389,18.9654],[72.9321,18.9527],[72.9234,18.9567],[72.9276,18.967],[72.9389,18.9654]]],[[[73.0566,19.0171],[73.0544,19.0031],[73.0493,19.0066],[73.0566,19.0171]]],[[[72.8387,19.3333],[72.8516,19.3378],[72.8684,19.3295],[72.8387,19.3333]]],[[[72.8807,20.6811],[72.89,20.6884],[72.8883,20.6806],[72.8807,20.6811]]],[[[72.877,20.7253],[72.8695,20.6904],[72.8584,20.7102],[72.8779,20.6457],[72.8474,20.7183],[72.8454,20.7442],[72.855,20.7205],[72.877,20.7253]]],[[[72.8752,20.7521],[72.8613,20.7556],[72.8767,20.754],[72.8752,20.7521]]],[[[72.8711,20.7696],[72.8696,20.7604],[72.8648,20.7678],[72.8711,20.7696]]],[[[72.9361,20.7636],[72.932,20.7705],[72.9412,20.7674],[72.9361,20.7636]]],[[[72.8784,21.6802],[72.8683,21.6724],[72.8578,21.6764],[72.8784,21.6802]]],[[[80.2493,9.8236],[80.3657,9.6603],[80.8117,9.2909],[80.8841,9.1219],[81.0005,8.9388],[80.993,8.918],[81.0102,8.929],[81.013,8.8911],[81.021,8.9048],[81.0589,8.8595],[81.0875,8.8584],[81.1048,8.8126],[81.2267,8.6475],[81.2208,8.6062],[81.2298,8.581],[81.2451,8.5793],[81.2471,8.5458],[81.2257,8.5323],[81.2261,8.5695],[81.1927,8.5665],[81.2119,8.5077],[81.1896,8.5018],[81.1977,8.4615],[81.2624,8.4569],[81.304,8.4326],[81.304,8.4583],[81.2958,8.4465],[81.2809,8.4568],[81.2831,8.5032],[81.3222,8.5224],[81.353,8.4909],[81.3937,8.3567],[81.4078,8.2419],[81.4769,8.0343],[81.5686,7.9227],[81.5874,7.921],[81.5671,7.8981],[81.593,7.83],[81.6268,7.8247],[81.6544,7.7729],[81.6999,7.7536],[81.7713,7.6448],[81.8718,7.3159],[81.8586,7.0907],[81.8813,7.0267],[81.8704,6.9789],[81.8489,6.9896],[81.8578,6.9672],[81.8729,6.9669],[81.8364,6.8853],[81.8518,6.8884],[81.8483,6.8675],[81.8397,6.8542],[81.8211,6.8621],[81.8444,6.8344],[81.8233,6.8088],[81.8249,6.7653],[81.8084,6.7647],[81.8279,6.7586],[81.7759,6.6639],[81.7664,6.592],[81.7324,6.5669],[81.7003,6.482],[81.6518,6.4367],[81.5973,6.4241],[81.6135,6.4056],[81.56,6.3612],[81.522,6.3525],[81.4869,6.3055],[81.3285,6.1945],[81.2222,6.1589],[81.1946,6.1576],[81.197,6.1776],[81.178,6.1441],[81.1336,6.1174],[81.0167,6.1071],[80.8659,6.0408],[80.8255,6.0415],[80.7202,5.9607],[80.6641,5.9575],[80.5868,5.9168],[80.5532,5.9411],[80.4489,5.9431],[80.4522,5.9588],[80.4357,5.969],[80.4179,5.955],[80.3828,5.9595],[80.2442,6.0069],[80.2285,6.0351],[80.2186,6.022],[80.0986,6.1289],[80.0314,6.2656],[80.0252,6.3364],[79.9746,6.464],[79.9866,6.4771],[79.9796,6.5149],[79.8687,6.8057],[79.8431,6.9333],[79.8712,6.9756],[79.869,7.0027],[79.819,7.1934],[79.8592,7.2756],[79.8445,7.2761],[79.8027,7.4826],[79.7977,7.7275],[79.7513,7.9316],[79.7064,8.0445],[79.699,8.1154],[79.7095,8.1343],[79.6984,8.2138],[79.7179,8.2167],[79.7381,8.28],[79.7812,8.3497],[79.7563,8.3071],[79.7511,8.2617],[79.7655,8.2739],[79.7573,8.2571],[79.7766,8.2541],[79.7688,8.2156],[79.7404,8.2008],[79.7492,8.1829],[79.7316,8.0868],[79.7541,8.0582],[79.7426,8.0],[79.8186,7.9719],[79.8082,7.8839],[79.8265,7.9206],[79.834,8.0071],[79.7896,8.0682],[79.8086,8.0611],[79.7948,8.0793],[79.8338,8.1396],[79.8154,8.2037],[79.7946,8.2203],[79.8095,8.2174],[79.7897,8.2301],[79.8101,8.2374],[79.8342,8.2919],[79.8476,8.2742],[79.8584,8.2846],[79.8362,8.3011],[79.8445,8.4289],[79.8632,8.4496],[79.8709,8.5352],[79.9263,8.559],[79.9193,8.5846],[79.9414,8.6155],[79.9558,8.7174],[79.9248,8.7907],[79.9401,8.8068],[79.9184,8.8083],[79.9307,8.8147],[79.919,8.8188],[79.9358,8.8913],[79.9122,8.9299],[80.0403,9.0133],[80.0661,9.0562],[80.0857,9.0999],[80.0761,9.1203],[80.1173,9.2072],[80.1116,9.2768],[80.1278,9.2906],[80.0676,9.3287],[80.0549,9.3914],[80.1466,9.4347],[80.1861,9.4827],[80.1461,9.5361],[80.054,9.5979],[80.0876,9.6249],[80.0176,9.6509],[79.971,9.7077],[79.948,9.6871],[79.9099,9.7587],[79.9772,9.8033],[80.1056,9.8059],[80.2147,9.8314],[80.2493,9.8236]]],[[[78.5892,9.0978],[78.5753,9.0966],[78.5884,9.1038],[78.5892,9.0978]]],[[[79.0938,9.1926],[79.0642,9.1945],[79.0712,9.2024],[79.0938,9.1926]]],[[[74.7213,13.222],[74.7182,13.2214],[74.7188,13.2231],[74.7213,13.222]]],[[[74.7246,13.2251],[74.7261,13.2244],[74.7251,13.2229],[74.7246,13.2251]]],[[[74.7125,13.2347],[74.7113,13.2373],[74.7126,13.2378],[74.7125,13.2347]]],[[[74.6866,13.26],[74.6851,13.2615],[74.6864,13.2627],[74.6866,13.26]]],[[[74.6824,13.2632],[74.6813,13.2659],[74.6826,13.2664],[74.6824,13.2632]]],[[[74.6953,13.2789],[74.6924,13.2757],[74.6928,13.2788],[74.6953,13.2789]]],[[[74.693,13.2828],[74.6929,13.2805],[74.6916,13.281],[74.693,13.2828]]],[[[74.6857,13.3251],[74.6858,13.3272],[74.6867,13.3247],[74.6857,13.3251]]],[[[74.6771,13.3389],[74.6783,13.3402],[74.6796,13.3374],[74.6771,13.3389]]],[[[74.6725,13.3593],[74.6735,13.361],[74.6735,13.3595],[74.6725,13.3593]]],[[[74.6668,13.3763],[74.6665,13.373],[74.6652,13.3757],[74.6668,13.3763]]],[[[74.4769,14.0113],[74.4729,14.011],[74.4764,14.0124],[74.4769,14.0113]]],[[[74.4835,14.0238],[74.4799,14.0248],[74.4835,14.0253],[74.4835,14.0238]]],[[[74.4666,14.084],[74.4634,14.0859],[74.4654,14.0868],[74.4666,14.084]]],[[[74.4786,14.0953],[74.4748,14.0931],[74.4746,14.0957],[74.4786,14.0953]]],[[[74.4703,14.1079],[74.4679,14.1047],[74.4676,14.109],[74.4703,14.1079]]],[[[82.3729,16.934],[82.3572,16.9708],[82.3717,16.953],[82.3799,16.9037],[82.373,16.8802],[82.3729,16.934]]],[[[83.4662,17.9166],[83.4535,17.9115],[83.4556,17.9161],[83.4662,17.9166]]],[[[88.6218,22.1117],[88.6284,22.0922],[88.4401,21.9274],[88.4158,21.9238],[88.4056,21.9516],[88.3903,21.9667],[88.4057,21.9738],[88.4124,21.9947],[88.3873,21.9675],[88.4103,21.9229],[88.1677,21.8865],[88.1748,21.9239],[88.1487,21.9596],[88.1863,21.9934],[88.2351,22.0789],[88.2142,22.1574],[88.1788,22.195],[88.0447,22.2222],[88.0321,22.2018],[88.1438,22.1871],[88.1902,22.1329],[88.1961,22.1048],[88.1618,22.0645],[88.067,22.0155],[87.9826,21.8588],[87.3178,21.7591],[86.7006,21.4224],[86.8128,20.8612],[86.3639,20.3562],[85.5782,19.9073],[85.2387,19.506],[85.1224,19.4198],[85.0869,19.3687],[84.9185,19.2563],[84.8096,19.1478],[84.8041,19.1159],[84.6929,18.9579],[84.6006,18.8682],[84.5635,18.7904],[84.4572,18.6851],[84.4484,18.6543],[84.3818,18.5947],[84.3651,18.5534],[84.1666,18.3787],[84.1375,18.3434],[84.1411,18.3142],[83.9623,18.2157],[83.9344,18.2254],[83.9453,18.21],[83.8113,18.1604],[83.6734,18.085],[83.5755,18.0095],[83.5411,17.9497],[83.4723,17.8985],[83.4679,17.9212],[83.4438,17.934],[83.449,17.9081],[83.4672,17.8865],[83.4135,17.8402],[83.4172,17.8083],[83.3542,17.7525],[83.3507,17.7279],[83.2944,17.6912],[83.3009,17.6774],[83.2456,17.6371],[83.2152,17.5903],[83.0229,17.5088],[82.9939,17.4732],[82.8843,17.4241],[82.8832,17.4381],[82.8655,17.4155],[82.6197,17.2943],[82.4936,17.2121],[82.3045,17.0442],[82.2794,17.0015],[82.2777,16.9443],[82.2529,16.9186],[82.2666,16.8866],[82.2561,16.8663],[82.2721,16.8873],[82.276,16.8548],[82.2921,16.8749],[82.3044,16.8567],[82.3217,16.8651],[82.3205,16.8373],[82.3353,16.8574],[82.3514,16.8543],[82.0429,16.4842],[81.6857,16.3311],[81.4843,16.3581],[81.3307,16.3152],[81.2408,16.2425],[81.1881,16.1455],[81.2125,16.1759],[81.1731,16.043],[81.0227,15.8688],[80.4156,15.9792],[80.3139,15.7248],[80.2494,15.6334],[80.1996,15.4623],[80.0957,15.329],[80.0826,15.2577],[80.091,15.2043],[80.0646,15.1906],[80.0736,15.1742],[80.0457,15.0876],[80.0789,14.903],[80.0789,14.2957],[80.2447,13.7567],[80.2315,13.6859],[80.2407,13.6161],[80.3233,13.4439],[80.3464,13.304],[80.2956,13.1211],[80.3049,13.0927],[80.2609,13.0127],[80.2741,13.0056],[80.2429,12.8158],[80.2476,12.7533],[80.1758,12.5813],[80.1868,12.5753],[80.1569,12.4775],[80.1353,12.4587],[80.1454,12.4454],[80.0463,12.3104],[80.067,12.3502],[80.0576,12.351],[79.8819,12.0511],[79.8342,11.9097],[79.8187,11.9071],[79.8333,11.902],[79.7982,11.7882],[79.7762,11.7694],[79.794,11.7694],[79.7932,11.7502],[79.7589,11.6076],[79.7601,11.5391],[79.7719,11.4914],[79.8135,11.4427],[79.7422,11.3215],[79.8545,10.7598],[79.8685,10.4378],[79.7422,10.3115],[79.3983,10.3201],[79.3494,10.3115],[79.271,10.2303],[79.2771,10.2105],[79.2308,10.1448],[79.2312,10.1046],[78.9005,9.5258],[78.9194,9.4941],[78.9033,9.4879],[78.9114,9.4535],[78.9908,9.3522],[79.0751,9.2923],[79.2096,9.2811],[79.0889,9.2567],[78.9449,9.2668],[78.9115,9.2451],[78.8733,9.2526],[78.6512,9.1917],[78.6449,9.1654],[78.6591,9.1502],[78.5784,9.1263],[78.492,9.1252],[78.4912,9.1361],[78.3671,9.0798],[78.2767,8.9996],[78.2658,9.0126],[78.2681,8.9925],[78.2176,8.9572],[78.1703,8.8671],[78.1539,8.7474],[78.1786,8.7594],[78.1952,8.7499],[78.2012,8.7785],[78.2055,8.7605],[78.1959,8.7407],[78.1629,8.7296],[78.1322,8.6694],[78.133,8.4883],[78.0277,8.3533],[77.8752,8.2592],[77.8041,8.2336],[77.7525,8.1763],[77.6133,8.1436],[77.3292,8.1791],[77.1704,8.232],[76.9771,8.3876],[76.6206,8.8431],[76.5464,8.8985],[76.5204,8.9993],[76.4617,9.1312],[76.497,9.067],[76.4753,9.1197],[76.4848,9.1159],[76.4921,9.1672],[76.4748,9.1621],[76.4709,9.1412],[76.4405,9.2326],[76.4196,9.2432],[76.4551,9.1423],[76.3343,9.4274],[76.2446,9.9545],[76.2184,9.9982],[76.1029,10.3754],[76.0478,10.4918],[76.0639,10.4735],[76.0463,10.5317],[76.0266,10.5323],[75.9113,10.799],[75.9104,10.7838],[75.8326,11.1235],[75.8054,11.1508],[75.7296,11.3316],[75.7333,11.354],[75.6866,11.4353],[75.6174,11.4744],[75.5851,11.5587],[75.597,11.5363],[75.5912,11.562],[75.6041,11.561],[75.5822,11.5708],[75.5294,11.6966],[75.5386,11.7048],[75.4917,11.7339],[75.4716,11.769],[75.451,11.7697],[75.3893,11.8467],[75.3522,11.8601],[75.2491,12.0038],[75.2275,12.0209],[75.2185,12.0078],[75.0296,12.3922],[75.0386,12.4111],[75.0229,12.3997],[75.0063,12.4371],[75.0154,12.4444],[74.9979,12.4456],[74.963,12.5147],[74.8076,12.893],[74.776,13.0949],[74.7699,13.0782],[74.6921,13.3488],[74.6657,13.6381],[74.6428,13.6709],[74.6058,13.8523],[74.6169,13.8576],[74.565,13.9466],[74.5278,13.9626],[74.505,14.0011],[74.464,14.1872],[74.4092,14.308],[74.3953,14.4186],[74.3765,14.4165],[74.3538,14.5117],[74.3052,14.5196],[74.2912,14.5931],[74.2635,14.6245],[74.2946,14.6402],[74.2751,14.6467],[74.2756,14.6779],[74.2537,14.7068],[74.2633,14.7094],[74.2647,14.7201],[74.2582,14.7122],[74.2215,14.7472],[74.1993,14.7176],[74.1765,14.7446],[74.1477,14.7464],[74.1341,14.7778],[74.1039,14.7843],[74.0911,14.8021],[74.1171,14.8034],[74.1249,14.8405],[74.1079,14.8451],[74.0912,14.8945],[74.0388,14.9156],[74.0487,14.9568],[74.0298,14.9815],[74.0476,14.9848],[73.9857,15.0225],[73.9786,15.0504],[73.95,15.0729],[73.9051,15.0871],[73.9458,15.1408],[73.8821,15.3452],[73.862,15.3694],[73.8357,15.361],[73.8032,15.377],[73.7794,15.4089],[73.8757,15.3984],[73.8899,15.4192],[73.8764,15.4337],[73.8584,15.4258],[73.845,15.4491],[73.7822,15.4597],[73.8199,15.4996],[73.7574,15.4939],[73.731,15.6146],[73.6841,15.7202],[73.6509,15.7384],[73.655,15.7734],[73.6238,15.8436],[73.5838,15.9077],[73.4981,15.9512],[73.5097,15.9913],[73.4955,15.985],[73.4563,16.0581],[73.4839,16.0698],[73.4595,16.0759],[73.4705,16.113],[73.4608,16.0941],[73.4377,16.1936],[73.4522,16.2253],[73.428,16.2044],[73.4118,16.2564],[73.4119,16.2734],[73.4392,16.2897],[73.4061,16.2808],[73.3862,16.363],[73.3699,16.3641],[73.3717,16.3896],[73.3948,16.3901],[73.4084,16.4088],[73.3688,16.3999],[73.3586,16.4351],[73.3812,16.4487],[73.3546,16.4454],[73.3161,16.5164],[73.3147,16.5501],[73.3372,16.5601],[73.3585,16.5193],[73.3494,16.5081],[73.3708,16.5129],[73.352,16.5379],[73.356,16.5666],[73.3167,16.5992],[73.3479,16.5967],[73.3593,16.6253],[73.3362,16.6211],[73.3218,16.6378],[73.3276,16.6797],[73.3429,16.6911],[73.3158,16.6968],[73.3005,16.7511],[73.3179,16.8014],[73.2954,16.8117],[73.2847,16.8776],[73.3048,16.8844],[73.276,16.8926],[73.2826,16.9486],[73.3057,16.9717],[73.2683,16.9866],[73.2792,17.0002],[73.2564,17.0211],[73.2575,17.0443],[73.2902,17.0061],[73.2813,17.0365],[73.3264,17.0286],[73.2797,17.0446],[73.2914,17.0704],[73.2688,17.1461],[73.2314,17.1954],[73.2439,17.2159],[73.1893,17.3016],[73.2207,17.3081],[73.2569,17.2599],[73.2657,17.2889],[73.297,17.2812],[73.2909,17.2948],[73.238,17.2903],[73.2066,17.3828],[73.1711,17.4039],[73.1979,17.4394],[73.1862,17.4472],[73.1907,17.4768],[73.1405,17.5564],[73.1696,17.5888],[73.1345,17.6311],[73.1202,17.6824],[73.135,17.7114],[73.1285,17.7446],[73.0616,17.895],[72.9993,18.2422],[73.063,18.2177],[73.0702,18.1968],[73.0672,18.2708],[73.0525,18.2857],[73.0313,18.2636],[72.9918,18.2838],[72.9522,18.5044],[72.9254,18.5312],[72.9616,18.5423],[72.9202,18.5479],[72.884,18.6304],[72.898,18.631],[72.8664,18.644],[72.8563,18.6884],[72.8701,18.8028],[72.9142,18.7924],[72.9356,18.8241],[72.9886,18.7759],[72.999,18.7794],[72.9859,18.8052],[73.0578,18.8027],[72.9898,18.8116],[72.9821,18.8626],[72.9381,18.847],[72.9069,18.8865],[72.9247,18.9098],[72.942,18.8943],[72.9495,18.9458],[72.9772,18.9461],[72.9539,18.9701],[73.0908,18.9988],[73.0667,19.0143],[73.0847,19.0314],[73.0644,19.0292],[73.0904,19.0457],[73.0061,19.005],[72.9844,19.0708],[72.9952,19.0869],[72.9764,19.1069],[72.9764,19.1707],[72.9642,19.1353],[72.9522,19.1374],[72.9569,19.1077],[72.9307,19.0904],[72.9472,19.068],[72.9137,19.0744],[72.9517,19.0432],[72.9034,18.9938],[72.8784,19.0226],[72.8573,19.0094],[72.8371,18.9334],[72.8032,18.898],[72.8212,18.9319],[72.8128,18.9508],[72.792,18.9442],[72.8126,19.0202],[72.8597,19.0602],[72.8179,19.0482],[72.8248,19.087],[72.808,19.1435],[72.7863,19.1386],[72.7814,19.1669],[72.8011,19.1976],[72.7783,19.1922],[72.787,19.3062],[72.8517,19.316],[72.9155,19.2908],[72.869,19.3343],[72.8509,19.3431],[72.8024,19.3314],[72.7583,19.3757],[72.7663,19.3956],[72.7441,19.4603],[72.7564,19.4738],[72.7169,19.5799],[72.7187,19.5967],[72.7449,19.6026],[72.7289,19.6097],[72.7078,19.6822],[72.7005,19.7289],[72.7146,19.747],[72.701,19.742],[72.6902,19.7581],[72.7061,19.8084],[72.6859,19.8043],[72.6594,19.8391],[72.686,19.8742],[72.6716,19.9365],[72.7035,19.9651],[72.7249,19.9671],[72.76,19.9233],[72.7451,19.9679],[72.7216,19.9802],[72.7068,20.0701],[72.731,20.0951],[72.7448,20.1954],[72.7794,20.207],[72.7456,20.203],[72.749,20.2818],[72.778,20.3364],[72.8183,20.3657],[72.8262,20.4424],[72.8869,20.5046],[72.8771,20.5274],[72.8946,20.5296],[72.8828,20.5439],[72.8927,20.5834],[72.8736,20.6444],[72.9035,20.5969],[72.8864,20.6374],[72.9015,20.6429],[72.8967,20.7022],[72.9087,20.7111],[72.8907,20.7199],[72.9241,20.7558],[72.9519,20.755],[72.9425,20.7755],[72.9178,20.7699],[72.9199,20.7893],[72.91,20.7807],[72.8745,20.8015],[72.896,20.8134],[72.8756,20.8245],[72.8948,20.8665],[72.8268,20.8292],[72.8547,20.86],[72.8245,20.8829],[72.8351,20.9065],[72.8491,20.9044],[72.8239,20.9212],[72.8822,20.9546],[72.8765,20.9718],[72.8913,20.9864],[72.8308,20.9734],[72.8387,20.9855],[72.8052,20.9872],[72.827,21.014],[72.7661,21.0042],[72.7425,20.9769],[72.767,20.9279],[72.7473,20.9498],[72.7229,21.0266],[72.7218,21.0569],[72.7417,21.0289],[72.7856,21.0461],[72.8068,21.0247],[72.857,21.0392],[72.8419,21.0537],[72.8549,21.0677],[72.8326,21.0544],[72.8227,21.0878],[72.8419,21.1137],[72.8215,21.0977],[72.8145,21.1053],[72.8304,21.1146],[72.8143,21.1191],[72.8114,21.1483],[72.8316,21.1672],[72.8059,21.1497],[72.8016,21.1242],[72.7904,21.1447],[72.7878,21.11],[72.7636,21.1227],[72.7569,21.1046],[72.7443,21.1262],[72.719,21.1034],[72.7302,21.0781],[72.7016,21.0949],[72.7059,21.1358],[72.7275,21.1475],[72.6739,21.1582],[72.646,21.0836],[72.6259,21.0892],[72.6178,21.1386],[72.6307,21.1283],[72.6467,21.1489],[72.6293,21.1338],[72.6227,21.1434],[72.6195,21.2089],[72.6817,21.2184],[72.6431,21.2498],[72.6304,21.2406],[72.6501,21.2798],[72.621,21.2928],[72.621,21.3125],[72.6554,21.3191],[72.6684,21.342],[72.7365,21.3238],[72.6962,21.355],[72.7016,21.3724],[72.6746,21.3486],[72.6646,21.3689],[72.6528,21.3494],[72.6459,21.3627],[72.6934,21.4664],[72.6715,21.4468],[72.6379,21.4484],[72.7409,21.5657],[72.8165,21.6136],[72.8406,21.6659],[72.9193,21.6478],[73.0375,21.7005],[73.0901,21.7051],[73.1077,21.7297],[73.064,21.7327],[72.9364,21.6744],[72.8728,21.6882],[72.7887,21.6599],[72.7389,21.6861],[72.587,21.6707],[72.5653,21.7313],[72.6,21.7159],[72.5857,21.7265],[72.6033,21.7563],[72.5992,21.7954],[72.6312,21.8088],[72.6544,21.8912],[72.675,21.8872],[72.6682,21.9049],[72.6874,21.9044],[72.6878,21.886],[72.7223,21.8841],[72.7187,21.9318],[72.7511,21.9531],[72.7776,21.9495],[72.7647,21.9815],[72.746,21.988],[72.7719,22.0014],[72.7754,22.0168],[72.735,21.9912],[72.7186,22.0205],[72.718,21.9943],[72.7074,21.9796],[72.6933,21.9852],[72.6999,21.9716],[72.6719,21.9749],[72.6605,21.9605],[72.6465,21.9619],[72.6488,21.9881],[72.6368,22.0028],[72.6401,21.9548],[72.6281,21.9705],[72.6332,21.9546],[72.5304,21.9024],[72.5042,21.9431],[72.5384,22.1322],[72.5709,22.1909],[72.6099,22.2151],[72.6631,22.211],[72.7419,22.1758],[72.7668,22.1936],[72.7581,22.2163],[72.7121,22.2444],[72.6273,22.255],[72.6127,22.2672],[72.6495,22.2643],[72.6288,22.2759],[72.5679,22.2652],[72.6254,22.2802],[72.6054,22.2831],[72.5708,22.2739],[72.5231,22.2332],[72.4958,22.2372],[72.479,22.2205],[72.4931,22.2641],[72.4597,22.2136],[72.4151,22.2149],[72.4247,22.2006],[72.4088,22.1695],[72.3701,22.2777],[72.4013,22.3249],[72.3578,22.3124],[72.3349,22.3763],[72.1666,21.7591],[71.5801,20.9593],[71.5168,20.9482],[71.4887,20.908],[70.8198,20.8051],[70.2586,21.0296],[69.7536,21.5907],[70.3883,22.909],[70.4546,22.9826],[70.4905,23.0666],[70.4856,23.0888],[70.4641,23.0665],[70.4831,23.1059],[71.9982,24.7332],[73.2889,27.5951],[73.0644,29.8397],[71.7738,31.9721],[70.5392,32.5333],[69.9781,33.0383],[70.0903,33.9362],[70.7637,34.7218],[72.1105,34.834],[74.4673,34.329],[77.3292,32.3088],[79.1249,30.9059],[80.4717,30.1764],[82.8286,28.7174],[85.2977,28.1563],[87.879,27.7635],[88.7768,27.4268],[89.1135,24.7893],[88.8891,22.3202],[88.641,22.1032],[88.6445,22.1181],[88.6218,22.1117]]],[[[88.1057,21.8851],[88.0825,21.8738],[88.0898,21.8981],[88.1057,21.8851]]],[[[88.0937,21.9267],[88.1172,21.9101],[88.1289,21.8896],[88.1162,21.8816],[88.0937,21.9267]]],[[[88.1026,21.9253],[88.1212,21.9632],[88.1543,21.928],[88.1422,21.8976],[88.1026,21.9253]]],[[[88.139,22.0198],[88.1245,21.976],[88.0965,21.9751],[88.1053,22.0042],[88.139,22.0198]]]]}}