{"type":"Feature","properties":{"speciesId":437,"category":"VU","source":"IUCN Red List","simplifyTol":0.01,"clippedToSubcontinent":true},"geometry":{"type":"Polygon","coordinates":[[[77.4009,8.6456],[77.5722,8.6456],[77.5975,8.6012],[77.5912,8.5314],[77.5575,8.4929],[77.4802,8.4849],[77.3575,8.5028],[77.2565,8.5483],[77.1788,8.6519],[77.1598,8.7788],[77.1598,9.039],[77.0836,9.223],[76.9313,9.5021],[76.9694,10.0605],[76.8425,10.4285],[76.6522,10.8219],[76.4328,11.3384],[76.4238,11.3929],[76.4555,11.45],[76.538,11.45],[76.6078,11.3612],[76.6776,11.2216],[76.8045,10.8853],[77.0202,10.4221],[77.128,10.2254],[77.1407,9.978],[77.1027,9.6861],[77.1153,9.5656],[77.2169,9.3499],[77.3057,9.2293],[77.3247,9.0961],[77.3247,8.7344],[77.3377,8.6711],[77.4009,8.6456]]]}}