{"type":"Feature","properties":{"speciesId":44,"category":"LC","source":"IUCN Red List","simplifyTol":0.01,"clippedToSubcontinent":true},"geometry":{"type":"MultiPolygon","coordinates":[[[[95.5221,5.5944],[95.5265,5.6109],[95.6132,5.6266],[95.6729,5.5857],[95.8291,5.5321],[95.879,5.5068],[95.8887,5.4537],[95.9291,5.4023],[96.049,5.327],[96.0735,5.2928],[96.1823,5.2636],[96.2587,5.2634],[96.3883,5.2149],[96.465,5.2376],[96.4908,5.2046],[96.5318,5.2027],[96.6139,5.2144],[96.7202,5.2559],[96.8273,5.2776],[96.8552,5.2774],[96.8303,5.2714],[96.8998,5.2516],[96.9753,5.2665],[97.0818,5.2327],[97.1448,5.2004],[97.1432,5.1623],[97.1981,5.1461],[97.4967,5.2537],[97.5137,5.2464],[97.5468,5.2151],[97.5273,5.2057],[97.57,5.1904],[97.5722,5.1386],[97.6018,5.1419],[97.611,5.1139],[97.6525,5.1197],[97.648,5.0751],[97.806,4.9341],[97.9015,4.8871],[97.934,4.808],[97.9619,4.7262],[97.9615,4.668],[97.9946,4.6349],[98.0,4.6047],[97.9604,4.5316],[97.9823,4.5447],[98.0,4.5268],[98.0,4.0],[96.2775,4.0],[96.1485,4.1406],[96.1249,4.128],[96.0536,4.206],[96.0229,4.196],[95.7128,4.5268],[95.6081,4.6162],[95.5654,4.6262],[95.5834,4.6462],[95.5723,4.6567],[95.5387,4.6473],[95.4818,4.7609],[95.4119,4.8179],[95.4252,4.8339],[95.3756,4.9197],[95.3694,4.9459],[95.3817,4.9568],[95.3555,4.9992],[95.3623,5.0193],[95.3045,5.0793],[95.3152,5.0834],[95.3041,5.1067],[95.2825,5.1073],[95.3067,5.1271],[95.3055,5.1652],[95.2367,5.2204],[95.2503,5.2266],[95.2336,5.2472],[95.2385,5.2724],[95.2113,5.2699],[95.2156,5.3179],[95.2336,5.3195],[95.2223,5.3417],[95.2331,5.3582],[95.2389,5.3385],[95.2483,5.3663],[95.2286,5.4272],[95.2409,5.4467],[95.2295,5.4922],[95.191,5.5212],[95.2202,5.5705],[95.2424,5.5512],[95.2806,5.5506],[95.3247,5.5899],[95.3527,5.5887],[95.4314,5.6564],[95.4651,5.6437],[95.4974,5.5988],[95.5221,5.5944]]],[[[97.998,4.6246],[98.0,4.6279],[98.0,4.6171],[97.998,4.6246]]],[[[97.9895,14.462],[97.9896,14.4621],[97.9899,14.4623],[97.9895,14.462]]],[[[98.0,14.4747],[97.9896,14.4699],[98.0,14.4789],[98.0,14.4747]]],[[[97.8182,15.0085],[97.7969,14.9972],[97.8216,15.0145],[97.8182,15.0085]]],[[[95.3195,15.8808],[95.3356,15.8752],[95.3225,15.879],[95.3006,15.8624],[95.2984,15.8623],[95.3195,15.8808]]],[[[95.3764,15.8746],[95.3995,15.8776],[95.3871,15.869],[95.3754,15.8731],[95.369,15.8806],[95.3518,15.88],[95.365,15.8856],[95.3764,15.8746]]],[[[94.8412,15.8942],[94.8397,15.8965],[94.8409,15.8952],[94.8412,15.8942]]],[[[95.3388,15.8977],[95.3404,15.9023],[95.3459,15.8981],[95.3388,15.8977]]],[[[94.8935,15.9136],[94.9031,15.9223],[94.917,15.9286],[94.9085,15.9221],[94.8935,15.9136]]],[[[94.9412,15.9329],[94.9426,15.9336],[94.9421,15.9329],[94.9412,15.9329]]],[[[95.2619,15.9779],[95.2598,15.9769],[95.2637,15.9808],[95.2619,15.9779]]],[[[94.3012,15.997],[94.2799,15.9896],[94.3088,16.0],[94.3012,15.997]]],[[[94.8938,16.0],[94.8861,15.999],[94.8845,16.0],[94.8938,16.0]]],[[[94.3275,16.0083],[94.3435,16.01],[94.3419,16.0086],[94.3275,16.0083]]],[[[94.7095,16.0384],[94.7095,16.0423],[94.7129,16.0459],[94.7095,16.0384]]],[[[94.8471,16.0621],[94.845,16.0629],[94.8472,16.0622],[94.8471,16.0621]]],[[[97.648,16.0442],[97.6628,16.0491],[97.6689,16.0429],[97.6369,16.0423],[97.6202,16.051],[97.6099,16.067],[97.6197,16.0551],[97.648,16.0442]]],[[[95.3212,16.0747],[95.3198,16.079],[95.3256,16.0786],[95.3212,16.0747]]],[[[95.1911,16.1061],[95.1892,16.1071],[95.1924,16.1062],[95.1911,16.1061]]],[[[95.1586,16.1178],[95.1418,16.1198],[95.1617,16.1199],[95.1586,16.1178]]],[[[95.1653,16.1273],[95.1621,16.1289],[95.1655,16.1282],[95.1653,16.1273]]],[[[95.0133,16.1337],[95.0,16.134],[94.9927,16.1352],[95.0133,16.1337]]],[[[94.9838,16.1372],[94.9619,16.1363],[94.9702,16.1389],[94.9838,16.1372]]],[[[94.7054,16.2077],[94.7195,16.2024],[94.7192,16.2013],[94.7054,16.2077]]],[[[94.7008,16.2073],[94.691,16.2084],[94.7054,16.2077],[94.7008,16.2073]]],[[[94.8153,16.2062],[94.8172,16.2077],[94.8285,16.2098],[94.8153,16.2062]]],[[[95.0502,16.2264],[95.0498,16.2269],[95.0501,16.2267],[95.0502,16.2264]]],[[[94.7459,16.2265],[94.7304,16.2246],[94.7468,16.2274],[94.7459,16.2265]]],[[[95.8718,16.2196],[95.8852,16.234],[95.8914,16.2376],[95.8862,16.2306],[95.8718,16.2196]]],[[[95.068,16.245],[95.0538,16.2419],[95.048,16.2413],[95.068,16.245]]],[[[94.7492,16.2409],[94.7414,16.248],[94.7491,16.2419],[94.7492,16.2409]]],[[[94.6636,16.2464],[94.6888,16.2506],[94.7051,16.2467],[94.6636,16.2464]]],[[[94.6791,16.2909],[94.6827,16.2978],[94.6827,16.2901],[94.6791,16.2909]]],[[[94.681,16.3008],[94.6792,16.2987],[94.6812,16.3045],[94.681,16.3008]]],[[[97.844,16.3181],[97.8471,16.3117],[97.8263,16.3211],[97.7889,16.3284],[97.844,16.3181]]],[[[94.6478,16.3282],[94.6393,16.329],[94.6538,16.3344],[94.6478,16.3282]]],[[[97.795,16.3403],[97.7906,16.3403],[97.7971,16.3454],[97.795,16.3403]]],[[[94.7347,16.3531],[94.733,16.3534],[94.7349,16.3536],[94.7347,16.3531]]],[[[96.0779,16.3521],[96.0683,16.3526],[96.0648,16.3563],[96.0779,16.3521]]],[[[94.6685,16.3676],[94.6686,16.3679],[94.6691,16.3685],[94.6685,16.3676]]],[[[96.0188,16.3769],[96.0173,16.3768],[96.0166,16.3775],[96.0188,16.3769]]],[[[96.1149,16.3799],[96.109,16.3796],[96.1372,16.3814],[96.1149,16.3799]]],[[[97.7784,16.3746],[97.796,16.3586],[97.7972,16.3546],[97.7723,16.3745],[97.7365,16.3806],[97.7784,16.3746]]],[[[94.7548,16.3841],[94.7519,16.3828],[94.7496,16.3823],[94.7548,16.3841]]],[[[96.0031,16.3909],[95.9936,16.3961],[95.9936,16.399],[95.9967,16.3988],[96.0031,16.3909]]],[[[94.2578,16.4016],[94.2577,16.4011],[94.2578,16.4016],[94.2578,16.4016]]],[[[94.7419,16.4019],[94.7174,16.3917],[94.7242,16.3986],[94.7419,16.4019]]],[[[95.9836,16.4034],[95.9646,16.4041],[95.9539,16.4032],[95.9586,16.4063],[95.9836,16.4034]]],[[[97.7489,16.4014],[97.745,16.4027],[97.7539,16.4064],[97.7489,16.4014]]],[[[96.1544,16.4046],[96.1626,16.4108],[96.1604,16.4072],[96.1544,16.4046]]],[[[94.7634,16.4083],[94.7778,16.4161],[94.7692,16.4079],[94.7588,16.406],[94.7493,16.417],[94.75,16.4194],[94.7634,16.4083]]],[[[97.7307,16.4203],[97.7539,16.4141],[97.7243,16.4241],[97.7307,16.4203]]],[[[97.7232,16.4502],[97.7068,16.4458],[97.7059,16.4488],[97.7232,16.4502]]],[[[96.1616,16.4492],[96.1488,16.4548],[96.1585,16.453],[96.1871,16.464],[96.1616,16.4492]]],[[[97.6823,16.4655],[97.6994,16.4711],[97.7036,16.4662],[97.6802,16.461],[97.6642,16.4754],[97.6823,16.4655]]],[[[96.1919,16.4825],[96.1863,16.48],[96.1831,16.4835],[96.1919,16.4825]]],[[[97.5999,16.5168],[97.5997,16.5168],[97.5998,16.5168],[97.5999,16.5168]]],[[[97.5587,16.5257],[97.5567,16.5258],[97.5571,16.5261],[97.5587,16.5257]]],[[[97.4996,16.5269],[97.5085,16.5321],[97.5211,16.5336],[97.5211,16.5295],[97.4996,16.5269]]],[[[97.7089,16.5628],[97.7045,16.5644],[97.7158,16.5629],[97.7089,16.5628]]],[[[94.7461,16.5686],[94.7463,16.569],[94.7464,16.569],[94.7461,16.5686]]],[[[94.7468,16.5692],[94.7551,16.5718],[94.7592,16.5722],[94.7468,16.5692]]],[[[94.7792,16.5751],[94.7883,16.5774],[94.7833,16.5751],[94.7792,16.5751]]],[[[96.1791,16.5798],[96.1856,16.5869],[96.198,16.5872],[96.207,16.5984],[96.2344,16.5987],[96.1791,16.5798]]],[[[96.3122,16.6075],[96.2867,16.5918],[96.3017,16.6028],[96.3122,16.6075]]],[[[97.6423,16.6082],[97.6421,16.6084],[97.6422,16.6084],[97.6423,16.6082]]],[[[94.3617,16.6208],[94.3614,16.6197],[94.3612,16.6208],[94.3617,16.6208]]],[[[94.733,16.6213],[94.7157,16.6176],[94.733,16.6251],[94.733,16.6213]]],[[[94.732,16.6357],[94.732,16.6355],[94.7316,16.636],[94.732,16.6357]]],[[[94.6913,16.6391],[94.6853,16.6361],[94.6807,16.6345],[94.6913,16.6391]]],[[[97.4089,16.6374],[97.3928,16.636],[97.3842,16.6432],[97.4108,16.6424],[97.4201,16.6497],[97.4089,16.6374]]],[[[97.3422,16.6529],[97.3668,16.6464],[97.3758,16.6511],[97.3816,16.647],[97.3593,16.6416],[97.3457,16.6467],[97.3422,16.6529]]],[[[94.6684,16.6492],[94.6743,16.6497],[94.6572,16.6568],[94.6684,16.6492]]],[[[97.3351,16.6615],[97.3306,16.6621],[97.3351,16.6615],[97.3351,16.6615]]],[[[97.3426,16.6676],[97.3406,16.6666],[97.3423,16.668],[97.3426,16.6676]]],[[[94.6903,16.6644],[94.6866,16.6666],[94.6936,16.6697],[94.6903,16.6644]]],[[[94.682,16.6762],[94.6788,16.6769],[94.6782,16.6797],[94.682,16.6762]]],[[[94.6934,16.6802],[94.6907,16.6818],[94.6898,16.684],[94.6934,16.6802]]],[[[94.7344,16.689],[94.723,16.6894],[94.7221,16.6885],[94.7228,16.6905],[94.7344,16.689]]],[[[97.3397,16.7016],[97.3415,16.7042],[97.3417,16.7036],[97.3397,16.7016]]],[[[96.7973,16.7482],[96.7935,16.749],[96.7942,16.7504],[96.7973,16.7482]]],[[[96.1679,16.7537],[96.1404,16.7571],[96.1379,16.7585],[96.1445,16.7607],[96.1679,16.7537]]],[[[96.1957,16.7625],[96.1857,16.7669],[96.1848,16.7688],[96.1957,16.7625]]],[[[96.7818,16.7688],[96.7852,16.7741],[96.7887,16.7694],[96.7818,16.7688]]],[[[96.1891,16.778],[96.1848,16.7765],[96.1906,16.7821],[96.1891,16.778]]],[[[96.2089,16.8002],[96.2203,16.8031],[96.2119,16.7954],[96.2039,16.8023],[96.1915,16.7999],[96.2046,16.8056],[96.2089,16.8002]]],[[[96.3287,16.83],[96.3282,16.8301],[96.3317,16.831],[96.3287,16.83]]],[[[96.2981,16.8369],[96.293,16.8342],[96.2901,16.8401],[96.2981,16.8369]]],[[[97.2705,16.841],[97.2546,16.8434],[97.2381,16.853],[97.2705,16.841]]],[[[96.3051,16.86],[96.3016,16.8571],[96.3033,16.8612],[96.3051,16.86]]],[[[97.208,16.8943],[97.2029,16.8921],[97.2083,16.8949],[97.208,16.8943]]],[[[96.8146,16.8919],[96.8118,16.8943],[96.8106,16.8966],[96.8146,16.8919]]],[[[94.4578,16.9348],[94.4515,16.934],[94.4578,16.9349],[94.4578,16.9348]]],[[[94.4607,16.9355],[94.4735,16.9424],[94.4706,16.9378],[94.4607,16.9355]]],[[[96.8479,17.2012],[96.8392,17.1984],[96.8386,17.2028],[96.8479,17.2012]]],[[[96.6584,17.3409],[96.6596,17.3426],[96.6657,17.3451],[96.6584,17.3409]]],[[[96.7453,17.3465],[96.7455,17.3465],[96.7454,17.3465],[96.7453,17.3465]]],[[[96.7735,17.3687],[96.7677,17.3663],[96.7757,17.3736],[96.7735,17.3687]]],[[[96.7412,17.4425],[96.7409,17.4431],[96.762,17.4628],[96.7412,17.4425]]],[[[96.7865,17.4833],[96.7859,17.4823],[96.7701,17.4732],[96.7865,17.4833]]],[[[94.5919,17.5724],[94.5876,17.5713],[94.588,17.5735],[94.5919,17.5724]]],[[[94.118,18.849],[94.1169,18.849],[94.1169,18.849],[94.118,18.849]]],[[[94.0944,18.8513],[94.0892,18.8492],[94.0957,18.8529],[94.0944,18.8513]]],[[[94.0747,18.8536],[94.0737,18.8515],[94.068,18.846],[94.0747,18.8536]]],[[[94.127,18.8491],[94.1237,18.8521],[94.1369,18.8562],[94.127,18.8491]]],[[[94.1083,18.8629],[94.1074,18.8655],[94.1155,18.8697],[94.1083,18.8629]]],[[[94.0678,18.8696],[94.0669,18.8703],[94.0669,18.8703],[94.0678,18.8696]]],[[[94.0864,18.8721],[94.0694,18.8685],[94.0911,18.8811],[94.0864,18.8721]]],[[[94.1568,18.8816],[94.1567,18.8821],[94.1596,18.8821],[94.1568,18.8816]]],[[[94.0521,18.8856],[94.0453,18.8827],[94.0432,18.8834],[94.0521,18.8856]]],[[[94.1191,18.9003],[94.118,18.8995],[94.118,18.9001],[94.1191,18.9003]]],[[[94.0542,19.0382],[94.0522,19.0386],[94.0522,19.0386],[94.0542,19.0382]]],[[[93.6723,19.0702],[93.6675,19.0679],[93.6749,19.0749],[93.6723,19.0702]]],[[[93.6787,19.0764],[93.6788,19.0786],[93.6816,19.0796],[93.6787,19.0764]]],[[[94.0975,19.0984],[94.097,19.0986],[94.0975,19.0984],[94.0975,19.0984]]],[[[94.1087,19.1019],[94.109,19.1051],[94.1119,19.1084],[94.1087,19.1019]]],[[[94.0526,19.113],[94.0541,19.1158],[94.0553,19.1162],[94.0526,19.113]]],[[[94.0687,19.1189],[94.0647,19.1189],[94.0702,19.1204],[94.0687,19.1189]]],[[[93.6654,19.2879],[93.6647,19.2882],[93.6656,19.2889],[93.6654,19.2879]]],[[[93.8432,19.2897],[93.8379,19.2889],[93.8367,19.2933],[93.8432,19.2897]]],[[[93.8279,19.2944],[93.8257,19.2956],[93.8275,19.295],[93.8279,19.2944]]],[[[93.8624,19.2971],[93.8502,19.296],[93.8623,19.2975],[93.8624,19.2971]]],[[[93.8138,19.2993],[93.7845,19.2984],[93.7749,19.2936],[93.7766,19.2976],[93.7957,19.3038],[93.8138,19.2993]]],[[[93.9078,19.3246],[93.9089,19.3255],[93.908,19.3247],[93.9078,19.3246]]],[[[93.6266,19.337],[93.6198,19.3396],[93.6214,19.3411],[93.6266,19.337]]],[[[94.0547,19.3482],[94.0403,19.3418],[94.0545,19.3488],[94.0547,19.3482]]],[[[93.7415,19.3494],[93.7758,19.3406],[93.7704,19.337],[93.7415,19.3494]]],[[[93.8752,19.3582],[93.8744,19.3585],[93.8741,19.359],[93.8752,19.3582]]],[[[93.9497,19.4421],[93.9429,19.4452],[93.9446,19.4453],[93.9497,19.4421]]],[[[93.9081,19.4558],[93.9074,19.4563],[93.907,19.4569],[93.9081,19.4558]]],[[[93.7849,19.5994],[93.7849,19.5994],[93.7851,19.5995],[93.7849,19.5994]]],[[[93.79,19.8378],[93.7889,19.8373],[93.7887,19.839],[93.79,19.8378]]],[[[93.7879,19.8631],[93.787,19.8649],[93.7937,19.8654],[93.7879,19.8631]]],[[[93.7384,19.8778],[93.732,19.883],[93.7357,19.8838],[93.7384,19.8778]]],[[[93.7939,19.8844],[93.7942,19.8857],[93.7961,19.8857],[93.7939,19.8844]]],[[[93.7206,19.8914],[93.7212,19.8894],[93.7199,19.8915],[93.7206,19.8914]]],[[[93.7961,19.8933],[93.7933,19.896],[93.7933,19.8963],[93.7961,19.8933]]],[[[93.6149,19.9016],[93.6141,19.9016],[93.618,19.9035],[93.6149,19.9016]]],[[[93.6058,19.9024],[93.5928,19.9036],[93.5888,19.9002],[93.5936,19.9044],[93.6058,19.9024]]],[[[93.5212,19.9146],[93.5181,19.9154],[93.5231,19.915],[93.5212,19.9146]]],[[[93.576,19.917],[93.5571,19.9148],[93.5812,19.9265],[93.576,19.917]]],[[[93.722,19.9264],[93.7116,19.9258],[93.722,19.9264],[93.722,19.9264]]],[[[93.497,19.9809],[93.4818,19.9839],[93.4798,19.9891],[93.497,19.9809]]],[[[93.4543,19.9927],[93.4542,19.9883],[93.4444,19.9893],[93.4543,19.9927]]],[[[93.4652,20.0383],[93.4605,20.0417],[93.4586,20.0467],[93.4652,20.0383]]],[[[93.1574,20.1802],[93.1264,20.1812],[93.176,20.1878],[93.1574,20.1802]]],[[[92.7983,20.2088],[92.8156,20.2004],[92.8204,20.1954],[92.8032,20.2027],[92.7983,20.2088]]],[[[93.2058,20.2096],[93.1879,20.1969],[93.2067,20.2112],[93.2058,20.2096]]],[[[93.3882,20.2137],[93.3882,20.2137],[93.3882,20.2138],[93.3882,20.2137]]],[[[93.2148,20.2298],[93.2297,20.2403],[93.2488,20.2409],[93.2464,20.2379],[93.2148,20.2298]]],[[[92.9353,20.2443],[92.9273,20.2467],[92.943,20.2504],[92.9353,20.2443]]],[[[93.358,20.2695],[93.3536,20.2721],[93.3577,20.27],[93.358,20.2695]]],[[[93.3346,20.3014],[93.3298,20.303],[93.3292,20.3054],[93.3346,20.3014]]],[[[92.9202,20.3043],[92.9091,20.3043],[92.9075,20.3038],[92.9099,20.3073],[92.9202,20.3043]]],[[[93.244,20.3043],[93.2548,20.3126],[93.2682,20.3152],[93.2557,20.3096],[93.244,20.3043]]],[[[93.2035,20.3161],[93.1935,20.3172],[93.1928,20.3197],[93.2035,20.3161]]],[[[93.1336,20.3204],[93.1282,20.3167],[93.1247,20.3228],[93.1336,20.3204]]],[[[93.1872,20.3216],[93.1717,20.3224],[93.1482,20.3139],[93.1606,20.3224],[93.1755,20.3243],[93.1872,20.3216]]],[[[93.3206,20.3269],[93.3089,20.3192],[93.2965,20.323],[93.3206,20.3269]]],[[[93.2872,20.3485],[93.2902,20.3544],[93.291,20.3514],[93.2872,20.3485]]],[[[93.1458,20.3656],[93.1314,20.3677],[93.1321,20.3693],[93.1458,20.3656]]],[[[93.1049,20.3724],[93.1054,20.3726],[93.106,20.3726],[93.1049,20.3724]]],[[[93.1195,20.371],[93.1066,20.3726],[93.12,20.3744],[93.1195,20.371]]],[[[92.907,20.3734],[92.9165,20.3732],[92.8982,20.3772],[92.907,20.3734]]],[[[93.2227,20.383],[93.2188,20.3836],[93.2227,20.3834],[93.2227,20.383]]],[[[92.9315,20.3863],[92.9366,20.3806],[92.924,20.3848],[92.9315,20.3863]]],[[[93.1632,20.3919],[93.1479,20.3966],[93.1699,20.395],[93.1632,20.3919]]],[[[92.8614,20.395],[92.8461,20.3965],[92.8637,20.3975],[92.8614,20.395]]],[[[92.8827,20.3951],[92.8802,20.3996],[92.885,20.3958],[92.8827,20.3951]]],[[[92.9266,20.4193],[92.9143,20.418],[92.9276,20.421],[92.9266,20.4193]]],[[[92.9167,20.4249],[92.9203,20.4288],[92.9247,20.4265],[92.9167,20.4249]]],[[[92.9282,20.4294],[92.9216,20.4357],[92.9272,20.4326],[92.9282,20.4294]]],[[[93.0258,20.4274],[93.0192,20.4506],[93.0421,20.4555],[93.0324,20.4371],[93.0258,20.4274]]],[[[93.0339,20.4581],[93.0192,20.4581],[93.0387,20.4617],[93.0339,20.4581]]],[[[92.8413,20.4672],[92.8411,20.4663],[92.8328,20.4659],[92.8383,20.4688],[92.8413,20.4672]]],[[[92.7637,20.4684],[92.7605,20.4658],[92.7559,20.4701],[92.7637,20.4684]]],[[[92.7766,20.4846],[92.7843,20.4894],[92.7858,20.4891],[92.7766,20.4846]]],[[[93.0899,20.5061],[93.0898,20.504],[93.0892,20.506],[93.0899,20.5061]]],[[[93.0556,20.5131],[93.0444,20.5033],[93.0554,20.5144],[93.0556,20.5131]]],[[[92.7418,20.5723],[92.7453,20.5744],[92.7462,20.5755],[92.7459,20.5747],[92.7418,20.5723]]],[[[92.7444,20.596],[92.7334,20.5991],[92.7295,20.605],[92.7444,20.596]]],[[[92.6039,20.7153],[92.5865,20.7131],[92.6064,20.7174],[92.6039,20.7153]]],[[[92.6387,20.7207],[92.6176,20.7109],[92.614,20.7115],[92.6123,20.7154],[92.6387,20.7207]]],[[[92.5834,20.7266],[92.5825,20.7294],[92.5864,20.7294],[92.5834,20.7266]]],[[[92.5699,20.7415],[92.5636,20.7433],[92.5707,20.7457],[92.5699,20.7415]]],[[[92.5825,20.7458],[92.5781,20.7495],[92.5806,20.749],[92.5825,20.7458]]],[[[92.5521,20.7564],[92.5546,20.7582],[92.5551,20.7569],[92.5521,20.7564]]],[[[92.5741,20.7822],[92.5709,20.7833],[92.5756,20.7861],[92.5741,20.7822]]],[[[92.5787,20.7922],[92.5801,20.7954],[92.5809,20.794],[92.5787,20.7922]]],[[[92.3703,20.8006],[92.3704,20.801],[92.3729,20.8032],[92.3703,20.8006]]],[[[92.3736,20.8038],[92.3747,20.8048],[92.3761,20.8051],[92.3736,20.8038]]],[[[92.5566,20.8001],[92.5507,20.8048],[92.5496,20.807],[92.5566,20.8001]]],[[[92.34,20.8436],[92.3372,20.8468],[92.3446,20.8491],[92.34,20.8436]]],[[[92.3381,20.9892],[92.3247,20.9897],[92.3173,20.9822],[92.3067,20.982],[92.3272,20.9931],[92.3381,20.9892]]],[[[92.2859,21.0392],[92.2761,21.0368],[92.3057,21.0589],[92.2859,21.0392]]],[[[92.2168,21.1308],[92.2148,21.1313],[92.2125,21.1325],[92.2168,21.1308]]],[[[92.0114,21.491],[92.0109,21.4913],[92.0109,21.4914],[92.0114,21.491]]],[[[92.0105,21.6525],[92.0124,21.6533],[92.0119,21.6526],[92.0105,21.6525]]],[[[92.0287,21.6668],[92.0278,21.6687],[92.03,21.6683],[92.0287,21.6668]]],[[[91.9627,21.7428],[91.9545,21.7464],[91.9538,21.7486],[91.9627,21.7428]]],[[[91.9864,21.7558],[91.9873,21.7586],[91.9908,21.7591],[91.9864,21.7558]]],[[[91.8983,21.7679],[91.8975,21.7712],[91.9202,21.7747],[91.8983,21.7679]]],[[[91.8008,22.2922],[91.8036,22.2975],[91.8083,22.2979],[91.8008,22.2922]]],[[[91.8194,22.3063],[91.8195,22.3091],[91.847,22.3153],[91.8194,22.3063]]],[[[92.0027,22.405],[92.0089,22.4079],[92.0029,22.405],[92.0027,22.405]]],[[[91.9576,22.4125],[91.9257,22.4118],[91.9093,22.4063],[91.9281,22.4147],[91.9576,22.4125]]],[[[92.0435,22.4489],[92.0662,22.4388],[92.0429,22.4444],[92.028,22.4399],[92.0435,22.4489]]],[[[91.4778,22.7559],[91.4585,22.7527],[91.4775,22.7589],[91.4778,22.7559]]],[[[91.4496,22.8009],[91.4419,22.7987],[91.4551,22.8056],[91.4496,22.8009]]],[[[91.4566,22.8979],[91.4566,22.8989],[91.4589,22.8985],[91.4566,22.8979]]],[[[90.6924,22.9683],[90.6896,22.9709],[90.678,22.9816],[90.6803,22.9808],[90.6924,22.9683]]],[[[90.6716,22.9822],[90.6483,22.9832],[90.6485,22.9847],[90.6716,22.9822]]],[[[90.6741,23.3168],[90.6716,23.3134],[90.6656,23.3168],[90.6741,23.3168]]],[[[90.6462,23.3231],[90.6457,23.3219],[90.6445,23.3216],[90.6462,23.3231]]],[[[90.2391,23.4679],[90.2304,23.4763],[90.2377,23.4724],[90.2391,23.4679]]],[[[90.5622,23.4769],[90.555,23.4803],[90.5615,23.4807],[90.5622,23.4769]]],[[[90.1969,23.4987],[90.188,23.5036],[90.19,23.5033],[90.1969,23.4987]]],[[[90.7254,23.546],[90.7254,23.546],[90.7177,23.5427],[90.7204,23.545],[90.7254,23.546]]],[[[90.5531,23.5641],[90.5521,23.5666],[90.5536,23.566],[90.5531,23.5641]]],[[[90.5001,23.5872],[90.4839,23.5793],[90.4791,23.5844],[90.5001,23.5872]]],[[[90.5656,23.587],[90.5706,23.5906],[90.5726,23.5907],[90.5656,23.587]]],[[[90.1101,23.6069],[90.1103,23.6055],[90.0999,23.6123],[90.1101,23.6069]]],[[[90.6085,23.6098],[90.6033,23.6099],[90.6137,23.6153],[90.6085,23.6098]]],[[[90.0918,23.6166],[90.0877,23.615],[90.0878,23.6174],[90.0918,23.6166]]],[[[90.6231,23.6233],[90.6261,23.6259],[90.6266,23.6253],[90.6231,23.6233]]],[[[90.7599,23.6392],[90.7554,23.6429],[90.7599,23.6419],[90.7599,23.6392]]],[[[90.4646,23.6349],[90.447,23.6529],[90.4436,23.6594],[90.4646,23.6349]]],[[[90.4183,23.6844],[90.423,23.677],[90.4141,23.6864],[90.4183,23.6844]]],[[[90.3979,23.6982],[90.3949,23.6977],[90.3853,23.6985],[90.3979,23.6982]]],[[[90.3713,23.6956],[90.3837,23.6948],[90.3621,23.7016],[90.3713,23.6956]]],[[[90.2477,23.7076],[90.2208,23.7007],[90.2164,23.7048],[90.2477,23.7076]]],[[[90.1432,23.707],[90.1539,23.7053],[90.137,23.7096],[90.1432,23.707]]],[[[90.1924,23.7129],[90.1869,23.7135],[90.1928,23.7139],[90.1924,23.7129]]],[[[90.1739,23.7165],[90.1747,23.7149],[90.1575,23.7094],[90.1739,23.7165]]],[[[90.2622,23.7247],[90.274,23.7293],[90.2822,23.7297],[90.2817,23.7292],[90.2622,23.7247]]],[[[90.3215,23.7268],[90.3176,23.7276],[90.3142,23.7316],[90.3215,23.7268]]],[[[90.3363,23.7287],[90.3291,23.7271],[90.336,23.732],[90.3363,23.7287]]],[[[90.354,23.7225],[90.3421,23.7327],[90.3395,23.733],[90.3413,23.7334],[90.3466,23.7315],[90.354,23.7225]]],[[[90.3003,23.7604],[90.2986,23.7571],[90.2937,23.7525],[90.3003,23.7604]]],[[[90.0395,23.7539],[90.0542,23.756],[90.0687,23.7535],[90.0919,23.7453],[90.1068,23.7323],[90.1205,23.7334],[90.1269,23.7263],[90.1044,23.7305],[90.0935,23.7414],[90.0698,23.7505],[90.0354,23.7517],[90.019,23.7626],[90.0395,23.7539]]],[[[90.2138,23.7571],[90.2216,23.7648],[90.2202,23.7629],[90.2138,23.7571]]],[[[90.2424,23.7913],[90.2416,23.792],[90.2425,23.7917],[90.2424,23.7913]]],[[[90.0163,23.8],[90.0145,23.8015],[90.0161,23.8004],[90.0163,23.8]]],[[[90.067,23.8162],[90.0572,23.8127],[90.0522,23.8154],[90.067,23.8162]]],[[[90.146,23.8261],[90.1676,23.8181],[90.1518,23.8217],[90.146,23.8261]]],[[[90.2183,23.8316],[90.194,23.8331],[90.1911,23.8322],[90.1939,23.8347],[90.2026,23.8355],[90.2183,23.8316]]],[[[89.7163,23.8365],[89.7149,23.8321],[89.712,23.8374],[89.7163,23.8365]]],[[[90.1118,23.8533],[90.0923,23.8469],[90.0989,23.851],[90.1118,23.8533]]],[[[90.1236,23.8683],[90.1151,23.8662],[90.1144,23.8698],[90.1236,23.8683]]],[[[90.0494,23.8807],[90.0484,23.8812],[90.0491,23.881],[90.0494,23.8807]]],[[[90.0383,23.88],[90.0397,23.8816],[90.0406,23.8818],[90.0383,23.88]]],[[[90.0446,23.8822],[90.0441,23.8822],[90.0444,23.8822],[90.0446,23.8822]]],[[[90.0,23.9161],[90.0,23.9154],[89.9986,23.9169],[90.0,23.9161]]],[[[89.4106,23.9189],[89.4078,23.9213],[89.4109,23.9196],[89.4106,23.9189]]],[[[89.9854,23.9307],[89.9953,23.9193],[89.9752,23.9361],[89.9854,23.9307]]],[[[89.3073,23.9385],[89.2906,23.9388],[89.3165,23.9422],[89.3073,23.9385]]],[[[89.6653,23.9394],[89.6611,23.9383],[89.6655,23.9421],[89.6653,23.9394]]],[[[89.3561,23.9429],[89.3288,23.9413],[89.3273,23.9428],[89.3561,23.9429]]],[[[89.7122,23.9602],[89.7097,23.9602],[89.713,23.9613],[89.7122,23.9602]]],[[[89.1773,23.9953],[89.1569,23.9926],[89.1545,23.9989],[89.1773,23.9953]]],[[[98.0,14.2877],[97.9688,14.3894],[98.0,14.4711],[98.0,14.2877]]],[[[97.9963,14.4786],[97.9669,14.4417],[97.9654,14.4261],[97.9408,14.5262],[97.9058,14.5783],[97.9134,14.6195],[97.9047,14.6107],[97.8736,14.6684],[97.8944,14.7054],[97.8855,14.7229],[97.8678,14.7078],[97.8392,14.7188],[97.7925,14.868],[97.8083,14.9423],[97.8001,14.9928],[97.8234,15.0085],[97.8244,15.0243],[97.791,14.9984],[97.7784,15.0151],[97.7979,15.0274],[97.8063,15.1503],[97.7951,15.1903],[97.7653,15.1971],[97.7387,15.2445],[97.7417,15.295],[97.7231,15.3278],[97.7274,15.347],[97.7469,15.3483],[97.7465,15.3759],[97.7828,15.397],[97.7454,15.486],[97.762,15.5281],[97.7016,15.7511],[97.7217,15.7639],[97.7179,15.8434],[97.6754,15.9144],[97.6103,15.949],[97.6035,15.9803],[97.5719,16.0096],[97.5609,16.069],[97.5967,16.0773],[97.6143,16.0533],[97.6277,16.0426],[97.6654,16.0409],[97.6772,16.0206],[97.6969,16.0197],[97.6742,16.0296],[97.6969,16.0274],[97.6673,16.0521],[97.6202,16.0587],[97.6023,16.0908],[97.6438,16.2622],[97.6162,16.3531],[97.6294,16.3796],[97.6151,16.4223],[97.6253,16.4923],[97.6621,16.5045],[97.6624,16.4688],[97.6823,16.4578],[97.7025,16.4629],[97.7044,16.4424],[97.7215,16.4423],[97.7199,16.4191],[97.7489,16.4091],[97.7355,16.4023],[97.7334,16.3756],[97.7702,16.372],[97.796,16.3508],[97.7858,16.3396],[97.7874,16.325],[97.8346,16.3158],[97.8601,16.2841],[97.8883,16.2762],[97.8604,16.2891],[97.8521,16.2947],[97.8511,16.2989],[97.8887,16.2862],[97.8521,16.3024],[97.8441,16.3234],[97.7924,16.3327],[97.8031,16.3534],[97.7905,16.3703],[97.7614,16.386],[97.7382,16.3861],[97.7587,16.4052],[97.7578,16.4177],[97.7289,16.4247],[97.7259,16.4541],[97.7069,16.4536],[97.7023,16.474],[97.6662,16.4785],[97.6684,16.5378],[97.7439,16.5485],[97.7277,16.5575],[97.7465,16.5616],[97.7089,16.5706],[97.6685,16.5549],[97.6441,16.6134],[97.6214,16.6432],[97.6076,16.5732],[97.6245,16.5545],[97.6215,16.5187],[97.5325,16.5376],[97.4886,16.5387],[97.481,16.5218],[97.3928,16.5251],[97.3629,16.479],[97.3302,16.6539],[97.3466,16.6394],[97.3939,16.6323],[97.4108,16.6347],[97.4225,16.6426],[97.4241,16.6584],[97.3928,16.6437],[97.3831,16.6559],[97.3457,16.6544],[97.3578,16.6616],[97.3476,16.6786],[97.3283,16.6669],[97.3302,16.6886],[97.3439,16.6876],[97.3419,16.7341],[97.3391,16.7091],[97.3207,16.7102],[97.3185,16.6679],[97.2772,16.6862],[97.2398,16.7684],[97.2498,16.8225],[97.2349,16.8088],[97.2229,16.8399],[97.2733,16.8364],[97.2781,16.8505],[97.2659,16.8701],[97.2646,16.8482],[97.2228,16.8672],[97.2092,16.8129],[97.2011,16.8786],[97.2181,16.894],[97.2191,16.9379],[97.1906,16.8911],[97.1749,16.8905],[97.17,16.908],[97.2072,17.008],[97.1533,17.0875],[97.1909,17.1092],[97.2134,17.0797],[97.253,17.0847],[97.2646,17.1036],[97.2278,17.1029],[97.2063,17.1338],[97.1791,17.1294],[97.1365,17.1162],[97.1343,17.0806],[97.1143,17.0778],[97.0902,17.1602],[97.1067,17.1878],[97.0833,17.1817],[97.0592,17.2533],[97.0003,17.2668],[97.0148,17.2806],[97.0091,17.3],[96.9138,17.3546],[96.888,17.4031],[96.8832,17.4541],[96.8649,17.3961],[96.8436,17.3893],[96.849,17.4134],[96.8209,17.4331],[96.7918,17.4904],[96.7671,17.4792],[96.7344,17.4353],[96.7735,17.3764],[96.7225,17.3474],[96.6924,17.3664],[96.6584,17.3486],[96.6488,17.3303],[96.6683,17.2614],[96.6962,17.2402],[96.7086,17.2545],[96.6825,17.2659],[96.6738,17.3063],[96.6854,17.3376],[96.7251,17.3305],[96.8366,17.3732],[96.856,17.3354],[96.863,17.345],[96.9082,17.3167],[96.8907,17.3042],[96.9129,17.2972],[96.8335,17.2052],[96.9001,17.0812],[96.9114,17.0164],[96.8737,16.911],[96.8383,16.9272],[96.8509,16.9591],[96.8346,16.9511],[96.8316,16.9117],[96.8552,16.8876],[96.8359,16.9046],[96.8251,16.8937],[96.8073,16.9106],[96.7968,16.9065],[96.8523,16.8346],[96.8078,16.7555],[96.7808,16.7817],[96.7746,16.7731],[96.799,16.7367],[96.7713,16.6916],[96.5964,16.5366],[96.4938,16.5046],[96.3837,16.4966],[96.2847,16.5537],[96.2867,16.5841],[96.3336,16.6157],[96.4269,16.5998],[96.4716,16.6018],[96.3244,16.6177],[96.3336,16.6234],[96.4269,16.6076],[96.4699,16.6127],[96.3313,16.6287],[96.2874,16.6001],[96.2777,16.5775],[96.2228,16.7465],[96.3156,16.8257],[96.3456,16.8256],[96.3941,16.8517],[96.4084,16.8475],[96.4861,16.8622],[96.5119,16.8805],[96.4839,16.8654],[96.4127,16.8528],[96.3948,16.8563],[96.3478,16.8321],[96.333,16.8315],[96.3941,16.8594],[96.4084,16.8552],[96.4861,16.8699],[96.5119,16.8882],[96.4839,16.8731],[96.3948,16.864],[96.3244,16.8384],[96.32,16.8613],[96.3477,16.9059],[96.3007,16.8638],[96.298,16.8408],[96.2776,16.8693],[96.288,16.8343],[96.3033,16.826],[96.2035,16.7632],[96.1888,16.7727],[96.194,16.7928],[96.2124,16.7905],[96.2246,16.8034],[96.2189,16.8389],[96.2123,16.8453],[96.2181,16.8088],[96.2039,16.81],[96.1879,16.8001],[96.1802,16.7768],[96.1869,16.76],[96.1288,16.7711],[96.1208,16.8137],[96.1155,16.8122],[96.119,16.7566],[96.1319,16.7512],[96.119,16.7489],[96.1921,16.7332],[96.2158,16.6629],[96.246,16.6291],[96.2366,16.6077],[96.2094,16.6032],[96.1735,16.5831],[96.1736,16.5086],[96.1887,16.487],[96.1776,16.483],[96.1754,16.4635],[96.1417,16.4537],[96.1617,16.4164],[96.1359,16.3879],[96.1062,16.384],[96.0771,16.3572],[96.0173,16.3845],[95.9964,16.4107],[95.9121,16.4109],[95.9061,16.3958],[95.9264,16.3801],[95.8912,16.2446],[95.7786,16.1291],[95.7544,16.1266],[95.7404,16.1452],[95.7269,16.264],[95.7096,16.2731],[95.7373,16.1095],[95.6966,16.046],[95.6934,16.0],[95.6483,15.9258],[95.457,15.7394],[95.3713,15.7047],[95.3125,15.7078],[95.283,15.721],[95.2715,15.7981],[95.2791,15.8386],[95.3045,15.8449],[95.3195,15.873],[95.3399,15.8722],[95.3404,15.8945],[95.3479,15.8727],[95.3809,15.8644],[95.3989,15.8691],[95.4126,15.8979],[95.3811,15.8772],[95.3388,15.9054],[95.3315,15.8981],[95.3319,15.8815],[95.3225,15.8868],[95.2999,15.8701],[95.3477,15.9395],[95.364,16.0425],[95.3962,16.0539],[95.364,16.0502],[95.3962,16.0641],[95.3628,16.0583],[95.3375,16.096],[95.3706,16.1414],[95.3907,16.2396],[95.3263,16.1926],[95.306,16.1581],[95.326,16.0867],[95.3096,16.0806],[95.2792,16.0394],[95.2352,15.9326],[95.2101,15.8565],[95.2218,15.7898],[95.1768,15.7679],[95.1243,15.7917],[95.1096,15.8842],[95.1332,16.0116],[95.1896,16.0169],[95.1927,16.0721],[95.2671,16.1495],[95.1911,16.1138],[95.2079,16.1777],[95.1799,16.1374],[95.1642,16.1435],[95.157,16.1251],[95.1337,16.1234],[95.1408,16.2315],[95.1236,16.2066],[95.1198,16.1153],[95.0867,16.0923],[95.0561,16.0354],[95.0696,15.9456],[95.0369,15.8038],[95.0011,15.7788],[94.9868,15.7848],[94.9843,15.8484],[94.9821,15.76],[94.9476,15.7412],[94.8343,15.7808],[94.8398,15.7984],[94.8893,15.8196],[94.8713,15.8877],[94.9508,15.9309],[94.9508,15.9456],[94.9443,15.9536],[94.8637,15.8968],[94.873,15.8249],[94.8388,15.8448],[94.8501,15.8762],[94.8384,15.9381],[94.8233,15.9327],[94.8283,15.9523],[94.8619,15.9923],[94.9145,15.9923],[94.9218,16.0306],[94.9068,16.0693],[94.9333,16.0784],[94.9556,16.1233],[95.0226,16.1273],[95.0237,16.1537],[95.0557,16.1917],[95.0497,16.2348],[95.0693,16.2381],[95.1006,16.3006],[95.0652,16.2477],[95.0432,16.2457],[95.0479,16.1971],[95.0137,16.1616],[95.0153,16.143],[94.9529,16.1388],[94.9304,16.0942],[94.9029,16.083],[94.9131,16.0278],[94.8918,16.0061],[94.8785,16.0115],[94.8656,16.1273],[94.8888,16.174],[94.9573,16.1884],[95.0257,16.2551],[95.0421,16.302],[95.0649,16.3037],[95.0509,16.305],[95.0649,16.3114],[95.0509,16.3127],[95.0505,16.3334],[95.0165,16.2669],[94.9522,16.211],[94.8726,16.1872],[94.8388,16.1108],[94.8488,16.0715],[94.7194,15.8504],[94.6856,15.8371],[94.636,15.8603],[94.6005,15.9125],[94.7184,15.9923],[94.7362,16.0558],[94.7845,16.0887],[94.763,16.1163],[94.7876,16.1238],[94.8071,16.1921],[94.8411,16.2072],[94.8519,16.2428],[94.8035,16.2062],[94.7764,16.1448],[94.7554,16.1316],[94.7516,16.0937],[94.7196,16.0669],[94.6841,16.0],[94.5736,15.9294],[94.5495,15.9488],[94.6173,16.0114],[94.6846,16.1071],[94.6824,16.1968],[94.7209,16.1952],[94.7589,16.2296],[94.7428,16.2545],[94.7567,16.2809],[94.7336,16.2564],[94.7473,16.2356],[94.7262,16.2305],[94.7192,16.2091],[94.6748,16.2152],[94.6644,16.2399],[94.7087,16.2472],[94.7058,16.2669],[94.6983,16.2493],[94.6897,16.2571],[94.6654,16.2531],[94.6881,16.2988],[94.6989,16.3478],[94.7371,16.3462],[94.7548,16.3764],[94.7858,16.3486],[94.8134,16.3481],[94.8254,16.3627],[94.8114,16.3536],[94.8046,16.3517],[94.7948,16.3523],[94.7789,16.3589],[94.7674,16.3733],[94.7858,16.3564],[94.8082,16.3542],[94.8254,16.3704],[94.7948,16.3601],[94.759,16.3901],[94.74,16.3827],[94.7347,16.3608],[94.7129,16.3733],[94.7432,16.3945],[94.75,16.4117],[94.7586,16.4019],[94.7705,16.4015],[94.7839,16.4261],[94.7588,16.4137],[94.7478,16.4265],[94.7126,16.3942],[94.6965,16.4767],[94.7322,16.4979],[94.7463,16.5613],[94.7897,16.5701],[94.8004,16.5907],[94.7465,16.5768],[94.7281,16.5145],[94.6898,16.4927],[94.6794,16.5105],[94.7012,16.544],[94.7103,16.6058],[94.7423,16.6251],[94.7234,16.6827],[94.7418,16.6845],[94.7447,16.6957],[94.7416,16.7301],[94.7218,16.7336],[94.7385,16.7229],[94.7218,16.7259],[94.7355,16.7022],[94.7173,16.6913],[94.7097,16.6459],[94.7315,16.6284],[94.6808,16.6421],[94.6989,16.672],[94.6889,16.7396],[94.6847,16.6852],[94.6918,16.6742],[94.6754,16.6933],[94.6781,16.6601],[94.6688,16.6524],[94.6511,16.6702],[94.6557,16.6501],[94.6733,16.6428],[94.6581,16.6199],[94.6913,16.6313],[94.7007,16.6203],[94.6924,16.5549],[94.6644,16.5184],[94.6796,16.3932],[94.6529,16.3403],[94.6242,16.3381],[94.6403,16.3836],[94.6062,16.3372],[94.6021,16.2844],[94.5648,16.2582],[94.5337,16.2892],[94.5464,16.3003],[94.5311,16.2931],[94.5464,16.308],[94.5265,16.2987],[94.5119,16.2832],[94.5109,16.1802],[94.4336,16.0697],[94.3681,16.0546],[94.3419,16.0163],[94.2827,16.0],[94.2435,15.9541],[94.199,16.0331],[94.2298,16.2481],[94.2433,16.257],[94.2317,16.3166],[94.2643,16.3891],[94.2771,16.4886],[94.2645,16.5254],[94.2907,16.5309],[94.2897,16.5114],[94.3149,16.5119],[94.3503,16.5611],[94.3473,16.5839],[94.3254,16.5946],[94.3508,16.6129],[94.3679,16.6071],[94.3578,16.6857],[94.3759,16.7495],[94.4039,16.7807],[94.3797,16.8709],[94.3885,16.8993],[94.4106,16.8818],[94.4434,16.9229],[94.484,16.9355],[94.4782,16.9576],[94.4452,16.9451],[94.4582,16.9729],[94.4567,17.0596],[94.4896,17.11],[94.4466,17.1722],[94.4644,17.1805],[94.4993,17.1491],[94.5216,17.161],[94.5363,17.1869],[94.5014,17.2162],[94.5088,17.2923],[94.5264,17.2691],[94.5464,17.2826],[94.5409,17.3113],[94.5815,17.2808],[94.5917,17.2965],[94.5715,17.3171],[94.5654,17.4983],[94.5425,17.5465],[94.563,17.5854],[94.6099,17.5288],[94.6111,17.5501],[94.5793,17.5882],[94.5884,17.6192],[94.5693,17.6453],[94.5589,17.6363],[94.5423,17.68],[94.5448,17.7349],[94.4898,17.7824],[94.4815,17.9029],[94.4385,17.9891],[94.4808,18.003],[94.4847,18.0557],[94.4469,18.1691],[94.4223,18.1896],[94.4268,18.2197],[94.4075,18.2462],[94.3372,18.2416],[94.3221,18.2642],[94.3284,18.2943],[94.3911,18.2758],[94.4074,18.3031],[94.4023,18.3463],[94.3816,18.3656],[94.3406,18.3618],[94.3225,18.4359],[94.2538,18.5206],[94.2579,18.6085],[94.2402,18.6458],[94.1435,18.7305],[94.1743,18.7065],[94.176,18.7207],[94.2197,18.7105],[94.28,18.7351],[94.253,18.7341],[94.2492,18.7552],[94.2388,18.7347],[94.2169,18.731],[94.2243,18.7812],[94.2039,18.7527],[94.1994,18.7931],[94.1831,18.7796],[94.1466,18.8144],[94.1762,18.8271],[94.1514,18.8252],[94.1736,18.831],[94.1759,18.8395],[94.1471,18.8336],[94.1696,18.89],[94.1467,18.8848],[94.127,18.8567],[94.1287,18.8786],[94.0553,18.8461],[94.033,18.86],[94.0521,18.8779],[94.0738,18.86],[94.0906,18.873],[94.1057,18.8921],[94.1353,18.8843],[94.1096,18.9284],[94.113,18.9662],[94.0864,18.8797],[94.033,18.8953],[94.0552,18.9276],[94.0376,18.9883],[94.0632,19.0299],[94.0586,19.0522],[94.1021,19.069],[94.097,19.091],[94.1228,19.077],[94.11,19.0987],[94.1466,19.1115],[94.1161,19.1204],[94.0793,19.0839],[94.0272,19.0792],[94.0931,19.1339],[94.1385,19.1438],[94.1357,19.1796],[94.1295,19.1561],[94.1075,19.1513],[94.0927,19.1822],[94.0911,19.1484],[94.0648,19.1263],[94.0735,19.165],[94.0624,19.1881],[94.0568,19.1255],[94.0329,19.1296],[94.0497,19.214],[94.0711,19.2263],[94.0469,19.2483],[94.0427,19.2981],[94.0763,19.3585],[94.0715,19.3837],[94.0687,19.3706],[94.0394,19.3453],[94.0315,19.3281],[94.0346,19.2154],[94.0163,19.1814],[93.9914,19.2229],[94.005,19.1555],[93.9663,19.1394],[93.9439,19.1562],[93.9453,19.1934],[93.9092,19.1995],[93.9298,19.151],[93.9665,19.1169],[93.9534,19.0885],[93.9557,19.0131],[93.9841,18.9575],[93.9399,18.8857],[93.9373,18.8473],[93.8923,18.8923],[93.7728,18.9664],[93.7448,18.9689],[93.7151,19.0075],[93.6742,19.0103],[93.6659,19.0588],[93.6901,19.0768],[93.7008,19.1067],[93.7476,19.1136],[93.707,19.1097],[93.6976,19.1146],[93.7476,19.1213],[93.6942,19.1196],[93.6897,19.0961],[93.6629,19.0763],[93.6393,19.1378],[93.5993,19.1513],[93.5699,19.2256],[93.4737,19.3615],[93.4841,19.4015],[93.5135,19.4265],[93.5509,19.4248],[93.5639,19.4138],[93.5514,19.4025],[93.5682,19.397],[93.6041,19.4068],[93.6369,19.3505],[93.6342,19.3399],[93.6172,19.3482],[93.6001,19.3151],[93.6214,19.3335],[93.6658,19.2971],[93.6417,19.2398],[93.6446,19.2162],[93.6815,19.2925],[93.7215,19.2804],[93.6948,19.2743],[93.7269,19.2678],[93.7207,19.2369],[93.739,19.2491],[93.809,19.2187],[93.8733,19.239],[93.9559,19.2984],[93.9498,19.3293],[93.9722,19.3438],[93.9817,19.3775],[94.0108,19.3734],[93.9834,19.4055],[93.9663,19.3584],[93.8921,19.2916],[93.8845,19.3022],[93.9191,19.3269],[93.9218,19.3773],[93.9111,19.3353],[93.8842,19.3196],[93.8889,19.3534],[93.8589,19.3878],[93.8596,19.3636],[93.8812,19.3463],[93.8692,19.3068],[93.8434,19.2959],[93.8087,19.3077],[93.7751,19.3011],[93.7408,19.341],[93.7753,19.3328],[93.78,19.3542],[93.7704,19.3446],[93.7323,19.3566],[93.7319,19.3826],[93.7141,19.3964],[93.7384,19.3946],[93.7393,19.4088],[93.6516,19.4445],[93.6385,19.483],[93.6546,19.4843],[93.6468,19.5046],[93.6875,19.5578],[93.7462,19.5346],[93.7688,19.4777],[93.7758,19.4962],[93.7933,19.4927],[93.8187,19.4567],[93.8567,19.4767],[93.8585,19.4328],[93.877,19.4654],[93.9764,19.4112],[93.9971,19.445],[93.9909,19.461],[93.9536,19.4479],[93.907,19.4646],[93.9484,19.5005],[93.9383,19.564],[93.9324,19.4985],[93.9024,19.4885],[93.7811,19.5822],[93.8164,19.6042],[93.7935,19.614],[93.7602,19.5991],[93.723,19.6252],[93.7741,19.657],[93.7943,19.6522],[93.7899,19.6754],[93.8193,19.7035],[93.8066,19.7392],[93.7986,19.7014],[93.7626,19.6775],[93.727,19.6711],[93.7073,19.7001],[93.7208,19.7407],[93.7914,19.7615],[93.7976,19.8329],[93.7871,19.8573],[93.7979,19.8591],[93.8012,19.8835],[93.7933,19.916],[93.7899,19.8715],[93.7386,19.8852],[93.7172,19.9034],[93.7457,19.9152],[93.7088,19.9371],[93.7091,19.9673],[93.702,19.9144],[93.6219,19.9171],[93.5518,19.8885],[93.5428,19.8971],[93.5754,19.9125],[93.5867,19.9378],[93.5688,19.9212],[93.546,19.9363],[93.5161,19.9234],[93.5128,19.937],[93.5365,19.9476],[93.5201,19.952],[93.5365,19.9552],[93.5071,19.9672],[93.5401,19.9909],[93.4818,19.9914],[93.4674,20.0443],[93.4605,20.0493],[93.4762,20.0534],[93.4591,20.0549],[93.4762,20.0609],[93.4548,20.0552],[93.4754,20.0005],[93.466,19.9827],[93.4542,19.9959],[93.4392,19.9925],[93.4538,19.947],[93.416,19.9708],[93.3815,20.0614],[93.4167,20.0723],[93.4148,20.1045],[93.4329,20.1052],[93.4126,20.1727],[93.3623,20.2736],[93.343,20.2772],[93.3398,20.2996],[93.3234,20.3298],[93.2966,20.33],[93.3259,20.3783],[93.3254,20.4036],[93.2805,20.3482],[93.2801,20.3282],[93.2398,20.306],[93.2306,20.2663],[93.2464,20.2454],[93.2099,20.2347],[93.1825,20.1969],[93.1185,20.1858],[93.2165,20.2785],[93.2259,20.3076],[93.2131,20.3228],[93.2512,20.4261],[93.2252,20.3917],[93.198,20.3871],[93.2115,20.3796],[93.1984,20.3725],[93.2228,20.3746],[93.203,20.3226],[93.1914,20.3328],[93.1277,20.3247],[93.1321,20.3618],[93.1564,20.3516],[93.1748,20.3666],[93.157,20.358],[93.1748,20.3741],[93.1342,20.374],[93.1732,20.3891],[93.1703,20.412],[93.1647,20.422],[93.1677,20.4002],[93.1475,20.4043],[93.1195,20.3786],[93.0939,20.3797],[93.0886,20.394],[93.1167,20.4197],[93.107,20.5041],[93.0884,20.5157],[93.1051,20.5307],[93.0919,20.53],[93.0701,20.602],[93.0483,20.5976],[93.0218,20.6219],[93.0277,20.6439],[93.0056,20.6398],[93.0178,20.6047],[93.072,20.5748],[93.0816,20.5517],[93.0429,20.4567],[93.0411,20.4877],[93.0636,20.5246],[93.037,20.5407],[93.0548,20.5198],[93.0196,20.4791],[93.0337,20.4849],[93.018,20.4652],[93.0333,20.4781],[93.0386,20.4686],[93.0135,20.4606],[93.0237,20.3855],[93.0091,20.2869],[92.963,20.2257],[92.9449,20.2674],[92.915,20.2419],[92.9146,20.2122],[92.8862,20.2095],[92.9086,20.2018],[92.8862,20.2003],[92.9199,20.1744],[92.8966,20.1094],[92.8531,20.1232],[92.7672,20.1967],[92.7873,20.2326],[92.7969,20.2026],[92.8305,20.1729],[92.8458,20.1748],[92.8317,20.1766],[92.8257,20.1854],[92.8305,20.1804],[92.8458,20.1823],[92.799,20.2141],[92.7988,20.2507],[92.9446,20.308],[92.9245,20.3186],[92.8982,20.3078],[92.8404,20.3788],[92.9108,20.3641],[92.9315,20.3787],[92.9417,20.3446],[92.9508,20.3739],[92.9138,20.4102],[92.9289,20.4136],[92.9326,20.4327],[92.8983,20.4822],[92.9157,20.4251],[92.9054,20.4077],[92.916,20.3794],[92.9063,20.3787],[92.8867,20.4218],[92.8866,20.4039],[92.8571,20.4195],[92.861,20.4025],[92.8418,20.4017],[92.8211,20.4387],[92.8337,20.4331],[92.8484,20.4643],[92.8309,20.4724],[92.8275,20.4968],[92.8108,20.4924],[92.7961,20.5101],[92.7639,20.4734],[92.7523,20.4794],[92.7341,20.5644],[92.7524,20.5792],[92.7467,20.5986],[92.7266,20.6168],[92.7281,20.5988],[92.7465,20.5837],[92.7311,20.5792],[92.6844,20.6278],[92.6456,20.6891],[92.6451,20.7277],[92.5894,20.7191],[92.5875,20.7459],[92.5709,20.7758],[92.5997,20.7881],[92.6024,20.7989],[92.5948,20.7889],[92.5863,20.7921],[92.5997,20.7956],[92.6024,20.8064],[92.581,20.8017],[92.5649,20.7864],[92.5494,20.8493],[92.5449,20.8042],[92.5694,20.749],[92.5466,20.7631],[92.5441,20.7355],[92.591,20.6776],[92.6395,20.6808],[92.6954,20.575],[92.7279,20.5436],[92.72,20.463],[92.7466,20.4119],[92.7314,20.3683],[92.7407,20.2598],[92.7284,20.26],[92.638,20.4332],[92.5281,20.5435],[92.5133,20.5993],[92.4658,20.6422],[92.4661,20.6597],[92.379,20.6944],[92.3877,20.7048],[92.3627,20.7699],[92.3901,20.8168],[92.3787,20.8246],[92.3584,20.7833],[92.3369,20.8388],[92.3602,20.8647],[92.3366,20.8509],[92.3146,20.8826],[92.3619,20.9344],[92.3477,20.9871],[92.3313,20.9978],[92.2968,20.9872],[92.2891,21.0036],[92.2798,20.9694],[92.2694,21.0106],[92.2887,21.015],[92.2702,21.0187],[92.2887,21.0225],[92.2659,21.0322],[92.279,21.0292],[92.3128,21.0504],[92.3122,21.0703],[92.2734,21.0458],[92.2298,21.1046],[92.2243,21.1365],[92.198,21.1546],[92.1976,21.1123],[92.255,21.054],[92.2611,20.9287],[92.313,20.8394],[92.3399,20.7501],[92.3059,20.751],[92.2117,20.9253],[92.1847,21.0139],[92.0474,21.1765],[92.0496,21.2642],[92.0289,21.3402],[91.9543,21.4486],[91.9993,21.4979],[92.0221,21.4789],[91.9958,21.5503],[92.0389,21.6401],[92.0405,21.6722],[92.0261,21.68],[92.0352,21.7006],[92.0181,21.7165],[92.0169,21.6659],[91.9818,21.656],[91.9796,21.7042],[91.9667,21.6781],[91.9486,21.7384],[91.9764,21.7343],[91.9964,21.7483],[91.9924,21.7678],[91.9716,21.7472],[91.9545,21.7539],[91.9706,21.7862],[91.9424,21.8042],[91.9308,21.7855],[91.8945,21.7759],[91.9199,21.8398],[91.9106,21.9047],[91.9274,21.9345],[91.8949,21.9689],[91.8548,22.1276],[91.8345,22.1221],[91.813,22.1849],[91.8351,22.2077],[91.842,22.2531],[91.8166,22.2991],[91.8666,22.3147],[91.9008,22.3933],[91.9451,22.4087],[92.0019,22.3971],[92.0349,22.4385],[92.0815,22.4296],[92.1417,22.4541],[92.1439,22.4629],[92.1364,22.4558],[92.1032,22.4411],[92.0873,22.4369],[92.0739,22.4368],[92.1158,22.4486],[92.1417,22.4616],[92.1439,22.4703],[92.0873,22.4443],[92.0331,22.4505],[92.0029,22.4124],[91.9541,22.421],[91.8964,22.4094],[91.8723,22.3498],[91.7955,22.2927],[91.7952,22.2704],[91.8283,22.2517],[91.798,22.2196],[91.7818,22.2343],[91.7519,22.3866],[91.7001,22.4841],[91.5811,22.6536],[91.4621,22.7469],[91.486,22.7547],[91.4859,22.7668],[91.4692,22.7787],[91.4775,22.7663],[91.4547,22.7602],[91.4369,22.7772],[91.4746,22.8167],[91.4706,22.8263],[91.4403,22.8041],[91.4836,22.8667],[91.4666,22.8897],[91.4922,22.9007],[91.4452,22.9007],[91.441,22.8762],[91.4647,22.869],[91.4204,22.8087],[91.4086,22.7609],[91.3321,22.8307],[91.3506,22.844],[91.3427,22.8832],[91.3158,22.8319],[91.3451,22.7758],[91.2963,22.8102],[91.1869,22.7977],[91.1164,22.8119],[91.1127,22.8262],[91.0831,22.8],[91.0287,22.7996],[90.9375,22.8561],[90.8246,22.8647],[90.8016,22.9088],[90.7578,22.9387],[90.7958,22.8906],[90.7954,22.8634],[90.7333,22.8875],[90.6896,22.9783],[90.6294,22.9981],[90.5667,23.1029],[90.598,23.1704],[90.6524,23.2348],[90.6393,23.3096],[90.6776,23.3109],[90.6754,23.3333],[90.6978,23.3383],[90.6838,23.3587],[90.6972,23.3701],[90.6796,23.3628],[90.695,23.3777],[90.6701,23.3584],[90.6717,23.3208],[90.5987,23.3393],[90.5861,23.3947],[90.6007,23.4314],[90.5856,23.4596],[90.6303,23.4829],[90.7039,23.4827],[90.7178,23.5354],[90.7443,23.5369],[90.7254,23.5534],[90.7084,23.5386],[90.7074,23.5645],[90.732,23.5838],[90.7394,23.6143],[90.7646,23.6216],[90.7639,23.6432],[90.7435,23.6603],[90.7578,23.721],[90.7425,23.6938],[90.7403,23.7242],[90.7315,23.7102],[90.7156,23.7414],[90.6818,23.6867],[90.6429,23.6899],[90.6324,23.6392],[90.5628,23.5929],[90.5531,23.5715],[90.5147,23.5814],[90.505,23.6033],[90.4839,23.5866],[90.4589,23.6133],[90.4703,23.6298],[90.4427,23.6684],[90.368,23.7186],[90.3837,23.7022],[90.3658,23.7034],[90.3552,23.7288],[90.3421,23.7401],[90.3176,23.735],[90.3128,23.7642],[90.2986,23.7644],[90.2817,23.7366],[90.2556,23.7305],[90.2298,23.8877],[90.2396,23.827],[90.194,23.8405],[90.1518,23.8291],[90.1319,23.8674],[90.1117,23.8736],[90.1096,23.8572],[90.0916,23.8514],[90.0572,23.8201],[90.0625,23.8769],[90.0468,23.8894],[90.0268,23.8814],[90.0227,23.9072],[89.9485,23.9704],[89.9523,23.9846],[89.9328,23.9846],[89.9487,23.9525],[89.9378,23.948],[90.0,23.9087],[90.0144,23.8696],[90.0547,23.8658],[90.0466,23.8101],[90.0691,23.809],[90.0887,23.8227],[90.1247,23.7997],[90.1837,23.795],[90.2068,23.8083],[90.2226,23.793],[90.2415,23.8076],[90.2059,23.7463],[90.221,23.7143],[90.2524,23.7137],[90.2725,23.688],[90.2557,23.7074],[90.2383,23.7112],[90.2208,23.7081],[90.1813,23.7401],[90.1931,23.7222],[90.1813,23.7327],[90.1882,23.7208],[90.1492,23.7107],[90.1219,23.7371],[90.0698,23.7579],[90.0232,23.7635],[90.0245,23.7952],[90.0021,23.816],[90.0195,23.7553],[90.1068,23.7249],[90.1205,23.726],[90.1497,23.6969],[90.1739,23.7091],[90.2205,23.6957],[90.2477,23.7002],[90.276,23.6474],[90.3797,23.6091],[90.4009,23.5856],[90.3789,23.5604],[90.4098,23.5729],[90.4377,23.5377],[90.5054,23.5648],[90.5302,23.5595],[90.5695,23.4794],[90.5528,23.4887],[90.538,23.4837],[90.5521,23.4224],[90.5281,23.3907],[90.4858,23.4204],[90.4204,23.4161],[90.2542,23.4608],[90.1641,23.5242],[90.1103,23.6129],[89.97,23.6581],[89.9179,23.7216],[89.8638,23.7451],[89.7915,23.8077],[89.7742,23.8995],[89.7688,23.8876],[89.708,23.9525],[89.7275,23.9702],[89.7208,24.0],[89.7153,23.9718],[89.6983,23.9645],[89.7051,23.9991],[89.6707,24.0],[89.6557,23.9287],[89.7033,23.8676],[89.7513,23.8585],[89.7691,23.8355],[89.7571,23.8473],[89.7242,23.8344],[89.6802,23.8626],[89.6824,23.8426],[89.7149,23.8294],[89.6297,23.8456],[89.5468,23.8241],[89.4497,23.8706],[89.4256,23.9133],[89.3865,23.9431],[89.3288,23.9487],[89.2758,23.9881],[89.3139,23.9474],[89.2926,23.9454],[89.2282,23.9867],[89.1845,23.9868],[89.1773,23.9953],[89.1733,24.0],[89.1541,24.0],[88.8491,24.8162],[88.8914,25.3435],[89.0333,25.9586],[89.57,26.4283],[92.1004,26.8087],[93.7754,27.5406],[95.009,28.1316],[96.5137,28.4163],[97.0033,28.3186],[98.0,27.4136],[97.9963,14.4786]]]]}}