{"type":"Feature","properties":{"speciesId":442,"category":"NT","source":"IUCN Red List","simplifyTol":0.01,"clippedToSubcontinent":true},"geometry":{"type":"Polygon","coordinates":[[[83.1592,29.5078],[83.3434,29.1763],[83.4216,29.0934],[84.5681,28.6422],[84.72,28.5502],[84.964,28.366],[85.1574,28.2923],[85.4244,28.2417],[85.6224,28.1818],[85.7099,28.0713],[85.8803,27.9194],[86.6814,27.6569],[87.4641,27.4498],[88.1409,27.2334],[88.3435,27.0906],[88.3435,26.9939],[88.3067,26.9341],[88.2422,26.9157],[87.5193,27.0216],[85.825,27.459],[85.2725,27.6293],[85.1022,27.7306],[84.5174,28.1864],[84.0846,28.4535],[83.6058,28.7251],[83.1039,28.9277],[82.7909,29.296],[82.7632,29.517],[82.8369,29.5999],[83.0257,29.6137],[83.1592,29.5078]]]}}