{"type":"Feature","properties":{"speciesId":445,"category":"LC","source":"IUCN Red List","simplifyTol":0.01,"clippedToSubcontinent":true},"geometry":{"type":"Polygon","coordinates":[[[90.0473,26.4443],[88.6706,26.5292],[80.6782,27.4199],[80.3986,27.5329],[80.3847,28.2925],[80.1652,28.9873],[80.1472,29.1091],[80.7853,28.8892],[81.9366,28.403],[82.6948,27.9791],[83.2361,27.8125],[84.3761,27.78],[84.59,27.7305],[84.7709,27.5448],[85.2289,27.3128],[86.0736,26.9797],[87.6745,26.6877],[88.3094,26.7511],[89.2918,26.6763],[90.0414,26.5633],[90.0473,26.4443]]]}}