{"type":"Feature","properties":{"speciesId":449,"category":"LC","source":"IUCN Red List","simplifyTol":0.01,"clippedToSubcontinent":true},"geometry":{"type":"MultiPolygon","coordinates":[[[[72.7973,21.0335],[72.8455,21.0318],[72.853,21.0678],[72.8326,21.0544],[72.831,21.0968],[72.7978,21.1297],[72.7302,21.0781],[72.6759,21.0773],[72.6474,21.0496],[72.6692,21.0781],[72.6308,21.0825],[72.613,21.1028],[72.6178,21.1386],[72.6331,21.1303],[72.6467,21.1489],[72.6293,21.1338],[72.6145,21.1954],[72.6555,21.2226],[72.6817,21.2184],[72.6431,21.2498],[72.6304,21.2405],[72.6399,21.2575],[72.6075,21.2581],[72.5641,21.3781],[72.6877,21.4363],[72.6934,21.4664],[72.5858,21.4133],[72.6164,21.48],[72.824,21.6367],[72.8406,21.6659],[72.9147,21.6492],[73.1077,21.7297],[73.064,21.7327],[72.9438,21.6753],[72.7776,21.6604],[72.7389,21.6861],[72.6033,21.6764],[72.543,21.6564],[72.5253,21.6947],[72.5569,21.7611],[72.5675,21.8481],[72.6264,21.9283],[72.6519,21.9411],[72.6811,21.9303],[72.7344,21.9864],[72.7137,21.9934],[72.6839,21.9646],[72.6719,21.9749],[72.6704,21.9621],[72.6311,21.9635],[72.5628,21.9128],[72.5358,21.9103],[72.5008,21.9767],[72.5367,22.1378],[72.5858,22.2014],[72.6253,22.2089],[72.6792,22.1789],[72.7419,22.1758],[72.7627,22.1862],[72.7576,22.2153],[72.7227,22.2378],[72.7351,22.2587],[72.5867,22.2856],[72.4664,22.2272],[72.3897,22.2494],[72.3758,22.2992],[72.2142,22.2947],[72.158,22.2864],[72.1519,22.2731],[72.1789,22.2475],[72.3047,22.2253],[72.3258,22.1567],[72.3053,22.0636],[72.2653,22.0161],[72.1792,21.9706],[72.1255,21.9728],[72.0317,21.9428],[72.1122,21.9147],[72.1522,21.9286],[72.1619,21.8353],[72.0872,21.8281],[72.0047,21.8589],[71.9941,21.8478],[71.9925,21.7892],[72.0197,21.7736],[72.1725,21.7858],[72.2142,21.7361],[72.2133,21.705],[72.2514,21.6892],[72.2892,21.6108],[72.2425,21.4653],[72.1794,21.403],[72.1039,21.3097],[72.1105,21.2019],[72.0033,21.1347],[71.5681,20.975],[71.4669,20.8819],[70.9661,20.7028],[70.8189,20.6975],[70.5278,20.8111],[70.3289,20.9281],[70.0158,21.1861],[69.7886,21.4664],[69.6283,21.6181],[69.5553,21.6586],[69.4369,21.7717],[69.3353,21.8608],[69.2294,21.9472],[69.1155,22.0625],[68.9628,22.2478],[68.9427,22.3217],[69.0056,22.4444],[69.0728,22.4819],[69.1775,22.3603],[69.1711,22.3028],[69.2383,22.2733],[69.4655,22.3339],[69.7005,22.4056],[69.8708,22.4655],[70.0405,22.5583],[70.1655,22.5483],[70.3675,22.8886],[70.4347,22.9614],[70.4844,22.9611],[70.5114,22.9853],[70.5286,23.0464],[70.5069,23.1022],[70.4753,23.1275],[70.4108,23.0853],[70.3894,22.9353],[70.343,22.9305],[70.2272,22.9575],[69.8494,22.8586],[69.755,22.8061],[69.7103,22.7428],[69.4075,22.8092],[69.2158,22.8403],[68.6667,23.1422],[68.543,23.2692],[68.436,23.4214],[68.4025,23.5206],[68.4083,23.6128],[68.7208,23.8161],[68.7414,23.8442],[68.61,23.8075],[68.4475,23.7269],[68.3828,23.6761],[68.3572,23.6103],[68.3264,23.5828],[68.2522,23.58],[68.1394,23.6097],[68.2011,23.6642],[68.2144,23.8683],[68.2905,23.9444],[68.3905,23.9675],[68.7472,23.97],[68.7453,24.3164],[68.7831,24.3328],[68.9269,24.3256],[68.988,24.2569],[69.0803,24.2972],[69.2525,24.2797],[69.5986,24.2814],[69.7236,24.1711],[70.0147,24.1697],[70.0707,24.1979],[70.1201,24.309],[70.2544,24.3322],[70.4147,24.4022],[70.5555,24.4353],[70.6008,24.415],[70.5842,24.3842],[70.5844,24.2783],[70.6505,24.2414],[70.7619,24.2358],[70.8858,24.2744],[70.8644,24.3169],[70.9417,24.3692],[71.0292,24.3636],[71.1058,24.4164],[71.0928,24.4433],[71.0108,24.455],[70.9958,24.4808],[70.9841,24.6208],[71.0036,24.6478],[71.0774,24.6805],[70.9422,24.9356],[70.8797,25.1561],[70.7533,25.2739],[70.6775,25.4017],[70.6789,25.6533],[70.6664,25.6983],[70.6064,25.7142],[70.5317,25.6839],[70.3861,25.6747],[70.2817,25.7067],[70.1286,25.9025],[70.088,25.9828],[70.0966,26.0925],[70.1739,26.2444],[70.1836,26.5361],[70.1455,26.5722],[70.0925,26.5933],[69.8008,26.5942],[69.7228,26.6653],[69.5128,26.7467],[69.4872,26.8358],[69.5111,26.9975],[69.5833,27.1783],[69.7008,27.2867],[69.7558,27.3092],[69.8675,27.4086],[70.0375,27.6],[70.128,27.8289],[70.3575,28.0147],[70.4869,28.0456],[70.5831,28.0067],[70.6636,27.9283],[70.6622,27.8633],[70.7378,27.7314],[70.8294,27.7064],[70.93,27.723],[71.2258,27.8458],[71.6147,27.8761],[71.8969,27.9619],[71.92,28.1208],[71.9922,28.2158],[72.1375,28.3253],[72.2066,28.4025],[72.2922,28.68],[72.3897,28.785],[72.7289,28.9536],[72.9522,29.0442],[72.9632,29.0735],[72.8645,29.4523],[72.4183,30.0379],[72.0837,30.3446],[71.5538,30.9024],[71.0797,31.4601],[70.8362,31.797],[70.9556,32.633],[71.3934,33.2585],[71.7687,33.6963],[72.3942,34.0716],[72.7708,34.0716],[72.9219,33.9477],[73.4032,33.4262],[73.9447,32.7744],[74.6066,32.1026],[74.7774,31.9596],[74.8512,31.9986],[74.9035,32.0533],[74.9357,32.0619],[74.9964,32.0363],[75.0407,32.0415],[75.2565,32.0929],[75.3069,32.1339],[75.3913,32.2416],[75.3286,32.2928],[75.3192,32.3478],[75.2681,32.3781],[75.7126,32.392],[76.0223,32.2371],[76.1772,31.7339],[76.5256,31.5016],[76.7966,31.1531],[76.9515,30.9983],[77.2999,30.7273],[77.687,30.4563],[77.8806,30.8047],[77.958,31.1144],[78.3065,31.2306],[78.6936,31.2306],[78.8219,31.2867],[78.8777,31.2916],[78.9294,31.3337],[79.1241,31.4189],[79.2175,31.3408],[79.2403,31.2442],[79.315,31.1331],[79.3932,31.1011],[79.4194,31.0522],[79.5589,30.9542],[79.6064,30.9356],[79.6636,30.975],[79.7489,30.9897],[79.8792,30.9592],[79.9236,30.8889],[80.1836,30.7978],[80.2503,30.74],[80.2286,30.6042],[80.207,30.5755],[80.3219,30.5647],[80.5214,30.4772],[80.6069,30.4747],[80.7519,30.395],[80.8039,30.3267],[80.9989,30.2619],[81.0294,30.2203],[81.0254,30.2044],[80.8755,30.1431],[80.6789,29.9703],[80.5989,29.9553],[80.5319,29.8389],[80.4869,29.7986],[80.4203,29.7892],[80.3839,29.7564],[80.373,29.7392],[80.3822,29.688],[80.418,29.6367],[80.4069,29.5964],[80.35,29.525],[80.2414,29.44],[80.2372,29.4133],[80.2758,29.3225],[80.3069,29.3106],[80.2878,29.2056],[80.1969,29.1283],[80.0697,28.9494],[80.0522,28.9011],[80.0558,28.8361],[80.2461,28.7508],[80.3875,28.625],[80.4722,28.59],[80.5108,28.6211],[80.5083,28.6625],[80.5414,28.6853],[80.9386,28.4411],[81.0314,28.403],[81.1936,28.3667],[81.298,28.1639],[81.3744,28.1661],[81.4803,28.08],[81.7269,27.9558],[81.8803,27.8572],[81.9105,27.8553],[81.9778,27.9172],[82.0433,27.9186],[82.4347,27.6756],[82.7011,27.7111],[82.7208,27.6836],[82.7444,27.5511],[82.7686,27.5017],[83.0375,27.4481],[83.1764,27.4489],[83.2558,27.3864],[83.2711,27.3461],[83.2914,27.3378],[83.3375,27.3394],[83.3589,27.3561],[83.4183,27.4728],[83.6078,27.4692],[83.8583,27.3522],[83.8714,27.4403],[83.9225,27.4518],[84.0403,27.4447],[84.1472,27.5114],[84.2978,27.3883],[84.595,27.3419],[84.6344,27.315],[84.6861,27.1969],[84.6786,27.1306],[84.6453,27.0619],[84.6514,27.0417],[84.7503,27.0075],[84.8022,27.0153],[84.855,26.9955],[85.1844,26.8011],[85.2117,26.7669],[85.328,26.7361],[85.6303,26.8675],[85.7261,26.8017],[85.7272,26.68],[85.7405,26.6539],[85.8555,26.5703],[85.9436,26.6172],[85.9625,26.6472],[86.0364,26.6633],[86.1072,26.6172],[86.1408,26.6025],[86.1839,26.6081],[86.2066,26.5856],[86.3342,26.6078],[86.7317,26.42],[86.821,26.4367],[86.892,26.4721],[86.9022,26.5025],[86.948,26.5309],[87.0044,26.5344],[87.0844,26.4864],[87.17,26.4],[87.2697,26.3753],[87.4769,26.4356],[87.643,26.3925],[87.6914,26.4283],[87.8905,26.4733],[87.9494,26.4006],[88.0147,26.3647],[88.0958,26.4389],[88.1019,26.5303],[88.1261,26.5751],[88.4338,26.3407],[88.3561,26.2844],[88.3553,26.2233],[88.1814,26.1486],[88.0955,25.9153],[88.1105,25.8356],[88.1405,25.7897],[88.1658,25.7794],[88.2675,25.8108],[88.4469,25.6661],[88.4505,25.5939],[88.5566,25.5047],[88.7119,25.485],[88.7667,25.5178],[88.7997,25.5106],[88.8344,25.4792],[88.8397,25.4308],[88.8217,25.4017],[88.87,25.3358],[88.928,25.3083],[89.0089,25.3008],[88.9408,25.1656],[88.705,25.1953],[88.4864,25.2006],[88.4508,25.1878],[88.46,25.0694],[88.3961,24.9375],[88.3425,24.8703],[88.2769,24.8881],[88.2213,24.9543],[88.1378,24.9214],[88.1711,24.8517],[88.0433,24.6842],[88.1255,24.5086],[88.3655,24.4119],[88.4978,24.3208],[88.6522,24.2942],[88.6741,24.3203],[88.6974,24.3096],[88.7529,24.2141],[88.7464,24.1888],[88.7169,24.1839],[88.6997,24.1472],[88.7014,24.0792],[88.7592,24.036],[88.7366,23.9198],[88.6028,23.8624],[88.5639,23.6522],[88.5869,23.6022],[88.7494,23.4669],[88.7814,23.5036],[88.7933,23.4942],[88.7864,23.4508],[88.7114,23.3086],[88.7211,23.2517],[88.798,23.2253],[88.8417,23.2442],[88.9861,23.2083],[88.8703,23.0878],[88.8628,22.9667],[88.9333,22.8658],[88.9933,22.3244],[89.015,22.2617],[89.0964,22.1486],[89.0653,22.1153],[89.0422,22.1328],[89.0378,22.0794],[89.0633,22.0142],[89.0641,21.9417],[89.0056,21.9036],[89.0889,21.6281],[89.0075,21.6],[88.9208,21.6339],[88.8555,21.6328],[88.7844,21.5569],[88.7389,21.5497],[88.7072,21.5664],[88.6822,21.6961],[88.6966,21.843],[88.724,21.9635],[88.7656,22.0052],[88.7526,22.0437],[88.713,22.0619],[88.7275,22.0158],[88.6883,21.9347],[88.6305,21.945],[88.623,21.9681],[88.6587,22.017],[88.6378,22.0967],[88.6828,22.1739],[88.6678,22.2022],[88.6139,22.1008],[88.6255,22.0369],[88.5966,21.9884],[88.6036,21.9369],[88.5569,21.8133],[88.5625,21.7664],[88.6086,21.7806],[88.6286,21.7492],[88.6028,21.6119],[88.5722,21.56],[88.5383,21.5258],[88.5119,21.5219],[88.4944,21.5242],[88.4833,21.5508],[88.4944,21.585],[88.5181,21.5953],[88.5319,21.8317],[88.4961,21.9503],[88.4719,21.8914],[88.4744,21.6725],[88.4539,21.615],[88.3997,21.5833],[88.3086,21.6031],[88.2972,21.7728],[88.2619,21.8],[88.3083,21.5706],[88.2542,21.5486],[88.1994,21.6117],[88.1814,21.6636],[88.2047,21.7139],[88.2058,21.8014],[88.155,21.8747],[88.1422,21.9489],[88.1494,21.9797],[88.2186,22.0708],[88.1994,22.1553],[88.1458,22.1936],[88.0075,22.2353],[87.9658,22.2975],[87.9394,22.4128],[87.9078,22.4217],[87.9475,22.2697],[87.9819,22.223],[88.0147,22.1989],[88.1419,22.1722],[88.1744,22.1231],[88.168,22.0917],[88.0822,22.0181],[87.9719,21.8394],[87.7964,21.6989],[87.673,21.6439],[87.4458,21.6036],[87.3717,21.577],[87.366,21.5609],[87.2075,21.5494],[87.1228,21.5137],[86.9528,21.3692],[86.8755,21.2744],[86.828,21.1525],[86.873,21.0148],[86.9701,20.8491],[86.9758,20.768],[87.0013,20.7584],[87.0139,20.7253],[86.996,20.6992],[87.0246,20.6897],[87.052,20.7035],[86.7663,20.5017],[86.7391,20.4593],[86.7242,20.3826],[86.7392,20.3722],[86.8028,20.4358],[86.8043,20.4822],[86.8161,20.4409],[86.8074,20.3638],[86.7209,20.2934],[86.7629,20.3107],[86.5418,20.1847],[86.4566,20.0693],[86.4181,19.9776],[86.158,19.8714],[85.7414,19.7597],[85.6052,19.7074],[85.3281,19.5669],[85.1224,19.4198],[85.0869,19.3687],[84.9609,19.2916],[84.8127,19.1462],[84.6929,18.9579],[84.6006,18.8682],[84.5635,18.7904],[84.4572,18.6851],[84.4484,18.6543],[84.3818,18.5947],[84.3651,18.5534],[84.1375,18.3434],[84.1411,18.3142],[84.0758,18.2658],[83.8116,18.1569],[83.5755,18.0095],[83.5545,17.9644],[83.2341,17.5925],[83.0103,17.4872],[82.8842,17.4081],[82.7775,17.3722],[82.6043,17.2849],[82.4936,17.2121],[82.319,17.0518],[82.2789,16.9851],[82.2763,16.9411],[82.2529,16.9186],[82.2597,16.8754],[82.2771,16.8844],[82.2785,16.8585],[82.2921,16.8749],[82.3044,16.8567],[82.3193,16.8678],[82.3241,16.8372],[82.3419,16.8605],[82.3706,16.8507],[82.3673,16.88],[82.3709,16.8678],[82.3711,16.8453],[82.3686,16.8179],[82.3744,16.8302],[82.3729,16.934],[82.3465,16.9668],[82.3717,16.953],[82.3792,16.831],[82.3559,16.7128],[82.3076,16.5991],[82.3175,16.5846],[81.9945,16.4078],[81.7273,16.3108],[81.4808,16.3575],[81.3307,16.3152],[81.2538,16.2596],[81.2019,16.179],[81.1903,16.1446],[81.2125,16.1759],[81.2069,16.1316],[81.1567,16.015],[81.1551,15.9707],[81.0017,15.8444],[81.0206,15.7844],[80.9998,15.7776],[81.0318,15.7592],[80.9388,15.7079],[80.8948,15.7157],[80.8151,15.6995],[80.7824,15.8485],[80.8093,15.7779],[80.8075,15.8406],[80.747,15.8766],[80.6936,15.8811],[80.5329,15.8542],[80.3757,15.774],[80.2936,15.7047],[80.2494,15.6334],[80.1996,15.4623],[80.0981,15.3248],[80.0826,15.2577],[80.091,15.2043],[80.0698,15.1901],[80.0491,15.0671],[80.1086,14.76],[80.1961,14.5712],[80.1775,14.3581],[80.1263,14.2024],[80.1514,14.0358],[80.2558,13.78],[80.2339,13.7186],[80.2326,13.6559],[80.3233,13.4439],[80.3497,13.3342],[80.3258,13.1817],[80.2628,12.9492],[80.2589,12.7822],[80.1603,12.4731],[79.8819,12.0511],[79.8039,11.7953],[79.7831,11.77],[79.7932,11.7502],[79.7589,11.6076],[79.7601,11.5391],[79.7719,11.4914],[79.8186,11.4263],[79.8597,11.1777],[79.8497,10.8824],[79.8726,10.2847],[79.7682,10.2709],[79.7636,10.2583],[79.3992,10.3197],[79.3085,10.2652],[79.2701,10.2278],[79.2771,10.2105],[79.2358,10.1508],[79.2394,10.0883],[79.2669,10.0338],[79.0353,9.7442],[78.9408,9.5939],[78.91,9.4681],[78.9908,9.3522],[79.1268,9.2917],[79.2686,9.29],[79.2922,9.3161],[79.3255,9.3206],[79.3367,9.3084],[79.322,9.2669],[79.4386,9.1758],[79.4514,9.15],[79.2936,9.2468],[78.9626,9.2688],[78.7292,9.2003],[78.7216,9.183],[78.6465,9.1718],[78.6591,9.1502],[78.5784,9.1263],[78.4999,9.1268],[78.3967,9.0897],[78.2339,8.9678],[78.1925,8.9042],[78.1581,8.7452],[78.1786,8.7594],[78.1952,8.7499],[78.2012,8.7785],[78.2055,8.7605],[78.1959,8.7407],[78.1596,8.7231],[78.133,8.4883],[78.0697,8.3666],[77.9969,8.3383],[77.7383,8.1691],[77.5872,8.1347],[77.5616,8.1117],[77.5526,8.069],[77.3183,8.1173],[76.9986,8.3653],[76.6683,8.7819],[76.5464,8.8985],[76.5228,8.987],[76.3803,9.2814],[76.3158,9.4636],[76.2405,9.9635],[76.1825,10.0894],[76.1655,10.1803],[76.0814,10.4067],[75.9104,10.7838],[75.8616,10.9806],[75.6972,11.4151],[75.6557,11.4618],[75.613,11.4717],[75.5286,11.7003],[75.3893,11.8467],[75.3661,11.8487],[75.3522,11.8601],[75.2491,12.0038],[75.1925,12.0078],[75.0933,12.2689],[74.963,12.5147],[74.8103,12.8647],[74.7559,13.1367],[74.6921,13.3488],[74.6656,13.6377],[74.6428,13.6709],[74.6094,13.8533],[74.5686,13.9336],[74.505,14.0011],[74.464,14.1872],[74.4147,14.2874],[74.3539,14.5103],[74.3008,14.5217],[74.2843,14.5996],[74.2635,14.6245],[74.2791,14.6286],[74.2508,14.7189],[74.2218,14.7379],[74.1985,14.7308],[74.1993,14.7176],[74.0989,14.7844],[74.0886,14.8036],[74.1014,14.8671],[74.0697,14.9091],[74.0388,14.9156],[74.0415,14.9488],[73.95,15.0729],[73.9051,15.0871],[73.9458,15.1408],[73.89,15.3245],[73.87,15.3519],[73.8032,15.377],[73.7794,15.4089],[73.88,15.4031],[73.8899,15.4192],[73.8439,15.4447],[73.7914,15.4506],[73.7574,15.4939],[73.6841,15.7202],[73.6419,15.7403],[73.6505,15.7783],[73.6291,15.8319],[73.5752,15.9104],[73.5376,15.9339],[73.5041,15.94],[73.502,15.9734],[73.4478,16.0558],[73.408,16.2344],[73.3116,16.5403],[73.3362,16.56],[73.3125,16.6064],[73.2531,16.9989],[73.2575,17.0443],[73.2736,17.0347],[73.2747,17.0819],[73.2314,17.1954],[73.2349,17.2244],[73.1893,17.3016],[73.2135,17.3085],[73.1948,17.388],[73.1711,17.4039],[73.1884,17.4252],[73.1786,17.4711],[73.1144,17.6367],[73.1028,17.6894],[73.1222,17.7172],[73.1091,17.7697],[73.0114,17.9908],[72.9735,18.1171],[72.9705,18.2049],[72.9313,18.2186],[72.9388,18.2786],[72.9686,18.2611],[72.9672,18.3017],[72.9142,18.349],[72.8894,18.4342],[72.9028,18.5189],[72.8539,18.6606],[72.8575,18.7953],[72.9356,18.8241],[72.9918,18.7766],[72.9488,18.8469],[72.922,18.8554],[72.9119,18.9175],[72.9768,18.9474],[72.9539,18.9701],[73.0305,18.981],[73.0547,18.9961],[73.0542,19.0157],[73.0436,19.0265],[73.0061,19.005],[72.9953,19.0608],[72.9697,19.0789],[72.9322,19.0611],[72.9503,19.0538],[72.9436,19.0311],[72.9034,18.9938],[72.8931,19.0041],[72.8085,18.8975],[72.8016,18.9097],[72.8152,18.9164],[72.77,18.9431],[72.8242,19.0464],[72.8239,19.0944],[72.808,19.1435],[72.7863,19.1386],[72.7667,19.2281],[72.7775,19.3086],[72.8514,19.3192],[72.9153,19.2915],[72.8799,19.3232],[72.7978,19.3261],[72.7544,19.3697],[72.7078,19.5875],[72.7009,19.7421],[72.6594,19.8391],[72.6661,19.9186],[72.7036,19.9878],[72.749,20.2818],[72.7817,20.3464],[72.8186,20.3717],[72.8262,20.4424],[72.883,20.508],[72.8771,20.5274],[72.8885,20.5288],[72.8927,20.5834],[72.8736,20.6444],[72.9022,20.5964],[72.8864,20.6374],[72.9015,20.6429],[72.8936,20.6657],[72.9044,20.6805],[72.9027,20.6851],[72.9052,20.6909],[72.9054,20.6966],[72.904,20.6985],[72.8974,20.7001],[72.8967,20.7022],[72.9083,20.7106],[72.8907,20.7199],[72.9037,20.743],[72.9341,20.7533],[72.9341,20.7759],[72.9197,20.7682],[72.9188,20.7891],[72.8861,20.7872],[72.8745,20.8015],[72.8845,20.8106],[72.8487,20.8411],[72.8268,20.8292],[72.846,20.8537],[72.844,20.875],[72.8245,20.8829],[72.841,20.9056],[72.8239,20.9212],[72.8415,20.9345],[72.8432,20.9759],[72.8283,20.9752],[72.8387,20.9855],[72.8052,20.9872],[72.827,21.014],[72.7661,21.0042],[72.7425,20.9769],[72.769,20.9288],[72.7473,20.9498],[72.7218,21.0569],[72.7417,21.0289],[72.7856,21.0461],[72.801,21.0413],[72.7963,21.0353],[72.7973,21.0335]],[[75.3692,11.855],[75.3629,11.8524],[75.3661,11.8487],[75.3692,11.855]],[[72.9686,18.2601],[72.9686,18.2601],[72.9678,18.2612],[72.9686,18.2601]],[[72.8187,20.9987],[72.8201,21.001],[72.8194,20.9998],[72.8187,20.9987]],[[72.6219,21.1883],[72.6204,21.1928],[72.6221,21.1876],[72.6219,21.1883]],[[72.6736,21.1581],[72.6707,21.1568],[72.6683,21.1542],[72.6736,21.1581]],[[72.8861,20.5169],[72.8832,20.517],[72.8836,20.5092],[72.8861,20.5169]],[[86.8049,20.3933],[86.8005,20.3817],[86.7636,20.3353],[86.8031,20.3666],[86.8049,20.3933]],[[73.0226,19.0178],[73.025,19.0162],[73.0226,19.0178],[73.0226,19.0178]],[[72.8125,19.0134],[72.8125,19.0134],[72.8126,19.0198],[72.8125,19.0134]],[[72.8959,19.0035],[72.8932,19.0041],[72.8932,19.0041],[72.8959,19.0035]],[[72.9918,18.7763],[72.9886,18.7759],[72.9918,18.7763],[72.9918,18.7763]],[[82.3696,16.8403],[82.3623,16.829],[82.3618,16.8256],[82.3652,16.8254],[82.3696,16.8403]],[[73.3385,16.5554],[73.346,16.5292],[73.3559,16.5214],[73.3559,16.5214],[73.3385,16.5554]],[[73.3497,16.5166],[73.3509,16.5168],[73.3521,16.5171],[73.3497,16.5166]],[[73.3509,16.5168],[73.3478,16.5129],[73.3605,16.5122],[73.3509,16.5168]],[[74.3468,14.5185],[74.3468,14.5185],[74.3538,14.5117],[74.3468,14.5185]]],[[[79.8229,7.9447],[79.8199,7.9542],[79.822,7.9553],[79.8229,7.9447]]],[[[72.6852,21.0536],[72.6797,21.0622],[72.6751,21.0652],[72.6836,21.0665],[72.6852,21.0536]]],[[[72.6145,21.1954],[72.6176,21.2009],[72.618,21.1995],[72.6145,21.1954]]],[[[72.1836,21.4016],[72.1841,21.4023],[72.2059,21.4172],[72.1836,21.4016]]],[[[72.8453,21.0376],[72.8357,21.0425],[72.8453,21.0424],[72.8453,21.0376]]],[[[70.4852,20.8302],[70.478,20.8365],[70.4849,20.8314],[70.4852,20.8302]]],[[[72.817,20.91],[72.807,20.9073],[72.8173,20.919],[72.817,20.91]]],[[[72.8406,20.831],[72.8341,20.832],[72.8406,20.8311],[72.8406,20.831]]],[[[71.6316,20.988],[71.6314,20.9825],[71.6316,20.988],[71.6316,20.988]]],[[[72.8227,20.9825],[72.8052,20.9872],[72.8227,20.9826],[72.8227,20.9825]]],[[[71.6805,21.0051],[71.6824,21.0081],[71.6832,21.0089],[71.6805,21.0051]]],[[[72.7868,20.9919],[72.7723,20.9793],[72.7658,20.9849],[72.7751,20.9933],[72.7868,20.9919]]],[[[71.6839,21.0098],[71.6927,21.0104],[71.6832,21.0089],[71.6839,21.0098]]],[[[82.3479,16.6034],[82.3413,16.607],[82.3489,16.6109],[82.3479,16.6034]]],[[[72.8151,18.7014],[72.8047,18.7003],[72.8072,18.7045],[72.8151,18.7014]]],[[[72.8456,18.7691],[72.8349,18.7678],[72.8432,18.7728],[72.8456,18.7691]]],[[[72.8424,18.7075],[72.8332,18.7041],[72.84,18.7114],[72.8424,18.7075]]],[[[72.8502,18.7868],[72.844,18.7916],[72.8501,18.7971],[72.8502,18.7868]]],[[[72.9321,18.9527],[72.9223,18.9629],[72.9424,18.9688],[72.9389,18.9654],[72.9321,18.9527]]],[[[72.9438,19.0313],[72.9436,19.0311],[72.9438,19.0315],[72.9438,19.0313]]],[[[72.9054,20.6959],[72.904,20.6984],[72.9054,20.6966],[72.9054,20.6959]]],[[[72.8752,20.7521],[72.8613,20.7556],[72.8767,20.754],[72.8752,20.7521]]],[[[72.8726,20.768],[72.8648,20.7678],[72.866,20.7692],[72.8726,20.768]]],[[[70.6214,20.7702],[70.6201,20.7704],[70.6214,20.7702],[70.6214,20.7702]]],[[[72.8436,20.7883],[72.8407,20.7969],[72.8444,20.7987],[72.8436,20.7883]]],[[[70.5208,20.8102],[70.5111,20.8182],[70.5116,20.818],[70.5208,20.8102]]],[[[72.856,20.7635],[72.8404,20.7752],[72.8406,20.7799],[72.856,20.7635]]],[[[72.8793,20.6887],[72.89,20.6884],[72.8883,20.6806],[72.8793,20.6887]]],[[[72.8697,20.7172],[72.877,20.7253],[72.8737,20.6908],[72.8667,20.7131],[72.8576,20.706],[72.8726,20.6676],[72.8785,20.6761],[72.8779,20.6457],[72.8474,20.7183],[72.8454,20.7442],[72.8697,20.7172]]],[[[72.831,20.8052],[72.815,20.8357],[72.7824,20.9205],[72.8226,20.8256],[72.8415,20.8054],[72.831,20.8052]]],[[[74.1451,14.7215],[74.1419,14.7216],[74.1435,14.7234],[74.1451,14.7215]]],[[[74.1524,14.7386],[74.1492,14.7349],[74.1488,14.7389],[74.1524,14.7386]]],[[[74.1152,14.754],[74.1034,14.7558],[74.1052,14.7621],[74.1152,14.754]]],[[[74.0833,14.7935],[74.0817,14.791],[74.0817,14.7939],[74.0833,14.7935]]],[[[74.0529,14.817],[74.0499,14.8172],[74.0567,14.8188],[74.0529,14.817]]],[[[74.0991,14.8645],[74.1,14.8622],[74.0991,14.8621],[74.0991,14.8645]]],[[[74.0919,14.8759],[74.0891,14.8748],[74.0899,14.8778],[74.0919,14.8759]]],[[[73.7607,15.3543],[73.7569,15.3573],[73.7605,15.3574],[73.7607,15.3543]]],[[[73.7896,15.3719],[73.7865,15.3772],[73.7904,15.3776],[73.7896,15.3719]]],[[[73.4455,15.8897],[73.4446,15.8907],[73.4458,15.8903],[73.4455,15.8897]]],[[[73.4558,15.8935],[73.4541,15.8933],[73.4547,15.8939],[73.4558,15.8935]]],[[[73.5407,15.925],[73.5379,15.9247],[73.5395,15.9267],[73.5407,15.925]]],[[[73.4576,15.9313],[73.4554,15.9319],[73.456,15.9337],[73.4576,15.9313]]],[[[73.4707,15.9724],[73.4688,15.9732],[73.4701,15.9747],[73.4707,15.9724]]],[[[73.4516,15.9891],[73.4503,15.9909],[73.4513,15.9917],[73.4516,15.9891]]],[[[73.7765,15.3544],[73.7666,15.3553],[73.774,15.3587],[73.7765,15.3544]]],[[[67.6261,23.8122],[67.6324,23.8347],[67.6327,23.8337],[67.6261,23.8122]]],[[[67.6181,23.8415],[67.6254,23.8429],[67.6261,23.8423],[67.6181,23.8415]]],[[[67.835,23.8437],[67.835,23.8445],[67.8362,23.853],[67.835,23.8437]]],[[[68.1117,23.8535],[68.1114,23.8535],[68.1035,23.8555],[68.1117,23.8535]]],[[[68.1372,23.8557],[68.1369,23.8563],[68.1347,23.8659],[68.1372,23.8557]]],[[[67.5805,23.8703],[67.5789,23.8841],[67.5791,23.8838],[67.5805,23.8703]]],[[[67.5734,23.8743],[67.5722,23.8831],[67.5727,23.8839],[67.5734,23.8743]]],[[[67.4936,23.9],[67.4897,23.9004],[67.4696,23.9033],[67.4936,23.9]]],[[[67.4673,23.921],[67.4671,23.921],[67.4672,23.921],[67.4673,23.921]]],[[[67.9019,23.9657],[67.8939,23.975],[67.8939,23.9751],[67.9019,23.9657]]],[[[67.4365,23.9907],[67.4348,23.9828],[67.4361,23.9916],[67.4365,23.9907]]],[[[67.4331,23.995],[67.4357,23.9925],[67.4361,23.9916],[67.4331,23.995]]],[[[67.3659,24.1112],[67.3656,24.1105],[67.3625,24.1179],[67.3659,24.1112]]],[[[67.4251,24.1281],[67.4207,24.1238],[67.4248,24.1292],[67.4251,24.1281]]],[[[67.4248,24.1293],[67.423,24.1318],[67.4245,24.1302],[67.4248,24.1293]]],[[[67.3442,24.2142],[67.3363,24.2164],[67.3449,24.2151],[67.3442,24.2142]]],[[[67.416,24.2119],[67.4208,24.2098],[67.4168,24.2109],[67.416,24.2119]]],[[[67.345,24.2152],[67.3451,24.219],[67.3457,24.2161],[67.345,24.2152]]],[[[67.4152,24.2129],[67.4152,24.2249],[67.416,24.2119],[67.4152,24.2129]]],[[[67.3938,24.0616],[67.3899,24.0621],[67.3947,24.0625],[67.3938,24.0616]]],[[[67.3948,24.0635],[67.395,24.0662],[67.3947,24.0625],[67.3948,24.0635]]],[[[67.8384,23.8743],[67.8378,23.8755],[67.8434,23.8995],[67.8384,23.8743]]],[[[67.5095,23.8852],[67.4949,23.8992],[67.4957,23.8987],[67.5095,23.8852]]],[[[68.0511,23.898],[68.0553,23.903],[68.0553,23.903],[68.0511,23.898]]],[[[88.8589,21.52],[88.8255,21.5594],[88.8278,21.5997],[88.85,21.6086],[88.898,21.5794],[88.9133,21.55],[88.9036,21.5264],[88.8589,21.52]]],[[[72.2373,21.7575],[72.2372,21.7589],[72.2371,21.7651],[72.2373,21.7575]]],[[[72.7443,21.6377],[72.807,21.6431],[72.7932,21.6206],[72.6902,21.5999],[72.674,21.5873],[72.6865,21.5808],[72.6432,21.5644],[72.6228,21.5682],[72.6295,21.5877],[72.6114,21.6017],[72.6241,21.6172],[72.6033,21.6436],[72.6336,21.6586],[72.7661,21.6553],[72.7443,21.6377]]],[[[69.3688,21.8276],[69.3694,21.8308],[69.3694,21.8308],[69.3688,21.8276]]],[[[72.2453,21.9185],[72.2446,21.9252],[72.245,21.9248],[72.2453,21.9185]]],[[[72.3709,22.1522],[72.3709,22.1814],[72.3716,22.182],[72.3709,22.1522]]],[[[72.3722,22.1826],[72.3771,22.181],[72.3716,22.182],[72.3722,22.1826]]],[[[72.3806,22.1844],[72.3807,22.1866],[72.3806,22.1844],[72.3806,22.1844]]],[[[72.6631,22.211],[72.6503,22.2142],[72.6491,22.2145],[72.6497,22.2144],[72.6631,22.211]]],[[[88.128,21.6194],[88.0528,21.6344],[88.045,21.6608],[88.0925,21.8194],[88.1325,21.8761],[88.1569,21.8431],[88.1667,21.7697],[88.1653,21.7233],[88.128,21.6194]]],[[[88.645,21.7847],[88.5936,21.7978],[88.5792,21.8269],[88.6419,21.9217],[88.6758,21.9072],[88.6475,21.8369],[88.645,21.7847]]],[[[88.0822,21.8478],[88.0681,21.8869],[88.0972,21.9447],[88.113,21.9486],[88.1353,21.9075],[88.0822,21.8478]]],[[[72.7183,22.2182],[72.7242,22.2326],[72.7317,22.2225],[72.7183,22.2182]]],[[[72.4896,22.232],[72.4815,22.2237],[72.4822,22.2257],[72.4896,22.232]]],[[[69.5725,22.368],[69.5726,22.3681],[69.5727,22.3681],[69.5725,22.368]]],[[[69.5196,22.3724],[69.5079,22.3724],[69.5196,22.3724],[69.5196,22.3724]]],[[[72.6478,22.2627],[72.6431,22.2627],[72.6487,22.2635],[72.6478,22.2627]]],[[[72.3312,22.2605],[72.3282,22.2699],[72.3282,22.2699],[72.3312,22.2605]]],[[[72.6487,22.2636],[72.6469,22.2672],[72.6495,22.2643],[72.6487,22.2636]]],[[[72.6147,22.2649],[72.6127,22.2671],[72.6127,22.2672],[72.6147,22.2649]]],[[[69.5546,22.3899],[69.5545,22.3901],[69.5546,22.39],[69.5546,22.3899]]],[[[69.5166,22.4261],[69.5168,22.4262],[69.5169,22.4262],[69.5166,22.4261]]],[[[69.5492,22.3927],[69.5414,22.3952],[69.5418,22.3964],[69.5492,22.3927]]],[[[69.5421,22.3975],[69.5507,22.3976],[69.5418,22.3964],[69.5421,22.3975]]],[[[69.8276,22.4559],[69.8214,22.4565],[69.8276,22.4559],[69.8276,22.4559]]],[[[69.9446,22.5225],[69.9446,22.5225],[69.9463,22.525],[69.9446,22.5225]]],[[[69.7084,22.7422],[69.708,22.7426],[69.7082,22.7425],[69.7084,22.7422]]],[[[69.4521,22.7972],[69.4521,22.7972],[69.4521,22.7972],[69.4521,22.7972]]],[[[70.2171,22.9509],[70.218,22.9519],[70.22,22.9537],[70.2171,22.9509]]],[[[70.4481,22.97],[70.4539,22.9836],[70.4546,22.9826],[70.4481,22.97]]],[[[68.4087,23.4653],[68.4112,23.4658],[68.4112,23.4658],[68.4087,23.4653]]],[[[68.3105,23.5674],[68.3113,23.5678],[68.3318,23.5747],[68.3105,23.5674]]],[[[68.3765,23.6193],[68.3801,23.6282],[68.3813,23.6276],[68.3765,23.6193]]],[[[68.5043,23.7499],[68.5066,23.7531],[68.507,23.7525],[68.5043,23.7499]]],[[[68.1643,23.8557],[68.1678,23.8565],[68.168,23.8563],[68.1643,23.8557]]],[[[68.2635,23.9284],[68.2637,23.9287],[68.2745,23.9372],[68.2635,23.9284]]],[[[79.8083,8.166],[79.8027,8.1732],[79.8053,8.174],[79.8083,8.166]]],[[[79.7844,8.2605],[79.7777,8.261],[79.7791,8.2723],[79.7844,8.2605]]],[[[79.8009,8.2925],[79.7926,8.2999],[79.7966,8.3042],[79.8009,8.2925]]],[[[79.8078,8.3169],[79.8009,8.3335],[79.8028,8.3366],[79.8047,8.3357],[79.8078,8.3169]]],[[[79.7939,8.368],[79.7868,8.3829],[79.7887,8.3867],[79.7958,8.3849],[79.7939,8.368]]],[[[79.7896,8.408],[79.7756,8.4782],[79.7801,8.526],[79.7777,8.4911],[79.7896,8.408]]],[[[78.5892,9.0978],[78.5753,9.0966],[78.5884,9.1038],[78.5892,9.0978]]],[[[78.8327,9.1623],[78.824,9.1593],[78.8333,9.1667],[78.8327,9.1623]]],[[[81.2153,8.5394],[81.2059,8.54],[81.2108,8.5453],[81.2153,8.5394]]],[[[79.923,8.8973],[79.888,8.9431],[79.8849,8.9512],[79.9086,8.9236],[79.923,8.8973]]],[[[79.9145,8.9439],[79.9039,8.9383],[79.9131,8.9481],[79.9145,8.9439]]],[[[79.9038,8.945],[79.8909,8.9525],[79.9027,8.9553],[79.9038,8.945]]],[[[79.6983,9.1014],[79.8586,9.0731],[79.9283,9.0085],[79.8576,9.0564],[79.9232,8.9722],[79.889,8.9579],[79.8163,9.0326],[79.7004,9.0805],[79.6983,9.1014]]],[[[79.6883,9.071],[79.689,9.075],[79.6993,9.0734],[79.6883,9.071]]],[[[78.9463,9.1779],[78.9362,9.1745],[78.9002,9.172],[78.9116,9.1797],[78.9463,9.1779]]],[[[79.0642,9.1945],[79.0938,9.1926],[79.0888,9.1881],[79.0642,9.1945]]],[[[79.1895,9.2363],[79.2036,9.2358],[79.1847,9.2426],[79.1895,9.2363]]],[[[79.2282,9.2423],[79.2162,9.2428],[79.2097,9.2387],[79.2167,9.2457],[79.2282,9.2423]]],[[[80.0034,9.2659],[79.9981,9.2817],[80.0026,9.2875],[80.0067,9.2814],[80.0034,9.2659]]],[[[79.9918,9.2845],[79.971,9.2862],[79.9843,9.3061],[79.9872,9.3044],[79.9918,9.2845]]],[[[80.0916,9.3117],[80.0807,9.3119],[80.0761,9.3176],[80.0916,9.3117]]],[[[80.0607,9.3299],[80.0543,9.3392],[80.0579,9.3456],[80.0607,9.3299]]],[[[80.0129,9.4664],[80.0054,9.4812],[80.0059,9.4858],[80.0189,9.477],[80.0129,9.4664]]],[[[79.6916,9.5207],[79.7251,9.5226],[79.7271,9.4799],[79.6604,9.5007],[79.653,9.5535],[79.6746,9.5498],[79.6916,9.5207]]],[[[79.7995,9.5898],[79.794,9.5846],[79.7955,9.5892],[79.7995,9.5898]]],[[[74.7216,13.2204],[74.7182,13.2214],[74.7202,13.2234],[74.7216,13.2204]]],[[[74.7261,13.2235],[74.7246,13.2251],[74.7253,13.2255],[74.7261,13.2235]]],[[[74.7132,13.2372],[74.7113,13.2373],[74.7126,13.2378],[74.7132,13.2372]]],[[[74.6866,13.26],[74.6851,13.2615],[74.6864,13.2627],[74.6866,13.26]]],[[[74.6824,13.2632],[74.6813,13.2659],[74.6826,13.2664],[74.6824,13.2632]]],[[[74.6958,13.2754],[74.6923,13.2776],[74.6953,13.2789],[74.6958,13.2754]]],[[[74.693,13.2828],[74.6916,13.281],[74.6919,13.283],[74.693,13.2828]]],[[[74.6866,13.3263],[74.685,13.3266],[74.6858,13.3272],[74.6866,13.3263]]],[[[74.6783,13.3402],[74.6771,13.3389],[74.6772,13.3399],[74.6783,13.3402]]],[[[74.6725,13.3593],[74.6723,13.3617],[74.6735,13.361],[74.6725,13.3593]]],[[[74.6668,13.3763],[74.6665,13.373],[74.6652,13.3757],[74.6668,13.3763]]],[[[74.4756,14.0091],[74.4729,14.011],[74.4764,14.0124],[74.4756,14.0091]]],[[[74.4835,14.0238],[74.4799,14.0248],[74.4835,14.0253],[74.4835,14.0238]]],[[[74.4978,14.0299],[74.4976,14.0276],[74.4972,14.0303],[74.4978,14.0299]]],[[[74.4666,14.084],[74.4634,14.0859],[74.4654,14.0868],[74.4666,14.084]]],[[[74.4786,14.0953],[74.4748,14.0931],[74.4746,14.0957],[74.4786,14.0953]]],[[[74.4706,14.1051],[74.4668,14.1079],[74.4689,14.1094],[74.4706,14.1051]]],[[[74.3985,14.3133],[74.3938,14.3089],[74.3921,14.3117],[74.3985,14.3133]]],[[[74.2486,14.6996],[74.246,14.702],[74.2488,14.7011],[74.2486,14.6996]]],[[[74.2345,14.7079],[74.2316,14.7096],[74.2353,14.7098],[74.2345,14.7079]]],[[[80.2386,9.8235],[80.3657,9.6603],[80.8117,9.2909],[80.8841,9.1219],[81.0005,8.9388],[80.993,8.918],[81.0102,8.929],[81.013,8.8911],[81.021,8.9048],[81.0589,8.8595],[81.0875,8.8584],[81.1048,8.8126],[81.2267,8.6475],[81.2208,8.6062],[81.2298,8.581],[81.2451,8.5793],[81.2471,8.5458],[81.2257,8.5323],[81.2261,8.5695],[81.1927,8.5665],[81.2119,8.5077],[81.1896,8.5018],[81.1977,8.4615],[81.2624,8.4569],[81.304,8.4326],[81.304,8.4583],[81.2958,8.4465],[81.2809,8.4568],[81.2831,8.5032],[81.3222,8.5224],[81.353,8.4909],[81.3937,8.3567],[81.4078,8.2419],[81.4769,8.0343],[81.5686,7.9227],[81.5874,7.921],[81.5671,7.8981],[81.593,7.83],[81.6268,7.8247],[81.6544,7.7729],[81.6999,7.7536],[81.7713,7.6448],[81.8718,7.3159],[81.8586,7.0907],[81.8813,7.0267],[81.8704,6.9789],[81.8489,6.9896],[81.8578,6.9672],[81.8729,6.9669],[81.8364,6.8853],[81.8518,6.8884],[81.8483,6.8675],[81.8397,6.8542],[81.8211,6.8621],[81.8444,6.8344],[81.8233,6.8088],[81.8249,6.7653],[81.8084,6.7647],[81.8279,6.7586],[81.7759,6.6639],[81.7664,6.592],[81.7324,6.5669],[81.7003,6.482],[81.6518,6.4367],[81.5973,6.4241],[81.6135,6.4056],[81.56,6.3612],[81.522,6.3525],[81.4869,6.3055],[81.3285,6.1945],[81.2222,6.1589],[81.1946,6.1576],[81.197,6.1776],[81.178,6.1441],[81.1336,6.1174],[81.0167,6.1071],[80.8659,6.0408],[80.8255,6.0415],[80.7202,5.9607],[80.6641,5.9575],[80.5868,5.9168],[80.5532,5.9411],[80.4489,5.9431],[80.4522,5.9588],[80.4357,5.969],[80.4179,5.955],[80.3828,5.9595],[80.2442,6.0069],[80.2285,6.0351],[80.2186,6.022],[80.0986,6.1289],[80.0314,6.2656],[80.0252,6.3364],[79.9746,6.464],[79.9866,6.4771],[79.9796,6.5149],[79.8687,6.8057],[79.8431,6.9333],[79.8712,6.9756],[79.869,7.0027],[79.819,7.1934],[79.8592,7.2756],[79.8445,7.2761],[79.8027,7.4826],[79.7977,7.7275],[79.7513,7.9316],[79.7064,8.0445],[79.699,8.1154],[79.7095,8.1343],[79.6984,8.2138],[79.7179,8.2167],[79.7381,8.28],[79.7812,8.3497],[79.7563,8.3071],[79.7511,8.2617],[79.7655,8.2739],[79.7573,8.2571],[79.7766,8.2541],[79.7688,8.2156],[79.7404,8.2008],[79.7492,8.1829],[79.7316,8.0868],[79.7541,8.0582],[79.7426,8.0],[79.8186,7.9719],[79.8082,7.8839],[79.8265,7.9206],[79.834,8.0071],[79.7896,8.0682],[79.8086,8.0611],[79.7948,8.0793],[79.8338,8.1396],[79.8154,8.2037],[79.7946,8.2203],[79.8095,8.2174],[79.7897,8.2301],[79.8101,8.2374],[79.8342,8.2919],[79.8476,8.2742],[79.8584,8.2846],[79.8362,8.3011],[79.8445,8.4289],[79.8632,8.4496],[79.8709,8.5352],[79.9263,8.559],[79.9193,8.5846],[79.9414,8.6155],[79.9558,8.7174],[79.9248,8.7907],[79.9401,8.8068],[79.9184,8.8083],[79.9307,8.8147],[79.919,8.8188],[79.9358,8.8913],[79.9122,8.9299],[80.0403,9.0133],[80.0661,9.0562],[80.0857,9.0999],[80.0761,9.1203],[80.1173,9.2072],[80.1116,9.2768],[80.1278,9.2906],[80.0676,9.3287],[80.0549,9.3914],[80.1466,9.4347],[80.1861,9.4827],[80.1461,9.5361],[80.054,9.5979],[80.0876,9.6249],[80.0176,9.6509],[79.971,9.7077],[79.948,9.6871],[79.9099,9.7587],[79.9528,9.7921],[80.0224,9.8126],[80.1056,9.8059],[80.2147,9.8314],[80.2386,9.8235]]],[[[79.8325,9.5865],[79.8639,9.6054],[79.8582,9.568],[79.8082,9.5772],[79.8102,9.6223],[79.8325,9.5865]]],[[[79.7733,9.5849],[79.7619,9.5986],[79.7722,9.6206],[79.7757,9.6141],[79.7733,9.5849]]],[[[79.8336,9.6055],[79.8273,9.6121],[79.8372,9.6099],[79.8336,9.6055]]],[[[79.8466,9.6175],[79.8431,9.6077],[79.8414,9.613],[79.8466,9.6175]]],[[[80.0,9.6016],[79.9864,9.5962],[79.9663,9.6074],[79.9863,9.6088],[79.9993,9.6302],[80.0,9.6016]]],[[[80.0129,9.6428],[80.0071,9.6431],[80.0065,9.645],[80.0129,9.6428]]],[[[79.8648,9.6259],[79.8559,9.6243],[79.8543,9.6348],[79.8648,9.6259]]],[[[80.0064,9.6328],[79.9936,9.6407],[79.9973,9.6451],[80.0,9.6437],[80.0064,9.6328]]],[[[79.7759,9.6457],[79.7643,9.6596],[79.7832,9.6837],[79.7849,9.6647],[79.7759,9.6457]]],[[[79.7956,9.6829],[79.7918,9.6851],[79.7943,9.687],[79.7956,9.6829]]],[[[79.8128,9.6842],[79.8091,9.6937],[79.815,9.7137],[79.8122,9.6974],[79.8128,9.6842]]],[[[79.8964,9.7559],[79.8922,9.7076],[79.8562,9.7099],[79.8644,9.7594],[79.8964,9.7559]]],[[[79.8512,9.6993],[79.8868,9.6968],[79.9108,9.6559],[79.9084,9.6712],[79.9334,9.6776],[79.9271,9.6624],[79.9831,9.6203],[79.9701,9.6115],[79.9249,9.6329],[79.9068,9.6135],[79.8743,9.6348],[79.8766,9.6666],[79.8611,9.6581],[79.8512,9.6993]]],[[[67.3303,24.2515],[67.3301,24.2525],[67.3341,24.2553],[67.3303,24.2515]]],[[[67.3217,24.3199],[67.3169,24.3156],[67.3222,24.321],[67.3217,24.3199]]],[[[67.3209,24.3248],[67.3226,24.3222],[67.3222,24.321],[67.3209,24.3248]]],[[[67.298,24.299],[67.3019,24.3046],[67.3032,24.3044],[67.298,24.299]]],[[[67.3044,24.3043],[67.3063,24.3018],[67.3032,24.3044],[67.3044,24.3043]]],[[[67.3203,24.5757],[67.3234,24.5791],[67.3233,24.5788],[67.3203,24.5757]]],[[[67.3247,24.7745],[67.2992,24.7829],[67.3246,24.7757],[67.3247,24.7745]]],[[[67.0911,24.7892],[67.0908,24.7921],[67.0908,24.7921],[67.0911,24.7892]]],[[[66.98,24.8095],[66.9823,24.8146],[66.9828,24.8149],[66.98,24.8095]]],[[[67.2397,24.7974],[67.245,24.7941],[67.2457,24.7929],[67.2397,24.7974]]],[[[67.099,24.7799],[67.0932,24.7914],[67.0933,24.7914],[67.099,24.7799]]],[[[67.2464,24.7918],[67.2449,24.7891],[67.2457,24.7929],[67.2464,24.7918]]],[[[67.3146,24.5569],[67.3055,24.5556],[67.3149,24.5579],[67.3146,24.5569]]],[[[67.3149,24.5579],[67.2996,24.5771],[67.3152,24.5589],[67.3149,24.5579]]],[[[66.9689,24.8275],[66.9696,24.8286],[66.9733,24.8304],[66.9689,24.8275]]],[[[66.9351,24.8375],[66.936,24.8372],[66.9349,24.8375],[66.9351,24.8375]]],[[[66.9122,24.8505],[66.9119,24.8495],[66.9122,24.8506],[66.9122,24.8505]]],[[[66.9793,24.8584],[66.9784,24.8586],[66.9793,24.8584],[66.9793,24.8584]]],[[[66.722,24.8918],[66.7117,24.8801],[66.7217,24.893],[66.722,24.8918]]],[[[66.7217,24.893],[66.7156,24.8926],[66.7214,24.8943],[66.7217,24.893]]],[[[66.9122,24.8507],[66.9125,24.852],[66.919,24.8549],[66.9122,24.8507]]],[[[66.9709,24.8542],[66.9714,24.8552],[66.9739,24.8555],[66.9709,24.8542]]],[[[66.6988,24.9739],[66.6938,24.9932],[66.6988,24.9748],[66.6988,24.9739]]],[[[67.083,25.3348],[67.0632,25.3348],[67.0731,25.3439],[67.083,25.3348]]],[[[66.5264,25.4114],[66.522,25.4082],[66.5265,25.4116],[66.5264,25.4114]]],[[[65.9269,25.4122],[65.9401,25.4143],[65.9332,25.4131],[65.9269,25.4122]]],[[[65.9506,25.4137],[65.9413,25.4145],[65.9424,25.4147],[65.9506,25.4137]]],[[[66.5736,25.3687],[66.5704,25.3687],[66.5745,25.3693],[66.5736,25.3687]]],[[[66.5799,25.374],[66.5794,25.3729],[66.5745,25.3693],[66.5799,25.374]]],[[[66.0391,25.4266],[66.0662,25.4332],[66.0539,25.4301],[66.0391,25.4266]]],[[[66.4993,25.4318],[66.4984,25.4322],[66.4972,25.4339],[66.4993,25.4318]]],[[[66.1599,25.4538],[66.1988,25.46],[66.1828,25.4574],[66.1599,25.4538]]],[[[66.1419,25.4817],[66.1392,25.4821],[66.1393,25.4821],[66.1419,25.4817]]],[[[66.097,25.4755],[66.0988,25.4753],[66.0946,25.4771],[66.097,25.4755]]],[[[66.4479,25.4283],[66.4361,25.4336],[66.4174,25.4421],[66.4479,25.4283]]],[[[66.012,25.4409],[66.0092,25.4368],[66.0112,25.4413],[66.012,25.4409]]],[[[66.024,25.4341],[66.0238,25.4437],[66.0238,25.4437],[66.024,25.4341]]],[[[65.9549,25.4132],[65.996,25.4206],[65.997,25.4206],[65.9822,25.418],[65.9549,25.4132]]],[[[66.4198,25.4888],[66.4096,25.4903],[66.4139,25.4897],[66.4198,25.4888]]],[[[66.3962,25.5042],[66.3962,25.5042],[66.4058,25.5062],[66.3962,25.5042]]],[[[66.1338,25.5128],[66.1307,25.5213],[66.1338,25.5129],[66.1338,25.5128]]],[[[66.3637,25.5228],[66.3626,25.5231],[66.38,25.5249],[66.3637,25.5228]]],[[[66.207,25.4931],[66.2145,25.4958],[66.2237,25.4991],[66.207,25.4931]]],[[[66.4052,25.5019],[66.4043,25.4961],[66.4058,25.5062],[66.4052,25.5019]]],[[[66.5414,25.5389],[66.5458,25.5391],[66.5456,25.539],[66.5414,25.5389]]],[[[66.3141,25.5377],[66.2898,25.5434],[66.3141,25.5377],[66.3141,25.5377]]],[[[66.5492,25.541],[66.5527,25.5438],[66.5535,25.5428],[66.5492,25.541]]],[[[66.3168,25.5418],[66.315,25.5426],[66.3166,25.5422],[66.3168,25.5418]]],[[[66.5286,25.5483],[66.5216,25.5547],[66.5215,25.5549],[66.5286,25.5483]]],[[[66.1662,25.5703],[66.1615,25.5672],[66.1727,25.5751],[66.1662,25.5703]]],[[[66.4949,25.5833],[66.4919,25.5851],[66.493,25.5853],[66.4949,25.5833]]],[[[66.2344,25.5986],[66.2345,25.5999],[66.2386,25.6011],[66.2344,25.5986]]],[[[66.5105,25.6027],[66.5101,25.6034],[66.5124,25.6044],[66.5105,25.6027]]],[[[66.3105,25.61],[66.3276,25.6103],[66.3245,25.6102],[66.3105,25.61]]],[[[66.467,25.6025],[66.4689,25.5955],[66.4663,25.6031],[66.467,25.6025]]],[[[66.4627,25.603],[66.4601,25.6028],[66.4663,25.6031],[66.4627,25.603]]],[[[66.3449,25.6168],[66.3414,25.6177],[66.3414,25.6178],[66.3449,25.6168]]],[[[66.5401,25.6201],[66.5369,25.6204],[66.539,25.6208],[66.5401,25.6201]]],[[[66.5429,25.6144],[66.5402,25.6064],[66.5428,25.6148],[66.5429,25.6144]]],[[[66.5401,25.6201],[66.5413,25.6194],[66.5428,25.6148],[66.5401,25.6201]]],[[[66.5253,25.6342],[66.525,25.6338],[66.5253,25.6342],[66.5253,25.6342]]],[[[66.5421,25.6412],[66.5399,25.6339],[66.5417,25.6419],[66.5421,25.6412]]],[[[66.5265,25.6356],[66.5302,25.6403],[66.5311,25.6408],[66.5265,25.6356]]],[[[66.5381,25.6439],[66.5393,25.6442],[66.5417,25.6419],[66.5381,25.6439]]],[[[66.4581,25.6057],[66.4581,25.6057],[66.4587,25.6093],[66.4581,25.6057]]],[[[66.5031,25.5854],[66.5029,25.5853],[66.5064,25.5917],[66.5031,25.5854]]],[[[66.2276,25.5899],[66.2315,25.5903],[66.2314,25.5902],[66.2276,25.5899]]],[[[66.1964,25.6014],[66.1846,25.5944],[66.1901,25.5993],[66.1964,25.6014]]],[[[66.5143,25.4817],[66.5144,25.4827],[66.5164,25.4851],[66.5143,25.4817]]],[[[66.1629,25.4842],[66.1727,25.4856],[66.1723,25.4855],[66.1629,25.4842]]],[[[66.0919,25.4796],[66.0951,25.485],[66.0946,25.4771],[66.0919,25.4796]]],[[[66.0957,25.4861],[66.0997,25.4876],[66.0951,25.485],[66.0957,25.4861]]],[[[66.5564,25.4851],[66.5558,25.5032],[66.5566,25.4858],[66.5564,25.4851]]],[[[60.0072,37.0478],[60.0617,37.0139],[60.1061,36.9369],[60.3331,36.6561],[60.3647,36.6455],[61.1572,36.65],[61.19,36.5678],[61.1603,36.4142],[61.2228,36.1711],[61.2011,36.0692],[61.2117,35.9375],[61.2622,35.8197],[61.2289,35.678],[61.2766,35.6072],[61.2886,35.5555],[61.1836,35.3486],[61.1072,35.2844],[61.0959,35.2262],[60.5506,35.1171],[60.0,35.3712],[60.0072,37.0478]]],[[[70.351,34.3534],[70.2137,34.3819],[70.0942,34.4629],[70.0153,34.5838],[69.9892,34.7202],[70.0169,34.859],[70.0972,34.9791],[70.2177,35.0587],[70.3596,35.0855],[70.5008,35.0554],[70.6194,34.973],[70.6953,34.8551],[70.7213,34.7131],[70.692,34.5759],[70.6134,34.4599],[70.4929,34.3803],[70.351,34.3534]]],[[[66.7277,37.3561],[66.6633,37.3357],[66.5941,37.3609],[66.526,37.3476],[66.5178,37.3808],[66.5599,37.4181],[66.7277,37.3561]]],[[[72.801,21.0412],[72.7968,21.0344],[72.7963,21.0353],[72.801,21.0412]]],[[[67.3981,24.2827],[67.3947,24.2869],[67.3957,24.2866],[67.3981,24.2827]]],[[[67.379,24.2777],[67.3934,24.2874],[67.3945,24.287],[67.379,24.2777]]],[[[67.4738,24.3217],[67.4737,24.3217],[67.4821,24.3228],[67.4738,24.3217]]],[[[67.5,24.3386],[67.5063,24.3449],[67.5075,24.3454],[67.5,24.3386]]],[[[67.4181,24.3646],[67.4232,24.3758],[67.4223,24.3736],[67.4181,24.3646]]],[[[67.458,24.3412],[67.4609,24.3361],[67.4573,24.3417],[67.458,24.3412]]],[[[67.4561,24.3415],[67.4485,24.3401],[67.4573,24.3417],[67.4561,24.3415]]],[[[67.4063,24.3944],[67.4094,24.395],[67.4016,24.397],[67.4063,24.3944]]],[[[67.3757,24.4337],[67.3747,24.4345],[67.3813,24.4393],[67.3757,24.4337]]],[[[67.3882,24.4423],[67.3887,24.4486],[67.3895,24.4493],[67.3882,24.4423]]],[[[67.3902,24.4501],[67.3932,24.4497],[67.3895,24.4493],[67.3902,24.4501]]],[[[67.3506,24.4634],[67.3508,24.4637],[67.3524,24.4645],[67.3506,24.4634]]],[[[67.3561,24.4919],[67.3553,24.5028],[67.3566,24.4926],[67.3561,24.4919]]],[[[67.4366,24.4788],[67.4372,24.4779],[67.435,24.4751],[67.4366,24.4788]]],[[[67.4342,24.4789],[67.428,24.4792],[67.4366,24.4788],[67.4342,24.4789]]],[[[67.4053,24.5121],[67.4131,24.517],[67.4131,24.517],[67.4053,24.5121]]],[[[67.3924,24.5125],[67.3949,24.5053],[67.3915,24.5151],[67.3924,24.5125]]],[[[67.3919,24.5161],[67.3958,24.5164],[67.3915,24.5151],[67.3919,24.5161]]],[[[67.3915,24.5444],[67.3891,24.547],[67.3891,24.5471],[67.3915,24.5444]]],[[[67.3749,24.5387],[67.3729,24.5434],[67.3734,24.5442],[67.3749,24.5387]]],[[[67.3734,24.5442],[67.3739,24.5449],[67.3767,24.545],[67.3734,24.5442]]],[[[67.3368,24.5888],[67.3375,24.5897],[67.341,24.5989],[67.3381,24.5905],[67.3368,24.5888]]],[[[67.3989,24.6357],[67.3901,24.6381],[67.3991,24.6357],[67.3989,24.6357]]],[[[67.3915,24.7085],[67.3921,24.7163],[67.3928,24.7155],[67.3915,24.7085]]],[[[67.392,24.7164],[67.3872,24.7176],[67.3914,24.7171],[67.392,24.7164]]],[[[67.4658,24.7546],[67.4625,24.7567],[67.467,24.7541],[67.4658,24.7546]]],[[[67.467,24.7542],[67.4706,24.759],[67.4681,24.7538],[67.467,24.7542]]],[[[67.4271,24.7692],[67.4335,24.772],[67.4336,24.7715],[67.4271,24.7692]]],[[[67.4631,24.7747],[67.4634,24.7761],[67.4609,24.7801],[67.4637,24.7775],[67.4631,24.7747]]],[[[67.3521,24.555],[67.361,24.5606],[67.3541,24.5562],[67.3521,24.555]]],[[[68.2528,25.1321],[68.233,25.1321],[68.2429,25.1411],[68.2528,25.1321]]],[[[68.7676,26.0523],[68.7476,26.0523],[68.7576,26.0614],[68.7676,26.0523]]],[[[75.132,32.8216],[75.1107,32.8216],[75.1214,32.8306],[75.132,32.8216]]],[[[74.2119,33.5391],[74.1903,33.5391],[74.2011,33.5481],[74.2119,33.5391]]],[[[70.7331,28.7507],[70.7127,28.7507],[70.7229,28.7597],[70.7331,28.7507]]],[[[72.7141,29.5461],[72.6934,29.5461],[72.7038,29.5552],[72.7141,29.5461]]],[[[69.1423,29.9673],[69.1216,29.9673],[69.132,29.9763],[69.1423,29.9673]]]]}}