{"type":"Feature","properties":{"speciesId":45,"category":"LC","source":"IUCN Red List","simplifyTol":0.01,"clippedToSubcontinent":true},"geometry":{"type":"Polygon","coordinates":[[[77.0278,8.6342],[76.9768,8.698],[76.9449,8.8064],[76.9258,9.2144],[76.7409,10.126],[76.5624,10.7189],[76.4541,10.9675],[76.1927,11.4201],[76.0779,11.8409],[75.7911,12.3891],[75.1217,13.2434],[74.9623,13.5112],[74.6818,13.8108],[74.6308,13.9765],[74.7009,14.0722],[74.8284,14.053],[75.1344,13.8937],[75.2747,13.7343],[75.3639,13.6004],[75.6699,13.0139],[75.8166,12.7844],[76.2054,12.4593],[76.4031,12.3509],[76.7601,12.2425],[76.9959,12.2106],[77.3848,12.268],[77.5761,12.4019],[77.8438,12.472],[78.016,12.4019],[78.1562,12.2298],[78.2773,12.0385],[78.4112,11.6114],[78.475,11.3118],[78.4558,11.0568],[78.3985,10.7763],[78.2773,10.4575],[78.0287,10.0112],[77.8438,9.7244],[77.6845,9.3929],[77.5506,9.1761],[77.4103,8.9594],[77.2764,8.7872],[77.0278,8.6342]]]}}