{"type":"Feature","properties":{"speciesId":451,"category":"DD","source":"IUCN Red List","simplifyTol":0.01,"clippedToSubcontinent":true},"geometry":{"type":"Polygon","coordinates":[[[77.8904,8.7963],[77.7782,8.3474],[77.2523,8.1687],[76.9771,8.3876],[76.6206,8.8431],[76.5533,8.8884],[76.3191,9.9187],[76.3191,10.592],[76.3753,11.546],[77.0486,13.6784],[77.9465,15.7547],[78.5638,16.5403],[78.9005,16.5403],[79.1249,16.4281],[79.181,15.923],[78.8443,15.1374],[78.8443,13.7906],[78.9005,12.9489],[78.9566,11.6582],[78.171,10.4798],[77.8904,9.3014],[77.8904,8.7963]]]}}