{"type":"Feature","properties":{"speciesId":453,"category":"NT","source":"IUCN Red List","simplifyTol":0.01,"clippedToSubcontinent":true},"geometry":{"type":"MultiPolygon","coordinates":[[[[93.6052,8.4193],[93.6009,8.4303],[93.6014,8.45],[93.6108,8.4341],[93.6052,8.4193]]],[[[93.1834,8.201],[93.1553,8.2078],[93.1598,8.2373],[93.1872,8.2212],[93.1834,8.201]]],[[[93.5817,8.1185],[93.5799,8.0731],[93.5745,8.1228],[93.5817,8.1185]]],[[[93.5464,8.0824],[93.5229,8.0316],[93.5052,8.0296],[93.4989,7.9927],[93.4755,8.0822],[93.5244,8.105],[93.5464,8.0824]]],[[[93.3758,7.9823],[93.3565,7.9952],[93.3713,8.0189],[93.4068,7.9943],[93.3758,7.9823]]]]}}