{"type":"Feature","properties":{"speciesId":454,"category":"LC","source":"IUCN Red List","simplifyTol":0.01,"clippedToSubcontinent":true},"geometry":{"type":"MultiPolygon","coordinates":[[[[67.4014,24.0464],[67.378,24.0657],[67.3955,24.0633],[67.371,24.0874],[67.3626,24.1324],[67.4118,24.1233],[67.4245,24.1302],[67.3828,24.1326],[67.3453,24.1558],[67.3347,24.1763],[67.3545,24.1828],[67.3346,24.2141],[67.342,24.2352],[67.3625,24.2386],[67.4125,24.2296],[67.4208,24.2098],[67.4312,24.2214],[67.4317,24.2472],[67.4212,24.2167],[67.4143,24.234],[67.3501,24.2542],[67.3613,24.2757],[67.3814,24.2732],[67.3934,24.2874],[67.3585,24.2837],[67.3259,24.2449],[67.2972,24.3074],[67.3299,24.3339],[67.3596,24.2907],[67.3386,24.3323],[67.3466,24.3428],[67.4109,24.3113],[67.4421,24.3161],[67.449,24.3322],[67.4906,24.3218],[67.5146,24.3424],[67.5291,24.3345],[67.5124,24.3526],[67.4873,24.3263],[67.4566,24.3422],[67.4343,24.3227],[67.3665,24.351],[67.369,24.3857],[67.4177,24.3865],[67.4229,24.3603],[67.4278,24.3918],[67.4158,24.4014],[67.3605,24.3877],[67.3491,24.4005],[67.4169,24.4368],[67.4646,24.4235],[67.4727,24.4269],[67.3902,24.4501],[67.3753,24.4341],[67.3834,24.4544],[67.3604,24.4608],[67.4009,24.4844],[67.4218,24.4644],[67.4504,24.4602],[67.455,24.4655],[67.436,24.4797],[67.4213,24.4707],[67.4039,24.5064],[67.412,24.5215],[67.3919,24.5161],[67.4022,24.493],[67.3743,24.4721],[67.3424,24.4591],[67.3099,24.4622],[67.3258,24.4653],[67.3282,24.4852],[67.3523,24.4797],[67.3702,24.5304],[67.3975,24.5246],[67.3987,24.5468],[67.3684,24.536],[67.3552,24.546],[67.3807,24.571],[67.4136,24.5857],[67.4396,24.5746],[67.4071,24.5894],[67.3234,24.5491],[67.304,24.5532],[67.3152,24.5589],[67.299,24.5815],[67.3203,24.5757],[67.3231,24.5906],[67.371,24.6081],[67.3838,24.6377],[67.4069,24.6358],[67.4143,24.6494],[67.4405,24.6404],[67.4532,24.6537],[67.4416,24.6479],[67.4203,24.6727],[67.4344,24.6857],[67.4325,24.6982],[67.3932,24.7046],[67.3515,24.7423],[67.3493,24.7629],[67.4528,24.7761],[67.4681,24.7538],[67.4637,24.7775],[67.3755,24.7834],[67.3296,24.7712],[67.2746,24.7903],[67.2456,24.7849],[67.2199,24.8141],[67.174,24.781],[67.1547,24.7937],[67.1224,24.7788],[67.1049,24.7976],[67.1023,24.7781],[67.0908,24.7921],[67.0931,24.7569],[67.0217,24.8083],[66.9758,24.8108],[66.9736,24.8306],[66.9627,24.825],[66.9825,24.8579],[66.9538,24.861],[66.9122,24.8447],[66.9578,24.8259],[66.9792,24.7917],[66.862,24.8569],[66.8191,24.8344],[66.7562,24.8438],[66.6833,24.8214],[66.6514,24.8294],[66.6843,24.8757],[66.722,24.8918],[66.6869,24.8927],[66.6754,24.9236],[66.7004,24.9496],[66.7041,25.0826],[66.7386,25.1422],[66.742,25.1833],[66.6783,25.2711],[66.5501,25.3652],[66.5553,25.3922],[66.5794,25.3729],[66.5783,25.4114],[66.5942,25.425],[66.56,25.4529],[66.5576,25.5381],[66.5289,25.5422],[66.5159,25.5634],[66.5429,25.6144],[66.5393,25.6442],[66.5028,25.5774],[66.4799,25.5877],[66.4672,25.5699],[66.4552,25.6194],[66.4454,25.5972],[66.3991,25.5835],[66.3676,25.6159],[66.3105,25.6101],[66.2969,25.6239],[66.2322,25.5904],[66.1901,25.5993],[66.1337,25.5443],[66.1328,25.5079],[66.0919,25.4796],[66.1956,25.4889],[66.2848,25.5421],[66.3141,25.5377],[66.3088,25.5465],[66.3349,25.5532],[66.358,25.5248],[66.3972,25.5216],[66.3943,25.5066],[66.4265,25.4826],[66.4752,25.4996],[66.5174,25.4921],[66.4928,25.4478],[66.5284,25.4158],[66.5199,25.4065],[66.3219,25.4669],[66.1256,25.4507],[66.0391,25.4266],[66.0112,25.4413],[66.3503,25.9564],[67.2289,25.9056],[67.5,25.9248],[68.2369,26.2714],[68.7384,26.6781],[69.5665,27.392],[70.1661,28.1058],[70.3945,28.2914],[70.5944,28.2914],[71.3939,28.5769],[71.7651,28.8339],[72.1077,28.6055],[71.9217,28.1009],[71.5922,27.6413],[71.934,27.3941],[72.6443,26.6098],[72.6887,26.3977],[72.4026,26.1609],[71.7811,25.939],[70.9031,25.5641],[70.735,25.4396],[70.6658,24.8364],[70.425,24.565],[70.3075,24.3644],[69.3255,24.2465],[68.787,23.6157],[68.7032,23.6108],[68.4808,23.6478],[68.5457,23.7129],[68.6186,23.7489],[68.6581,23.7992],[68.6794,23.7916],[68.7146,23.8241],[68.766,23.8422],[68.7823,23.8606],[68.7697,23.876],[68.7628,23.8511],[68.726,23.8369],[68.6554,23.8397],[68.5235,23.7464],[68.5192,23.7731],[68.4902,23.7327],[68.4632,23.7386],[68.4329,23.7338],[68.3763,23.619],[68.3827,23.6079],[68.3096,23.5672],[68.2657,23.5683],[68.2784,23.6004],[68.2649,23.6325],[68.2594,23.6394],[68.225,23.6457],[68.2611,23.6547],[68.3259,23.726],[68.291,23.7243],[68.2403,23.6712],[68.1867,23.723],[68.2112,23.7699],[68.2074,23.8372],[68.2221,23.8313],[68.2408,23.8494],[68.2556,23.835],[68.2675,23.8377],[68.2573,23.8761],[68.2747,23.9179],[68.3065,23.9135],[68.3188,23.9236],[68.2745,23.9372],[68.2377,23.9002],[68.1856,23.8863],[68.1889,23.8501],[68.1361,23.8696],[68.1421,23.8397],[68.1035,23.8555],[68.1044,23.8432],[68.076,23.8332],[68.053,23.8538],[68.0553,23.903],[68.042,23.9119],[68.0277,23.8693],[68.0446,23.7949],[67.9962,23.7867],[67.9202,23.8517],[67.9298,23.829],[67.872,23.8586],[67.8653,23.9016],[67.9027,23.9647],[67.8939,23.9751],[67.8456,23.9092],[67.8274,23.8136],[67.709,23.8562],[67.7502,23.8015],[67.652,23.7945],[67.6269,23.8088],[67.6254,23.8429],[67.5834,23.8394],[67.5762,23.889],[67.5651,23.8683],[67.5355,23.893],[67.5335,23.8746],[67.4655,23.9066],[67.4661,23.9215],[67.491,23.9139],[67.4855,23.9374],[67.4661,23.9454],[67.5007,23.9699],[67.4224,23.9449],[67.4365,23.9907],[67.4083,24.0],[67.4218,24.0024],[67.4092,24.0392],[67.438,24.0636],[67.4181,24.0862],[67.4465,24.1203],[67.4088,24.084],[67.405,24.0764],[67.4014,24.0464]]],[[[66.3614,25.5854],[66.35,25.5891],[66.351,25.5923],[66.3614,25.5854]]],[[[66.3817,25.5807],[66.3694,25.5874],[66.3709,25.5899],[66.3817,25.5807]]],[[[66.1976,25.5373],[66.1624,25.5407],[66.2052,25.5732],[66.1938,25.5568],[66.1976,25.5373]]],[[[66.3873,25.5655],[66.3798,25.5631],[66.3842,25.5685],[66.3873,25.5655]]],[[[66.3516,25.5599],[66.3428,25.5618],[66.3439,25.5636],[66.3516,25.5599]]],[[[66.4226,25.522],[66.3967,25.5379],[66.3953,25.552],[66.4199,25.5522],[66.4226,25.522]]],[[[66.5279,25.4597],[66.5058,25.4565],[66.5285,25.467],[66.5279,25.4597]]],[[[66.0062,25.4208],[66.0097,25.4352],[66.0192,25.4255],[66.0062,25.4208]]],[[[66.6188,24.8954],[66.5961,24.8909],[66.6062,24.9055],[66.6188,24.8954]]],[[[67.2318,24.7917],[67.2117,24.8024],[67.2118,24.8053],[67.2264,24.8008],[67.2318,24.7917]]],[[[67.2278,24.7852],[67.1825,24.7512],[67.1645,24.7607],[67.1653,24.7763],[67.2278,24.7852]]],[[[67.2889,24.7778],[67.257,24.7509],[67.2367,24.7796],[67.2711,24.7862],[67.2889,24.7778]]],[[[67.2966,24.7716],[67.3419,24.7556],[67.326,24.7352],[67.3107,24.7466],[67.2504,24.7126],[67.2352,24.7209],[67.2966,24.7716]]],[[[67.189,24.7043],[67.1788,24.7357],[67.2414,24.7576],[67.2482,24.7424],[67.1991,24.7243],[67.189,24.7043]]],[[[67.1515,24.7393],[67.144,24.6931],[67.1329,24.6917],[67.1134,24.747],[67.1371,24.7553],[67.1515,24.7393]]],[[[67.3297,24.7274],[67.3465,24.7355],[67.3915,24.6966],[67.3402,24.6922],[67.3272,24.677],[67.2873,24.6917],[67.295,24.6711],[67.2725,24.6681],[67.271,24.6536],[67.2723,24.6789],[67.2481,24.6771],[67.2173,24.7161],[67.2545,24.7063],[67.2949,24.7361],[67.3297,24.7274]]],[[[67.2449,24.6676],[67.2223,24.6678],[67.1878,24.6946],[67.2122,24.7168],[67.2449,24.6676]]],[[[67.4158,24.6699],[67.4357,24.6453],[67.412,24.6574],[67.3899,24.6492],[67.3699,24.6707],[67.3393,24.682],[67.4209,24.6984],[67.4158,24.6699]]],[[[67.1334,24.6779],[67.1159,24.6769],[67.1158,24.6905],[67.1334,24.6779]]],[[[67.3161,24.6635],[67.2911,24.6875],[67.3208,24.6697],[67.3161,24.6635]]],[[[67.2431,24.6614],[67.283,24.6271],[67.2655,24.5983],[67.2196,24.6208],[67.22,24.6389],[67.1793,24.6284],[67.1715,24.6634],[67.1831,24.6765],[67.2431,24.6614]]],[[[67.3449,24.6623],[67.3243,24.6406],[67.3066,24.6596],[67.3199,24.6586],[67.3343,24.6766],[67.3449,24.6623]]],[[[67.3467,24.6561],[67.3584,24.6667],[67.3688,24.6637],[67.3649,24.6521],[67.3467,24.6561]]],[[[67.3033,24.6622],[67.3054,24.6397],[67.2839,24.6348],[67.281,24.6615],[67.3033,24.6622]]],[[[67.3683,24.6182],[67.3476,24.6292],[67.3268,24.63],[67.3556,24.6445],[67.3725,24.6338],[67.3683,24.6182]]],[[[67.3353,24.6107],[67.3177,24.5827],[67.3143,24.6098],[67.3046,24.6121],[67.2933,24.5865],[67.3043,24.6318],[67.3353,24.6107]]],[[[67.348,24.6132],[67.3398,24.6175],[67.3479,24.6213],[67.348,24.6132]]],[[[67.3093,24.5925],[67.3017,24.5993],[67.3086,24.6039],[67.3093,24.5925]]],[[[67.2916,24.5787],[67.3029,24.5478],[67.2732,24.5249],[67.2499,24.5383],[67.2405,24.5284],[67.2163,24.5566],[67.2275,24.5772],[67.2916,24.5787]]],[[[67.3615,24.5249],[67.3505,24.5024],[67.3218,24.5255],[67.3043,24.5176],[67.2934,24.5293],[67.32,24.5467],[67.3615,24.5249]]],[[[67.3062,24.5103],[67.3027,24.471],[67.2567,24.4769],[67.2746,24.4961],[67.2676,24.5186],[67.288,24.5262],[67.3062,24.5103]]],[[[67.3364,24.4896],[67.3143,24.5079],[67.3191,24.5195],[67.348,24.4963],[67.3364,24.4896]]],[[[67.3163,24.4696],[67.31,24.4829],[67.3236,24.4969],[67.329,24.4923],[67.3163,24.4696]]],[[[67.3728,24.4528],[67.3059,24.4321],[67.2966,24.4417],[67.3085,24.4517],[67.3728,24.4528]]],[[[67.3529,24.4367],[67.3632,24.4118],[67.3416,24.4159],[67.3388,24.3912],[67.3054,24.3943],[67.3086,24.4156],[67.34,24.4177],[67.3104,24.428],[67.3529,24.4367]]],[[[67.3914,24.4242],[67.3774,24.4338],[67.3951,24.4296],[67.3914,24.4242]]],[[[67.3154,24.3647],[67.3104,24.3831],[67.3332,24.382],[67.3337,24.3733],[67.3154,24.3647]]],[[[67.3591,24.3603],[67.3371,24.3642],[67.3557,24.3838],[67.3591,24.3603]]],[[[67.4129,24.0593],[67.413,24.0806],[67.4223,24.0653],[67.4129,24.0593]]],[[[67.391,23.9794],[67.4239,23.9778],[67.4094,23.9572],[67.391,23.9794]]],[[[68.224,23.8419],[68.2062,23.8482],[68.2094,23.867],[68.2387,23.8734],[68.246,23.86],[68.224,23.8419]]],[[[68.2576,23.8557],[68.2474,23.8543],[68.2581,23.8653],[68.2576,23.8557]]],[[[68.1913,23.7876],[68.1483,23.7247],[68.1589,23.7199],[68.15,23.6986],[68.1309,23.695],[68.1034,23.727],[68.0914,23.7184],[68.1074,23.6977],[68.0571,23.7166],[68.034,23.7076],[68.0705,23.7478],[68.074,23.7953],[68.1177,23.8314],[68.1551,23.8173],[68.1729,23.8229],[68.1674,23.8444],[68.1836,23.8426],[68.1913,23.7876]]],[[[68.6373,23.7816],[68.6283,23.7828],[68.6391,23.7899],[68.6373,23.7816]]],[[[68.6101,23.7728],[68.5693,23.7576],[68.6114,23.7804],[68.6101,23.7728]]],[[[68.5914,23.7415],[68.5774,23.741],[68.5917,23.7475],[68.5914,23.7415]]],[[[68.4692,23.7178],[68.4586,23.7341],[68.4824,23.7252],[68.4692,23.7178]]],[[[68.4731,23.6881],[68.4681,23.7086],[68.5031,23.716],[68.4903,23.6983],[68.4731,23.6881]]],[[[68.2007,23.6424],[68.2567,23.6335],[68.2627,23.6088],[68.2451,23.5773],[68.2153,23.5952],[68.2219,23.5722],[68.1868,23.5809],[68.1659,23.6031],[68.1719,23.6289],[68.2007,23.6424]]],[[[68.2354,23.5803],[68.2231,23.5812],[68.2215,23.5869],[68.2354,23.5803]]]]}}