{"type":"Feature","properties":{"speciesId":455,"category":"LC","source":"IUCN Red List","simplifyTol":0.01,"clippedToSubcontinent":true},"geometry":{"type":"MultiPolygon","coordinates":[[[[67.3674,24.1038],[67.3626,24.1324],[67.403,24.1253],[67.3674,24.1038]]],[[[70.0713,31.7667],[70.7652,31.1548],[71.2591,30.843],[72.2339,30.7047],[73.025,30.0503],[73.1985,29.9229],[72.6142,29.2661],[72.1347,28.8062],[70.8593,28.6159],[69.8605,28.2008],[69.3936,27.4547],[68.9711,26.9208],[68.5775,25.5208],[68.4418,24.7516],[67.4092,24.129],[67.3828,24.1326],[67.3382,24.1645],[67.3368,24.1806],[67.3545,24.1828],[67.3371,24.2265],[67.4016,24.2334],[67.4208,24.2098],[67.4312,24.2214],[67.4317,24.2472],[67.4212,24.2167],[67.4143,24.234],[67.3501,24.2542],[67.3613,24.2757],[67.3814,24.2732],[67.3934,24.2874],[67.3585,24.2837],[67.3259,24.2449],[67.2972,24.3074],[67.3299,24.3339],[67.3596,24.2907],[67.3386,24.3323],[67.3466,24.3428],[67.4109,24.3113],[67.4421,24.3161],[67.449,24.3322],[67.4906,24.3218],[67.5146,24.3424],[67.5291,24.3345],[67.5124,24.3526],[67.4873,24.3263],[67.4566,24.3422],[67.4343,24.3227],[67.3665,24.351],[67.369,24.3857],[67.4177,24.3865],[67.4229,24.3603],[67.4278,24.3918],[67.4158,24.4014],[67.3605,24.3877],[67.3491,24.4005],[67.4169,24.4368],[67.4646,24.4235],[67.4727,24.4269],[67.3902,24.4501],[67.3753,24.4341],[67.3834,24.4544],[67.3604,24.4608],[67.4009,24.4844],[67.4218,24.4644],[67.4504,24.4602],[67.455,24.4655],[67.436,24.4797],[67.4213,24.4707],[67.4039,24.5064],[67.412,24.5215],[67.3919,24.5161],[67.4022,24.493],[67.3743,24.4721],[67.3424,24.4591],[67.3099,24.4622],[67.3258,24.4653],[67.3282,24.4852],[67.3523,24.4797],[67.3702,24.5304],[67.3975,24.5246],[67.3987,24.5468],[67.3684,24.536],[67.3552,24.546],[67.3807,24.571],[67.4136,24.5857],[67.4396,24.5746],[67.4071,24.5894],[67.3234,24.5491],[67.304,24.5532],[67.3152,24.5589],[67.299,24.5815],[67.3203,24.5757],[67.3231,24.5906],[67.371,24.6081],[67.3838,24.6377],[67.4069,24.6358],[67.4143,24.6494],[67.4405,24.6404],[67.4532,24.6537],[67.4416,24.6479],[67.4203,24.6727],[67.4325,24.6982],[67.3932,24.7046],[67.3515,24.7423],[67.3493,24.7629],[67.4528,24.7761],[67.4681,24.7538],[67.4637,24.7775],[67.3755,24.7834],[67.3296,24.7712],[67.2456,24.7849],[67.2199,24.8141],[67.174,24.781],[67.1547,24.7937],[67.1224,24.7788],[67.1049,24.7976],[67.1023,24.7781],[67.0908,24.7921],[67.0931,24.7569],[67.0217,24.8083],[66.9758,24.8108],[66.9736,24.8306],[66.9627,24.825],[66.9825,24.8579],[66.9538,24.861],[66.9122,24.8447],[66.9578,24.8259],[66.9792,24.7917],[66.862,24.8569],[66.8191,24.8344],[66.7562,24.8438],[66.6833,24.8214],[66.6514,24.8294],[66.6843,24.8757],[66.722,24.8918],[66.6869,24.8927],[66.6754,24.9236],[66.7004,24.9496],[66.7041,25.0826],[66.7441,25.1675],[66.6783,25.2711],[66.5539,25.3583],[66.5553,25.3922],[66.5794,25.3729],[66.5818,25.4152],[65.2281,25.3283],[65.2137,25.3133],[65.1564,25.3061],[65.0392,25.3162],[64.4062,25.8747],[63.6258,26.4077],[63.2764,26.8893],[63.1499,27.4356],[62.9953,28.4369],[62.7692,28.8252],[62.4726,29.1592],[61.7105,29.2898],[61.2826,29.477],[60.8547,29.798],[60.614,30.1991],[60.4001,31.1351],[60.1861,33.0072],[60.2129,33.7292],[60.3733,34.0769],[60.6408,34.1571],[60.6942,33.9432],[60.6942,33.7292],[60.9884,33.649],[61.0152,33.3014],[61.1756,32.499],[61.4163,32.0444],[62.593,31.5095],[64.4918,31.4293],[65.936,31.3491],[66.4976,31.2688],[66.7383,30.9479],[66.7298,30.9162],[67.5,30.3229],[68.3416,29.8343],[69.108,29.0537],[69.743,29.7158],[70.1311,30.7453],[69.9108,31.6386],[70.0713,31.7667]]]]}}