{"type":"Feature","properties":{"speciesId":456,"category":"VU","source":"IUCN Red List","simplifyTol":0.01,"clippedToSubcontinent":true},"geometry":{"type":"MultiPolygon","coordinates":[[[[93.1269,8.3321],[93.1148,8.275],[93.1821,8.2281],[93.1834,8.201],[93.1097,8.2255],[93.0744,8.2767],[93.0889,8.347],[93.1143,8.3577],[93.1269,8.3321]]],[[[93.0416,8.4417],[93.0237,8.4516],[93.0301,8.471],[93.0422,8.4652],[93.0416,8.4417]]],[[[92.8519,8.8165],[92.8485,8.8282],[92.8608,8.8389],[92.8519,8.8165]]],[[[92.7806,9.1256],[92.7737,9.1384],[92.7278,9.1193],[92.7115,9.1515],[92.8075,9.2113],[92.8221,9.1389],[92.7964,9.1204],[92.7672,9.1248],[92.7806,9.1256]]],[[[75.8469,13.5408],[75.877,13.4656],[75.8615,13.3768],[75.9857,12.9511],[76.0877,12.3032],[76.1591,11.6674],[76.2682,11.5809],[76.4338,11.5358],[76.6068,11.5433],[76.7836,11.5094],[76.9228,11.5245],[76.998,11.4906],[76.9717,11.3853],[76.7497,11.2875],[76.7272,11.1709],[76.7573,11.058],[76.9566,10.6254],[77.1899,10.4373],[77.299,10.3922],[77.4457,10.3809],[77.6037,10.3959],[77.7241,10.4749],[77.8068,10.4787],[77.866,10.4321],[77.9084,10.3508],[77.9015,10.2547],[77.8708,10.1627],[77.694,9.9709],[77.5849,9.8881],[77.6354,9.7226],[77.5585,9.5834],[77.4226,9.5097],[77.3215,9.2147],[77.2613,8.9063],[77.3366,8.6693],[77.3694,8.6228],[77.4983,8.5376],[77.5849,8.4285],[77.5811,8.2818],[77.5397,8.2028],[77.4193,8.2216],[77.1297,8.3533],[76.8852,8.6128],[76.7422,8.8799],[76.6243,9.3323],[76.5001,9.6871],[76.2695,10.2547],[76.0567,11.2659],[75.968,11.4965],[75.8261,11.6206],[75.6664,11.798],[75.5068,12.1528],[75.3842,12.2881],[75.3294,12.4011],[75.3278,12.4762],[75.3767,12.5101],[75.4933,12.5515],[75.5422,12.6495],[75.5949,12.6944],[75.625,12.7508],[75.6062,12.8261],[75.5535,12.9013],[75.4594,12.9765],[75.2052,13.0752],[75.0456,13.2349],[74.9746,13.4655],[74.9569,13.6961],[74.5311,14.0154],[74.4779,14.2637],[74.3537,14.5653],[74.2473,14.7604],[74.1004,14.8734],[74.0737,14.9096],[74.0447,14.9149],[74.0487,14.9568],[74.0298,14.9815],[74.0476,14.9848],[73.9865,15.0221],[73.9315,15.1893],[73.9457,15.2749],[73.8567,15.402],[73.8757,15.3984],[73.8899,15.4192],[73.8216,15.4522],[73.7861,15.5942],[73.7151,15.7183],[73.6797,15.8248],[73.6763,16.0236],[73.8216,16.1795],[74.0187,16.2343],[74.2473,16.1795],[74.5843,16.0199],[74.7085,15.8602],[74.8504,15.4168],[75.1246,14.8424],[75.3116,14.3347],[75.5777,13.6961],[75.8469,13.5408]]],[[[90.2703,23.0487],[90.2711,23.0265],[90.3029,23.024],[90.3209,22.9927],[90.3123,22.9768],[90.2739,22.9687],[90.3559,22.915],[90.3456,22.884],[90.3205,22.8726],[90.3213,22.8502],[90.3726,22.7652],[90.3682,22.7366],[90.4195,22.7331],[90.4167,22.7138],[90.3964,22.729],[90.3831,22.7054],[90.4003,22.7234],[90.4204,22.7086],[90.4298,22.7305],[90.4193,22.7453],[90.378,22.7401],[90.3825,22.7586],[90.4243,22.7652],[90.4692,22.7349],[90.485,22.6991],[90.4769,22.6561],[90.4961,22.6723],[90.5193,22.6294],[90.5042,22.5879],[90.5187,22.5991],[90.5797,22.5261],[90.6132,22.3275],[90.5912,22.2573],[90.5588,22.2382],[90.5212,22.184],[90.5066,22.1851],[90.4373,22.0668],[90.4221,22.1192],[90.4427,22.1513],[90.4265,22.1505],[90.4192,22.1262],[90.4192,22.0904],[90.3882,22.0901],[90.3847,22.1054],[90.4039,22.1682],[90.4261,22.1813],[90.3999,22.2179],[90.4165,22.2648],[90.4035,22.2837],[90.4191,22.2895],[90.3788,22.2931],[90.4149,22.3387],[90.3642,22.2952],[90.406,22.271],[90.395,22.204],[90.4179,22.1836],[90.3986,22.1722],[90.3831,22.1366],[90.3408,22.1621],[90.3872,22.1955],[90.3873,22.2114],[90.3562,22.1794],[90.3438,22.1958],[90.3498,22.1792],[90.3338,22.1633],[90.3784,22.1309],[90.3751,22.1053],[90.3331,22.1088],[90.2616,22.0404],[90.2751,22.0358],[90.2707,22.0141],[90.278,21.9971],[90.2568,21.9557],[90.211,21.9825],[90.2196,21.9978],[90.2083,22.0027],[90.1962,21.9784],[90.2287,21.9716],[90.2343,21.9583],[90.2176,21.9508],[90.2644,21.95],[90.2587,21.9222],[90.2224,21.9191],[90.2373,21.9351],[90.2168,21.9187],[90.1148,21.9135],[90.15,21.9227],[90.1372,21.9485],[90.1685,21.9805],[90.1406,21.9702],[90.128,21.9914],[90.1418,21.9247],[90.096,21.9135],[90.0991,21.9413],[90.0725,22.0004],[90.0992,22.0506],[90.1633,22.1145],[90.2134,22.1142],[90.2283,22.1641],[90.2542,22.1638],[90.2717,22.1772],[90.2864,22.2071],[90.2723,22.2089],[90.2588,22.1722],[90.229,22.1724],[90.2401,22.1932],[90.2206,22.219],[90.2077,22.3093],[90.2269,22.3379],[90.2801,22.3408],[90.2896,22.3505],[90.2973,22.3714],[90.2696,22.3586],[90.2657,22.3711],[90.2809,22.4069],[90.3137,22.4635],[90.3413,22.4589],[90.3619,22.4905],[90.3405,22.4664],[90.3148,22.4741],[90.2586,22.3754],[90.2548,22.3443],[90.2223,22.3421],[90.1991,22.3026],[90.2097,22.2143],[90.2298,22.1915],[90.2032,22.1238],[90.1608,22.124],[90.0879,22.0555],[90.0515,21.9703],[90.0298,21.9971],[90.0275,21.9782],[90.0,21.9882],[89.993,22.0361],[90.0307,22.0628],[90.0436,22.1336],[90.0717,22.1533],[90.1399,22.1551],[90.0801,22.1586],[90.0257,22.189],[90.081,22.2209],[90.1116,22.2858],[90.1016,22.3424],[90.176,22.4215],[90.2018,22.4859],[90.206,22.5118],[90.1876,22.5225],[90.2028,22.5725],[90.1857,22.6255],[90.2519,22.6212],[90.2832,22.6302],[90.2942,22.6556],[90.2487,22.628],[90.181,22.6276],[90.1975,22.5675],[90.1819,22.5223],[90.1989,22.509],[90.1936,22.4802],[90.1725,22.4297],[90.095,22.3491],[90.1048,22.3039],[90.0669,22.2145],[90.025,22.1966],[90.0234,22.1724],[90.0633,22.1618],[90.0153,22.1191],[90.0183,22.0663],[89.9809,22.0416],[89.9896,21.991],[89.9644,21.9769],[89.9092,22.0731],[89.9175,22.136],[89.8787,22.2524],[89.9197,22.3718],[89.9847,22.4388],[90.0,22.487],[90.025,22.4901],[90.033,22.5719],[90.065,22.6087],[90.0571,22.6225],[90.0268,22.599],[90.0327,22.6527],[90.0038,22.6772],[90.028,22.6463],[90.0132,22.5988],[90.0307,22.5814],[90.0179,22.4945],[89.9546,22.5055],[89.9855,22.4868],[89.9872,22.466],[89.9102,22.3882],[89.8834,22.4052],[89.8834,22.4302],[89.8779,22.4031],[89.8987,22.3721],[89.8448,22.2487],[89.8905,22.1211],[89.8528,22.0679],[89.8188,22.066],[89.8533,22.0483],[89.8854,21.9055],[89.8584,21.8784],[89.8456,21.8859],[89.8445,21.8621],[89.7797,21.8474],[89.7896,21.879],[89.7542,21.8561],[89.7334,21.891],[89.7511,21.841],[89.7174,21.8334],[89.6842,21.8498],[89.6793,21.8366],[89.6586,21.8922],[89.6795,21.9049],[89.6554,21.9134],[89.6339,21.8679],[89.6693,21.8225],[89.6136,21.8099],[89.5634,21.8575],[89.5901,21.9386],[89.5607,21.9692],[89.5603,21.9911],[89.5311,21.9954],[89.5152,21.9904],[89.5251,21.9563],[89.5123,21.8993],[89.4971,21.9081],[89.4607,21.8522],[89.4337,21.8477],[89.4627,21.8461],[89.4712,21.8204],[89.4581,21.8139],[89.4707,21.8137],[89.4816,21.7801],[89.3647,21.7561],[89.3557,21.809],[89.3901,21.8865],[89.3899,21.9021],[89.3671,21.9046],[89.3181,21.8611],[89.3072,21.8207],[89.2867,21.8053],[89.2927,21.7564],[89.2312,21.7683],[89.2193,21.7572],[89.197,21.8047],[89.1643,21.79],[89.1079,21.8105],[89.1121,21.8547],[89.0887,21.908],[89.0948,21.9381],[89.0835,21.9386],[89.0634,21.9272],[89.0904,21.8542],[89.0866,21.8134],[89.1522,21.7414],[89.1374,21.7198],[89.1153,21.7204],[89.0518,21.7859],[89.0648,21.8682],[89.0397,21.9077],[89.001,21.9031],[88.9972,21.8895],[89.0372,21.8577],[89.0246,21.8014],[89.0356,21.7544],[89.0801,21.7081],[89.0891,21.6754],[89.0246,21.6638],[89.0039,21.6526],[89.0287,21.6545],[88.957,21.6297],[88.8989,21.6496],[88.8754,21.701],[88.88,21.7675],[88.8496,21.7251],[88.8692,21.6433],[88.8529,21.6161],[88.8139,21.631],[88.8229,21.6604],[88.7594,21.6566],[88.7242,21.6805],[88.6993,21.7411],[88.7229,21.8073],[88.6998,21.8403],[88.7311,21.9353],[88.7291,21.976],[88.7903,22.0183],[88.7667,22.0237],[88.7594,22.0503],[88.7747,22.0519],[88.7486,22.0659],[88.7157,22.0484],[88.7415,22.0282],[88.735,22.007],[88.6685,22.0226],[88.6445,22.118],[88.631,22.1198],[88.6214,22.105],[88.6438,22.046],[88.6084,21.972],[88.6202,21.9377],[88.5852,21.9852],[88.5792,21.9633],[88.611,21.9322],[88.6096,21.9095],[88.5833,21.8856],[88.5618,21.814],[88.5031,21.8849],[88.5315,21.9303],[88.5095,21.9704],[88.5525,21.9851],[88.5653,22.0228],[88.5449,21.9865],[88.5049,21.973],[88.5103,21.9217],[88.4898,21.9084],[88.485,21.8966],[88.4664,21.9],[88.4687,21.9487],[88.4597,21.9382],[88.4534,21.9068],[88.4633,21.8965],[88.4841,21.8913],[88.5001,21.8489],[88.4582,21.8201],[88.4548,21.8117],[88.469,21.7932],[88.4479,21.8015],[88.4292,21.7659],[88.4363,21.7042],[88.4196,21.6881],[88.4183,21.6661],[88.4412,21.6244],[88.4216,21.6097],[88.4177,21.5818],[88.3929,21.6083],[88.4045,21.6198],[88.3891,21.6672],[88.4121,21.717],[88.3795,21.7303],[88.3991,21.7368],[88.4075,21.7646],[88.3915,21.7795],[88.4082,21.7984],[88.4001,21.8346],[88.4213,21.8892],[88.3996,21.8993],[88.4164,21.9231],[88.4056,21.9516],[88.3903,21.9667],[88.4057,21.9738],[88.4124,21.9947],[88.3873,21.9675],[88.4114,21.9216],[88.396,21.9071],[88.3979,21.8949],[88.4077,21.8854],[88.3976,21.8749],[88.3953,21.7943],[88.3717,21.8007],[88.3643,21.8527],[88.3642,21.8014],[88.3445,21.8041],[88.3296,21.7886],[88.3146,21.7988],[88.2816,21.7969],[88.2765,21.8073],[88.3154,21.8303],[88.3238,21.8496],[88.311,21.8646],[88.2686,21.865],[88.3175,21.8502],[88.2587,21.7956],[88.2892,21.7581],[88.2833,21.7309],[88.3067,21.6718],[88.3004,21.5918],[88.3253,21.5806],[88.3064,21.5615],[88.2626,21.5575],[88.2265,21.6188],[88.2493,21.6474],[88.2411,21.6786],[88.2115,21.6855],[88.2308,21.6995],[88.2186,21.7919],[88.2381,21.7646],[88.2396,21.7811],[88.2115,21.8029],[88.2035,21.8456],[88.166,21.888],[88.1748,21.9239],[88.1487,21.9596],[88.1863,21.9934],[88.2351,22.0788],[88.2143,22.1574],[88.1788,22.195],[88.0826,22.2206],[88.0342,22.2183],[88.0321,22.2018],[88.1438,22.1871],[88.1902,22.133],[88.1961,22.1048],[88.1618,22.0645],[88.067,22.0155],[87.9805,21.8551],[87.9519,21.8235],[87.8866,21.803],[87.8924,21.7812],[87.8286,21.7222],[87.7551,21.7008],[87.7498,21.6855],[87.6786,21.6537],[87.6499,21.6646],[87.6369,21.6472],[87.3726,21.5781],[87.366,21.5609],[87.1955,21.5494],[87.0644,21.4708],[86.8946,21.3136],[86.8168,21.1382],[86.9296,20.9008],[86.9701,20.8491],[86.9758,20.768],[87.0013,20.7584],[87.0138,20.7253],[86.996,20.6992],[87.0247,20.6897],[87.052,20.7035],[86.7655,20.5046],[86.7358,20.449],[86.7409,20.4177],[86.7226,20.3935],[86.7414,20.3757],[86.7285,20.3612],[86.7785,20.3974],[86.7709,20.3651],[86.7859,20.3717],[86.7636,20.3353],[86.8031,20.3666],[86.8079,20.3953],[86.8074,20.3638],[86.7191,20.2993],[86.6865,20.3181],[86.683,20.2911],[86.6943,20.2819],[86.7649,20.3146],[86.5418,20.1847],[86.4254,20.0257],[86.4299,20.0505],[86.4185,20.038],[86.4012,20.0047],[86.4288,19.9947],[86.4181,19.9776],[86.1519,19.8703],[86.0522,19.8561],[86.0655,19.8472],[85.688,19.7458],[85.3729,19.5944],[85.2341,19.5028],[85.1224,19.4197],[85.0869,19.3687],[85.0018,19.3233],[84.8699,19.214],[84.8096,19.1478],[84.8041,19.1159],[84.6929,18.9579],[84.6006,18.8682],[84.5635,18.7904],[84.5237,18.7556],[83.8525,18.3516],[83.4142,17.9132],[82.9484,17.6666],[82.7333,17.3571],[82.4936,17.2121],[82.3799,17.1058],[81.3044,16.4337],[81.003,16.5433],[80.9482,16.7351],[80.9208,16.9816],[80.9208,17.146],[80.9756,17.3378],[81.2496,17.557],[81.414,17.6666],[81.6058,17.8584],[82.1538,18.2968],[82.373,18.5434],[82.5922,18.8996],[83.3594,19.9133],[83.5511,20.2695],[83.9895,20.6257],[84.1265,20.7079],[84.2909,20.7627],[85.1403,21.3107],[85.4143,21.5573],[85.6883,21.7217],[85.9623,21.9957],[86.1815,22.1875],[86.4006,22.2697],[86.8664,22.3793],[87.524,22.5984],[88.1268,22.5984],[88.9214,22.7628],[90.1543,23.1464],[90.2466,23.1556],[90.2336,23.1421],[90.2452,23.1232],[90.2645,23.1126],[90.3073,23.1144],[90.3218,23.076],[90.2703,23.0487]]],[[[93.0159,19.8894],[92.9159,20.0553],[92.926,20.0833],[92.9602,20.0616],[93.02,19.9194],[93.0358,19.8746],[93.0291,19.8189],[93.0159,19.8894]]],[[[93.0564,20.1218],[93.0872,20.0864],[93.074,20.0766],[93.1218,20.0396],[93.1382,20.0047],[93.103,19.9467],[93.1733,19.787],[93.0568,19.9513],[93.0421,20.0089],[92.9793,20.0713],[92.9746,20.1264],[92.9967,20.1116],[93.0564,20.1218]]],[[[93.1585,20.0669],[93.1752,20.0428],[93.1373,20.0718],[93.1585,20.0669]]],[[[93.1285,20.062],[93.1188,20.0584],[93.1264,20.0691],[93.1285,20.062]]],[[[93.1119,20.0615],[93.0949,20.0879],[93.1195,20.0869],[93.0747,20.1186],[93.0954,20.1426],[93.1267,20.079],[93.1119,20.0615]]],[[[93.0718,20.1291],[93.0639,20.1368],[93.0841,20.1652],[93.0895,20.1485],[93.0718,20.1291]]],[[[93.0985,20.1617],[93.095,20.1789],[93.113,20.179],[93.0985,20.1617]]],[[[92.972,20.1728],[92.9516,20.1975],[92.9752,20.2112],[92.972,20.1728]]],[[[92.9488,20.2425],[92.9504,20.2119],[92.9238,20.1903],[92.9252,20.2444],[92.9488,20.2425]]],[[[92.9763,20.2319],[92.9744,20.2179],[92.9575,20.21],[92.9608,20.2151],[92.9763,20.2319]]],[[[92.7343,20.2213],[92.7365,20.2369],[92.7405,20.2161],[92.7343,20.2213]]],[[[93.2129,20.3129],[93.143,20.2188],[93.1272,20.2428],[93.1284,20.2167],[93.0613,20.1595],[93.0187,20.1333],[92.9977,20.1385],[93.0012,20.2153],[93.0221,20.2687],[93.04,20.2773],[93.04,20.3263],[93.0911,20.3689],[93.12,20.3744],[93.1322,20.3447],[93.1199,20.3296],[93.1288,20.321],[93.1403,20.3166],[93.1334,20.3059],[93.1755,20.3243],[93.2129,20.3129]]],[[[86.7088,20.2939],[86.6946,20.2865],[86.6879,20.2919],[86.6889,20.2951],[86.7088,20.2939]]],[[[92.7522,20.3625],[92.751,20.3509],[92.7419,20.3554],[92.7522,20.3625]]],[[[92.8117,20.4109],[92.8665,20.3114],[92.8411,20.2875],[92.7948,20.2773],[92.7874,20.2901],[92.7807,20.2786],[92.7647,20.3199],[92.7623,20.4323],[92.797,20.4356],[92.8214,20.4216],[92.8117,20.4109]]],[[[92.8454,20.3947],[92.8766,20.4023],[92.8916,20.3885],[92.8718,20.3864],[92.8454,20.3947]]],[[[92.8166,20.4091],[92.8278,20.4109],[92.8326,20.402],[92.8255,20.3996],[92.8166,20.4091]]],[[[93.077,20.3979],[93.0778,20.3641],[93.0435,20.3504],[93.038,20.423],[93.0899,20.5061],[93.1102,20.4209],[93.077,20.3979]]],[[[86.8017,20.4813],[86.816,20.4409],[86.7981,20.3886],[86.7908,20.4204],[86.8017,20.4813]]],[[[92.7789,20.4549],[92.7891,20.4417],[92.7635,20.4417],[92.7559,20.4701],[92.7683,20.4705],[92.7973,20.4995],[92.8037,20.4826],[92.7789,20.4549]]],[[[92.7219,20.5749],[92.7008,20.5817],[92.6991,20.6048],[92.7219,20.5749]]],[[[92.3245,20.5882],[92.3129,20.627],[92.3212,20.6346],[92.3296,20.5991],[92.3245,20.5882]]],[[[92.5865,20.7131],[92.6185,20.7141],[92.6353,20.7243],[92.6389,20.72],[92.6335,20.6965],[92.6086,20.6838],[92.5865,20.7131]]],[[[92.3515,20.7184],[92.3512,20.7131],[92.3431,20.7244],[92.3515,20.7184]]],[[[92.5764,20.7294],[92.5864,20.7294],[92.5754,20.7211],[92.5491,20.7402],[92.5512,20.757],[92.5627,20.7432],[92.5806,20.749],[92.5764,20.7294]]],[[[92.3446,20.9386],[92.3255,20.9092],[92.3088,20.9121],[92.3159,20.9543],[92.3067,20.9822],[92.3381,20.9892],[92.3553,20.9436],[92.3446,20.9386]]],[[[92.2996,20.9292],[92.2813,20.9476],[92.3007,20.9774],[92.3098,20.9528],[92.2996,20.9292]]],[[[92.2566,21.0234],[92.2638,21.0272],[92.2606,21.0182],[92.2566,21.0234]]],[[[92.2201,21.109],[92.211,21.1081],[92.2168,21.1148],[92.2201,21.109]]],[[[92.2124,21.1257],[92.2179,21.1304],[92.2195,21.1256],[92.2124,21.1257]]],[[[88.1738,21.5858],[88.214,21.5284],[88.1994,21.5328],[88.1738,21.5858]]],[[[88.5056,21.5334],[88.485,21.5596],[88.4997,21.5997],[88.5382,21.5822],[88.5488,21.5337],[88.5056,21.5334]]],[[[88.8384,21.5886],[88.8438,21.6063],[88.8657,21.5981],[88.8384,21.5886]]],[[[91.9017,21.5092],[91.8969,21.4671],[91.8684,21.4885],[91.8587,21.522],[91.8821,21.557],[91.8742,21.6069],[91.8913,21.6376],[91.8851,21.6807],[91.94,21.735],[91.9585,21.6702],[91.9875,21.6301],[91.9859,21.5872],[91.9727,21.5058],[91.9479,21.4896],[91.9017,21.5092]]],[[[88.5183,21.6094],[88.5266,21.6569],[88.5355,21.6422],[88.5894,21.6116],[88.5955,21.5862],[88.5557,21.5578],[88.546,21.5873],[88.5183,21.6094]]],[[[92.0041,21.6176],[92.0135,21.6135],[92.0109,21.5983],[92.0082,21.6005],[92.0041,21.6176]]],[[[88.7831,21.6458],[88.8,21.5753],[88.7445,21.5603],[88.7166,21.5718],[88.7252,21.6306],[88.6902,21.6844],[88.6971,21.7184],[88.7156,21.6773],[88.7542,21.6466],[88.7831,21.6458]]],[[[92.0347,21.6491],[92.0072,21.6281],[92.0021,21.6463],[92.0303,21.6683],[92.0347,21.6491]]],[[[88.316,21.615],[88.3205,21.699],[88.3272,21.7039],[88.36,21.6705],[88.349,21.6469],[88.3587,21.6321],[88.3333,21.6006],[88.316,21.615]]],[[[88.2218,21.6019],[88.1876,21.6808],[88.2151,21.7158],[88.2211,21.7035],[88.2026,21.6903],[88.2144,21.6747],[88.2331,21.6742],[88.2392,21.647],[88.2218,21.6272],[88.2218,21.6019]]],[[[88.6512,21.6762],[88.6363,21.6449],[88.6509,21.6829],[88.6512,21.6762]]],[[[88.5599,21.6377],[88.5332,21.6558],[88.5229,21.7156],[88.5494,21.6979],[88.5671,21.6982],[88.5599,21.6377]]],[[[88.461,21.7171],[88.4841,21.675],[88.4526,21.6002],[88.4295,21.6003],[88.4483,21.6233],[88.427,21.6599],[88.4273,21.6899],[88.4436,21.7026],[88.4366,21.7671],[88.4564,21.7929],[88.4679,21.7863],[88.4831,21.7956],[88.461,21.7171]]],[[[91.886,21.7611],[91.9121,21.7468],[91.9045,21.7087],[91.8799,21.6822],[91.8806,21.6342],[91.8524,21.6604],[91.886,21.7611]]],[[[88.1443,21.7519],[88.1315,21.7347],[88.1486,21.6257],[88.0576,21.6411],[88.0604,21.721],[88.0901,21.7851],[88.1112,21.7928],[88.1443,21.7519]]],[[[88.6129,21.6866],[88.6125,21.6055],[88.5642,21.6419],[88.5808,21.6629],[88.5699,21.7091],[88.5233,21.7224],[88.5069,21.7573],[88.5331,21.7746],[88.5469,21.8165],[88.5779,21.7923],[88.5666,21.7684],[88.58,21.7201],[88.6129,21.6866]]],[[[88.212,21.7319],[88.2152,21.722],[88.2011,21.7083],[88.1999,21.7108],[88.212,21.7319]]],[[[88.3744,21.6846],[88.3486,21.7126],[88.3579,21.7201],[88.353,21.7483],[88.3928,21.7648],[88.3936,21.7418],[88.3714,21.7272],[88.4033,21.7103],[88.3744,21.6846]]],[[[88.3078,21.7303],[88.3061,21.7207],[88.3015,21.7348],[88.3078,21.7303]]],[[[89.294,21.7417],[89.2278,21.7228],[89.2199,21.7399],[89.2729,21.7581],[89.294,21.7417]]],[[[91.9416,21.7483],[91.9207,21.73],[91.9145,21.7585],[91.9416,21.7483]]],[[[88.6278,21.7412],[88.5942,21.7781],[88.6205,21.7879],[88.6374,21.7259],[88.6178,21.7021],[88.6068,21.7143],[88.6302,21.7314],[88.6278,21.7412]]],[[[88.5867,21.7213],[88.5897,21.775],[88.5909,21.7566],[88.6262,21.7321],[88.5867,21.7213]]],[[[88.3404,21.7281],[88.3345,21.7054],[88.3143,21.7168],[88.3104,21.7792],[88.3376,21.7868],[88.3467,21.7984],[88.3864,21.7918],[88.3867,21.768],[88.3559,21.7636],[88.3472,21.7503],[88.3528,21.7212],[88.3404,21.7281]]],[[[88.21,21.7763],[88.2146,21.7445],[88.211,21.7398],[88.21,21.7763]]],[[[91.8934,21.7677],[91.9417,21.7736],[91.9473,21.7662],[91.8934,21.7677]]],[[[88.1542,21.6821],[88.1386,21.7341],[88.1523,21.7597],[88.1138,21.7999],[88.0944,21.7905],[88.1462,21.8823],[88.1833,21.8056],[88.1801,21.7304],[88.1542,21.6821]]],[[[88.5298,21.7965],[88.5304,21.782],[88.5144,21.7732],[88.5187,21.785],[88.5298,21.7965]]],[[[88.3175,21.791],[88.3023,21.7881],[88.298,21.7928],[88.3175,21.791]]],[[[88.4614,21.8097],[88.4962,21.8336],[88.5087,21.8062],[88.4614,21.8097]]],[[[91.8783,21.8216],[91.8714,21.8878],[91.8567,21.8746],[91.8745,21.8059],[91.8311,21.7169],[91.8442,21.8992],[91.868,21.9222],[91.894,21.8587],[91.8783,21.8216]]],[[[89.5332,21.8357],[89.5567,21.8476],[89.6027,21.8075],[89.5401,21.7933],[89.5332,21.8357]]],[[[88.5952,21.8479],[88.622,21.8302],[88.6137,21.7971],[88.5834,21.8142],[88.5952,21.8479]]],[[[89.3406,21.8292],[89.3284,21.8442],[89.3367,21.8217],[89.3256,21.8209],[89.3226,21.8485],[89.3747,21.8824],[89.3432,21.7813],[89.3406,21.8292]]],[[[88.6251,21.8094],[88.627,21.8319],[88.601,21.8613],[88.6272,21.8978],[88.6384,21.8686],[88.6618,21.87],[88.6488,21.7863],[88.6251,21.8094]]],[[[88.1811,21.8622],[88.1996,21.8381],[88.1971,21.8345],[88.1811,21.8622]]],[[[89.7771,21.856],[89.768,21.8485],[89.7553,21.8507],[89.7648,21.8548],[89.7771,21.856]]],[[[89.6493,21.8651],[89.6453,21.8786],[89.6541,21.8891],[89.6633,21.8709],[89.6493,21.8651]]],[[[88.0903,21.8615],[88.0821,21.875],[88.0923,21.8982],[88.1093,21.8728],[88.0903,21.8615]]],[[[88.6271,21.9038],[88.6735,21.917],[88.657,21.8745],[88.6408,21.8761],[88.6271,21.9038]]],[[[88.4991,21.8985],[88.4961,21.9076],[88.5028,21.9081],[88.4991,21.8985]]],[[[88.1289,21.8896],[88.1162,21.8816],[88.0937,21.9267],[88.1172,21.9101],[88.1289,21.8896]]],[[[89.5635,21.9218],[89.5522,21.9027],[89.5431,21.868],[89.5465,21.9637],[89.5635,21.9218]]],[[[88.1256,21.9597],[88.1557,21.9241],[88.1422,21.8975],[88.099,21.9318],[88.1256,21.9597]]],[[[89.955,21.917],[89.9434,21.9296],[89.9606,21.9471],[89.9725,21.9238],[89.955,21.917]]],[[[90.3897,21.9331],[90.3941,21.9378],[90.3965,21.9337],[90.3897,21.9331]]],[[[90.077,21.972],[90.0911,21.9135],[90.0201,21.9017],[90.0309,21.9602],[90.077,21.972]]],[[[90.2946,21.9806],[90.304,21.9259],[90.2663,21.9228],[90.2728,21.9762],[90.2946,21.9806]]],[[[90.3883,21.9603],[90.3961,21.958],[90.3882,21.9514],[90.3883,21.9603]]],[[[90.4908,21.9548],[90.4897,21.9609],[90.5003,21.9719],[90.4908,21.9548]]],[[[90.3316,21.9282],[90.3851,21.9977],[90.3661,21.9311],[90.3316,21.9282]]],[[[90.3228,21.9689],[90.3317,21.9815],[90.327,21.9623],[90.3228,21.9689]]],[[[88.7183,22.0017],[88.6871,21.9454],[88.6418,21.9509],[88.6341,21.9658],[88.6639,22.0153],[88.6834,22.0024],[88.7183,22.0017]]],[[[90.4715,21.9969],[90.4634,21.9392],[90.4003,21.934],[90.4216,22.016],[90.4129,22.0321],[90.4534,22.0296],[90.4715,21.9969]]],[[[88.1163,21.9723],[88.0965,21.9751],[88.0954,21.9897],[88.1346,22.0231],[88.1163,21.9723]]],[[[90.5115,21.9919],[90.4995,21.9977],[90.5313,22.0275],[90.5115,21.9919]]],[[[88.6733,22.0152],[88.6848,22.0171],[88.6873,22.0101],[88.6836,22.0086],[88.6733,22.0152]]],[[[90.3886,22.0639],[90.4087,22.0466],[90.3403,21.9625],[90.3518,22.0194],[90.3886,22.0639]]],[[[90.3995,22.0273],[90.4074,22.0266],[90.4039,22.0148],[90.3995,22.0273]]],[[[90.3076,21.9737],[90.2981,21.9848],[90.2806,21.9868],[90.284,22.0554],[90.3159,22.086],[90.3473,22.0893],[90.3372,22.1035],[90.3701,22.0992],[90.379,22.0859],[90.329,22.0288],[90.3076,21.9737]]],[[[90.4457,22.0377],[90.4142,22.0383],[90.4136,22.0404],[90.4457,22.0377]]],[[[90.5555,22.0977],[90.534,22.0324],[90.4935,22.0072],[90.5314,22.0515],[90.5555,22.0977]]],[[[90.523,22.0807],[90.4844,22.0437],[90.4821,22.0755],[90.5167,22.1058],[90.523,22.0807]]],[[[90.531,22.0857],[90.5376,22.1167],[90.5522,22.1054],[90.5056,22.0443],[90.531,22.0857]]],[[[90.5824,22.1196],[90.5773,22.128],[90.5883,22.1301],[90.5824,22.1196]]],[[[90.5064,22.1709],[90.5463,22.1707],[90.5108,22.1361],[90.5064,22.1709]]],[[[90.6139,22.1819],[90.6164,22.1808],[90.612,22.1728],[90.6139,22.1819]]],[[[90.5702,22.2206],[90.5519,22.1927],[90.5387,22.1893],[90.5586,22.2297],[90.5702,22.2206]]],[[[90.5772,22.2481],[90.575,22.2311],[90.5682,22.2366],[90.5772,22.2481]]],[[[89.8707,22.2377],[89.8616,22.2442],[89.8619,22.258],[89.87,22.2497],[89.8707,22.2377]]],[[[90.2792,22.3456],[90.2835,22.3636],[90.2864,22.3644],[90.2792,22.3456]]],[[[90.6486,22.3674],[90.632,22.4123],[90.6489,22.3871],[90.6486,22.3674]]],[[[90.6487,22.4076],[90.6505,22.4138],[90.6512,22.3998],[90.6487,22.4076]]],[[[90.6012,22.4608],[90.6258,22.4422],[90.6322,22.3575],[90.6038,22.4221],[90.6012,22.4608]]],[[[90.6433,22.4292],[90.6445,22.415],[90.6408,22.4303],[90.6433,22.4292]]],[[[90.6136,22.5392],[90.6607,22.4688],[90.6556,22.4599],[90.6136,22.5392]]],[[[90.6512,22.5029],[90.646,22.5016],[90.6452,22.5117],[90.6512,22.5029]]],[[[90.811,22.5854],[90.7297,22.5162],[90.6726,22.3449],[90.6689,22.4825],[90.6066,22.6012],[90.5888,22.6067],[90.6186,22.5467],[90.5729,22.5947],[90.5746,22.6194],[90.5635,22.6408],[90.5889,22.6338],[90.5796,22.6542],[90.5401,22.6309],[90.5449,22.6699],[90.5913,22.7362],[90.6512,22.7805],[90.726,22.7769],[90.778,22.6269],[90.811,22.5854]]],[[[90.5675,22.6233],[90.5632,22.6057],[90.5575,22.628],[90.5675,22.6233]]],[[[90.7938,22.659],[90.7931,22.6879],[90.8038,22.6905],[90.8206,22.6552],[90.7938,22.659]]],[[[91.1254,22.6806],[91.0586,22.6806],[91.0554,22.6978],[91.1122,22.7],[91.1254,22.6806]]],[[[91.0194,22.6926],[91.0372,22.709],[91.0483,22.7024],[91.0446,22.6806],[91.0194,22.6926]]],[[[90.8021,22.7146],[90.7921,22.7155],[90.7923,22.7182],[90.8021,22.7146]]],[[[91.2358,22.6818],[91.2165,22.7007],[91.2358,22.7099],[91.2122,22.7042],[91.1311,22.7361],[91.1898,22.7493],[91.2893,22.7196],[91.2358,22.6818]]],[[[90.9782,22.7675],[90.9711,22.7579],[90.9863,22.7638],[91.0202,22.7154],[91.0079,22.7052],[90.9757,22.7222],[90.9658,22.7155],[91.0186,22.6781],[90.8941,22.6532],[90.8661,22.6299],[90.8337,22.7293],[90.7969,22.7739],[90.9095,22.8108],[90.9414,22.8032],[90.9782,22.7675]]],[[[90.4893,22.7245],[90.4786,22.728],[90.4747,22.7461],[90.4833,22.7413],[90.4893,22.7245]]],[[[90.5288,22.6841],[90.4885,22.7697],[90.5006,22.7921],[90.5482,22.768],[90.5473,22.7143],[90.5288,22.6841]]],[[[91.3241,22.7544],[91.3126,22.7429],[91.3104,22.7451],[91.3124,22.7514],[91.3241,22.7544]]],[[[90.5999,22.7757],[90.5747,22.7445],[90.571,22.7444],[90.5676,22.7785],[90.5999,22.7757]]],[[[90.4622,22.75],[90.4348,22.7706],[90.4527,22.7883],[90.4795,22.7568],[90.4622,22.75]]],[[[90.5971,22.7862],[90.6362,22.8135],[90.6628,22.8097],[90.6197,22.783],[90.5971,22.7862]]],[[[90.4912,22.8191],[90.4637,22.8077],[90.4526,22.8264],[90.4843,22.8343],[90.4912,22.8191]]],[[[90.6665,22.8261],[90.7021,22.8276],[90.7026,22.8205],[90.6815,22.8128],[90.6665,22.8261]]],[[[90.6313,22.8405],[90.647,22.8467],[90.6322,22.838],[90.6313,22.8405]]],[[[90.6745,22.8379],[90.6796,22.8543],[90.6938,22.8538],[90.6745,22.8379]]],[[[90.6741,22.8794],[90.6482,22.8536],[90.6608,22.8845],[90.6741,22.8794]]],[[[90.5568,22.7903],[90.4846,22.8396],[90.4608,22.8402],[90.4824,22.867],[90.5329,22.8745],[90.5521,22.9054],[90.5449,22.941],[90.6496,22.894],[90.6438,22.8594],[90.6005,22.8155],[90.5568,22.7903]]],[[[90.45,22.9985],[90.5389,22.9578],[90.5453,22.9077],[90.5236,22.8788],[90.4671,22.8659],[90.4447,22.8264],[90.4491,22.8052],[90.4275,22.8167],[90.4278,22.8417],[90.3951,22.8281],[90.3898,22.839],[90.4218,22.8989],[90.4173,22.9162],[90.3845,22.856],[90.3951,22.7999],[90.4151,22.7819],[90.3844,22.7899],[90.42,22.7752],[90.3999,22.7644],[90.3323,22.8477],[90.3807,22.9075],[90.3533,22.9932],[90.4309,22.9917],[90.4512,22.9721],[90.45,22.9985]]],[[[90.3293,22.9578],[90.3335,22.9724],[90.3564,22.9623],[90.368,22.9212],[90.3518,22.9514],[90.3293,22.9578]]],[[[90.3494,22.9431],[90.2932,22.9627],[90.3078,22.9705],[90.3494,22.9431]]],[[[90.6342,22.959],[90.6388,22.9635],[90.6432,22.9567],[90.6342,22.959]]],[[[90.655,22.9828],[90.6803,22.9808],[90.6935,22.9571],[90.6683,22.9639],[90.655,22.9828]]],[[[90.4343,23.0095],[90.4295,22.9979],[90.4177,23.0005],[90.4343,23.0095]]],[[[90.4081,23.0135],[90.3975,23.0051],[90.3919,23.0089],[90.4081,23.0135]]],[[[90.5067,23.0153],[90.5002,23.0161],[90.5043,23.0251],[90.5067,23.0153]]],[[[90.5661,23.0015],[90.5357,23.0213],[90.5551,23.048],[90.5612,23.0441],[90.5661,23.0015]]],[[[90.4772,23.042],[90.496,23.0157],[90.4929,23.0117],[90.4733,23.0279],[90.4772,23.042]]],[[[90.2762,23.0351],[90.2918,23.0496],[90.3079,23.0375],[90.2885,23.0314],[90.2762,23.0351]]],[[[90.5064,23.0378],[90.491,23.0532],[90.5057,23.0637],[90.5064,23.0378]]],[[[90.5192,23.06],[90.5266,23.0634],[90.5237,23.0524],[90.5192,23.06]]],[[[90.4477,23.028],[90.3609,23.0111],[90.3426,22.9819],[90.326,22.9816],[90.3088,23.0538],[90.3259,23.0679],[90.3326,23.1087],[90.3229,23.1024],[90.2729,23.1468],[90.267,23.1328],[90.2905,23.1207],[90.2538,23.1253],[90.246,23.1423],[90.2626,23.1573],[90.4604,23.177],[90.4326,23.0911],[90.4477,23.028]]],[[[90.5168,23.1384],[90.5241,23.0914],[90.5131,23.0812],[90.5035,23.1215],[90.5168,23.1384]]],[[[90.4478,23.0556],[90.4435,23.1068],[90.4907,23.1312],[90.4725,23.1782],[90.5029,23.1722],[90.4922,23.0819],[90.4684,23.097],[90.4478,23.0556]]],[[[90.4571,23.1226],[90.4752,23.1555],[90.479,23.1329],[90.4571,23.1226]]],[[[90.5215,23.1812],[90.5338,23.169],[90.5487,23.1859],[90.5412,23.1433],[90.5215,23.1812]]],[[[90.5528,23.165],[90.5627,23.1873],[90.5764,23.1886],[90.5761,23.1787],[90.5528,23.165]]],[[[90.5004,23.1797],[90.4943,23.1804],[90.5046,23.1815],[90.5004,23.1797]]],[[[95.387,4.8735],[95.3773,4.8558],[95.3626,4.8701],[95.3642,4.8747],[95.387,4.8735]]],[[[95.1456,5.5515],[95.16,5.5609],[95.1687,5.5572],[95.1651,5.5484],[95.1456,5.5515]]],[[[95.1772,5.5691],[95.1899,5.5783],[95.2094,5.5765],[95.1772,5.5691]]],[[[95.1864,5.6057],[95.1144,5.6003],[95.139,5.6369],[95.1349,5.6565],[95.157,5.6496],[95.151,5.639],[95.1864,5.6057]]],[[[95.047,5.633],[95.0675,5.6397],[95.0797,5.6372],[95.0535,5.6194],[95.047,5.633]]],[[[95.0594,5.7485],[95.1219,5.6951],[95.1341,5.663],[95.0728,5.6668],[95.0462,5.6464],[95.0602,5.6681],[95.0418,5.6688],[95.0586,5.6868],[95.0399,5.7078],[95.0581,5.7165],[95.0456,5.7323],[95.0093,5.725],[95.0293,5.7484],[95.0594,5.7485]]],[[[95.2869,5.8388],[95.3217,5.8814],[95.313,5.8913],[95.3331,5.8926],[95.3736,5.847],[95.3742,5.8025],[95.3454,5.8252],[95.3354,5.773],[95.2859,5.778],[95.2549,5.8439],[95.218,5.8746],[95.2152,5.9044],[95.2869,5.8388]]],[[[93.8821,7.197],[93.9251,7.0201],[93.9547,6.9984],[93.9206,6.9981],[93.95,6.9522],[93.9282,6.9466],[93.924,6.9097],[93.9074,6.8998],[93.9004,6.8466],[93.9191,6.8288],[93.9137,6.8025],[93.8934,6.7908],[93.8853,6.8065],[93.8663,6.8033],[93.8397,6.7471],[93.8175,6.7602],[93.8267,6.8034],[93.7974,6.8258],[93.8052,6.8429],[93.7851,6.866],[93.7998,6.8743],[93.773,6.9125],[93.7605,6.9036],[93.7512,6.9152],[93.7477,6.9585],[93.6883,7.0176],[93.6598,7.0112],[93.6711,7.0319],[93.6573,7.0934],[93.6718,7.1098],[93.6536,7.12],[93.678,7.1442],[93.6723,7.1738],[93.6879,7.1853],[93.7329,7.1823],[93.7622,7.2069],[93.8033,7.1959],[93.8043,7.2255],[93.8427,7.2369],[93.8429,7.2201],[93.8821,7.197]]],[[[93.7206,7.2031],[93.7079,7.212],[93.7057,7.2258],[93.7206,7.2031]]],[[[93.7315,7.3298],[93.6705,7.2797],[93.6542,7.2456],[93.6238,7.2634],[93.6236,7.3688],[93.6613,7.3675],[93.702,7.3899],[93.6946,7.4414],[93.7108,7.3892],[93.746,7.3621],[93.7315,7.3298]]],[[[93.4131,7.9539],[93.4593,7.93],[93.464,7.8666],[93.4193,7.899],[93.382,7.8756],[93.3568,7.8827],[93.3456,7.9032],[93.3617,7.9295],[93.3457,7.943],[93.3299,7.9121],[93.3126,7.9455],[93.3268,8.0],[93.3713,8.0189],[93.4037,8.0049],[93.4131,7.9539]]],[[[93.5449,8.0073],[93.5431,8.022],[93.5585,8.0212],[93.5755,7.9936],[93.5728,7.9256],[93.5072,7.98],[93.5262,8.0229],[93.5449,8.0073]]],[[[93.5817,8.1185],[93.5964,8.0474],[93.5871,8.0374],[93.5698,8.0591],[93.5712,8.0722],[93.5845,8.0634],[93.5689,8.0914],[93.5767,8.112],[93.559,8.1088],[93.5605,8.1196],[93.5817,8.1185]]],[[[93.513,8.1811],[93.4996,8.1446],[93.5474,8.0776],[93.5429,8.0355],[93.5294,8.0475],[93.5052,8.0296],[93.4994,7.9923],[93.484,8.0109],[93.4839,8.0886],[93.4623,8.1053],[93.4713,8.1206],[93.4564,8.1165],[93.4513,8.1697],[93.4878,8.1987],[93.4908,8.2198],[93.5382,8.2269],[93.5349,8.1763],[93.513,8.1811]]],[[[93.2237,8.2323],[93.1996,8.2409],[93.2021,8.2612],[93.2157,8.2614],[93.2237,8.2323]]],[[[93.6286,8.3936],[93.634,8.3849],[93.6256,8.3915],[93.6286,8.3936]]],[[[93.6052,8.4193],[93.6102,8.4835],[93.5951,8.5693],[93.6254,8.4637],[93.6118,8.4665],[93.6052,8.4193]]],[[[94.285,13.4209],[94.2766,13.4353],[94.2966,13.4539],[94.3006,13.4332],[94.285,13.4209]]],[[[93.7065,14.919],[93.683,14.8725],[93.6696,14.8498],[93.7065,14.919]]],[[[95.1104,15.6706],[95.1155,15.6605],[95.1074,15.6644],[95.1104,15.6706]]],[[[95.0564,15.6728],[95.0718,15.6742],[95.0529,15.667],[95.0564,15.6728]]],[[[95.1831,15.6708],[95.2044,15.6826],[95.2064,15.6698],[95.1831,15.6708]]],[[[95.2779,15.6769],[95.2641,15.6731],[95.2634,15.6823],[95.2779,15.6769]]],[[[95.0605,15.7203],[95.0181,15.7194],[95.0568,15.7419],[95.0605,15.7203]]],[[[95.0549,15.8119],[95.0562,15.8294],[95.0646,15.8444],[95.0689,15.8164],[95.0549,15.8119]]],[[[94.7344,15.7929],[94.7913,15.9258],[94.8121,15.9418],[94.8402,15.869],[94.8107,15.7875],[94.7344,15.7929]]],[[[94.2838,15.8652],[94.2738,15.8646],[94.2795,15.8707],[94.2838,15.8652]]],[[[95.0666,15.8747],[95.0606,15.8772],[95.0651,15.8834],[95.0666,15.8747]]],[[[94.8422,15.884],[94.8309,15.9006],[94.8309,15.9062],[94.8422,15.884]]],[[[94.4544,15.9197],[94.4557,15.9113],[94.4509,15.9176],[94.4544,15.9197]]],[[[94.5225,15.9426],[94.5213,15.9208],[94.515,15.9145],[94.5155,15.9292],[94.5225,15.9426]]],[[[95.3299,15.9568],[95.3321,15.9424],[95.3142,15.9296],[95.313,15.9345],[95.3299,15.9568]]],[[[95.2678,15.9852],[95.2507,15.9233],[95.241,15.9118],[95.2678,15.9852]]],[[[95.3452,15.9714],[95.3453,15.9583],[95.3396,15.9546],[95.3452,15.9714]]],[[[94.6647,15.9598],[94.6672,15.9685],[94.6686,15.9667],[94.6647,15.9598]]],[[[95.1026,15.9426],[95.1036,15.9645],[95.1207,15.9944],[95.1186,15.9526],[95.1026,15.9426]]],[[[95.2573,15.8591],[95.2349,15.8718],[95.273,15.9563],[95.28,16.022],[95.3264,16.0786],[95.3489,16.0],[95.2573,15.8591]]],[[[94.3488,16.0111],[94.3218,15.978],[94.2799,15.9896],[94.3488,16.0111]]],[[[94.8619,16.0538],[94.8491,16.0],[94.8075,15.9799],[94.845,16.0629],[94.8619,16.0538]]],[[[95.0807,16.0085],[95.078,16.0303],[95.0836,16.0383],[95.0807,16.0085]]],[[[94.6923,16.0022],[94.7095,16.0423],[94.7171,16.0504],[94.7196,16.0274],[94.6923,16.0022]]],[[[94.5922,16.0997],[94.5718,16.0745],[94.573,16.0451],[94.5966,16.0307],[94.5938,16.0155],[94.5131,15.9889],[94.4469,15.9199],[94.3974,15.8322],[94.4109,15.8631],[94.3929,15.9017],[94.3863,16.0],[94.4535,16.0189],[94.5847,16.1991],[94.6492,16.2476],[94.6728,16.2032],[94.6594,16.1444],[94.5953,16.038],[94.5788,16.0516],[94.5922,16.0997]]],[[[95.1377,16.0363],[95.0988,15.98],[95.0997,16.046],[95.1202,16.0803],[95.1719,16.1117],[95.2087,16.1057],[95.1806,16.075],[95.1854,16.028],[95.1377,16.0363]]],[[[94.6173,16.0416],[94.6182,16.0528],[94.6513,16.0928],[94.6425,16.0649],[94.6173,16.0416]]],[[[95.1418,16.1198],[95.1617,16.1199],[95.1399,16.1177],[95.1418,16.1198]]],[[[94.6695,16.1319],[94.6615,16.1222],[94.6683,16.1346],[94.6695,16.1319]]],[[[94.5203,16.1307],[94.537,16.151],[94.5448,16.1502],[94.5203,16.1307]]],[[[95.1272,16.1447],[95.1335,16.1565],[95.1277,16.1379],[95.1272,16.1447]]],[[[95.3666,16.2017],[95.3608,16.1503],[95.3213,16.1173],[95.3183,16.1719],[95.3666,16.2017]]],[[[95.8703,16.2164],[95.8853,16.234],[95.8943,16.2393],[95.881,16.2157],[95.8703,16.2164]]],[[[94.5542,16.254],[94.5505,16.2071],[94.5347,16.2006],[94.5185,16.2316],[94.5233,16.2828],[94.5542,16.254]]],[[[95.9078,16.2866],[95.9104,16.2657],[95.9016,16.2554],[95.9078,16.2866]]],[[[94.6634,16.2766],[94.6561,16.271],[94.6624,16.2782],[94.6634,16.2766]]],[[[95.9178,16.273],[95.913,16.3313],[95.9399,16.3786],[95.9563,16.3263],[95.9441,16.2473],[95.8751,16.2001],[95.9178,16.273]]],[[[96.0412,16.2625],[95.927,16.2097],[95.9558,16.2478],[95.9886,16.3774],[96.0187,16.3769],[96.0736,16.3414],[96.0818,16.3101],[96.0412,16.2625]]],[[[94.6165,16.3223],[94.6499,16.3302],[94.6864,16.3779],[94.6279,16.2577],[94.5831,16.2228],[94.5746,16.2472],[94.6086,16.2773],[94.6165,16.3223]]],[[[94.6843,16.31],[94.678,16.2989],[94.6812,16.3123],[94.6843,16.31]]],[[[95.9586,16.3008],[95.9605,16.3331],[95.9577,16.3487],[95.9672,16.3175],[95.9586,16.3008]]],[[[96.0648,16.3563],[96.0779,16.3521],[96.0805,16.3436],[96.0722,16.3487],[96.0648,16.3563]]],[[[95.9279,16.3735],[95.9343,16.3798],[95.9277,16.3688],[95.9279,16.3735]]],[[[95.9544,16.4043],[95.9924,16.3848],[95.9658,16.3464],[95.9544,16.4043]]],[[[94.698,16.3876],[94.7021,16.3785],[94.6979,16.3684],[94.698,16.3876]]],[[[94.227,16.3781],[94.234,16.3846],[94.2308,16.3756],[94.227,16.3781]]],[[[95.9437,16.3836],[95.9515,16.3793],[95.9496,16.3737],[95.9437,16.3836]]],[[[95.9967,16.3987],[96.0071,16.3859],[95.9936,16.3955],[95.9967,16.3987]]],[[[95.9399,16.3965],[95.9325,16.3958],[95.9328,16.3981],[95.9399,16.3965]]],[[[96.3026,16.4723],[96.302,16.4456],[96.3266,16.4653],[96.3211,16.447],[96.336,16.4437],[96.3069,16.408],[96.155,16.322],[96.1241,16.314],[96.0992,16.3264],[96.0897,16.3464],[96.1023,16.3716],[96.1432,16.3846],[96.1689,16.4176],[96.1488,16.4548],[96.1585,16.453],[96.1804,16.4603],[96.1895,16.4766],[96.1831,16.4835],[96.1985,16.4841],[96.1788,16.5142],[96.1851,16.5578],[96.1801,16.5847],[96.2356,16.5983],[96.2628,16.5187],[96.3026,16.4723]]],[[[94.2472,16.516],[94.246,16.5378],[94.2493,16.5399],[94.2472,16.516]]],[[[94.5871,17.5687],[94.5929,17.5688],[94.5905,17.5607],[94.5871,17.5687]]],[[[94.0921,18.0474],[94.0847,18.0602],[94.0996,18.0615],[94.0921,18.0474]]],[[[94.4448,18.1372],[94.4471,18.1291],[94.4425,18.1309],[94.4448,18.1372]]],[[[94.3768,18.3426],[94.3767,18.3504],[94.3823,18.3461],[94.3768,18.3426]]],[[[93.9074,18.44],[93.9109,18.4304],[93.9043,18.4343],[93.9074,18.44]]],[[[94.2436,18.5307],[94.242,18.5408],[94.2478,18.5369],[94.2436,18.5307]]],[[[93.7935,18.6657],[93.8024,18.6113],[93.7859,18.6024],[93.7754,18.6206],[93.7935,18.6657]]],[[[93.8158,18.7252],[93.8066,18.7159],[93.811,18.7247],[93.8158,18.7252]]],[[[93.9915,18.7312],[93.9961,18.7475],[94.0091,18.7307],[93.9915,18.7312]]],[[[93.6386,18.8802],[93.7415,18.8723],[93.7389,18.7822],[93.7529,18.7488],[93.7201,18.6758],[93.6913,18.6669],[93.6373,18.6853],[93.5448,18.7668],[93.4825,18.8677],[93.5766,18.8837],[93.6152,18.9146],[93.6386,18.8802]]],[[[93.9726,18.8367],[93.975,18.8025],[93.9923,18.7854],[93.9608,18.78],[93.9393,18.8168],[93.9726,18.8367]]],[[[94.1227,18.8084],[94.0678,18.8476],[94.0864,18.8476],[94.1155,18.8697],[94.1131,18.8492],[94.1376,18.8564],[94.1227,18.8084]]],[[[93.5278,18.9017],[93.5252,18.8954],[93.5226,18.8981],[93.5278,18.9017]]],[[[94.0314,19.028],[94.0559,19.0356],[94.0332,19.0228],[94.0314,19.028]]],[[[94.0375,19.0623],[94.0346,19.0444],[94.0199,19.0422],[94.0186,19.0454],[94.0375,19.0623]]],[[[94.0101,19.1091],[94.0031,19.0962],[93.9972,19.103],[94.0101,19.1091]]],[[[93.8276,19.264],[93.8308,19.253],[93.8195,19.2598],[93.8276,19.264]]],[[[93.7518,19.2755],[93.7538,19.2865],[93.7604,19.2793],[93.7518,19.2755]]],[[[93.837,19.2717],[93.8367,19.2933],[93.8451,19.2768],[93.837,19.2717]]],[[[93.8591,19.2982],[93.8639,19.2796],[93.8486,19.2721],[93.8483,19.2923],[93.8591,19.2982]]],[[[93.8275,19.295],[93.8326,19.2758],[93.8046,19.266],[93.7747,19.2932],[93.8275,19.295]]],[[[94.0545,19.3488],[94.0502,19.3391],[94.042,19.3377],[94.0403,19.3418],[94.0545,19.3488]]],[[[93.6879,19.3625],[93.6571,19.3361],[93.6422,19.3591],[93.6746,19.377],[93.6879,19.3625]]],[[[93.6908,19.3944],[93.6724,19.396],[93.6631,19.4074],[93.6908,19.3944]]],[[[93.6262,19.4295],[93.6429,19.4154],[93.6362,19.4039],[93.6262,19.4295]]],[[[93.6616,19.429],[93.6551,19.4218],[93.6531,19.4273],[93.6616,19.429]]],[[[93.6089,19.4347],[93.614,19.4516],[93.6173,19.439],[93.6089,19.4347]]],[[[93.5907,19.4761],[93.5981,19.4617],[93.5827,19.4751],[93.5907,19.4761]]],[[[93.5311,19.4769],[93.5498,19.4732],[93.5522,19.4705],[93.5325,19.4645],[93.5311,19.4769]]],[[[93.6441,19.4497],[93.5998,19.4771],[93.6175,19.4951],[93.6441,19.4497]]],[[[93.5331,19.4847],[93.5197,19.4767],[93.5149,19.5022],[93.524,19.4982],[93.5331,19.4847]]],[[[93.5489,19.4801],[93.5243,19.5071],[93.5182,19.5238],[93.5768,19.4794],[93.5489,19.4801]]],[[[93.8592,19.5002],[93.8177,19.4877],[93.7689,19.5315],[93.8499,19.5076],[93.8592,19.5002]]],[[[93.5319,19.5332],[93.531,19.5284],[93.525,19.5391],[93.5319,19.5332]]],[[[93.643,19.5409],[93.6303,19.546],[93.6397,19.5666],[93.6662,19.5656],[93.643,19.5409]]],[[[93.4938,19.5531],[93.4903,19.5639],[93.5015,19.5447],[93.4938,19.5531]]],[[[93.5892,19.559],[93.6007,19.5511],[93.5878,19.5576],[93.5892,19.559]]],[[[93.6597,19.5781],[93.6681,19.5679],[93.659,19.5753],[93.6597,19.5781]]],[[[93.7184,19.5938],[93.7067,19.5966],[93.7034,19.6042],[93.7184,19.5938]]],[[[93.6354,19.6136],[93.5988,19.612],[93.6156,19.6299],[93.6354,19.6136]]],[[[93.6614,19.6301],[93.6539,19.6291],[93.6549,19.6392],[93.6614,19.6301]]],[[[93.5469,19.649],[93.5394,19.6491],[93.5373,19.6578],[93.5469,19.649]]],[[[93.6952,19.653],[93.6973,19.6616],[93.7,19.6579],[93.6952,19.653]]],[[[93.5791,19.6499],[93.5654,19.664],[93.5891,19.6673],[93.5791,19.6499]]],[[[93.4904,19.7165],[93.5017,19.6741],[93.457,19.6907],[93.4077,19.7406],[93.4407,19.7464],[93.4904,19.7165]]],[[[93.814,19.7108],[93.8104,19.7264],[93.8121,19.7273],[93.814,19.7108]]],[[[93.5763,19.7142],[93.5438,19.6949],[93.5539,19.687],[93.5295,19.6791],[93.5139,19.7164],[93.5825,19.7697],[93.5763,19.7142]]],[[[93.5042,19.7178],[93.4829,19.7251],[93.4726,19.7381],[93.5042,19.7178]]],[[[93.6946,19.7183],[93.6317,19.7182],[93.6369,19.7488],[93.6559,19.7785],[93.6663,19.76],[93.6911,19.7895],[93.7046,19.7612],[93.6946,19.7183]]],[[[93.5806,19.7961],[93.5518,19.7608],[93.5442,19.785],[93.5667,19.8012],[93.5806,19.7961]]],[[[93.7007,19.85],[93.6735,19.8221],[93.6743,19.7998],[93.6318,19.7618],[93.5996,19.7099],[93.5916,19.7776],[93.6301,19.8135],[93.6423,19.8601],[93.7007,19.85]]],[[[93.4054,19.7978],[93.3998,19.7956],[93.4035,19.8074],[93.4054,19.7978]]],[[[93.7015,19.7919],[93.7354,19.8192],[93.7435,19.8326],[93.7368,19.7887],[93.7015,19.7919]]],[[[93.79,19.8378],[93.7771,19.7662],[93.7124,19.7645],[93.7041,19.7837],[93.7335,19.7817],[93.7469,19.7906],[93.7442,19.8485],[93.7634,19.8635],[93.79,19.8378]]],[[[93.5925,19.8151],[93.5822,19.8035],[93.5446,19.8059],[93.583,19.8359],[93.5925,19.8151]]],[[[93.7327,19.8242],[93.6753,19.7916],[93.6872,19.8262],[93.734,19.8509],[93.7327,19.8242]]],[[[93.471,19.9033],[93.4978,19.8995],[93.5115,19.8611],[93.5051,19.8348],[93.4822,19.8391],[93.4692,19.8297],[93.4989,19.8214],[93.5212,19.7592],[93.5112,19.7345],[93.4446,19.7875],[93.3958,19.9583],[93.4275,19.9541],[93.471,19.9033]]],[[[93.6589,19.9056],[93.5996,19.843],[93.5459,19.8272],[93.5471,19.8669],[93.594,19.8746],[93.6184,19.9037],[93.6589,19.9056]]],[[[93.7357,19.8838],[93.6902,19.8775],[93.6632,19.8581],[93.6521,19.8729],[93.6831,19.8949],[93.719,19.882],[93.7357,19.8838]]],[[[93.7206,19.8914],[93.7113,19.8908],[93.7106,19.8934],[93.7206,19.8914]]],[[[93.5199,19.9157],[93.5269,19.8703],[93.5187,19.8667],[93.5011,19.9039],[93.5199,19.9157]]],[[[93.6058,19.9024],[93.5855,19.8796],[93.5699,19.8837],[93.5936,19.9044],[93.6058,19.9024]]],[[[93.7142,19.9279],[93.7233,19.9209],[93.7097,19.9207],[93.7142,19.9279]]],[[[93.5036,19.9304],[93.5031,19.9166],[93.4897,19.9217],[93.4945,19.9236],[93.5036,19.9304]]],[[[93.2272,19.8161],[93.1633,19.9447],[93.1267,20.0519],[93.1575,20.0248],[93.1809,19.9394],[93.2507,19.8162],[93.2272,19.8161]]],[[[93.4991,19.9572],[93.4842,19.9297],[93.4678,19.935],[93.4991,19.9572]]],[[[93.4711,19.9623],[93.4875,19.9522],[93.4629,19.939],[93.4612,19.9413],[93.4711,19.9623]]],[[[93.4495,19.9708],[93.4543,19.9927],[93.4609,19.9581],[93.4495,19.9708]]],[[[93.497,19.9809],[93.4864,19.9612],[93.4729,19.9865],[93.4769,19.9914],[93.497,19.9809]]],[[[93.3349,20.0721],[93.3381,20.0574],[93.3333,20.0521],[93.3349,20.0721]]],[[[93.3049,20.1688],[93.3109,20.1152],[93.3309,20.0821],[93.2991,20.0481],[93.2885,20.1464],[93.3049,20.1688]]],[[[93.3118,20.1313],[93.3256,20.1211],[93.328,20.1069],[93.3214,20.1132],[93.3118,20.1313]]],[[[93.2312,20.113],[93.2035,20.0935],[93.1892,20.0627],[93.1548,20.0721],[93.1272,20.0921],[93.0981,20.1542],[93.123,20.1798],[93.1761,20.1878],[93.1898,20.168],[93.2242,20.1518],[93.2312,20.113]]],[[[93.2806,20.1526],[93.2911,20.0604],[93.275,20.0333],[93.2176,20.0388],[93.1996,20.065],[93.2079,20.0922],[93.2467,20.116],[93.2292,20.1567],[93.1829,20.1916],[93.2081,20.2124],[93.2167,20.2346],[93.2528,20.2427],[93.2512,20.2636],[93.2766,20.2438],[93.3004,20.1904],[93.2837,20.158],[93.251,20.146],[93.2806,20.1526]]],[[[93.3364,20.2789],[93.3577,20.27],[93.3906,20.2092],[93.4112,20.1214],[93.4012,20.1103],[93.3839,20.1859],[93.3959,20.1024],[93.3666,20.084],[93.3799,20.0275],[93.3672,20.0156],[93.3556,20.0728],[93.3143,20.1414],[93.3067,20.2079],[93.2713,20.2575],[93.2776,20.2882],[93.2677,20.2972],[93.2839,20.3204],[93.3205,20.3269],[93.3364,20.2789]]],[[[93.2445,20.3053],[93.2708,20.3147],[93.2636,20.2969],[93.2728,20.2683],[93.2385,20.2685],[93.2445,20.3053]]],[[[93.2847,20.3436],[93.2902,20.3544],[93.286,20.3375],[93.2847,20.3436]]],[[[94.267,29.6009],[94.2529,29.6141],[94.2683,29.6128],[94.267,29.6009]]],[[[97.5884,5.1511],[97.5802,5.1527],[97.5769,5.1653],[97.5884,5.1511]]],[[[97.6431,8.4856],[97.6472,8.4754],[97.6391,8.4849],[97.6431,8.4856]]],[[[97.6378,8.5061],[97.6483,8.497],[97.6486,8.4951],[97.643,8.4952],[97.6378,8.5061]]],[[[97.6397,8.5709],[97.6362,8.5603],[97.6322,8.5734],[97.6397,8.5709]]],[[[97.6346,8.5909],[97.6407,8.5914],[97.6377,8.5865],[97.6346,8.5909]]],[[[97.6515,8.6605],[97.6524,8.6326],[97.6492,8.6287],[97.6368,8.66],[97.6515,8.6605]]],[[[97.6484,8.6815],[97.6481,8.6745],[97.6409,8.6802],[97.6484,8.6815]]],[[[97.7985,8.8296],[97.8002,8.8245],[97.7962,8.8277],[97.7985,8.8296]]],[[[97.8181,9.0681],[97.8098,9.0731],[97.8084,9.0838],[97.8181,9.0681]]],[[[97.8627,9.3659],[97.8691,9.3727],[97.866,9.3651],[97.8627,9.3659]]],[[[97.8682,9.4177],[97.8627,9.405],[97.8825,9.3808],[97.8401,9.4145],[97.8682,9.4177]]],[[[97.8284,9.4188],[97.8347,9.4245],[97.8333,9.4187],[97.8284,9.4188]]],[[[97.8925,9.4599],[97.9001,9.4218],[97.8775,9.4426],[97.8801,9.4145],[97.8462,9.4366],[97.8611,9.436],[97.8544,9.4554],[97.8925,9.4599]]],[[[97.9799,9.6017],[97.9698,9.6218],[97.9537,9.6382],[97.9762,9.6376],[97.9799,9.6017]]],[[[97.9119,9.6751],[97.904,9.6738],[97.911,9.6816],[97.9119,9.6751]]],[[[97.9924,10.0227],[97.986,10.0374],[97.9923,10.0489],[97.9924,10.0227]]],[[[97.9784,10.0757],[97.9935,10.0701],[97.9897,10.0531],[97.9758,10.0616],[97.9784,10.0757]]],[[[97.9601,10.1236],[97.9636,10.15],[97.9814,10.1764],[97.9835,10.1325],[97.9731,10.1413],[97.9601,10.1236]]],[[[97.92,10.1463],[97.9321,10.1555],[97.9332,10.1536],[97.92,10.1463]]],[[[97.8819,10.2026],[97.876,10.1897],[97.8737,10.2003],[97.8819,10.2026]]],[[[98.0,10.3201],[97.9882,10.3267],[98.0,10.3565],[98.0,10.3201]]],[[[97.9732,10.3578],[97.9676,10.347],[97.9702,10.3617],[97.9732,10.3578]]],[[[97.9439,10.3462],[97.9419,10.3598],[97.9521,10.3678],[97.9439,10.3462]]],[[[97.9396,10.4023],[97.9507,10.3959],[97.9491,10.3912],[97.9396,10.4023]]],[[[97.9551,10.4138],[97.96,10.4338],[97.9637,10.4326],[97.9674,10.4091],[97.9551,10.4138]]],[[[97.9474,10.4528],[97.9458,10.4198],[97.9207,10.4268],[97.9132,10.4151],[97.9425,10.4115],[97.8997,10.3938],[97.8991,10.4856],[97.9124,10.4938],[97.909,10.4651],[97.9482,10.476],[97.9352,10.4563],[97.9474,10.4528]]],[[[97.689,10.4663],[97.685,10.4575],[97.6794,10.4619],[97.689,10.4663]]],[[[97.9126,10.4991],[97.8968,10.5042],[97.9208,10.5161],[97.9126,10.4991]]],[[[98.0,10.5605],[97.9915,10.537],[97.9451,10.5591],[97.9812,10.5704],[98.0,10.5605]]],[[[97.9913,10.8487],[97.9947,10.8367],[97.9915,10.8362],[97.9913,10.8487]]],[[[97.9996,10.8825],[98.0,10.8828],[98.0,10.8814],[97.9996,10.8825]]],[[[97.9541,10.9303],[97.9448,10.867],[97.9226,10.8695],[97.8877,10.8415],[97.8927,10.8661],[97.9101,10.8674],[97.8944,10.8946],[97.9197,10.9295],[97.9541,10.9303]]],[[[97.9241,11.275],[97.932,11.2717],[97.925,11.2674],[97.9241,11.275]]],[[[97.9996,11.3836],[97.9922,11.3983],[97.999,11.4087],[98.0,11.4051],[97.9996,11.3836]]],[[[97.9814,11.449],[98.0,11.4351],[97.9723,11.4422],[97.9814,11.449]]],[[[97.5034,11.6356],[97.5053,11.6437],[97.5098,11.645],[97.5034,11.6356]]],[[[97.4817,11.7641],[97.4472,11.7826],[97.4402,11.8008],[97.486,11.7887],[97.4988,11.7733],[97.4817,11.7641]]],[[[97.5257,11.8144],[97.5285,11.7808],[97.4993,11.7818],[97.4772,11.8106],[97.5257,11.8144]]],[[[97.6691,11.8226],[97.6684,11.8048],[97.6479,11.8162],[97.6497,11.8187],[97.6691,11.8226]]],[[[97.4753,11.8233],[97.4681,11.8164],[97.4739,11.826],[97.4753,11.8233]]],[[[97.6429,11.8648],[97.6742,11.8987],[97.6892,11.8879],[97.6739,11.8559],[97.6827,11.8324],[97.6429,11.8648]]],[[[97.9996,11.9566],[97.9753,11.9511],[97.9697,11.9569],[97.9915,11.9697],[97.9996,11.9566]]],[[[97.9226,11.9877],[97.9311,11.9989],[97.9297,11.9857],[97.9226,11.9877]]],[[[97.7415,11.9906],[97.7355,12.0042],[97.7355,12.0086],[97.7549,11.9966],[97.7415,11.9906]]],[[[97.9699,12.0103],[97.9849,12.0243],[97.9935,12.0019],[97.9699,12.0103]]],[[[97.6665,12.0539],[97.6889,12.052],[97.6528,12.0075],[97.6503,12.0337],[97.6665,12.0539]]],[[[97.762,12.0486],[97.7824,12.052],[97.791,12.0462],[97.7688,12.0359],[97.762,12.0486]]],[[[97.9829,12.0531],[97.9627,12.0244],[97.9612,12.0674],[97.9829,12.0531]]],[[[97.9462,12.0477],[97.9397,12.0445],[97.9451,12.0528],[97.9462,12.0477]]],[[[97.6314,12.0416],[97.6354,12.057],[97.6468,12.0623],[97.6463,12.036],[97.6314,12.0416]]],[[[97.9737,12.0957],[97.9849,12.0936],[97.9784,12.0812],[97.9737,12.0957]]],[[[97.9887,12.1039],[98.0,12.1081],[98.0,12.0909],[97.9887,12.1039]]],[[[97.9746,12.1048],[97.9682,12.1183],[97.9735,12.1183],[97.9746,12.1048]]],[[[97.748,12.1239],[97.7271,12.1025],[97.7141,12.1348],[97.7453,12.146],[97.748,12.1239]]],[[[97.9811,12.13],[97.9745,12.1261],[97.9748,12.1337],[97.9811,12.13]]],[[[98.0,12.1414],[98.0,12.1232],[97.9956,12.1246],[98.0,12.1414]]],[[[97.9377,12.2073],[97.927,12.2312],[97.9324,12.2427],[97.9398,12.2287],[97.9377,12.2073]]],[[[97.8664,12.2386],[97.877,12.2434],[97.8678,12.2365],[97.8664,12.2386]]],[[[97.802,12.2809],[97.7722,12.2629],[97.8035,12.3017],[97.802,12.2809]]],[[[97.9445,12.2841],[97.9553,12.2854],[97.96,12.2939],[97.9554,12.2751],[97.9445,12.2841]]],[[[97.8617,12.284],[97.8671,12.2991],[97.8858,12.2931],[97.8802,12.2846],[97.8617,12.284]]],[[[97.9698,12.2971],[97.9704,12.2819],[97.9653,12.2893],[97.9698,12.2971]]],[[[97.9945,12.2795],[97.9813,12.3091],[97.9605,12.3213],[97.9453,12.3129],[97.9786,12.3388],[97.9686,12.3623],[97.9425,12.3311],[97.9567,12.3773],[97.9746,12.3869],[97.9765,12.3649],[98.0,12.3864],[97.9945,12.2795]]],[[[97.8376,12.4512],[97.824,12.4268],[97.8255,12.4728],[97.8376,12.4512]]],[[[97.81,12.5065],[97.8027,12.4964],[97.7966,12.5111],[97.81,12.5065]]],[[[97.8783,12.57],[97.8529,12.539],[97.8266,12.5836],[97.8444,12.5842],[97.8491,12.6],[97.8783,12.57]]],[[[97.8639,12.6069],[97.8515,12.606],[97.8555,12.6136],[97.8639,12.6069]]],[[[97.8803,12.6204],[97.8634,12.6145],[97.8616,12.621],[97.8675,12.6274],[97.8803,12.6204]]],[[[97.8586,12.7685],[97.835,12.7875],[97.8557,12.8093],[97.8456,12.8203],[97.8716,12.8064],[97.8846,12.7737],[97.8586,12.7685]]],[[[97.9278,13.8521],[97.9134,13.7836],[97.9026,13.797],[97.9125,13.8685],[97.9278,13.8521]]],[[[97.9132,13.9387],[97.919,13.911],[97.9173,13.8862],[97.9021,13.9267],[97.9132,13.9387]]],[[[97.8244,14.1246],[97.8045,14.109],[97.8013,14.1339],[97.8244,14.1246]]],[[[97.7883,14.176],[97.8243,14.1837],[97.8134,14.1559],[97.7919,14.1344],[97.7792,14.1517],[97.7883,14.176]]],[[[97.8008,14.2684],[97.8168,14.275],[97.81,14.2617],[97.8008,14.2684]]],[[[97.7677,14.3957],[97.7746,14.4127],[97.7835,14.4145],[97.7802,14.389],[97.7677,14.3957]]],[[[97.7657,14.4376],[97.7758,14.4338],[97.7657,14.4339],[97.7657,14.4376]]],[[[97.7399,15.0735],[97.7358,15.0583],[97.7323,15.0554],[97.7274,15.0641],[97.7399,15.0735]]],[[[97.7416,15.0953],[97.7418,15.0802],[97.7381,15.0963],[97.7416,15.0953]]],[[[97.7407,15.2026],[97.7301,15.2004],[97.7351,15.2073],[97.7407,15.2026]]],[[[97.6608,15.5668],[97.6642,15.5139],[97.6552,15.494],[97.6462,15.5884],[97.6504,15.5634],[97.6608,15.5668]]],[[[97.5912,16.331],[97.6161,16.2773],[97.5936,16.2399],[97.5768,16.2936],[97.5912,16.331]]],[[[97.6081,16.4883],[97.6115,16.4467],[97.5794,16.3995],[97.5904,16.3597],[97.5683,16.314],[97.5706,16.2383],[97.5368,16.2263],[97.5009,16.2468],[97.4565,16.3187],[97.482,16.3525],[97.4418,16.4469],[97.472,16.4712],[97.4465,16.4702],[97.5023,16.5124],[97.5793,16.4835],[97.6081,16.4883]]],[[[97.6015,16.4039],[97.6131,16.3953],[97.606,16.3791],[97.6029,16.3816],[97.6015,16.4039]]],[[[96.3192,16.4688],[96.309,16.4677],[96.3076,16.4757],[96.3192,16.4688]]],[[[97.5905,16.4882],[97.5739,16.4879],[97.5694,16.493],[97.5905,16.4882]]],[[[97.534,16.514],[97.5467,16.5019],[97.5285,16.5115],[97.534,16.514]]],[[[97.6083,16.5085],[97.5876,16.5066],[97.5555,16.5248],[97.6083,16.5085]]],[[[97.651,16.5202],[97.6492,16.5078],[97.6466,16.5085],[97.651,16.5202]]],[[[97.5148,16.5236],[97.4991,16.5271],[97.5211,16.5336],[97.5148,16.5236]]],[[[97.6626,16.5582],[97.6564,16.5387],[97.6276,16.5296],[97.6435,16.5772],[97.6484,16.5661],[97.6626,16.5582]]],[[[97.7111,16.5602],[97.7152,16.5643],[97.7161,16.5622],[97.7111,16.5602]]],[[[97.6508,16.5698],[97.6515,16.5872],[97.6534,16.5681],[97.6508,16.5698]]],[[[97.6424,16.5868],[97.6325,16.5706],[97.6122,16.58],[97.6261,16.6184],[97.6424,16.5868]]],[[[96.3085,16.8575],[96.3047,16.8419],[96.3033,16.8612],[96.3085,16.8575]]],[[[97.1871,16.8463],[97.183,16.8705],[97.1928,16.8777],[97.1989,16.8658],[97.1871,16.8463]]],[[[96.6557,17.3309],[96.6759,17.3462],[96.6652,17.3236],[96.6557,17.3309]]],[[[96.778,17.3694],[96.7677,17.3663],[96.7776,17.3754],[96.778,17.3694]]],[[[96.8428,17.407],[96.7884,17.3795],[96.7766,17.4062],[96.7413,17.4254],[96.7409,17.4431],[96.7865,17.4833],[96.8078,17.4389],[96.8428,17.407]]],[[[94.7502,16.3834],[94.7858,16.3564],[94.8134,16.3558],[94.8254,16.3704],[94.7948,16.3601],[94.7519,16.3905],[94.7347,16.3608],[94.7195,16.3662],[94.7242,16.3986],[94.7432,16.4022],[94.75,16.4194],[94.7586,16.4096],[94.7705,16.4093],[94.7839,16.4261],[94.7588,16.4138],[94.7478,16.4265],[94.7126,16.3942],[94.6959,16.4757],[94.7404,16.5202],[94.7463,16.569],[94.7898,16.5778],[94.8004,16.5907],[94.7465,16.5768],[94.7281,16.5145],[94.6898,16.4927],[94.6782,16.5132],[94.7012,16.5517],[94.7103,16.6135],[94.7423,16.6328],[94.7216,16.6872],[94.7447,16.6957],[94.7416,16.7301],[94.7218,16.7336],[94.738,16.7245],[94.7361,16.7004],[94.7173,16.6913],[94.7098,16.6537],[94.733,16.629],[94.6784,16.6436],[94.6989,16.6797],[94.6889,16.7396],[94.6936,16.6767],[94.6754,16.6933],[94.6823,16.6714],[94.6688,16.6524],[94.6511,16.6702],[94.6557,16.6579],[94.6743,16.6497],[94.6581,16.6276],[94.6913,16.6391],[94.7012,16.6217],[94.6924,16.5549],[94.6644,16.5184],[94.6796,16.3932],[94.6529,16.3403],[94.6233,16.338],[94.6403,16.3835],[94.6062,16.3372],[94.6021,16.2844],[94.5648,16.2582],[94.531,16.2921],[94.5464,16.308],[94.5265,16.2987],[94.5119,16.2832],[94.5109,16.1802],[94.4336,16.0697],[94.3681,16.0546],[94.3419,16.0163],[94.2827,16.0],[94.2435,15.9541],[94.1976,16.0363],[94.2285,16.252],[94.2433,16.2647],[94.2309,16.3217],[94.2643,16.3968],[94.2771,16.4963],[94.2615,16.5308],[94.2907,16.5387],[94.2897,16.5191],[94.3149,16.5196],[94.3503,16.5688],[94.3234,16.6005],[94.3508,16.6207],[94.368,16.6149],[94.3563,16.6903],[94.3759,16.7572],[94.4039,16.7885],[94.3788,16.8748],[94.3885,16.907],[94.4106,16.8895],[94.4434,16.9306],[94.484,16.9432],[94.4782,16.9576],[94.443,16.9481],[94.4582,16.9806],[94.4567,17.0673],[94.4896,17.1177],[94.4558,17.1417],[94.4447,17.179],[94.4644,17.1882],[94.4993,17.1568],[94.5216,17.1687],[94.5363,17.1869],[94.5014,17.2162],[94.5083,17.2999],[94.5264,17.2768],[94.5464,17.2903],[94.5409,17.319],[94.5815,17.2885],[94.5917,17.3042],[94.5715,17.3171],[94.5654,17.4983],[94.5416,17.5488],[94.563,17.5931],[94.6099,17.5365],[94.6112,17.5501],[94.5769,17.5914],[94.5884,17.6192],[94.5692,17.6453],[94.5588,17.6362],[94.5416,17.6813],[94.5448,17.7349],[94.4897,17.7824],[94.4815,17.9029],[94.4375,17.9956],[94.4777,18.0065],[94.4847,18.0557],[94.4469,18.1691],[94.4198,18.1937],[94.4268,18.2197],[94.4075,18.2462],[94.3372,18.2416],[94.322,18.2642],[94.3284,18.302],[94.3911,18.2835],[94.4074,18.3107],[94.4023,18.3463],[94.3816,18.3656],[94.3376,18.3662],[94.3225,18.4359],[94.2492,18.5245],[94.2626,18.5486],[94.2513,18.5468],[94.2579,18.6085],[94.2402,18.6458],[94.1409,18.736],[94.1744,18.714],[94.1745,18.7283],[94.2197,18.7182],[94.28,18.7351],[94.253,18.7341],[94.2492,18.7552],[94.2388,18.7347],[94.2169,18.731],[94.2064,18.7431],[94.2243,18.7812],[94.2039,18.7527],[94.1916,18.7712],[94.1993,18.7931],[94.1831,18.7796],[94.1465,18.8144],[94.1762,18.8347],[94.1458,18.8353],[94.1523,18.8795],[94.1696,18.89],[94.1467,18.8848],[94.127,18.8567],[94.1169,18.8566],[94.1287,18.8786],[94.0553,18.8461],[94.0309,18.8633],[94.0439,18.8846],[94.0738,18.8676],[94.0906,18.8806],[94.1057,18.8997],[94.1353,18.892],[94.1086,18.9296],[94.113,18.9662],[94.0864,18.8798],[94.0315,18.8964],[94.0552,18.9352],[94.0364,18.9913],[94.0632,19.0376],[94.0586,19.0598],[94.1021,19.0766],[94.0897,19.085],[94.097,19.0986],[94.1228,19.0846],[94.109,19.1051],[94.1466,19.1191],[94.1161,19.1204],[94.0545,19.0754],[94.0272,19.0792],[94.0375,19.1067],[94.1385,19.1514],[94.1357,19.1796],[94.1295,19.1561],[94.1075,19.1513],[94.0927,19.1822],[94.0911,19.1484],[94.0648,19.1263],[94.0735,19.165],[94.0624,19.1881],[94.0568,19.1255],[94.0329,19.1296],[94.0492,19.2206],[94.0711,19.2339],[94.0469,19.2483],[94.042,19.3002],[94.0763,19.3661],[94.0715,19.3837],[94.0687,19.3706],[94.0394,19.3453],[94.0315,19.3281],[94.0355,19.2177],[94.0163,19.1814],[93.9914,19.2229],[94.005,19.1555],[93.9663,19.1395],[93.9438,19.1562],[93.938,19.2012],[93.9092,19.1995],[93.9677,19.1238],[93.9534,19.0885],[93.9557,19.0208],[93.9858,18.9614],[93.9559,18.9192],[93.9596,18.8981],[93.9399,18.8857],[93.9373,18.8473],[93.8923,18.8923],[93.7728,18.9664],[93.7448,18.9689],[93.7151,19.0075],[93.6742,19.0102],[93.6659,19.0664],[93.6901,19.0844],[93.6976,19.1146],[93.7476,19.1212],[93.6942,19.1196],[93.6897,19.0961],[93.6629,19.0763],[93.6393,19.1378],[93.5992,19.1513],[93.5699,19.2256],[93.4727,19.3633],[93.4841,19.4091],[93.5135,19.4341],[93.5509,19.4324],[93.568,19.4163],[93.5514,19.4101],[93.5682,19.4046],[93.6041,19.4145],[93.6374,19.3542],[93.6343,19.3399],[93.6172,19.3482],[93.6001,19.3227],[93.6214,19.3411],[93.6672,19.3022],[93.6417,19.2398],[93.6446,19.2238],[93.6815,19.3001],[93.7215,19.2926],[93.6948,19.2819],[93.7269,19.2754],[93.7207,19.2445],[93.739,19.2567],[93.809,19.2263],[93.8733,19.2466],[93.9559,19.3061],[93.9498,19.3369],[93.9722,19.3514],[93.9817,19.385],[94.0108,19.381],[93.9834,19.4055],[93.9663,19.3584],[93.8921,19.2916],[93.8817,19.3076],[93.9191,19.3345],[93.9218,19.3772],[93.9111,19.3353],[93.8842,19.3196],[93.8889,19.3534],[93.8589,19.3878],[93.8824,19.3531],[93.8692,19.3068],[93.7751,19.301],[93.7392,19.345],[93.7463,19.3542],[93.7753,19.3403],[93.78,19.3542],[93.7704,19.3447],[93.7533,19.3575],[93.7323,19.3566],[93.7319,19.3826],[93.7121,19.4014],[93.7393,19.4088],[93.6517,19.4445],[93.6372,19.4889],[93.6546,19.4919],[93.6468,19.5122],[93.6875,19.5654],[93.7462,19.5422],[93.7688,19.4853],[93.7758,19.5037],[93.7933,19.5003],[93.8187,19.4643],[93.8567,19.4843],[93.8585,19.4404],[93.877,19.473],[93.9764,19.4188],[93.9971,19.4525],[93.9766,19.4629],[93.9536,19.4479],[93.9046,19.468],[93.9485,19.5081],[93.9383,19.564],[93.9323,19.4985],[93.9024,19.4885],[93.7768,19.5911],[93.8164,19.6042],[93.7935,19.614],[93.7602,19.5991],[93.722,19.6265],[93.7476,19.6525],[93.7943,19.6598],[93.7882,19.6815],[93.8193,19.7111],[93.8181,19.7292],[93.8066,19.7392],[93.7986,19.7014],[93.727,19.6711],[93.7059,19.7028],[93.7208,19.7483],[93.7914,19.7691],[93.7976,19.8329],[93.7863,19.8628],[93.7979,19.8666],[93.8012,19.891],[93.7933,19.916],[93.7937,19.873],[93.7386,19.8852],[93.7145,19.9079],[93.7457,19.9152],[93.7085,19.9375],[93.7091,19.9673],[93.702,19.9144],[93.6218,19.917],[93.5518,19.8885],[93.5419,19.9036],[93.5754,19.9201],[93.5867,19.9378],[93.5688,19.9212],[93.5416,19.924],[93.546,19.9363],[93.5161,19.9234],[93.5121,19.9438],[93.5365,19.9552],[93.5085,19.9613],[93.5071,19.9748],[93.5401,19.9909],[93.4818,19.9914],[93.4674,20.0443],[93.4585,20.0541],[93.4762,20.0609],[93.4548,20.0552],[93.4762,20.0065],[93.4661,19.9825],[93.4543,19.9959],[93.4392,19.9925],[93.4567,19.95],[93.416,19.9708],[93.3807,20.0659],[93.3841,20.0801],[93.4167,20.0799],[93.4148,20.1121],[93.4329,20.1052],[93.4126,20.1727],[93.3623,20.2736],[93.343,20.2772],[93.3234,20.3297],[93.2966,20.33],[93.3259,20.3859],[93.3254,20.4036],[93.2805,20.3482],[93.2801,20.3282],[93.2398,20.306],[93.2306,20.2739],[93.2464,20.2454],[93.2099,20.2347],[93.1825,20.1969],[93.117,20.1857],[93.2165,20.2861],[93.2259,20.3076],[93.2124,20.3278],[93.2512,20.4261],[93.2252,20.3917],[93.198,20.3871],[93.2235,20.376],[93.203,20.3226],[93.1243,20.3281],[93.1374,20.3425],[93.1321,20.3693],[93.1563,20.3591],[93.1748,20.3741],[93.1293,20.3762],[93.1742,20.3994],[93.1648,20.422],[93.1681,20.4002],[93.0939,20.3798],[93.0884,20.4013],[93.1111,20.4138],[93.1167,20.4272],[93.107,20.5041],[93.087,20.5198],[93.1051,20.5307],[93.0919,20.53],[93.0702,20.602],[93.0483,20.5975],[93.0217,20.6219],[93.0277,20.6439],[93.0055,20.6398],[93.0178,20.6122],[93.0757,20.5792],[93.081,20.5411],[93.0258,20.4274],[93.0173,20.454],[93.0428,20.4633],[93.0402,20.4931],[93.0636,20.5246],[93.035,20.5378],[93.0556,20.5207],[93.0195,20.4791],[93.0333,20.4857],[93.0386,20.4686],[93.0135,20.4606],[93.0243,20.3894],[93.0091,20.2869],[92.963,20.2257],[92.945,20.2675],[92.915,20.2419],[92.9146,20.2122],[92.8862,20.2095],[92.9203,20.1809],[92.8966,20.1094],[92.8531,20.1232],[92.7649,20.2],[92.7873,20.2401],[92.7969,20.2102],[92.8305,20.1805],[92.8458,20.1823],[92.799,20.2141],[92.7988,20.2583],[92.9445,20.3156],[92.8982,20.3078],[92.8393,20.3808],[92.9108,20.3717],[92.9315,20.3863],[92.9417,20.3522],[92.9508,20.374],[92.9127,20.414],[92.9289,20.4212],[92.9326,20.4327],[92.8983,20.4822],[92.9285,20.4299],[92.9072,20.421],[92.9175,20.3833],[92.9063,20.3787],[92.8867,20.4218],[92.8866,20.4039],[92.8571,20.4195],[92.8637,20.4051],[92.8418,20.4017],[92.8166,20.4429],[92.8337,20.4407],[92.8383,20.4688],[92.8487,20.4591],[92.8275,20.4968],[92.8108,20.4924],[92.7961,20.5101],[92.7639,20.4734],[92.7523,20.4794],[92.7322,20.5696],[92.7486,20.5782],[92.7524,20.5867],[92.7468,20.5986],[92.7266,20.6168],[92.7482,20.5876],[92.731,20.5792],[92.6844,20.6278],[92.6456,20.6891],[92.645,20.7277],[92.5832,20.7199],[92.591,20.732],[92.5697,20.7796],[92.5997,20.7956],[92.6024,20.8064],[92.5649,20.7864],[92.5494,20.8493],[92.5449,20.8118],[92.5713,20.7516],[92.5466,20.7631],[92.5441,20.743],[92.591,20.6851],[92.607,20.6776],[92.6395,20.6883],[92.6954,20.5825],[92.7292,20.5496],[92.72,20.4706],[92.7478,20.4143],[92.7299,20.2954],[92.747,20.256],[92.7285,20.26],[92.638,20.4332],[92.5281,20.5435],[92.5133,20.5993],[92.4633,20.6445],[92.4661,20.6597],[92.3774,20.6957],[92.3877,20.7048],[92.3611,20.7723],[92.3901,20.8168],[92.3787,20.8246],[92.3584,20.7833],[92.3353,20.8433],[92.3602,20.8647],[92.3366,20.8509],[92.3146,20.8826],[92.3164,20.901],[92.3619,20.9419],[92.3477,20.9871],[92.3313,20.9978],[92.2968,20.9872],[92.2891,21.0036],[92.2933,20.98],[92.2798,20.9694],[92.2694,21.0182],[92.2887,21.0225],[92.2646,21.0358],[92.3128,21.0579],[92.3122,21.0703],[92.2734,21.0458],[92.2297,21.1046],[92.2243,21.1365],[92.198,21.1546],[92.1976,21.1198],[92.255,21.0615],[92.2494,21.026],[92.2627,20.9273],[92.313,20.8469],[92.3408,20.7524],[92.3261,20.7433],[92.2996,20.7607],[92.2117,20.9253],[92.1847,21.0139],[92.0533,21.1632],[92.0496,21.2642],[92.0289,21.3402],[91.9535,21.4502],[91.9993,21.5054],[92.0221,21.4864],[91.9963,21.5656],[92.0246,21.6034],[92.0184,21.6251],[92.0389,21.6476],[92.0405,21.6722],[92.0251,21.6822],[92.0352,21.7006],[92.021,21.7182],[92.0118,21.6601],[91.9852,21.6542],[91.9741,21.6664],[91.9841,21.6875],[91.9796,21.7042],[91.9766,21.6841],[91.9617,21.6831],[91.9481,21.7453],[91.9694,21.7384],[91.9964,21.7558],[91.9925,21.7678],[91.9716,21.7472],[91.9545,21.7539],[91.9706,21.7862],[91.9424,21.8042],[91.9308,21.7855],[91.8912,21.7773],[91.9199,21.8473],[91.9095,21.9079],[91.9275,21.9345],[91.8949,21.9689],[91.8616,22.0766],[91.9155,22.1645],[91.8704,22.3298],[91.8948,22.3944],[91.9281,22.4147],[92.0019,22.4046],[92.022,22.4167],[92.0349,22.4459],[92.0815,22.4371],[92.1417,22.4615],[92.1439,22.4703],[92.0873,22.4443],[92.0331,22.4505],[92.0029,22.4124],[91.9541,22.421],[91.8964,22.4094],[91.8679,22.345],[91.8531,22.4341],[91.7161,22.5436],[91.6339,22.708],[91.5243,22.8724],[91.4821,22.8724],[91.4565,22.8936],[91.4884,22.9029],[91.4473,22.9028],[91.441,22.8836],[91.4654,22.8724],[91.4147,22.8724],[91.36,22.7996],[91.33,22.8335],[91.3506,22.8515],[91.3392,22.8826],[91.3158,22.8394],[91.3514,22.788],[91.3426,22.7763],[91.2963,22.8102],[91.1869,22.7977],[91.1164,22.8119],[91.1127,22.8262],[91.0958,22.82],[91.099,22.8052],[91.0404,22.797],[90.9375,22.8561],[90.8246,22.8647],[90.8016,22.9088],[90.7578,22.9387],[90.7958,22.898],[90.7954,22.8634],[90.7332,22.8875],[90.6896,22.9783],[90.6294,22.9981],[90.5663,23.1036],[90.6086,23.1919],[90.7023,23.2012],[91.6065,23.4752],[92.0175,23.9136],[92.0722,24.352],[92.3188,24.9],[92.4832,25.0644],[93.0312,25.3109],[93.4422,25.4205],[93.771,25.6123],[94.0176,25.9137],[94.2368,26.2425],[94.5382,26.6261],[94.7133,26.7217],[95.2143,27.5377],[95.0039,27.3385],[94.456,27.1193],[94.1272,27.0919],[93.5244,26.9549],[92.812,26.9275],[92.5654,26.9823],[92.0449,26.8727],[91.6065,26.8179],[90.9763,26.5439],[90.7571,26.5987],[90.4283,26.6535],[90.0995,26.5713],[89.5789,26.4891],[88.3541,26.2275],[88.2749,26.3782],[88.0929,26.4507],[88.0241,26.3658],[88.0018,26.3639],[87.9858,26.391],[87.9134,26.4328],[87.9219,26.4451],[87.8968,26.4482],[87.8899,26.4841],[87.8423,26.4354],[87.7842,26.4692],[87.756,26.4087],[87.6697,26.4336],[87.6741,26.4188],[87.6423,26.3926],[87.601,26.3825],[87.4946,26.4382],[87.4224,26.431],[87.3651,26.4059],[87.3501,26.3614],[87.328,26.3567],[87.2662,26.3771],[87.2492,26.4149],[87.1616,26.4069],[87.1101,26.437],[87.0835,26.4719],[87.0665,26.5894],[87.0411,26.5886],[87.0075,26.5337],[86.9273,26.5159],[86.9244,26.4935],[86.8955,26.4938],[86.8724,26.4591],[86.8236,26.4435],[86.7628,26.4608],[86.735,26.4272],[86.5678,26.5006],[86.5391,26.5387],[86.3404,26.61],[86.3409,26.6219],[86.2531,26.6191],[86.2183,26.5939],[86.1961,26.6177],[86.1394,26.615],[86.1342,26.6302],[86.0318,26.6706],[85.9656,26.6539],[85.9483,26.6138],[85.8505,26.5679],[85.8487,26.6086],[85.8221,26.6075],[85.7316,26.6584],[85.7206,26.8208],[85.6461,26.8549],[85.6243,26.8805],[85.5931,26.8545],[85.5693,26.8647],[85.459,26.7903],[85.4041,26.7947],[85.331,26.7471],[85.2067,26.7671],[85.18,26.8051],[85.1873,26.8745],[85.1024,26.8762],[85.0657,26.8539],[85.0276,26.8555],[85.0265,26.8705],[85.0546,26.8906],[84.968,26.9171],[84.9759,26.9412],[84.9602,26.9629],[84.8656,26.9855],[84.8277,27.0222],[84.7901,27.0019],[84.7739,27.0197],[84.7481,27.0106],[84.6442,27.0491],[84.6752,27.1012],[84.6908,27.2115],[84.6277,27.3282],[84.2863,27.3892],[84.2569,27.4451],[84.2107,27.4411],[84.2083,27.4671],[84.1482,27.492],[84.1551,27.5199],[84.1021,27.5201],[84.0599,27.4522],[84.0226,27.4349],[83.8503,27.4446],[83.8347,27.4289],[83.8819,27.3806],[83.864,27.3519],[83.6241,27.4674],[83.3891,27.4804],[83.3995,27.4524],[83.3832,27.4356],[83.4083,27.4139],[83.3862,27.3741],[83.3489,27.3387],[83.2942,27.3352],[83.2671,27.3902],[83.1896,27.4538],[82.9968,27.4574],[82.9579,27.4674],[82.9233,27.5043],[82.8132,27.4958],[82.7611,27.5068],[82.7403,27.5622],[82.756,27.5592],[82.7568,27.5856],[82.701,27.722],[82.4446,27.6864],[82.2127,27.8396],[82.1165,27.8694],[82.0675,27.9244],[81.9664,27.9303],[81.9189,27.8612],[81.8903,27.8585],[81.7003,27.9896],[81.6426,27.9962],[81.4808,28.0795],[81.482,28.117],[81.4455,28.1604],[81.3285,28.1875],[81.2345,28.2799],[81.2327,28.3252],[81.2018,28.3673],[81.0366,28.4078],[81.0289,28.3942],[81.0165,28.4108],[81.0304,28.4285],[81.0107,28.4321],[81.0093,28.4507],[80.9696,28.4345],[80.9727,28.4596],[80.9575,28.4472],[80.905,28.4609],[80.8983,28.5005],[80.8745,28.5091],[80.8444,28.4921],[80.7531,28.5698],[80.7081,28.5708],[80.6615,28.6389],[80.5919,28.6478],[80.5771,28.6855],[80.5328,28.6876],[80.5017,28.6668],[80.5264,28.5702],[80.5113,28.5558],[80.472,28.5837],[80.4428,28.6322],[80.3573,28.6392],[80.3224,28.6696],[80.3158,28.6989],[80.2538,28.7252],[80.2577,28.7526],[80.2128,28.7563],[79.7739,28.991],[78.5604,29.5145],[78.5371,29.6674],[78.1809,29.777],[78.3727,29.7222],[77.9069,29.9414],[77.633,30.2976],[77.496,30.6538],[77.5782,30.8182],[77.7974,31.0099],[78.0987,30.9826],[78.4275,30.7634],[78.6193,30.5716],[78.7837,30.2976],[78.7837,29.777],[80.1515,29.1079],[82.3633,28.2595],[83.4794,27.9208],[85.2394,27.4292],[87.0464,26.7453],[89.3447,27.0605],[89.3555,27.034],[89.8255,27.1467],[90.1269,27.1467],[90.5927,27.1741],[90.8119,27.1467],[91.3325,27.1467],[91.9901,27.2563],[92.264,27.3385],[93.4696,27.5303],[94.045,27.8043],[94.5382,27.9413],[94.73,28.0235],[95.0039,28.1878],[95.4971,28.4344],[95.7985,28.4892],[96.5154,29.0752],[96.4811,28.9822],[96.4969,28.9602],[96.5179,28.9654],[96.5423,28.8788],[96.6222,28.7692],[96.589,28.7163],[96.5317,28.7141],[96.4728,28.6792],[96.4879,28.6278],[96.4336,28.5825],[96.4084,28.5819],[96.4157,28.5662],[96.3335,28.5299],[96.3663,28.4756],[96.2711,28.4075],[96.3017,28.4044],[96.3276,28.3807],[96.3718,28.3883],[96.3976,28.3418],[96.4268,28.3468],[96.4376,28.3903],[96.4626,28.4145],[96.5179,28.4166],[96.5914,28.46],[96.656,28.4557],[96.7441,28.4143],[96.7708,28.3639],[96.8495,28.3556],[96.8945,28.3736],[96.9274,28.3421],[97.0033,28.3186],[97.0904,28.3684],[97.1362,28.3697],[97.1555,28.3377],[97.184,28.3342],[97.2044,28.3086],[97.2296,28.3102],[97.2574,28.2631],[97.3479,28.212],[97.3564,28.2433],[97.4111,28.2508],[97.3998,28.2782],[97.4147,28.2961],[97.4632,28.2733],[97.48,28.2846],[97.4685,28.3082],[97.5118,28.3191],[97.5181,28.3317],[97.4914,28.3517],[97.4827,28.3858],[97.5071,28.4092],[97.4996,28.4325],[97.5208,28.4443],[97.5076,28.4985],[97.5763,28.5471],[97.604,28.5188],[97.6601,28.5354],[97.7163,28.4997],[97.7365,28.4693],[97.7376,28.4],[97.7737,28.3729],[97.7957,28.3312],[97.8424,28.3304],[97.8656,28.3634],[97.913,28.3642],[97.9635,28.3162],[97.953,28.3038],[98.0,28.2793],[98.0,25.275],[97.9468,25.2228],[97.8987,25.2258],[97.9111,25.2083],[97.9411,25.2142],[98.0,25.258],[98.0,24.0642],[97.9125,24.0267],[97.9003,24.0169],[97.8705,23.986],[97.8925,23.9743],[97.8979,24.0116],[98.0,24.0431],[98.0,14.4825],[97.9851,14.4713],[97.9669,14.4417],[97.9654,14.4261],[97.9407,14.5262],[97.9058,14.5783],[97.9134,14.6195],[97.9047,14.6107],[97.8728,14.671],[97.8944,14.7054],[97.8855,14.7229],[97.8678,14.7078],[97.8392,14.7187],[97.7918,14.8683],[97.8083,14.9501],[97.7969,14.9973],[97.8132,15.0062],[97.8244,15.0243],[97.791,14.9984],[97.7707,15.0183],[97.7958,15.0271],[97.8063,15.1503],[97.787,15.1795],[97.7951,15.1903],[97.7653,15.1971],[97.7387,15.2445],[97.7417,15.295],[97.7215,15.3328],[97.7275,15.3548],[97.7469,15.3561],[97.7465,15.3837],[97.7828,15.397],[97.7408,15.4871],[97.762,15.5281],[97.6994,15.7541],[97.7217,15.7717],[97.7179,15.8434],[97.6754,15.9144],[97.6103,15.949],[97.6035,15.9803],[97.5713,16.0108],[97.5582,16.0726],[97.5967,16.0851],[97.6143,16.0611],[97.6277,16.0504],[97.648,16.0442],[97.6654,16.0486],[97.6772,16.0283],[97.6969,16.0275],[97.6673,16.0521],[97.6202,16.0587],[97.6072,16.1036],[97.5978,16.097],[97.6438,16.27],[97.6155,16.3556],[97.6294,16.3873],[97.6141,16.4256],[97.6284,16.4532],[97.6253,16.5],[97.6486,16.4984],[97.6621,16.5123],[97.6624,16.4765],[97.6823,16.4655],[97.7025,16.4706],[97.7044,16.4501],[97.7232,16.4502],[97.7198,16.4268],[97.7539,16.4141],[97.7355,16.4023],[97.7334,16.3833],[97.7784,16.3746],[97.7974,16.354],[97.7858,16.3396],[97.7874,16.3327],[97.8346,16.3236],[97.8601,16.2918],[97.8887,16.2862],[97.8521,16.3024],[97.8441,16.3234],[97.7924,16.3327],[97.8031,16.3534],[97.7905,16.3703],[97.7614,16.386],[97.7372,16.386],[97.7578,16.4177],[97.7289,16.4247],[97.7259,16.4541],[97.7068,16.4536],[97.7023,16.474],[97.6641,16.48],[97.6755,16.5007],[97.6684,16.5455],[97.7465,16.5616],[97.7089,16.5706],[97.6685,16.5549],[97.6442,16.6134],[97.6214,16.6433],[97.6076,16.581],[97.6264,16.5585],[97.6215,16.5187],[97.5325,16.5376],[97.4885,16.5387],[97.481,16.5218],[97.3928,16.5251],[97.3629,16.479],[97.3284,16.6589],[97.3466,16.6471],[97.3939,16.64],[97.4108,16.6424],[97.424,16.6584],[97.3927,16.6437],[97.3457,16.6544],[97.3406,16.6666],[97.3578,16.6694],[97.3476,16.6786],[97.328,16.667],[97.3301,16.6963],[97.3439,16.6953],[97.3419,16.7341],[97.3403,16.7095],[97.3207,16.7102],[97.3185,16.668],[97.2772,16.6862],[97.2398,16.7684],[97.2498,16.8225],[97.2349,16.8088],[97.2226,16.8417],[97.227,16.8573],[97.2664,16.8442],[97.2781,16.8505],[97.2659,16.8701],[97.265,16.8481],[97.2228,16.8672],[97.2092,16.8129],[97.1998,16.8823],[97.218,16.9017],[97.2191,16.9379],[97.1906,16.8911],[97.1748,16.8905],[97.1693,16.9107],[97.2072,17.008],[97.1547,17.0678],[97.1533,17.0952],[97.1909,17.1169],[97.2134,17.0874],[97.2645,17.1036],[97.2278,17.1029],[97.2063,17.1338],[97.1791,17.1294],[97.1365,17.1162],[97.1343,17.0806],[97.1143,17.0778],[97.0887,17.1652],[97.1067,17.1878],[97.0833,17.1817],[97.0592,17.2533],[97.0003,17.2667],[97.0091,17.3],[96.9116,17.357],[96.8832,17.4541],[96.8649,17.3961],[96.8434,17.3893],[96.849,17.4134],[96.7859,17.49],[96.7671,17.4792],[96.7344,17.4353],[96.7735,17.3763],[96.7225,17.3474],[96.6924,17.3664],[96.6498,17.3383],[96.6683,17.2691],[96.6962,17.2479],[96.7086,17.2545],[96.6769,17.2675],[96.6854,17.3453],[96.725,17.3382],[96.8366,17.3809],[96.8401,17.3648],[96.8443,17.3762],[96.8597,17.3615],[96.856,17.3431],[96.863,17.3527],[96.9111,17.3215],[96.8907,17.3119],[96.9129,17.3049],[96.9024,17.2717],[96.8335,17.2052],[96.8487,17.2008],[96.8771,17.1123],[96.9001,17.0889],[96.9121,17.0177],[96.8737,16.911],[96.8383,16.9272],[96.8509,16.9591],[96.8346,16.9511],[96.8316,16.9194],[96.8552,16.8877],[96.8359,16.9046],[96.8251,16.8937],[96.8072,16.9106],[96.7967,16.9065],[96.8333,16.8788],[96.853,16.8372],[96.8078,16.7555],[96.7808,16.7818],[96.7746,16.7731],[96.8013,16.7397],[96.7713,16.6916],[96.5964,16.5366],[96.4938,16.5046],[96.3837,16.4966],[96.2847,16.5537],[96.2867,16.5918],[96.3336,16.6234],[96.4268,16.6076],[96.4699,16.6127],[96.3313,16.6287],[96.2874,16.6001],[96.2778,16.5775],[96.2638,16.6474],[96.2348,16.6789],[96.2228,16.7542],[96.3156,16.8334],[96.3456,16.8333],[96.3941,16.8594],[96.4084,16.8552],[96.4861,16.8699],[96.5119,16.8882],[96.4839,16.8731],[96.3948,16.864],[96.3244,16.8384],[96.32,16.869],[96.3477,16.9059],[96.3007,16.8637],[96.298,16.8408],[96.2776,16.8693],[96.3037,16.8261],[96.2035,16.7632],[96.1847,16.7765],[96.195,16.7898],[96.1915,16.7999],[96.2124,16.7983],[96.2246,16.8111],[96.2182,16.8412],[96.2089,16.8458],[96.2203,16.8109],[96.1917,16.8059],[96.1802,16.7767],[96.1973,16.7597],[96.1288,16.7711],[96.1207,16.8138],[96.1155,16.8122],[96.1319,16.7589],[96.119,16.7566],[96.1921,16.7409],[96.2157,16.6707],[96.2461,16.636],[96.2366,16.6078],[96.1735,16.5831],[96.1736,16.5163],[96.1926,16.4892],[96.1805,16.4874],[96.1754,16.4635],[96.1417,16.4537],[96.1628,16.4177],[96.0771,16.3572],[96.0173,16.3845],[95.9964,16.4107],[95.9121,16.4109],[95.9275,16.385],[95.9059,16.3295],[95.8912,16.2446],[95.7785,16.1291],[95.7544,16.1266],[95.7403,16.1452],[95.7269,16.264],[95.7096,16.2731],[95.7229,16.2566],[95.7382,16.1126],[95.6966,16.046],[95.6931,15.9992],[95.6483,15.9258],[95.5158,15.7881],[95.4264,15.7213],[95.358,15.7039],[95.2868,15.7187],[95.2704,15.8008],[95.2792,15.8463],[95.3045,15.8527],[95.2973,15.8621],[95.3195,15.8808],[95.3399,15.88],[95.3404,15.9022],[95.3479,15.8805],[95.3809,15.8721],[95.3989,15.8768],[95.4126,15.9057],[95.3871,15.8768],[95.3534,15.8849],[95.3388,15.9054],[95.3356,15.8829],[95.3225,15.8868],[95.2984,15.8701],[95.3478,15.9473],[95.364,16.0503],[95.3962,16.0616],[95.3628,16.0583],[95.3368,16.0993],[95.3705,16.1492],[95.3907,16.2396],[95.3263,16.1926],[95.306,16.1581],[95.3266,16.0873],[95.2792,16.0394],[95.2352,15.9326],[95.2101,15.8565],[95.2226,15.7902],[95.1768,15.7679],[95.1243,15.7917],[95.1094,15.8899],[95.1332,16.0193],[95.1896,16.0246],[95.1927,16.0799],[95.2671,16.1495],[95.1911,16.1138],[95.2079,16.1777],[95.1799,16.1374],[95.1526,16.1389],[95.165,16.1263],[95.1328,16.1239],[95.1408,16.2315],[95.1236,16.2067],[95.1323,16.1672],[95.1198,16.1153],[95.0867,16.0923],[95.0561,16.0355],[95.0701,15.944],[95.037,15.8038],[95.0011,15.7787],[94.9868,15.7848],[94.9842,15.8484],[94.9821,15.76],[94.9476,15.7412],[94.8343,15.7808],[94.8397,15.8061],[94.8893,15.8274],[94.8713,15.8954],[94.9508,15.9456],[94.9443,15.9536],[94.8637,15.8967],[94.873,15.8249],[94.845,15.8298],[94.8373,15.8467],[94.8501,15.8762],[94.8384,15.9381],[94.8233,15.9327],[94.8283,15.9601],[94.8619,16.0],[94.9145,16.0],[94.9218,16.0306],[94.9054,16.0747],[94.9333,16.0862],[94.9555,16.131],[95.0226,16.135],[95.0225,16.1603],[95.0557,16.1994],[95.0566,16.216],[95.0465,16.2391],[95.0693,16.2458],[95.1006,16.3006],[95.0652,16.2477],[95.0432,16.2457],[95.0479,16.1971],[95.0137,16.1616],[95.0162,16.1437],[94.9529,16.1388],[94.9304,16.0942],[94.903,16.083],[94.9154,16.0299],[94.8918,16.0061],[94.8785,16.0115],[94.8656,16.1351],[94.8888,16.1818],[94.9573,16.1962],[95.0257,16.2628],[95.0421,16.3097],[95.0649,16.3114],[95.0509,16.3127],[95.0505,16.3334],[95.0165,16.2669],[94.9522,16.211],[94.8727,16.1872],[94.8388,16.1108],[94.8497,16.0723],[94.7194,15.8505],[94.6856,15.8371],[94.634,15.8613],[94.6005,15.9203],[94.6697,15.9557],[94.7184,16.0],[94.7362,16.0636],[94.7845,16.0965],[94.763,16.1241],[94.7876,16.1316],[94.8071,16.1998],[94.8374,16.2115],[94.8529,16.2398],[94.8035,16.2062],[94.7764,16.1448],[94.7554,16.1316],[94.7516,16.0937],[94.7196,16.0669],[94.6841,16.0],[94.5696,15.929],[94.5501,15.966],[94.5608,15.9567],[94.5826,16.0],[94.6173,16.0191],[94.6846,16.1148],[94.6806,16.2026],[94.7209,16.2029],[94.7589,16.2373],[94.7395,16.2574],[94.76,16.2809],[94.7336,16.2564],[94.7496,16.2377],[94.7262,16.2305],[94.7192,16.2091],[94.6772,16.2134],[94.6632,16.2429],[94.7059,16.2498],[94.7058,16.2669],[94.6983,16.2493],[94.6636,16.2541],[94.6881,16.3066],[94.6989,16.3555],[94.7372,16.354],[94.7502,16.3834]],[[97.6775,24.8267],[97.6799,24.8283],[97.6782,24.8275],[97.6775,24.8267]],[[97.5542,24.7273],[97.553,24.7287],[97.5537,24.7271],[97.5542,24.7273]],[[97.7474,24.1587],[97.7422,24.1477],[97.7421,24.1475],[97.7474,24.1587]],[[97.6537,24.0608],[97.6605,24.0663],[97.6556,24.0646],[97.6537,24.0608]],[[97.6333,24.0431],[97.6403,24.0495],[97.6337,24.047],[97.6333,24.0431]],[[97.8341,23.9627],[97.8431,23.9614],[97.8446,23.9687],[97.8341,23.9627]],[[97.5645,24.752],[97.5786,24.7619],[97.5926,24.7711],[97.5761,24.7635],[97.5645,24.752]],[[97.8236,23.9509],[97.8175,23.9531],[97.8171,23.9429],[97.8236,23.9509]],[[97.8333,25.2592],[97.8464,25.2683],[97.8714,25.2594],[97.8529,25.2693],[97.8418,25.2683],[97.8333,25.2592]],[[97.7298,24.9353],[97.7323,24.9111],[97.7311,24.9438],[97.7298,24.9353]],[[97.6671,23.8603],[97.6836,23.8775],[97.6626,23.8614],[97.6671,23.8603]],[[97.6786,24.4276],[97.6885,24.3869],[97.7133,24.374],[97.6786,24.4276]],[[97.8213,25.2379],[97.7944,25.158],[97.7737,25.1138],[97.8061,25.1703],[97.8213,25.2379]],[[97.7201,25.0837],[97.7156,24.9832],[97.7262,24.9658],[97.7258,25.0647],[97.7542,25.0878],[97.7725,25.1121],[97.7434,25.0839],[97.7201,25.0837]],[[97.7086,23.888],[97.7572,23.9082],[97.7704,23.926],[97.6927,23.8843],[97.7072,23.8608],[97.7181,23.8694],[97.7086,23.888]],[[97.5422,23.9317],[97.5362,23.9498],[97.5335,23.9259],[97.6232,23.8903],[97.6461,23.8433],[97.6319,23.8919],[97.5422,23.9317]],[[97.7313,24.2276],[97.7264,24.1869],[97.7509,24.1767],[97.7596,24.2542],[97.7313,24.2276]],[[97.5326,24.4312],[97.6499,24.4479],[97.5461,24.4758],[97.5291,24.4432],[97.5326,24.4312]],[[97.6994,24.3419],[97.6629,24.3402],[97.6671,24.2978],[97.7197,24.2982],[97.7529,24.2774],[97.7137,24.373],[97.6994,24.3419]]],[[[98.0,14.2877],[97.9679,14.3955],[98.0,14.4789],[98.0,14.2877]]],[[[96.2773,4.0002],[96.1485,4.1405],[96.1249,4.128],[96.0536,4.206],[96.023,4.196],[95.7128,4.5268],[95.6081,4.6162],[95.5654,4.6262],[95.5834,4.6462],[95.5723,4.6567],[95.5387,4.6473],[95.4818,4.7609],[95.4119,4.8179],[95.4253,4.8339],[95.3755,4.9197],[95.3694,4.9459],[95.3817,4.9568],[95.3555,4.9993],[95.3623,5.0194],[95.3045,5.0793],[95.3152,5.0834],[95.3041,5.1067],[95.2825,5.1073],[95.3068,5.1271],[95.3055,5.1652],[95.2368,5.2204],[95.2503,5.2267],[95.2336,5.2472],[95.2385,5.2724],[95.2113,5.2699],[95.2156,5.3179],[95.2336,5.3195],[95.2223,5.3417],[95.2331,5.3582],[95.239,5.3385],[95.2483,5.3663],[95.2286,5.4272],[95.2409,5.4467],[95.2295,5.4922],[95.1897,5.5228],[95.2202,5.5705],[95.2424,5.5512],[95.2806,5.5506],[95.3247,5.5899],[95.3527,5.5887],[95.4315,5.6564],[95.4651,5.6437],[95.5107,5.5957],[95.6132,5.6266],[95.6729,5.5857],[95.879,5.5067],[95.9042,5.427],[96.049,5.327],[96.0735,5.2929],[96.1823,5.2636],[96.2587,5.2634],[96.3882,5.2149],[96.465,5.2376],[96.4908,5.2046],[96.5305,5.2024],[96.6139,5.2144],[96.7202,5.2559],[96.8273,5.2776],[96.8553,5.2775],[96.8303,5.2714],[96.8998,5.2516],[96.9753,5.2665],[97.0818,5.2328],[97.1454,5.2],[97.1432,5.1623],[97.1981,5.1461],[97.5013,5.2528],[97.5468,5.2152],[97.5273,5.2057],[97.57,5.1904],[97.5722,5.1386],[97.6017,5.1419],[97.611,5.1139],[97.6525,5.1197],[97.648,5.0751],[97.806,4.9341],[97.9036,4.8846],[97.9619,4.7262],[97.9615,4.668],[97.9946,4.6349],[98.0,4.6047],[97.9604,4.5316],[97.9823,4.5447],[98.0,4.5268],[98.0,4.0],[96.2773,4.0002]]],[[[97.998,4.6246],[98.0,4.6279],[98.0,4.6171],[97.998,4.6246]]]]}}