{"type":"Feature","properties":{"speciesId":460,"category":"LC","source":"IUCN Red List","simplifyTol":0.01,"clippedToSubcontinent":true},"geometry":{"type":"Polygon","coordinates":[[[68.9419,23.0647],[68.8118,23.4218],[68.726,23.7843],[68.7759,23.8978],[68.8949,23.9365],[69.1439,23.9531],[69.4816,23.8895],[69.703,23.7981],[69.9991,23.6183],[70.2565,23.4024],[71.1283,23.0703],[71.5518,22.9845],[72.0029,22.9153],[72.0914,22.8599],[72.1108,22.788],[72.0084,22.6717],[71.7233,22.4974],[71.2418,22.2511],[70.37,22.0601],[69.5591,22.0407],[69.1882,22.0878],[68.9585,22.1542],[68.8395,22.4116],[68.8201,22.6551],[69.0498,22.824],[68.9419,23.0647]]]}}