{"type":"Feature","properties":{"speciesId":461,"category":"LC","source":"IUCN Red List","simplifyTol":0.01,"clippedToSubcontinent":true},"geometry":{"type":"MultiPolygon","coordinates":[[[[80.8625,6.3667],[80.8085,6.3615],[80.7704,6.4043],[80.8355,6.4681],[80.8989,6.4757],[80.9132,6.4566],[80.8625,6.3667]]],[[[81.1148,6.6667],[81.0986,6.6851],[81.1172,6.7017],[81.1336,6.683],[81.1148,6.6667]]],[[[81.5169,7.0922],[81.5271,7.0134],[81.508,6.9801],[81.3415,6.9135],[81.3389,6.9658],[81.5169,7.0922]]],[[[81.0875,8.8584],[81.1048,8.8126],[81.1725,8.7245],[81.0988,8.7052],[81.0607,8.7338],[81.0417,8.7814],[81.0738,8.8586],[81.0875,8.8584]]],[[[80.2539,9.8185],[80.3657,9.6603],[80.0863,9.6258],[80.0176,9.6509],[79.971,9.7077],[79.948,9.6871],[79.9133,9.7643],[80.0224,9.8126],[80.1056,9.8059],[80.2147,9.8314],[80.2539,9.8185]]],[[[78.0151,9.0633],[77.8258,8.6037],[77.6365,8.3063],[77.3662,8.3063],[77.231,8.3333],[76.8525,8.5766],[76.6632,9.1174],[76.4739,9.7933],[76.1224,10.8478],[75.4465,11.9293],[75.0409,12.7674],[74.392,14.579],[74.0135,15.4982],[73.635,16.2283],[73.3917,17.3368],[73.1754,18.6616],[73.1754,19.8783],[73.3646,20.7165],[73.5809,21.4195],[73.9054,21.9602],[74.1757,22.2035],[74.6624,22.3387],[76.7713,22.1224],[78.7451,22.2306],[79.9077,22.6361],[81.2866,22.7984],[82.7737,23.0958],[84.2607,23.1499],[85.5315,23.1499],[86.8293,22.6361],[86.9645,21.9602],[86.9104,21.4735],[86.5048,20.8246],[85.91,20.0676],[85.207,19.5268],[84.8826,19.2294],[84.2607,18.7157],[83.0711,17.7694],[82.1788,17.4449],[81.5299,17.0935],[80.5836,16.4175],[79.9077,15.7416],[79.8536,14.579],[79.8536,13.9571],[79.7305,13.6648],[79.8289,12.7825],[79.7378,12.3705],[79.3522,11.9211],[79.068,11.6409],[78.9614,11.2263],[78.2854,10.28],[78.0151,9.0633]]]]}}