{"type":"Feature","properties":{"speciesId":463,"category":"LC","source":"IUCN Red List","simplifyTol":0.01,"clippedToSubcontinent":true},"geometry":{"type":"MultiPolygon","coordinates":[[[[81.322,7.028],[81.3328,7.016],[81.3207,7.0053],[81.31,7.0172],[81.322,7.028]]],[[[78.6431,14.3836],[78.6086,14.5043],[78.6,14.7371],[78.6,15.1424],[78.6259,15.2286],[78.6086,15.3493],[78.6345,15.539],[78.6173,15.7977],[78.6173,16.2978],[78.8501,16.4875],[78.9794,16.3495],[79.0225,16.2202],[79.0656,15.7891],[79.0484,15.7718],[79.0484,15.6597],[79.0139,15.4614],[79.0053,15.2114],[79.0484,14.9096],[79.0311,14.6423],[79.0656,14.4612],[78.988,14.3146],[78.8501,14.2457],[78.7121,14.2715],[78.6431,14.3836]]],[[[79.9193,16.8669],[79.9882,17.0135],[80.04,17.0479],[80.1865,17.0479],[80.2642,16.9703],[80.2642,16.8841],[80.2383,16.8065],[80.1952,16.7634],[80.1089,16.7203],[79.9365,16.7375],[79.9193,16.8669]]]]}}