{"type":"Feature","properties":{"speciesId":468,"category":"NT","source":"IUCN Red List","simplifyTol":0.01,"clippedToSubcontinent":true},"geometry":{"type":"MultiPolygon","coordinates":[[[[75.4134,32.2074],[75.43,32.2285],[75.4542,32.2292],[75.4708,32.2],[75.44,32.1871],[75.4134,32.2074]]],[[[73.5569,33.2199],[73.5612,33.1896],[73.538,33.1767],[73.5569,33.2199]]],[[[73.5592,33.2262],[73.5609,33.2214],[73.5569,33.2199],[73.5592,33.2262]]],[[[71.5792,33.425],[71.5792,33.4375],[71.5833,33.425],[71.5792,33.425]]],[[[84.9326,26.7634],[84.9125,26.7708],[84.9375,26.7792],[84.9326,26.7634]]],[[[80.4208,28.85],[80.4458,28.8375],[80.4408,28.8215],[80.4009,28.7994],[80.3754,28.8142],[80.3798,28.8449],[80.4208,28.85]]],[[[68.0778,23.7035],[68.0535,23.7245],[68.0786,23.7563],[68.0841,23.8074],[68.1103,23.8285],[68.1872,23.8407],[68.1952,23.777],[68.1606,23.7035],[68.1302,23.7048],[68.1195,23.7215],[68.1117,23.7091],[68.0778,23.7035]],[[68.078,23.7129],[68.0744,23.7095],[68.0792,23.7083],[68.078,23.7129]],[[68.1038,23.7146],[68.0995,23.7141],[68.1028,23.7125],[68.1038,23.7146]]],[[[67.7661,23.8314],[67.7139,23.8543],[67.7297,23.8138],[67.6741,23.8036],[67.6507,23.8175],[67.6492,23.8493],[67.6319,23.8367],[67.6095,23.8587],[67.6155,23.8836],[67.5698,23.8828],[67.55,23.9125],[67.5299,23.9037],[67.5292,23.925],[67.4843,23.9215],[67.4964,23.9695],[67.4561,23.9714],[67.4453,23.9927],[67.4744,24.0095],[67.475,24.0292],[67.4701,24.0133],[67.4135,24.009],[67.409,23.9966],[67.3952,24.0532],[67.4096,24.0456],[67.434,24.0656],[67.3801,24.0801],[67.3674,24.1285],[67.3881,24.1323],[67.3468,24.1494],[67.3327,24.1758],[67.3467,24.2368],[67.4153,24.234],[67.4362,24.2125],[67.4577,24.2354],[67.455,24.2586],[67.4771,24.2548],[67.5146,24.2827],[67.5458,24.2583],[67.6077,24.2967],[67.5564,24.3328],[67.5208,24.3375],[67.5423,24.3896],[67.5659,24.3966],[67.5619,24.4171],[67.5784,24.4258],[67.5866,24.4616],[67.5736,24.475],[67.5387,24.4582],[67.5423,24.484],[67.528,24.496],[67.5115,24.4757],[67.4675,24.4757],[67.4675,24.5158],[67.5146,24.6333],[67.574,24.6506],[67.5887,24.6714],[67.6271,24.6588],[67.6417,24.6667],[67.6425,24.6992],[67.6786,24.7187],[67.6839,24.8007],[67.6259,24.8631],[67.6119,24.9132],[67.6328,24.952],[67.6256,24.9855],[67.683,25.1184],[67.6798,25.1908],[67.7149,25.2087],[67.7354,25.2453],[67.8292,25.2417],[67.9167,25.3292],[67.9033,25.4241],[67.8833,25.4375],[67.9292,25.4813],[67.8917,25.5438],[67.9087,25.6559],[67.8792,25.7979],[67.8792,25.9042],[67.899,25.9171],[67.9038,25.9483],[67.8797,25.9978],[67.8625,26.1],[67.822,26.1253],[67.8118,26.1119],[67.7895,26.1172],[67.7632,26.1384],[67.7375,26.3125],[67.7116,26.2382],[67.6762,26.2422],[67.6167,26.2042],[67.6212,26.2483],[67.6538,26.2809],[67.6629,26.3441],[67.6886,26.374],[67.6751,26.3848],[67.6408,26.3091],[67.5771,26.3204],[67.5542,26.275],[67.5292,26.2875],[67.5088,26.3563],[67.5172,26.401],[67.475,26.4625],[67.4301,26.4535],[67.4042,26.425],[67.3952,26.4495],[67.4009,26.4705],[67.4284,26.4757],[67.4667,26.5167],[67.4504,26.5483],[67.4625,26.5542],[67.4542,26.5708],[67.4827,26.5717],[67.487,26.6021],[67.4667,26.6292],[67.4868,26.6341],[67.4869,26.6771],[67.4174,26.7299],[67.3616,26.8535],[67.3212,26.8892],[67.3083,26.9708],[67.3304,27.0256],[67.3532,27.0244],[67.425,26.9708],[67.4339,26.9924],[67.4199,27.0366],[67.3478,27.0506],[67.3325,27.0743],[67.3125,27.075],[67.3131,27.0948],[67.3387,27.1172],[67.4532,27.0912],[67.4619,27.1064],[67.4199,27.1536],[67.3633,27.159],[67.3452,27.2272],[67.3129,27.2392],[67.3119,27.2814],[67.2958,27.2917],[67.3365,27.2992],[67.362,27.266],[67.3813,27.2673],[67.4167,27.2833],[67.4173,27.3157],[67.4683,27.3246],[67.4476,27.3699],[67.4772,27.356],[67.4794,27.3377],[67.4887,27.3672],[67.5283,27.3632],[67.553,27.3795],[67.5909,27.3619],[67.6325,27.3717],[67.6333,27.3875],[67.5091,27.3926],[67.5089,27.4403],[67.4812,27.4296],[67.4712,27.4438],[67.4703,27.5176],[67.5657,27.5506],[67.609,27.5176],[67.6333,27.5208],[67.6583,27.5583],[67.5983,27.5788],[67.5274,27.5663],[67.4917,27.6042],[67.4881,27.648],[67.5478,27.6786],[67.6233,27.6795],[67.6542,27.7083],[67.5561,27.7047],[67.524,27.7327],[67.4882,27.7384],[67.4781,27.7911],[67.4375,27.7917],[67.4288,27.8774],[67.4048,27.9228],[67.4292,28.1021],[67.4167,28.1167],[67.3892,28.0996],[67.3708,28.0625],[67.3548,28.0676],[67.3458,28.1],[67.3645,28.1244],[67.4125,28.125],[67.4132,28.1658],[67.475,28.1708],[67.6125,28.2417],[67.5879,28.2684],[67.5833,28.3042],[67.675,28.3208],[67.683,28.435],[67.6978,28.4578],[67.7958,28.4417],[67.8217,28.4785],[67.8575,28.4884],[67.8759,28.541],[67.8958,28.55],[67.8786,28.5595],[67.8744,28.5991],[67.8954,28.6146],[67.891,28.6283],[67.863,28.6479],[67.8792,28.7985],[67.9153,28.7706],[67.9208,28.7833],[67.9458,28.7625],[67.97,28.7716],[67.9887,28.8327],[68.0491,28.8718],[68.05,28.9125],[68.0809,28.9288],[68.0994,28.9064],[68.0911,28.8826],[68.1287,28.8396],[68.1337,28.7934],[68.1583,28.7792],[68.1634,28.7908],[68.1774,28.7837],[68.2032,28.8004],[68.2382,28.8574],[68.3625,28.9792],[68.3338,28.8646],[68.3506,28.8092],[68.3865,28.8007],[68.425,28.8208],[68.3884,28.7866],[68.3845,28.7619],[68.4936,28.8411],[68.5647,28.8547],[68.5853,28.8744],[68.6116,28.87],[68.6309,28.8295],[68.7625,28.8167],[68.7712,28.8941],[68.7917,28.9208],[68.8875,28.9042],[68.9125,28.8083],[68.8872,28.7991],[68.85,28.6958],[68.8783,28.6868],[68.8926,28.6506],[68.9397,28.6464],[68.9667,28.6625],[69.0129,28.5684],[68.9747,28.4345],[69.0167,28.425],[69.0379,28.515],[69.025,28.5521],[69.0718,28.6413],[69.1833,28.6542],[69.1625,28.7125],[69.2646,28.7167],[69.2924,28.8326],[69.3118,28.8324],[69.3229,28.8046],[69.3366,28.8093],[69.3675,28.8576],[69.4021,28.8792],[69.4434,28.8212],[69.4866,28.8466],[69.4833,28.8583],[69.4957,28.8553],[69.5242,28.8926],[69.5247,28.9199],[69.5457,28.9262],[69.5552,28.9535],[69.5866,28.9634],[69.5922,28.9905],[69.5796,29.0021],[69.5967,29.0327],[69.6899,29.0754],[69.7284,29.1214],[69.8083,29.1042],[69.8379,29.165],[69.8625,29.1667],[69.872,29.2003],[69.948,29.1744],[70.0792,29.075],[70.1535,29.0591],[70.153,29.0836],[70.077,29.1172],[69.9798,29.201],[69.9708,29.25],[69.9333,29.2583],[69.9423,29.2949],[69.9091,29.3049],[69.9045,29.3267],[69.925,29.3625],[69.9616,29.3673],[69.9645,29.3869],[69.9953,29.3936],[70.0037,29.4146],[69.9875,29.4792],[69.9979,29.4912],[70.0667,29.4708],[70.1121,29.51],[70.1,29.525],[70.1125,29.5417],[70.1554,29.5244],[70.2163,29.5351],[70.1208,29.5875],[70.1295,29.6225],[70.0917,29.675],[70.1476,29.642],[70.2341,29.6286],[70.2458,29.6417],[70.1,29.7307],[70.1128,29.7697],[70.0839,29.7843],[70.0833,29.8083],[70.1274,29.7996],[70.2125,29.7333],[70.2288,29.7566],[70.1917,29.8042],[70.2292,29.8],[70.2678,29.8787],[70.3267,29.9496],[70.3566,29.9538],[70.4434,29.917],[70.5191,29.917],[70.5292,29.9333],[70.3175,29.9842],[70.2951,30.0826],[70.2757,30.0883],[70.284,30.1282],[70.3288,30.1809],[70.3458,30.2667],[70.408,30.3726],[70.4,30.4542],[70.3625,30.4792],[70.4202,30.5342],[70.4208,30.5875],[70.3542,30.6583],[70.4125,30.6625],[70.4214,30.6926],[70.3882,30.7301],[70.3544,30.8325],[70.3258,30.8386],[70.2962,30.8976],[70.3038,30.9774],[70.2869,31.0341],[70.3172,31.1093],[70.2792,31.1625],[70.2375,31.1771],[70.2545,31.2559],[70.2461,31.3783],[70.2083,31.4],[70.2458,31.4375],[70.2283,31.466],[70.1924,31.4758],[70.2167,31.5458],[70.2128,31.5864],[70.1879,31.6184],[70.1965,31.6495],[70.1827,31.6829],[70.2162,31.7423],[70.2855,31.741],[70.3812,31.7131],[70.4125,31.7208],[70.373,31.7494],[70.272,31.7619],[70.2877,31.7866],[70.3826,31.8132],[70.375,31.8458],[70.355,31.8575],[70.4354,31.863],[70.4618,31.8843],[70.4187,31.925],[70.3858,31.9121],[70.2667,31.9167],[70.3076,31.9676],[70.3137,32.0631],[70.391,32.0283],[70.4089,31.9634],[70.4417,31.9292],[70.4833,31.9458],[70.4283,32.07],[70.3146,32.1245],[70.2733,32.1038],[70.2667,32.1167],[70.2875,32.1458],[70.2532,32.1328],[70.2087,32.1733],[70.2455,32.2392],[70.25,32.2917],[70.2892,32.333],[70.3051,32.309],[70.427,32.2464],[70.5033,32.2674],[70.4866,32.2993],[70.4179,32.3036],[70.3667,32.3458],[70.4725,32.3205],[70.4941,32.3371],[70.5215,32.2634],[70.5701,32.2366],[70.584,32.1967],[70.6202,32.1842],[70.6208,32.2083],[70.5917,32.2667],[70.5717,32.2664],[70.5292,32.3792],[70.5733,32.3962],[70.5958,32.4292],[70.6267,32.4205],[70.6375,32.4333],[70.5594,32.4924],[70.5583,32.5125],[70.45,32.5667],[70.4896,32.5912],[70.5521,32.5422],[70.6118,32.6093],[70.6174,32.6409],[70.7324,32.7091],[70.7006,32.7936],[70.7078,32.8355],[70.642,32.8892],[70.6081,32.9426],[70.6083,32.9917],[70.6642,32.958],[70.6953,32.9811],[70.7078,33.0145],[70.7292,33.103],[70.6925,33.1343],[70.6908,33.1618],[70.6716,33.1632],[70.6726,33.1871],[70.7439,33.1911],[70.7702,33.1783],[70.7497,33.122],[70.8032,33.1202],[70.8201,33.0908],[70.8345,32.9664],[71.0284,32.9964],[71.125,32.9667],[71.1517,33.0038],[71.1771,33.0125],[71.225,33.0208],[71.2417,33.0],[71.3483,33.0246],[71.3871,32.9983],[71.4042,32.9167],[71.4316,32.8996],[71.475,32.9],[71.4078,32.9799],[71.4708,33.0458],[71.4175,33.1075],[71.4875,33.1375],[71.4839,33.1772],[71.5134,33.2285],[71.5777,33.2458],[71.6179,33.2881],[71.6458,33.2875],[71.6417,33.2682],[71.6625,33.2417],[71.7042,33.2792],[71.6866,33.3077],[71.6583,33.3083],[71.6542,33.3292],[71.5354,33.3171],[71.4426,33.334],[71.4462,33.3524],[71.4767,33.3746],[71.5417,33.3667],[71.5718,33.4159],[71.6288,33.4434],[71.6083,33.4542],[71.6257,33.5283],[71.7439,33.5756],[71.7493,33.5992],[71.7178,33.6209],[71.7083,33.6583],[71.6833,33.6687],[71.7,33.7042],[71.5826,33.6785],[71.5699,33.6951],[71.5134,33.7045],[71.5,33.7417],[71.4701,33.7286],[71.3917,33.75],[71.3875,33.7917],[71.3167,33.8292],[71.2991,33.866],[71.2176,33.8964],[71.2955,33.9517],[71.2786,34.0259],[71.2881,34.0466],[71.2667,34.0875],[71.2289,34.0967],[71.2325,34.1169],[71.2062,34.1089],[71.1583,34.1625],[71.2355,34.1756],[71.2903,34.204],[71.2887,34.1937],[71.3075,34.1878],[71.3072,34.1619],[71.3561,34.162],[71.3229,34.1744],[71.3091,34.1633],[71.3119,34.1854],[71.2917,34.2042],[71.3365,34.2212],[71.3458,34.2667],[71.4083,34.2708],[71.4208,34.3708],[71.477,34.3339],[71.5,34.3417],[71.5125,34.3708],[71.5538,34.385],[71.5625,34.4542],[71.6,34.4583],[71.625,34.4417],[71.6522,34.4589],[71.658,34.5142],[71.6926,34.5786],[71.7395,34.5911],[71.7714,34.5696],[71.7675,34.5425],[71.7936,34.5297],[71.8534,34.5383],[71.8708,34.5667],[71.9063,34.5588],[71.9478,34.5786],[71.9771,34.5745],[72.0941,34.4705],[72.115,34.4837],[72.1566,34.4754],[72.1684,34.4955],[72.2083,34.5083],[72.2254,34.4642],[72.2642,34.4337],[72.316,34.4425],[72.32,34.4575],[72.3301,34.4423],[72.374,34.4369],[72.3926,34.4089],[72.425,34.4042],[72.4333,34.375],[72.4783,34.3702],[72.4783,34.3217],[72.4453,34.303],[72.4542,34.275],[72.4701,34.2743],[72.45,34.2361],[72.4548,34.2093],[72.4217,34.1911],[72.3837,34.1149],[72.45,34.0833],[72.4372,34.0217],[72.5021,33.9916],[72.5039,33.955],[72.5576,33.9202],[72.608,33.9119],[72.675,33.925],[72.6333,33.8833],[72.6247,33.8322],[72.6667,33.8083],[72.6587,33.7767],[72.6875,33.7],[72.7299,33.6869],[72.9208,33.7292],[72.9339,33.6811],[72.9786,33.6189],[72.9583,33.5292],[72.9972,33.466],[73.0125,33.475],[73.0341,33.4454],[73.0866,33.4798],[73.123,33.4786],[73.1616,33.4491],[73.1575,33.43],[73.0842,33.4075],[72.9667,33.3],[72.8708,33.3],[72.8837,33.2559],[72.933,33.2316],[72.9509,33.1757],[73.025,33.1458],[72.9629,33.0608],[72.9658,33.034],[72.9215,32.9992],[72.9413,32.9476],[72.8708,32.8458],[72.9274,32.8545],[72.9934,32.8955],[73.0625,32.9125],[73.0843,32.8504],[73.1024,32.8462],[73.1288,32.8642],[73.1167,32.9042],[73.1318,32.8958],[73.1451,32.9131],[73.1592,32.8925],[73.1958,32.8833],[73.1797,32.8978],[73.1833,32.925],[73.2375,32.925],[73.2728,32.9536],[73.325,32.9625],[73.3441,32.9462],[73.4083,32.9708],[73.4208,33.0],[73.4608,32.9871],[73.4708,32.9625],[73.4839,33.0132],[73.4712,33.0483],[73.5092,33.1325],[73.54,33.1545],[73.5608,33.1504],[73.6146,33.2037],[73.6262,33.1911],[73.656,33.2045],[73.6239,33.2102],[73.6347,33.2271],[73.6136,33.2437],[73.5977,33.2233],[73.5884,33.2295],[73.5592,33.2262],[73.5605,33.2392],[73.5911,33.2354],[73.6134,33.2547],[73.5917,33.338],[73.6101,33.328],[73.5986,33.3185],[73.6232,33.2445],[73.6671,33.2158],[73.6999,33.3104],[73.7294,33.3027],[73.7442,33.3207],[73.76,33.2978],[73.7441,33.2655],[73.6917,33.2235],[73.7453,33.24],[73.7437,33.2207],[73.813,33.207],[73.7925,33.1869],[73.8123,33.1622],[73.8508,33.1627],[73.8651,33.1315],[73.8576,33.1119],[73.8741,33.1174],[73.8755,33.1521],[73.9128,33.1886],[73.8994,33.2091],[73.9349,33.2708],[74.0116,33.2535],[74.1163,33.1733],[74.0962,33.1577],[74.0619,33.1655],[74.0798,33.1381],[74.059,33.0801],[74.1354,33.0375],[74.1552,33.0588],[74.1958,33.0375],[74.145,32.9384],[74.1008,32.9076],[74.0958,32.8875],[74.1134,32.8715],[74.1566,32.8795],[74.1875,32.9042],[74.205,32.9491],[74.2708,32.9875],[74.3453,32.9064],[74.3715,32.7842],[74.4167,32.7292],[74.4875,32.7063],[74.4698,32.6818],[74.4958,32.7042],[74.5125,32.6875],[74.5708,32.6917],[74.5792,32.6792],[74.7792,32.7042],[74.7619,32.6905],[74.7708,32.6625],[74.7583,32.625],[74.7833,32.6292],[74.7828,32.6186],[74.7244,32.5384],[74.7295,32.5059],[74.7554,32.4828],[74.8105,32.4911],[74.8816,32.4663],[74.975,32.4833],[74.9801,32.4663],[75.0698,32.5214],[75.0917,32.5167],[75.1167,32.5458],[75.1212,32.4767],[75.1661,32.423],[75.1682,32.3917],[75.1842,32.4075],[75.1993,32.3953],[75.2583,32.4208],[75.2792,32.3667],[75.3282,32.3578],[75.4,32.4167],[75.3496,32.3184],[75.3504,32.2809],[75.375,32.2333],[75.3875,32.2375],[75.392,32.21],[75.4125,32.2042],[75.3667,32.1875],[75.3757,32.1592],[75.4345,32.1672],[75.4804,32.1411],[75.575,32.1625],[75.5958,32.0875],[75.6375,32.0917],[75.6292,32.1042],[75.6417,32.1083],[75.6429,32.0953],[75.6897,32.1036],[75.7458,32.0833],[75.73,32.0742],[75.7417,32.0542],[75.7208,32.0208],[75.7509,31.9342],[75.8163,31.8907],[75.85,31.8417],[75.9326,31.8284],[75.9833,31.7667],[75.975,31.7417],[76.0257,31.6301],[76.0619,31.6033],[76.1208,31.4792],[76.1953,31.373],[76.205,31.2965],[76.258,31.2866],[76.2934,31.2462],[76.3167,31.2458],[76.3842,31.1509],[76.4292,31.1167],[76.4342,31.0884],[76.5083,31.1083],[76.6417,30.9875],[76.672,30.9661],[76.7235,30.9625],[76.7375,30.9292],[76.7663,30.9149],[76.7708,30.9042],[76.6897,30.8673],[76.6204,30.8619],[76.5383,30.8757],[76.525,30.8958],[76.497,30.8911],[76.475,30.9208],[76.4756,30.8801],[76.4991,30.8453],[76.5576,30.8506],[76.6,30.8125],[76.65,30.8],[76.7417,30.8125],[76.6826,30.7258],[76.5994,30.6507],[76.6054,30.6286],[76.6241,30.6298],[76.6423,30.6782],[76.7228,30.7369],[76.8189,30.7756],[76.8833,30.825],[76.8754,30.7934],[76.8913,30.7559],[76.8712,30.7274],[76.8429,30.6078],[76.9355,30.6161],[76.9507,30.5509],[76.9708,30.5417],[77.0366,30.5922],[77.0733,30.5879],[77.1083,30.6083],[77.067,30.5108],[77.0667,30.4417],[77.1309,30.5163],[77.1292,30.4833],[77.1467,30.4592],[77.1741,30.4658],[77.1863,30.4455],[77.2103,30.4744],[77.2958,30.4875],[77.3339,30.4613],[77.3167,30.4083],[77.3256,30.3353],[77.3419,30.3009],[77.3701,30.2909],[77.3898,30.241],[77.4034,30.2424],[77.4038,30.2816],[77.3795,30.3434],[77.3837,30.3816],[77.4542,30.4625],[77.475,30.4667],[77.5167,30.4542],[77.5313,30.4125],[77.5875,30.425],[77.6074,30.3994],[77.6616,30.4035],[77.7125,30.3375],[77.8634,30.2674],[77.9324,30.2535],[77.8913,30.1809],[77.817,30.1191],[77.7958,30.05],[77.8917,30.0792],[77.9042,30.0083],[77.9368,29.9953],[78.0158,30.0467],[78.0384,30.0991],[78.0616,30.0908],[78.075,30.0417],[78.1292,30.0042],[78.1465,29.9714],[78.1081,29.9492],[78.1175,29.8925],[78.1676,29.8381],[78.2333,29.8333],[78.228,29.7875],[78.1997,29.7866],[78.2051,29.734],[78.227,29.7214],[78.2708,29.7125],[78.4282,29.7799],[78.4458,29.8125],[78.4381,29.8522],[78.4645,29.8953],[78.5667,29.875],[78.5702,29.8468],[78.5375,29.8292],[78.4994,29.7382],[78.5134,29.6967],[78.5535,29.6949],[78.5592,29.6549],[78.608,29.6409],[78.6133,29.6164],[78.6449,29.6157],[78.68,29.5591],[78.727,29.5297],[78.7373,29.5489],[78.7078,29.5755],[78.7233,29.5758],[78.6775,29.6088],[78.6747,29.6294],[78.6897,29.6287],[78.684,29.6135],[78.7402,29.5628],[78.7737,29.5903],[78.8449,29.6095],[78.8583,29.6039],[78.7951,29.5806],[78.7836,29.5635],[78.802,29.5556],[78.7798,29.5551],[78.8105,29.5464],[78.8303,29.5669],[78.9125,29.525],[79.0167,29.5125],[79.0076,29.4801],[78.9589,29.4272],[78.9625,29.325],[78.8994,29.2257],[78.9097,29.1702],[78.9625,29.2042],[78.9583,29.1708],[79.0066,29.1712],[79.0257,29.2242],[79.0532,29.2257],[79.0958,29.2792],[79.092,29.2517],[79.1125,29.2542],[79.1125,29.2375],[79.0744,29.1757],[79.0842,29.1174],[79.1104,29.1088],[79.165,29.1246],[79.1625,29.0958],[79.1887,29.0744],[79.2649,29.1246],[79.3242,29.1118],[79.3358,29.0837],[79.4788,29.16],[79.5246,29.2351],[79.5083,29.2583],[79.5189,29.2703],[79.5371,29.2434],[79.525,29.1958],[79.5004,29.1691],[79.4958,29.1042],[79.5131,29.0755],[79.5035,28.963],[79.5226,28.8962],[79.5741,28.8881],[79.5875,28.9],[79.5795,28.8809],[79.5934,28.867],[79.6382,28.8578],[79.6824,28.8799],[79.7042,28.9583],[79.7243,28.9365],[79.7299,28.8966],[79.7449,28.8961],[79.75,28.85],[79.8257,28.7911],[79.88,28.8284],[79.9333,28.825],[79.9467,28.8491],[79.9958,28.8708],[79.9875,28.8042],[80.0066,28.808],[80.0292,28.775],[80.0443,28.7833],[80.0635,28.7421],[80.1158,28.7201],[80.1264,28.6744],[80.2283,28.7465],[80.2879,28.872],[80.2716,28.9159],[80.3,28.925],[80.3125,28.8708],[80.2846,28.8043],[80.3318,28.7792],[80.3809,28.7212],[80.4083,28.7208],[80.4464,28.7368],[80.4421,28.7854],[80.4667,28.825],[80.4589,28.8522],[80.5271,28.9245],[80.5605,28.9214],[80.6059,28.9413],[80.6366,28.9326],[80.6464,28.9132],[80.6286,28.8821],[80.6375,28.8333],[80.6255,28.7769],[80.6426,28.7048],[80.6559,28.7004],[80.6785,28.7009],[80.6797,28.7176],[80.6546,28.7896],[80.6589,28.848],[80.7147,28.8756],[80.7375,28.9042],[80.825,28.8667],[80.858,28.885],[80.8625,28.9125],[80.9104,28.8833],[80.9608,28.883],[80.9545,28.835],[80.9708,28.8208],[81.1158,28.7744],[81.1467,28.734],[81.2059,28.6962],[81.2511,28.7461],[81.3533,28.7118],[81.375,28.6167],[81.425,28.5917],[81.4417,28.5542],[81.465,28.5538],[81.4833,28.5271],[81.4705,28.4975],[81.4788,28.4559],[81.4551,28.409],[81.5191,28.4038],[81.6042,28.3375],[81.6375,28.35],[81.7042,28.3375],[81.7866,28.295],[81.7926,28.2757],[81.8441,28.2746],[81.8667,28.2521],[81.8625,28.2375],[81.9241,28.2282],[82.0125,28.1542],[82.0208,28.1],[82.1191,28.0705],[82.3559,27.9504],[82.4965,27.9074],[82.4827,27.8712],[82.4924,27.8427],[82.52,27.8592],[82.5311,27.8994],[82.5775,27.9045],[82.7272,27.8953],[82.7625,27.8667],[82.8689,27.8953],[82.8884,27.8714],[82.9744,27.8574],[82.9851,27.8379],[83.099,27.8327],[83.1095,27.8161],[83.1578,27.8116],[83.1954,27.7479],[83.1699,27.7087],[83.1173,27.6783],[83.122,27.6661],[83.1522,27.6714],[83.1955,27.7101],[83.2354,27.7958],[83.265,27.7879],[83.2851,27.8121],[83.3083,27.8125],[83.3083,27.7708],[83.3491,27.766],[83.3698,27.7453],[83.4534,27.7299],[83.4667,27.7542],[83.4715,27.7384],[83.5733,27.7038],[83.6573,27.7243],[83.6592,27.6842],[83.7608,27.6413],[83.8756,27.5405],[83.8717,27.5175],[83.8966,27.5493],[83.9292,27.5542],[83.9298,27.53],[84.1458,27.5125],[84.1462,27.485],[84.2035,27.4658],[84.2095,27.4453],[84.2533,27.4535],[84.2875,27.3875],[84.4449,27.3744],[84.6074,27.3369],[84.6202,27.327],[84.5907,27.2664],[84.5715,27.2605],[84.5667,27.2292],[84.6118,27.2384],[84.6132,27.2533],[84.6458,27.2667],[84.6078,27.1924],[84.6036,27.1145],[84.5708,27.0458],[84.5948,27.0423],[84.6162,27.0646],[84.6214,27.1314],[84.6708,27.1833],[84.6744,27.1228],[84.6453,27.0632],[84.6292,26.9625],[84.6659,26.9534],[84.6792,26.9],[84.7125,26.9208],[84.6879,26.8475],[84.7615,26.8161],[84.7708,26.8583],[84.805,26.8007],[84.8326,26.7993],[84.8635,26.7635],[84.9366,26.7366],[84.9172,26.6686],[84.9299,26.6509],[84.9522,26.6578],[85.0034,26.6284],[85.0137,26.5841],[85.083,26.5274],[85.072,26.4917],[85.1285,26.448],[85.1161,26.4175],[85.1289,26.4009],[85.1813,26.4202],[85.202,26.3714],[85.2326,26.3839],[85.2657,26.3704],[85.2855,26.4119],[85.3667,26.3625],[85.3833,26.3167],[85.4119,26.327],[85.4214,26.3772],[85.4533,26.3951],[85.4635,26.367],[85.4916,26.3653],[85.5007,26.3342],[85.5395,26.3703],[85.5708,26.3708],[85.5922,26.3382],[85.5875,26.2875],[85.6149,26.2879],[85.6577,26.3051],[85.6333,26.3542],[85.6466,26.3631],[85.6646,26.3505],[85.7,26.3792],[85.6871,26.4059],[85.7167,26.425],[85.8292,26.3958],[85.826,26.3342],[85.8426,26.309],[85.8858,26.3087],[85.9538,26.3384],[85.9716,26.3993],[85.9917,26.4],[85.9965,26.4699],[86.0417,26.4917],[86.0506,26.4507],[86.0381,26.3895],[86.0667,26.3417],[86.0887,26.4589],[86.173,26.4828],[86.2083,26.4667],[86.2125,26.4375],[86.2564,26.4422],[86.2842,26.4825],[86.375,26.525],[86.4131,26.6105],[86.4824,26.6549],[86.4881,26.6866],[86.4913,26.6601],[86.4663,26.6178],[86.4583,26.5583],[86.4989,26.5372],[86.5214,26.5716],[86.5173,26.6699],[86.575,26.7125],[86.6125,26.6917],[86.6342,26.7119],[86.6625,26.7125],[86.6792,26.6917],[86.7229,26.7125],[86.7458,26.6875],[86.8,26.7167],[86.828,26.7169],[86.8508,26.6954],[86.9012,26.7339],[87.0068,26.7042],[87.1115,26.7879],[87.1256,26.8488],[87.1089,26.8814],[87.1583,26.9125],[87.2538,26.8642],[87.2246,26.8059],[87.1642,26.783],[87.0667,26.6667],[87.0798,26.6448],[87.0417,26.5042],[87.0589,26.478],[87.0633,26.409],[87.1147,26.4089],[87.141,26.4324],[87.1458,26.3875],[87.225,26.3583],[87.2661,26.3978],[87.2798,26.4574],[87.3091,26.4302],[87.3241,26.4342],[87.3088,26.4854],[87.3176,26.4993],[87.3212,26.4642],[87.3563,26.438],[87.4292,26.5125],[87.4506,26.4591],[87.4381,26.3719],[87.4813,26.3625],[87.5034,26.3716],[87.5145,26.3994],[87.5577,26.4145],[87.5625,26.5042],[87.6022,26.4964],[87.6208,26.5083],[87.6339,26.4926],[87.6172,26.4395],[87.65,26.3833],[87.6934,26.3788],[87.7292,26.4125],[87.7689,26.4047],[87.8083,26.45],[87.8708,26.4375],[87.8875,26.4833],[87.9042,26.4083],[87.9691,26.4087],[87.9689,26.4369],[88.0708,26.3625],[88.1073,26.3966],[88.1375,26.4625],[88.1675,26.4259],[88.2333,26.3958],[88.3066,26.433],[88.3292,26.3917],[88.3958,26.3625],[88.4292,26.3812],[88.4566,26.4246],[88.4882,26.3509],[88.5108,26.367],[88.5417,26.3625],[88.5625,26.3917],[88.595,26.3742],[88.588,26.3229],[88.6074,26.3036],[88.646,26.3429],[88.6161,26.3826],[88.6046,26.4229],[88.6172,26.4409],[88.6131,26.4868],[88.584,26.5574],[88.6955,26.4822],[88.7049,26.455],[88.725,26.4583],[88.7169,26.52],[88.6511,26.542],[88.6042,26.6583],[88.6979,26.5797],[88.7408,26.5925],[88.7743,26.6324],[88.7922,26.6049],[88.7964,26.552],[88.85,26.4833],[88.899,26.5244],[88.9104,26.5088],[88.9826,26.4992],[89.0089,26.4577],[89.0417,26.5437],[89.0333,26.5833],[89.0866,26.5798],[89.1042,26.6042],[89.1233,26.6038],[89.1559,26.5212],[89.2358,26.5455],[89.2424,26.4842],[89.3042,26.425],[89.3208,26.4458],[89.2869,26.4949],[89.2964,26.5409],[89.2786,26.5909],[89.3134,26.6408],[89.3542,26.6417],[89.3837,26.6142],[89.3962,26.5226],[89.4604,26.4755],[89.4991,26.4842],[89.55,26.5542],[89.5593,26.5216],[89.5991,26.4965],[89.6625,26.5333],[89.6881,26.5744],[89.6632,26.7284],[89.7381,26.6967],[89.6994,26.5841],[89.7006,26.5592],[89.7367,26.5549],[89.747,26.5919],[89.7786,26.6103],[89.7619,26.6674],[89.7792,26.7542],[89.842,26.6392],[89.8897,26.6256],[89.9466,26.6992],[89.9991,26.7259],[90.0208,26.775],[90.0092,26.7991],[90.0408,26.8297],[90.0824,26.8256],[90.1034,26.8506],[90.145,26.8533],[90.1866,26.8285],[90.2048,26.7301],[90.2417,26.6958],[90.2547,26.7299],[90.2369,26.7966],[90.2708,26.8667],[90.2799,26.7592],[90.3118,26.7576],[90.3174,26.6966],[90.3542,26.6625],[90.3458,26.6854],[90.3625,26.7479],[90.3496,26.8142],[90.375,26.925],[90.4036,26.8939],[90.4173,26.8051],[90.4536,26.7574],[90.4922,26.5853],[90.5667,26.5208],[90.5833,26.55],[90.53,26.5842],[90.5131,26.6186],[90.4962,26.7899],[90.5659,26.8631],[90.5938,26.859],[90.6132,26.8825],[90.6417,26.8875],[90.6917,26.9625],[90.7275,26.9621],[90.7625,26.9292],[90.7994,26.8855],[90.8006,26.8436],[90.8167,26.8292],[90.9542,26.8375],[90.9875,26.825],[91.1108,26.8545],[91.1771,26.8379],[91.2358,26.8496],[91.2476,26.8295],[91.2729,26.825],[91.3,26.8333],[91.3503,26.8968],[91.3384,26.9326],[91.3905,26.9414],[91.4375,26.975],[91.4462,26.9475],[91.4288,26.9142],[91.4476,26.8587],[91.5108,26.8754],[91.5267,26.8996],[91.5792,26.925],[91.6167,26.8917],[91.6525,26.8913],[91.6733,26.8538],[91.7828,26.8853],[91.8,26.9583],[91.7667,27.0],[91.7934,27.0163],[91.8441,26.9996],[91.8629,26.9684],[91.8583,26.9458],[91.8792,26.9333],[91.9601,26.9705],[91.9941,26.9663],[92.0434,26.9295],[92.0829,26.9325],[92.105,26.8956],[92.1283,26.8965],[92.1467,26.9368],[92.1828,26.9509],[92.1926,26.9829],[92.2083,26.9875],[92.2254,26.8475],[92.2042,26.7688],[92.2208,26.7458],[92.2419,26.7614],[92.2297,26.7855],[92.2583,26.8917],[92.2746,26.8733],[92.2962,26.7684],[92.324,26.7548],[92.3217,26.77],[92.3325,26.7634],[92.3506,26.7824],[92.3466,26.8075],[92.3788,26.8726],[92.3804,27.0006],[92.408,26.9774],[92.4254,26.91],[92.4176,26.8299],[92.5445,26.7285],[92.5367,26.791],[92.4885,26.8171],[92.4298,26.9424],[92.4337,27.0066],[92.4807,27.0548],[92.5252,27.0534],[92.5517,27.0004],[92.6083,26.9917],[92.6241,27.0044],[92.6767,26.9712],[92.7858,26.9996],[92.8134,26.9675],[92.8375,26.975],[92.8629,26.9392],[92.8542,26.9125],[92.8708,26.9],[92.9103,26.9619],[92.9743,26.9676],[92.99,27.0121],[93.0292,26.9458],[93.0483,26.942],[93.0887,26.9714],[93.1858,26.9288],[93.2314,26.8839],[93.3042,26.9458],[93.3129,26.972],[93.3009,26.9911],[93.3855,26.9797],[93.409,27.0158],[93.4375,27.025],[93.4603,26.9922],[93.4993,27.0047],[93.5316,26.9962],[93.5424,27.0159],[93.595,27.0215],[93.7283,27.0758],[93.7311,27.0911],[93.7542,27.0958],[93.7458,27.1417],[93.8116,27.1674],[93.833,27.2101],[93.8255,27.2438],[93.8506,27.2946],[93.8292,27.3208],[93.9033,27.355],[93.9201,27.3881],[93.9457,27.3846],[94.0342,27.4533],[94.0908,27.4715],[94.1311,27.5161],[94.2324,27.5423],[94.2292,27.575],[94.1962,27.5858],[94.2479,27.6375],[94.2667,27.6292],[94.3147,27.6464],[94.3559,27.6871],[94.399,27.7006],[94.4657,27.7089],[94.5118,27.6924],[94.5125,27.7125],[94.5771,27.75],[94.6784,27.7757],[94.7062,27.8035],[94.7729,27.7755],[94.8189,27.7881],[94.8908,27.8215],[94.8929,27.8506],[94.9,27.8375],[94.9417,27.85],[94.9866,27.8118],[94.9494,27.7507],[94.9759,27.6967],[95.0021,27.6838],[95.0125,27.6917],[94.9996,27.7142],[95.0496,27.7809],[95.0506,27.873],[95.0917,27.9208],[95.2331,27.8991],[95.2256,27.8729],[95.2633,27.8257],[95.2875,27.8542],[95.3042,27.825],[95.35,27.8333],[95.3575,27.8175],[95.3246,27.7928],[95.3417,27.7875],[95.395,27.8134],[95.4005,27.8604],[95.4375,27.8958],[95.4811,27.8589],[95.5101,27.8871],[95.5583,27.875],[95.5801,27.9294],[95.6074,27.9343],[95.6077,27.9662],[95.6508,28.0532],[95.663,28.0411],[95.6549,28.0049],[95.67,28.005],[95.7061,28.1494],[95.7303,28.1245],[95.8269,28.1536],[95.8816,28.1371],[95.9375,28.1417],[95.9583,28.0792],[96.0021,28.0755],[96.0366,28.0991],[96.0547,28.0591],[96.0292,27.9083],[96.0542,27.9],[96.0466,27.8632],[96.1108,27.8754],[96.1316,27.8455],[96.2042,27.85],[96.175,27.8167],[96.1298,27.7991],[96.1292,27.7792],[96.1619,27.7772],[96.176,27.7379],[96.2167,27.725],[96.1879,27.6066],[96.2078,27.5728],[96.1578,27.5155],[96.1616,27.4967],[95.9708,27.5042],[95.9574,27.4712],[95.8965,27.4449],[95.8816,27.3788],[95.9788,27.3691],[95.9875,27.3104],[95.9663,27.276],[95.9217,27.2673],[95.9078,27.3032],[95.8853,27.3006],[95.8465,27.3324],[95.8464,27.2887],[95.7978,27.2703],[95.7866,27.2424],[95.675,27.1958],[95.6552,27.2007],[95.6409,27.2409],[95.5949,27.2328],[95.5292,27.2667],[95.551,27.1927],[95.5881,27.1867],[95.5708,27.15],[95.4341,27.141],[95.4292,27.1292],[95.4233,27.1413],[95.3851,27.1413],[95.3708,27.1],[95.3387,27.1047],[95.35,27.05],[95.3104,27.0495],[95.284,27.0283],[95.2625,27.0027],[95.2579,26.9593],[95.1539,26.8804],[95.128,26.8961],[95.0784,26.8964],[95.0667,26.8833],[95.0238,26.9129],[94.9833,26.8875],[94.9869,26.8686],[94.9616,26.8465],[94.9434,26.842],[94.9137,26.8714],[94.898,26.8547],[94.8625,26.8542],[94.8125,26.7792],[94.7686,26.7786],[94.7574,26.7298],[94.7053,26.7038],[94.6581,26.7091],[94.6542,26.7417],[94.5917,26.7458],[94.6042,26.725],[94.5551,26.6996],[94.5174,26.6616],[94.5033,26.6134],[94.4547,26.5855],[94.4292,26.5083],[94.3684,26.483],[94.3076,26.4051],[94.2605,26.3672],[94.2259,26.3618],[94.1441,26.2795],[94.0573,26.2828],[93.9833,26.3375],[93.9675,26.33],[93.9333,26.3833],[93.9095,26.3786],[93.8341,26.4174],[93.8459,26.443],[93.8369,26.5003],[93.8791,26.5388],[93.8576,26.5701],[93.8333,26.575],[93.7871,26.5434],[93.8034,26.43],[93.7239,26.3789],[93.6676,26.3798],[93.6797,26.43],[93.6024,26.4705],[93.5424,26.4532],[93.5208,26.4083],[93.4917,26.3875],[93.4533,26.4451],[93.4283,26.4369],[93.4167,26.4625],[93.3674,26.4493],[93.3667,26.4375],[93.2858,26.458],[93.2208,26.45],[93.225,26.4292],[93.192,26.4108],[93.1881,26.3283],[93.0911,26.2887],[93.1159,26.2867],[93.1203,26.2729],[93.0952,26.2213],[93.1217,26.1715],[93.1564,26.1631],[93.2382,26.1922],[93.2715,26.1632],[93.2484,26.079],[93.2093,26.0491],[93.1827,25.9843],[93.1675,25.9785],[93.2161,25.9314],[93.2086,25.8925],[93.1507,25.9217],[93.1408,25.9452],[93.0542,25.8958],[93.0051,25.909],[92.9566,25.9621],[92.9271,25.95],[92.8792,25.9583],[92.8549,25.9711],[92.8534,26.0002],[92.8264,25.9998],[92.8167,26.0333],[92.7887,26.0369],[92.7458,26.1],[92.7132,26.0784],[92.7038,26.0392],[92.6892,26.0337],[92.683,26.0566],[92.659,26.0592],[92.6505,26.0771],[92.6586,26.0989],[92.641,26.1408],[92.6,26.1417],[92.6,26.1625],[92.5775,26.1496],[92.5032,26.1672],[92.4342,26.0991],[92.4054,26.0453],[92.388,26.0646],[92.4006,26.0821],[92.3538,26.1574],[92.2618,26.1756],[92.2458,26.1625],[92.2535,26.1174],[92.1385,26.0661],[92.0743,26.0714],[92.0613,26.0536],[92.0095,26.0751],[91.9958,26.0667],[92.0542,26.1167],[92.0506,26.1467],[92.0042,26.2042],[91.9632,26.1828],[91.9175,26.1866],[91.9242,26.1466],[91.8633,26.124],[91.8325,26.0717],[91.7953,26.0488],[91.8,26.025],[91.7691,26.0045],[91.7509,26.0048],[91.7316,26.0413],[91.702,26.0411],[91.634,25.9824],[91.6283,25.9549],[91.6,25.9625],[91.5878,25.9491],[91.5673,25.8931],[91.5259,25.8878],[91.5159,25.8632],[91.4716,25.8711],[91.4752,25.8949],[91.4465,25.927],[91.4536,25.9605],[91.4353,25.9702],[91.4119,25.9162],[91.4673,25.862],[91.4229,25.788],[91.3603,25.8047],[91.325,25.8375],[91.3493,25.8467],[91.3338,25.8854],[91.3455,25.9066],[91.2917,25.8917],[91.3006,25.9466],[91.2831,25.9742],[91.3083,25.9804],[91.2825,26.02],[91.2508,26.0344],[91.259,26.0544],[91.2396,26.066],[91.2259,26.0673],[91.2206,26.0452],[91.1792,26.0542],[91.1629,26.0358],[91.1964,25.9613],[91.1786,25.9301],[91.2,25.9083],[91.1994,25.8853],[91.1608,25.8587],[91.1342,25.8743],[91.0451,25.7953],[91.0134,25.8007],[91.0083,25.8375],[90.9716,25.8466],[90.9994,25.9811],[91.0,26.0208],[90.9858,26.033],[90.9632,26.0158],[90.9661,25.9686],[90.9411,25.9426],[90.9494,25.8676],[90.9341,25.8536],[90.9196,25.8714],[90.9,25.8417],[90.8559,25.8587],[90.8542,25.8833],[90.8208,25.8667],[90.7962,25.8892],[90.7858,25.933],[90.7042,25.8667],[90.7003,25.8905],[90.675,25.9042],[90.5708,25.9],[90.5786,25.9593],[90.608,26.0059],[90.6025,26.0288],[90.5833,26.0292],[90.5366,25.9592],[90.4963,25.9354],[90.4993,25.9051],[90.4708,25.875],[90.4338,25.8965],[90.4135,25.8952],[90.4032,25.8706],[90.3708,25.875],[90.3171,25.7937],[90.3462,25.7475],[90.3342,25.7257],[90.3662,25.7021],[90.3453,25.6716],[90.3708,25.575],[90.327,25.5672],[90.291,25.6074],[90.2208,25.6208],[90.2108,25.5879],[90.1699,25.5964],[90.1506,25.5702],[90.1216,25.5799],[90.1115,25.609],[90.0801,25.6007],[90.0396,25.6328],[90.0125,25.525],[90.059,25.4841],[90.0496,25.4392],[89.9917,25.4083],[89.983,25.3767],[89.9478,25.3703],[89.9331,25.347],[89.9074,25.3589],[89.8583,25.3417],[89.8625,25.2807],[89.8797,25.2632],[89.8784,25.2217],[89.8619,25.2071],[89.875,25.1542],[89.8841,25.134],[89.9083,25.1333],[89.9381,25.1073],[89.9759,24.9842],[90.0076,24.9783],[90.009,24.9592],[90.0408,24.9451],[90.0452,24.927],[90.0257,24.9091],[90.0583,24.8875],[90.0233,24.8746],[89.9833,24.9125],[89.9466,24.8591],[90.0157,24.824],[90.0462,24.7767],[90.0472,24.7327],[90.0909,24.7534],[90.0744,24.7132],[90.0965,24.6924],[90.0833,24.6458],[90.1042,24.6167],[90.1038,24.5267],[90.0858,24.4795],[90.0333,24.4792],[90.0661,24.423],[90.0667,24.3625],[90.0993,24.3494],[90.1325,24.3618],[90.1754,24.2934],[90.1667,24.2667],[90.125,24.2708],[90.1292,24.2396],[90.0854,24.1875],[90.0525,24.192],[90.0333,24.175],[90.067,24.1434],[90.0684,24.1212],[90.1366,24.1116],[90.1753,24.0718],[90.1104,24.0417],[90.0909,24.0741],[90.03,24.0794],[90.0329,24.028],[90.0187,24.0253],[90.0227,24.0512],[89.9734,24.0665],[90.0112,24.052],[90.0008,24.0283],[90.0104,24.0229],[90.0303,24.0238],[90.0379,23.9738],[89.9917,23.9375],[89.9865,23.8879],[89.9458,23.8708],[89.9785,23.8533],[89.9951,23.8119],[90.0198,23.8256],[90.0292,23.8167],[90.0025,23.7996],[89.9604,23.8167],[89.94,23.7962],[89.915,23.8004],[89.9042,23.7708],[89.9253,23.7466],[89.9007,23.7451],[89.9,23.725],[89.9167,23.6667],[89.8951,23.6453],[89.8637,23.6506],[89.8324,23.5965],[89.7917,23.5792],[89.7853,23.591],[89.7113,23.5416],[89.6924,23.5466],[89.709,23.5784],[89.6938,23.5911],[89.651,23.5701],[89.615,23.5254],[89.5949,23.5244],[89.4792,23.5333],[89.4608,23.5621],[89.4055,23.5417],[89.399,23.559],[89.3718,23.5575],[89.3478,23.5381],[89.3,23.5458],[89.3047,23.5571],[89.2813,23.5704],[89.2095,23.5453],[89.1943,23.5667],[89.175,23.5458],[89.125,23.5625],[89.0979,23.5463],[89.0542,23.5792],[89.0298,23.5741],[89.0288,23.5267],[88.9967,23.5116],[88.9909,23.4841],[88.9664,23.4825],[88.9667,23.4625],[88.9259,23.5007],[88.9116,23.541],[88.8642,23.5545],[88.8524,23.5746],[88.8215,23.5575],[88.7833,23.5042],[88.7,23.5208],[88.7131,23.5908],[88.7375,23.6083],[88.7083,23.6125],[88.7089,23.6397],[88.7464,23.6882],[88.7341,23.6967],[88.7381,23.728],[88.7131,23.7385],[88.7172,23.7924],[88.687,23.824],[88.6258,23.8299],[88.5951,23.8743],[88.5375,23.875],[88.5458,23.95],[88.5035,23.9837],[88.5413,24.0774],[88.5004,24.1267],[88.4532,24.2617],[88.3988,24.2834],[88.3718,24.2785],[88.325,24.3125],[88.2533,24.4201],[88.1979,24.4213],[88.0967,24.4632],[88.0631,24.5061],[88.0542,24.5792],[88.0167,24.55],[87.9417,24.5458],[87.9413,24.5649],[87.9125,24.5875],[87.925,24.65],[87.7938,24.6329],[87.7667,24.6125],[87.775,24.6625],[87.7583,24.7042],[87.625,24.8125],[87.5845,24.8164],[87.5619,24.8466],[87.5667,24.8667],[87.5145,24.8797],[87.4864,24.9044],[87.4684,24.9038],[87.45,24.875],[87.3792,24.9],[87.3182,24.875],[87.2729,24.9079],[87.2257,24.8953],[87.1604,24.9125],[87.0313,24.8382],[86.9924,24.8368],[86.9909,24.8136],[86.9767,24.8087],[86.9464,24.8395],[86.9579,24.8771],[86.9458,24.9042],[86.8729,24.9287],[86.8215,24.9283],[86.8119,24.8895],[86.7839,24.874],[86.7833,24.8583],[86.7048,24.8467],[86.6757,24.8843],[86.6785,24.9116],[86.6208,24.975],[86.5828,24.8571],[86.5962,24.8447],[86.5782,24.7923],[86.5167,24.7875],[86.5211,24.8239],[86.475,24.8708],[86.3951,24.9047],[86.3534,24.8911],[86.3208,24.9125],[86.3017,24.8795],[86.2583,24.95],[86.2299,24.9409],[86.2167,24.8875],[86.1855,24.8464],[86.1434,24.8621],[86.1042,24.8583],[86.0958,24.8375],[86.0441,24.8371],[85.9792,24.8583],[85.9798,24.8385],[86.0162,24.8021],[85.975,24.75],[85.9458,24.7417],[85.9214,24.7686],[85.9119,24.8272],[85.8205,24.8845],[85.8271,24.9833],[85.7674,24.9116],[85.7578,24.8632],[85.7545,24.8059],[85.8172,24.7841],[85.7964,24.7605],[85.7954,24.7312],[85.7017,24.7163],[85.6858,24.692],[85.6542,24.6875],[85.6547,24.7177],[85.5913,24.8566],[85.5465,24.8884],[85.5283,24.9535],[85.5051,24.9631],[85.4958,24.9958],[85.4837,24.99],[85.483,24.9517],[85.4125,24.8625],[85.3908,24.9243],[85.3451,24.9203],[85.3333,24.9333],[85.3798,24.9824],[85.238,24.9244],[85.2327,24.9534],[85.2167,24.95],[85.2033,24.9785],[85.1759,24.9827],[85.1089,24.9397],[85.1203,24.8811],[85.026,24.7742],[85.0333,24.7208],[85.0034,24.7339],[84.9866,24.6965],[84.9667,24.6917],[84.9691,24.7496],[84.8917,24.75],[84.8575,24.8075],[84.8233,24.7913],[84.7854,24.8375],[84.7549,24.8157],[84.7392,24.7754],[84.6964,24.8312],[84.7006,24.857],[84.6666,24.9113],[84.5936,24.9339],[84.547,24.9714],[84.5324,24.9381],[84.4525,24.8587],[84.4042,24.8417],[84.3733,24.8879],[84.3625,24.8542],[84.3233,24.8788],[84.2456,24.8783],[84.241,24.8479],[84.1941,24.7962],[84.1881,24.8382],[84.1521,24.8958],[84.0843,24.8869],[84.0004,24.8483],[84.0045,24.8108],[83.9691,24.7545],[83.9146,24.7708],[83.8816,24.808],[83.8434,24.8087],[83.8409,24.8285],[83.7437,24.8208],[83.6875,24.8875],[83.665,24.883],[83.6134,24.909],[83.5617,24.9575],[83.4952,24.9153],[83.4994,24.8978],[83.4708,24.8583],[83.4618,24.8825],[83.425,24.9042],[83.3966,24.9035],[83.3867,24.8715],[83.3583,24.8708],[83.3631,24.9382],[83.348,24.9619],[83.2812,24.9786],[83.2436,24.9297],[83.2132,24.9426],[83.2083,24.9708],[83.1816,24.983],[83.1551,24.9827],[83.1538,24.9559],[83.127,24.9506],[83.0758,24.9631],[83.0292,25.0083],[82.9792,24.9625],[82.9542,24.8625],[82.9146,24.8912],[82.7851,24.8837],[82.75,24.9167],[82.6561,24.9089],[82.4542,24.9708],[82.3843,24.9451],[82.3483,24.9045],[82.29,24.9129],[82.2542,24.8792],[82.225,24.9208],[82.0792,24.9208],[82.066,24.9158],[82.0674,24.8662],[82.0854,24.8743],[82.1257,24.8459],[82.1104,24.8298],[82.0687,24.8381],[82.0216,24.8633],[81.9896,24.916],[81.9417,24.9417],[81.925,24.925],[81.8958,24.9333],[81.8795,24.9517],[81.8875,24.9708],[81.874,24.9661],[81.8509,24.9884],[81.8536,25.023],[81.8259,25.0384],[81.8083,25.0792],[81.7167,25.1],[81.6875,25.1792],[81.65,25.2125],[81.6095,25.2254],[81.6032,25.2131],[81.5618,25.2119],[81.5292,25.2833],[81.4343,25.305],[81.4243,25.3576],[81.3392,25.3837],[81.3208,25.4167],[81.2342,25.459],[81.2202,25.5153],[81.2325,25.5367],[81.2032,25.5659],[81.1341,25.5882],[81.1365,25.624],[81.0959,25.6595],[81.1125,25.7167],[81.0917,25.7417],[81.0458,25.6625],[80.9983,25.6663],[80.9657,25.7159],[80.897,25.7416],[80.8783,25.7659],[80.8217,25.7715],[80.7274,25.8205],[80.6092,25.8299],[80.5917,25.8708],[80.5458,25.875],[80.5494,25.9074],[80.474,25.9575],[80.4341,25.9507],[80.4036,26.0112],[80.4203,26.0438],[80.3854,26.062],[80.3631,26.0551],[80.3579,26.1188],[80.3324,26.1493],[80.3,26.15],[80.3243,26.2658],[80.2715,26.2843],[80.2483,26.3455],[80.2092,26.3465],[80.1674,26.3799],[80.15,26.475],[80.1174,26.4758],[80.1116,26.5032],[80.0354,26.5494],[79.9632,26.5427],[79.8923,26.6426],[79.8996,26.7191],[79.8691,26.7205],[79.8458,26.7708],[79.8187,26.7505],[79.7333,26.7333],[79.6831,26.7553],[79.6464,26.8005],[79.627,26.7922],[79.586,26.8208],[79.5396,26.8213],[79.5547,26.878],[79.5157,26.9202],[79.4801,26.9256],[79.4542,26.9542],[79.4586,26.9907],[79.4458,27.0042],[79.4,27.0042],[79.3825,27.0451],[79.323,27.0827],[79.2437,27.0923],[79.2074,27.166],[79.1417,27.175],[79.1092,27.1632],[79.076,27.2047],[79.0284,27.2297],[78.9976,27.2212],[78.9429,27.2547],[78.9,27.2375],[78.8633,27.255],[78.8458,27.3708],[78.825,27.3833],[78.7869,27.4741],[78.7342,27.5342],[78.7288,27.5824],[78.7125,27.6],[78.6592,27.6092],[78.6533,27.6451],[78.6215,27.655],[78.595,27.745],[78.5464,27.7592],[78.5283,27.7839],[78.5095,27.7369],[78.475,27.7583],[78.4868,27.7826],[78.4299,27.7841],[78.4285,27.8117],[78.3833,27.8221],[78.383,27.8408],[78.351,27.8371],[78.3369,27.8157],[78.3464,27.8032],[78.3208,27.7833],[78.2925,27.8134],[78.3006,27.8321],[78.2625,27.85],[78.2366,27.8298],[78.1958,27.8292],[78.1786,27.8507],[78.1839,27.9052],[78.1667,27.9208],[78.1961,27.9384],[78.1965,27.9671],[78.1532,28.0199],[78.1342,28.0119],[78.1037,28.0534],[78.0508,28.0593],[78.0016,28.0999],[78.0073,28.1826],[77.9758,28.1883],[77.9788,28.2233],[77.9497,28.2303],[77.9491,28.2535],[77.9101,28.2712],[77.8789,28.297],[77.8878,28.3114],[77.8417,28.3417],[77.8417,28.4167],[77.8258,28.4173],[77.816,28.473],[77.7952,28.4963],[77.8131,28.5088],[77.7952,28.563],[77.8205,28.6017],[77.8118,28.6283],[77.7875,28.6125],[77.7301,28.6202],[77.725,28.6042],[77.6384,28.6253],[77.6423,28.6569],[77.6174,28.6633],[77.6083,28.7],[77.6205,28.7649],[77.6042,28.8],[77.5742,28.8283],[77.5333,28.825],[77.5205,28.8517],[77.5333,28.8958],[77.5116,28.9243],[77.4917,28.9208],[77.5047,28.9696],[77.4595,28.9789],[77.4133,29.0175],[77.3989,29.0994],[77.2833,29.1583],[77.2659,29.1093],[77.1792,29.025],[77.1702,29.074],[77.1951,29.08],[77.1994,29.102],[77.1917,29.1958],[77.1566,29.1962],[77.1157,29.1703],[77.0679,29.1953],[77.0468,29.2129],[77.0241,29.3158],[76.9882,29.3176],[76.9667,29.3417],[76.9625,29.3875],[76.9083,29.4292],[76.9167,29.511],[76.9417,29.5167],[76.9468,29.5407],[76.9742,29.5466],[76.9799,29.5742],[76.9958,29.5792],[76.9741,29.6285],[76.9453,29.6409],[76.9547,29.6814],[76.9792,29.7],[76.975,29.7458],[76.9383,29.7368],[76.925,29.6875],[76.8801,29.6827],[76.8693,29.6667],[76.8333,29.7],[76.7925,29.6909],[76.7313,29.634],[76.6855,29.6214],[76.6467,29.6257],[76.5979,29.6577],[76.5623,29.6302],[76.4556,29.6077],[76.4289,29.6303],[76.4547,29.6759],[76.4333,29.6917],[76.3116,29.6369],[76.2907,29.6506],[76.2423,29.6426],[76.2288,29.6767],[76.2788,29.7059],[76.2833,29.7417],[76.2965,29.7463],[76.2869,29.8115],[76.3042,29.825],[76.2583,29.875],[76.1983,29.8587],[76.1858,29.8337],[76.1645,29.8535],[76.1316,29.817],[76.09,29.8121],[76.0535,29.8908],[76.0305,29.8826],[76.0369,29.8563],[76.0167,29.825],[75.9841,29.8508],[75.9919,29.8696],[75.9784,29.8951],[75.9592,29.8952],[75.9464,29.8137],[75.9042,29.8],[75.8907,29.8244],[75.8686,29.8256],[75.8189,29.8661],[75.7701,29.8714],[75.7506,29.8615],[75.7494,29.8426],[75.7218,29.8369],[75.7199,29.8503],[75.7,29.8417],[75.6802,29.859],[75.6839,29.8738],[75.6663,29.8803],[75.7,29.9333],[75.6755,29.9521],[75.7116,29.9909],[75.6346,29.9748],[75.6292,30.0],[75.576,29.9961],[75.5839,29.9703],[75.5426,29.9497],[75.5458,29.9125],[75.4983,29.9121],[75.4667,29.9375],[75.4342,29.93],[75.3789,29.9696],[75.3466,29.9717],[75.3375,30.0],[75.3508,30.0284],[75.3701,30.0299],[75.3625,30.0625],[75.3284,30.0578],[75.3156,30.0714],[75.2688,30.0255],[75.2408,30.0619],[75.2034,30.0672],[75.1833,30.0542],[75.1583,30.1125],[75.0667,30.0792],[75.0792,30.0417],[75.0493,30.0286],[75.0137,30.0422],[75.0022,30.0297],[74.8868,30.0286],[74.822,30.0506],[74.8083,30.0375],[74.7926,30.0701],[74.8446,30.0703],[74.9103,30.1119],[74.9521,30.1204],[74.9812,30.1088],[75.0119,30.1353],[75.0083,30.1583],[74.9324,30.1328],[74.8896,30.1463],[74.8708,30.1598],[74.8741,30.1951],[74.8049,30.174],[74.7992,30.1591],[74.7537,30.1673],[74.6368,30.0994],[74.6129,30.1184],[74.6201,30.1532],[74.5424,30.2047],[74.4051,30.1878],[74.3992,30.1715],[74.3333,30.1458],[74.3408,30.1132],[74.2964,30.0911],[74.2675,30.0951],[74.27,30.0757],[74.2159,30.0672],[74.1604,30.0338],[74.1284,30.0381],[74.1075,30.0133],[74.0466,29.9992],[74.0365,29.9757],[73.9885,29.9659],[73.9771,29.9465],[73.9409,29.9494],[73.9083,29.975],[73.8992,29.9508],[73.8625,29.9333],[73.8509,29.9825],[73.9091,30.0743],[73.9452,30.0937],[73.8812,30.1204],[73.8451,30.0994],[73.8145,30.1036],[73.7625,30.0458],[73.7275,30.0504],[73.6634,30.0243],[73.6337,29.9733],[73.6506,29.9382],[73.6331,29.9158],[73.6336,29.855],[73.5311,29.8328],[73.4941,29.8045],[73.475,29.8125],[73.4385,29.7952],[73.4216,29.7619],[73.4091,29.7756],[73.3625,29.7583],[73.3751,29.7804],[73.3521,29.7952],[73.3181,29.7744],[73.2992,29.8159],[73.23,29.8384],[73.2256,29.8738],[73.2011,29.8794],[73.1792,29.8542],[73.1472,29.8673],[73.137,29.8535],[73.0854,29.862],[73.05,29.8417],[73.062,29.8187],[73.0453,29.801],[73.0542,29.7849],[73.0217,29.7825],[72.9921,29.7521],[73.0208,29.6847],[72.973,29.609],[72.9055,29.5827],[72.862,29.6173],[72.8355,29.5797],[72.7616,29.5466],[72.7387,29.5506],[72.673,29.5006],[72.6326,29.5047],[72.6076,29.4869],[72.5387,29.5422],[72.4979,29.4958],[72.45,29.5],[72.4115,29.5618],[72.3146,29.562],[72.2616,29.5257],[72.1669,29.5032],[72.173,29.4673],[72.1493,29.4839],[72.0383,29.4701],[72.0207,29.401],[71.9542,29.4042],[71.9116,29.3799],[71.8882,29.3867],[71.8792,29.3708],[71.8375,29.3792],[71.8325,29.359],[71.7468,29.341],[71.7458,29.325],[71.7066,29.3129],[71.6188,29.3292],[71.5875,29.3083],[71.5134,29.2993],[71.5035,29.2717],[71.4772,29.2589],[71.4548,29.2676],[71.4438,29.2995],[71.2771,29.2839],[71.2354,29.2994],[71.1573,29.2578],[71.1282,29.2964],[71.116,29.2759],[71.0929,29.2794],[71.1,29.3292],[71.0845,29.3339],[71.0536,29.2987],[71.0619,29.2425],[70.9962,29.2323],[70.9825,29.1842],[70.8926,29.166],[70.8464,29.1272],[70.8628,29.1072],[70.8453,29.0368],[70.8702,29.0074],[70.8714,28.9201],[70.8125,28.7792],[70.7841,28.7922],[70.7494,28.7713],[70.7381,28.7062],[70.7506,28.688],[70.7372,28.6634],[70.7625,28.625],[70.7329,28.6423],[70.7079,28.6327],[70.6917,28.65],[70.6797,28.623],[70.6756,28.5561],[70.7079,28.5354],[70.6907,28.5009],[70.6632,28.4785],[70.6403,28.4965],[70.5972,28.4875],[70.5755,28.5048],[70.5188,28.4715],[70.4917,28.4792],[70.4983,28.4413],[70.5538,28.4548],[70.5951,28.4493],[70.5963,28.4369],[70.5702,28.434],[70.558,28.4092],[70.5221,28.409],[70.5292,28.3708],[70.501,28.3582],[70.4991,28.3346],[70.4705,28.3548],[70.4343,28.3367],[70.4417,28.2971],[70.4176,28.2869],[70.4159,28.3035],[70.3601,28.3045],[70.3373,28.3257],[70.3073,28.2882],[70.2871,28.2867],[70.2918,28.2596],[70.2313,28.234],[70.2061,28.2339],[70.1917,28.2542],[70.1581,28.2492],[70.1529,28.2292],[70.1042,28.2125],[70.0839,28.2386],[70.0875,28.2583],[70.072,28.2631],[70.0704,28.2438],[70.0424,28.2241],[70.0333,28.1792],[69.9604,28.187],[69.899,28.1256],[69.8559,28.108],[69.8333,28.0667],[69.799,28.0797],[69.7208,28.0333],[69.7044,27.9467],[69.6798,27.9369],[69.659,27.959],[69.6506,27.9479],[69.6865,27.8921],[69.6667,27.875],[69.6387,27.8832],[69.6211,27.8259],[69.576,27.8074],[69.5708,27.7917],[69.5951,27.7868],[69.5963,27.7722],[69.5702,27.7527],[69.5744,27.7271],[69.5574,27.7051],[69.4882,27.674],[69.4827,27.6431],[69.5077,27.6229],[69.5035,27.5937],[69.4216,27.5659],[69.4299,27.5384],[69.4452,27.5407],[69.4466,27.4883],[69.4756,27.4864],[69.4742,27.476],[69.391,27.4653],[69.4042,27.4473],[69.3917,27.4375],[69.4625,27.3958],[69.4491,27.367],[69.3938,27.3672],[69.3466,27.3965],[69.3256,27.3647],[69.3578,27.3439],[69.3717,27.3134],[69.4118,27.2991],[69.4201,27.2676],[69.3824,27.2289],[69.3187,27.2256],[69.288,27.2465],[69.2375,27.2333],[69.2384,27.2206],[69.2747,27.2298],[69.3417,27.1833],[69.2989,27.1212],[69.2667,27.1125],[69.247,27.0669],[69.3355,27.0828],[69.3458,27.075],[69.3296,27.0563],[69.3589,27.032],[69.3284,26.9883],[69.2759,26.9823],[69.2458,26.9417],[69.2417,26.9222],[69.2626,26.9113],[69.2551,26.8716],[69.275,26.8521],[69.2339,26.8064],[69.2464,26.7655],[69.2208,26.7333],[69.2292,26.7],[69.2833,26.7208],[69.2828,26.6728],[69.2328,26.5924],[69.2339,26.5468],[69.2575,26.5493],[69.259,26.5093],[69.2792,26.4875],[69.325,26.525],[69.3454,26.5146],[69.3256,26.4897],[69.3246,26.4142],[69.3083,26.3875],[69.325,26.3792],[69.3534,26.4173],[69.366,26.4062],[69.3715,26.5147],[69.4093,26.5576],[69.4423,26.4882],[69.4035,26.4588],[69.4077,26.4216],[69.391,26.413],[69.4009,26.3718],[69.4382,26.3341],[69.4583,26.3333],[69.4708,26.3083],[69.4453,26.2493],[69.4579,26.2229],[69.4259,26.2077],[69.4132,26.1384],[69.4215,26.1217],[69.4625,26.125],[69.4871,26.0601],[69.4295,26.0066],[69.3625,25.8833],[69.4202,25.8866],[69.4292,25.8375],[69.4564,25.8411],[69.4756,25.8257],[69.45,25.7667],[69.4785,25.7739],[69.4882,25.7426],[69.5408,25.7128],[69.5333,25.675],[69.5174,25.6752],[69.5167,25.65],[69.5375,25.6333],[69.5208,25.5958],[69.5491,25.591],[69.5583,25.6125],[69.608,25.6108],[69.5425,25.5467],[69.5625,25.5292],[69.5804,25.5339],[69.5978,25.5089],[69.6244,25.5073],[69.6312,25.488],[69.7625,25.45],[69.7178,25.3546],[69.7782,25.3548],[69.7951,25.3715],[69.8458,25.3583],[69.8035,25.3257],[69.7993,25.2922],[69.8211,25.2825],[69.809,25.2646],[69.8343,25.2077],[69.875,25.2167],[69.8746,25.2059],[69.8274,25.1712],[69.7467,25.1576],[69.7283,25.1341],[69.7134,25.1327],[69.7117,25.1546],[69.6583,25.125],[69.6542,25.0958],[69.6917,25.0958],[69.8246,25.1274],[69.7467,25.0741],[69.7449,25.0426],[69.6708,24.9985],[69.6749,24.9762],[69.6992,24.9701],[69.6875,24.9375],[69.7449,24.9631],[69.762,24.9521],[69.7621,24.9267],[69.7205,24.885],[69.7125,24.8292],[69.6,24.8042],[69.5661,24.7549],[69.5693,24.7369],[69.5061,24.7411],[69.4353,24.7161],[69.3574,24.6382],[69.2478,24.5869],[69.2292,24.5583],[69.2379,24.535],[69.283,24.5142],[69.2479,24.4875],[69.2,24.4833],[69.178,24.4414],[69.1546,24.4407],[69.0745,24.3768],[69.0736,24.3662],[69.1333,24.3583],[69.1304,24.379],[69.1603,24.3994],[69.3116,24.4628],[69.3083,24.4375],[69.2869,24.4284],[69.2964,24.4032],[69.2824,24.384],[69.2426,24.3743],[69.2047,24.3355],[69.1911,24.2576],[69.2,24.2333],[69.1659,24.2672],[69.1252,24.2534],[69.1161,24.2246],[69.1334,24.2146],[69.1386,24.1787],[69.1252,24.2051],[69.0779,24.2004],[69.0514,24.2143],[69.0615,24.2827],[69.0755,24.2713],[69.0697,24.2159],[69.0928,24.233],[69.1128,24.2205],[69.1038,24.2543],[69.084,24.2467],[69.0783,24.2825],[69.0467,24.2867],[69.0506,24.2536],[69.0297,24.2188],[69.0375,24.1792],[69.0199,24.1744],[68.9833,24.2042],[68.966,24.1943],[68.9701,24.1591],[68.8885,24.1157],[68.8833,24.0833],[68.8659,24.0744],[68.8521,24.0869],[68.8208,24.0667],[68.7899,24.0129],[68.7438,24.0329],[68.7189,24.0131],[68.7012,24.0172],[68.6938,23.9965],[68.655,24.0007],[68.6345,23.9524],[68.5976,23.9459],[68.6338,23.9016],[68.5682,23.8818],[68.5336,23.8358],[68.4551,23.8177],[68.4645,23.7673],[68.5043,23.7499],[68.4629,23.7606],[68.4422,23.8042],[68.4472,23.7637],[68.3763,23.619],[68.3634,23.6282],[68.348,23.5965],[68.28,23.5799],[68.272,23.6126],[68.2512,23.5791],[68.2396,23.5911],[68.2133,23.5841],[68.2213,23.5991],[68.2002,23.5927],[68.1827,23.6162],[68.2034,23.6506],[68.2699,23.6551],[68.3381,23.7305],[68.2968,23.7241],[68.2591,23.6785],[68.2342,23.6798],[68.191,23.7284],[68.2173,23.787],[68.209,23.8325],[68.2326,23.8382],[68.2119,23.8468],[68.2132,23.87],[68.2571,23.8791],[68.2867,23.9256],[68.3204,23.916],[68.3374,23.922],[68.3465,23.937],[68.3473,23.9666],[68.3322,23.9235],[68.3201,23.9174],[68.3261,23.9292],[68.287,23.9423],[68.2455,23.9011],[68.2035,23.8869],[68.19,23.9125],[68.1941,23.8545],[68.1017,23.8413],[68.0629,23.8559],[68.0551,23.9031],[68.0133,23.9448],[68.0408,23.9081],[68.0452,23.7937],[68.0146,23.7673],[67.9927,23.7882],[67.9813,23.7715],[67.9414,23.7784],[67.9382,23.7674],[67.9368,23.7985],[67.9624,23.8138],[67.9535,23.8313],[67.9104,23.8423],[67.8618,23.9086],[67.9292,23.9875],[67.8742,23.9965],[67.9048,23.9723],[67.8381,23.9105],[67.8381,23.8348],[67.8083,23.8125],[67.7757,23.8133],[67.7743,23.8241],[67.7661,23.8314]],[[67.5546,23.9137],[67.5512,23.9172],[67.55,23.9125],[67.5546,23.9137]],[[67.5337,23.9262],[67.5304,23.9297],[67.5292,23.925],[67.5337,23.9262]],[[68.1708,28.7833],[68.1667,28.7792],[68.17,28.78],[68.1708,28.7833]],[[90.4587,25.897],[90.4554,25.9006],[90.4542,25.8958],[90.4587,25.897]],[[76.2417,29.6583],[76.2458,29.6625],[76.2425,29.6616],[76.2417,29.6583]],[[68.2697,23.7046],[68.2661,23.7012],[68.2708,23.7],[68.2697,23.7046]],[[67.8704,24.0697],[67.8738,24.0661],[67.875,24.0708],[67.8704,24.0697]],[[67.8743,24.0783],[67.8908,24.0785],[67.8667,24.0833],[67.8743,24.0783]],[[68.4799,23.9956],[68.4854,23.9955],[68.4827,24.0],[68.4799,23.9956]],[[68.4827,24.0],[68.5042,23.9833],[68.5,24.0083],[68.4686,24.0078],[68.4387,23.9909],[68.4605,24.0],[68.4827,24.0]],[[67.7282,23.8867],[67.726,23.8737],[67.7324,23.8758],[67.7282,23.8867]],[[67.7206,23.8879],[67.7178,23.8964],[67.7155,23.8956],[67.7206,23.8879]],[[68.3708,23.8042],[68.3723,23.7999],[68.3756,23.803],[68.3708,23.8042]],[[68.3696,23.8088],[68.3641,23.8077],[68.3708,23.8042],[68.3696,23.8088]],[[73.7608,33.1455],[73.8125,33.1125],[73.8245,33.1172],[73.8057,33.1592],[73.7644,33.1812],[73.7608,33.1455]],[[72.9244,33.4395],[72.9542,33.5292],[72.8938,33.5088],[72.8646,33.5204],[72.7917,33.4667],[72.8325,33.4283],[72.8466,33.3883],[72.8691,33.3788],[72.9244,33.4395]],[[71.3587,32.6566],[71.3667,32.6167],[71.3833,32.6792],[71.3587,32.6566]],[[70.85,32.6542],[70.8375,32.6417],[70.8382,32.6342],[70.8583,32.6375],[70.85,32.6542]],[[67.4074,24.1298],[67.4111,24.125],[67.4122,24.1279],[67.4074,24.1298]],[[67.3955,24.1271],[67.3912,24.1266],[67.3944,24.125],[67.3955,24.1271]],[[67.8509,24.0884],[67.8542,24.0917],[67.85,24.0917],[67.8509,24.0884]],[[67.8583,24.0875],[67.8625,24.0833],[67.8616,24.0866],[67.8583,24.0875]],[[67.5783,24.0786],[67.5458,24.075],[67.5792,24.075],[67.5783,24.0786]],[[67.8193,24.0753],[67.8194,24.0708],[67.8205,24.0729],[67.8193,24.0753]],[[67.6494,24.0634],[67.6465,24.0741],[67.6458,24.0625],[67.6494,24.0634]],[[67.5233,24.0629],[67.5267,24.0705],[67.5208,24.0625],[67.5233,24.0629]],[[67.4705,24.0604],[67.4662,24.06],[67.4694,24.0583],[67.4705,24.0604]],[[67.9256,24.0562],[67.9548,24.0005],[67.9389,23.9827],[67.9541,23.9887],[67.9633,24.0117],[67.9958,24.0208],[67.9476,24.0212],[67.9256,24.0562]],[[68.0092,24.0134],[68.0116,24.0158],[68.0083,24.0167],[68.0092,24.0134]],[[68.0212,24.0101],[68.0295,24.0017],[68.0208,23.975],[68.0339,24.0009],[68.0212,24.0101]],[[68.4735,23.9958],[68.4765,23.9992],[68.4645,23.9961],[68.4735,23.9958]],[[68.3662,23.9912],[68.3562,23.9869],[68.3491,23.9807],[68.3587,23.9804],[68.3662,23.9912]],[[68.5089,23.978],[68.5007,23.9509],[68.5125,23.9458],[68.5089,23.978]],[[68.5454,23.9683],[68.5496,23.9687],[68.5485,23.9711],[68.5454,23.9683]],[[68.5319,23.9501],[68.5318,23.9503],[68.5318,23.9503],[68.5319,23.9501]],[[68.5208,23.9458],[68.5202,23.9199],[68.5124,23.9063],[68.5285,23.9176],[68.5208,23.9458]],[[68.5773,23.9085],[68.608,23.9186],[68.6102,23.9216],[68.6021,23.9281],[68.5773,23.9085]],[[68.5022,23.9006],[68.4884,23.8991],[68.4875,23.8958],[68.5022,23.9006]],[[68.3551,23.9072],[68.3792,23.9085],[68.3874,23.9128],[68.3601,23.9121],[68.3551,23.9072]],[[68.3947,23.9133],[68.3936,23.9119],[68.3993,23.9141],[68.3947,23.9133]],[[68.4108,23.9171],[68.4107,23.917],[68.4108,23.917],[68.4108,23.9171]],[[68.425,23.9372],[68.4157,23.9219],[68.4246,23.9309],[68.425,23.9372]],[[68.4284,23.9427],[68.4282,23.9425],[68.4283,23.9425],[68.4284,23.9427]],[[68.3871,23.9729],[68.3829,23.9725],[68.3861,23.9708],[68.3871,23.9729]],[[68.4441,23.9764],[68.4455,23.9767],[68.4458,23.979],[68.4441,23.9764]],[[67.8746,24.0146],[67.8704,24.0141],[67.8736,24.0125],[67.8746,24.0146]],[[67.5125,24.0583],[67.4792,24.0333],[67.4803,24.0289],[67.4897,24.0339],[67.5125,24.0583]],[[67.4427,24.066],[67.4653,24.0666],[67.4616,24.0827],[67.4426,24.0788],[67.4427,24.066]],[[67.5884,24.0714],[67.6241,24.0744],[67.5875,24.075],[67.5884,24.0714]],[[67.6292,24.0708],[67.6333,24.0667],[67.6325,24.07],[67.6292,24.0708]],[[67.8967,24.0717],[67.9108,24.0705],[67.8958,24.075],[67.8967,24.0717]],[[67.7167,23.9791],[67.7167,23.9792],[67.7165,23.9791],[67.7167,23.9791]],[[67.4995,23.9725],[67.5038,23.9729],[67.5027,23.9753],[67.4995,23.9725]],[[67.6631,23.9398],[67.6677,23.942],[67.6637,23.9422],[67.6631,23.9398]],[[67.6782,23.9387],[67.6869,23.9349],[67.6814,23.9411],[67.6782,23.9387]],[[67.6985,23.9382],[67.6991,23.9384],[67.6996,23.9402],[67.6985,23.9382]],[[67.6507,23.9324],[67.6424,23.9368],[67.6414,23.9215],[67.6507,23.9324]],[[67.5413,23.9354],[67.537,23.935],[67.5403,23.9333],[67.5413,23.9354]],[[67.5579,23.9058],[67.5621,23.9062],[67.561,23.9086],[67.5579,23.9058]],[[67.6337,23.9004],[67.6286,23.8701],[67.632,23.8657],[67.6337,23.9004]],[[67.7053,23.8756],[67.7048,23.8734],[67.707,23.8738],[67.7053,23.8756]],[[67.7131,23.8654],[67.7089,23.8603],[67.7113,23.8578],[67.7131,23.8654]],[[68.0173,23.9616],[68.0202,23.9509],[68.0208,23.9625],[68.0173,23.9616]],[[68.0973,23.9623],[68.0899,23.922],[68.0725,23.9125],[68.0858,23.917],[68.0996,23.9309],[68.0973,23.9623]],[[68.066,23.9207],[68.0645,23.9203],[68.0626,23.9186],[68.066,23.9207]],[[67.9244,23.8484],[67.9297,23.8508],[67.9264,23.8548],[67.9244,23.8484]],[[67.9454,23.785],[67.9496,23.7854],[67.9485,23.7878],[67.9454,23.785]],[[68.0641,23.9086],[68.0649,23.9087],[68.0654,23.9092],[68.0641,23.9086]],[[68.0566,23.9045],[68.0577,23.9056],[68.0574,23.9055],[68.0566,23.9045]],[[68.35,23.8875],[68.35,23.8904],[68.3497,23.8876],[68.35,23.8875]],[[68.4799,23.8865],[68.4742,23.8591],[68.4438,23.8464],[68.4844,23.8538],[68.4799,23.8865]],[[68.438,23.8506],[68.4334,23.8485],[68.4437,23.8464],[68.438,23.8506]],[[68.3496,23.8475],[68.347,23.8534],[68.3437,23.842],[68.3496,23.8475]],[[68.35,23.8833],[68.35,23.8583],[68.3547,23.8821],[68.35,23.8833]],[[68.3408,23.8342],[68.3464,23.8259],[68.3417,23.8366],[68.3408,23.8342]],[[68.3305,23.8102],[68.3274,23.8045],[68.335,23.8121],[68.3305,23.8102]],[[68.325,23.8],[68.3189,23.782],[68.3221,23.7775],[68.332,23.7887],[68.325,23.8]],[[68.429,23.7848],[68.4215,23.7688],[68.4207,23.7611],[68.4327,23.7756],[68.429,23.7848]],[[68.3382,23.7769],[68.329,23.7565],[68.3373,23.7441],[68.3327,23.7579],[68.3382,23.7769]],[[68.4167,23.747],[68.4167,23.747],[68.4167,23.7471],[68.4167,23.747]],[[78.6375,29.2875],[78.6371,29.3066],[78.6208,29.3208],[78.6167,29.3083],[78.6375,29.2875]],[[91.3696,25.8396],[91.4272,25.8728],[91.447,25.8596],[91.4537,25.8697],[91.4225,25.8835],[91.3696,25.8396]]],[[[67.9992,23.7659],[67.9926,23.7548],[67.9891,23.7673],[67.9992,23.7659]]],[[[67.7667,23.8292],[67.7625,23.822],[67.7581,23.8283],[67.7667,23.8292]]],[[[67.58,23.8712],[67.585,23.8671],[67.5788,23.8692],[67.58,23.8712]]],[[[67.4266,23.9646],[67.425,23.9521],[67.4138,23.9608],[67.4266,23.9646]]],[[[67.4406,23.9755],[67.4342,23.9674],[67.4329,23.9739],[67.4406,23.9755]]],[[[67.3278,24.2042],[67.316,24.205],[67.3175,24.2382],[67.3293,24.2263],[67.3278,24.2042]]],[[[67.5304,24.2839],[67.5337,24.2803],[67.5292,24.2792],[67.5304,24.2839]]],[[[84.5409,24.8784],[84.525,24.8667],[84.5256,24.8783],[84.5409,24.8784]]],[[[89.1038,26.6066],[89.0924,26.6049],[89.0917,26.6125],[89.1038,26.6066]]]]}}