{"type":"Feature","properties":{"speciesId":469,"category":"CR","source":"IUCN Red List","simplifyTol":0.01,"clippedToSubcontinent":true},"geometry":{"type":"MultiPolygon","coordinates":[[[[92.2921,22.5157],[92.2802,22.5283],[92.2924,22.5784],[92.3159,22.5758],[92.3417,22.6],[92.3201,22.6533],[92.2717,22.6842],[92.2625,22.7083],[92.2982,22.6868],[92.3215,22.7007],[92.2929,22.708],[92.2932,22.7456],[92.3148,22.751],[92.3008,22.7541],[92.2828,22.8174],[92.2964,22.8424],[92.2828,22.8966],[92.2875,22.9083],[92.3083,22.8958],[92.309,22.9658],[92.3292,22.9833],[92.317,23.0858],[92.3455,23.1767],[92.3167,23.3417],[92.3575,23.3467],[92.3965,23.4199],[92.4292,23.425],[92.4167,23.4958],[92.433,23.5684],[92.4208,23.65],[92.4339,23.6757],[92.4064,23.6994],[92.3589,23.6926],[92.3546,23.7396],[92.3797,23.853],[92.3705,23.985],[92.4167,24.1792],[92.3792,24.1875],[92.3786,24.2199],[92.3414,24.2386],[92.3464,24.3241],[92.3746,24.4059],[92.3788,24.4691],[92.3542,24.4896],[92.375,24.5958],[92.3347,24.591],[92.3083,24.6125],[92.2383,24.5966],[92.2298,24.6313],[92.258,24.6684],[92.2524,24.7413],[92.1868,24.7506],[92.1333,24.7292],[92.0917,24.7417],[92.0826,24.7217],[91.9875,24.7083],[91.9494,24.7342],[92.0208,24.8],[91.9825,24.8159],[91.8667,24.8167],[91.8458,24.7917],[91.8465,24.8365],[91.8104,24.8578],[91.7495,24.841],[91.7191,24.8621],[91.627,24.8756],[91.5958,24.9],[91.6042,24.925],[91.5383,24.9326],[91.5112,24.9039],[91.4965,24.9175],[91.4907,24.9782],[91.4375,25.0208],[91.3909,25.0256],[91.347,24.9997],[91.3275,25.0413],[91.2618,25.0369],[91.249,25.0535],[91.2197,25.0456],[91.1718,25.0669],[91.1662,25.0535],[91.1387,25.0541],[91.109,25.0676],[91.1022,25.0953],[91.0771,25.0995],[91.0534,25.0744],[90.9866,25.1244],[90.947,25.1206],[90.9417,25.1375],[90.8757,25.155],[90.8535,25.1882],[90.8618,25.2615],[90.8375,25.2708],[90.8089,25.2564],[90.8214,25.2032],[90.78,25.1743],[90.7333,25.1042],[90.6833,25.125],[90.6958,25.2167],[90.6512,25.2339],[90.6101,25.2004],[90.5342,25.2259],[90.525,25.2417],[90.4642,25.2246],[90.4483,25.1962],[90.4292,25.1958],[90.3947,25.2461],[90.3434,25.2496],[90.3316,25.2337],[90.2801,25.2243],[90.2534,25.1802],[90.2083,25.1833],[90.1917,25.1625],[90.1501,25.2139],[90.1434,25.2455],[90.1033,25.1592],[90.05,25.1458],[90.0547,25.1814],[90.0827,25.1926],[90.0952,25.2259],[90.0833,25.2958],[90.0525,25.2629],[90.0146,25.2542],[89.9625,25.1792],[89.9715,25.2367],[89.9881,25.2466],[89.9702,25.2716],[89.984,25.2921],[89.9714,25.3604],[89.9949,25.4119],[89.9217,25.4256],[89.9173,25.4653],[89.8836,25.5025],[89.8696,25.4915],[89.8507,25.5008],[89.8208,25.5521],[89.8464,25.649],[89.9075,25.7033],[89.8532,25.7172],[89.7855,25.6589],[89.75,25.6542],[89.7375,25.7042],[89.7708,25.7708],[89.7907,25.7753],[89.7927,25.7619],[89.8541,25.7762],[89.8687,25.8202],[89.8908,25.8253],[89.8917,25.775],[89.922,25.7964],[90.0208,25.7792],[89.9792,25.8417],[89.9993,25.8507],[90.0093,25.9034],[90.0854,25.9245],[90.12,25.9201],[90.1354,25.8963],[90.1544,25.9009],[90.1458,25.9708],[90.1744,25.9811],[90.1847,26.0381],[90.2365,26.0327],[90.2425,26.0132],[90.287,25.9994],[90.3063,26.0078],[90.3542,25.9833],[90.3369,26.012],[90.359,26.0574],[90.4167,26.0917],[90.4525,26.0754],[90.5351,26.133],[90.5629,26.1184],[90.5587,26.0892],[90.5746,26.0642],[90.5542,26.0417],[90.5792,26.025],[90.5839,26.074],[90.5978,26.0828],[90.6189,26.0839],[90.6221,26.087],[90.5717,26.0954],[90.5944,26.1075],[90.6269,26.0915],[90.7167,26.0917],[90.7375,26.1208],[90.7615,26.1201],[90.784,26.0963],[90.7747,26.0759],[90.8034,26.0661],[90.8241,26.0673],[90.8458,26.1],[90.8667,26.075],[90.8917,26.0875],[91.0157,26.0673],[91.0382,26.1117],[91.0735,26.1208],[91.0845,26.1036],[91.1542,26.0958],[91.1542,26.1708],[91.1705,26.1767],[91.1842,26.216],[91.2452,26.255],[91.2458,26.2708],[91.2091,26.2633],[91.0765,26.3047],[91.0783,26.2881],[91.0506,26.2842],[91.0628,26.3136],[91.0619,26.3522],[91.0411,26.3863],[91.0506,26.3905],[91.022,26.3961],[91.0128,26.4367],[90.9801,26.4285],[90.9548,26.477],[90.9673,26.5003],[90.9583,26.5292],[90.8792,26.5125],[90.8792,26.475],[90.8507,26.4699],[90.8267,26.4288],[90.8042,26.4333],[90.7987,26.3911],[90.7673,26.395],[90.7542,26.3667],[90.7375,26.4042],[90.7201,26.3841],[90.6958,26.3917],[90.6952,26.42],[90.6582,26.4572],[90.622,26.4624],[90.5742,26.5201],[90.5208,26.5542],[90.5249,26.4639],[90.4793,26.4322],[90.4573,26.3952],[90.4375,26.4042],[90.4083,26.3875],[90.3562,26.416],[90.3382,26.3992],[90.3375,26.35],[90.3241,26.3382],[90.2345,26.3203],[90.2476,26.3538],[90.1833,26.3083],[90.1917,26.3354],[90.175,26.4208],[90.1591,26.4201],[90.1631,26.3955],[90.1367,26.3382],[90.0976,26.3413],[90.0833,26.3167],[90.0466,26.3258],[90.0409,26.3492],[90.0134,26.3587],[89.9688,26.4125],[89.9462,26.3858],[89.9458,26.35],[89.9162,26.3715],[89.8659,26.3382],[89.8184,26.3371],[89.7988,26.3161],[89.7759,26.3381],[89.7292,26.325],[89.7083,26.4083],[89.6397,26.3714],[89.5895,26.3869],[89.5542,26.3375],[89.5189,26.3661],[89.4743,26.3619],[89.4425,26.3836],[89.4115,26.4409],[89.3924,26.4424],[89.3542,26.5125],[89.3244,26.4713],[89.3365,26.4465],[89.3042,26.425],[89.275,26.4417],[89.2333,26.5167],[89.224,26.4673],[89.155,26.43],[89.1574,26.4782],[89.0909,26.5493],[89.0375,26.5667],[89.0089,26.4577],[88.9826,26.4992],[88.9104,26.5088],[88.899,26.5244],[88.85,26.4833],[88.7964,26.552],[88.7922,26.6049],[88.7743,26.6324],[88.7284,26.5841],[88.6668,26.5928],[88.6366,26.6407],[88.6042,26.6583],[88.5658,26.7326],[88.5458,26.7375],[88.4625,26.8625],[88.405,26.8759],[88.392,26.9191],[88.4371,26.9892],[88.425,27.0083],[88.4542,27.0083],[88.4759,27.0741],[88.5833,27.125],[88.6037,27.1521],[88.5911,27.1743],[88.6009,27.1866],[88.6774,27.1871],[88.7708,27.0917],[88.8158,27.0783],[88.8299,27.0133],[88.8576,27.0031],[88.8625,26.95],[88.9026,26.9417],[88.9137,26.9589],[88.9451,26.9549],[88.9718,27.0157],[89.0208,27.0375],[89.0286,26.9049],[89.0342,26.8923],[89.05,26.9],[89.0458,26.8833],[89.0951,26.9006],[89.1616,26.8869],[89.2191,26.8996],[89.2417,26.8667],[89.2895,26.8506],[89.3189,26.8464],[89.3408,26.8617],[89.3375,26.8],[89.3566,26.792],[89.4083,26.8167],[89.4004,26.7767],[89.4155,26.7619],[89.4259,26.7868],[89.4801,26.8243],[89.5458,26.8458],[89.5625,26.8042],[89.6397,26.7828],[89.6708,26.7542],[89.7184,26.7496],[89.7333,26.7667],[89.8167,26.7875],[89.8423,26.7778],[89.8343,26.7327],[89.9483,26.733],[90.0042,26.7458],[90.0208,26.775],[90.0092,26.7991],[90.0408,26.8297],[90.0824,26.8256],[90.1034,26.8506],[90.1417,26.8542],[90.1507,26.9032],[90.1896,26.9412],[90.2049,26.9051],[90.2616,26.8509],[90.3119,26.9134],[90.325,26.9542],[90.3163,26.9934],[90.3364,27.0169],[90.3451,27.0036],[90.3866,27.0159],[90.465,26.9413],[90.5083,26.9542],[90.548,26.9464],[90.5782,26.9756],[90.6441,26.9754],[90.6649,26.9913],[90.7625,26.9292],[90.7994,26.8855],[90.8006,26.8436],[90.8167,26.8292],[90.9542,26.8375],[90.9875,26.825],[91.1108,26.8545],[91.1771,26.8379],[91.2358,26.8496],[91.2476,26.8295],[91.2729,26.825],[91.3,26.8333],[91.3503,26.8968],[91.3384,26.9326],[91.3905,26.9414],[91.4375,26.975],[91.4462,26.9475],[91.4288,26.9142],[91.4476,26.8587],[91.5108,26.8754],[91.5267,26.8996],[91.5792,26.925],[91.6167,26.8917],[91.6525,26.8913],[91.6733,26.8538],[91.7375,26.8625],[91.7828,26.8853],[91.8,26.9583],[91.7667,27.0],[91.7934,27.0163],[91.8441,26.9996],[91.8629,26.9684],[91.8583,26.9458],[91.8792,26.9333],[91.9601,26.9705],[91.9941,26.9663],[92.0434,26.9295],[92.0829,26.9325],[92.105,26.8956],[92.1214,26.9738],[92.1,27.0125],[92.1733,27.042],[92.1934,27.0788],[92.2354,27.0833],[92.2542,27.05],[92.275,27.05],[92.2934,27.0788],[92.3119,27.0811],[92.325,27.1208],[92.3479,27.1088],[92.4458,27.1333],[92.5491,27.0783],[92.5811,27.0381],[92.6125,27.0333],[92.6344,27.0868],[92.6492,27.0883],[92.6566,27.1295],[92.6792,27.1292],[92.7091,27.1547],[92.82,27.1383],[92.8367,27.1631],[92.8522,27.1619],[92.9004,27.1392],[92.8875,27.0875],[92.9875,27.025],[93.0009,27.0535],[93.0875,27.0667],[93.1175,27.1158],[93.1875,27.1125],[93.2384,27.1533],[93.3042,27.1708],[93.3354,27.1583],[93.425,27.1792],[93.5083,27.1625],[93.5226,27.1788],[93.6083,27.175],[93.6449,27.1964],[93.6659,27.1828],[93.72,27.1865],[93.7375,27.1417],[93.7574,27.1423],[93.8116,27.1674],[93.833,27.2101],[93.8255,27.2438],[93.8506,27.2946],[93.8292,27.3208],[93.8792,27.3375],[93.9125,27.3833],[93.9457,27.3846],[94.0083,27.4292],[93.9754,27.4559],[93.9708,27.4917],[93.9292,27.4958],[93.9244,27.528],[93.9583,27.5833],[94.1399,27.617],[94.1504,27.6441],[94.2205,27.7017],[94.2256,27.7486],[94.1872,27.7634],[94.2,27.7958],[94.1718,27.8004],[94.1292,27.8625],[94.2156,27.917],[94.2337,28.0274],[94.2792,28.0625],[94.299,28.1008],[94.2708,28.1792],[94.3583,28.1958],[94.3911,28.1355],[94.3917,28.0792],[94.4574,28.0535],[94.4875,28.0208],[94.5446,28.0244],[94.5726,28.058],[94.6226,28.0705],[94.6824,28.0506],[94.7208,28.1083],[94.9454,28.1218],[94.9466,28.2118],[94.9917,28.2375],[94.9387,28.2668],[94.9042,28.3292],[94.9271,28.3412],[94.974,28.3215],[95.0,28.3917],[94.9833,28.4542],[95.09,28.5337],[95.1375,28.5125],[95.1663,28.4691],[95.1593,28.4212],[95.2417,28.4083],[95.2509,28.3216],[95.2851,28.2962],[95.3208,28.2875],[95.3366,28.3047],[95.358,28.3011],[95.3675,28.3201],[95.4333,28.3167],[95.4509,28.3493],[95.4729,28.362],[95.5049,28.3494],[95.5625,28.4],[95.5917,28.375],[95.5712,28.3309],[95.6184,28.2795],[95.703,28.2581],[95.7191,28.2837],[95.7667,28.2792],[95.7712,28.235],[95.7934,28.2212],[95.8439,28.2172],[95.9042,28.2458],[95.9525,28.233],[95.975,28.2],[96.0034,28.1953],[96.0667,28.1958],[96.0875,28.2167],[96.2083,28.2167],[96.2087,28.1517],[96.2254,28.1392],[96.2167,28.075],[96.2408,28.0741],[96.3004,27.985],[96.3454,27.9615],[96.3551,27.9381],[96.3983,27.9246],[96.4375,27.9417],[96.4208,27.9208],[96.433,27.8851],[96.4167,27.8542],[96.4417,27.7792],[96.5108,27.7663],[96.55,27.7792],[96.575,27.6583],[96.5208,27.6417],[96.4534,27.6411],[96.4417,27.6542],[96.3842,27.6451],[96.3756,27.5353],[96.3913,27.4892],[96.3458,27.4667],[96.349,27.4383],[96.3191,27.4087],[96.2871,27.4449],[96.2368,27.4589],[96.2116,27.4384],[96.1429,27.4339],[96.1208,27.4193],[96.1163,27.3892],[96.0816,27.367],[96.0145,27.3839],[95.9833,27.4125],[95.9755,27.3979],[95.9955,27.374],[95.9792,27.3667],[95.9875,27.3104],[95.9663,27.276],[95.9217,27.2673],[95.9032,27.3047],[95.8826,27.2551],[95.8408,27.2215],[95.759,27.1908],[95.7189,27.1547],[95.677,27.1536],[95.6618,27.1134],[95.6375,27.1],[95.5816,27.0871],[95.5634,27.1035],[95.5,27.0417],[95.491,27.0298],[95.5077,26.9895],[95.4915,26.9721],[95.5367,26.9576],[95.5417,26.9375],[95.5191,26.8962],[95.4809,26.8962],[95.4417,26.95],[95.3767,26.9205],[95.3608,26.8962],[95.3333,26.8958],[95.325,26.9333],[95.2562,26.9244],[95.2333,26.875],[95.2006,26.8843],[95.1958,26.9042],[95.1491,26.8786],[95.128,26.8961],[95.0784,26.8964],[95.0667,26.8833],[95.0238,26.9129],[94.9833,26.8875],[94.9783,26.8548],[94.9467,26.8452],[94.9328,26.8216],[94.9616,26.7507],[94.8274,26.6587],[94.79,26.6629],[94.7792,26.65],[94.7458,26.675],[94.6708,26.6167],[94.6714,26.5895],[94.6964,26.5591],[94.6369,26.4549],[94.6419,26.4386],[94.6176,26.4285],[94.5491,26.3342],[94.509,26.3199],[94.5042,26.2958],[94.4792,26.2917],[94.475,26.275],[94.4083,26.2625],[94.4256,26.2171],[94.416,26.155],[94.3875,26.1083],[94.4042,26.0708],[94.3708,26.0458],[94.3756,26.0261],[94.4089,26.0052],[94.3962,25.9854],[94.4283,25.9424],[94.3803,25.9504],[94.3659,25.9369],[94.3527,25.9542],[94.3333,25.9458],[94.3125,25.9583],[94.3157,25.9254],[94.2458,25.8792],[94.2507,25.855],[94.2785,25.8409],[94.2792,25.8083],[94.1958,25.7417],[94.2,25.6458],[94.1603,25.6548],[94.145,25.6826],[94.1287,25.684],[94.1007,25.6658],[94.0658,25.5967],[94.028,25.6128],[94.0011,25.5997],[93.9911,25.6491],[93.965,25.6545],[93.8708,25.5958],[93.8438,25.6083],[93.8149,25.5795],[93.7309,25.5621],[93.7375,25.5265],[93.7105,25.5006],[93.6614,25.5253],[93.6384,25.5119],[93.6583,25.4771],[93.6455,25.4184],[93.5947,25.3372],[93.5534,25.3286],[93.5326,25.3422],[93.4922,25.2897],[93.508,25.2434],[93.4504,25.1566],[93.4417,25.1021],[93.4458,25.0833],[93.4825,25.0658],[93.4881,25.0061],[93.5078,24.9772],[93.4996,24.9226],[93.4578,24.8343],[93.4871,24.8059],[93.4688,24.775],[93.4333,24.7833],[93.3994,24.6927],[93.3667,24.6708],[93.35,24.6354],[93.3875,24.5625],[93.3554,24.5589],[93.3214,24.5272],[93.3119,24.427],[93.2788,24.3434],[93.2833,24.2375],[93.2512,24.2381],[93.2325,24.1925],[93.1958,24.2],[93.1786,24.1176],[93.1246,24.0059],[93.1455,23.8476],[93.0917,23.8208],[93.1087,23.7975],[93.1083,23.7292],[93.0879,23.6816],[93.0792,23.5188],[93.0649,23.492],[93.0051,23.4538],[92.9795,23.3983],[92.9875,23.3771],[92.9712,23.3226],[92.9925,23.2717],[93.0337,23.247],[93.0042,23.2208],[93.0125,23.1521],[93.0413,23.1358],[93.0045,23.0108],[93.0243,22.9908],[93.0328,22.9061],[92.9958,22.8792],[93.0337,22.8434],[93.0256,22.7853],[93.0494,22.7616],[93.0417,22.6333],[93.025,22.6208],[93.0254,22.4767],[93.0631,22.4382],[93.0417,22.3958],[93.0535,22.3383],[93.0292,22.3125],[93.0288,22.1892],[92.9937,22.1708],[92.9649,22.1955],[92.953,22.1791],[92.9104,22.2036],[92.8925,22.1993],[92.8908,22.1674],[92.8588,22.1798],[92.8313,22.1417],[92.8083,22.1458],[92.8292,22.0188],[92.8246,21.9559],[92.8036,21.9201],[92.809,21.8468],[92.8324,21.8368],[92.8422,21.8007],[92.8375,21.7521],[92.7708,21.7292],[92.7883,21.684],[92.825,21.6833],[92.8212,21.6226],[92.8503,21.5572],[92.8458,21.5167],[92.8083,21.4958],[92.8672,21.3299],[92.866,21.3051],[92.8465,21.299],[92.8538,21.2392],[92.85,21.225],[92.8129,21.2309],[92.808,21.2774],[92.7767,21.3205],[92.7576,21.2508],[92.7426,21.2587],[92.725,21.2292],[92.7167,21.175],[92.6843,21.1704],[92.6576,21.1301],[92.6271,21.109],[92.6174,21.1171],[92.6167,21.0958],[92.5976,21.0962],[92.5538,21.1465],[92.525,21.1375],[92.442,21.2976],[92.4246,21.4316],[92.3792,21.4792],[92.3625,21.5208],[92.3375,21.5292],[92.3241,21.5616],[92.275,21.6],[92.3212,21.6532],[92.3738,21.671],[92.3922,21.7147],[92.4208,21.7375],[92.4078,21.7814],[92.3375,21.8708],[92.2703,22.0689],[92.2297,22.127],[92.2299,22.1534],[92.2625,22.1583],[92.2536,22.2218],[92.2842,22.3169],[92.35,22.2958],[92.391,22.3051],[92.3379,22.3559],[92.3083,22.4333],[92.267,22.4601],[92.2538,22.508],[92.2841,22.496],[92.2861,22.5056],[92.2807,22.5168],[92.2921,22.5157]],[[90.5167,26.95],[90.5134,26.9467],[90.5167,26.9458],[90.5167,26.95]],[[92.3035,22.5218],[92.32,22.4783],[92.3363,22.4835],[92.3327,22.5076],[92.3213,22.504],[92.3154,22.509],[92.332,22.5137],[92.3264,22.5323],[92.3199,22.5118],[92.3035,22.5218]],[[92.5292,22.9333],[92.5083,22.9542],[92.5091,22.9301],[92.5292,22.9333]],[[92.5833,22.95],[92.5949,22.9535],[92.5845,22.9547],[92.5833,22.95]],[[92.4417,24.5125],[92.4686,24.4797],[92.4917,24.4708],[92.4574,24.5119],[92.4417,24.5125]],[[92.4375,24.5167],[92.4542,24.6479],[92.4375,24.6667],[92.4375,24.5167]]],[[[92.2545,22.5195],[92.2771,22.5247],[92.2836,22.5016],[92.2545,22.5195]]]]}}