{"type":"Feature","properties":{"speciesId":470,"category":"VU","source":"IUCN Red List","simplifyTol":0.01,"clippedToSubcontinent":true},"geometry":{"type":"MultiPolygon","coordinates":[[[[72.4229,22.2033],[72.4154,22.205],[72.4175,22.2079],[72.4229,22.2033]]],[[[89.9137,22.0089],[89.9136,22.0006],[89.908,22.0071],[89.9137,22.0089]]],[[[89.8792,22.0917],[89.8868,22.0716],[89.8675,22.058],[89.8792,22.0917]]],[[[89.9002,21.9929],[89.8786,21.9935],[89.8992,21.9993],[89.9002,21.9929]]],[[[88.5792,21.8792],[88.5866,21.8619],[88.5799,21.8635],[88.5792,21.8792]]],[[[88.1465,21.9174],[88.1398,21.891],[88.1134,21.9074],[88.1035,21.8843],[88.1048,21.9075],[88.1242,21.9298],[88.1465,21.9174]]],[[[72.3611,21.925],[72.3466,21.9257],[72.351,21.9465],[72.3576,21.9449],[72.3611,21.925]]],[[[89.8922,21.9631],[89.8869,21.9607],[89.8908,21.9705],[89.8922,21.9631]]],[[[88.0528,21.9083],[88.0465,21.9397],[88.072,21.9999],[88.1465,22.0273],[88.0909,21.9301],[88.0528,21.9083]]],[[[72.5948,21.6422],[72.621,21.6403],[72.6071,21.6161],[72.5786,21.6262],[72.5948,21.6422]],[[72.6042,21.6375],[72.5953,21.6345],[72.6029,21.6328],[72.6042,21.6375]]],[[[72.5866,21.8384],[72.6042,21.8708],[72.6708,21.875],[72.6708,21.9417],[72.6441,21.9462],[72.6129,21.9233],[72.5948,21.8591],[72.5223,21.8452],[72.516,21.8652],[72.5673,21.8782],[72.5134,21.8744],[72.4994,21.9628],[72.5634,22.1868],[72.5978,22.2161],[72.648,22.2203],[72.7575,22.1757],[72.802,22.2453],[72.8743,22.2244],[72.9083,22.2417],[72.9167,22.2667],[72.9036,22.2468],[72.8637,22.2411],[72.8542,22.2792],[72.8395,22.2786],[72.7409,22.2286],[72.6842,22.2382],[72.6397,22.2828],[72.5408,22.2411],[72.5333,22.2708],[72.5243,22.2385],[72.4829,22.1952],[72.466,22.2048],[72.484,22.232],[72.433,22.2989],[72.3884,22.3086],[72.4083,22.35],[72.3895,22.341],[72.3744,22.3163],[72.3895,22.3006],[72.4159,22.2993],[72.4202,22.2271],[72.4032,22.1957],[72.3855,22.2119],[72.3702,22.2027],[72.3958,22.1679],[72.3752,22.1493],[72.3585,22.1699],[72.3533,22.1243],[72.3125,22.15],[72.3244,22.1176],[72.3122,22.1114],[72.2728,21.9287],[72.2423,22.0532],[72.2812,22.0744],[72.299,22.0663],[72.2991,22.1045],[72.2615,22.0828],[72.2423,22.0991],[72.245,22.0592],[72.222,22.0536],[72.1989,22.0785],[72.1667,22.0792],[72.1158,22.1327],[72.0729,22.1296],[71.9841,22.1591],[72.0242,22.1924],[72.0042,22.2083],[72.0214,22.2759],[71.9913,22.3441],[71.95,22.375],[71.9816,22.3795],[71.9976,22.4038],[72.0333,22.4167],[72.0506,22.4551],[72.0215,22.4967],[72.0292,22.5125],[72.1191,22.5087],[72.1583,22.5292],[72.1163,22.5673],[72.0828,22.5535],[72.0625,22.5875],[72.0676,22.6159],[72.1271,22.625],[72.1619,22.6592],[72.1575,22.695],[72.1208,22.7],[72.0923,22.7468],[72.1006,22.8071],[72.0703,22.8427],[72.0798,22.873],[72.0992,22.8799],[72.1125,22.925],[72.0994,22.9403],[72.141,23.0395],[72.125,23.0792],[72.1869,23.0927],[72.17,23.124],[72.1292,23.1292],[72.2124,23.1303],[72.2345,23.1874],[72.3869,23.3603],[72.3924,23.4033],[72.4121,23.4226],[72.4008,23.4742],[72.421,23.4724],[72.4841,23.5826],[72.5159,23.5924],[72.5676,23.6535],[72.7034,23.7049],[72.7161,23.7312],[72.6994,23.7632],[72.7215,23.8028],[72.7137,23.8214],[72.7792,23.7958],[72.824,23.8007],[72.9259,23.8702],[72.9792,23.8792],[72.9917,23.9042],[73.05,23.9125],[73.1008,23.9701],[73.1492,23.9536],[73.2076,23.9576],[73.2133,23.9133],[73.2294,23.9116],[73.225,23.8875],[73.2583,23.9],[73.2413,23.7975],[73.2559,23.7545],[73.3,23.7583],[73.3155,23.7879],[73.3283,23.7661],[73.3809,23.7705],[73.4042,23.8083],[73.4191,23.808],[73.4507,23.7384],[73.475,23.725],[73.5042,23.7333],[73.5256,23.7091],[73.5076,23.6633],[73.4673,23.6272],[73.4717,23.6131],[73.5125,23.6042],[73.5533,23.6216],[73.5508,23.6493],[73.5782,23.6587],[73.5797,23.698],[73.6,23.725],[73.6375,23.725],[73.6429,23.7078],[73.6659,23.7131],[73.6958,23.6958],[73.7451,23.7131],[73.8042,23.6917],[73.8534,23.7214],[73.9009,23.6882],[73.947,23.6964],[73.9741,23.6828],[74.0045,23.7316],[74.025,23.7375],[74.0839,23.6843],[74.1125,23.6083],[74.1708,23.6125],[74.1839,23.5634],[74.167,23.4809],[74.19,23.4663],[74.2458,23.4792],[74.2254,23.4267],[74.2663,23.3899],[74.27,23.3675],[74.1625,23.3167],[74.1351,23.3205],[74.0994,23.2907],[74.1547,23.2557],[74.1494,23.2302],[74.0953,23.1968],[74.134,23.1466],[74.1328,23.1188],[74.0667,23.0708],[74.0458,23.0083],[73.9748,22.991],[73.9208,23.0375],[73.8913,22.9725],[73.8292,22.9625],[73.8292,22.9417],[73.8689,22.9369],[73.8907,22.9161],[73.9366,22.9631],[74.0147,22.9536],[74.0583,22.9417],[74.059,22.9258],[74.1048,22.9199],[74.1,22.9],[74.1667,22.8917],[74.1827,22.8259],[74.1659,22.7885],[74.141,22.7782],[74.1631,22.7549],[74.1535,22.713],[74.1792,22.6875],[74.1664,22.6261],[74.2345,22.5703],[74.2792,22.5667],[74.2757,22.5342],[74.3117,22.5284],[74.352,22.4881],[74.3949,22.5007],[74.4351,22.5413],[74.5375,22.5125],[74.5658,22.5259],[74.5884,22.5702],[74.6667,22.5542],[74.708,22.5881],[74.7566,22.567],[74.8292,22.6167],[74.8533,22.6158],[74.8701,22.5869],[74.948,22.5828],[75.0034,22.5619],[75.0564,22.5672],[75.1,22.6083],[75.2417,22.5875],[75.2909,22.6172],[75.3197,22.6086],[75.3828,22.5491],[75.4119,22.5158],[75.4167,22.4792],[75.4858,22.4879],[75.5184,22.5205],[75.55,22.525],[75.5603,22.5047],[75.6875,22.4542],[75.7395,22.5077],[75.7912,22.5256],[75.822,22.5083],[75.8625,22.5333],[75.85,22.6],[75.9149,22.6129],[75.925,22.6417],[75.9542,22.6542],[75.9934,22.6379],[76.0908,22.6465],[76.1395,22.6911],[76.1875,22.6958],[76.199,22.6661],[76.2483,22.6788],[76.2714,22.6405],[76.2635,22.6129],[76.3283,22.5884],[76.3441,22.6045],[76.3625,22.6],[76.3968,22.6911],[76.4333,22.6917],[76.452,22.7244],[76.4996,22.7392],[76.5042,22.8],[76.5542,22.8042],[76.5784,22.7786],[76.6417,22.8042],[76.6895,22.8453],[76.7051,22.8247],[76.77,22.8259],[76.8645,22.8994],[76.9491,22.9134],[76.9634,22.9452],[77.0333,22.9792],[77.0538,23.0226],[77.0509,23.0661],[77.1146,23.125],[77.1493,23.1259],[77.1708,23.1708],[77.1708,23.2208],[77.2625,23.3],[77.2542,23.3583],[77.2967,23.4327],[77.3632,23.4078],[77.4888,23.4583],[77.4843,23.4201],[77.503,23.454],[77.5205,23.4483],[77.5167,23.4208],[77.5495,23.4202],[77.5591,23.4368],[77.6574,23.4744],[77.6667,23.4167],[77.7325,23.42],[77.7625,23.3542],[77.8021,23.35],[77.8187,23.3667],[77.8833,23.35],[77.8714,23.2843],[77.8958,23.2792],[77.8917,23.2583],[77.9119,23.2491],[77.909,23.1967],[77.9583,23.1208],[78.0035,23.1408],[78.023,23.0916],[78.0451,23.1336],[78.0567,23.0963],[78.0736,23.1114],[78.0553,23.0911],[78.0747,23.0716],[78.0655,23.0654],[78.0882,23.0578],[78.1214,23.0696],[78.1078,23.1216],[78.1167,23.1417],[78.1366,23.1368],[78.162,23.1021],[78.1712,23.0517],[78.2129,23.0184],[78.2125,23.0],[78.1882,22.9869],[78.0968,23.0297],[78.075,23.0125],[78.1316,22.983],[78.1754,22.9184],[78.2083,22.9],[78.2083,22.8833],[78.1917,22.8417],[78.1197,22.812],[78.1083,22.8208],[78.1042,22.7875],[78.0589,22.7699],[78.05,22.6687],[78.0708,22.625],[78.0103,22.6119],[78.0131,22.5804],[77.9907,22.559],[77.9316,22.5754],[77.7936,22.5203],[77.725,22.4521],[77.7241,22.4131],[77.5917,22.3792],[77.6042,22.3542],[77.5869,22.326],[77.6006,22.3155],[77.5911,22.3009],[77.6036,22.2467],[77.5858,22.2045],[77.4842,22.1952],[77.4733,22.1712],[77.427,22.1756],[77.4009,22.2003],[77.3909,22.2452],[77.3333,22.2583],[77.3083,22.2208],[77.3254,22.1767],[77.3246,22.0343],[77.2689,21.9881],[77.1926,21.9576],[77.1867,21.9247],[77.1208,21.9],[77.1294,21.8845],[77.0674,21.8743],[77.0659,21.8508],[77.0243,21.8589],[76.9708,21.8458],[76.9453,21.8155],[76.9583,21.7875],[76.9167,21.7667],[76.8941,21.7295],[76.8601,21.7246],[76.84,21.692],[76.7583,21.6833],[76.7092,21.6283],[76.7,21.5875],[76.6708,21.5667],[76.6441,21.5754],[76.5841,21.5494],[76.5604,21.562],[76.5062,21.5546],[76.4564,21.5828],[76.3667,21.5917],[76.3783,21.6742],[76.3356,21.6911],[76.3101,21.6913],[76.2309,21.6455],[76.2042,21.6],[76.1525,21.6045],[76.0958,21.5875],[76.0964,21.6613],[76.0775,21.6754],[76.0358,21.6621],[76.0108,21.6788],[75.9917,21.6667],[75.972,21.6753],[75.9439,21.6506],[75.8601,21.6413],[75.8417,21.6167],[75.7728,21.6422],[75.7063,21.7125],[75.6483,21.6996],[75.5824,21.7214],[75.4824,21.6756],[75.4167,21.6833],[75.4042,21.75],[75.4246,21.8184],[75.4254,21.8975],[75.4074,21.9368],[75.3958,21.9333],[75.3952,21.8343],[75.359,21.8074],[75.3494,21.7478],[75.3208,21.7208],[75.3076,21.8074],[75.2233,21.858],[75.1853,21.8661],[75.0708,21.8042],[75.062,21.8604],[74.9792,21.9208],[74.9341,21.9117],[74.923,21.8839],[74.8542,21.8458],[74.8125,21.9208],[74.8328,21.9436],[74.8271,21.9583],[74.7809,21.9496],[74.7408,21.9011],[74.7245,21.909],[74.6745,21.8869],[74.625,21.9292],[74.5645,21.9339],[74.5042,21.9917],[74.4378,22.0281],[74.4131,22.0022],[74.3996,21.9637],[74.412,21.9521],[74.3958,21.9333],[74.3012,21.9422],[74.2826,21.9295],[74.1991,21.921],[74.1267,21.9449],[73.9275,21.855],[73.8715,21.8378],[73.819,21.8368],[73.8079,21.8132],[73.8301,21.8129],[73.7944,21.8107],[73.7953,21.8189],[73.7464,21.7866],[73.7458,21.7667],[73.7167,21.7667],[73.6564,21.7256],[73.5858,21.7045],[73.5397,21.7594],[73.5575,21.7785],[73.5244,21.7647],[73.5266,21.7472],[73.5075,21.7497],[73.5189,21.724],[73.5123,21.7202],[73.5028,21.747],[73.5093,21.7535],[73.524,21.7549],[73.504,21.7735],[73.525,21.7917],[73.4559,21.7705],[73.4208,21.75],[73.437,21.6729],[73.4256,21.6561],[73.4542,21.6125],[73.4215,21.5783],[73.4283,21.5134],[73.3784,21.5381],[73.2618,21.5381],[73.152,21.4881],[73.1333,21.5],[73.1333,21.5417],[73.075,21.55],[73.0542,21.525],[72.9355,21.4714],[72.8995,21.4744],[72.8701,21.509],[72.8292,21.4875],[72.798,21.5078],[72.7353,21.5119],[72.6799,21.4783],[72.6833,21.4458],[72.6427,21.4327],[72.6715,21.524],[72.7,21.5292],[72.6787,21.5381],[72.6227,21.491],[72.5952,21.5546],[72.6258,21.6201],[72.6855,21.6381],[72.7142,21.6663],[72.785,21.6455],[72.8108,21.6545],[72.8292,21.6708],[72.7941,21.658],[72.7368,21.6881],[72.5342,21.6634],[72.5161,21.7134],[72.5411,21.7436],[72.5632,21.8241],[72.5783,21.83],[72.5866,21.8384]],[[72.3785,22.2199],[72.375,22.2208],[72.3792,22.2125],[72.3785,22.2199]],[[72.3738,22.2254],[72.3703,22.222],[72.375,22.2208],[72.3738,22.2254]],[[72.7095,21.6496],[72.7131,21.653],[72.7083,21.6542],[72.7095,21.6496]],[[72.374,22.2618],[72.375,22.2417],[72.3785,22.2426],[72.374,22.2618]],[[72.3704,22.2405],[72.3738,22.2369],[72.375,22.2417],[72.3704,22.2405]],[[72.3667,22.2625],[72.3587,22.2658],[72.3592,22.2632],[72.3667,22.2625]],[[73.7882,21.8342],[73.8443,21.8596],[73.8711,21.8443],[73.8704,21.8589],[74.0705,21.9355],[74.058,21.9691],[74.0458,21.9833],[73.9476,21.958],[73.9115,21.9132],[73.7843,21.8575],[73.7882,21.8342]],[[74.1857,21.938],[74.2008,21.9286],[74.2849,21.9422],[74.2292,21.975],[74.1857,21.938]],[[72.3833,22.3833],[72.3667,22.375],[72.4125,22.3542],[72.4125,22.3583],[72.3833,22.3833]],[[77.8125,22.6],[77.7907,22.7076],[77.7309,22.7163],[77.6733,22.7038],[77.6149,22.7746],[77.6125,22.7292],[77.5625,22.7188],[77.5967,22.684],[77.6542,22.6583],[77.698,22.6661],[77.7772,22.6328],[77.8125,22.6]],[[72.3704,22.2308],[72.3746,22.2312],[72.3735,22.2336],[72.3704,22.2308]],[[72.3009,22.1884],[72.3033,22.1908],[72.3,22.1917],[72.3009,22.1884]],[[72.3134,22.1658],[72.3158,22.1634],[72.3167,22.1667],[72.3134,22.1658]],[[72.4829,22.2391],[72.4871,22.2396],[72.486,22.2419],[72.4829,22.2391]],[[72.8384,21.6741],[72.8408,21.6717],[72.8417,21.675],[72.8384,21.6741]]],[[[90.45,25.8958],[90.4135,25.8952],[90.4032,25.8706],[90.3507,25.8616],[90.3171,25.7937],[90.3462,25.7475],[90.3342,25.7257],[90.3662,25.7021],[90.3453,25.6716],[90.3708,25.575],[90.327,25.5672],[90.291,25.6074],[90.247,25.6214],[90.2208,25.6208],[90.2163,25.5934],[90.1958,25.5833],[90.2006,25.5385],[90.2625,25.4958],[90.2407,25.4635],[90.2132,25.4534],[90.2254,25.3975],[90.2167,25.3417],[90.2729,25.325],[90.3,25.3333],[90.3667,25.3042],[90.4483,25.3087],[90.4824,25.3173],[90.4964,25.3407],[90.4917,25.3777],[90.5083,25.3917],[90.5966,25.2799],[90.6339,25.255],[90.63,25.2217],[90.6512,25.2339],[90.6958,25.2167],[90.7367,25.2258],[90.7542,25.3125],[90.8417,25.2875],[90.8909,25.3006],[90.9125,25.2792],[90.9637,25.3047],[90.9917,25.2625],[91.0355,25.2828],[91.077,25.2506],[91.1108,25.2788],[91.1875,25.2292],[91.2125,25.25],[91.3105,25.2506],[91.3617,25.28],[91.3875,25.3375],[91.3964,25.2978],[91.4256,25.2759],[91.4119,25.2488],[91.4228,25.2339],[91.4538,25.2548],[91.4896,25.2464],[91.5708,25.275],[91.6134,25.2298],[91.6542,25.2167],[91.7158,25.2592],[91.7167,25.2833],[91.7476,25.2504],[91.7812,25.2542],[91.8208,25.2333],[91.8575,25.2509],[91.9042,25.3083],[91.9841,25.2953],[92.0083,25.3083],[92.0176,25.284],[92.0905,25.2961],[92.1494,25.2452],[92.1878,25.2492],[92.1842,25.2294],[92.2042,25.2167],[92.1875,25.15],[92.2051,25.1257],[92.3292,25.1208],[92.3619,25.1467],[92.3631,25.1741],[92.4188,25.1667],[92.445,25.1533],[92.4424,25.1259],[92.4811,25.1089],[92.5333,25.0958],[92.5827,25.1033],[92.5923,25.0463],[92.5418,25.0238],[92.5326,24.98],[92.4875,24.9333],[92.5375,24.9375],[92.5201,24.8882],[92.4958,24.8875],[92.4994,24.8551],[92.4831,24.8489],[92.4708,24.7932],[92.5172,24.7696],[92.5078,24.7468],[92.525,24.7375],[92.4917,24.6667],[92.4676,24.6706],[92.4542,24.6983],[92.4651,24.7257],[92.4333,24.7014],[92.4215,24.7075],[92.4083,24.6833],[92.2816,24.7087],[92.2288,24.6142],[92.2059,24.6121],[92.1841,24.5867],[92.17,24.5378],[92.1436,24.5328],[92.1199,24.4881],[92.1042,24.4875],[92.0786,24.3811],[92.0616,24.3715],[92.05,24.3708],[92.0493,24.4034],[92.0052,24.4133],[91.9961,24.4492],[91.9424,24.4716],[91.9333,24.5208],[91.8436,24.5203],[91.8379,24.5059],[91.8575,24.4842],[91.8189,24.4464],[91.7917,24.4417],[91.7875,24.3833],[91.7063,24.3875],[91.6838,24.375],[91.6668,24.4082],[91.635,24.4164],[91.6744,24.3259],[91.6125,24.2875],[91.5566,24.2962],[91.5,24.2396],[91.5159,24.1632],[91.4542,24.1292],[91.4691,24.0879],[91.4042,24.0625],[91.3408,24.1119],[91.2937,24.1245],[91.2583,24.0833],[91.1733,24.0629],[91.1125,24.0667],[91.0833,24.0083],[91.025,24.0083],[90.9994,23.9593],[90.8924,23.9158],[90.9042,23.8833],[90.8509,23.8741],[90.8684,23.8379],[90.9042,23.8375],[90.8833,23.8],[90.8042,23.8],[90.7897,23.7589],[90.7417,23.7208],[90.7167,23.7292],[90.716,23.6342],[90.6664,23.5822],[90.6745,23.5646],[90.6532,23.534],[90.6049,23.5425],[90.6034,23.566],[90.5587,23.549],[90.5417,23.5083],[90.5785,23.4951],[90.5833,23.4292],[90.5458,23.3917],[90.4708,23.4208],[90.4587,23.3809],[90.4837,23.36],[90.4708,23.3042],[90.4125,23.3083],[90.3535,23.2134],[90.3301,23.2077],[90.3208,23.1583],[90.2182,23.1458],[90.1967,23.1241],[90.1884,23.0925],[90.2292,23.0625],[90.2295,22.9767],[90.2042,22.9125],[90.2208,22.9],[90.1917,22.8917],[90.1952,22.7801],[90.1542,22.7375],[90.1699,22.684],[90.1342,22.6785],[90.105,22.6241],[90.1333,22.5875],[90.1284,22.5509],[90.0716,22.499],[90.057,22.4541],[90.0341,22.4617],[89.9952,22.4171],[90.0199,22.3961],[90.0115,22.3757],[89.9425,22.3617],[89.9081,22.2968],[89.9298,22.2903],[89.9119,22.2653],[89.9216,22.2507],[89.975,22.2542],[89.9578,22.1799],[89.9787,22.1062],[89.9369,22.0549],[89.9589,22.0093],[89.9453,21.9927],[89.9672,21.9632],[89.9625,21.9417],[89.9342,21.9545],[89.9154,22.0208],[89.8925,22.0128],[89.8971,22.0374],[89.9132,22.0336],[89.8952,22.061],[89.909,22.1462],[89.8744,22.2396],[89.8621,22.2327],[89.8494,22.2549],[89.8994,22.3395],[89.8994,22.3781],[89.9739,22.4378],[89.9869,22.4687],[89.9882,22.495],[90.0125,22.4958],[89.9845,22.5006],[89.9788,22.4559],[89.9566,22.4295],[89.8975,22.3871],[89.8792,22.3958],[89.8913,22.3601],[89.8371,22.2475],[89.8379,22.2267],[89.8962,22.16],[89.8792,22.0917],[89.8483,22.0629],[89.8191,22.0621],[89.7895,22.0853],[89.7558,22.1344],[89.8068,22.0813],[89.8373,22.1124],[89.8242,22.1448],[89.8375,22.1644],[89.8117,22.2137],[89.8067,22.2674],[89.7767,22.2705],[89.7492,22.2174],[89.701,22.2034],[89.6792,22.1708],[89.6636,22.1664],[89.6494,22.2105],[89.6257,22.216],[89.6258,22.1594],[89.6535,22.1271],[89.6575,22.0925],[89.6419,22.0908],[89.6294,22.0577],[89.6133,22.0669],[89.582,21.9957],[89.55,21.975],[89.6004,22.1309],[89.55,22.2083],[89.5871,22.2267],[89.5913,22.2767],[89.633,22.3351],[89.6246,22.3983],[89.5833,22.5083],[89.5881,22.4437],[89.6161,22.398],[89.6244,22.3353],[89.5839,22.2772],[89.5867,22.2382],[89.5553,22.2328],[89.5275,22.2504],[89.5146,22.2125],[89.4756,22.2176],[89.4912,22.2646],[89.4744,22.3022],[89.4339,22.352],[89.4464,22.4052],[89.4286,22.4855],[89.4083,22.5208],[89.4412,22.3854],[89.4257,22.3468],[89.4797,22.2759],[89.4589,22.202],[89.5214,22.0718],[89.4968,22.0286],[89.4744,22.036],[89.5131,21.9591],[89.501,21.9036],[89.4792,21.9083],[89.5006,21.9551],[89.4762,21.971],[89.4578,22.0343],[89.4784,22.0634],[89.4744,22.0855],[89.4397,22.1119],[89.3983,22.117],[89.3728,22.0965],[89.3493,22.1321],[89.331,22.1244],[89.3419,22.1699],[89.3108,22.2121],[89.3167,22.1896],[89.2712,22.1441],[89.2663,22.11],[89.2167,22.0958],[89.2455,22.0517],[89.202,22.0006],[89.1705,22.0248],[89.1661,22.0413],[89.1872,22.068],[89.1387,22.1016],[89.1302,22.125],[89.1466,22.1246],[89.1493,22.1306],[89.1344,22.1545],[89.1222,22.1594],[89.1473,22.1294],[89.1226,22.1254],[89.1325,22.1038],[89.1489,22.0867],[89.117,22.1184],[89.1167,22.1375],[89.0744,22.1133],[89.0882,22.0675],[89.1173,22.0508],[89.1166,22.018],[89.0875,22.0167],[89.0464,22.0895],[89.0667,22.125],[89.0217,22.163],[89.0199,22.2032],[88.9674,22.2093],[88.9619,22.2397],[88.95,22.25],[88.9672,22.1728],[88.9875,22.1542],[88.9869,22.1186],[88.9701,22.0759],[88.9244,22.0593],[88.9368,21.9884],[88.9131,21.9853],[88.9071,22.0339],[88.8947,22.0081],[88.8618,22.0256],[88.7941,22.0295],[88.7667,22.0167],[88.7458,22.0667],[88.7204,22.0535],[88.6884,22.0797],[88.6978,22.0547],[88.7378,22.0446],[88.7411,22.0136],[88.7167,22.0042],[88.68,21.9411],[88.63,21.9507],[88.6298,21.9897],[88.6629,22.0299],[88.631,22.1198],[88.6822,22.2011],[88.6755,22.2064],[88.6208,22.1125],[88.6381,22.0593],[88.5994,21.9757],[88.6161,21.9311],[88.5756,21.8783],[88.5575,21.8174],[88.5125,21.839],[88.5172,21.8551],[88.4923,21.876],[88.5167,21.9125],[88.5074,21.9452],[88.4929,21.9464],[88.4742,21.905],[88.4509,21.8914],[88.4426,21.8577],[88.4381,21.9045],[88.4052,21.9377],[88.4115,21.9907],[88.3581,21.9655],[88.3868,21.9449],[88.3744,21.9076],[88.3958,21.875],[88.3716,21.8744],[88.326,21.8284],[88.3208,21.8042],[88.2717,21.8034],[88.2792,21.775],[88.2958,21.7708],[88.2801,21.7702],[88.2754,21.7309],[88.3125,21.6625],[88.2911,21.6032],[88.3089,21.5782],[88.2688,21.5547],[88.2388,21.5711],[88.2324,21.6076],[88.2139,21.6168],[88.2118,21.5994],[88.1922,21.6311],[88.1786,21.6923],[88.1967,21.7367],[88.2071,21.7244],[88.2172,21.7757],[88.1672,21.8645],[88.1708,21.9167],[88.1494,21.9593],[88.2119,22.0353],[88.2203,22.1022],[88.1866,22.1866],[88.0675,22.209],[88.1036,22.2937],[88.0884,22.2994],[88.0741,22.2424],[88.0335,22.2127],[88.0784,22.1869],[88.1366,22.1868],[88.1953,22.1061],[88.1647,22.0672],[88.0537,22.0068],[87.9826,21.8551],[87.9324,21.8007],[87.8958,21.7875],[87.7892,21.6913],[87.7467,21.7033],[87.7533,21.6842],[87.7147,21.6631],[87.4625,21.6042],[87.4059,21.5538],[87.3542,21.5708],[87.3905,21.5453],[87.2311,21.5494],[87.1167,21.5125],[87.066,21.4592],[86.9966,21.42],[86.8958,21.3167],[86.8244,21.1905],[86.8244,21.1424],[86.9621,20.8649],[86.9633,20.7863],[86.9737,20.7746],[86.9919,20.7824],[87.0039,20.7217],[87.0215,20.7231],[86.9985,20.704],[87.0464,20.711],[86.7583,20.5042],[86.7333,20.4083],[86.7923,20.3806],[86.7883,20.434],[86.7966,20.3785],[86.8008,20.4252],[86.816,20.3979],[86.782,20.3417],[86.7354,20.3048],[86.6958,20.2958],[86.6502,20.3257],[86.645,20.2799],[86.6021,20.2755],[86.5728,20.291],[86.5333,20.2583],[86.5233,20.283],[86.4899,20.2955],[86.3729,20.2958],[86.2625,20.3208],[86.1593,20.3215],[86.1476,20.3087],[86.1149,20.3288],[86.0792,20.3167],[86.0667,20.3375],[86.0033,20.3465],[85.962,20.3077],[85.9345,20.3124],[85.8358,20.408],[85.7833,20.4125],[85.7708,20.3958],[85.7174,20.4034],[85.7022,20.3798],[85.655,20.3866],[85.6253,20.3157],[85.6326,20.2884],[85.5549,20.2703],[85.5375,20.2875],[85.4917,20.2792],[85.5208,20.2292],[85.4983,20.2337],[85.4646,20.2083],[85.4191,20.2455],[85.3801,20.2548],[85.3784,20.2382],[85.3441,20.2295],[85.2684,20.2288],[85.2667,20.2125],[85.2396,20.2006],[85.2174,20.2049],[85.2081,20.2257],[85.1572,20.1996],[85.1257,20.2135],[85.0996,20.249],[85.0384,20.2672],[85.0125,20.2375],[84.9383,20.2248],[84.9367,20.2451],[84.9078,20.2368],[84.8833,20.2625],[84.8292,20.2167],[84.79,20.2205],[84.7775,20.2455],[84.7101,20.2496],[84.6667,20.2083],[84.6506,20.226],[84.6494,20.2658],[84.6048,20.2926],[84.6032,20.3202],[84.5588,20.3271],[84.5756,20.3571],[84.5494,20.3924],[84.5792,20.4312],[84.5708,20.45],[84.4867,20.5201],[84.4549,20.5073],[84.459,20.4662],[84.4441,20.4545],[84.4292,20.4542],[84.4201,20.4867],[84.3379,20.4887],[84.3208,20.5208],[84.2883,20.5257],[84.2708,20.5473],[84.3006,20.5778],[84.2355,20.6327],[84.174,20.6381],[84.1411,20.603],[84.1458,20.5792],[84.1011,20.592],[84.062,20.6548],[84.0333,20.6375],[83.9333,20.65],[83.9285,20.6175],[83.8917,20.5792],[83.8096,20.6208],[83.7914,20.6533],[83.8073,20.6549],[83.8081,20.6908],[83.8333,20.7125],[83.7949,20.7702],[83.7542,20.7738],[83.7283,20.7247],[83.7125,20.7292],[83.7121,20.8191],[83.6875,20.8708],[83.6312,20.8672],[83.5882,20.8925],[83.6215,20.9741],[83.6866,21.0092],[83.65,21.1292],[83.6784,21.2201],[83.5313,21.2869],[83.4842,21.2925],[83.4301,21.3464],[83.442,21.3809],[83.425,21.425],[83.3542,21.45],[83.3417,21.4708],[83.301,21.4619],[83.2741,21.516],[83.2125,21.5125],[83.2125,21.4917],[83.1976,21.492],[83.1566,21.5246],[83.1017,21.533],[83.0625,21.4875],[83.0174,21.4909],[83.0029,21.4625],[82.9875,21.4708],[82.9705,21.4309],[82.9333,21.4],[82.8839,21.4478],[82.8867,21.4743],[82.8467,21.4675],[82.7958,21.5125],[82.7583,21.4917],[82.7118,21.5036],[82.6491,21.57],[82.5841,21.5758],[82.5397,21.6286],[82.427,21.5964],[82.3958,21.6458],[82.3604,21.6662],[82.3326,21.6328],[82.3,21.6458],[82.2809,21.6371],[82.2667,21.5792],[82.2274,21.5504],[82.2042,21.5687],[82.2083,21.6063],[82.1949,21.6243],[82.0708,21.625],[82.0199,21.5632],[81.9339,21.5074],[81.9327,21.4509],[81.9125,21.4375],[81.825,21.4667],[81.7833,21.5667],[81.7022,21.5381],[81.6667,21.5667],[81.6583,21.5542],[81.5625,21.5458],[81.5631,21.5905],[81.5125,21.625],[81.5411,21.6311],[81.5375,21.7396],[81.4676,21.7962],[81.4417,21.85],[81.4811,21.8828],[81.5427,21.8744],[81.5667,21.8958],[81.5494,21.9564],[81.484,22.0217],[81.4792,22.1583],[81.5274,22.1663],[81.648,22.1006],[81.6756,22.1507],[81.65,22.225],[81.6684,22.2045],[81.7078,22.2032],[81.7323,22.1744],[81.7908,22.1785],[81.8184,22.158],[81.8333,22.1875],[81.8792,22.1542],[81.9417,22.2292],[82.0191,22.1379],[82.0458,22.15],[82.017,22.2899],[82.0608,22.2996],[82.0958,22.2125],[82.125,22.2208],[82.142,22.1934],[82.1601,22.1254],[82.3032,22.1327],[82.3333,22.1042],[82.3899,22.108],[82.45,22.0792],[82.5083,22.1042],[82.5366,22.0994],[82.53,22.0842],[82.5795,22.0619],[82.665,22.0754],[82.6833,22.1],[82.7333,22.0208],[82.7996,22.0615],[82.8048,22.0176],[82.8292,21.9917],[82.8691,21.9913],[82.927,21.9506],[82.9784,21.9672],[83.023,21.9506],[83.0833,21.9792],[83.0962,21.9059],[83.1458,21.8833],[83.1802,21.9047],[83.2313,21.8796],[83.2699,21.8881],[83.2839,21.9034],[83.2744,21.9407],[83.2882,21.9866],[83.3396,21.9786],[83.3968,21.9134],[83.473,21.9119],[83.5196,21.8203],[83.625,21.8625],[83.6506,21.8488],[83.6328,21.7968],[83.6457,21.7475],[83.6517,21.7716],[83.666,21.7674],[83.6661,21.745],[83.6908,21.7446],[83.69,21.7303],[83.7107,21.7409],[83.7038,21.7229],[83.7278,21.7108],[83.7405,21.7269],[83.7503,21.7086],[83.7713,21.7111],[83.7922,21.7324],[83.7588,21.7979],[83.775,21.825],[83.8375,21.7333],[83.8688,21.75],[83.8837,21.7309],[83.9097,21.6583],[83.8984,21.6463],[83.9071,21.6312],[83.8788,21.6309],[83.8883,21.6055],[83.8931,21.6175],[83.8999,21.5995],[83.9183,21.6094],[83.9289,21.5987],[83.9372,21.6203],[83.9467,21.5945],[83.9614,21.595],[83.9437,21.6383],[83.9694,21.6185],[83.9539,21.6683],[83.9659,21.6771],[83.9445,21.6911],[83.9694,21.7011],[83.9625,21.7262],[83.9944,21.7072],[84.0141,21.7152],[84.0281,21.6891],[83.975,21.7042],[83.9897,21.6291],[84.0351,21.6165],[83.996,21.6025],[84.0011,21.5825],[83.977,21.5631],[83.9191,21.5496],[83.991,21.5549],[84.0177,21.5909],[84.0409,21.5924],[84.0425,21.6132],[84.1149,21.6045],[84.1493,21.6258],[84.1632,21.6698],[84.1865,21.6744],[84.2203,21.6272],[84.2125,21.5812],[84.2417,21.5688],[84.2421,21.4979],[84.2708,21.4542],[84.27,21.441],[84.2419,21.4548],[84.1883,21.445],[84.1833,21.4292],[84.2054,21.3578],[84.2319,21.3625],[84.245,21.3411],[84.2672,21.3488],[84.2583,21.3265],[84.2708,21.3],[84.2292,21.2792],[84.234,21.2592],[84.2875,21.2417],[84.3242,21.2617],[84.3562,21.2256],[84.3825,21.2241],[84.4792,21.0875],[84.5158,21.0868],[84.5909,21.0451],[84.6062,21.0215],[84.637,21.0215],[84.7522,20.9619],[84.7625,20.9333],[84.8187,20.9208],[84.8875,20.9375],[84.9176,20.9035],[84.9618,20.9172],[85.0076,20.9078],[85.0983,20.9337],[85.1625,20.9333],[85.1637,20.954],[85.2009,20.9827],[85.2583,20.9833],[85.2833,20.9583],[85.3468,20.9994],[85.3917,21.0042],[85.5208,20.925],[85.5125,20.9896],[85.5337,21.0191],[85.5616,21.0077],[85.5625,20.975],[85.5743,20.9802],[85.6017,21.0163],[85.6583,21.0348],[85.6583,21.0958],[85.7079,21.0615],[85.7173,21.0259],[85.7354,21.0171],[85.8983,21.0587],[85.9375,21.0542],[86.025,21.1542],[85.9333,21.25],[85.9875,21.2667],[86.0575,21.3258],[86.083,21.3601],[86.0879,21.3983],[86.1288,21.4309],[86.125,21.4625],[86.1833,21.4333],[86.158,21.385],[86.1684,21.3545],[86.2233,21.367],[86.2538,21.3499],[86.2825,21.3675],[86.275,21.4583],[86.3375,21.4917],[86.3703,21.5561],[86.3672,21.5924],[86.3375,21.6333],[86.3625,21.6417],[86.3542,21.6958],[86.3786,21.7228],[86.375,21.7562],[86.3924,21.7991],[86.4324,21.8129],[86.434,21.8408],[86.4538,21.8475],[86.4424,21.9076],[86.491,21.9425],[86.4869,21.9855],[86.45,22.0333],[86.4631,22.0855],[86.5542,22.1333],[86.525,22.175],[86.4771,22.1625],[86.4208,22.1792],[86.4075,22.22],[86.3756,22.2395],[86.3881,22.2716],[86.3783,22.291],[86.3208,22.3042],[86.3339,22.3738],[86.2881,22.4437],[86.2833,22.5083],[86.3275,22.5087],[86.3595,22.5503],[86.4042,22.5417],[86.4366,22.5675],[86.4839,22.6409],[86.4853,22.6953],[86.548,22.6881],[86.5625,22.6973],[86.5583,22.7167],[86.6417,22.7292],[86.702,22.7744],[86.7311,22.7506],[86.7572,22.7503],[86.7708,22.725],[86.8146,22.7005],[86.8655,22.7086],[86.877,22.6922],[86.941,22.6741],[86.9703,22.6355],[86.9583,22.6125],[86.9907,22.6077],[87.0259,22.6951],[87.0792,22.7167],[87.0833,22.7583],[87.1708,22.775],[87.2468,22.7661],[87.259,22.7866],[87.3705,22.8267],[87.3705,22.8684],[87.3994,22.9134],[87.3911,22.9613],[87.4047,23.0049],[87.3795,23.0441],[87.4667,23.075],[87.5044,23.1178],[87.5208,23.1708],[87.5925,23.1009],[87.6667,23.0708],[87.6839,23.101],[87.6417,23.175],[87.6934,23.1955],[87.7191,23.1913],[87.7351,23.1629],[87.7491,23.1742],[87.7833,23.1375],[87.8907,23.1506],[87.8958,23.1958],[87.9208,23.225],[87.9092,23.245],[87.9618,23.2369],[87.9824,23.2589],[88.0533,23.2548],[88.1125,23.2708],[88.0941,23.2996],[88.0566,23.2955],[88.0083,23.3083],[88.009,23.3201],[88.0867,23.3427],[88.1076,23.3676],[88.1167,23.4292],[88.1363,23.4244],[88.2,23.4708],[88.2375,23.4708],[88.2458,23.5375],[88.2797,23.5655],[88.2622,23.5864],[88.2756,23.6466],[88.2625,23.6604],[88.2708,23.7083],[88.3006,23.7284],[88.2829,23.7738],[88.3,23.7973],[88.2966,23.845],[88.3625,23.875],[88.3841,23.9323],[88.4076,23.9425],[88.4246,23.9767],[88.4036,24.0216],[88.4125,24.0708],[88.388,24.0813],[88.412,24.1188],[88.3591,24.1591],[88.3535,24.1897],[88.305,24.2384],[88.2994,24.2674],[88.3244,24.3147],[88.2533,24.4201],[88.1979,24.4213],[88.0967,24.4632],[88.0631,24.5061],[88.0542,24.5792],[88.0115,24.6285],[87.9758,24.6341],[87.9333,24.6958],[87.9125,24.8083],[87.9333,24.8182],[87.925,24.8542],[87.9083,24.8083],[87.7775,24.7788],[87.7142,24.8045],[87.6812,24.8619],[87.6383,24.8409],[87.625,24.8125],[87.6375,24.7958],[87.5625,24.7292],[87.55,24.6917],[87.5092,24.6826],[87.4542,24.625],[87.4179,24.6589],[87.3892,24.6462],[87.34,24.6712],[87.2583,24.6458],[87.2321,24.5661],[87.1564,24.6203],[87.0591,24.62],[87.0576,24.5924],[87.0083,24.5833],[86.9792,24.5417],[86.9275,24.5462],[86.8858,24.5288],[86.8578,24.5981],[86.825,24.6],[86.8285,24.62],[86.8078,24.6161],[86.7958,24.6333],[86.7559,24.6212],[86.6375,24.6583],[86.6061,24.6536],[86.5358,24.6004],[86.4708,24.6042],[86.4583,24.5792],[86.3667,24.5542],[86.3411,24.6132],[86.3464,24.6363],[86.3292,24.65],[86.2958,24.65],[86.295,24.6174],[86.2755,24.6119],[86.1767,24.6212],[86.117,24.6725],[86.09,24.7371],[85.991,24.759],[85.9384,24.7384],[85.8522,24.8077],[85.8135,24.7992],[85.7865,24.7215],[85.7326,24.7256],[85.7017,24.7163],[85.6858,24.692],[85.65,24.6875],[85.6547,24.7177],[85.6121,24.8024],[85.5816,24.8371],[85.5583,24.8375],[85.5672,24.7907],[85.5297,24.7147],[85.5208,24.65],[85.4525,24.7004],[85.4333,24.6875],[85.4369,24.6053],[85.4176,24.5952],[85.4196,24.5786],[85.376,24.5798],[85.3881,24.6449],[85.3792,24.7125],[85.325,24.7042],[85.3256,24.6632],[85.2994,24.6216],[85.3161,24.577],[85.3008,24.559],[85.2623,24.6321],[85.2756,24.6505],[85.2615,24.6826],[85.2375,24.6917],[85.2202,24.6092],[85.2,24.5875],[85.2256,24.5466],[85.2284,24.48],[85.1353,24.4578],[85.1157,24.4339],[85.0875,24.4333],[85.0828,24.473],[85.0259,24.5089],[84.9699,24.5827],[84.9351,24.5788],[84.8967,24.5491],[84.875,24.5042],[84.8542,24.5],[84.85,24.6125],[84.8206,24.6074],[84.8246,24.5975],[84.8167,24.5917],[84.8167,24.6083],[84.802,24.6078],[84.7605,24.5672],[84.6625,24.5792],[84.6756,24.6112],[84.6589,24.659],[84.6342,24.6674],[84.6375,24.6875],[84.5983,24.6996],[84.5726,24.6996],[84.5292,24.6458],[84.5167,24.5458],[84.4066,24.492],[84.3511,24.5044],[84.3342,24.5216],[84.3284,24.5782],[84.2812,24.6292],[84.2625,24.6208],[84.262,24.5229],[84.2287,24.491],[84.2132,24.4966],[84.2078,24.526],[84.2464,24.5799],[84.2203,24.6382],[84.2292,24.6833],[84.2033,24.7244],[84.1601,24.7288],[84.0958,24.6875],[84.0824,24.7202],[83.9968,24.7544],[83.9642,24.7379],[83.9625,24.7542],[83.9146,24.7708],[83.8816,24.808],[83.8375,24.8125],[83.8409,24.8285],[83.7437,24.8208],[83.6875,24.8875],[83.665,24.883],[83.6134,24.909],[83.5617,24.9575],[83.4952,24.9153],[83.4994,24.8978],[83.4708,24.8583],[83.4618,24.8825],[83.425,24.9042],[83.4375,24.9223],[83.4119,24.9569],[83.4292,24.975],[83.3733,24.992],[83.3483,24.9788],[83.3355,25.0119],[83.2676,25.0132],[83.2536,25.0238],[83.2708,25.0292],[83.2705,25.0608],[83.2375,25.0958],[83.2131,25.0699],[83.2204,25.0312],[83.1911,24.9948],[83.2083,24.9708],[83.1551,24.9827],[83.1538,24.9559],[83.1333,24.95],[83.0758,24.9631],[83.0292,25.0083],[82.9967,24.9965],[82.9869,25.0439],[82.9589,25.0728],[82.9616,25.1035],[82.9256,25.1176],[82.9292,25.15],[82.875,25.1417],[82.8792,25.075],[82.8387,25.0714],[82.8199,25.0382],[82.7875,25.0208],[82.7508,25.0467],[82.7589,25.0716],[82.7453,25.1091],[82.7589,25.1299],[82.7345,25.1381],[82.7241,25.109],[82.6467,25.0827],[82.6339,25.0397],[82.6296,24.9979],[82.6792,24.9167],[82.6561,24.9089],[82.5792,24.9292],[82.4333,24.8],[82.4161,24.8283],[82.3758,24.8424],[82.3617,24.9076],[82.29,24.9129],[82.2542,24.8792],[82.225,24.9208],[82.1618,24.9297],[82.0845,24.9161],[82.075,24.9583],[82.0483,24.9746],[81.874,24.9661],[81.8509,24.9884],[81.8536,25.023],[81.8259,25.0384],[81.8083,25.0792],[81.7167,25.1],[81.6875,25.1792],[81.65,25.2125],[81.6095,25.2254],[81.6032,25.2131],[81.5618,25.2119],[81.5379,25.2434],[81.5375,25.2729],[81.5108,25.2913],[81.4625,25.2917],[81.45,25.2625],[81.3976,25.2754],[81.4045,25.3142],[81.3816,25.3413],[81.3049,25.3242],[81.2833,25.2708],[81.25,25.3458],[81.1604,25.3375],[81.1587,25.2941],[81.1125,25.25],[81.1297,25.3716],[81.1074,25.3952],[81.0353,25.3869],[80.9634,25.3325],[80.9325,25.2592],[80.9142,25.2545],[80.891,25.3006],[80.9091,25.3419],[80.9324,25.346],[80.9757,25.3961],[80.9621,25.4566],[80.9458,25.4583],[80.925,25.5042],[80.7967,25.4618],[80.7907,25.4339],[80.7337,25.4031],[80.7159,25.3759],[80.6708,25.3708],[80.6922,25.4049],[80.6833,25.5333],[80.7,25.5417],[80.7048,25.6115],[80.7292,25.6417],[80.7125,25.6833],[80.6784,25.6703],[80.6186,25.6797],[80.5875,25.7042],[80.5253,25.7048],[80.4998,25.6785],[80.4521,25.7042],[80.4167,25.6875],[80.4046,25.7104],[80.4241,25.7577],[80.3896,25.7463],[80.3451,25.7589],[80.2833,25.7292],[80.2826,25.7493],[80.2625,25.7458],[80.2618,25.7658],[80.225,25.8],[80.1792,25.75],[80.1593,25.741],[80.1495,25.759],[80.126,25.7535],[80.1,25.7125],[80.0806,25.7077],[80.0646,25.7244],[80.0242,25.7202],[79.9924,25.7383],[79.9917,25.7542],[79.9733,25.7496],[79.9354,25.775],[79.9208,25.7583],[79.9042,25.7875],[79.8066,25.7587],[79.7051,25.7741],[79.6617,25.7299],[79.5618,25.6869],[79.5108,25.7496],[79.4801,25.741],[79.4463,25.6813],[79.4537,25.6229],[79.4333,25.6042],[79.4121,25.6975],[79.433,25.7608],[79.4025,25.8004],[79.3439,25.7631],[79.2627,25.7446],[79.2535,25.7093],[79.2042,25.6833],[79.217,25.7566],[79.2788,25.7934],[79.2917,25.8542],[79.2,25.8667],[79.15,25.8542],[79.0958,25.8875],[79.1343,25.9452],[79.173,25.9547],[79.2417,26.025],[79.2208,26.0458],[79.2169,26.078],[79.1259,26.13],[79.1455,26.1517],[79.1458,26.1875],[79.1132,26.2384],[79.1172,26.2716],[79.0917,26.2917],[79.0865,26.2758],[78.9855,26.2173],[78.9009,26.2509],[78.9,26.2625],[78.9409,26.2716],[78.9958,26.3167],[79.0203,26.352],[79.0167,26.3875],[78.9451,26.4006],[78.8895,26.3714],[78.8619,26.4091],[78.8866,26.4493],[78.8,26.4458],[78.7572,26.4754],[78.6864,26.4536],[78.6343,26.4671],[78.5958,26.4458],[78.5358,26.4538],[78.5158,26.4742],[78.4924,26.4633],[78.4818,26.5083],[78.4429,26.4953],[78.4176,26.509],[78.4253,26.5364],[78.4152,26.5625],[78.3968,26.5629],[78.3964,26.5988],[78.2387,26.5953],[78.2256,26.6439],[78.2503,26.6845],[78.2092,26.6882],[78.2083,26.7458],[78.1483,26.7413],[78.0688,26.8035],[78.0466,26.7956],[78.0458,26.8125],[78.0063,26.7673],[77.9042,26.7375],[77.8958,26.7],[77.8542,26.6875],[77.8876,26.8095],[77.8744,26.8278],[77.9035,26.8635],[77.9048,26.8948],[77.875,26.9042],[77.8547,26.8619],[77.8218,26.8742],[77.7792,26.8292],[77.7333,26.85],[77.7536,26.8978],[77.7458,26.9583],[77.6843,26.9324],[77.6647,26.9006],[77.6465,26.9051],[77.6208,26.9542],[77.5167,26.9125],[77.5506,27.0009],[77.525,27.0375],[77.5042,27.0417],[77.5242,27.0507],[77.5173,27.099],[77.4833,27.1417],[77.5042,27.15],[77.5051,27.1963],[77.5243,27.1841],[77.525,27.225],[77.4729,27.2329],[77.4451,27.2203],[77.4271,27.2329],[77.3678,27.183],[77.3742,27.2534],[77.3341,27.2673],[77.3292,27.2833],[77.3506,27.3045],[77.3507,27.3326],[77.3792,27.3542],[77.3032,27.3714],[77.1875,27.3333],[77.2244,27.3645],[77.2371,27.4017],[77.2295,27.4358],[77.25,27.4708],[77.1883,27.4966],[77.1953,27.5229],[77.1758,27.5299],[77.175,27.5542],[77.0905,27.5244],[76.9924,27.5426],[76.9911,27.553],[77.0524,27.5587],[77.1042,27.6312],[77.1042,27.7333],[77.0327,27.7797],[77.0953,27.9228],[77.075,28.0042],[77.0996,28.0274],[77.0917,28.0375],[77.0292,28.0167],[77.0417,28.0625],[76.9689,28.1161],[76.9342,28.0507],[76.9243,28.1117],[76.8965,28.1395],[76.9131,28.151],[76.8952,28.237],[76.9326,28.2716],[76.9417,28.3167],[76.8757,28.2911],[76.8092,28.3006],[76.7667,28.3458],[76.7375,28.425],[76.7919,28.4386],[76.8006,28.4634],[76.7796,28.5521],[76.7917,28.6083],[76.7667,28.6208],[76.7877,28.6778],[76.7715,28.6885],[76.7619,28.7488],[76.7917,28.7938],[76.7625,28.8146],[76.7958,28.8333],[76.8089,28.8718],[76.7953,28.8924],[76.7953,28.9405],[76.8089,28.9488],[76.7953,28.9716],[76.8087,28.9845],[76.7792,29.0292],[76.8248,29.0429],[76.8534,29.1159],[76.8164,29.1257],[76.7348,29.0993],[76.7167,29.125],[76.7413,29.1441],[76.7275,29.1545],[76.7042,29.1333],[76.6833,29.1375],[76.6701,29.1991],[76.6334,29.2265],[76.6375,29.275],[76.5902,29.25],[76.5414,29.2614],[76.55,29.2375],[76.5274,29.2295],[76.4983,29.2379],[76.465,29.2246],[76.4146,29.2417],[76.375,29.2208],[76.3824,29.2577],[76.3583,29.275],[76.375,29.3083],[76.3417,29.3125],[76.325,29.3667],[76.3299,29.3867],[76.3492,29.3883],[76.3467,29.4283],[76.3703,29.4561],[76.3875,29.5292],[76.4326,29.5425],[76.4048,29.5759],[76.412,29.6063],[76.3958,29.6375],[76.3637,29.6249],[76.3492,29.5923],[76.3071,29.5791],[76.2833,29.5792],[76.2697,29.6003],[76.2417,29.5833],[76.1908,29.5869],[76.1792,29.6042],[76.2128,29.6094],[76.205,29.6326],[76.245,29.6384],[76.2288,29.6767],[76.2788,29.7059],[76.2833,29.7417],[76.2965,29.7463],[76.2869,29.8115],[76.3033,29.8283],[76.2759,29.8424],[76.2542,29.9],[76.2771,29.8958],[76.2996,29.9184],[76.3122,29.9905],[76.3287,30.0063],[76.3259,30.041],[76.4042,30.05],[76.3785,30.1115],[76.4038,30.1399],[76.3625,30.1708],[76.3911,30.2186],[76.38,30.2535],[76.416,30.2676],[76.4125,30.3042],[76.3841,30.3259],[76.3917,30.3542],[76.3007,30.2699],[76.2869,30.2451],[76.3,30.2167],[76.2591,30.23],[76.3006,30.3381],[76.2833,30.3625],[76.3037,30.3896],[76.2828,30.4159],[76.2845,30.4497],[76.3,30.4583],[76.2792,30.475],[76.2941,30.533],[76.2458,30.5458],[76.2229,30.5083],[76.1916,30.5071],[76.1868,30.4758],[76.1549,30.4617],[76.148,30.4079],[76.1258,30.3869],[76.0715,30.3781],[76.0701,30.3549],[76.0497,30.3494],[75.9997,30.4095],[76.012,30.4354],[75.9953,30.4549],[76.0089,30.4674],[75.9923,30.5074],[76.0169,30.528],[76.0021,30.5375],[75.9229,30.5167],[75.9031,30.5367],[75.8842,30.5331],[75.8792,30.5583],[75.8617,30.5631],[75.8461,30.5259],[75.7954,30.5381],[75.7591,30.5216],[75.7282,30.5381],[75.675,30.5208],[75.6125,30.55],[75.6022,30.5786],[75.4886,30.5794],[75.4625,30.5625],[75.4458,30.6042],[75.4199,30.5953],[75.3618,30.6297],[75.3034,30.6161],[75.2792,30.6167],[75.265,30.6371],[75.222,30.6297],[75.1291,30.5345],[75.0787,30.5256],[75.0751,30.5095],[75.0218,30.4914],[75.0159,30.5048],[74.9825,30.4507],[74.8667,30.4167],[74.8333,30.375],[74.7764,30.3869],[74.7574,30.4117],[74.6639,30.3952],[74.6351,30.4205],[74.5667,30.3458],[74.5042,30.3417],[74.5035,30.3176],[74.4673,30.3033],[74.4667,30.2833],[74.4146,30.2583],[74.3708,30.2625],[74.3321,30.1869],[74.1559,30.2038],[74.1108,30.1962],[74.0955,30.1517],[74.0725,30.1371],[73.9934,30.1455],[73.9533,30.1007],[73.8812,30.1204],[73.8451,30.0994],[73.8145,30.1036],[73.7625,30.0458],[73.7275,30.0504],[73.6634,30.0243],[73.6337,29.9733],[73.6506,29.9382],[73.6331,29.9158],[73.6336,29.855],[73.5311,29.8328],[73.4941,29.8045],[73.475,29.8125],[73.4385,29.7952],[73.4216,29.7619],[73.4091,29.7756],[73.3625,29.7583],[73.3751,29.7804],[73.3521,29.7952],[73.3181,29.7744],[73.2992,29.8159],[73.23,29.8384],[73.2256,29.8738],[73.2011,29.8794],[73.1792,29.8542],[73.1472,29.8673],[73.137,29.8535],[73.0854,29.862],[73.05,29.8417],[73.062,29.8187],[73.0453,29.801],[73.0542,29.7849],[73.0217,29.7825],[72.9921,29.7521],[73.0208,29.6847],[72.973,29.609],[72.9055,29.5827],[72.862,29.6173],[72.8355,29.5797],[72.7616,29.5466],[72.7387,29.5506],[72.673,29.5006],[72.6326,29.5047],[72.6076,29.4869],[72.5387,29.5422],[72.4979,29.4958],[72.45,29.5],[72.4115,29.5618],[72.3625,29.5708],[72.1669,29.5032],[72.173,29.4673],[72.1493,29.4839],[72.0383,29.4701],[72.0207,29.401],[71.9542,29.4042],[71.9116,29.3799],[71.8882,29.3867],[71.8792,29.3708],[71.8375,29.3792],[71.8325,29.359],[71.7468,29.341],[71.7458,29.325],[71.7066,29.3129],[71.6188,29.3292],[71.5875,29.3083],[71.5134,29.2993],[71.5035,29.2717],[71.4667,29.2583],[71.4438,29.2995],[71.2771,29.2839],[71.2354,29.2994],[71.2007,29.2867],[71.1659,29.1841],[71.0949,29.1373],[71.0542,29.1333],[71.0458,29.175],[71.0168,29.1972],[71.0253,29.2158],[70.9895,29.2161],[70.9825,29.1842],[70.8926,29.166],[70.8208,29.1],[70.7927,29.1044],[70.7965,29.076],[70.7578,29.0424],[70.7408,28.9632],[70.7022,28.9869],[70.6764,28.9702],[70.6667,28.9792],[70.6411,28.9424],[70.6375,28.8765],[70.6022,28.8547],[70.5833,28.8625],[70.5342,28.8034],[70.5417,28.7792],[70.5116,28.7548],[70.4887,28.7536],[70.4583,28.8042],[70.4017,28.7996],[70.375,28.7417],[70.3525,28.7545],[70.2967,28.7243],[70.2993,28.6841],[70.2639,28.6881],[70.2574,28.6664],[70.2385,28.6659],[70.1866,28.6089],[70.126,28.6035],[70.0834,28.5474],[70.0646,28.5619],[70.0459,28.5486],[70.0506,28.526],[69.9851,28.508],[69.9958,28.4771],[69.975,28.4458],[69.9059,28.4163],[69.8475,28.4121],[69.8233,28.3754],[69.7971,28.3877],[69.755,28.3575],[69.724,28.3004],[69.697,28.3006],[69.6605,28.2464],[69.5884,28.2244],[69.6006,28.2155],[69.5772,28.1922],[69.4967,28.1702],[69.4875,28.1458],[69.5,28.1307],[69.4554,28.0911],[69.3425,28.0994],[69.3375,28.075],[69.2469,28.0452],[69.25,28.0167],[69.2355,28.0047],[69.1717,28.0076],[69.1875,27.9417],[69.149,27.9089],[69.0872,27.8947],[69.1079,27.8563],[69.0744,27.7966],[69.1127,27.7054],[69.088,27.6854],[69.1009,27.6342],[69.1561,27.6786],[69.1792,27.6792],[69.1715,27.6217],[69.1937,27.6245],[69.2076,27.6091],[69.1633,27.5951],[69.1744,27.5687],[69.1529,27.5416],[69.1244,27.5403],[69.1367,27.5091],[69.1132,27.491],[69.0854,27.5244],[69.0528,27.5256],[69.0417,27.4708],[69.0657,27.4743],[69.12,27.4283],[69.1301,27.3961],[69.166,27.3897],[69.1544,27.3677],[69.1347,27.3715],[69.0667,27.3208],[69.059,27.2755],[69.0452,27.2698],[69.0673,27.2425],[69.0549,27.2175],[69.0865,27.2048],[69.1033,27.2256],[69.1417,27.2042],[69.1534,27.1633],[69.1333,27.1554],[69.175,27.1333],[69.1511,27.1284],[69.0987,27.0751],[69.0717,27.0919],[69.0646,27.0673],[69.0,27.0458],[68.9994,27.0259],[68.9583,26.9985],[68.9797,26.9345],[68.9417,26.9208],[68.9369,26.9007],[68.987,26.8744],[69.0091,26.8963],[69.047,26.8746],[69.0667,26.8833],[69.0479,26.8542],[69.01,26.8538],[69.0083,26.825],[68.975,26.8042],[68.9879,26.7809],[68.9714,26.7439],[68.9801,26.7215],[69.0021,26.7454],[69.0186,26.7339],[69.0542,26.7417],[69.0625,26.7292],[69.0983,26.733],[69.1163,26.7066],[69.05,26.6208],[69.0743,26.5994],[69.0914,26.6071],[69.1048,26.5426],[69.1208,26.5333],[69.0762,26.5422],[69.0714,26.5314],[69.0619,26.4882],[69.0922,26.4424],[69.0625,26.3958],[69.0784,26.3951],[69.0887,26.3494],[69.1132,26.3951],[69.1283,26.3966],[69.134,26.4366],[69.1576,26.4366],[69.1708,26.3938],[69.1214,26.2772],[69.1164,26.1553],[69.1292,26.1458],[69.0917,26.1542],[69.1,26.1167],[69.1366,26.1217],[69.1803,26.1836],[69.2241,26.1827],[69.2116,26.0467],[69.1837,26.04],[69.2003,26.0053],[69.1833,25.9375],[69.2714,25.9445],[69.2667,25.9056],[69.2909,25.8993],[69.2839,25.8592],[69.3,25.8542],[69.3,25.8167],[69.3958,25.8167],[69.3672,25.7229],[69.3992,25.6992],[69.4177,25.6577],[69.4495,25.6673],[69.4875,25.6333],[69.4583,25.5333],[69.4917,25.4688],[69.4792,25.4396],[69.5042,25.3708],[69.463,25.3271],[69.4625,25.3083],[69.5,25.275],[69.4787,25.2615],[69.5,25.225],[69.4786,25.1868],[69.4708,25.1208],[69.5131,25.0676],[69.4747,25.003],[69.4741,24.955],[69.4036,24.897],[69.4,24.85],[69.3497,24.87],[69.3577,24.8521],[69.3405,24.8206],[69.2686,24.8203],[69.2417,24.8026],[69.2574,24.7673],[69.1978,24.7839],[69.1647,24.8244],[69.0966,24.8383],[69.0657,24.8743],[69.0542,24.875],[69.0577,24.8342],[69.0113,24.808],[68.9949,24.8285],[68.9552,24.8299],[68.8949,24.8824],[68.8625,24.8875],[68.8674,24.8467],[68.8964,24.8196],[68.8324,24.7299],[68.8042,24.7208],[68.8131,24.7738],[68.7989,24.7836],[68.7661,24.762],[68.7083,24.775],[68.709,24.7103],[68.7292,24.6917],[68.7132,24.6866],[68.7042,24.6375],[68.7333,24.5432],[68.6953,24.5093],[68.7131,24.4905],[68.6996,24.4184],[68.6479,24.4131],[68.6133,24.4299],[68.6062,24.4577],[68.591,24.4091],[68.5548,24.3824],[68.528,24.3331],[68.4784,24.3715],[68.4635,24.3579],[68.4449,24.3909],[68.425,24.3958],[68.425,24.5042],[68.3675,24.5424],[68.3665,24.5822],[68.2708,24.5958],[68.2542,24.6375],[68.2042,24.65],[68.1825,24.6132],[68.1595,24.6082],[68.1578,24.5728],[68.1208,24.525],[68.0375,24.525],[68.0286,24.5466],[68.0449,24.559],[68.0426,24.5836],[68.0576,24.5799],[68.0532,24.6118],[67.9958,24.6667],[67.9583,24.6625],[67.9545,24.7441],[67.9764,24.784],[67.9995,24.766],[68.009,24.7745],[68.0048,24.8323],[68.05,24.8917],[68.0147,24.8625],[68.0372,24.9219],[68.0092,24.9128],[68.0002,24.9232],[67.9856,24.9074],[67.9908,24.9494],[67.9464,24.9719],[67.9458,24.9875],[67.9742,24.9951],[67.9925,24.9507],[68.0076,24.9508],[67.9949,25.0659],[67.9618,25.0619],[67.8924,25.0883],[67.8674,25.1133],[67.8625,25.1583],[67.9396,25.1787],[67.9658,25.1744],[68.0184,25.1295],[68.0542,25.1458],[68.0229,25.138],[67.9425,25.1966],[67.9548,25.2588],[67.8799,25.2883],[67.9167,25.3292],[67.8875,25.45],[67.7792,25.4792],[67.758,25.6142],[67.7717,25.6618],[67.8125,25.675],[67.8292,25.8125],[67.816,25.9159],[67.7542,25.9042],[67.7576,25.9493],[67.7344,25.9507],[67.6909,26.016],[67.6545,26.0225],[67.6544,26.097],[67.633,26.1774],[67.5458,26.2875],[67.5583,26.3542],[67.5458,26.3604],[67.5465,26.4105],[67.6085,26.4458],[67.5661,26.5216],[67.61,26.5205],[67.6157,26.5367],[67.6007,26.5425],[67.5951,26.5742],[67.5342,26.6131],[67.5132,26.6467],[67.5076,26.7034],[67.4622,26.7447],[67.4175,26.759],[67.3616,26.8535],[67.3381,26.8686],[67.4042,26.8833],[67.4339,26.9924],[67.4199,27.0366],[67.3478,27.0506],[67.3325,27.0743],[67.3125,27.075],[67.3131,27.0948],[67.3387,27.1172],[67.4576,27.0926],[67.4538,27.1199],[67.4199,27.1536],[67.3875,27.1583],[67.3941,27.167],[67.5843,27.1804],[67.5875,27.2125],[67.5703,27.2355],[67.5167,27.2792],[67.4767,27.2879],[67.4629,27.3191],[67.5064,27.2902],[67.5339,27.2942],[67.4849,27.3209],[67.4887,27.3672],[67.5283,27.3632],[67.553,27.3795],[67.6064,27.3631],[67.6378,27.3822],[67.5091,27.3926],[67.5089,27.4403],[67.4812,27.4296],[67.4712,27.4438],[67.475,27.525],[67.5657,27.5506],[67.6191,27.517],[67.6583,27.5583],[67.7083,27.5667],[67.7167,27.5917],[67.6875,27.6042],[67.6667,27.6375],[67.7044,27.6553],[67.6958,27.6792],[67.7679,27.7172],[67.8439,27.7119],[67.8917,27.6875],[67.9616,27.7132],[67.9833,27.7458],[67.9625,27.7792],[67.9875,27.8167],[68.0172,27.8304],[68.0051,27.8575],[68.0375,27.8708],[68.0122,27.8884],[68.0298,27.9589],[67.9958,27.95],[67.9675,27.9825],[67.9917,28.0083],[68.024,28.0077],[68.0493,27.9828],[68.0855,27.9953],[68.1375,27.975],[68.1088,28.0146],[68.1493,28.0509],[68.1583,28.0833],[68.1949,28.0716],[68.255,28.1158],[68.3083,28.1292],[68.2729,28.1579],[68.2637,28.1496],[68.2583,28.1833],[68.3132,28.1828],[68.3323,28.1966],[68.291,28.2546],[68.325,28.3042],[68.4032,28.2994],[68.409,28.2842],[68.4333,28.2833],[68.4333,28.3125],[68.4841,28.3078],[68.5564,28.3422],[68.5701,28.3743],[68.4875,28.3708],[68.5597,28.4256],[68.5723,28.4085],[68.6157,28.4122],[68.6381,28.4689],[68.6804,28.5047],[68.7083,28.5],[68.6934,28.467],[68.7457,28.4845],[68.7869,28.5354],[68.7756,28.5855],[68.7958,28.6125],[68.8006,28.6689],[68.8667,28.7417],[68.85,28.6958],[68.8783,28.6868],[68.8926,28.6506],[68.9326,28.6453],[68.9667,28.6625],[68.9767,28.6913],[69.0316,28.7087],[69.1366,28.7006],[69.1726,28.7163],[69.2646,28.7167],[69.3535,28.7592],[69.3184,28.7663],[69.275,28.7375],[69.2924,28.8326],[69.3118,28.8324],[69.3229,28.8046],[69.3366,28.8093],[69.3869,28.8687],[69.3625,28.9542],[69.4201,28.9244],[69.4339,28.9347],[69.4077,28.9632],[69.434,28.9882],[69.4083,29.0098],[69.4337,29.0366],[69.4816,29.0629],[69.5233,29.0413],[69.5458,29.05],[69.5467,29.0342],[69.5875,29.0208],[69.6899,29.0754],[69.7284,29.1214],[69.8083,29.1042],[69.8708,29.1958],[69.8173,29.2218],[69.8242,29.2451],[69.7667,29.2542],[69.7468,29.2829],[69.7697,29.3004],[69.7884,29.2911],[69.8637,29.3464],[69.9075,29.3342],[69.925,29.3625],[69.9616,29.3673],[69.972,29.3922],[69.9917,29.3875],[70.0037,29.4146],[69.9875,29.4542],[69.9979,29.4912],[70.1,29.4583],[70.1517,29.4955],[70.1899,29.5004],[70.2163,29.5351],[70.1208,29.5875],[70.1295,29.6225],[70.0917,29.675],[70.1476,29.642],[70.2341,29.6286],[70.25,29.6458],[70.2256,29.6719],[70.2125,29.7333],[70.2288,29.7566],[70.1917,29.8042],[70.2292,29.8],[70.3083,29.9333],[70.2381,29.9645],[70.2422,29.9946],[70.213,30.0312],[70.2083,30.0958],[70.275,30.1],[70.3288,30.1809],[70.3458,30.2667],[70.408,30.3726],[70.4,30.4542],[70.3625,30.4792],[70.4202,30.5342],[70.4208,30.5875],[70.4423,30.6004],[70.4285,30.6617],[70.4125,30.6625],[70.4214,30.6926],[70.3882,30.7301],[70.366,30.8116],[70.3544,30.8325],[70.3258,30.8386],[70.2962,30.8976],[70.2958,31.0167],[70.3374,31.0905],[70.3992,31.1174],[70.4506,31.1796],[70.4208,31.225],[70.3717,31.2381],[70.366,31.2574],[70.2845,31.2578],[70.2667,31.3042],[70.2674,31.3242],[70.2914,31.3298],[70.3313,31.3132],[70.3823,31.3424],[70.408,31.3767],[70.395,31.4283],[70.3368,31.4286],[70.3125,31.45],[70.3267,31.4705],[70.3783,31.4759],[70.3785,31.4924],[70.4118,31.5175],[70.4159,31.5535],[70.3451,31.5036],[70.2895,31.5131],[70.25,31.5667],[70.2673,31.5722],[70.2674,31.6325],[70.4208,31.7125],[70.3866,31.7451],[70.2708,31.7667],[70.327,31.8035],[70.3826,31.8132],[70.375,31.8458],[70.355,31.8575],[70.4354,31.863],[70.4868,31.9342],[70.4619,32.0147],[70.4125,32.0792],[70.4939,32.0828],[70.57,32.0491],[70.5934,32.0212],[70.6313,32.0329],[70.6613,32.0203],[70.6871,32.0517],[70.6788,32.0983],[70.6458,32.1417],[70.666,32.1426],[70.6619,32.2132],[70.7411,32.3436],[70.7369,32.3655],[70.8417,32.3625],[70.8369,32.4147],[70.7708,32.5187],[70.7795,32.5774],[70.8042,32.6083],[70.8333,32.5917],[70.8379,32.6274],[70.8583,32.6375],[70.85,32.6583],[70.9566,32.7087],[71.0142,32.783],[71.1083,32.8125],[71.1087,32.8358],[71.1333,32.85],[71.1129,32.8809],[71.1129,32.9233],[71.1254,32.9733],[71.1517,33.0038],[71.1983,33.0087],[71.3033,33.0634],[71.3125,33.1],[71.3542,33.125],[71.4104,33.1],[71.4478,33.1286],[71.5326,33.1547],[71.6,33.125],[71.6174,33.1616],[71.6618,33.1843],[71.6536,33.2257],[71.7032,33.2754],[71.6866,33.3077],[71.6583,33.3083],[71.6542,33.3292],[71.74,33.3462],[71.7854,33.3208],[71.8375,33.325],[71.8333,33.3625],[71.8663,33.3892],[71.8708,33.4167],[71.9188,33.4328],[71.9704,33.4035],[72.0125,33.4417],[71.9825,33.4825],[71.9478,33.4922],[71.9215,33.5217],[71.9589,33.553],[71.902,33.5714],[71.8583,33.6083],[71.948,33.6214],[71.9875,33.6458],[71.9103,33.6756],[71.875,33.7083],[71.8958,33.7458],[71.8866,33.8077],[71.7905,33.7786],[71.6716,33.7953],[71.6354,33.8162],[71.6167,33.8021],[71.6254,33.7816],[71.5717,33.7216],[71.6745,33.7339],[71.7,33.7042],[71.623,33.6798],[71.5204,33.6994],[71.5,33.7417],[71.4701,33.7286],[71.3917,33.75],[71.3875,33.7917],[71.3167,33.8292],[71.2991,33.866],[71.2176,33.8964],[71.2955,33.9517],[71.2827,34.0699],[71.2289,34.0967],[71.2325,34.1169],[71.2062,34.1089],[71.1583,34.15],[71.1686,34.1703],[71.2355,34.1756],[71.2903,34.204],[71.2887,34.1937],[71.3075,34.1878],[71.3072,34.1619],[71.3561,34.162],[71.3229,34.1744],[71.3091,34.1633],[71.3119,34.1854],[71.2917,34.2042],[71.3365,34.2212],[71.3458,34.2667],[71.4083,34.2708],[71.4208,34.3708],[71.477,34.3339],[71.5,34.3417],[71.5125,34.3708],[71.5538,34.385],[71.5625,34.4542],[71.6,34.4583],[71.625,34.4417],[71.6522,34.4589],[71.658,34.5142],[71.6926,34.5786],[71.7458,34.5917],[71.7714,34.5696],[71.7675,34.5425],[71.7936,34.5297],[71.8534,34.5383],[71.8708,34.5667],[71.9063,34.5588],[71.9478,34.5786],[71.9771,34.5745],[72.0941,34.4705],[72.115,34.4837],[72.1566,34.4754],[72.1684,34.4955],[72.2083,34.5083],[72.2254,34.4642],[72.2642,34.4337],[72.316,34.4425],[72.32,34.4575],[72.3301,34.4423],[72.374,34.4369],[72.3926,34.4089],[72.425,34.4042],[72.4333,34.375],[72.4783,34.3702],[72.4783,34.3217],[72.4453,34.303],[72.4542,34.275],[72.4701,34.2743],[72.45,34.2361],[72.4548,34.2093],[72.4217,34.1911],[72.3833,34.1083],[72.3536,34.0799],[72.3547,34.052],[72.395,33.99],[72.4257,33.9904],[72.3585,33.9421],[72.3792,33.9],[72.5174,33.9339],[72.6113,33.8911],[72.6434,33.9205],[72.7125,33.9292],[72.7134,33.9092],[72.7449,33.8993],[72.7507,33.8509],[72.776,33.8296],[72.8167,33.8],[72.916,33.7658],[72.9286,33.7397],[72.9214,33.7092],[72.9786,33.6189],[72.9583,33.5292],[72.9972,33.466],[73.0125,33.475],[73.0341,33.4454],[73.0866,33.4798],[73.123,33.4786],[73.1616,33.4491],[73.1575,33.43],[73.0842,33.4075],[72.9667,33.3],[72.8708,33.3],[72.8837,33.2559],[72.933,33.2316],[72.9509,33.1757],[73.025,33.1417],[72.9629,33.0608],[72.9703,33.0436],[72.9417,33.0042],[72.8686,32.9744],[72.8048,32.924],[72.7833,32.7958],[72.7875,32.7708],[72.8125,32.7708],[72.8119,32.7561],[72.8077,32.7384],[72.7708,32.725],[72.8371,32.6907],[72.8467,32.6715],[72.8917,32.6542],[72.9524,32.667],[72.9767,32.6996],[73.0917,32.7542],[73.1042,32.7958],[73.1451,32.7619],[73.173,32.766],[73.1896,32.7506],[73.2242,32.7618],[73.2566,32.7288],[73.4202,32.6966],[73.4205,32.7316],[73.3994,32.7611],[73.4201,32.7675],[73.4298,32.7921],[73.4217,32.8533],[73.4814,32.8756],[73.5625,32.9333],[73.5917,32.9875],[73.6208,32.9833],[73.7333,33.0625],[73.7746,33.0358],[73.7792,32.98],[73.8458,33.0208],[73.8465,33.0009],[73.8909,32.9744],[73.9524,32.9754],[74.0104,32.9917],[74.0833,33.0583],[74.1354,33.0375],[74.1552,33.0588],[74.2733,33.0246],[74.275,32.975],[74.3453,32.9064],[74.3667,32.825],[74.4241,32.8257],[74.4631,32.874],[74.4636,32.8961],[74.5035,32.8966],[74.5042,32.9292],[74.5608,32.958],[74.5745,32.9229],[74.5256,32.8397],[74.5342,32.7967],[74.5724,32.7999],[74.6292,32.8399],[74.6689,32.8533],[74.5459,32.7831],[74.5905,32.7578],[74.6853,32.8244],[74.8491,32.8825],[74.867,32.7934],[74.858,32.735],[74.8191,32.7087],[74.7792,32.7042],[74.7619,32.6905],[74.7667,32.6667],[74.7948,32.6631],[74.8228,32.6911],[74.9199,32.7173],[74.9333,32.7333],[75.0125,32.6958],[75.0917,32.7333],[75.125,32.7042],[75.1164,32.6678],[75.1299,32.6051],[75.1717,32.5675],[75.2146,32.5583],[75.2595,32.5839],[75.3167,32.5708],[75.3005,32.5313],[75.3162,32.5146],[75.3078,32.477],[75.2908,32.4425],[75.2583,32.4208],[75.2589,32.3978],[75.3,32.3583],[75.2833,32.3208],[75.3368,32.2825],[75.3667,32.1875],[75.4125,32.2042],[75.4483,32.1879],[75.5958,32.2458],[75.5663,32.1892],[75.5922,32.0561],[75.676,31.9881],[75.7116,31.991],[75.85,31.8417],[75.9326,31.8284],[75.9833,31.7667],[75.975,31.7417],[76.0257,31.6301],[76.0619,31.6033],[76.1208,31.4792],[76.1908,31.3825],[76.205,31.2965],[76.258,31.2866],[76.2934,31.2462],[76.3167,31.2458],[76.3842,31.1509],[76.4292,31.1167],[76.4342,31.0884],[76.4895,31.1078],[76.5316,31.0955],[76.58,31.0342],[76.672,30.9661],[76.7235,30.9625],[76.7375,30.9292],[76.8726,30.8254],[76.9149,30.8254],[76.9809,30.9038],[77.0366,30.8991],[77.0881,30.8466],[77.08,30.83],[77.1163,30.8157],[77.2131,30.6968],[77.2051,30.6712],[77.2952,30.6241],[77.3103,30.6005],[77.3783,30.5866],[77.3885,30.5129],[77.4283,30.495],[77.4542,30.4625],[77.5167,30.4542],[77.5313,30.4125],[77.5875,30.425],[77.6074,30.3994],[77.6616,30.4035],[77.7125,30.3375],[77.8634,30.2674],[77.9625,30.2458],[77.9809,30.2129],[78.0542,30.2042],[78.0667,30.2375],[78.1066,30.233],[78.1254,30.1892],[78.125,30.1042],[78.12,30.0882],[78.075,30.0708],[78.075,30.0417],[78.1483,30.0621],[78.1936,30.0381],[78.2625,30.0333],[78.2801,30.0004],[78.3905,29.9203],[78.4077,29.9384],[78.3911,29.9841],[78.4,30.0042],[78.4792,29.9542],[78.4922,29.9218],[78.4792,29.8958],[78.5714,29.8632],[78.5172,29.7855],[78.5047,29.7103],[78.525,29.6917],[78.5553,29.7582],[78.6032,29.7718],[78.6201,29.7965],[78.6625,29.7792],[78.6589,29.7561],[78.6875,29.7167],[78.6583,29.6917],[78.7449,29.6035],[78.7495,29.5683],[78.684,29.6135],[78.6897,29.6287],[78.6747,29.6294],[78.6775,29.6088],[78.7233,29.5758],[78.7222,29.5697],[78.713,29.5772],[78.71,29.5772],[78.7078,29.5755],[78.7479,29.5221],[78.7614,29.5231],[78.75,29.5375],[78.7992,29.5331],[78.8303,29.5669],[78.9125,29.525],[79.0649,29.5121],[79.1184,29.4712],[79.1313,29.4787],[79.1958,29.4417],[79.1795,29.3816],[79.1895,29.3506],[79.2314,29.3506],[79.2701,29.3714],[79.295,29.3633],[79.3186,29.4078],[79.3811,29.4369],[79.4203,29.4366],[79.4589,29.3757],[79.4466,29.3425],[79.4783,29.3325],[79.5131,29.2927],[79.5083,29.2708],[79.5583,29.2458],[79.5866,29.2743],[79.6175,29.2384],[79.6717,29.2173],[79.7772,29.2172],[79.8047,29.2772],[79.8284,29.2867],[79.9536,29.2022],[79.932,29.1666],[79.8965,29.1576],[79.8958,29.1375],[79.9909,29.1159],[80.0342,29.0384],[80.0561,29.0214],[80.0871,29.0233],[80.0882,28.9925],[80.1197,28.9918],[80.2035,29.0783],[80.2292,29.0458],[80.2161,28.9868],[80.2667,28.9042],[80.3202,28.9385],[80.375,29.0458],[80.4333,29.0292],[80.383,28.9142],[80.3917,28.85],[80.4208,28.85],[80.4275,28.833],[80.4533,28.8382],[80.5271,28.9245],[80.6167,28.9417],[80.6333,28.9917],[80.6991,28.9869],[80.7538,28.9441],[80.7375,28.9042],[80.7478,28.8964],[80.825,28.8667],[80.858,28.885],[80.8625,28.9125],[80.9104,28.8833],[80.9608,28.883],[80.9545,28.835],[80.9708,28.8208],[81.1158,28.7744],[81.1467,28.734],[81.2059,28.6962],[81.2511,28.7461],[81.3533,28.7118],[81.375,28.6167],[81.425,28.5917],[81.4417,28.5542],[81.465,28.5538],[81.4833,28.5271],[81.4705,28.4975],[81.4788,28.4559],[81.4551,28.409],[81.5191,28.4038],[81.6042,28.3375],[81.6375,28.35],[81.7042,28.3375],[81.8,28.275],[81.7782,28.2254],[81.7507,28.2074],[81.7494,28.1135],[81.7333,28.0833],[81.7785,28.1009],[81.8049,28.1657],[81.8625,28.2375],[81.8875,28.2417],[82.0125,28.1542],[82.0208,28.1],[82.1191,28.0705],[82.3559,27.9504],[82.4965,27.9074],[82.4827,27.8712],[82.4924,27.8427],[82.52,27.8592],[82.5311,27.8994],[82.6108,27.8996],[82.6092,27.8383],[82.6244,27.8313],[82.6417,27.7708],[82.69,27.7746],[82.6958,27.7583],[82.7208,27.7583],[82.7395,27.7786],[82.7866,27.7786],[82.8,27.7667],[82.8287,27.7881],[82.8803,27.7961],[82.9991,27.7964],[83.0167,27.8333],[83.0542,27.8292],[83.0699,27.8161],[83.1101,27.6712],[83.1699,27.7087],[83.1954,27.7479],[83.1578,27.8116],[83.1095,27.8161],[83.0756,27.8439],[83.0798,27.8616],[83.1189,27.8631],[83.1583,27.8958],[83.1824,27.891],[83.2034,27.8619],[83.2354,27.8745],[83.3116,27.8533],[83.3045,27.7809],[83.3159,27.7661],[83.4417,27.7292],[83.4667,27.7542],[83.4715,27.7384],[83.5733,27.7038],[83.6573,27.7243],[83.6592,27.6842],[83.7667,27.6333],[83.9208,27.65],[83.9301,27.7327],[83.9958,27.7375],[84.0083,27.7667],[84.0353,27.7786],[84.0792,27.7625],[84.1149,27.7746],[84.1583,27.7542],[84.2,27.7667],[84.2009,27.7256],[84.2323,27.716],[84.2625,27.6625],[84.3483,27.6746],[84.3708,27.6417],[84.4667,27.6917],[84.4453,27.6216],[84.4551,27.6004],[84.4917,27.5833],[84.4828,27.572],[84.5483,27.558],[84.6983,27.5746],[84.7214,27.5174],[84.7088,27.4854],[84.725,27.4458],[84.7938,27.441],[84.9309,27.367],[84.9991,27.366],[85.0063,27.3546],[85.0917,27.3625],[85.0952,27.3093],[85.0756,27.2811],[85.1288,27.2316],[85.2042,27.1],[85.2417,27.1125],[85.2841,27.2327],[85.3246,27.2282],[85.3256,27.1728],[85.3547,27.1243],[85.3328,27.0326],[85.347,26.9997],[85.3708,27.025],[85.3538,27.0642],[85.4542,27.1708],[85.4809,27.1621],[85.5083,27.175],[85.565,27.1455],[85.5674,27.0549],[85.6333,27.075],[85.6121,27.035],[85.6333,27.0042],[85.7483,27.0504],[85.7958,27.15],[85.8333,27.1708],[85.8642,27.1295],[85.8823,27.1464],[85.9371,27.124],[85.975,27.0458],[85.9925,27.0259],[86.025,27.0208],[86.0842,26.8881],[86.1413,26.8274],[86.1375,26.7833],[86.1619,26.801],[86.1717,26.87],[86.2,26.8917],[86.248,26.8672],[86.274,26.8881],[86.3257,26.8786],[86.3625,26.9125],[86.4208,26.9083],[86.4667,26.8875],[86.4673,26.8301],[86.5035,26.8022],[86.5049,26.7635],[86.525,26.7417],[86.5453,26.7561],[86.5578,26.8174],[86.5825,26.8491],[86.6048,26.7801],[86.6714,26.7446],[86.6629,26.7101],[86.6792,26.6917],[86.7229,26.7125],[86.7522,26.6881],[86.8,26.7167],[86.828,26.7169],[86.8508,26.6954],[86.9012,26.7339],[87.0068,26.7042],[87.1115,26.7879],[87.1256,26.8488],[87.1089,26.8814],[87.1583,26.9125],[87.2542,26.8667],[87.2983,26.8746],[87.3667,26.8458],[87.4292,26.8833],[87.475,26.8625],[87.5167,26.8875],[87.5617,26.8868],[87.575,26.8583],[87.6875,26.8833],[87.7208,26.85],[87.7674,26.8286],[87.7833,26.8375],[87.7801,26.8216],[87.802,26.8131],[87.8829,26.8077],[87.9075,26.8132],[87.9228,26.841],[87.9858,26.8504],[88.0476,26.8955],[88.0708,26.8958],[88.1208,26.95],[88.1833,26.8875],[88.2417,26.8958],[88.2603,26.8672],[88.2875,26.8833],[88.3201,26.8494],[88.3339,26.8526],[88.3506,26.7686],[88.4208,26.6958],[88.4663,26.8483],[88.4564,26.8661],[88.405,26.8759],[88.3917,26.9167],[88.4375,26.9958],[88.4636,26.9664],[88.57,26.991],[88.6089,26.8978],[88.6329,26.8885],[88.7119,26.9645],[88.7339,27.0507],[88.7078,27.1091],[88.7292,27.1375],[88.7708,27.0917],[88.8158,27.0783],[88.8299,27.0133],[88.8576,27.0031],[88.8625,26.95],[88.9026,26.9417],[88.9137,26.9589],[88.9451,26.9549],[88.9718,27.0157],[89.0208,27.0375],[89.0286,26.9049],[89.0342,26.8923],[89.05,26.9],[89.0458,26.8833],[89.0951,26.9006],[89.1616,26.8869],[89.2191,26.8996],[89.2417,26.8667],[89.2895,26.8506],[89.3189,26.8464],[89.3408,26.8617],[89.3375,26.8],[89.3566,26.792],[89.4083,26.8167],[89.4004,26.7767],[89.4155,26.7619],[89.4259,26.7868],[89.4801,26.8243],[89.5483,26.8455],[89.5625,26.8042],[89.6397,26.7828],[89.6708,26.7542],[89.7184,26.7496],[89.7333,26.7667],[89.7833,26.7708],[89.7792,26.7542],[89.8337,26.6517],[89.8726,26.6254],[89.8994,26.6301],[89.9466,26.6992],[89.9991,26.7259],[90.0208,26.775],[90.0092,26.7991],[90.0408,26.8297],[90.0667,26.825],[90.0577,26.7963],[90.0758,26.7633],[90.1233,26.7413],[90.18,26.6747],[90.1993,26.6801],[90.2083,26.7292],[90.2417,26.6958],[90.2547,26.7299],[90.2381,26.7551],[90.2422,26.8147],[90.3119,26.9134],[90.325,26.9542],[90.3163,26.9934],[90.3364,27.0169],[90.3451,27.0036],[90.3866,27.0159],[90.4411,26.9647],[90.4369,26.8574],[90.4968,26.8037],[90.5659,26.8631],[90.5938,26.859],[90.6132,26.8825],[90.6417,26.8875],[90.6917,26.9625],[90.7275,26.9621],[90.7625,26.9292],[90.7994,26.8855],[90.8006,26.8436],[90.8167,26.8292],[90.9542,26.8375],[90.9875,26.825],[91.1108,26.8545],[91.1771,26.8379],[91.2358,26.8496],[91.2476,26.8295],[91.2729,26.825],[91.3083,26.8458],[91.3326,26.8244],[91.373,26.8244],[91.4131,26.7927],[91.4089,26.7466],[91.3824,26.6921],[91.3179,26.6203],[91.37,26.6384],[91.4119,26.7103],[91.425,26.7917],[91.4354,26.7833],[91.4663,26.8017],[91.4583,26.8583],[91.5108,26.8754],[91.5267,26.8996],[91.5792,26.925],[91.6167,26.8917],[91.6525,26.8913],[91.6733,26.8538],[91.7788,26.8801],[91.8,26.9583],[91.7667,27.0],[91.7934,27.0163],[91.8441,26.9996],[91.8629,26.9684],[91.8583,26.9458],[91.8792,26.9333],[91.9601,26.9705],[92.0108,26.958],[92.1244,26.8605],[92.2059,26.7379],[92.2419,26.7614],[92.2297,26.7855],[92.2616,26.8908],[92.2962,26.7684],[92.324,26.7548],[92.3217,26.77],[92.3325,26.7634],[92.3506,26.7824],[92.3466,26.8075],[92.3788,26.8726],[92.3792,26.9896],[92.3549,27.0133],[92.3583,27.0404],[92.3344,27.041],[92.3042,27.075],[92.3217,27.12],[92.3479,27.1088],[92.397,27.1256],[92.4167,27.1208],[92.4122,27.0928],[92.4339,27.0821],[92.4299,27.0592],[92.5252,27.0534],[92.5517,27.0004],[92.6083,26.9917],[92.6241,27.0044],[92.752,26.9381],[92.8149,26.9413],[92.8686,26.9006],[92.9103,26.9619],[92.9743,26.9676],[92.9875,27.0125],[93.0292,26.9458],[93.0483,26.942],[93.0887,26.9714],[93.1199,26.9618],[93.1858,26.9288],[93.225,26.8833],[93.2583,26.8958],[93.2676,26.9243],[93.3042,26.9458],[93.3129,26.972],[93.3009,26.9911],[93.3855,26.9797],[93.409,27.0158],[93.4375,27.025],[93.4603,26.9922],[93.4993,27.0047],[93.5316,26.9962],[93.5424,27.0159],[93.7125,27.0667],[93.7122,27.0426],[93.802,26.9673],[93.8242,26.9633],[93.8375,26.9833],[93.8298,26.8759],[93.8717,26.8217],[93.9034,26.8326],[93.8997,26.8176],[93.9449,26.7997],[93.9603,26.8285],[94.0222,26.8548],[94.068,26.8369],[94.0895,26.8619],[94.148,26.8577],[94.1701,26.8409],[94.1708,26.8208],[93.9784,26.7922],[93.8564,26.7214],[93.7814,26.6964],[93.7208,26.6958],[93.6908,26.5965],[93.6542,26.5917],[93.6274,26.5504],[93.5996,26.5434],[93.6,26.5167],[93.5691,26.5045],[93.5533,26.5202],[93.5176,26.5202],[93.4948,26.4965],[93.4259,26.4882],[93.4033,26.5158],[93.3561,26.5214],[93.2733,26.5629],[93.1809,26.5538],[93.1137,26.5244],[93.048,26.5535],[93.0094,26.5452],[93.0131,26.5671],[92.9757,26.5883],[92.975,26.6125],[92.9509,26.6119],[92.8525,26.517],[92.7789,26.4989],[92.7839,26.4866],[92.7439,26.4506],[92.7034,26.4631],[92.64,26.4455],[92.5554,26.4506],[92.5042,26.4292],[92.516,26.3551],[92.4758,26.3367],[92.4708,26.2875],[92.4853,26.2672],[92.5375,26.2625],[92.5245,26.2365],[92.5421,26.2157],[92.5417,26.1667],[92.5032,26.1672],[92.4342,26.0991],[92.4054,26.0453],[92.3792,26.1083],[92.2729,26.0542],[92.266,26.0741],[92.2407,26.0744],[92.2167,26.1],[92.1385,26.0661],[92.0743,26.0714],[92.0613,26.0536],[92.0095,26.0751],[91.9396,26.0338],[91.9243,26.0547],[91.875,26.0375],[91.8449,26.0547],[91.7691,26.0045],[91.7509,26.0048],[91.7191,26.0462],[91.634,25.9824],[91.6283,25.9549],[91.6,25.9625],[91.5878,25.9491],[91.575,25.9167],[91.5869,25.8802],[91.5451,25.8344],[91.5133,25.8336],[91.508,25.8091],[91.4604,25.8173],[91.45,25.8417],[91.4261,25.8461],[91.3743,25.8244],[91.3458,25.8458],[91.2976,25.8371],[91.2587,25.815],[91.248,25.7756],[91.2134,25.7658],[91.1953,25.7382],[91.2042,25.7083],[91.1592,25.7131],[91.1536,25.7257],[91.1536,25.7841],[91.1911,25.8436],[91.1833,25.8667],[91.1542,25.8583],[91.1342,25.8743],[91.0451,25.7953],[91.0134,25.8007],[91.0083,25.8375],[90.9716,25.8466],[91.0,26.0208],[90.9424,26.0546],[90.8828,25.9186],[90.8233,25.867],[90.7962,25.8892],[90.7858,25.933],[90.7042,25.8667],[90.7003,25.8905],[90.675,25.9042],[90.5708,25.9],[90.5786,25.9593],[90.608,26.0059],[90.5937,26.0333],[90.5366,25.9592],[90.4963,25.9354],[90.4993,25.9051],[90.4708,25.875],[90.4549,25.8757],[90.45,25.8958]],[[89.9012,22.0579],[89.9047,22.0613],[89.9,22.0625],[89.9012,22.0579]],[[89.2155,22.1004],[89.2119,22.097],[89.2167,22.0958],[89.2155,22.1004]],[[89.0667,22.125],[89.0708,22.1292],[89.0675,22.1283],[89.0667,22.125]],[[89.0754,22.1303],[89.072,22.1339],[89.0708,22.1292],[89.0754,22.1303]],[[88.7493,22.0676],[88.75,22.075],[88.7458,22.0667],[88.7493,22.0676]],[[88.7546,22.0762],[88.7512,22.0797],[88.75,22.075],[88.7546,22.0762]],[[88.7155,22.0087],[88.7119,22.0054],[88.7167,22.0042],[88.7155,22.0087]],[[88.1708,21.9167],[88.1741,21.9247],[88.1715,21.9242],[88.1708,21.9167]],[[76.2417,29.6583],[76.2458,29.6625],[76.2425,29.6616],[76.2417,29.6583]],[[90.4587,25.897],[90.4554,25.9006],[90.4542,25.8958],[90.4587,25.897]],[[93.6958,26.7083],[93.6882,26.7158],[93.6875,26.7083],[93.6958,26.7083]],[[93.6958,26.7083],[93.7017,26.692],[93.7083,26.6917],[93.6958,26.7083]],[[88.9012,22.1496],[88.9047,22.153],[88.9,22.1542],[88.9012,22.1496]],[[88.8988,22.1587],[88.8953,22.1554],[88.9,22.1542],[88.8988,22.1587]],[[88.9204,22.0947],[88.9238,22.0911],[88.925,22.0958],[88.9204,22.0947]],[[88.925,22.0958],[88.9284,22.112],[88.9257,22.1118],[88.925,22.0958]],[[88.9019,22.0786],[88.8912,22.0635],[88.9042,22.0542],[88.8996,22.0684],[88.9019,22.0786]],[[88.9048,22.0395],[88.909,22.0527],[88.9042,22.0542],[88.9048,22.0395]],[[88.9087,22.0803],[88.9054,22.0839],[88.9042,22.0792],[88.9087,22.0803]],[[89.0833,22.1542],[89.0792,22.15],[89.0825,22.1509],[89.0833,22.1542]],[[89.0746,22.1488],[89.078,22.1453],[89.0792,22.15],[89.0746,22.1488]],[[89.0879,22.1553],[89.0845,22.1589],[89.0833,22.1542],[89.0879,22.1553]],[[89.0913,22.1447],[89.0946,22.1411],[89.0958,22.1458],[89.0913,22.1447]],[[89.1004,22.147],[89.097,22.1506],[89.0958,22.1458],[89.1004,22.147]],[[89.4667,22.1417],[89.4634,22.1337],[89.466,22.1342],[89.4667,22.1417]],[[89.4667,22.1417],[89.4756,22.1447],[89.4679,22.1464],[89.4667,22.1417]],[[91.4364,25.887],[91.3759,25.8558],[91.3658,25.8433],[91.3837,25.8372],[91.4342,25.8749],[91.4546,25.864],[91.4364,25.887]],[[79.7083,26.1875],[79.7009,26.1908],[79.7,26.1875],[79.7083,26.1875]],[[71.6936,33.0006],[71.725,33.0083],[71.7163,33.0324],[71.63,33.0634],[71.5958,33.1167],[71.592,33.0767],[71.6101,33.0504],[71.6936,33.0006]],[[74.1417,30.2625],[74.145,30.255],[74.15,30.2667],[74.1417,30.2625]],[[70.6256,29.1116],[70.6458,29.0875],[70.6493,29.1159],[70.6256,29.1116]],[[69.7375,28.4542],[69.7458,28.45],[69.7417,28.4583],[69.7375,28.4542]],[[89.53,22.7092],[89.5325,22.7116],[89.5292,22.7125],[89.53,22.7092]],[[89.5333,22.6875],[89.5381,22.6988],[89.5333,22.7],[89.5333,22.6875]],[[89.53,22.6575],[89.5325,22.655],[89.5333,22.6583],[89.53,22.6575]],[[89.5259,22.645],[89.5283,22.6425],[89.5292,22.6458],[89.5259,22.645]],[[90.0257,22.6408],[90.025,22.6333],[90.0292,22.6417],[90.0257,22.6408]],[[90.0542,22.6292],[90.05,22.625],[90.0533,22.6259],[90.0542,22.6292]],[[89.525,22.6208],[89.5216,22.6283],[89.5203,22.622],[89.525,22.6208]],[[90.05,22.6208],[90.0458,22.6167],[90.0491,22.6175],[90.05,22.6208]],[[89.525,22.6125],[89.5295,22.6017],[89.5542,22.5792],[89.525,22.6125]],[[90.0375,22.6083],[90.0167,22.6042],[90.0292,22.575],[90.0375,22.6083]],[[90.0215,22.5701],[90.0256,22.5288],[90.0167,22.4958],[90.0288,22.5184],[90.0215,22.5701]],[[89.5825,22.5158],[89.58,22.5134],[89.5833,22.5125],[89.5825,22.5158]],[[89.5667,22.5583],[89.5757,22.5217],[89.5792,22.5208],[89.5786,22.5355],[89.5667,22.5583]],[[89.4116,22.5259],[89.4092,22.5283],[89.4083,22.525],[89.4116,22.5259]],[[89.4256,22.551],[89.4083,22.5625],[89.4214,22.5507],[89.4125,22.5333],[89.4243,22.5384],[89.4256,22.551]],[[89.5616,22.57],[89.5592,22.5675],[89.5625,22.5667],[89.5616,22.57]],[[87.9062,22.4312],[87.9083,22.4333],[87.9028,22.4333],[87.9062,22.4312]],[[87.8918,22.4327],[87.8976,22.4254],[87.9006,22.4253],[87.8918,22.4327]],[[87.9259,22.4092],[87.929,22.4101],[87.9255,22.4106],[87.9259,22.4092]],[[87.9379,22.3851],[87.9396,22.3956],[87.9393,22.3963],[87.9375,22.3958],[87.9379,22.3851]],[[89.1875,22.3875],[89.1917,22.3833],[89.1908,22.3866],[89.1875,22.3875]],[[89.2083,22.3667],[89.2125,22.3667],[89.2095,22.3714],[89.2083,22.3667]],[[88.9507,22.3574],[88.9535,22.3509],[88.9542,22.3583],[88.9507,22.3574]],[[89.2092,22.3533],[89.2116,22.3509],[89.2125,22.3542],[89.2092,22.3533]],[[89.2634,22.3425],[89.2667,22.3458],[89.2625,22.3458],[89.2634,22.3425]],[[88.95,22.3417],[88.9522,22.3381],[88.9547,22.3405],[88.95,22.3417]],[[88.9,22.3375],[88.9422,22.2966],[88.934,22.2551],[88.9458,22.25],[88.95,22.3125],[88.9316,22.308],[88.9,22.3375]],[[89.2125,22.3292],[89.2167,22.325],[89.2158,22.3283],[89.2125,22.3292]],[[88.95,22.325],[88.9478,22.3286],[88.9453,22.3262],[88.95,22.325]],[[89.267,22.3184],[89.2691,22.3205],[89.2667,22.3208],[89.267,22.3184]],[[89.411,22.3128],[89.4111,22.3083],[89.4121,22.3104],[89.411,22.3128]],[[89.2757,22.3009],[89.2785,22.3074],[89.275,22.3083],[89.2757,22.3009]],[[89.28,22.2925],[89.2825,22.295],[89.2792,22.2958],[89.28,22.2925]],[[89.2595,22.2922],[89.2625,22.2792],[89.2657,22.28],[89.2672,22.2844],[89.2595,22.2922]],[[89.3214,22.2863],[89.3125,22.2708],[89.3201,22.2759],[89.3214,22.2863]],[[89.2458,22.2667],[89.2494,22.2551],[89.25,22.2667],[89.2458,22.2667]],[[89.2925,22.2616],[89.295,22.2592],[89.2958,22.2625],[89.2925,22.2616]],[[89.4119,22.2526],[89.4172,22.2549],[89.4139,22.2589],[89.4119,22.2526]],[[87.9524,22.3192],[87.9375,22.3167],[87.9381,22.2677],[87.9918,22.2186],[87.9496,22.2838],[87.9524,22.3192]],[[88.6792,22.3208],[88.6792,22.3212],[88.6776,22.3212],[88.6792,22.3208]],[[88.0009,22.2092],[88.0158,22.204],[88.0004,22.2111],[88.0009,22.2092]],[[87.971,22.1047],[87.9776,22.1038],[87.9783,22.1041],[87.971,22.1047]],[[87.9646,22.1006],[87.973,22.0964],[87.9751,22.098],[87.9646,22.1006]],[[87.9893,22.1003],[88.002,22.0797],[88.0076,22.0783],[87.9893,22.1003]],[[88.0389,22.0246],[88.0248,22.0664],[88.0084,22.0775],[88.0259,22.0339],[88.0389,22.0246]],[[87.3214,21.577],[87.325,21.5792],[87.3208,21.5792],[87.3214,21.577]],[[87.3467,21.5717],[87.3498,21.5714],[87.3466,21.5719],[87.3467,21.5717]],[[83.8918,21.5506],[83.8782,21.5364],[83.9035,21.5217],[83.9047,21.5341],[83.8918,21.5506]],[[86.7542,20.5167],[86.7564,20.5131],[86.7589,20.5155],[86.7542,20.5167]],[[86.6749,20.3256],[86.6741,20.3286],[86.6681,20.3288],[86.6749,20.3256]],[[88.6462,22.2358],[88.655,22.2404],[88.6579,22.2458],[88.6462,22.2358]],[[88.6648,22.2119],[88.663,22.2173],[88.6583,22.2125],[88.6648,22.2119]],[[88.6425,22.2092],[88.6456,22.2092],[88.6419,22.2114],[88.6425,22.2092]],[[88.2162,21.6725],[88.2205,21.6729],[88.2193,21.6753],[88.2162,21.6725]],[[88.7829,22.1766],[88.7871,22.1771],[88.786,22.1794],[88.7829,22.1766]],[[88.9027,22.1753],[88.9028,22.1708],[88.9038,22.1729],[88.9027,22.1753]],[[88.8913,22.1687],[88.887,22.1683],[88.8903,22.1667],[88.8913,22.1687]],[[88.7955,22.1684],[88.7837,22.1608],[88.7833,22.1583],[88.7955,22.1684]],[[88.7733,22.1462],[88.7767,22.1538],[88.7708,22.1458],[88.7733,22.1462]],[[88.8495,22.1516],[88.8538,22.1521],[88.8527,22.1544],[88.8495,22.1516]],[[88.7592,22.1452],[88.7658,22.1423],[88.7667,22.1458],[88.7592,22.1452]],[[88.9068,22.1419],[88.9069,22.1375],[88.908,22.1396],[88.9068,22.1419]],[[88.7533,22.1384],[88.7509,22.1408],[88.75,22.1375],[88.7533,22.1384]],[[88.7208,22.1068],[88.7413,22.1184],[88.7417,22.1333],[88.7208,22.1068]],[[88.8277,22.1294],[88.8278,22.125],[88.8288,22.1271],[88.8277,22.1294]],[[88.9193,22.1253],[88.9194,22.1208],[88.9205,22.1229],[88.9193,22.1253]],[[88.8153,22.125],[88.8152,22.1294],[88.812,22.1266],[88.8153,22.125]],[[88.7903,22.1083],[88.7866,22.1131],[88.7827,22.1093],[88.7903,22.1083]],[[88.7788,22.1062],[88.7745,22.1058],[88.7778,22.1042],[88.7788,22.1062]],[[88.7755,22.0966],[88.7702,22.0943],[88.7736,22.0917],[88.7755,22.0966]],[[88.708,22.0979],[88.7037,22.0975],[88.7069,22.0958],[88.708,22.0979]],[[88.712,22.1016],[88.7163,22.1021],[88.7152,22.1044],[88.712,22.1016]],[[88.9152,22.0878],[88.9153,22.0833],[88.9163,22.0854],[88.9152,22.0878]],[[88.7611,22.0833],[88.761,22.0878],[88.7579,22.085],[88.7611,22.0833]],[[89.4443,22.2461],[89.4444,22.2417],[89.4455,22.2437],[89.4443,22.2461]],[[89.4121,22.2437],[89.4079,22.2433],[89.4111,22.2417],[89.4121,22.2437]],[[89.2458,22.2458],[89.2369,22.2326],[89.2469,22.2172],[89.2833,22.2167],[89.2465,22.2216],[89.2458,22.2458]],[[89.305,22.22],[89.3083,22.2167],[89.3083,22.2208],[89.305,22.22]],[[89.0413,22.2312],[89.037,22.2308],[89.0403,22.2292],[89.0413,22.2312]],[[89.3045,22.2392],[89.3066,22.2413],[89.3042,22.2417],[89.3045,22.2392]],[[89.3092,22.2283],[89.3116,22.2259],[89.3125,22.2292],[89.3092,22.2283]],[[89.0703,22.1899],[89.0756,22.1922],[89.0741,22.1997],[89.0703,22.1899]],[[89.062,22.1641],[89.0663,22.1646],[89.0652,22.1669],[89.062,22.1641]],[[89.0871,22.1396],[89.0829,22.1391],[89.0861,22.1375],[89.0871,22.1396]],[[89.8399,22.1337],[89.8673,22.1463],[89.8631,22.1921],[89.8341,22.2091],[89.8292,22.2458],[89.8115,22.2464],[89.8462,22.1609],[89.8316,22.1469],[89.8399,22.1337]],[[89.8827,22.1526],[89.888,22.1549],[89.8848,22.1589],[89.8827,22.1526]],[[89.862,22.2683],[89.8663,22.2687],[89.8652,22.2711],[89.862,22.2683]]],[[[86.8028,20.4583],[86.8006,20.4854],[86.8055,20.4965],[86.8131,20.4838],[86.8028,20.4583]]],[[[87.0694,20.7333],[87.0718,20.7574],[87.0907,20.7659],[87.0946,20.7507],[87.0694,20.7333]]],[[[87.0194,20.7958],[87.0048,20.8062],[87.0007,20.8325],[87.0214,20.8217],[87.0194,20.7958]]],[[[87.0569,20.7417],[87.0452,20.7425],[87.0534,20.7507],[87.0569,20.7417]]],[[[88.0199,21.5825],[88.0176,21.5674],[88.0142,21.5839],[88.0199,21.5825]]],[[[88.1903,21.5583],[88.1715,21.5687],[88.1674,21.6034],[88.1923,21.5861],[88.1903,21.5583]]],[[[88.2048,21.769],[88.191,21.7602],[88.1995,21.7715],[88.2048,21.769]]],[[[88.1881,21.7925],[88.1785,21.7862],[88.1801,21.8006],[88.1881,21.7925]]],[[[88.1881,21.8215],[88.1744,21.8243],[88.1766,21.8298],[88.1881,21.8215]]],[[[73.4907,21.7088],[73.5052,21.711],[73.4924,21.7086],[73.4872,21.6983],[73.4907,21.7088]]],[[[73.5079,21.7159],[73.5094,21.7186],[73.5123,21.7202],[73.5079,21.7159]]],[[[88.1299,21.6244],[88.0464,21.6426],[88.0328,21.6743],[88.0714,21.7814],[88.1324,21.8797],[88.1756,21.8135],[88.1756,21.7549],[88.1578,21.652],[88.1299,21.6244]]],[[[72.5592,21.8339],[72.5784,21.8464],[72.5827,21.8448],[72.5792,21.8333],[72.5592,21.8339]]]]}}