{"type":"Feature","properties":{"speciesId":471,"category":"LC","source":"IUCN Red List","simplifyTol":0.01,"clippedToSubcontinent":true},"geometry":{"type":"MultiPolygon","coordinates":[[[[86.4,19.9681],[86.3785,19.9593],[86.3991,19.9753],[86.4,19.9681]]],[[[86.8028,20.4583],[86.8006,20.4854],[86.8055,20.4965],[86.8131,20.4838],[86.8028,20.4583]]],[[[81.0236,15.7542],[81.0162,15.761],[81.033,15.765],[81.0236,15.7542]]],[[[82.3138,16.5925],[82.3113,16.5908],[82.3116,16.5929],[82.3138,16.5925]]],[[[83.4154,17.8075],[83.4121,17.8083],[83.4142,17.8088],[83.4154,17.8075]]],[[[84.4462,18.6592],[84.4446,18.6583],[84.445,18.6596],[84.4462,18.6592]]],[[[87.0569,20.7417],[87.0452,20.7425],[87.0534,20.7507],[87.0569,20.7417]]],[[[87.0694,20.7333],[87.0718,20.7574],[87.0907,20.7659],[87.0946,20.7507],[87.0694,20.7333]]],[[[87.0194,20.7958],[87.0048,20.8062],[87.0007,20.8325],[87.0214,20.8217],[87.0194,20.7958]]],[[[89.4292,25.8042],[89.425,25.8083],[89.425,25.8125],[89.4292,25.8042]]],[[[89.9002,21.9929],[89.8786,21.9935],[89.8992,21.9993],[89.9002,21.9929]]],[[[89.9137,22.0089],[89.9136,22.0006],[89.908,22.0071],[89.9137,22.0089]]],[[[89.8792,22.0917],[89.8868,22.0716],[89.8675,22.058],[89.8792,22.0917]]],[[[89.5797,22.2321],[89.578,22.2244],[89.575,22.2333],[89.5797,22.2321]]],[[[89.8922,21.9631],[89.8869,21.9607],[89.8908,21.9705],[89.8922,21.9631]]],[[[89.8611,21.8292],[89.8494,21.8451],[89.8507,21.8617],[89.8703,21.8438],[89.8611,21.8292]]],[[[89.8528,21.7958],[89.8383,21.7965],[89.8292,21.8154],[89.8576,21.8201],[89.8528,21.7958]]],[[[89.3506,21.7091],[89.3285,21.6977],[89.3369,21.7215],[89.3506,21.7091]]],[[[89.7198,21.7546],[89.7133,21.7465],[89.712,21.7531],[89.7198,21.7546]]],[[[88.6212,21.7809],[88.6288,21.7267],[88.6142,21.708],[88.5875,21.7167],[88.6089,21.6841],[88.5953,21.6613],[88.6071,21.621],[88.575,21.625],[88.5868,21.58],[88.5505,21.5619],[88.5375,21.5792],[88.5326,21.5424],[88.5062,21.5381],[88.4833,21.5513],[88.4798,21.573],[88.4885,21.599],[88.5074,21.5954],[88.5298,21.6663],[88.4994,21.783],[88.5413,21.8131],[88.5702,21.798],[88.5662,21.7758],[88.5997,21.7923],[88.6212,21.7809]],[[88.6004,21.7178],[88.597,21.7214],[88.5958,21.7167],[88.6004,21.7178]],[[88.5863,21.7212],[88.5828,21.7179],[88.5875,21.7167],[88.5863,21.7212]],[[88.5738,21.6296],[88.5703,21.6262],[88.575,21.625],[88.5738,21.6296]],[[88.5363,21.5837],[88.5328,21.5804],[88.5375,21.5792],[88.5363,21.5837]],[[88.5208,21.5917],[88.5288,21.5884],[88.5283,21.591],[88.5208,21.5917]],[[88.5208,21.5917],[88.5128,21.5949],[88.5133,21.5923],[88.5208,21.5917]],[[88.5778,21.725],[88.5839,21.7469],[88.568,21.7672],[88.5661,21.7616],[88.5778,21.725]],[[88.562,21.6308],[88.5663,21.6312],[88.5652,21.6336],[88.562,21.6308]]],[[[82.6116,17.2884],[82.4853,17.2078],[82.3375,17.075],[82.2879,17.0108],[82.2742,16.9383],[82.2505,16.9271],[82.2719,16.8799],[82.314,16.8535],[82.3498,16.8535],[82.3577,16.9438],[82.3206,16.9909],[82.3399,16.992],[82.3618,16.9646],[82.3451,16.7341],[82.3211,16.7326],[82.2916,16.7035],[82.3199,16.7093],[82.326,16.7298],[82.3537,16.716],[82.3699,16.7297],[82.3256,16.6605],[82.3153,16.5994],[82.2967,16.6086],[82.2931,16.5668],[82.3199,16.5718],[81.9671,16.4035],[81.9509,16.4159],[81.9447,16.3922],[81.8478,16.3703],[81.7218,16.3079],[81.6899,16.3288],[81.5583,16.35],[81.4392,16.3496],[81.3062,16.3036],[81.2173,16.2022],[81.1952,16.1103],[81.1411,16.013],[81.1492,15.9715],[81.0884,15.9283],[81.0009,15.8283],[80.9964,15.8061],[81.0167,15.7723],[81.0008,15.766],[81.0075,15.755],[80.9426,15.7161],[80.8187,15.7131],[80.7798,15.777],[80.7862,15.7964],[80.8114,15.7411],[80.7701,15.8615],[80.6601,15.8788],[80.5375,15.85],[80.4103,15.7911],[80.3256,15.7324],[80.2625,15.65],[80.2451,15.6949],[80.2063,15.6833],[80.1191,15.6913],[80.0375,15.775],[80.0288,15.7434],[79.9934,15.7205],[79.9292,15.7375],[79.8758,15.6951],[79.8784,15.6716],[79.8593,15.6701],[79.8399,15.6295],[79.8228,15.6297],[79.7572,15.6919],[79.7284,15.6964],[79.7119,15.6801],[79.7214,15.6466],[79.7083,15.6208],[79.5708,15.6875],[79.5,15.6667],[79.475,15.6125],[79.4658,15.6618],[79.4173,15.6969],[79.4167,15.7125],[79.348,15.6756],[79.3292,15.6792],[79.3194,15.6577],[79.3092,15.6628],[79.3074,15.6254],[79.2853,15.6089],[79.2545,15.6517],[79.2458,15.7229],[79.197,15.7464],[79.1884,15.7256],[79.2125,15.7208],[79.1994,15.6968],[79.0855,15.6297],[79.0619,15.6382],[79.0658,15.6866],[78.9792,15.7],[78.9667,15.675],[78.8896,15.6995],[78.8534,15.6744],[78.75,15.6875],[78.7229,15.6588],[78.6741,15.6672],[78.5387,15.6286],[78.5458,15.6625],[78.5064,15.6828],[78.3157,15.6828],[78.2493,15.7006],[78.2009,15.6869],[78.1576,15.6051],[78.1159,15.6131],[78.0667,15.5792],[78.0536,15.6424],[78.0833,15.7146],[78.075,15.7688],[78.0998,15.816],[78.0542,15.8292],[78.1,15.8218],[78.0708,15.9167],[78.1135,15.9903],[78.0691,15.9837],[78.0548,15.9974],[78.0632,16.0087],[78.0465,16.0248],[78.0376,16.017],[78.031,16.0486],[78.009,16.0379],[77.9936,16.0753],[77.9662,16.073],[77.9739,16.0831],[77.9496,16.1033],[77.9292,16.1751],[77.8663,16.2443],[77.9329,16.1794],[77.9519,16.1241],[77.9751,16.1057],[77.9835,16.1205],[77.9852,16.1009],[78.0132,16.1086],[78.0078,16.0896],[78.0299,16.0747],[78.0602,16.0866],[78.0495,16.0535],[78.15,16.1],[78.1759,16.0715],[78.2123,16.0564],[78.219,16.07],[78.2333,16.0402],[78.3194,16.0314],[78.3275,16.0516],[78.3635,16.0483],[78.3731,16.0731],[78.4034,16.0759],[78.3872,16.1103],[78.4047,16.1043],[78.4025,16.1277],[78.416,16.1297],[78.4022,16.0918],[78.4125,16.0792],[78.4866,16.1131],[78.5176,16.1577],[78.5364,16.1539],[78.5417,16.175],[78.6118,16.1758],[78.6125,16.1917],[78.6866,16.23],[78.7288,16.2809],[78.716,16.3445],[78.77,16.3798],[78.7925,16.42],[78.8535,16.4259],[78.9035,16.4717],[78.9175,16.5241],[79.0042,16.4833],[79.0282,16.4921],[79.0108,16.5246],[78.9767,16.5295],[78.9545,16.5517],[78.9583,16.5667],[79.0745,16.5119],[79.1392,16.5586],[79.0855,16.5886],[79.1472,16.5802],[79.163,16.5589],[79.1678,16.6017],[79.1912,16.5458],[79.2208,16.5796],[79.2113,16.5867],[79.2755,16.5975],[79.2764,16.6157],[79.2299,16.6225],[79.2677,16.6347],[79.2633,16.6548],[79.2751,16.6583],[79.2725,16.6267],[79.312,16.5788],[79.2935,16.5529],[79.2568,16.5493],[79.2642,16.5379],[79.399,16.5506],[79.4167,16.5792],[79.4417,16.5583],[79.4506,16.6449],[79.475,16.6598],[79.4833,16.7042],[79.5233,16.7038],[79.5413,16.6816],[79.525,16.6292],[79.5603,16.5922],[79.5954,16.6354],[79.5964,16.6655],[79.5792,16.675],[79.6167,16.6875],[79.6792,16.65],[79.7125,16.6875],[79.7241,16.6824],[79.7908,16.5923],[79.8453,16.6603],[79.867,16.7441],[79.908,16.7934],[79.9125,16.825],[79.8833,16.8542],[79.9,16.8875],[79.9816,16.8746],[80.0358,16.8962],[80.0958,16.9958],[80.1292,16.9875],[80.2458,17.0458],[80.2536,17.0991],[80.2063,17.0796],[80.175,17.0958],[80.2208,17.2375],[80.2131,17.3105],[80.2458,17.3542],[80.1833,17.3958],[80.2202,17.4134],[80.2741,17.4715],[80.3083,17.514],[80.305,17.5491],[80.3616,17.5964],[80.3667,17.6125],[80.3381,17.6395],[80.3328,17.6701],[80.3465,17.7283],[80.3707,17.7238],[80.3675,17.6883],[80.4062,17.6673],[80.4292,17.6667],[80.4422,17.7091],[80.4004,17.7392],[80.3913,17.8024],[80.3417,17.825],[80.3547,17.8552],[80.3328,17.8799],[80.345,17.9241],[80.2379,18.1559],[80.242,18.1767],[80.1804,18.2047],[80.1208,18.1333],[80.1333,18.2167],[80.0368,18.1827],[80.0042,18.2],[80.0125,18.2792],[79.9816,18.2996],[79.9458,18.2875],[79.9404,18.2513],[79.9713,18.2172],[79.9557,18.2101],[79.9204,18.23],[79.9284,18.1748],[79.9063,18.1869],[79.8923,18.1771],[79.9208,18.1292],[79.8875,18.15],[79.85,18.2208],[79.8201,18.2078],[79.7726,18.2288],[79.7316,18.192],[79.6583,18.1792],[79.6423,18.1884],[79.6417,18.2125],[79.5875,18.225],[79.5792,18.2083],[79.5142,18.2371],[79.4809,18.2288],[79.4458,18.1833],[79.4325,18.2116],[79.3917,18.2292],[79.3259,18.2008],[79.3108,18.2788],[79.2042,18.25],[79.1871,18.2975],[79.2246,18.3392],[79.2241,18.366],[79.2036,18.3757],[79.2422,18.4446],[79.1642,18.4288],[79.1286,18.4004],[79.0958,18.4542],[79.1333,18.4625],[79.145,18.52],[79.1,18.5958],[79.0775,18.5871],[79.0337,18.6059],[79.05,18.6333],[79.0367,18.7284],[78.926,18.7298],[78.9161,18.7451],[78.9425,18.795],[78.9854,18.8292],[79.0021,18.8208],[79.0246,18.8559],[78.9875,18.9125],[78.9458,18.9125],[78.9465,18.9397],[78.9868,18.9591],[79.0017,18.9913],[79.0417,19.0042],[79.0625,19.0542],[79.1103,19.0953],[79.1816,19.0913],[79.2217,19.055],[79.2396,19.0625],[79.29,19.0288],[79.3274,19.033],[79.3851,18.992],[79.4033,19.0297],[79.4678,19.012],[79.5375,19.05],[79.5667,18.9917],[79.6229,18.9917],[79.6667,18.9708],[79.703,18.9831],[79.7125,19.0042],[79.7625,18.9875],[79.7949,19.0034],[79.8262,18.9828],[79.8966,18.9994],[79.916,19.0135],[79.9301,19.0618],[79.9497,19.0655],[79.9698,19.0465],[80.0054,19.0708],[80.0581,19.0405],[80.0716,19.0132],[80.1333,19.0167],[80.1583,18.9417],[80.2575,18.8783],[80.2811,18.8464],[80.325,18.8833],[80.3733,18.8712],[80.4358,18.9129],[80.4601,18.8962],[80.5284,18.8908],[80.5662,18.866],[80.5897,18.8785],[80.6601,18.7712],[80.6865,18.7702],[80.7217,18.7217],[80.7618,18.6994],[80.8167,18.7],[80.8938,18.6045],[80.9708,18.5958],[81.0116,18.5536],[81.059,18.5907],[81.095,18.5866],[81.1042,18.5667],[81.0799,18.5533],[81.0661,18.4512],[81.0833,18.4458],[81.1395,18.4911],[81.1625,18.4958],[81.175,18.4813],[81.1833,18.4146],[81.159,18.3824],[81.1595,18.3369],[81.1949,18.3506],[81.2521,18.3213],[81.2782,18.3244],[81.3,18.275],[81.3784,18.2536],[81.4324,18.2577],[81.4885,18.2173],[81.5271,18.2125],[81.6083,18.2458],[81.6578,18.2064],[81.6328,18.178],[81.6333,18.1333],[81.666,18.1063],[81.6674,18.0674],[81.6913,18.0608],[81.6917,18.0417],[81.6701,18.0369],[81.625,18.0583],[81.6212,18.0142],[81.6536,17.9689],[81.6625,17.9042],[81.6326,17.8591],[81.6091,17.8576],[81.6125,17.8208],[81.575,17.8375],[81.5799,17.8132],[81.5958,17.8125],[81.5798,17.7717],[81.6033,17.7423],[81.5384,17.7325],[81.5161,17.7012],[81.5333,17.675],[81.4809,17.6663],[81.4545,17.6358],[81.4869,17.5896],[81.4715,17.5425],[81.4921,17.5176],[81.5208,17.5167],[81.5208,17.4917],[81.4958,17.4833],[81.4875,17.4208],[81.5378,17.4119],[81.5576,17.4174],[81.5637,17.4464],[81.5939,17.4422],[81.6201,17.4672],[81.6949,17.4535],[81.7083,17.4292],[81.7397,17.4369],[81.7937,17.4171],[81.8241,17.4215],[81.8341,17.4534],[81.9147,17.4744],[81.9382,17.4384],[81.9689,17.4297],[82.0,17.4792],[82.0137,17.4661],[82.0368,17.4964],[82.0699,17.484],[82.125,17.5417],[82.2,17.5208],[82.2592,17.6033],[82.2983,17.6045],[82.3167,17.6292],[82.4,17.6375],[82.427,17.6172],[82.4701,17.6134],[82.4994,17.6384],[82.4953,17.6632],[82.5125,17.6875],[82.6,17.7],[82.6208,17.7417],[82.6718,17.7464],[82.703,17.7244],[82.7301,17.7506],[82.7549,17.7328],[82.8209,17.7638],[82.8299,17.7992],[82.8753,17.8386],[82.8708,17.8625],[82.8869,17.8645],[82.9048,18.024],[82.9941,18.0087],[83.0542,18.05],[83.0455,18.0767],[83.083,18.11],[83.084,18.1574],[83.1103,18.1786],[83.1755,18.1856],[83.1122,18.222],[83.1167,18.2625],[83.1375,18.275],[83.175,18.2625],[83.1757,18.2867],[83.1951,18.2883],[83.1923,18.3104],[83.2408,18.3467],[83.2464,18.3799],[83.2327,18.4114],[83.2095,18.4036],[83.2047,18.4397],[83.2292,18.4583],[83.2337,18.5066],[83.2538,18.5267],[83.2504,18.5691],[83.3291,18.6432],[83.3417,18.6875],[83.3663,18.6934],[83.3788,18.7267],[83.3703,18.7814],[83.3375,18.8042],[83.3509,18.8324],[83.3784,18.8285],[83.405,18.8535],[83.4625,18.8542],[83.5033,18.8283],[83.5217,18.7842],[83.577,18.7464],[83.665,18.7587],[83.7066,18.7496],[83.7233,18.7295],[83.758,18.7517],[83.7463,18.8021],[83.7738,18.8296],[83.8042,18.825],[83.8553,18.8505],[83.8782,18.8329],[83.9125,18.8375],[83.9257,18.866],[83.9781,18.8673],[83.9917,18.9083],[84.0142,18.9205],[84.0772,18.9215],[84.1008,18.9576],[84.1361,18.9452],[84.1467,18.966],[84.1993,18.9758],[84.2,19.0042],[84.2816,19.0129],[84.2833,19.0417],[84.341,19.1009],[84.3375,19.1208],[84.3012,19.1168],[84.3047,19.1799],[84.2831,19.197],[84.3089,19.2299],[84.2875,19.2854],[84.3203,19.3478],[84.3093,19.3829],[84.3672,19.4076],[84.3453,19.4615],[84.3617,19.5076],[84.342,19.5184],[84.3369,19.5507],[84.3837,19.6316],[84.4205,19.66],[84.4375,19.725],[84.4667,19.7292],[84.4105,19.766],[84.3867,19.7673],[84.3492,19.741],[84.3343,19.7546],[84.3167,19.7292],[84.2673,19.7426],[84.2842,19.7825],[84.3407,19.8171],[84.3542,19.8417],[84.3125,19.8417],[84.2759,19.8714],[84.2798,19.8987],[84.254,19.9179],[84.2503,19.9573],[84.2236,19.9417],[84.2,19.9854],[84.2324,19.9924],[84.2542,20.0208],[84.2816,20.0004],[84.3167,20.0417],[84.2994,20.0882],[84.3131,20.1632],[84.3038,20.2274],[84.2491,20.3158],[84.1792,20.3042],[84.1774,20.2754],[84.1316,20.2587],[84.0907,20.2839],[84.0595,20.2703],[84.0119,20.3549],[84.034,20.4445],[83.9845,20.4751],[83.9542,20.5208],[83.9384,20.5202],[83.8917,20.4958],[83.8899,20.4212],[83.8369,20.4631],[83.8244,20.4384],[83.7833,20.4292],[83.7774,20.4087],[83.6674,20.4368],[83.6121,20.3725],[83.6254,20.3559],[83.6167,20.3042],[83.5587,20.2858],[83.5507,20.2468],[83.575,20.2],[83.5187,20.1964],[83.491,20.2365],[83.4729,20.2453],[83.4549,20.2258],[83.4354,20.2458],[83.3812,20.1963],[83.3292,20.2167],[83.2908,20.1759],[83.2354,20.1588],[83.1801,20.191],[83.1917,20.1708],[83.1632,20.1616],[83.1578,20.1395],[83.1167,20.1083],[83.0792,20.1333],[83.0667,20.1875],[82.9167,20.175],[82.8826,20.1964],[82.8542,20.1708],[82.8137,20.1661],[82.8049,20.2326],[82.859,20.2527],[82.7667,20.325],[82.8284,20.3216],[82.7958,20.4125],[82.833,20.4767],[82.8283,20.5118],[82.7882,20.5259],[82.7729,20.5495],[82.7467,20.5423],[82.7083,20.5625],[82.7285,20.5801],[82.7783,20.7077],[82.7667,20.7167],[82.7384,20.6869],[82.6936,20.7036],[82.6583,20.675],[82.6458,20.7167],[82.5625,20.7417],[82.566,20.7948],[82.5792,20.8042],[82.5661,20.8326],[82.5909,20.851],[82.6,20.9042],[82.582,20.9375],[82.5,20.9542],[82.4708,21.0],[82.4353,21.0131],[82.4119,21.0449],[82.3792,21.0458],[82.3703,21.0841],[82.3958,21.1125],[82.3741,21.2118],[82.3583,21.2208],[82.3333,21.2083],[82.2417,21.2375],[82.1449,21.1911],[82.0193,21.2833],[81.9125,21.2708],[81.8691,21.2879],[81.8257,21.2658],[81.8035,21.2301],[81.7667,21.2208],[81.75,21.1792],[81.697,21.1831],[81.6407,21.241],[81.6142,21.242],[81.5521,21.2875],[81.5375,21.2792],[81.4855,21.3244],[81.3917,21.275],[81.4,21.35],[81.4288,21.3684],[81.4667,21.4458],[81.4333,21.4792],[81.4256,21.5189],[81.4631,21.5939],[81.5083,21.625],[81.4788,21.6865],[81.4467,21.6965],[81.4208,21.7292],[81.4411,21.7259],[81.4792,21.7875],[81.4496,21.8449],[81.4167,21.8667],[81.4839,21.8972],[81.475,21.9083],[81.4879,21.9225],[81.4203,22.073],[81.3542,22.1417],[81.3413,22.2108],[81.2993,22.2381],[81.2354,22.2046],[81.1926,22.234],[81.1917,22.2542],[81.2176,22.2702],[81.3042,22.2708],[81.2743,22.3241],[81.2145,22.3547],[81.1875,22.3917],[81.1922,22.4821],[81.1202,22.5449],[81.0458,22.575],[81.0379,22.5934],[81.0604,22.6329],[81.1375,22.6208],[81.1125,22.7042],[81.1542,22.75],[81.1173,22.7719],[81.1167,22.7917],[81.1325,22.7914],[81.1548,22.8462],[81.1504,22.9025],[81.1691,22.9212],[81.2,22.9083],[81.2333,22.975],[81.2662,22.9535],[81.3042,22.9792],[81.2962,22.9983],[81.3326,23.0341],[81.3125,23.0625],[81.325,23.0958],[81.3895,23.059],[81.4917,23.0625],[81.5384,23.0132],[81.5937,22.988],[81.65,22.9917],[81.65,23.0167],[81.7048,23.0369],[81.691,23.0955],[81.7149,23.1371],[81.7925,23.0425],[81.8286,23.0314],[81.8007,23.0158],[81.8173,22.9092],[81.8578,22.9353],[81.8589,22.9658],[81.9042,22.975],[81.9375,22.9],[81.9827,22.9301],[81.9881,22.9591],[81.9337,23.0309],[81.9504,23.0899],[82.0121,23.1176],[82.0218,23.1413],[82.0667,23.1667],[82.0958,23.1125],[82.0757,23.0991],[82.0507,23.0385],[82.1167,22.9208],[82.0837,22.8399],[82.0925,22.805],[82.1235,22.7958],[82.1342,22.8161],[82.1542,22.8167],[82.1958,22.7917],[82.2325,22.8034],[82.2542,22.7625],[82.3865,22.7535],[82.4283,22.6991],[82.4214,22.6468],[82.4506,22.6259],[82.447,22.6045],[82.5575,22.5701],[82.6077,22.5147],[82.575,22.45],[82.6267,22.3712],[82.6506,22.3826],[82.6625,22.4208],[82.6875,22.3583],[82.9024,22.3629],[82.9038,22.3934],[82.9189,22.4036],[83.0158,22.3533],[83.017,22.3142],[83.0392,22.2837],[83.0555,22.2744],[83.095,22.2965],[83.137,22.266],[83.173,22.2827],[83.2042,22.2667],[83.2208,22.2167],[83.25,22.2083],[83.2771,22.2202],[83.3217,22.1632],[83.3826,22.2134],[83.3924,22.2658],[83.4208,22.2792],[83.4425,22.23],[83.4976,22.192],[83.5326,22.2131],[83.5812,22.1756],[83.6034,22.1799],[83.6077,22.2022],[83.5887,22.2325],[83.6314,22.2328],[83.6744,22.1814],[83.6842,22.1424],[83.725,22.1292],[83.7601,22.092],[83.8066,22.0996],[83.8992,22.0799],[83.8952,22.1048],[83.9125,22.1292],[83.9243,22.1241],[83.9342,22.084],[83.9913,22.0274],[83.9855,22.0089],[83.9676,22.0077],[83.9754,21.9885],[84.0051,21.9631],[84.045,21.97],[84.08,21.9217],[84.1083,21.9292],[84.1229,21.913],[84.1542,21.9167],[84.1825,21.9425],[84.225,22.0167],[84.2713,22.0077],[84.3733,22.0545],[84.445,22.0493],[84.4468,22.0369],[84.5,22.025],[84.5397,22.0494],[84.6241,22.0077],[84.6121,21.978],[84.6292,21.9625],[84.617,21.8892],[84.6917,21.8667],[84.6958,21.8125],[84.6381,21.7366],[84.6292,21.6958],[84.6465,21.6865],[84.6369,21.6493],[84.6536,21.6272],[84.65,21.5833],[84.6827,21.5784],[84.6833,21.5625],[84.7491,21.5881],[84.8406,21.5827],[84.8639,21.5577],[84.8929,21.5797],[84.9608,21.5746],[85.0042,21.5208],[85.0328,21.5561],[85.0375,21.6],[85.0521,21.5875],[85.0897,21.5953],[85.1201,21.5703],[85.1625,21.5708],[85.192,21.6158],[85.2241,21.6325],[85.259,21.5838],[85.2298,21.5522],[85.2256,21.5005],[85.2083,21.4875],[85.2325,21.4741],[85.2476,21.4212],[85.2593,21.4338],[85.2908,21.4257],[85.3533,21.4673],[85.4142,21.458],[85.4333,21.4958],[85.4824,21.491],[85.5116,21.4506],[85.5406,21.4631],[85.5369,21.4882],[85.5625,21.5333],[85.6103,21.4965],[85.6631,21.4907],[85.6759,21.405],[85.7399,21.4163],[85.7854,21.4042],[85.8167,21.375],[85.895,21.3925],[85.8962,21.4324],[85.9522,21.438],[85.988,21.4655],[85.9833,21.4792],[86.0159,21.4619],[86.0854,21.4912],[86.1125,21.4792],[86.1826,21.5218],[86.1924,21.5784],[86.2238,21.5918],[86.2426,21.641],[86.3025,21.6205],[86.3625,21.6417],[86.3542,21.6958],[86.3786,21.7228],[86.3924,21.7991],[86.4438,21.8204],[86.4993,21.7967],[86.5295,21.8691],[86.5667,21.8792],[86.6103,21.9536],[86.6801,21.9244],[86.7476,21.958],[86.7996,21.9642],[86.734,22.1062],[86.7392,22.1246],[86.7726,22.1371],[86.8659,22.1422],[86.8792,22.1208],[86.9158,22.1285],[86.9395,22.1047],[86.9824,22.1202],[87.0708,22.05],[87.1458,22.0833],[87.2036,22.0355],[87.2387,21.9786],[87.2667,22.0],[87.2953,21.9702],[87.3188,21.9785],[87.3375,21.9625],[87.3507,21.9217],[87.4006,21.8905],[87.3958,21.8625],[87.4744,21.7855],[87.4958,21.7208],[87.5155,21.7294],[87.5375,21.675],[87.4351,21.658],[87.3271,21.5916],[87.3726,21.5781],[87.3551,21.5672],[87.3905,21.5453],[87.2311,21.5494],[87.1167,21.5125],[87.066,21.4592],[86.9966,21.42],[86.8958,21.3167],[86.8244,21.1905],[86.8244,21.1424],[86.9621,20.8649],[86.9633,20.7863],[86.9737,20.7746],[86.9919,20.7824],[87.0039,20.7217],[87.0215,20.7231],[86.9985,20.704],[87.045,20.705],[86.7922,20.5407],[86.7785,20.5093],[86.7583,20.5042],[86.7333,20.4083],[86.7923,20.3806],[86.7951,20.4323],[86.7966,20.3785],[86.8008,20.4252],[86.8173,20.4126],[86.8075,20.3717],[86.7604,20.3215],[86.7135,20.299],[86.7214,20.2847],[86.5424,20.1866],[86.4292,20.05],[86.3999,19.9853],[86.4206,19.9808],[86.4106,19.9807],[86.3676,19.9645],[86.3424,19.9846],[86.329,19.9815],[86.3741,19.9506],[86.1355,19.8672],[85.9145,19.8203],[85.6728,19.7411],[85.2853,19.5453],[85.1173,19.4241],[85.0878,19.3714],[84.9716,19.3074],[84.8125,19.1583],[84.8061,19.1214],[84.7388,19.032],[84.5875,18.8708],[84.5577,18.7927],[84.3631,18.5855],[84.3675,18.5599],[84.3181,18.533],[84.1504,18.3691],[84.1292,18.3417],[84.1274,18.3087],[83.7353,18.1203],[83.5708,18.0125],[83.545,17.9592],[83.4587,17.9032],[83.4576,17.8842],[83.4125,17.8458],[83.4119,17.8103],[83.3547,17.7522],[83.3488,17.7252],[83.2867,17.6757],[83.2458,17.6667],[83.2297,17.6355],[83.2422,17.6132],[83.2158,17.5882],[83.0172,17.5032],[82.995,17.4717],[82.6116,17.2884]],[[80.9292,15.725],[80.925,15.7292],[80.9259,15.7259],[80.9292,15.725]],[[80.9238,15.7337],[80.9203,15.7304],[80.925,15.7292],[80.9238,15.7337]],[[79.5917,16.675],[79.595,16.6717],[79.5958,16.675],[79.5917,16.675]],[[82.6125,17.2917],[82.5958,17.3042],[82.5958,17.2917],[82.6125,17.2917]],[[82.2746,16.5655],[82.278,16.5619],[82.2792,16.5667],[82.2746,16.5655]],[[82.2792,16.5667],[82.2881,16.5697],[82.2804,16.5714],[82.2792,16.5667]],[[80.9708,15.7875],[80.975,15.7833],[80.9741,15.7866],[80.9708,15.7875]],[[80.9762,15.7788],[80.9797,15.7821],[80.975,15.7833],[80.9762,15.7788]],[[80.9697,15.7921],[80.9661,15.7887],[80.9708,15.7875],[80.9697,15.7921]],[[80.9928,15.7663],[80.9964,15.7696],[80.9917,15.7708],[80.9928,15.7663]],[[80.9905,15.7754],[80.9869,15.772],[80.9917,15.7708],[80.9905,15.7754]],[[82.5042,17.4583],[82.4875,17.4625],[82.4759,17.4382],[82.5007,17.4328],[82.5042,17.4583]],[[84.3124,18.5343],[84.343,18.5582],[84.3042,18.55],[84.3124,18.5343]],[[84.7921,19.1169],[84.7881,19.1189],[84.787,19.1106],[84.7921,19.1169]],[[85.0741,19.3713],[85.0728,19.3744],[85.0701,19.3723],[85.0741,19.3713]],[[86.3058,20.0207],[86.3009,20.0173],[86.306,20.0171],[86.3058,20.0207]],[[86.2783,20.0217],[86.275,20.021],[86.275,20.0208],[86.2783,20.0217]],[[86.259,20.0222],[86.259,20.0217],[86.262,20.021],[86.259,20.0222]],[[86.2492,20.026],[86.2464,20.027],[86.2488,20.0244],[86.2492,20.026]],[[86.4214,20.0383],[86.4161,20.0359],[86.4194,20.0333],[86.4214,20.0383]],[[86.3124,20.0375],[86.3152,20.0344],[86.3172,20.0363],[86.3124,20.0375]],[[86.515,20.1794],[86.5149,20.1795],[86.5145,20.1795],[86.515,20.1794]],[[86.5405,20.2004],[86.5366,20.1968],[86.5408,20.1994],[86.5405,20.2004]],[[86.5648,20.2087],[86.5647,20.209],[86.5629,20.2085],[86.5648,20.2087]],[[86.69,20.3038],[86.6879,20.3017],[86.6958,20.2958],[86.69,20.3038]],[[86.6869,20.3105],[86.6819,20.312],[86.6875,20.3083],[86.6869,20.3105]],[[86.6681,20.3288],[86.6749,20.3256],[86.6741,20.3286],[86.6681,20.3288]],[[86.7542,20.5167],[86.7542,20.5125],[86.7589,20.5155],[86.7542,20.5167]],[[83.85,20.9583],[83.8361,20.9542],[83.8407,20.926],[83.8537,20.9437],[83.85,20.9583]],[[87.35,21.5708],[87.3478,21.5716],[87.3466,21.5719],[87.35,21.5708]],[[87.3238,21.5744],[87.3326,21.579],[87.3087,21.59],[87.3238,21.5744]],[[80.0917,16.7875],[80.0991,16.8283],[80.0532,16.8672],[80.0384,16.8467],[80.0703,16.8272],[80.0917,16.7875]],[[82.2458,16.7125],[82.262,16.7048],[82.2774,16.7075],[82.2458,16.7125]],[[82.2787,16.6391],[82.283,16.6396],[82.2818,16.6419],[82.2787,16.6391]],[[82.287,16.6225],[82.2913,16.6229],[82.2902,16.6253],[82.287,16.6225]],[[82.2912,16.6141],[82.2955,16.6146],[82.2943,16.6169],[82.2912,16.6141]],[[79.525,16.625],[79.492,16.6066],[79.4833,16.5667],[79.5167,16.575],[79.525,16.625]],[[79.1783,16.5314],[79.1696,16.5172],[79.1507,16.5318],[79.1175,16.5201],[79.1092,16.4924],[79.1491,16.4759],[79.1728,16.5119],[79.2171,16.5316],[79.1783,16.5314]],[[81.9583,16.4333],[81.9569,16.4256],[81.9625,16.4333],[81.9583,16.4333]],[[78.4084,16.0739],[78.3727,16.04],[78.3251,16.0267],[78.3987,16.0069],[78.4135,15.9802],[78.4338,15.9897],[78.441,15.9759],[78.4506,16.0007],[78.4083,16.0292],[78.4084,16.0739]],[[80.7787,15.8558],[80.783,15.8562],[80.7818,15.8586],[80.7787,15.8558]],[[80.7967,15.8215],[80.8089,15.8343],[80.7926,15.8506],[80.7967,15.8215]],[[80.8342,15.7533],[80.8366,15.7509],[80.8375,15.7542],[80.8342,15.7533]],[[80.8333,15.7417],[80.8333,15.7458],[80.8286,15.7429],[80.8333,15.7417]],[[80.8333,15.725],[80.8367,15.7175],[80.8381,15.7238],[80.8333,15.725]],[[81.7174,16.3449],[81.7244,16.3342],[81.725,16.3458],[81.7174,16.3449]]],[[[88.7417,21.6583],[88.6913,21.7441],[88.7087,21.7816],[88.6962,21.8608],[88.725,21.9333],[88.7215,21.9783],[88.7667,22.0167],[88.7458,22.0667],[88.7204,22.0535],[88.7,22.0792],[88.6831,22.0779],[88.6978,22.0547],[88.7378,22.0446],[88.7411,22.0136],[88.7167,22.0042],[88.68,21.9411],[88.6244,21.9577],[88.6339,21.998],[88.6629,22.0299],[88.631,22.1198],[88.6822,22.2011],[88.6755,22.2064],[88.6208,22.1125],[88.6381,22.0593],[88.5994,21.9757],[88.6161,21.9311],[88.5756,21.8783],[88.5575,21.8174],[88.5125,21.839],[88.5172,21.8551],[88.4833,21.8917],[88.5037,21.8146],[88.475,21.7958],[88.4577,21.7236],[88.4744,21.6729],[88.4534,21.6176],[88.4382,21.6137],[88.4342,21.6329],[88.4076,21.5966],[88.3881,21.6062],[88.3798,21.6866],[88.4,21.7083],[88.3542,21.6833],[88.3572,21.6426],[88.3171,21.6077],[88.3035,21.6093],[88.3092,21.6616],[88.2911,21.6032],[88.3089,21.5782],[88.2855,21.5589],[88.252,21.5589],[88.2324,21.6076],[88.2139,21.6168],[88.2118,21.5994],[88.1922,21.6311],[88.1786,21.6923],[88.1967,21.7367],[88.2071,21.7244],[88.2172,21.7757],[88.1672,21.8645],[88.1708,21.9167],[88.1494,21.9593],[88.2119,22.0353],[88.2203,22.1022],[88.1866,22.1866],[88.0675,22.209],[88.1036,22.2937],[88.0884,22.2994],[88.0792,22.2833],[88.0712,22.3017],[88.0715,22.423],[88.0881,22.4378],[88.0744,22.4699],[88.0909,22.4716],[88.0958,22.4958],[88.0634,22.5131],[88.0367,22.6118],[88.0167,22.6125],[88.0174,22.6294],[88.0459,22.6385],[88.0327,22.6752],[88.0417,22.7729],[88.0083,22.8708],[88.0256,22.9257],[88.0006,22.9603],[87.9917,23.0146],[88.0176,23.0616],[88.0545,23.0634],[88.0411,23.1449],[88.0596,23.1875],[88.1201,23.1674],[88.134,23.1997],[88.1202,23.2247],[88.1375,23.2625],[88.1125,23.2708],[88.1066,23.2913],[88.0083,23.3083],[88.009,23.3201],[88.0867,23.3427],[88.1076,23.3676],[88.116,23.4409],[88.0917,23.4583],[88.0792,23.5083],[88.1201,23.5507],[88.1292,23.5917],[88.1083,23.6333],[88.1288,23.6434],[88.1208,23.6667],[88.1464,23.7132],[88.1375,23.75],[88.0951,23.7453],[88.0451,23.7756],[87.9868,23.7494],[87.9542,23.7667],[88.0008,23.8285],[88.0615,23.8465],[88.0333,23.9042],[88.0814,23.9256],[88.1246,23.9691],[88.0917,23.9917],[88.0717,23.9869],[88.0574,23.959],[88.0228,23.9547],[87.875,24.0208],[87.8929,24.0547],[87.916,24.0509],[87.9509,24.1202],[87.9991,24.1259],[88.0089,24.1613],[87.9548,24.2009],[87.9333,24.3],[87.8532,24.3119],[87.8042,24.3375],[87.7478,24.3381],[87.7217,24.3675],[87.7422,24.4216],[87.7191,24.4621],[87.7,24.4625],[87.7297,24.5137],[87.7161,24.5897],[87.6923,24.6051],[87.658,24.6983],[87.667,24.7441],[87.6869,24.7647],[87.625,24.8125],[87.5845,24.8164],[87.5619,24.8466],[87.5667,24.8667],[87.5145,24.8797],[87.4864,24.9044],[87.4684,24.9038],[87.45,24.875],[87.3792,24.9],[87.3182,24.875],[87.2729,24.9079],[87.2257,24.8953],[87.1604,24.9125],[87.0313,24.8382],[86.9924,24.8368],[86.9829,24.7812],[86.9375,24.7333],[86.9327,24.77],[86.9146,24.7786],[86.9042,24.7667],[86.8689,24.7953],[86.8173,24.7676],[86.8125,24.8438],[86.7941,24.858],[86.7048,24.8467],[86.6409,24.966],[86.5899,25.0038],[86.4792,24.975],[86.4158,25.0575],[86.35,25.0542],[86.3596,25.0873],[86.3965,25.1007],[86.3757,25.1133],[86.3708,25.1583],[86.3191,25.167],[86.2949,25.1465],[86.1583,25.1292],[86.1167,25.0958],[86.1167,25.0625],[86.0524,25.108],[86.0146,25.1005],[85.9493,25.1256],[85.9125,25.1],[85.908,25.1184],[85.9413,25.1851],[85.9333,25.2125],[85.9034,25.2214],[85.8777,25.2042],[85.8532,25.2256],[85.8333,25.2167],[85.8875,25.3167],[85.8659,25.3365],[85.7554,25.3411],[85.7323,25.3702],[85.597,25.3581],[85.5625,25.3958],[85.5586,25.3633],[85.5305,25.3584],[85.5202,25.327],[85.4934,25.3129],[85.4792,25.3417],[85.4756,25.4549],[85.4608,25.4663],[85.3149,25.4996],[85.2483,25.5004],[85.1767,25.4795],[85.1494,25.5314],[85.1157,25.5506],[85.0943,25.525],[85.0354,25.5213],[85.0256,25.5616],[85.05,25.5792],[85.0458,25.6125],[84.9909,25.6089],[84.9614,25.5789],[84.9451,25.5881],[84.9189,25.5672],[84.8949,25.5714],[84.8571,25.5328],[84.773,25.5953],[84.7299,25.5883],[84.7292,25.6042],[84.6917,25.6125],[84.6659,25.5786],[84.6115,25.6006],[84.5375,25.5167],[84.5167,25.5125],[84.5121,25.4767],[84.4871,25.4517],[84.4783,25.3881],[84.4271,25.338],[84.3853,25.3286],[84.3218,25.2785],[84.2792,25.2208],[84.2962,25.1517],[84.2833,25.1],[84.3,25.0792],[84.248,25.0297],[84.1884,25.0076],[84.1909,24.9633],[84.1366,24.8881],[84.0843,24.8869],[84.0101,24.858],[84.0045,24.8108],[83.9691,24.7545],[83.9146,24.7708],[83.8816,24.808],[83.8434,24.8087],[83.8409,24.8285],[83.7437,24.8208],[83.6875,24.8875],[83.665,24.883],[83.6134,24.909],[83.5617,24.9575],[83.4952,24.9153],[83.4994,24.8978],[83.4708,24.8583],[83.4618,24.8825],[83.425,24.9042],[83.4375,24.9223],[83.4119,24.9569],[83.4292,24.975],[83.3733,24.992],[83.2687,24.9744],[83.25,24.9292],[83.2132,24.9426],[83.2083,24.9708],[83.1816,24.983],[83.1551,24.9827],[83.1538,24.9559],[83.127,24.9506],[83.0758,24.9631],[83.0267,25.008],[82.9792,24.9625],[82.9542,24.8625],[82.9146,24.8912],[82.7851,24.8837],[82.75,24.9167],[82.6145,24.9172],[82.5059,24.9462],[82.4272,24.9911],[82.352,24.9589],[82.3298,24.9717],[82.3167,25.025],[82.1576,25.0494],[82.125,25.1042],[82.1076,25.0953],[82.0701,25.1172],[82.0583,25.1],[82.0275,25.0955],[81.8551,25.1257],[81.8506,25.1588],[81.8159,25.1951],[81.7407,25.2005],[81.6759,25.1798],[81.65,25.2125],[81.6095,25.2254],[81.6032,25.2131],[81.5618,25.2119],[81.5292,25.2833],[81.4625,25.2917],[81.45,25.2625],[81.3976,25.2754],[81.4045,25.3142],[81.3816,25.3413],[81.3316,25.3504],[81.265,25.333],[81.2358,25.3663],[81.1684,25.3837],[81.1542,25.4208],[81.192,25.4465],[81.1951,25.4582],[81.1522,25.4244],[81.1217,25.4508],[81.1199,25.4742],[81.0566,25.4795],[80.9625,25.4375],[80.925,25.5042],[80.8625,25.4833],[80.8539,25.5116],[80.9419,25.6178],[80.9199,25.6577],[80.8687,25.6333],[80.7993,25.6547],[80.7554,25.6286],[80.7292,25.6417],[80.7125,25.6833],[80.6784,25.6703],[80.6186,25.6797],[80.5875,25.7042],[80.5253,25.7048],[80.4998,25.6785],[80.4521,25.7042],[80.4167,25.6875],[80.4046,25.7104],[80.4241,25.7577],[80.3896,25.7463],[80.3451,25.7589],[80.2833,25.7292],[80.2826,25.7493],[80.2436,25.7381],[80.2072,25.7586],[80.1593,25.741],[80.1495,25.759],[80.0806,25.7077],[80.0646,25.7244],[80.0242,25.7202],[79.9924,25.7383],[79.9917,25.7542],[79.9733,25.7496],[79.9354,25.775],[79.9208,25.7583],[79.9066,25.7871],[79.8625,25.7667],[79.8629,25.8441],[79.8958,25.8792],[79.87,25.855],[79.8245,25.8548],[79.7292,25.8083],[79.7288,25.86],[79.75,25.9],[79.6601,25.892],[79.6449,25.9702],[79.6159,25.9839],[79.597,25.9747],[79.5789,26.0136],[79.5839,26.048],[79.6259,26.0993],[79.6615,26.1133],[79.6355,26.1494],[79.6066,26.1254],[79.5509,26.1116],[79.5405,26.0831],[79.5243,26.0881],[79.5042,26.0667],[79.4905,26.0836],[79.4345,26.0661],[79.3875,26.1125],[79.3467,26.1259],[79.3547,26.1549],[79.3314,26.1744],[79.2147,26.0839],[79.125,26.1333],[79.0875,26.1083],[79.0566,26.1746],[78.9826,26.1786],[78.9081,26.2238],[78.8875,26.2167],[78.9,26.2625],[78.8798,26.2812],[78.8785,26.3188],[78.8438,26.35],[78.8125,26.3417],[78.7867,26.2841],[78.7646,26.2755],[78.7038,26.3405],[78.7171,26.3477],[78.6952,26.3671],[78.7044,26.3824],[78.6843,26.3921],[78.6292,26.3625],[78.6167,26.3875],[78.5875,26.3792],[78.5741,26.4075],[78.5218,26.4383],[78.5158,26.4742],[78.4924,26.4633],[78.4818,26.5083],[78.4429,26.4953],[78.3657,26.5297],[78.3349,26.5214],[78.3333,26.475],[78.3104,26.4589],[78.2322,26.5045],[78.2009,26.4952],[78.1744,26.4593],[78.175,26.4292],[78.1417,26.4458],[78.1423,26.4783],[78.1625,26.5042],[78.0938,26.4715],[78.0312,26.466],[78.0158,26.4331],[77.9583,26.4375],[77.967,26.4488],[77.9146,26.4667],[77.8812,26.4506],[77.8531,26.4715],[77.8218,26.4615],[77.8083,26.4208],[77.7554,26.4459],[77.7451,26.4134],[77.7064,26.3756],[77.6715,26.3716],[77.6702,26.398],[77.6478,26.4077],[77.6091,26.3659],[77.5909,26.3092],[77.562,26.3173],[77.5451,26.2925],[77.5075,26.2964],[77.4676,26.2784],[77.4536,26.2453],[77.4667,26.2042],[77.4125,26.1875],[77.3774,26.1545],[77.3422,26.1978],[77.324,26.2576],[77.2583,26.2542],[77.2324,26.3035],[77.205,26.3076],[77.1875,26.2833],[77.0792,26.3208],[77.084,26.3366],[77.15,26.3667],[77.2257,26.3661],[77.3063,26.437],[77.3341,26.4328],[77.3785,26.4551],[77.3881,26.5116],[77.4146,26.513],[77.4203,26.5272],[77.3634,26.5868],[77.4249,26.6184],[77.3816,26.658],[77.3417,26.6458],[77.3119,26.7424],[77.3635,26.7994],[77.4208,26.8333],[77.4297,26.8616],[77.5167,26.9125],[77.5494,26.9895],[77.525,27.0375],[77.5042,27.0417],[77.5242,27.0507],[77.5173,27.099],[77.4833,27.1417],[77.5042,27.15],[77.5051,27.1963],[77.5243,27.1841],[77.5491,27.2869],[77.5092,27.2925],[77.5079,27.3157],[77.4647,27.3411],[77.4259,27.3342],[77.4083,27.3625],[77.4415,27.4276],[77.4167,27.4625],[77.4672,27.5091],[77.4369,27.5509],[77.4545,27.6475],[77.4423,27.7199],[77.4583,27.7375],[77.4262,27.7506],[77.4161,27.7343],[77.3925,27.7342],[77.3949,27.766],[77.3554,27.7786],[77.3282,27.8327],[77.2967,27.8339],[77.3167,27.875],[77.2821,27.925],[77.2535,27.9348],[77.2878,27.97],[77.2702,27.9717],[77.2786,27.998],[77.27,28.0157],[77.2301,28.0256],[77.2212,28.0517],[77.2675,28.1825],[77.2858,28.2087],[77.3042,28.2042],[77.3244,28.2436],[77.3297,28.3343],[77.2957,28.3762],[77.2992,28.391],[77.2375,28.4167],[77.2125,28.4125],[77.225,28.4708],[77.1504,28.5309],[77.1455,28.5559],[77.1708,28.6083],[77.0983,28.6337],[77.0316,28.6163],[77.0007,28.6592],[76.9914,28.7033],[77.0297,28.7035],[77.0327,28.7323],[77.0576,28.7466],[77.0331,28.7989],[77.0417,28.8396],[77.0081,28.8678],[77.0135,28.8788],[77.0576,28.9047],[77.0951,28.8967],[77.1125,28.9208],[77.1575,28.9132],[77.195,28.9467],[77.1868,28.9992],[77.1625,29.0042],[77.1833,29.0146],[77.1702,29.074],[77.1951,29.08],[77.1994,29.102],[77.1917,29.1958],[77.2034,29.1966],[77.229,29.2824],[77.245,29.2878],[77.2369,29.3173],[77.2583,29.3333],[77.2545,29.3559],[77.2333,29.3667],[77.2546,29.4322],[77.2458,29.4583],[77.2994,29.527],[77.2952,29.5798],[77.3368,29.605],[77.3286,29.678],[77.4417,29.7667],[77.4414,29.8074],[77.4619,29.8354],[77.4504,29.8858],[77.4795,29.9566],[77.5129,29.935],[77.5292,29.8708],[77.5549,29.8661],[77.5795,29.9108],[77.5684,29.9621],[77.5833,29.9667],[77.6137,29.933],[77.6417,29.9458],[77.6634,29.9701],[77.7075,29.9842],[77.7625,30.0708],[77.8063,30.0458],[77.8917,30.0792],[77.8921,30.1021],[77.9174,30.1283],[78.0075,30.1783],[78.0417,30.1],[78.0701,30.0824],[78.075,30.0417],[78.1292,30.0042],[78.1465,29.9714],[78.1081,29.9492],[78.1175,29.8925],[78.1676,29.8381],[78.2333,29.8333],[78.228,29.7875],[78.1997,29.7866],[78.2,29.75],[78.2051,29.734],[78.2708,29.7083],[78.2661,29.6519],[78.2328,29.6136],[78.25,29.6083],[78.2619,29.577],[78.2286,29.526],[78.2328,29.4895],[78.2083,29.4542],[78.2625,29.4292],[78.2328,29.4049],[78.2494,29.3783],[78.2542,29.3042],[78.2338,29.2771],[78.2288,29.2225],[78.2547,29.1145],[78.2797,29.0757],[78.2667,29.0458],[78.275,28.9833],[78.2992,28.9826],[78.3256,28.9145],[78.3836,28.87],[78.3798,28.8479],[78.4034,28.8284],[78.4173,28.7635],[78.4631,28.7198],[78.4592,28.6921],[78.4911,28.6646],[78.4928,28.6209],[78.5262,28.5869],[78.5813,28.5913],[78.6283,28.5701],[78.6517,28.5337],[78.6704,28.5574],[78.6756,28.5302],[78.7866,28.4536],[78.824,28.466],[78.8301,28.434],[78.8506,28.4218],[78.8386,28.3965],[78.9034,28.3952],[78.9208,28.3512],[78.9667,28.3417],[78.975,28.3125],[79.0339,28.278],[79.0216,28.2467],[79.0493,28.2324],[79.0926,28.1382],[79.12,28.1282],[79.1345,28.0994],[79.1492,28.1075],[79.1453,28.0929],[79.1853,28.0506],[79.2241,28.0535],[79.2409,28.0369],[79.3042,28.0458],[79.3214,28.0321],[79.3298,27.9843],[79.3547,27.978],[79.3458,27.9542],[79.3699,27.9536],[79.3958,27.9167],[79.4104,27.9292],[79.4394,27.916],[79.4554,27.9666],[79.4983,27.967],[79.5246,27.985],[79.5172,28.0439],[79.5353,28.0661],[79.5882,27.9953],[79.6178,27.9914],[79.6658,28.0217],[79.6837,28.2108],[79.75,28.2208],[79.7745,28.2813],[79.7675,28.3076],[79.7839,28.3214],[79.7708,28.4],[79.7576,28.38],[79.7311,28.3797],[79.7157,28.4411],[79.688,28.4687],[79.7424,28.5449],[79.7988,28.5244],[79.8167,28.6292],[79.7542,28.6042],[79.762,28.6604],[79.7492,28.7201],[79.7258,28.7258],[79.7119,28.7547],[79.7214,28.8022],[79.7548,28.838],[79.7506,28.8796],[79.6917,28.9813],[79.7214,29.0161],[79.7119,29.0453],[79.7242,29.0532],[79.755,29.0007],[79.7826,28.9909],[79.7927,28.9425],[79.8292,28.9375],[79.8083,28.9558],[79.8042,29.0],[79.7381,29.0561],[79.7297,29.1147],[79.765,29.1379],[79.8108,29.1163],[79.8896,29.1333],[79.8965,29.1576],[79.9762,29.1964],[80.0426,29.1631],[80.0733,29.1754],[80.1449,29.1577],[80.1551,29.1047],[80.1866,29.0952],[80.2292,29.0458],[80.3125,29.0583],[80.4792,29.0208],[80.5115,28.9588],[80.4119,28.8631],[80.4275,28.833],[80.4608,28.8455],[80.4759,28.805],[80.4917,28.8],[80.4923,28.7645],[80.5375,28.6792],[80.534,28.6426],[80.5917,28.5917],[80.6083,28.5208],[80.6625,28.5667],[80.7316,28.5295],[80.755,28.6035],[80.783,28.5983],[80.775,28.5625],[80.7907,28.559],[80.8603,28.6869],[80.8801,28.6382],[80.9333,28.6125],[80.9203,28.6926],[80.9826,28.7426],[81.0083,28.8083],[81.1158,28.7744],[81.1467,28.734],[81.2059,28.6962],[81.2511,28.7461],[81.3533,28.7118],[81.375,28.6167],[81.425,28.5917],[81.4417,28.5542],[81.465,28.5538],[81.4833,28.5271],[81.4705,28.4975],[81.4788,28.4559],[81.4551,28.409],[81.5191,28.4038],[81.6042,28.3375],[81.6375,28.35],[81.7042,28.3375],[81.7866,28.295],[81.7926,28.2757],[81.8316,28.2788],[81.8667,28.2521],[81.8625,28.225],[81.7797,28.123],[81.7785,28.1009],[81.7333,28.0833],[81.7375,28.0708],[81.7823,28.0702],[81.8375,27.9875],[81.8733,27.983],[81.9226,27.9462],[82.1167,27.95],[82.152,27.9089],[82.253,27.8628],[82.2833,27.8292],[82.4025,27.7788],[82.4583,27.7292],[82.5691,27.7254],[82.623,27.7464],[82.6483,27.7754],[82.7208,27.7583],[82.7417,27.7792],[82.8,27.7667],[82.8287,27.7881],[82.8803,27.7961],[82.9991,27.7964],[83.0167,27.8333],[83.075,27.8375],[83.1095,27.8161],[83.1578,27.8116],[83.1954,27.7479],[83.1699,27.7087],[83.1173,27.6783],[83.122,27.6661],[83.1522,27.6714],[83.1955,27.7101],[83.2354,27.7958],[83.265,27.7879],[83.2851,27.8121],[83.3083,27.8125],[83.3083,27.7708],[83.3491,27.766],[83.3698,27.7453],[83.4534,27.7299],[83.4667,27.7542],[83.4715,27.7384],[83.5733,27.7038],[83.6573,27.7243],[83.6592,27.6842],[83.79,27.633],[83.9208,27.65],[83.9301,27.7327],[83.9958,27.7375],[84.0083,27.7667],[84.0353,27.7786],[84.0792,27.7625],[84.1149,27.7746],[84.1583,27.7542],[84.2,27.7667],[84.2009,27.7256],[84.2323,27.716],[84.2625,27.6625],[84.3483,27.6746],[84.3708,27.6417],[84.4667,27.6917],[84.4453,27.6216],[84.4551,27.6004],[84.4917,27.5833],[84.4958,27.4708],[84.6147,27.4536],[84.65,27.4333],[84.7938,27.441],[84.9,27.3792],[84.975,27.3583],[85.0917,27.3625],[85.0958,27.3208],[85.1201,27.3157],[85.1632,27.2619],[85.1929,27.2797],[85.2375,27.2583],[85.2615,27.2754],[85.2667,27.3042],[85.291,27.3116],[85.3493,27.2783],[85.3811,27.2089],[85.4458,27.1917],[85.4726,27.1629],[85.5283,27.1965],[85.552,27.2328],[85.6646,27.2327],[85.6937,27.2048],[85.8059,27.1629],[85.8333,27.1708],[85.8642,27.1295],[85.8823,27.1464],[85.9371,27.124],[85.9465,27.0884],[86.002,27.0214],[86.1066,27.0163],[86.1833,26.9875],[86.2311,26.9506],[86.2825,26.9533],[86.3476,26.9129],[86.4208,26.9083],[86.4603,26.8881],[86.5649,26.892],[86.6042,26.9792],[86.6226,26.9545],[86.7,26.9375],[86.709,26.9092],[86.7603,26.8631],[86.8274,26.8587],[86.8775,26.8837],[86.9522,26.8786],[86.9667,26.8667],[86.9535,26.8615],[86.9667,26.7889],[86.9881,26.7778],[86.9714,26.7479],[86.9958,26.7083],[87.0878,26.7489],[87.0074,26.6131],[86.9672,26.5855],[86.9762,26.5619],[87.0083,26.5792],[87.0464,26.6368],[87.0427,26.6534],[87.09,26.6837],[87.1392,26.7455],[87.1339,26.6968],[87.1509,26.6715],[87.1875,26.675],[87.1871,26.6309],[87.1208,26.525],[87.15,26.414],[87.1375,26.4042],[87.1908,26.37],[87.2037,26.3521],[87.2007,26.2967],[87.2336,26.2864],[87.2257,26.2217],[87.2458,26.2],[87.2254,26.1309],[87.2663,26.0441],[87.2965,25.8677],[87.366,25.8396],[87.3495,25.7551],[87.3792,25.7063],[87.3712,25.6934],[87.4042,25.6667],[87.445,25.6826],[87.4633,25.6466],[87.5667,25.6333],[87.5536,25.5716],[87.576,25.4962],[87.6042,25.4625],[87.6378,25.5136],[87.6333,25.5333],[87.6743,25.5242],[87.6591,25.4925],[87.7128,25.4447],[87.7005,25.4187],[87.7312,25.3838],[87.7542,25.375],[87.7714,25.3887],[87.7804,25.4422],[87.8608,25.4205],[87.8754,25.3642],[87.867,25.3017],[87.9049,25.2509],[87.9173,25.266],[87.9043,25.2903],[87.9201,25.3048],[87.95,25.2917],[87.9592,25.2466],[88.0243,25.2244],[88.0958,25.2583],[88.134,25.2157],[88.1258,25.1716],[88.1917,25.2042],[88.2118,25.1909],[88.2507,25.1093],[88.3333,25.0625],[88.3926,25.1868],[88.4333,25.1738],[88.455,25.109],[88.4792,25.1083],[88.4958,25.1583],[88.5345,25.1286],[88.5717,25.1616],[88.6042,25.1625],[88.6927,25.2131],[88.7086,25.2116],[88.7083,25.1833],[88.748,25.1881],[88.75,25.2083],[88.7896,25.1838],[88.8161,25.1949],[88.8167,25.1792],[88.8466,25.1619],[88.8917,25.1833],[88.9184,25.2538],[88.9489,25.2586],[88.9667,25.2292],[88.9896,25.2333],[89.0271,25.2125],[89.0561,25.2619],[89.1116,25.2203],[89.1417,25.2333],[89.1667,25.3333],[89.2159,25.3424],[89.2493,25.3714],[89.2708,25.3667],[89.2574,25.4118],[89.2134,25.4173],[89.1828,25.4868],[89.2125,25.5292],[89.2294,25.5239],[89.2395,25.4589],[89.2647,25.4547],[89.2881,25.4826],[89.275,25.5068],[89.2871,25.5483],[89.2621,25.6316],[89.2467,25.6366],[89.2326,25.6203],[89.2214,25.6353],[89.2712,25.7155],[89.2372,25.7553],[89.2292,25.8167],[89.2583,25.8333],[89.2845,25.7703],[89.3243,25.7839],[89.3595,25.7619],[89.4034,25.7633],[89.4169,25.7947],[89.4631,25.8158],[89.4536,25.8451],[89.475,25.8458],[89.4792,25.875],[89.55,25.85],[89.5669,25.8784],[89.5868,25.8799],[89.6208,25.9292],[89.5754,25.9434],[89.5746,25.985],[89.6405,25.9872],[89.6507,26.045],[89.6783,26.0424],[89.6936,26.0619],[89.7448,26.0494],[89.7625,26.0625],[89.7632,26.0466],[89.7855,26.0422],[89.8262,26.0839],[89.8667,26.0792],[89.8875,26.1125],[89.8715,26.1176],[89.8583,26.1542],[89.8868,26.18],[89.8917,26.2292],[89.9163,26.2309],[89.9583,26.4083],[89.9875,26.4],[90.0603,26.3215],[90.0833,26.3167],[90.0976,26.3413],[90.1367,26.3382],[90.1631,26.3955],[90.1591,26.4201],[90.175,26.4208],[90.1917,26.3354],[90.1833,26.3083],[90.2476,26.3538],[90.2345,26.3203],[90.2784,26.3381],[90.298,26.3297],[90.3375,26.35],[90.3285,26.3745],[90.3562,26.416],[90.4083,26.3875],[90.4375,26.4042],[90.4573,26.3952],[90.4793,26.4322],[90.5249,26.4639],[90.525,26.5542],[90.622,26.4624],[90.6582,26.4572],[90.6952,26.42],[90.6958,26.3917],[90.7201,26.3841],[90.75,26.4583],[90.7976,26.4379],[90.8119,26.4478],[90.8131,26.5074],[90.8422,26.5799],[90.825,26.6333],[90.8451,26.6161],[90.8783,26.6257],[90.8875,26.6458],[90.9042,26.6354],[90.875,26.5479],[90.8879,26.535],[90.8792,26.5125],[90.9583,26.5292],[90.9673,26.5003],[90.9548,26.477],[90.9801,26.4285],[91.0128,26.4367],[91.0092,26.4218],[91.06,26.4163],[91.075,26.4417],[91.1125,26.4417],[91.1077,26.3926],[91.0752,26.3564],[91.1275,26.3754],[91.1337,26.415],[91.1851,26.4371],[91.2091,26.4007],[91.248,26.4048],[91.2698,26.4175],[91.2719,26.4493],[91.2909,26.4507],[91.3008,26.4909],[91.3292,26.5],[91.3458,26.4833],[91.3426,26.4464],[91.3991,26.4451],[91.3968,26.4298],[91.4366,26.4158],[91.4647,26.3797],[91.4833,26.4125],[91.4705,26.4447],[91.4949,26.4507],[91.5125,26.4833],[91.5284,26.4826],[91.5342,26.4368],[91.5625,26.4458],[91.5909,26.43],[91.5924,26.445],[91.6202,26.4562],[91.6256,26.524],[91.6583,26.5458],[91.6534,26.4675],[91.641,26.4657],[91.659,26.4296],[91.6285,26.3799],[91.6476,26.3295],[91.6631,26.3463],[91.6718,26.4159],[91.7114,26.442],[91.725,26.475],[91.7464,26.4343],[91.7421,26.4104],[91.7842,26.3673],[91.81,26.3705],[91.8208,26.3917],[91.8375,26.375],[91.8799,26.4324],[91.9062,26.4131],[91.9532,26.4382],[91.9625,26.4708],[92.0226,26.458],[92.0705,26.5142],[92.075,26.5458],[92.1017,26.5045],[92.1374,26.5053],[92.155,26.5325],[92.1833,26.5417],[92.1705,26.5803],[92.1833,26.6042],[92.2569,26.5535],[92.2958,26.5958],[92.3368,26.5841],[92.3566,26.5996],[92.3792,26.5583],[92.4601,26.608],[92.5063,26.5875],[92.5208,26.6],[92.4967,26.6174],[92.4917,26.6458],[92.5184,26.6413],[92.5743,26.6758],[92.5833,26.7167],[92.6228,26.6131],[92.6851,26.6413],[92.7372,26.6429],[92.7701,26.6635],[92.7923,26.7444],[92.7594,26.7674],[92.7417,26.8042],[92.765,26.808],[92.7993,26.7703],[92.8244,26.7781],[92.8436,26.7381],[92.8658,26.7465],[92.8333,26.8208],[92.874,26.8298],[92.9436,26.8994],[93.025,26.95],[93.0483,26.942],[93.0887,26.9714],[93.1199,26.9618],[93.1858,26.9288],[93.2314,26.8839],[93.3042,26.9458],[93.3129,26.972],[93.3009,26.9911],[93.3855,26.9797],[93.409,27.0158],[93.4375,27.025],[93.4603,26.9922],[93.4993,27.0047],[93.5316,26.9962],[93.5424,27.0159],[93.7066,27.0629],[93.7542,27.0958],[93.7458,27.1417],[93.8167,27.175],[93.8375,27.2292],[93.8255,27.2438],[93.8494,27.2718],[93.8292,27.3208],[93.8792,27.3375],[93.9458,27.2875],[94.01,27.2871],[94.0246,27.3191],[93.9837,27.3684],[93.9788,27.4017],[94.0342,27.4533],[94.0958,27.4792],[94.1667,27.4583],[94.2326,27.4964],[94.2808,27.4834],[94.2596,27.5297],[94.2896,27.4792],[94.325,27.4875],[94.3078,27.551],[94.3375,27.5833],[94.4125,27.5917],[94.4296,27.6365],[94.3897,27.6619],[94.3417,27.6667],[94.3559,27.6871],[94.4741,27.7076],[94.4738,27.6834],[94.4382,27.67],[94.4333,27.6375],[94.4728,27.6006],[94.6208,27.6583],[94.6761,27.6122],[94.691,27.6217],[94.7006,27.7073],[94.725,27.725],[94.7379,27.7816],[94.8189,27.7881],[94.8908,27.8215],[94.8929,27.8506],[94.9042,27.8375],[94.945,27.8509],[95.0116,27.9215],[95.0047,27.9564],[95.0365,27.9921],[95.0385,28.0243],[95.0658,28.0325],[95.084,28.0091],[95.091,27.9677],[95.0747,27.9301],[95.2331,27.8991],[95.2256,27.8729],[95.2425,27.842],[95.2743,27.8259],[95.2828,27.8939],[95.1426,27.959],[95.1134,28.0366],[95.2103,28.0786],[95.2743,28.0369],[95.3149,28.0587],[95.3292,28.0875],[95.37,28.1092],[95.4134,28.1785],[95.4464,28.1887],[95.4667,28.2542],[95.4339,28.323],[95.4729,28.362],[95.5049,28.3494],[95.5625,28.4],[95.5917,28.375],[95.5705,28.3392],[95.5917,28.3042],[95.575,28.2458],[95.63,28.0966],[95.6631,28.0713],[95.6549,28.0049],[95.6759,27.9953],[95.7517,28.0955],[95.8458,28.1542],[95.7754,28.0733],[95.7625,27.9958],[95.8292,27.9458],[95.8292,27.925],[95.9083,27.9542],[95.926,27.9287],[95.9708,27.9417],[95.9534,27.8841],[95.9091,27.8531],[95.9076,27.8344],[95.8212,27.7934],[95.8303,27.7788],[95.8783,27.7952],[95.9104,27.7755],[95.9616,27.7908],[95.9583,27.7417],[95.9917,27.675],[96.0542,27.6333],[96.0449,27.5882],[96.0172,27.5647],[96.025,27.5292],[95.9684,27.5496],[95.9452,27.5282],[95.9657,27.5074],[95.9616,27.4923],[95.9083,27.4875],[95.7688,27.5333],[95.7159,27.5119],[95.6326,27.5286],[95.5542,27.5625],[95.5369,27.5407],[95.5576,27.5241],[95.5632,27.4801],[95.5922,27.4549],[95.5423,27.4324],[95.5413,27.3926],[95.4925,27.3925],[95.5037,27.4188],[95.4909,27.4297],[95.4345,27.4078],[95.4021,27.4287],[95.3458,27.4208],[95.2301,27.366],[95.1836,27.3134],[95.145,27.2994],[95.125,27.3125],[95.1121,27.303],[95.1208,27.2833],[95.0395,27.2619],[95.0325,27.2257],[94.9875,27.2236],[95.0131,27.1906],[95.0093,27.1546],[95.0625,27.1458],[95.0241,27.0882],[94.9993,27.0828],[94.9512,27.1047],[94.9079,27.0744],[94.8926,27.0785],[94.9,27.0042],[94.9214,26.9716],[94.8786,26.9051],[94.8743,26.8717],[94.8507,26.8801],[94.8408,26.9202],[94.7771,26.9454],[94.7458,26.9417],[94.7339,26.8686],[94.7733,26.8621],[94.7879,26.8392],[94.7574,26.7298],[94.7053,26.7038],[94.6581,26.7091],[94.6542,26.7417],[94.5917,26.7458],[94.6042,26.725],[94.5551,26.6996],[94.5174,26.6616],[94.5033,26.6134],[94.4535,26.5759],[94.3854,26.5829],[94.3158,26.5298],[94.2917,26.5417],[94.2728,26.5297],[94.2201,26.5589],[94.1333,26.55],[94.1167,26.5333],[94.0519,26.5495],[94.0092,26.5159],[94.0244,26.4717],[93.9833,26.4458],[93.9702,26.4837],[93.9923,26.5449],[93.9342,26.5548],[93.8105,26.6203],[93.7542,26.6333],[93.7625,26.6167],[93.7491,26.6007],[93.6542,26.5917],[93.6274,26.5504],[93.5996,26.5434],[93.6,26.5167],[93.5691,26.5045],[93.5533,26.5202],[93.5075,26.5172],[93.4948,26.4965],[93.4395,26.4911],[93.4272,26.4672],[93.3674,26.4493],[93.3667,26.4375],[93.2858,26.458],[93.1688,26.45],[93.0772,26.3964],[93.0333,26.3917],[92.9295,26.2983],[92.925,26.275],[92.9059,26.2754],[92.8886,26.3007],[92.8742,26.2549],[92.8509,26.2491],[92.837,26.2219],[92.8505,26.2094],[92.8458,26.1724],[92.8274,26.1629],[92.7868,26.1839],[92.6979,26.1708],[92.6275,26.192],[92.6062,26.175],[92.5772,26.2036],[92.5375,26.2083],[92.5417,26.1667],[92.5032,26.1672],[92.4342,26.0991],[92.4054,26.0453],[92.388,26.0646],[92.4006,26.0821],[92.3538,26.1574],[92.25,26.1708],[92.2535,26.1174],[92.1917,26.0917],[92.1743,26.1283],[92.122,26.1667],[92.0825,26.1258],[92.0049,26.0866],[91.9783,26.0466],[91.9396,26.0338],[91.9243,26.0547],[91.875,26.0375],[91.8449,26.0547],[91.7509,26.0048],[91.7191,26.0462],[91.634,25.9824],[91.6283,25.9549],[91.577,25.9786],[91.5092,25.9451],[91.4741,25.9036],[91.4672,25.9405],[91.4353,25.9702],[91.4119,25.9162],[91.4659,25.8742],[91.4617,25.8468],[91.3509,25.8298],[91.3338,25.8854],[91.3417,25.9125],[91.2594,25.8784],[91.2202,25.8527],[91.2334,25.8263],[91.191,25.7922],[91.1924,25.7716],[91.2125,25.7625],[91.1953,25.7382],[91.2042,25.7083],[91.1549,25.7175],[91.1536,25.7841],[91.1785,25.8052],[91.1922,25.8509],[91.1833,25.8667],[91.1542,25.8583],[91.1417,25.875],[91.0579,25.801],[90.9712,25.7615],[90.9524,25.7254],[90.9076,25.7547],[90.8603,25.7422],[90.8458,25.7708],[90.9,25.8417],[90.8559,25.8587],[90.8542,25.8833],[90.8208,25.8667],[90.7962,25.8892],[90.7858,25.933],[90.7042,25.8667],[90.7003,25.8905],[90.675,25.9042],[90.5708,25.9],[90.5786,25.9593],[90.608,26.0059],[90.5937,26.0333],[90.5366,25.9592],[90.4963,25.9354],[90.4993,25.9051],[90.4708,25.875],[90.4338,25.8965],[90.4135,25.8952],[90.4032,25.8706],[90.3708,25.875],[90.3171,25.7937],[90.3462,25.7475],[90.3342,25.7257],[90.3662,25.7021],[90.3453,25.6716],[90.3708,25.575],[90.327,25.5672],[90.291,25.6074],[90.2208,25.6208],[90.2108,25.5879],[90.1699,25.5964],[90.1506,25.5702],[90.1216,25.5799],[90.1115,25.609],[90.0801,25.6007],[90.0532,25.6284],[90.0301,25.6282],[90.0416,25.6097],[90.0202,25.5945],[90.0328,25.5688],[90.0122,25.5576],[90.0125,25.525],[90.059,25.4841],[90.0496,25.4392],[89.9917,25.4083],[89.983,25.3767],[89.9478,25.3703],[89.9331,25.347],[89.9074,25.3589],[89.8384,25.3411],[89.8007,25.3034],[89.8025,25.2581],[89.7676,25.2366],[89.7586,25.1718],[89.7333,25.1625],[89.7161,25.1238],[89.7297,25.0988],[89.725,25.0542],[89.7542,25.0667],[89.7756,25.0488],[89.7917,24.9958],[89.8256,24.9548],[89.8206,24.9384],[89.8458,24.9167],[89.8839,24.9237],[89.8802,24.8994],[89.9158,24.9075],[89.925,24.8833],[89.9133,24.8424],[89.9423,24.813],[89.9355,24.7798],[89.8965,24.7783],[89.903,24.7376],[89.8715,24.7272],[89.875,24.6417],[89.8547,24.6189],[89.8534,24.5539],[89.8368,24.5465],[89.8632,24.4633],[89.8917,24.4458],[89.9036,24.4104],[89.8673,24.3855],[89.8667,24.3667],[89.8826,24.3617],[89.8661,24.3007],[89.8836,24.2655],[89.8875,24.1833],[89.8758,24.1826],[89.8619,24.1162],[89.909,23.9944],[89.8994,23.9545],[89.9531,23.9368],[89.9571,23.9208],[89.9257,23.9118],[89.9244,23.8945],[89.9785,23.8533],[89.9887,23.8168],[90.0333,23.8167],[90.016,23.7919],[90.0259,23.762],[90.0661,23.7715],[90.0958,23.7458],[90.112,23.6979],[90.0923,23.6677],[90.1542,23.5667],[90.1092,23.5075],[90.125,23.4792],[90.0875,23.4667],[90.1008,23.4133],[90.1333,23.4042],[90.109,23.3949],[90.0952,23.3468],[90.059,23.3284],[90.0371,23.2684],[90.0381,23.2134],[90.0833,23.1917],[90.1716,23.2172],[90.2948,23.1915],[90.3039,23.209],[90.3133,23.1789],[90.325,23.1833],[90.322,23.1543],[90.3631,23.1486],[90.2941,23.0837],[90.2292,23.0625],[90.2288,22.9726],[90.2048,22.9241],[90.2208,22.9],[90.2449,22.9128],[90.2468,22.8994],[90.2958,22.8917],[90.2846,22.8372],[90.3066,22.8371],[90.3042,22.8125],[90.328,22.8169],[90.3412,22.7938],[90.3292,22.725],[90.2583,22.7042],[90.3,22.6125],[90.2908,22.5882],[90.2716,22.5828],[90.2301,22.5965],[90.203,22.6253],[90.1726,22.6163],[90.1213,22.5729],[90.1284,22.5509],[90.0716,22.499],[90.057,22.4541],[90.0341,22.4617],[90.0299,22.4344],[90.0506,22.4045],[90.0369,22.3837],[90.0536,22.3563],[90.0466,22.3174],[90.0656,22.3159],[90.0917,22.275],[90.0708,22.2208],[90.0212,22.2025],[90.0212,22.1809],[90.0629,22.1595],[90.0214,22.1314],[90.0244,22.077],[89.9756,22.0314],[89.9922,21.9618],[89.9689,21.9422],[89.9342,21.9545],[89.9154,22.0208],[89.8925,22.0128],[89.8971,22.0374],[89.9132,22.0336],[89.8952,22.061],[89.909,22.1462],[89.8744,22.2396],[89.8621,22.2327],[89.8494,22.2549],[89.8994,22.3395],[89.8994,22.3781],[89.9739,22.4378],[89.9869,22.4687],[89.9882,22.495],[90.0125,22.4958],[89.9845,22.5006],[89.9788,22.4559],[89.9566,22.4295],[89.8975,22.3871],[89.8792,22.3958],[89.8913,22.3601],[89.8462,22.2816],[89.8379,22.2267],[89.8746,22.1983],[89.8955,22.1309],[89.8483,22.0629],[89.8042,22.0708],[89.858,22.0358],[89.8788,21.8976],[89.8559,21.8705],[89.8417,21.875],[89.8411,21.8509],[89.7802,21.8286],[89.7698,21.8494],[89.7458,21.8542],[89.7257,21.8286],[89.6926,21.8422],[89.6759,21.8328],[89.666,21.8741],[89.6559,21.8538],[89.6292,21.8708],[89.7047,21.7926],[89.6939,21.7631],[89.6632,21.7494],[89.6078,21.7637],[89.6083,21.8042],[89.5911,21.7632],[89.6125,21.7223],[89.5966,21.7119],[89.5635,21.7131],[89.5328,21.7659],[89.5464,21.7929],[89.5297,21.8355],[89.5544,21.8554],[89.5381,21.9616],[89.6004,22.1309],[89.5478,22.2078],[89.5839,22.1074],[89.5324,21.9911],[89.5078,22.0219],[89.5339,22.0801],[89.5131,22.1011],[89.4756,22.2176],[89.4912,22.2646],[89.4744,22.3022],[89.4339,22.352],[89.4464,22.4052],[89.4286,22.4855],[89.4083,22.5208],[89.4412,22.3854],[89.4257,22.3468],[89.4797,22.2759],[89.4589,22.202],[89.5214,22.0718],[89.4968,22.0286],[89.4744,22.036],[89.5131,21.9591],[89.5119,21.9135],[89.4535,21.905],[89.4755,21.9033],[89.4535,21.8498],[89.4757,21.7869],[89.4532,21.7551],[89.4159,21.7216],[89.3914,21.7202],[89.3548,21.7562],[89.3452,21.8132],[89.3785,21.877],[89.384,21.9127],[89.3507,22.0145],[89.3667,22.05],[89.3422,22.0272],[89.3547,21.9826],[89.3449,21.9703],[89.2881,22.0561],[89.3047,22.0884],[89.299,22.0952],[89.2619,22.0926],[89.2839,22.148],[89.3203,22.1853],[89.3083,22.2125],[89.3121,22.1809],[89.2795,22.1566],[89.2663,22.11],[89.2458,22.1],[89.2618,22.0828],[89.2964,22.0841],[89.2797,22.052],[89.3631,21.9132],[89.3619,21.8968],[89.325,21.875],[89.3715,21.8795],[89.3369,21.8133],[89.3346,21.7834],[89.3074,21.8506],[89.3035,21.8174],[89.2785,21.8326],[89.2744,21.8747],[89.2952,21.9021],[89.2904,21.9125],[89.2596,21.9125],[89.2355,21.941],[89.2077,21.9535],[89.2458,21.9833],[89.2049,21.9615],[89.2035,21.9492],[89.2175,21.934],[89.2397,21.9327],[89.2501,21.9137],[89.2881,21.9037],[89.2715,21.8813],[89.2672,21.8354],[89.291,21.7897],[89.2789,21.6968],[89.2965,21.6764],[89.2438,21.6506],[89.2051,21.6544],[89.2244,21.7104],[89.1764,21.8051],[89.1918,21.8342],[89.2085,21.9091],[89.17,21.8008],[89.157,21.791],[89.1003,21.8092],[89.0994,21.8688],[89.0785,21.8992],[89.091,22.0063],[89.0464,22.0895],[89.0667,22.125],[89.0217,22.163],[89.0199,22.2032],[88.9674,22.2093],[88.9619,22.2397],[88.95,22.25],[88.9672,22.1728],[88.9759,22.1592],[88.9875,22.1542],[88.9716,22.195],[89.016,22.1993],[89.0174,22.1591],[89.0535,22.1313],[89.0327,22.0918],[89.0798,21.996],[89.0576,21.9239],[89.0632,21.8854],[89.0882,21.861],[89.0798,21.8104],[89.1325,21.7739],[89.1492,21.7297],[89.1088,21.7174],[89.041,21.7849],[89.0577,21.8604],[89.0239,21.9038],[89.0263,21.9249],[89.0151,21.8993],[89.0021,21.9007],[88.9298,21.9396],[88.9257,21.9646],[88.9465,21.9915],[88.934,22.0618],[88.9743,22.0729],[88.9965,22.1332],[88.9875,22.15],[88.9701,22.0759],[88.9244,22.0593],[88.9381,21.9966],[88.9216,21.9786],[88.9047,22.0314],[88.9083,21.9292],[89.0339,21.8635],[89.0214,21.7686],[89.0964,21.6676],[89.0952,21.6343],[89.0674,21.6161],[89.0417,21.6208],[89.0213,21.5994],[88.9592,21.6132],[88.9369,21.645],[88.9548,21.6829],[88.9492,21.6995],[88.9202,21.718],[88.9298,21.737],[88.9208,21.7583],[88.9174,21.7175],[88.9453,21.6896],[88.9242,21.63],[88.8931,21.6459],[88.8702,21.695],[88.8786,21.7563],[88.8341,21.7798],[88.8536,21.8813],[88.8161,21.9245],[88.8536,21.9119],[88.8625,21.9167],[88.8272,21.9369],[88.8,21.9208],[88.8423,21.8918],[88.8215,21.8354],[88.834,21.813],[88.8243,21.7918],[88.8354,21.7673],[88.8673,21.7614],[88.841,21.7127],[88.8618,21.6354],[88.8485,21.616],[88.8077,21.6307],[88.8201,21.6604],[88.8138,21.7069],[88.8002,21.6535],[88.7752,21.6632],[88.7417,21.6583]],[[88.7493,22.0676],[88.75,22.075],[88.7458,22.0667],[88.7493,22.0676]],[[88.7546,22.0762],[88.7512,22.0797],[88.75,22.075],[88.7546,22.0762]],[[88.7155,22.0087],[88.7119,22.0054],[88.7167,22.0042],[88.7155,22.0087]],[[88.475,21.7958],[88.467,21.7991],[88.4675,21.7965],[88.475,21.7958]],[[88.353,21.6879],[88.3494,21.6845],[88.3542,21.6833],[88.353,21.6879]],[[88.1708,21.9167],[88.1741,21.9247],[88.1715,21.9242],[88.1708,21.9167]],[[90.4587,25.897],[90.4554,25.9006],[90.4542,25.8958],[90.4587,25.897]],[[89.9012,22.0579],[89.9047,22.0613],[89.9,22.0625],[89.9012,22.0579]],[[89.8405,21.8796],[89.8369,21.8762],[89.8417,21.875],[89.8405,21.8796]],[[89.7452,21.8647],[89.741,21.8555],[89.7458,21.8542],[89.7452,21.8647]],[[89.6292,21.8708],[89.6262,21.8797],[89.6244,21.8721],[89.6292,21.8708]],[[89.6083,21.8042],[89.6042,21.8083],[89.605,21.805],[89.6083,21.8042]],[[89.6033,21.8118],[89.5958,21.8125],[89.6042,21.8083],[89.6033,21.8118]],[[89.5958,21.8125],[89.5917,21.8167],[89.5925,21.8134],[89.5958,21.8125]],[[89.5917,21.8167],[89.5875,21.8208],[89.5884,21.8175],[89.5917,21.8167]],[[89.5875,21.8208],[89.5833,21.825],[89.5842,21.8217],[89.5875,21.8208]],[[89.5824,21.8285],[89.575,21.8292],[89.5833,21.825],[89.5824,21.8285]],[[89.575,21.8292],[89.5708,21.8333],[89.5717,21.83],[89.575,21.8292]],[[89.5642,21.8337],[89.565,21.8413],[89.5583,21.8417],[89.5642,21.8337]],[[89.5572,21.8462],[89.5536,21.8429],[89.5583,21.8417],[89.5572,21.8462]],[[89.325,21.875],[89.3208,21.8708],[89.3241,21.8717],[89.325,21.875]],[[89.3163,21.8697],[89.3196,21.8661],[89.3208,21.8708],[89.3163,21.8697]],[[89.0667,22.125],[89.0708,22.1292],[89.0675,22.1283],[89.0667,22.125]],[[89.0754,22.1303],[89.072,22.1339],[89.0708,22.1292],[89.0754,22.1303]],[[89.025,21.925],[89.0208,21.9292],[89.0217,21.9259],[89.025,21.925]],[[89.0208,21.9292],[89.0167,21.9333],[89.0175,21.93],[89.0208,21.9292]],[[89.0167,21.9333],[89.0125,21.9375],[89.0134,21.9342],[89.0167,21.9333]],[[89.0125,21.9375],[89.0045,21.9408],[89.005,21.9382],[89.0125,21.9375]],[[89.0405,21.6254],[89.0369,21.622],[89.0417,21.6208],[89.0405,21.6254]],[[88.4,21.8792],[88.3958,21.875],[88.3991,21.8759],[88.4,21.8792]],[[88.4046,21.8803],[88.4012,21.8839],[88.4,21.8792],[88.4046,21.8803]],[[88.3375,21.7042],[88.3417,21.7],[88.3408,21.7033],[88.3375,21.7042]],[[88.3428,21.6954],[88.3464,21.6988],[88.3417,21.7],[88.3428,21.6954]],[[88.3363,21.7087],[88.3328,21.7054],[88.3375,21.7042],[88.3363,21.7087]],[[88.9012,22.1496],[88.9047,22.153],[88.9,22.1542],[88.9012,22.1496]],[[88.8988,22.1587],[88.8953,22.1554],[88.9,22.1542],[88.8988,22.1587]],[[88.9204,22.0947],[88.9238,22.0911],[88.925,22.0958],[88.9204,22.0947]],[[88.925,22.0958],[88.9284,22.112],[88.9257,22.1118],[88.925,22.0958]],[[88.9019,22.0786],[88.8912,22.0635],[88.9042,22.0542],[88.8996,22.0684],[88.9019,22.0786]],[[88.9048,22.0395],[88.909,22.0527],[88.9042,22.0542],[88.9048,22.0395]],[[88.9087,22.0803],[88.9054,22.0839],[88.9042,22.0792],[88.9087,22.0803]],[[89.0833,22.1542],[89.0792,22.15],[89.0825,22.1509],[89.0833,22.1542]],[[89.0746,22.1488],[89.078,22.1453],[89.0792,22.15],[89.0746,22.1488]],[[89.0879,22.1553],[89.0845,22.1589],[89.0833,22.1542],[89.0879,22.1553]],[[89.0913,22.1447],[89.0946,22.1411],[89.0958,22.1458],[89.0913,22.1447]],[[89.1004,22.147],[89.097,22.1506],[89.0958,22.1458],[89.1004,22.147]],[[89.2167,22.0958],[89.2292,22.0833],[89.225,22.1],[89.2167,22.0958]],[[89.2155,22.1004],[89.2119,22.097],[89.2167,22.0958],[89.2155,22.1004]],[[89.4667,22.1417],[89.4634,22.1337],[89.466,22.1342],[89.4667,22.1417]],[[89.4667,22.1417],[89.4756,22.1447],[89.4679,22.1464],[89.4667,22.1417]],[[89.4345,21.9454],[89.4381,21.9488],[89.4333,21.95],[89.4345,21.9454]],[[89.4322,21.9546],[89.4286,21.9512],[89.4333,21.95],[89.4322,21.9546]],[[89.45,21.9417],[89.458,21.9384],[89.4575,21.941],[89.45,21.9417]],[[89.45,21.9417],[89.442,21.9449],[89.4425,21.9423],[89.45,21.9417]],[[89.7176,21.8965],[89.725,21.8958],[89.7167,21.9],[89.7176,21.8965]],[[89.7262,21.8913],[89.7282,21.8932],[89.725,21.8958],[89.7262,21.8913]],[[89.7155,21.9046],[89.7119,21.9012],[89.7167,21.9],[89.7155,21.9046]],[[81.2125,26.7583],[81.1708,26.7667],[81.2042,26.7375],[81.2125,26.7583]],[[89.53,22.7092],[89.5325,22.7116],[89.5292,22.7125],[89.53,22.7092]],[[89.5333,22.6875],[89.5381,22.6988],[89.5333,22.7],[89.5333,22.6875]],[[89.53,22.6575],[89.5325,22.655],[89.5333,22.6583],[89.53,22.6575]],[[89.5259,22.645],[89.5283,22.6425],[89.5292,22.6458],[89.5259,22.645]],[[90.0257,22.6408],[90.025,22.6333],[90.0292,22.6417],[90.0257,22.6408]],[[90.0542,22.6292],[90.05,22.625],[90.0533,22.6259],[90.0542,22.6292]],[[89.525,22.6208],[89.5216,22.6283],[89.5203,22.622],[89.525,22.6208]],[[90.05,22.6208],[90.0458,22.6167],[90.0491,22.6175],[90.05,22.6208]],[[89.5542,22.5792],[89.533,22.6066],[89.525,22.6125],[89.5295,22.6017],[89.5542,22.5792]],[[90.0375,22.6083],[90.0167,22.6042],[90.0292,22.575],[90.0375,22.6083]],[[90.0215,22.5701],[90.0256,22.5288],[90.0167,22.4958],[90.0288,22.5184],[90.0215,22.5701]],[[89.5726,22.233],[89.5542,22.2125],[89.5871,22.2267],[89.5913,22.2767],[89.633,22.3351],[89.6246,22.3983],[89.5833,22.5083],[89.5881,22.4437],[89.6256,22.3547],[89.5786,22.263],[89.5867,22.2382],[89.5726,22.233]],[[89.5825,22.5158],[89.58,22.5134],[89.5833,22.5125],[89.5825,22.5158]],[[89.5667,22.5583],[89.5757,22.5217],[89.5792,22.5208],[89.5786,22.5355],[89.5667,22.5583]],[[89.4116,22.5259],[89.4092,22.5283],[89.4083,22.525],[89.4116,22.5259]],[[89.4256,22.551],[89.4083,22.5625],[89.4214,22.5507],[89.4125,22.5333],[89.4243,22.5384],[89.4256,22.551]],[[89.5616,22.57],[89.5592,22.5675],[89.5625,22.5667],[89.5616,22.57]],[[89.1884,22.3842],[89.1908,22.3866],[89.1875,22.3875],[89.1884,22.3842]],[[89.2083,22.3667],[89.2125,22.3667],[89.2095,22.3714],[89.2083,22.3667]],[[88.9507,22.3574],[88.9535,22.3509],[88.9542,22.3583],[88.9507,22.3574]],[[89.2092,22.3533],[89.2116,22.3509],[89.2125,22.3542],[89.2092,22.3533]],[[89.2634,22.3425],[89.2667,22.3458],[89.2625,22.3458],[89.2634,22.3425]],[[88.95,22.3417],[88.9522,22.3381],[88.9547,22.3405],[88.95,22.3417]],[[88.9,22.3375],[88.9422,22.2966],[88.934,22.2551],[88.9458,22.25],[88.95,22.3125],[88.9316,22.308],[88.9,22.3375]],[[89.2125,22.3292],[89.2167,22.325],[89.2158,22.3283],[89.2125,22.3292]],[[88.95,22.325],[88.9478,22.3286],[88.9453,22.3262],[88.95,22.325]],[[89.267,22.3184],[89.2691,22.3205],[89.2667,22.3208],[89.267,22.3184]],[[89.411,22.3128],[89.4111,22.3083],[89.4121,22.3104],[89.411,22.3128]],[[89.2757,22.3009],[89.2785,22.3074],[89.275,22.3083],[89.2757,22.3009]],[[89.28,22.2925],[89.2825,22.295],[89.2792,22.2958],[89.28,22.2925]],[[89.2595,22.2922],[89.2625,22.2792],[89.2657,22.28],[89.2672,22.2844],[89.2595,22.2922]],[[89.3214,22.2863],[89.3125,22.2708],[89.3201,22.2759],[89.3214,22.2863]],[[89.2458,22.2667],[89.2494,22.2551],[89.25,22.2667],[89.2458,22.2667]],[[89.2925,22.2616],[89.295,22.2592],[89.2958,22.2625],[89.2925,22.2616]],[[89.4119,22.2526],[89.4172,22.2549],[89.4139,22.2589],[89.4119,22.2526]],[[88.6776,22.3212],[88.6792,22.3208],[88.6792,22.3212],[88.6776,22.3212]],[[88.6462,22.2358],[88.655,22.2404],[88.6579,22.2458],[88.6462,22.2358]],[[88.6648,22.2119],[88.663,22.2173],[88.6583,22.2125],[88.6648,22.2119]],[[88.6425,22.2092],[88.6456,22.2092],[88.6419,22.2114],[88.6425,22.2092]],[[88.4759,21.8925],[88.4783,21.895],[88.475,21.8958],[88.4759,21.8925]],[[88.3958,21.8542],[88.4006,21.8655],[88.3958,21.8667],[88.3958,21.8542]],[[88.3917,21.8292],[88.3917,21.8417],[88.3869,21.8304],[88.3917,21.8292]],[[88.3958,21.8167],[88.3958,21.8208],[88.3911,21.8179],[88.3958,21.8167]],[[88.3833,21.7833],[88.3994,21.7968],[88.4006,21.8113],[88.3958,21.8125],[88.3833,21.7833]],[[88.3795,21.7725],[88.3816,21.7746],[88.3792,21.775],[88.3795,21.7725]],[[88.3759,21.7368],[88.3824,21.734],[88.3833,21.7375],[88.3759,21.7368]],[[88.3792,21.7208],[88.3941,21.7205],[88.4,21.7167],[88.3949,21.7243],[88.3792,21.7208]],[[88.2842,21.7134],[88.2866,21.7158],[88.2833,21.7167],[88.2842,21.7134]],[[88.3068,21.7128],[88.3069,21.7083],[88.308,21.7104],[88.3068,21.7128]],[[88.2991,21.7033],[88.2879,21.7059],[88.3125,21.6833],[88.2991,21.7033]],[[88.2162,21.6725],[88.2205,21.6729],[88.2193,21.6753],[88.2162,21.6725]],[[88.412,21.6808],[88.4163,21.6812],[88.4152,21.6836],[88.412,21.6808]],[[88.4162,21.6725],[88.4205,21.6729],[88.4193,21.6753],[88.4162,21.6725]],[[88.4119,21.6609],[88.4172,21.6633],[88.4139,21.6673],[88.4119,21.6609]],[[88.7829,22.1766],[88.7871,22.1771],[88.786,22.1794],[88.7829,22.1766]],[[88.9027,22.1753],[88.9028,22.1708],[88.9038,22.1729],[88.9027,22.1753]],[[88.8913,22.1687],[88.887,22.1683],[88.8903,22.1667],[88.8913,22.1687]],[[88.7955,22.1684],[88.7837,22.1608],[88.7833,22.1583],[88.7955,22.1684]],[[88.7733,22.1462],[88.7767,22.1538],[88.7708,22.1458],[88.7733,22.1462]],[[88.8495,22.1516],[88.8538,22.1521],[88.8527,22.1544],[88.8495,22.1516]],[[88.7592,22.1452],[88.7658,22.1423],[88.7667,22.1458],[88.7592,22.1452]],[[88.9068,22.1419],[88.9069,22.1375],[88.908,22.1396],[88.9068,22.1419]],[[88.7533,22.1384],[88.7509,22.1408],[88.75,22.1375],[88.7533,22.1384]],[[88.7208,22.1068],[88.7413,22.1184],[88.7417,22.1333],[88.7208,22.1068]],[[88.8277,22.1294],[88.8278,22.125],[88.8288,22.1271],[88.8277,22.1294]],[[88.9193,22.1253],[88.9194,22.1208],[88.9205,22.1229],[88.9193,22.1253]],[[88.8153,22.125],[88.8152,22.1294],[88.812,22.1266],[88.8153,22.125]],[[88.7903,22.1083],[88.7866,22.1131],[88.7827,22.1093],[88.7903,22.1083]],[[88.7788,22.1062],[88.7745,22.1058],[88.7778,22.1042],[88.7788,22.1062]],[[88.7755,22.0966],[88.7702,22.0943],[88.7736,22.0917],[88.7755,22.0966]],[[88.708,22.0979],[88.7037,22.0975],[88.7069,22.0958],[88.708,22.0979]],[[88.712,22.1016],[88.7163,22.1021],[88.7152,22.1044],[88.712,22.1016]],[[88.9152,22.0878],[88.9153,22.0833],[88.9163,22.0854],[88.9152,22.0878]],[[88.7611,22.0833],[88.761,22.0878],[88.7579,22.085],[88.7611,22.0833]],[[88.8131,22.0228],[88.8135,22.025],[88.8125,22.025],[88.8131,22.0228]],[[88.8342,22.0217],[88.8373,22.0218],[88.8339,22.0228],[88.8342,22.0217]],[[88.8708,22.0208],[88.8739,22.017],[88.8741,22.02],[88.8708,22.0208]],[[88.7778,21.725],[88.7788,21.7271],[88.7745,21.7266],[88.7778,21.725]],[[88.7922,21.7101],[88.7976,21.7127],[88.7931,21.7131],[88.7922,21.7101]],[[88.7655,21.712],[88.7634,21.7118],[88.7629,21.71],[88.7655,21.712]],[[88.7842,21.7077],[88.7838,21.706],[88.7879,21.708],[88.7842,21.7077]],[[88.7618,21.7008],[88.7579,21.7071],[88.7592,21.7003],[88.7618,21.7008]],[[88.8833,21.9208],[88.8905,21.9161],[88.8917,21.9208],[88.8833,21.9208]],[[88.87,21.9175],[88.8675,21.92],[88.8667,21.9167],[88.87,21.9175]],[[88.9509,21.7798],[88.9574,21.7827],[88.95,21.7833],[88.9509,21.7798]],[[88.9601,21.7705],[88.9566,21.7629],[88.9625,21.7708],[88.9601,21.7705]],[[88.9286,21.7647],[88.925,21.7625],[88.9292,21.7625],[88.9286,21.7647]],[[88.9458,21.7625],[88.9488,21.7578],[88.95,21.7625],[88.9458,21.7625]],[[89.0287,21.6308],[89.033,21.6312],[89.0318,21.6336],[89.0287,21.6308]],[[88.9912,21.9516],[88.9955,21.9521],[88.9943,21.9544],[88.9912,21.9516]],[[88.9954,21.9433],[88.9996,21.9437],[88.9985,21.9461],[88.9954,21.9433]],[[89.4443,22.2461],[89.4444,22.2417],[89.4455,22.2437],[89.4443,22.2461]],[[89.4121,22.2437],[89.4079,22.2433],[89.4111,22.2417],[89.4121,22.2437]],[[89.2458,22.2458],[89.2369,22.2326],[89.2469,22.2172],[89.2833,22.2167],[89.2465,22.2216],[89.2458,22.2458]],[[89.305,22.22],[89.3083,22.2167],[89.3083,22.2208],[89.305,22.22]],[[89.0413,22.2312],[89.037,22.2308],[89.0403,22.2292],[89.0413,22.2312]],[[89.3045,22.2392],[89.3066,22.2413],[89.3042,22.2417],[89.3045,22.2392]],[[89.3092,22.2283],[89.3116,22.2259],[89.3125,22.2292],[89.3092,22.2283]],[[89.0703,22.1899],[89.0756,22.1922],[89.0741,22.1997],[89.0703,22.1899]],[[89.062,22.1641],[89.0663,22.1646],[89.0652,22.1669],[89.062,22.1641]],[[89.0871,22.1396],[89.0829,22.1391],[89.0861,22.1375],[89.0871,22.1396]],[[89.2333,22.1],[89.2375,22.1],[89.2345,22.1047],[89.2333,22.1]],[[89.2337,22.0809],[89.2455,22.0517],[89.2083,22.0],[89.2458,21.9875],[89.2161,22.0095],[89.2495,22.0519],[89.2337,22.0809]],[[89.15,22.0333],[89.1625,21.9958],[89.1691,21.9964],[89.1627,22.0214],[89.15,22.0333]],[[89.1586,22.0501],[89.1559,22.0538],[89.15,22.0458],[89.1586,22.0501]],[[89.1715,22.0684],[89.1717,22.0675],[89.1734,22.0671],[89.1715,22.0684]],[[89.1664,22.0717],[89.1634,22.0717],[89.1667,22.0708],[89.1664,22.0717]],[[89.1568,22.0785],[89.155,22.0759],[89.1583,22.075],[89.1568,22.0785]],[[89.15,22.0833],[89.1489,22.0867],[89.1458,22.0875],[89.15,22.0833]],[[89.1328,21.947],[89.1379,21.9608],[89.1625,21.9875],[89.1384,21.9702],[89.1328,21.947]],[[89.1428,21.9209],[89.1518,21.9199],[89.1375,21.9375],[89.1428,21.9209]],[[89.1661,21.9255],[89.1673,21.9255],[89.1662,21.9256],[89.1661,21.9255]],[[89.1788,21.9166],[89.1907,21.9163],[89.1869,21.9173],[89.1788,21.9166]],[[89.312,21.86],[89.3163,21.8604],[89.3152,21.8628],[89.312,21.86]],[[89.3833,22.1],[89.3816,22.0955],[89.3875,22.0917],[89.3833,22.1]],[[89.3667,22.0542],[89.3756,22.0689],[89.3921,22.0863],[89.3712,22.0691],[89.3667,22.0542]],[[89.4286,22.0151],[89.4339,22.0174],[89.4306,22.0214],[89.4286,22.0151]],[[89.4327,21.9901],[89.438,21.9924],[89.4348,21.9964],[89.4327,21.9901]],[[89.4454,21.9141],[89.4496,21.9146],[89.4485,21.9169],[89.4454,21.9141]],[[89.8827,22.1526],[89.888,22.1549],[89.8848,22.1589],[89.8827,22.1526]],[[89.8167,22.0917],[89.8265,22.096],[89.8375,22.1167],[89.8342,22.1158],[89.8167,22.0917]],[[89.675,22.0542],[89.6908,22.0634],[89.6917,22.0667],[89.6851,22.0663],[89.675,22.0542]],[[89.6754,22.0475],[89.6775,22.0496],[89.675,22.05],[89.6754,22.0475]],[[89.6884,22.0382],[89.6958,22.0375],[89.6875,22.0417],[89.6884,22.0382]],[[89.7,22.0333],[89.6909,22.0009],[89.7033,22.0326],[89.7,22.0333]],[[89.6833,21.9917],[89.6833,21.9333],[89.6911,21.9436],[89.6922,21.9674],[89.6833,21.9917]],[[89.6376,21.9312],[89.6295,21.935],[89.6399,21.9253],[89.6376,21.9312]],[[89.6798,21.9283],[89.6827,21.9217],[89.6833,21.9292],[89.6798,21.9283]],[[89.7277,21.9211],[89.7278,21.9167],[89.7288,21.9187],[89.7277,21.9211]],[[89.7205,21.9146],[89.7162,21.9141],[89.7194,21.9125],[89.7205,21.9146]],[[89.6792,21.9167],[89.6576,21.8994],[89.6467,21.9075],[89.6414,21.897],[89.6566,21.8879],[89.6792,21.9167]],[[89.633,21.8854],[89.6287,21.885],[89.6319,21.8833],[89.633,21.8854]],[[89.575,21.9417],[89.5708,21.9417],[89.5738,21.9369],[89.575,21.9417]],[[89.7402,21.8753],[89.7403,21.8708],[89.7413,21.8729],[89.7402,21.8753]],[[89.862,22.2683],[89.8663,22.2687],[89.8652,22.2711],[89.862,22.2683]],[[91.3772,25.8366],[91.4272,25.8728],[91.447,25.8596],[91.4537,25.8697],[91.4225,25.8835],[91.3663,25.8481],[91.3772,25.8366]]],[[[88.0199,21.5825],[88.0176,21.5674],[88.0142,21.5839],[88.0199,21.5825]]],[[[88.8861,21.5458],[88.8298,21.5645],[88.8298,21.6075],[88.8949,21.5824],[88.9078,21.5604],[88.8861,21.5458]]],[[[88.6319,21.6458],[88.6256,21.6605],[88.637,21.6798],[88.641,21.6645],[88.6319,21.6458]]],[[[88.1903,21.5583],[88.1715,21.5687],[88.1674,21.6034],[88.1923,21.5861],[88.1903,21.5583]]],[[[88.7429,21.6536],[88.7741,21.6576],[88.7756,21.6228],[88.8006,21.5988],[88.7897,21.5797],[88.7382,21.5703],[88.7089,21.5811],[88.7172,21.6368],[88.6869,21.6826],[88.697,21.7172],[88.705,21.6884],[88.7429,21.6536]]],[[[88.1465,21.9174],[88.1398,21.891],[88.1134,21.9074],[88.1035,21.8843],[88.1048,21.9075],[88.1242,21.9298],[88.1465,21.9174]]],[[[88.1299,21.6244],[88.0464,21.6426],[88.0328,21.6743],[88.0714,21.7814],[88.1324,21.8797],[88.1756,21.8135],[88.1756,21.7549],[88.1578,21.652],[88.1299,21.6244]]],[[[88.2048,21.769],[88.191,21.7602],[88.1995,21.7715],[88.2048,21.769]]],[[[88.1881,21.7925],[88.1785,21.7862],[88.1801,21.8006],[88.1881,21.7925]]],[[[88.1881,21.8215],[88.1744,21.8243],[88.1766,21.8298],[88.1881,21.8215]]],[[[88.5792,21.8792],[88.5866,21.8619],[88.5799,21.8635],[88.5792,21.8792]]],[[[88.6451,21.7883],[88.5883,21.7965],[88.5756,21.8313],[88.6438,21.9244],[88.6715,21.9156],[88.6451,21.7883]]]]}}