{"type":"Feature","properties":{"speciesId":472,"category":"LC","source":"IUCN Red List","simplifyTol":0.01,"clippedToSubcontinent":true},"geometry":{"type":"MultiPolygon","coordinates":[[[[68.4685,33.4998],[68.4723,33.4956],[68.4665,33.4991],[68.4685,33.4998]]],[[[68.5101,33.6297],[68.5506,33.6551],[68.6338,33.6671],[68.7258,33.7039],[68.955,33.8723],[69.0496,34.024],[69.1174,34.2221],[69.1442,34.372],[69.1091,34.4892],[69.1128,34.5505],[69.1315,34.5747],[69.1608,34.5908],[69.2218,34.5838],[69.3818,34.5226],[69.4703,34.3888],[69.4903,34.2056],[69.2991,33.8586],[69.1491,33.5441],[68.8072,33.4719],[68.4793,33.5034],[68.4685,33.4998],[68.4116,33.5629],[68.4172,33.5953],[68.454,33.6207],[68.5101,33.6297]]],[[[74.8012,34.083],[74.7932,34.0842],[74.7977,34.0876],[74.8012,34.083]]],[[[71.4018,36.4864],[71.347,36.5106],[71.3253,36.5665],[71.3494,36.6214],[71.4052,36.6433],[71.4602,36.6193],[71.4821,36.5628],[71.4578,36.508],[71.4018,36.4864]]],[[[74.7758,36.7394],[74.7405,36.7736],[75.3267,36.4358],[75.3038,36.4198],[75.0516,36.4079],[74.8927,36.3918],[74.8844,36.3794],[74.8505,36.5319],[74.8125,36.5758],[74.7758,36.7394]]],[[[67.1267,36.6916],[67.1187,36.6927],[67.1232,36.6962],[67.1267,36.6916]]]]}}