{"type":"Feature","properties":{"speciesId":473,"category":"LC","source":"IUCN Red List","simplifyTol":0.01,"clippedToSubcontinent":true},"geometry":{"type":"Polygon","coordinates":[[[73.7766,37.4344],[74.1457,37.3523],[74.2366,37.4145],[74.5716,37.0344],[75.4654,36.7166],[76.0533,36.0213],[77.4041,35.2111],[78.5693,34.6119],[80.4074,33.5681],[83.5899,32.1999],[84.3808,31.6758],[84.5478,30.9425],[84.7618,30.8245],[84.7999,30.6532],[84.7272,30.3569],[84.7364,30.2733],[84.4575,29.9606],[84.136,30.0376],[83.8791,30.2056],[81.4815,30.9338],[80.9544,31.0807],[80.3777,31.605],[79.751,32.4386],[78.7397,32.7062],[77.671,33.3004],[76.3921,33.8358],[75.4785,34.5394],[75.2247,34.6475],[74.1197,36.8417],[73.6414,36.9039],[73.6502,36.9383],[73.4992,36.8982],[73.1657,36.7378],[72.7901,36.682],[72.6047,36.5935],[72.4989,36.5612],[71.9376,36.4813],[71.7903,36.4809],[71.6653,36.5032],[71.5498,36.553],[71.4383,36.6276],[71.2198,36.8814],[70.8265,37.1744],[70.5284,37.4566],[70.402,37.5978],[70.3105,37.7277],[70.2498,37.8491],[70.2022,38.0],[72.4755,38.0],[72.624,37.8659],[72.8378,37.7891],[73.1247,37.5884],[73.2875,37.5089],[73.4507,37.4464],[73.5882,37.4134],[73.7715,37.4142],[73.7766,37.4344]]]}}