{"type":"Feature","properties":{"speciesId":48,"category":"LC","source":"IUCN Red List","simplifyTol":0.01,"clippedToSubcontinent":true},"geometry":{"type":"MultiPolygon","coordinates":[[[[98.0,14.4733],[97.9896,14.4699],[98.0,14.4789],[98.0,14.4733]]],[[[94.8766,15.8165],[94.8773,15.817],[94.8768,15.8165],[94.8766,15.8165]]],[[[95.3195,15.8808],[95.3356,15.8738],[95.3225,15.8776],[95.2984,15.8609],[95.3195,15.8808]]],[[[95.3764,15.8746],[95.4006,15.879],[95.3871,15.8676],[95.369,15.8792],[95.3519,15.88],[95.365,15.8856],[95.3764,15.8746]]],[[[94.8712,15.8951],[94.8713,15.8954],[94.8721,15.8958],[94.8712,15.8951]]],[[[94.8421,15.8915],[94.8362,15.9004],[94.8409,15.8952],[94.8421,15.8915]]],[[[95.3388,15.8963],[95.3404,15.9023],[95.3463,15.8968],[95.3388,15.8963]]],[[[94.8824,15.9036],[94.9031,15.9223],[94.9146,15.9283],[94.9236,15.9294],[94.8824,15.9036]]],[[[94.9383,15.9314],[94.9447,15.9347],[94.9421,15.9315],[94.9383,15.9314]]],[[[95.2516,15.9523],[95.2532,15.956],[95.2523,15.9532],[95.2516,15.9523]]],[[[95.2619,15.9765],[95.2598,15.9769],[95.2662,15.9835],[95.2619,15.9765]]],[[[94.3123,16.0],[94.2915,15.9908],[94.2799,15.9896],[94.3123,16.0]]],[[[94.8955,16.0],[94.8861,15.9976],[94.8823,16.0],[94.8955,16.0]]],[[[94.6943,16.0064],[94.6923,16.0023],[94.6942,16.0073],[94.6943,16.0064]]],[[[94.3253,16.0068],[94.3451,16.0103],[94.3419,16.0072],[94.3253,16.0068]]],[[[94.7095,16.037],[94.7095,16.0423],[94.7143,16.0474],[94.7095,16.037]]],[[[94.8471,16.0606],[94.845,16.0629],[94.8483,16.0619],[94.8471,16.0606]]],[[[97.648,16.0442],[97.6628,16.0491],[97.6695,16.0409],[97.6258,16.0461],[97.6202,16.0496],[97.608,16.0697],[97.6197,16.0551],[97.648,16.0442]]],[[[95.3103,16.0715],[95.3198,16.079],[95.3266,16.0783],[95.3212,16.0733],[95.3103,16.0715]]],[[[94.9169,16.0797],[94.9077,16.0784],[94.9115,16.0798],[94.9169,16.0797]]],[[[95.1911,16.1047],[95.1852,16.1081],[95.2018,16.1057],[95.1911,16.1047]]],[[[95.1586,16.1178],[95.1399,16.1177],[95.1617,16.1199],[95.1586,16.1178]]],[[[95.1655,16.1282],[95.1621,16.1275],[95.1636,16.1291],[95.1655,16.1282]]],[[[94.9702,16.1389],[95.015,16.1337],[94.9557,16.1311],[94.9702,16.1389]]],[[[95.0369,16.1695],[95.0265,16.1642],[95.0384,16.1712],[95.0369,16.1695]]],[[[95.3526,16.1961],[95.3516,16.1962],[95.3554,16.1978],[95.3526,16.1961]]],[[[94.7181,16.202],[94.7054,16.2063],[94.6825,16.2046],[94.6995,16.2087],[94.7181,16.202]]],[[[94.8347,16.2101],[94.8172,16.2077],[94.8356,16.2112],[94.8347,16.2101]]],[[[95.1343,16.2143],[95.1349,16.2154],[95.1357,16.216],[95.1343,16.2143]]],[[[94.7459,16.2251],[94.7301,16.2232],[94.7484,16.2274],[94.7459,16.2251]]],[[[95.3863,16.2259],[95.3871,16.2272],[95.3883,16.228],[95.3863,16.2259]]],[[[95.0511,16.2238],[95.0473,16.2289],[95.0501,16.2267],[95.0511,16.2238]]],[[[95.8707,16.2171],[95.8852,16.234],[95.8919,16.2379],[95.8862,16.2292],[95.8707,16.2171]]],[[[95.0679,16.245],[95.0538,16.2405],[95.047,16.2398],[95.0679,16.245]]],[[[94.7491,16.2419],[94.7395,16.2482],[94.74,16.249],[94.7491,16.2419]]],[[[94.6636,16.245],[94.6888,16.2506],[94.7051,16.2453],[94.6636,16.245]]],[[[95.0816,16.2733],[95.0896,16.2811],[95.085,16.276],[95.0816,16.2733]]],[[[97.844,16.3181],[97.8475,16.3096],[97.8263,16.3197],[97.7889,16.327],[97.844,16.3181]]],[[[94.6478,16.3267],[94.637,16.3283],[94.6549,16.3357],[94.6478,16.3267]]],[[[97.795,16.3389],[97.7906,16.3403],[97.7972,16.3455],[97.795,16.3389]]],[[[94.7303,16.353],[94.7352,16.3537],[94.7206,16.3565],[94.7303,16.353]]],[[[96.0779,16.3521],[96.0705,16.3504],[96.0648,16.3563],[96.0779,16.3521]]],[[[94.6719,16.3716],[94.6686,16.3679],[94.6719,16.3719],[94.6719,16.3716]]],[[[96.0188,16.3769],[96.0173,16.3753],[96.0148,16.378],[96.0188,16.3769]]],[[[96.1019,16.3705],[96.109,16.3796],[96.1402,16.383],[96.1149,16.3785],[96.1019,16.3705]]],[[[97.7784,16.3746],[97.796,16.3586],[97.7971,16.3533],[97.7723,16.3731],[97.7365,16.3792],[97.7784,16.3746]]],[[[94.7548,16.3841],[94.7519,16.3814],[94.7487,16.3807],[94.7548,16.3841]]],[[[96.0052,16.3883],[95.9953,16.3937],[95.9936,16.3979],[95.9967,16.3988],[96.0052,16.3883]]],[[[94.2597,16.3986],[94.2575,16.3998],[94.2579,16.4015],[94.2597,16.3986]]],[[[94.7193,16.3908],[94.7242,16.3986],[94.7422,16.402],[94.7193,16.3908]]],[[[97.7489,16.3999],[97.745,16.4027],[97.7539,16.4049],[97.7489,16.3999]]],[[[95.9847,16.4019],[95.9646,16.4027],[95.9531,16.4017],[95.9586,16.4063],[95.9847,16.4019]]],[[[96.1604,16.4058],[96.1534,16.4039],[96.1624,16.4107],[96.1604,16.4058]]],[[[94.7634,16.4083],[94.7705,16.4093],[94.7799,16.418],[94.7692,16.4065],[94.7588,16.4046],[94.7491,16.4159],[94.75,16.4194],[94.7634,16.4083]]],[[[97.7247,16.4239],[97.7539,16.4141],[97.7237,16.4208],[97.7247,16.4239]]],[[[97.7232,16.4502],[97.7068,16.4444],[97.7059,16.4474],[97.7232,16.4502]]],[[[96.1616,16.4477],[96.1488,16.4548],[96.1585,16.453],[96.1871,16.4626],[96.1616,16.4477]]],[[[97.6823,16.4655],[97.6994,16.4711],[97.7036,16.4662],[97.6802,16.4596],[97.6642,16.4749],[97.6823,16.4655]]],[[[96.1907,16.4828],[96.1881,16.478],[96.1831,16.4835],[96.1907,16.4828]]],[[[97.6712,16.4902],[97.6642,16.4841],[97.671,16.4914],[97.6712,16.4902]]],[[[97.6708,16.5021],[97.6643,16.5086],[97.6641,16.5099],[97.6708,16.5021]]],[[[97.6026,16.5141],[97.5902,16.5198],[97.5998,16.5168],[97.6026,16.5141]]],[[[97.5571,16.5261],[97.5555,16.5244],[97.5555,16.5248],[97.5571,16.5261]]],[[[97.5195,16.5281],[97.5085,16.5321],[97.5211,16.5336],[97.5195,16.5281]]],[[[96.18,16.5414],[96.1801,16.5426],[96.1801,16.5415],[96.18,16.5414]]],[[[97.7143,16.5615],[97.7036,16.5633],[97.7161,16.5622],[97.7143,16.5615]]],[[[94.7465,16.5676],[94.7463,16.569],[94.7685,16.573],[94.7465,16.5676]]],[[[96.1797,16.5789],[96.1801,16.5847],[96.198,16.5872],[96.207,16.5984],[96.2356,16.5983],[96.1797,16.5789]]],[[[96.3145,16.6085],[96.2867,16.5918],[96.3017,16.6028],[96.3145,16.6085]]],[[[97.6422,16.6084],[97.6423,16.6067],[97.6405,16.609],[97.6422,16.6084]]],[[[94.3632,16.6178],[94.3614,16.6183],[94.3608,16.6209],[94.3632,16.6178]]],[[[94.733,16.6199],[94.7134,16.6165],[94.7326,16.6249],[94.733,16.6199]]],[[[94.732,16.6357],[94.732,16.6341],[94.7291,16.6381],[94.732,16.6357]]],[[[94.6913,16.6391],[94.6934,16.635],[94.6795,16.6338],[94.6913,16.6391]]],[[[97.4089,16.636],[97.3854,16.6367],[97.3838,16.6435],[97.4108,16.6424],[97.4206,16.6501],[97.4089,16.636]]],[[[97.3411,16.6544],[97.3668,16.6464],[97.3758,16.6511],[97.3821,16.646],[97.3593,16.6401],[97.3457,16.6453],[97.3411,16.6544]]],[[[94.6684,16.6492],[94.6743,16.6497],[94.6569,16.657],[94.6684,16.6492]]],[[[97.3362,16.6609],[97.3306,16.6621],[97.3358,16.6614],[97.3362,16.6609]]],[[[97.3426,16.6662],[97.3406,16.6666],[97.3417,16.6675],[97.3426,16.6662]]],[[[94.6903,16.663],[94.6863,16.6666],[94.6935,16.6696],[94.6903,16.663]]],[[[94.682,16.6762],[94.6788,16.6755],[94.6778,16.6801],[94.682,16.6762]]],[[[94.6934,16.6802],[94.6907,16.6804],[94.6888,16.6851],[94.6934,16.6802]]],[[[94.7344,16.6876],[94.723,16.688],[94.7216,16.6873],[94.7228,16.6905],[94.7344,16.6876]]],[[[97.3417,16.7022],[97.3385,16.6999],[97.3411,16.7036],[97.3417,16.7022]]],[[[96.7973,16.7482],[96.7935,16.7475],[96.7946,16.7501],[96.7973,16.7482]]],[[[96.1702,16.752],[96.1404,16.7557],[96.1362,16.758],[96.1445,16.7607],[96.1702,16.752]]],[[[96.7898,16.7664],[96.7898,16.7664],[96.7898,16.7665],[96.7898,16.7664]]],[[[96.186,16.7685],[96.1946,16.7598],[96.1848,16.7673],[96.186,16.7685]]],[[[96.7892,16.7681],[96.7809,16.7722],[96.7852,16.7741],[96.7892,16.7681]]],[[[96.1891,16.7765],[96.1848,16.7765],[96.1911,16.7826],[96.1891,16.7765]]],[[[96.2089,16.8002],[96.2203,16.8017],[96.2119,16.7939],[96.2039,16.8008],[96.1915,16.7999],[96.2046,16.8056],[96.2089,16.8002]]],[[[96.285,16.8124],[96.2851,16.8135],[96.2881,16.8132],[96.285,16.8124]]],[[[96.2981,16.8369],[96.293,16.8328],[96.2895,16.8407],[96.2981,16.8369]]],[[[97.2705,16.8487],[97.2692,16.8492],[97.2687,16.8509],[97.2705,16.8487]]],[[[97.2705,16.8396],[97.2546,16.842],[97.2361,16.8541],[97.2705,16.8396]]],[[[96.306,16.8593],[96.3016,16.8571],[96.3033,16.8612],[96.306,16.8593]]],[[[96.3222,16.8724],[96.3224,16.8726],[96.3229,16.8728],[96.3222,16.8724]]],[[[97.208,16.8928],[97.2029,16.8921],[97.2091,16.8953],[97.208,16.8928]]],[[[96.8086,16.899],[96.818,16.8875],[96.8118,16.8929],[96.8086,16.899]]],[[[96.8405,16.8916],[96.8492,16.9029],[96.8551,16.8876],[96.8405,16.8916]]],[[[96.8492,16.912],[96.8471,16.9111],[96.8465,16.9116],[96.8492,16.912]]],[[[94.4706,16.9364],[94.4494,16.9337],[94.4749,16.9431],[94.4706,16.9364]]],[[[97.2478,17.0925],[97.247,17.0925],[97.2481,17.0925],[97.2478,17.0925]]],[[[96.8484,17.201],[96.8392,17.197],[96.8384,17.2028],[96.8484,17.201]]],[[[96.6782,17.258],[96.6769,17.2583],[96.6772,17.2591],[96.6782,17.258]]],[[[96.7225,17.3383],[96.7192,17.3385],[96.7227,17.3383],[96.7225,17.3383]]],[[[96.6584,17.3395],[96.6596,17.3426],[96.6695,17.3458],[96.6584,17.3395]]],[[[96.7322,17.3411],[96.7508,17.3487],[96.7454,17.345],[96.7322,17.3411]]],[[[96.7735,17.3672],[96.7677,17.3663],[96.7752,17.3732],[96.7735,17.3672]]],[[[96.8396,17.4093],[96.8321,17.4133],[96.8263,17.4188],[96.8396,17.4093]]],[[[96.7412,17.441],[96.7409,17.4431],[96.7636,17.464],[96.7412,17.441]]],[[[96.7865,17.4833],[96.7859,17.4808],[96.7689,17.4711],[96.7865,17.4833]]],[[[94.6019,17.5468],[94.6001,17.547],[94.5996,17.548],[94.6019,17.5468]]],[[[94.5919,17.5724],[94.5873,17.5699],[94.588,17.5735],[94.5919,17.5724]]],[[[94.0944,18.8497],[94.0871,18.848],[94.0979,18.8542],[94.0944,18.8497]]],[[[94.0855,18.8482],[94.0682,18.8447],[94.0678,18.8476],[94.0773,18.8544],[94.0855,18.8482]]],[[[94.1296,18.8513],[94.1169,18.8475],[94.1376,18.8564],[94.1296,18.8513]]],[[[94.1155,18.8697],[94.1017,18.8594],[94.1074,18.8655],[94.1155,18.8697]]],[[[94.0446,18.8455],[94.0334,18.8593],[94.0521,18.8764],[94.0731,18.8586],[94.0446,18.8455]]],[[[94.0919,18.882],[94.0718,18.8651],[94.0669,18.8704],[94.0738,18.8676],[94.0919,18.882]]],[[[94.0592,18.8829],[94.0596,18.8806],[94.0423,18.8821],[94.0521,18.8856],[94.0592,18.8829]]],[[[94.1191,18.9003],[94.118,18.898],[94.1179,18.9001],[94.1191,18.9003]]],[[[94.0559,19.0356],[94.0522,19.037],[94.0529,19.0385],[94.0559,19.0356]]],[[[93.6723,19.0686],[93.6788,19.0786],[93.6837,19.0803],[93.6723,19.0686]]],[[[93.6946,19.096],[93.6948,19.0965],[93.6949,19.0963],[93.6946,19.096]]],[[[94.0957,19.0951],[94.097,19.0986],[94.0985,19.0979],[94.0957,19.0951]]],[[[94.0526,19.1115],[94.0442,19.1104],[94.0569,19.1166],[94.0526,19.1115]]],[[[94.0687,19.1174],[94.0642,19.1187],[94.0733,19.1219],[94.0687,19.1174]]],[[[94.1251,19.1448],[94.1075,19.1422],[94.1026,19.1433],[94.1251,19.1448]]],[[[93.6654,19.2864],[93.6647,19.2882],[93.6662,19.2894],[93.6654,19.2864]]],[[[93.8432,19.2897],[93.8384,19.2871],[93.8367,19.2933],[93.8432,19.2897]]],[[[93.8627,19.2956],[93.8502,19.296],[93.8623,19.2975],[93.8627,19.2956]]],[[[93.8275,19.295],[93.8087,19.2985],[93.7747,19.2932],[93.7957,19.3038],[93.8275,19.295]]],[[[93.908,19.3231],[93.905,19.3221],[93.912,19.3282],[93.908,19.3231]]],[[[93.6214,19.3411],[93.6277,19.3351],[93.6187,19.3385],[93.6214,19.3411]]],[[[94.0552,19.3469],[94.0403,19.3418],[94.0545,19.3488],[94.0552,19.3469]]],[[[93.7402,19.3478],[93.7777,19.3418],[93.7704,19.3355],[93.7402,19.3478]]],[[[93.8824,19.3531],[93.8744,19.357],[93.8718,19.3606],[93.8824,19.3531]]],[[[93.6662,19.4249],[93.6601,19.4287],[93.6616,19.429],[93.6662,19.4249]]],[[[93.9536,19.4388],[93.94,19.4449],[93.9446,19.4453],[93.9536,19.4388]]],[[[93.9178,19.4478],[93.9171,19.4478],[93.9168,19.448],[93.9178,19.4478]]],[[[93.9145,19.4496],[93.9074,19.4548],[93.9047,19.4591],[93.9145,19.4496]]],[[[93.7799,19.5961],[93.7801,19.5964],[93.7804,19.5966],[93.7799,19.5961]]],[[[93.786,19.5981],[93.7849,19.5994],[93.7881,19.6],[93.786,19.5981]]],[[[93.813,19.7259],[93.8118,19.7272],[93.8121,19.7273],[93.813,19.7259]]],[[[93.79,19.8378],[93.7889,19.8358],[93.7884,19.8393],[93.79,19.8378]]],[[[93.7937,19.8639],[93.787,19.8649],[93.7925,19.8658],[93.7937,19.8639]]],[[[93.7386,19.8761],[93.7305,19.8827],[93.7357,19.8838],[93.7386,19.8761]]],[[[93.7961,19.8841],[93.7935,19.8831],[93.7945,19.8858],[93.7961,19.8841]]],[[[93.7237,19.8883],[93.7212,19.8878],[93.7188,19.8918],[93.7237,19.8883]]],[[[93.7961,19.8933],[93.7933,19.8944],[93.7935,19.896],[93.7961,19.8933]]],[[[93.6178,19.9016],[93.6141,19.9016],[93.6192,19.9037],[93.6178,19.9016]]],[[[93.6048,19.8994],[93.5928,19.902],[93.5699,19.8837],[93.5936,19.9044],[93.6048,19.8994]]],[[[93.5265,19.9144],[93.5161,19.9143],[93.5159,19.915],[93.5265,19.9144]]],[[[93.5688,19.912],[93.5522,19.9134],[93.5754,19.9201],[93.5829,19.9278],[93.5688,19.912]]],[[[93.7166,19.9231],[93.7114,19.9256],[93.7236,19.9254],[93.7166,19.9231]]],[[[93.497,19.9809],[93.4818,19.9823],[93.4797,19.9892],[93.497,19.9809]]],[[[93.4753,19.9908],[93.4747,19.9909],[93.4754,19.991],[93.4753,19.9908]]],[[[93.4621,19.9791],[93.4542,19.9867],[93.4444,19.9893],[93.4543,19.9927],[93.4621,19.9791]]],[[[93.467,20.0361],[93.4605,20.0401],[93.4592,20.0459],[93.467,20.0361]]],[[[93.1574,20.1786],[93.1264,20.1812],[93.1769,20.1868],[93.1574,20.1786]]],[[[92.7977,20.2094],[92.8217,20.1928],[92.8032,20.2011],[92.7977,20.2094]]],[[[93.2058,20.208],[93.1879,20.1969],[93.2087,20.214],[93.2058,20.208]]],[[[92.9621,20.2162],[92.9636,20.2174],[92.963,20.2165],[92.9621,20.2162]]],[[[93.3906,20.2092],[93.3882,20.2121],[93.3842,20.2215],[93.3906,20.2092]]],[[[93.214,20.2278],[93.2297,20.2403],[93.2488,20.2393],[93.2464,20.2363],[93.214,20.2278]]],[[[92.9353,20.2427],[92.9273,20.2467],[92.944,20.25],[92.9353,20.2427]]],[[[93.3377,20.2773],[93.3536,20.2721],[93.3593,20.2668],[93.343,20.268],[93.3377,20.2773]]],[[[93.3346,20.3014],[93.3298,20.3014],[93.3287,20.3057],[93.3346,20.3014]]],[[[92.9202,20.3027],[92.9091,20.3027],[92.9061,20.3016],[92.9099,20.3073],[92.9202,20.3027]]],[[[93.2707,20.3148],[93.2444,20.3054],[93.2548,20.3126],[93.2707,20.3148]]],[[[93.2043,20.3158],[93.1935,20.3156],[93.1924,20.3199],[93.2043,20.3158]]],[[[93.1336,20.3204],[93.1282,20.3151],[93.1247,20.3212],[93.1336,20.3204]]],[[[93.1868,20.3197],[93.1717,20.3208],[93.1441,20.3115],[93.1606,20.3224],[93.1868,20.3197]]],[[[93.3206,20.3269],[93.3089,20.3176],[93.296,20.3231],[93.3206,20.3269]]],[[[92.876,20.3325],[92.8675,20.3423],[92.8728,20.3384],[92.876,20.3325]]],[[[93.2859,20.3459],[93.2902,20.3544],[93.2905,20.3494],[93.2859,20.3459]]],[[[93.12,20.3744],[93.1063,20.371],[93.095,20.3699],[93.12,20.3744]]],[[[92.9108,20.3717],[92.9174,20.374],[92.8971,20.3777],[92.9108,20.3717]]],[[[93.2229,20.3814],[93.2167,20.3824],[93.2227,20.3834],[93.2229,20.3814]]],[[[92.9411,20.3743],[92.9231,20.3825],[92.924,20.3848],[92.9315,20.3863],[92.9411,20.3743]]],[[[93.1481,20.3969],[93.1681,20.3911],[93.1422,20.3904],[93.1481,20.3969]]],[[[92.8614,20.3934],[92.8461,20.3965],[92.8637,20.3959],[92.8614,20.3934]]],[[[92.8694,20.3997],[92.8688,20.4004],[92.8699,20.4007],[92.8694,20.3997]]],[[[92.8827,20.3935],[92.8785,20.4009],[92.8865,20.3947],[92.8827,20.3935]]],[[[93.2372,20.4068],[93.2359,20.4061],[93.2373,20.4069],[93.2372,20.4068]]],[[[92.9266,20.4177],[92.9136,20.4177],[92.9285,20.4207],[92.9266,20.4177]]],[[[92.9182,20.4252],[92.9203,20.4272],[92.9225,20.426],[92.9182,20.4252]]],[[[92.9272,20.4326],[92.9198,20.4358],[92.9203,20.4364],[92.9272,20.4326]]],[[[93.0258,20.4274],[93.0192,20.449],[93.041,20.4534],[93.0324,20.4371],[93.0258,20.4274]]],[[[93.0339,20.4565],[93.0192,20.4581],[93.0389,20.4618],[93.0339,20.4565]]],[[[92.8383,20.4688],[92.8411,20.4647],[92.8328,20.4659],[92.8383,20.4688]]],[[[92.7637,20.4684],[92.7605,20.4642],[92.7559,20.4701],[92.7637,20.4684]]],[[[93.018,20.4636],[93.0289,20.4755],[93.0381,20.4683],[93.0339,20.4657],[93.018,20.4636]]],[[[92.7761,20.4827],[92.7843,20.4894],[92.7872,20.4889],[92.7861,20.4876],[92.7761,20.4827]]],[[[93.0929,20.5031],[93.0898,20.5024],[93.0886,20.5059],[93.0929,20.5031]]],[[[93.0403,20.4934],[93.0444,20.5033],[93.0553,20.5142],[93.0556,20.5115],[93.0403,20.4934]]],[[[92.7418,20.5707],[92.7453,20.5744],[92.7476,20.577],[92.7459,20.5731],[92.7418,20.5707]]],[[[93.072,20.5823],[93.0728,20.5807],[93.0713,20.5825],[93.072,20.5823]]],[[[93.0493,20.5882],[93.0483,20.5884],[93.0481,20.5885],[93.0493,20.5882]]],[[[93.0331,20.5987],[93.0315,20.5998],[93.0308,20.6008],[93.0331,20.5987]]],[[[92.7092,20.5972],[92.7016,20.6043],[92.7084,20.5986],[92.7092,20.5972]]],[[[92.6353,20.7243],[92.6176,20.7093],[92.5848,20.7094],[92.6185,20.7141],[92.6353,20.7243]]],[[[92.5826,20.7259],[92.5834,20.7294],[92.5864,20.7294],[92.5826,20.7259]]],[[[92.5589,20.7483],[92.5702,20.7454],[92.5713,20.7425],[92.5655,20.7398],[92.56,20.745],[92.5589,20.7483]]],[[[92.5806,20.749],[92.583,20.7438],[92.5765,20.7492],[92.5806,20.749]]],[[[92.5558,20.7554],[92.5512,20.757],[92.5546,20.7582],[92.5558,20.7554]]],[[[92.5741,20.7806],[92.5709,20.7833],[92.5801,20.7954],[92.5741,20.7806]]],[[[92.3784,20.8049],[92.3747,20.8048],[92.3782,20.8057],[92.3784,20.8049]]],[[[92.5566,20.8001],[92.5507,20.8032],[92.5481,20.8086],[92.5566,20.8001]]],[[[92.3547,20.9436],[92.3518,20.948],[92.3552,20.9436],[92.3547,20.9436]]],[[[92.339,20.984],[92.3247,20.9881],[92.3173,20.9806],[92.3065,20.9803],[92.3326,20.9939],[92.339,20.984]]],[[[92.2859,21.0376],[92.2732,21.0371],[92.3072,21.0587],[92.2859,21.0376]]],[[[92.0119,21.6509],[92.0067,21.651],[92.0147,21.6541],[92.0119,21.6509]]],[[[92.0308,21.6676],[92.0273,21.6681],[92.0276,21.6687],[92.0308,21.6676]]],[[[92.0182,21.6707],[92.0176,21.6714],[92.0175,21.6721],[92.0182,21.6707]]],[[[91.9762,21.7404],[91.9696,21.7385],[91.9781,21.7435],[91.9762,21.7404]]],[[[91.9652,21.7411],[91.9545,21.7448],[91.9532,21.7491],[91.9652,21.7411]]],[[[91.9857,21.7536],[91.9873,21.7586],[91.992,21.7584],[91.9857,21.7536]]],[[[91.8967,21.7657],[91.8975,21.7712],[91.9248,21.7745],[91.8967,21.7657]]],[[[91.8097,22.2972],[91.8036,22.2975],[91.8095,22.2977],[91.8097,22.2972]]],[[[91.8194,22.3046],[91.8195,22.3091],[91.8498,22.3159],[91.8194,22.3046]]],[[[91.4778,22.7542],[91.4576,22.7511],[91.4775,22.7578],[91.4778,22.7542]]],[[[91.465,22.8812],[91.4584,22.8837],[91.464,22.8832],[91.465,22.8812]]],[[[91.4566,22.8961],[91.4566,22.8989],[91.4629,22.8978],[91.4566,22.8961]]],[[[90.6482,22.9815],[90.6924,22.9683],[90.6929,22.9633],[90.6482,22.9815]]],[[[90.6462,23.3231],[90.6747,23.314],[90.6419,23.3193],[90.6462,23.3231]]],[[[90.6771,23.3571],[90.6783,23.3582],[90.6784,23.3577],[90.6771,23.3571]]],[[[90.2377,23.4724],[90.2251,23.4775],[90.2255,23.4789],[90.2377,23.4724]]],[[[90.5414,23.477],[90.5431,23.4794],[90.5451,23.4796],[90.5414,23.477]]],[[[90.5615,23.4807],[90.5528,23.4795],[90.547,23.4797],[90.5615,23.4807]]],[[[90.2009,23.4947],[90.1849,23.5036],[90.19,23.5033],[90.2009,23.4947]]],[[[90.5531,23.5623],[90.5521,23.5666],[90.5541,23.5659],[90.5531,23.5623]]],[[[90.5271,23.5682],[90.5147,23.5722],[90.5144,23.5726],[90.5168,23.5727],[90.5271,23.5682]]],[[[90.4993,23.588],[90.4839,23.5775],[90.4774,23.5859],[90.4993,23.588]]],[[[90.564,23.5843],[90.5706,23.5906],[90.5765,23.591],[90.564,23.5843]]],[[[90.4627,23.6048],[90.4644,23.6026],[90.4539,23.6057],[90.4627,23.6048]]],[[[90.1146,23.5979],[90.0893,23.6129],[90.0878,23.6174],[90.1101,23.6069],[90.1146,23.5979]]],[[[90.6274,23.6239],[90.6033,23.6099],[90.6261,23.6259],[90.6274,23.6239]]],[[[90.7599,23.6374],[90.7525,23.6436],[90.7599,23.6419],[90.7599,23.6374]]],[[[90.4645,23.632],[90.4116,23.6872],[90.3838,23.6979],[90.3979,23.6982],[90.4183,23.6844],[90.4645,23.632]]],[[[89.9324,23.6975],[89.9299,23.7006],[89.9318,23.6995],[89.9324,23.6975]]],[[[90.3618,23.7018],[90.3837,23.693],[90.3658,23.6943],[90.3618,23.7018]]],[[[90.2205,23.7031],[90.2477,23.7076],[90.2543,23.6989],[90.2208,23.699],[90.2085,23.711],[90.2205,23.7031]]],[[[90.2016,23.7135],[90.2015,23.7136],[90.2016,23.7135],[90.2016,23.7135]]],[[[90.271,23.6892],[90.2557,23.7074],[90.2414,23.7111],[90.2524,23.7119],[90.271,23.6892]]],[[[90.1847,23.7134],[90.1492,23.7015],[90.1361,23.71],[90.1497,23.7043],[90.1847,23.7134]]],[[[90.2817,23.7275],[90.2652,23.7267],[90.2856,23.7313],[90.2817,23.7275]]],[[[90.3274,23.7231],[90.3176,23.7258],[90.3135,23.732],[90.3274,23.7231]]],[[[90.3291,23.7271],[90.351,23.728],[90.3555,23.7192],[90.3291,23.7271]]],[[[90.3003,23.7604],[90.2986,23.7553],[90.2926,23.7497],[90.3003,23.7604]]],[[[90.019,23.7608],[90.0687,23.7535],[90.1068,23.7323],[90.1205,23.7334],[90.1274,23.7242],[90.1044,23.7287],[90.0935,23.7396],[90.0698,23.7487],[90.0354,23.7499],[90.019,23.7608]]],[[[90.2202,23.7611],[90.2118,23.7551],[90.231,23.7767],[90.2202,23.7611]]],[[[90.2424,23.7895],[90.2416,23.792],[90.2432,23.7915],[90.2424,23.7895]]],[[[90.0514,23.8153],[90.0689,23.8163],[90.0619,23.8108],[90.0514,23.8153]]],[[[89.53,23.8176],[89.5285,23.8187],[89.5289,23.8187],[89.53,23.8176]]],[[[90.1586,23.8213],[90.1676,23.8163],[90.1448,23.8265],[90.1586,23.8213]]],[[[90.2324,23.8245],[90.2154,23.8306],[90.188,23.8295],[90.2026,23.8355],[90.2324,23.8245]]],[[[89.7163,23.8365],[89.7149,23.8303],[89.7109,23.8377],[89.7163,23.8365]]],[[[90.0874,23.8364],[90.0923,23.8469],[90.1115,23.8533],[90.1104,23.8482],[90.0874,23.8364]]],[[[90.1323,23.8578],[90.1168,23.8644],[90.1144,23.8698],[90.1236,23.8683],[90.1323,23.8578]]],[[[90.0292,23.8712],[90.0262,23.873],[90.0322,23.8735],[90.0292,23.8712]]],[[[90.0512,23.8781],[90.0413,23.8806],[90.0341,23.875],[90.0397,23.8816],[90.0512,23.8781]]],[[[89.4109,23.9196],[89.4052,23.9217],[89.3978,23.9265],[89.4109,23.9196]]],[[[89.9854,23.9307],[89.9953,23.9175],[89.9718,23.9371],[89.9854,23.9307]]],[[[89.3073,23.9367],[89.2906,23.9388],[89.3167,23.9413],[89.3073,23.9367]]],[[[89.6653,23.9376],[89.6611,23.9383],[89.6657,23.942],[89.6653,23.9376]]],[[[89.3638,23.9429],[89.342,23.9385],[89.3255,23.9428],[89.3638,23.9429]]],[[[89.3129,23.9563],[89.3144,23.9537],[89.3078,23.9587],[89.3129,23.9563]]],[[[89.7122,23.9584],[89.705,23.9584],[89.7155,23.9632],[89.7122,23.9584]]],[[[89.1773,23.9953],[89.1484,23.9908],[89.1449,23.9974],[89.1773,23.9953]]],[[[89.1773,23.9953],[89.1435,24.0],[88.3634,25.4668],[88.1749,26.3638],[88.1799,26.5323],[87.6522,26.6135],[86.8015,26.6874],[85.8029,26.8169],[85.0261,27.0018],[84.6008,27.3347],[84.6933,27.8525],[85.1001,27.8525],[85.8768,27.7231],[86.6351,27.5751],[87.1159,27.4087],[88.2255,27.1868],[88.6509,27.1498],[89.4276,27.1683],[90.0379,27.3162],[90.8701,27.3532],[91.3694,27.3532],[91.8317,27.2423],[92.3495,27.0943],[92.5355,27.0698],[93.1897,27.4365],[95.1174,27.8602],[96.0794,27.801],[96.7963,26.7963],[97.5882,23.3971],[98.0,22.729],[98.0,14.4825],[97.9851,14.4713],[97.9669,14.4417],[97.9654,14.4261],[97.9408,14.5262],[97.9058,14.5783],[97.9134,14.6195],[97.9047,14.6107],[97.874,14.6671],[97.8944,14.7054],[97.8855,14.7229],[97.8678,14.7078],[97.8392,14.7188],[97.7932,14.8676],[97.8083,14.9409],[97.799,14.9871],[97.8234,15.0071],[97.8239,15.0162],[97.8085,14.9983],[97.7969,14.9972],[97.8132,15.0062],[97.8244,15.0243],[97.791,14.9984],[97.7796,15.0151],[97.7979,15.026],[97.8063,15.1503],[97.7951,15.1903],[97.7653,15.1971],[97.7387,15.2445],[97.7417,15.295],[97.7245,15.3267],[97.7274,15.3456],[97.7469,15.347],[97.7465,15.3745],[97.7828,15.397],[97.7461,15.4851],[97.762,15.5281],[97.702,15.7505],[97.7217,15.7625],[97.7179,15.8434],[97.6754,15.9144],[97.6103,15.949],[97.6035,15.9803],[97.572,16.0094],[97.5616,16.068],[97.5967,16.0759],[97.6143,16.0519],[97.6277,16.0412],[97.6654,16.0395],[97.6772,16.0192],[97.6969,16.0183],[97.6742,16.0281],[97.6969,16.0274],[97.6673,16.0521],[97.6202,16.0587],[97.6023,16.0908],[97.6438,16.2608],[97.6163,16.3526],[97.6294,16.3782],[97.6153,16.4217],[97.6253,16.4909],[97.6621,16.5031],[97.6624,16.4673],[97.6823,16.4563],[97.7025,16.4614],[97.7044,16.441],[97.7211,16.4408],[97.7199,16.4176],[97.7452,16.4082],[97.7355,16.4023],[97.7334,16.3741],[97.7702,16.3706],[97.7957,16.3497],[97.7858,16.3396],[97.7874,16.3236],[97.8346,16.3144],[97.8601,16.2826],[97.8883,16.2748],[97.8604,16.2877],[97.8521,16.2933],[97.8504,16.2999],[97.8887,16.2862],[97.8521,16.3024],[97.8441,16.3234],[97.7925,16.3326],[97.8031,16.3534],[97.7905,16.3703],[97.7614,16.386],[97.7388,16.3861],[97.7587,16.4037],[97.7578,16.4177],[97.7289,16.4247],[97.7259,16.4541],[97.7072,16.4536],[97.7023,16.474],[97.667,16.478],[97.6755,16.4915],[97.6684,16.5363],[97.7439,16.547],[97.7251,16.5575],[97.7465,16.5616],[97.7089,16.5706],[97.6685,16.5549],[97.6441,16.6134],[97.6214,16.6432],[97.6076,16.581],[97.6241,16.5538],[97.6212,16.5187],[97.5325,16.5376],[97.4886,16.5387],[97.481,16.5218],[97.3928,16.5251],[97.3629,16.479],[97.3306,16.6529],[97.3466,16.6379],[97.3939,16.6309],[97.4108,16.6333],[97.4225,16.6412],[97.4241,16.6584],[97.3928,16.6437],[97.3831,16.6559],[97.3457,16.6544],[97.3578,16.6602],[97.3476,16.6786],[97.3288,16.6669],[97.3302,16.6872],[97.3439,16.6861],[97.3419,16.7341],[97.3386,16.7089],[97.3207,16.7102],[97.3185,16.6679],[97.2772,16.6862],[97.2398,16.7684],[97.2498,16.8225],[97.2349,16.8088],[97.2229,16.8395],[97.2733,16.835],[97.2781,16.8505],[97.2659,16.8701],[97.2636,16.8485],[97.2228,16.8672],[97.2092,16.8129],[97.2013,16.8779],[97.2181,16.8925],[97.2191,16.9379],[97.2075,16.9016],[97.1749,16.8905],[97.1703,16.907],[97.2072,17.008],[97.1533,17.086],[97.1909,17.1078],[97.2134,17.0782],[97.253,17.0832],[97.2646,17.1036],[97.2278,17.1029],[97.2063,17.1338],[97.1791,17.1294],[97.1365,17.1162],[97.1343,17.0806],[97.1143,17.0778],[97.0905,17.1593],[97.1067,17.1878],[97.0833,17.1817],[97.0592,17.2533],[97.0003,17.2668],[97.0148,17.2791],[97.0091,17.3],[96.9116,17.357],[96.8832,17.4541],[96.8649,17.3961],[96.8446,17.3892],[96.849,17.4134],[96.7859,17.4899],[96.7671,17.4792],[96.7344,17.4353],[96.7735,17.3764],[96.7225,17.3474],[96.6924,17.3664],[96.6498,17.3383],[96.6683,17.26],[96.6962,17.2387],[96.7086,17.2545],[96.6817,17.2661],[96.6738,17.3059],[96.6854,17.3361],[96.7251,17.3291],[96.8366,17.3717],[96.856,17.334],[96.863,17.3436],[96.9108,17.3076],[96.8907,17.3028],[96.9129,17.2958],[96.9024,17.2717],[96.8626,17.2407],[96.8469,17.2061],[96.834,17.2139],[96.8335,17.1961],[96.8487,17.1916],[96.8771,17.1031],[96.9001,17.0798],[96.9113,17.0161],[96.8737,16.911],[96.8383,16.9272],[96.8509,16.9591],[96.8298,16.9385],[96.8345,16.8957],[96.8073,16.9106],[96.7968,16.9065],[96.8521,16.8337],[96.8078,16.7555],[96.7808,16.7817],[96.7746,16.7731],[96.7986,16.7362],[96.7713,16.6916],[96.5964,16.5366],[96.4938,16.5046],[96.3837,16.4966],[96.2847,16.5537],[96.2867,16.5827],[96.3336,16.6142],[96.4269,16.5984],[96.4716,16.6003],[96.3227,16.6155],[96.3336,16.6234],[96.4269,16.6076],[96.4699,16.6127],[96.3313,16.6287],[96.2874,16.6001],[96.2777,16.5775],[96.2228,16.745],[96.3156,16.8243],[96.3456,16.8242],[96.3941,16.8502],[96.4084,16.8461],[96.4861,16.8608],[96.5119,16.879],[96.4839,16.864],[96.4127,16.8513],[96.3948,16.8548],[96.3478,16.8306],[96.3287,16.8286],[96.3244,16.8293],[96.3231,16.8306],[96.3456,16.8334],[96.3941,16.8594],[96.4084,16.8552],[96.4861,16.8699],[96.5119,16.8882],[96.4839,16.8731],[96.3948,16.864],[96.3244,16.8384],[96.32,16.8598],[96.3477,16.9059],[96.3007,16.8638],[96.298,16.8408],[96.2776,16.8693],[96.288,16.8328],[96.3027,16.8259],[96.2035,16.7632],[96.1897,16.7721],[96.1944,16.7915],[96.2124,16.7891],[96.2246,16.8019],[96.2189,16.8389],[96.2123,16.8453],[96.2177,16.8084],[96.1917,16.8059],[96.1802,16.7768],[96.1853,16.76],[96.1288,16.7711],[96.1208,16.8137],[96.1155,16.8122],[96.119,16.7566],[96.1319,16.7497],[96.119,16.7475],[96.1921,16.7318],[96.2158,16.6615],[96.2459,16.6278],[96.2366,16.6077],[96.2094,16.6032],[96.1735,16.5831],[96.1736,16.5071],[96.1875,16.4874],[96.1776,16.483],[96.1754,16.4635],[96.1417,16.4537],[96.1615,16.4162],[96.1359,16.3879],[96.1062,16.384],[96.0771,16.3572],[96.0173,16.3845],[95.9964,16.4107],[95.9121,16.4109],[95.9061,16.3944],[95.9262,16.3792],[95.8912,16.2446],[95.7786,16.1291],[95.7544,16.1266],[95.7404,16.1452],[95.7269,16.264],[95.7096,16.2731],[95.7371,16.1089],[95.6966,16.046],[95.6931,15.9993],[95.6483,15.9258],[95.5158,15.7881],[95.4264,15.7213],[95.358,15.7039],[95.2868,15.7187],[95.2717,15.7976],[95.2791,15.8372],[95.3045,15.8435],[95.2975,15.8527],[95.3195,15.8716],[95.3399,15.8708],[95.3404,15.8931],[95.3479,15.8713],[95.3809,15.863],[95.3989,15.8677],[95.4126,15.8965],[95.3811,15.8772],[95.3388,15.9054],[95.3315,15.8981],[95.3317,15.8815],[95.3225,15.8868],[95.3006,15.8701],[95.3477,15.9381],[95.364,16.0411],[95.3962,16.0525],[95.3636,16.0489],[95.3962,16.0641],[95.3628,16.0583],[95.3377,16.0954],[95.3706,16.14],[95.3907,16.2396],[95.3263,16.1926],[95.306,16.1581],[95.3254,16.0862],[95.3096,16.0806],[95.2792,16.0394],[95.2352,15.9326],[95.2101,15.8565],[95.2217,15.7898],[95.1768,15.7679],[95.1243,15.7917],[95.1097,15.8831],[95.1332,16.0101],[95.1896,16.0155],[95.1927,16.0707],[95.2671,16.1495],[95.1911,16.1138],[95.2079,16.1777],[95.1799,16.1374],[95.1642,16.1435],[95.1556,16.1249],[95.1343,16.1232],[95.1408,16.2315],[95.1236,16.2066],[95.1198,16.1153],[95.0867,16.0923],[95.0561,16.0354],[95.0698,15.945],[95.0369,15.8038],[95.0011,15.7788],[94.9868,15.7848],[94.9843,15.8484],[94.9821,15.76],[94.9476,15.7412],[94.8343,15.7808],[94.8398,15.797],[94.8893,15.8182],[94.8713,15.8863],[94.9508,15.9295],[94.9508,15.9456],[94.9443,15.9536],[94.8637,15.8968],[94.873,15.8249],[94.8394,15.844],[94.8501,15.8762],[94.8283,15.9509],[94.8619,15.9908],[94.9145,15.9908],[94.9218,16.0306],[94.9071,16.0683],[94.9333,16.077],[94.9556,16.1218],[95.0226,16.1259],[95.0239,16.1525],[95.0557,16.1903],[95.0507,16.2335],[95.0693,16.2367],[95.1006,16.3006],[95.0713,16.2743],[95.0652,16.2477],[95.0432,16.2457],[95.0479,16.1971],[95.0137,16.1616],[95.0148,16.1426],[94.9529,16.1388],[94.9304,16.0942],[94.9029,16.083],[94.9125,16.0273],[94.8918,16.0061],[94.8785,16.0115],[94.8656,16.1259],[94.8888,16.1726],[94.9573,16.187],[95.0257,16.2536],[95.0421,16.3005],[95.0649,16.3023],[95.0509,16.3036],[95.0649,16.3114],[95.0512,16.3124],[95.0505,16.3334],[95.0165,16.2669],[94.9522,16.211],[94.8726,16.1872],[94.8388,16.1108],[94.8487,16.0714],[94.7194,15.8504],[94.6856,15.8371],[94.6361,15.8602],[94.6008,15.9114],[94.7184,15.9908],[94.7362,16.0544],[94.7845,16.0873],[94.763,16.1149],[94.7876,16.1224],[94.8071,16.1907],[94.8411,16.2058],[94.8519,16.2428],[94.8035,16.2062],[94.7764,16.1448],[94.7554,16.1316],[94.7516,16.0937],[94.7196,16.0669],[94.6841,16.0],[94.5736,15.9294],[94.5495,15.9488],[94.6173,16.01],[94.6846,16.1056],[94.6827,16.1957],[94.7209,16.1938],[94.7589,16.2282],[94.7434,16.2539],[94.76,16.2718],[94.7425,16.2618],[94.7567,16.2809],[94.7336,16.2564],[94.7464,16.2348],[94.7262,16.2305],[94.7192,16.2091],[94.6748,16.2152],[94.6649,16.2387],[94.7087,16.2457],[94.7058,16.2669],[94.6983,16.2493],[94.6897,16.2571],[94.6658,16.2531],[94.6989,16.3464],[94.7371,16.3448],[94.7548,16.375],[94.7858,16.3472],[94.8134,16.3467],[94.8254,16.3612],[94.8046,16.3503],[94.7789,16.3575],[94.7655,16.3751],[94.7858,16.3564],[94.8082,16.3542],[94.8254,16.3704],[94.7948,16.3601],[94.759,16.3901],[94.74,16.3827],[94.7347,16.3608],[94.714,16.3708],[94.75,16.4103],[94.7586,16.4005],[94.7705,16.4001],[94.7811,16.41],[94.7839,16.4261],[94.7588,16.4137],[94.7478,16.4265],[94.7126,16.3942],[94.6964,16.4748],[94.7322,16.4964],[94.7463,16.5598],[94.7897,16.5686],[94.8004,16.5816],[94.7833,16.5736],[94.7735,16.5736],[94.8004,16.5907],[94.7465,16.5768],[94.7237,16.5101],[94.6898,16.4927],[94.6796,16.51],[94.7012,16.5426],[94.7103,16.6043],[94.7423,16.6236],[94.724,16.6813],[94.7447,16.6865],[94.7416,16.7301],[94.7218,16.7336],[94.739,16.7214],[94.7218,16.7245],[94.7357,16.7015],[94.7173,16.6913],[94.7097,16.6537],[94.7302,16.628],[94.6814,16.6421],[94.6989,16.6706],[94.6889,16.7396],[94.6847,16.6838],[94.6912,16.6733],[94.6754,16.6933],[94.6781,16.6601],[94.6688,16.6524],[94.6511,16.6702],[94.6557,16.6487],[94.6731,16.6415],[94.6581,16.6184],[94.6913,16.6299],[94.7006,16.6199],[94.6924,16.5549],[94.6644,16.5184],[94.6796,16.3932],[94.6529,16.3403],[94.6251,16.3382],[94.6403,16.3836],[94.6062,16.3372],[94.6021,16.2844],[94.5648,16.2582],[94.5346,16.2883],[94.5464,16.2988],[94.5311,16.2921],[94.5464,16.308],[94.5265,16.2987],[94.5119,16.2832],[94.5109,16.1802],[94.4336,16.0697],[94.3681,16.0546],[94.3419,16.0163],[94.2827,16.0],[94.2435,15.9541],[94.1994,16.0328],[94.2303,16.2468],[94.2433,16.2556],[94.2319,16.3157],[94.2643,16.3877],[94.2771,16.4871],[94.2653,16.5238],[94.2907,16.5295],[94.2897,16.51],[94.3149,16.5105],[94.3503,16.5596],[94.3473,16.5839],[94.3271,16.594],[94.3508,16.6115],[94.3679,16.6057],[94.3582,16.6851],[94.3759,16.7481],[94.4039,16.7793],[94.3799,16.8701],[94.3885,16.8978],[94.4106,16.8803],[94.4434,16.9215],[94.484,16.934],[94.4782,16.9576],[94.4458,16.9448],[94.4567,17.0582],[94.4896,17.1085],[94.4469,17.1709],[94.4644,17.179],[94.4993,17.1476],[94.5216,17.1595],[94.5363,17.1869],[94.5014,17.2162],[94.5089,17.2909],[94.5264,17.2677],[94.5464,17.2811],[94.5409,17.3098],[94.5815,17.2794],[94.5917,17.2951],[94.5715,17.3171],[94.5654,17.4983],[94.5427,17.546],[94.563,17.5839],[94.6099,17.5273],[94.6111,17.5501],[94.58,17.5873],[94.5884,17.6192],[94.5693,17.6453],[94.5595,17.6366],[94.5419,17.6807],[94.5448,17.7349],[94.4898,17.7824],[94.4815,17.9029],[94.439,17.9881],[94.4808,18.0015],[94.4847,18.0557],[94.4469,18.1691],[94.423,18.189],[94.4268,18.2197],[94.4075,18.2462],[94.3372,18.2416],[94.3221,18.2642],[94.3284,18.2928],[94.3911,18.2743],[94.4074,18.3016],[94.4023,18.3463],[94.3816,18.3656],[94.3406,18.3618],[94.3225,18.4359],[94.2545,18.5193],[94.2579,18.6085],[94.2402,18.6458],[94.2319,18.6586],[94.1719,18.7005],[94.1448,18.729],[94.1743,18.705],[94.1769,18.7193],[94.2197,18.709],[94.2779,18.7222],[94.2525,18.7273],[94.28,18.7351],[94.253,18.7341],[94.2492,18.7552],[94.2388,18.7347],[94.2169,18.731],[94.2243,18.7812],[94.2039,18.7527],[94.1994,18.7931],[94.1831,18.7796],[94.1466,18.8143],[94.1762,18.8255],[94.1485,18.8242],[94.1736,18.831],[94.1759,18.8395],[94.1474,18.8336],[94.1523,18.8703],[94.1716,18.8749],[94.1516,18.8778],[94.1696,18.89],[94.1467,18.8848],[94.127,18.8567],[94.1287,18.8786],[94.0748,18.859],[94.1057,18.8905],[94.1353,18.8828],[94.1102,18.9277],[94.113,18.9662],[94.0864,18.8797],[94.0338,18.8947],[94.0552,18.9261],[94.0379,18.9874],[94.0632,19.0284],[94.0586,19.0506],[94.1021,19.0674],[94.097,19.0894],[94.1228,19.0755],[94.1104,19.0976],[94.1466,19.1099],[94.109,19.1011],[94.1466,19.1191],[94.1161,19.1204],[94.0793,19.0839],[94.0274,19.0791],[94.0931,19.1324],[94.1385,19.1423],[94.1357,19.1796],[94.1295,19.1561],[94.1075,19.1513],[94.0927,19.1822],[94.0911,19.1484],[94.0648,19.1263],[94.0735,19.165],[94.0624,19.1881],[94.0568,19.1255],[94.0329,19.1296],[94.0497,19.2127],[94.0711,19.2247],[94.0536,19.2283],[94.0711,19.2339],[94.0469,19.2483],[94.0429,19.2977],[94.0763,19.3569],[94.0715,19.3837],[94.0687,19.3706],[94.0394,19.3453],[94.0315,19.3281],[94.0344,19.2149],[94.0163,19.1814],[93.9914,19.2229],[94.005,19.1555],[93.9663,19.1394],[93.9439,19.1562],[93.9453,19.1934],[93.9092,19.1995],[93.9298,19.1494],[93.9662,19.1155],[93.9534,19.0885],[93.9557,19.0116],[93.9837,18.9567],[93.9399,18.8857],[93.9373,18.8473],[93.8923,18.8923],[93.7728,18.9664],[93.7448,18.9689],[93.7151,19.0075],[93.6742,19.0103],[93.6659,19.0573],[93.6901,19.0753],[93.6986,19.1031],[93.7476,19.1121],[93.707,19.1081],[93.6976,19.1146],[93.7476,19.1213],[93.6942,19.1196],[93.6897,19.0961],[93.6629,19.0763],[93.6393,19.1378],[93.5993,19.1513],[93.5699,19.2256],[93.4741,19.3606],[93.4841,19.4],[93.5135,19.425],[93.5509,19.4232],[93.5672,19.4048],[93.5514,19.4009],[93.5682,19.3954],[93.6041,19.4053],[93.6368,19.3497],[93.6172,19.3482],[93.6001,19.3136],[93.6214,19.332],[93.6655,19.2961],[93.6417,19.2398],[93.6446,19.2146],[93.6815,19.291],[93.722,19.2799],[93.6948,19.2727],[93.7269,19.2662],[93.7207,19.2354],[93.739,19.2475],[93.809,19.2171],[93.8733,19.2375],[93.9559,19.2969],[93.9498,19.3277],[93.9722,19.3422],[93.9817,19.3759],[94.0108,19.3718],[93.9834,19.4055],[93.9663,19.3584],[93.8921,19.2916],[93.8851,19.3011],[93.9191,19.3253],[93.9218,19.3773],[93.9111,19.3353],[93.8846,19.3199],[93.8889,19.3534],[93.8589,19.3878],[93.8596,19.3621],[93.881,19.3449],[93.8692,19.3068],[93.8434,19.2959],[93.8087,19.3077],[93.7751,19.3011],[93.7412,19.3399],[93.7753,19.3312],[93.7784,19.3331],[93.78,19.3542],[93.7704,19.3446],[93.7323,19.3566],[93.7319,19.3826],[93.7145,19.3954],[93.7384,19.393],[93.7393,19.4088],[93.6516,19.4445],[93.639,19.4821],[93.6546,19.4827],[93.6468,19.5031],[93.6875,19.5562],[93.7462,19.5331],[93.7688,19.4761],[93.7758,19.4946],[93.7933,19.4911],[93.8187,19.4551],[93.8567,19.4751],[93.8585,19.4312],[93.877,19.4638],[93.9764,19.4096],[93.9971,19.4434],[93.9909,19.461],[93.9536,19.4479],[93.9081,19.4635],[93.9484,19.4989],[93.9383,19.564],[93.9324,19.4985],[93.9024,19.4885],[93.7811,19.5822],[93.8126,19.5886],[93.8005,19.5986],[93.8164,19.6042],[93.7935,19.614],[93.7602,19.5991],[93.7232,19.625],[93.7741,19.6554],[93.7943,19.6506],[93.7903,19.6741],[93.8193,19.7019],[93.8181,19.7292],[93.8066,19.7392],[93.7986,19.7014],[93.7626,19.6775],[93.727,19.6711],[93.7075,19.6995],[93.7208,19.7391],[93.7914,19.76],[93.7976,19.8329],[93.7873,19.8558],[93.7979,19.8575],[93.8012,19.8819],[93.7933,19.916],[93.7891,19.8712],[93.7386,19.8852],[93.718,19.9021],[93.7457,19.9152],[93.7092,19.9366],[93.7091,19.9673],[93.702,19.9144],[93.6219,19.9171],[93.5518,19.8885],[93.5433,19.8961],[93.5754,19.911],[93.5834,19.9191],[93.5867,19.9378],[93.5688,19.9212],[93.5416,19.924],[93.546,19.9363],[93.5161,19.9234],[93.513,19.9355],[93.5365,19.946],[93.5191,19.951],[93.5365,19.9552],[93.5071,19.9657],[93.5401,19.9909],[93.4818,19.9914],[93.4674,20.0443],[93.4616,20.0484],[93.4762,20.0518],[93.4584,20.0541],[93.4762,20.0609],[93.4548,20.0552],[93.475,19.9998],[93.4661,19.9825],[93.4542,19.9959],[93.4392,19.9925],[93.4527,19.9471],[93.416,19.9708],[93.3816,20.0605],[93.4167,20.0708],[93.4148,20.1029],[93.4329,20.1052],[93.4126,20.1727],[93.3623,20.2736],[93.343,20.2772],[93.3398,20.2996],[93.3234,20.3298],[93.2966,20.33],[93.3259,20.3767],[93.3254,20.4036],[93.2805,20.3482],[93.2801,20.3282],[93.2398,20.306],[93.2306,20.2647],[93.2457,20.2453],[93.2099,20.2347],[93.1825,20.1969],[93.1199,20.1859],[93.2165,20.2769],[93.2259,20.3076],[93.2132,20.3217],[93.2512,20.4261],[93.2372,20.416],[93.2252,20.3917],[93.198,20.3871],[93.2134,20.3803],[93.1984,20.3709],[93.2226,20.3742],[93.203,20.3226],[93.1301,20.3247],[93.1321,20.3602],[93.1564,20.35],[93.1748,20.365],[93.157,20.3564],[93.1309,20.3663],[93.1564,20.3591],[93.1748,20.3741],[93.1352,20.3736],[93.1732,20.3875],[93.1703,20.412],[93.1647,20.422],[93.167,20.4001],[93.1475,20.4043],[93.1195,20.3786],[93.0939,20.3797],[93.0891,20.3928],[93.1167,20.4181],[93.107,20.5041],[93.0887,20.5148],[93.1051,20.5307],[93.0919,20.53],[93.0701,20.602],[93.0483,20.5976],[93.0218,20.6219],[93.0277,20.6439],[93.0056,20.6398],[93.0178,20.6031],[93.072,20.5731],[93.0816,20.5517],[93.043,20.457],[93.0413,20.4865],[93.0636,20.5246],[93.037,20.5407],[93.0542,20.5191],[93.0135,20.4606],[93.0236,20.3847],[93.0091,20.2869],[92.963,20.2257],[92.9449,20.2674],[92.915,20.2419],[92.9146,20.2122],[92.8862,20.2095],[92.9101,20.2009],[92.8862,20.1987],[92.9197,20.1735],[92.8966,20.1094],[92.8531,20.1232],[92.7676,20.196],[92.7873,20.231],[92.7969,20.201],[92.8305,20.1713],[92.8458,20.1732],[92.799,20.2141],[92.7988,20.2491],[92.9446,20.3064],[92.9245,20.3186],[92.8982,20.3078],[92.8409,20.3777],[92.9108,20.3625],[92.9315,20.3771],[92.9417,20.343],[92.9508,20.3739],[92.9161,20.4026],[92.9341,20.4277],[92.9037,20.4768],[92.9117,20.3774],[92.8867,20.4218],[92.8866,20.4039],[92.8571,20.4195],[92.8599,20.4025],[92.8418,20.4017],[92.8216,20.4372],[92.8337,20.4315],[92.8484,20.4643],[92.8275,20.4968],[92.8108,20.4924],[92.7961,20.5101],[92.7639,20.4734],[92.7523,20.4794],[92.7347,20.5629],[92.7524,20.5776],[92.7467,20.5986],[92.7266,20.6168],[92.7482,20.5876],[92.7266,20.6077],[92.7462,20.5829],[92.7311,20.5792],[92.6844,20.6278],[92.6456,20.6891],[92.6451,20.7277],[92.5907,20.7194],[92.5875,20.7459],[92.5713,20.7744],[92.5997,20.7864],[92.6024,20.7973],[92.5948,20.7872],[92.5864,20.7921],[92.5997,20.7956],[92.6024,20.8064],[92.581,20.8017],[92.5649,20.7864],[92.5494,20.8493],[92.5449,20.8026],[92.5688,20.749],[92.5566,20.7647],[92.5466,20.7631],[92.5441,20.7339],[92.591,20.676],[92.6395,20.6791],[92.6954,20.5733],[92.7276,20.5423],[92.72,20.4614],[92.7464,20.4114],[92.7314,20.3683],[92.7324,20.2568],[92.638,20.4332],[92.5281,20.5435],[92.5133,20.5993],[92.4679,20.6402],[92.4661,20.6597],[92.3806,20.693],[92.3631,20.7694],[92.3901,20.8168],[92.3787,20.8246],[92.3584,20.7833],[92.3373,20.8376],[92.3602,20.8555],[92.3353,20.8433],[92.3602,20.8647],[92.3366,20.8509],[92.3146,20.8826],[92.3619,20.9328],[92.3477,20.9871],[92.3313,20.9978],[92.2968,20.9872],[92.2891,21.0036],[92.2836,20.9674],[92.272,20.9911],[92.2694,21.009],[92.2887,21.0133],[92.2694,21.0182],[92.2887,21.0225],[92.271,21.0253],[92.2662,21.0315],[92.279,21.0276],[92.3128,21.0487],[92.3122,21.0703],[92.2774,21.0436],[92.2312,21.1024],[92.2058,21.1024],[92.255,21.0524],[92.2611,20.9271],[92.313,20.8378],[92.3396,20.7492],[92.3059,20.751],[92.2117,20.9253],[92.1847,21.0139],[92.0533,21.1632],[92.0496,21.2642],[92.0289,21.3402],[91.9548,21.4474],[91.9993,21.4963],[92.0221,21.4773],[91.9963,21.5564],[92.0246,21.5942],[92.0184,21.616],[92.0389,21.6384],[92.0409,21.669],[92.021,21.7182],[92.0119,21.6601],[91.9764,21.6633],[91.9796,21.7042],[91.976,21.6835],[91.9617,21.6831],[91.9487,21.7369],[91.9694,21.7292],[91.9964,21.7466],[91.9924,21.7678],[91.9716,21.7472],[91.9545,21.7539],[91.9706,21.7862],[91.9424,21.8042],[91.8952,21.7755],[91.9199,21.8381],[91.9108,21.904],[91.9274,21.9345],[91.8949,21.9689],[91.8548,22.1276],[91.8345,22.1221],[91.8132,22.1836],[91.8351,22.206],[91.842,22.2514],[91.8175,22.2982],[91.8666,22.313],[91.892,22.4042],[91.8723,22.3498],[91.7955,22.2927],[91.7952,22.2686],[91.8281,22.2506],[91.798,22.2196],[91.7818,22.2343],[91.7519,22.3866],[91.7001,22.4841],[91.5811,22.6536],[91.4636,22.7454],[91.486,22.753],[91.4859,22.7668],[91.4692,22.7787],[91.4777,22.7644],[91.4547,22.7602],[91.4369,22.7771],[91.4746,22.8149],[91.4396,22.7947],[91.4746,22.8241],[91.442,22.8049],[91.4719,22.8321],[91.4836,22.8741],[91.4713,22.8879],[91.4922,22.8915],[91.4716,22.897],[91.4884,22.9029],[91.4452,22.9007],[91.441,22.8744],[91.4647,22.869],[91.4204,22.8087],[91.4086,22.7609],[91.3332,22.8293],[91.3506,22.8423],[91.3427,22.8832],[91.3158,22.8302],[91.3451,22.7758],[91.2963,22.8102],[91.1869,22.7977],[91.1164,22.8119],[91.1127,22.8262],[91.0958,22.82],[91.099,22.8052],[91.0404,22.797],[90.9375,22.8561],[90.8246,22.8647],[90.8016,22.9088],[90.7578,22.9387],[90.799,22.8761],[90.776,22.8608],[90.7316,22.8897],[90.6896,22.9783],[90.6294,22.9981],[90.5819,23.0844],[90.5803,23.0743],[90.5673,23.1097],[90.6524,23.2331],[90.6394,23.3079],[90.6776,23.3091],[90.6754,23.3315],[90.6978,23.3365],[90.6844,23.3572],[90.6972,23.3684],[90.6796,23.3628],[90.695,23.3777],[90.6701,23.3584],[90.6678,23.323],[90.5987,23.3393],[90.5866,23.3854],[90.6007,23.4314],[90.5856,23.4578],[90.6303,23.4811],[90.7039,23.481],[90.7178,23.5337],[90.7443,23.5351],[90.7172,23.5407],[90.7443,23.5443],[90.7254,23.5534],[90.7084,23.5386],[90.7073,23.5641],[90.732,23.582],[90.7399,23.6128],[90.7646,23.6199],[90.7639,23.6432],[90.744,23.6599],[90.7578,23.721],[90.7425,23.6938],[90.7403,23.7242],[90.7315,23.7102],[90.7156,23.7414],[90.6818,23.6867],[90.6429,23.6899],[90.6324,23.6392],[90.5628,23.5929],[90.5531,23.5715],[90.5147,23.5814],[90.505,23.6033],[90.4839,23.5866],[90.4616,23.6126],[90.4703,23.6298],[90.4427,23.6684],[90.368,23.7186],[90.3837,23.7022],[90.3658,23.7034],[90.3552,23.7288],[90.3421,23.7401],[90.3176,23.735],[90.3128,23.7642],[90.2986,23.7644],[90.2817,23.7366],[90.2562,23.7306],[90.2298,23.8877],[90.2393,23.8272],[90.194,23.8405],[90.1518,23.8291],[90.1319,23.8674],[90.1117,23.8736],[90.0572,23.8201],[90.0625,23.8769],[90.0468,23.8894],[90.027,23.8813],[90.0227,23.9072],[89.9492,23.9697],[89.9523,23.9846],[89.9328,23.9846],[89.9487,23.9507],[89.9378,23.9462],[90.0,23.907],[90.0144,23.8678],[90.0444,23.8731],[90.0537,23.8654],[90.0466,23.8083],[90.0691,23.8072],[90.0887,23.8209],[90.1247,23.798],[90.1837,23.7932],[90.2068,23.8065],[90.2226,23.7912],[90.2415,23.8058],[90.2059,23.7537],[90.2274,23.7093],[90.1813,23.7401],[90.1926,23.7208],[90.1813,23.731],[90.1865,23.7209],[90.1492,23.7107],[90.1219,23.7371],[90.0698,23.7579],[90.0232,23.7635],[90.0245,23.7952],[90.0021,23.816],[90.0195,23.7535],[90.1068,23.7231],[90.1205,23.7242],[90.1497,23.6951],[90.1739,23.7073],[90.2205,23.6939],[90.2477,23.6984],[90.276,23.6456],[90.3797,23.6073],[90.4007,23.5849],[90.3789,23.5587],[90.4098,23.5711],[90.4377,23.5359],[90.5054,23.563],[90.5297,23.5579],[90.5694,23.4785],[90.5528,23.4887],[90.538,23.4837],[90.5516,23.4215],[90.5281,23.3907],[90.4858,23.4204],[90.4204,23.4161],[90.2542,23.4608],[90.1641,23.5242],[90.1103,23.6129],[89.97,23.6581],[89.9179,23.7216],[89.8638,23.7451],[89.7915,23.8077],[89.7742,23.8995],[89.7688,23.8876],[89.709,23.9509],[89.7275,23.9684],[89.7208,24.0],[89.7153,23.9718],[89.6983,23.9645],[89.7051,23.9991],[89.6707,24.0],[89.6557,23.9269],[89.7033,23.8658],[89.7513,23.8567],[89.7685,23.8359],[89.7571,23.8473],[89.7242,23.8344],[89.6802,23.8626],[89.6824,23.8408],[89.7065,23.8295],[89.6297,23.8456],[89.5468,23.8241],[89.4497,23.8706],[89.4256,23.9133],[89.3865,23.9431],[89.3288,23.9487],[89.2758,23.9881],[89.3128,23.9472],[89.2926,23.9454],[89.2414,23.9813],[89.1845,23.9868],[89.1773,23.9953]]],[[[98.0,14.2877],[97.969,14.3883],[98.0,14.4698],[98.0,14.2877]]]]}}