{"type":"Feature","properties":{"speciesId":480,"category":"LC","source":"IUCN Red List","simplifyTol":0.01,"clippedToSubcontinent":true},"geometry":{"type":"Polygon","coordinates":[[[67.856,37.887],[68.6833,37.9128],[68.8975,38.0],[71.4903,38.0],[71.5528,37.2924],[71.7337,36.8529],[72.3283,36.2583],[73.7501,35.8964],[75.0427,35.7671],[75.6631,35.793],[75.9217,35.5862],[75.9734,35.3018],[75.7149,34.578],[74.4223,34.7072],[73.957,34.6038],[74.1121,33.6215],[74.2155,32.4323],[73.8535,31.6568],[72.7161,30.6744],[71.4749,29.8476],[69.9241,29.1233],[68.1921,28.0634],[67.2614,26.2538],[66.655,25.2921],[66.5501,25.3652],[66.5553,25.3922],[66.5661,25.371],[66.58,25.374],[66.5783,25.4114],[66.5942,25.425],[66.56,25.4529],[66.5576,25.5381],[66.5289,25.5422],[66.5159,25.5634],[66.5428,25.6148],[66.5381,25.6439],[66.5021,25.5767],[66.4799,25.5877],[66.4672,25.5699],[66.4552,25.6194],[66.4454,25.5972],[66.3984,25.584],[66.3676,25.6159],[66.3105,25.61],[66.2969,25.6239],[66.2314,25.5902],[66.1964,25.6014],[66.1337,25.5442],[66.1328,25.5078],[66.0925,25.4805],[66.1956,25.4889],[66.2848,25.5421],[66.3141,25.5377],[66.3349,25.5531],[66.358,25.5248],[66.3972,25.5215],[66.3943,25.5066],[66.4265,25.4826],[66.4752,25.4995],[66.5174,25.492],[66.4928,25.4478],[66.5284,25.4158],[66.5166,25.4055],[66.36,25.4601],[66.2765,25.4678],[66.0391,25.4266],[66.0238,25.4437],[66.0094,25.4361],[66.0144,25.4209],[65.9549,25.4131],[65.8387,25.4194],[65.708,25.3667],[65.4777,25.6075],[65.3743,26.5382],[63.9266,27.9859],[61.8326,28.477],[61.6206,28.387],[61.5766,28.3357],[60.8737,27.9608],[60.0,27.8066],[60.0,38.0],[67.751,38.0],[67.856,37.887]]]}}