{"type":"Feature","properties":{"speciesId":483,"category":"EN","source":"IUCN Red List","simplifyTol":0.01,"clippedToSubcontinent":true},"geometry":{"type":"MultiPolygon","coordinates":[[[[76.9861,9.547],[76.9494,9.5819],[76.9512,9.6095],[76.9769,9.6169],[77.0174,9.6003],[77.0045,9.558],[76.9861,9.547]]],[[[77.1351,9.913],[77.1848,9.9057],[77.1848,9.8523],[77.1278,9.8486],[77.1351,9.913]]],[[[77.473,10.181],[77.4576,10.191],[77.4756,10.2064],[77.4751,10.2397],[77.5079,10.2408],[77.5164,10.2265],[77.473,10.181]]]]}}