{"type":"Feature","properties":{"speciesId":484,"category":"DD","source":"IUCN Red List","simplifyTol":0.01,"clippedToSubcontinent":true},"geometry":{"type":"MultiPolygon","coordinates":[[[[77.4952,10.1372],[77.4312,10.1637],[77.4047,10.2277],[77.4312,10.2918],[77.4952,10.3183],[77.5592,10.2918],[77.5857,10.2277],[77.5592,10.1637],[77.4952,10.1372]]],[[[76.9471,10.3615],[76.9167,10.3741],[76.9041,10.4045],[76.9167,10.435],[76.9471,10.4476],[76.9775,10.435],[76.9901,10.4045],[76.9775,10.3741],[76.9471,10.3615]]]]}}