{"type":"Feature","properties":{"speciesId":485,"category":"DD","source":"IUCN Red List","simplifyTol":0.01,"clippedToSubcontinent":true},"geometry":{"type":"MultiPolygon","coordinates":[[[[76.0926,11.3541],[75.9848,11.375],[75.8892,11.4383],[75.8278,11.5293],[75.805,11.6417],[75.8278,11.7541],[75.8892,11.8451],[75.9848,11.9084],[76.0926,11.9293],[76.2003,11.9084],[76.296,11.8451],[76.3578,11.7529],[76.3802,11.6417],[76.3573,11.5293],[76.296,11.4383],[76.2003,11.375],[76.0926,11.3541]]],[[[75.2418,12.9514],[75.1212,12.9743],[75.0235,13.0355],[74.9576,13.1264],[74.933,13.2385],[74.9576,13.3507],[75.0235,13.4415],[75.1261,13.5047],[75.2418,13.5256],[75.3575,13.5047],[75.4602,13.4415],[75.5261,13.3507],[75.5506,13.2385],[75.5261,13.1264],[75.4602,13.0355],[75.3625,12.9743],[75.2418,12.9514]]]]}}