{"type":"Feature","properties":{"speciesId":487,"category":"LC","source":"IUCN Red List","simplifyTol":0.01,"clippedToSubcontinent":true},"geometry":{"type":"MultiPolygon","coordinates":[[[[77.1183,10.4244],[77.1793,10.4127],[77.1723,10.3447],[77.1887,10.3611],[77.2074,10.3517],[77.2074,10.3283],[77.1558,10.2532],[77.1793,10.2556],[77.2074,10.2908],[77.2778,10.2556],[77.2707,10.3072],[77.3059,10.347],[77.3341,10.3517],[77.3599,10.3306],[77.3786,10.3517],[77.4349,10.3517],[77.4466,10.3001],[77.4748,10.3142],[77.4724,10.3306],[77.5217,10.3165],[77.5217,10.3564],[77.5545,10.3681],[77.6038,10.3588],[77.6436,10.3752],[77.6835,10.3541],[77.6835,10.3259],[77.646,10.2743],[77.5381,10.2368],[77.456,10.1547],[77.3786,10.1219],[77.3247,10.1219],[77.2567,10.082],[77.2661,10.0398],[77.1418,10.0117],[77.0996,10.0398],[76.9753,10.0398],[76.9401,10.068],[76.9542,10.0844],[76.9424,10.1196],[76.9893,10.1242],[76.9659,10.1383],[76.9448,10.1899],[76.9753,10.2532],[76.9401,10.2345],[76.9002,10.2626],[76.9119,10.2837],[76.8979,10.3095],[76.9518,10.3799],[77.0222,10.415],[77.1183,10.4244]]],[[[76.6423,11.4913],[76.6587,11.4762],[76.8392,11.4543],[76.8474,11.4284],[76.7585,11.349],[76.6491,11.2902],[76.6327,11.2177],[76.6081,11.1918],[76.5602,11.1863],[76.5465,11.1699],[76.4973,11.1877],[76.4877,11.1712],[76.4344,11.1863],[76.4234,11.2287],[76.4439,11.2574],[76.5151,11.2889],[76.5246,11.3354],[76.4932,11.3545],[76.4918,11.3764],[76.4508,11.3723],[76.4412,11.4024],[76.4986,11.4243],[76.5547,11.4967],[76.6423,11.4913]]]]}}