{"type":"Feature","properties":{"speciesId":489,"category":"LC","source":"IUCN Red List","simplifyTol":0.01,"clippedToSubcontinent":true},"geometry":{"type":"Polygon","coordinates":[[[86.3313,27.8319],[85.768,27.9453],[85.383,28.1886],[85.3423,28.3008],[85.4187,28.4651],[87.0373,28.4569],[88.148,28.2492],[88.8183,28.0342],[89.0338,27.8724],[89.1926,27.7018],[89.2591,27.5578],[89.1808,27.3773],[89.0449,27.2195],[89.0064,27.244],[87.7432,27.3957],[87.1347,27.4464],[86.7798,27.6113],[86.5219,27.7098],[86.3313,27.8319]]]}}