{"type":"Feature","properties":{"speciesId":49,"category":"LC","source":"IUCN Red List","simplifyTol":0.01,"clippedToSubcontinent":true},"geometry":{"type":"MultiPolygon","coordinates":[[[[80.2088,9.8235],[80.3359,9.6603],[80.7819,9.2909],[80.8543,9.1219],[80.9707,8.9388],[80.9633,8.918],[80.9804,8.929],[80.9832,8.8911],[80.9912,8.9048],[81.0292,8.8595],[81.0577,8.8584],[81.0751,8.8126],[81.1969,8.6475],[81.191,8.6062],[81.2001,8.581],[81.2154,8.5793],[81.2173,8.5458],[81.1959,8.5323],[81.1963,8.5695],[81.1629,8.5665],[81.1821,8.5077],[81.1598,8.5018],[81.1679,8.4615],[81.2327,8.4569],[81.2742,8.4326],[81.2742,8.4583],[81.2661,8.4465],[81.2511,8.4568],[81.2534,8.5032],[81.2925,8.5224],[81.3232,8.4909],[81.364,8.3567],[81.378,8.2419],[81.4472,8.0343],[81.5388,7.9227],[81.5577,7.921],[81.5373,7.8981],[81.5632,7.83],[81.597,7.8247],[81.6246,7.7729],[81.6701,7.7536],[81.7416,7.6448],[81.842,7.3159],[81.8289,7.0907],[81.8515,7.0267],[81.8407,6.9789],[81.8191,6.9896],[81.828,6.9672],[81.8432,6.9669],[81.8066,6.8853],[81.8221,6.8884],[81.8185,6.8675],[81.8099,6.8542],[81.7913,6.8621],[81.8146,6.8344],[81.7936,6.8088],[81.7952,6.7653],[81.7787,6.7647],[81.7982,6.7586],[81.7462,6.6639],[81.7366,6.592],[81.7027,6.5669],[81.6706,6.482],[81.6221,6.4367],[81.5675,6.4241],[81.5838,6.4056],[81.5302,6.3612],[81.4923,6.3525],[81.4571,6.3055],[81.2988,6.1945],[81.1924,6.1589],[81.1648,6.1576],[81.1673,6.1776],[81.1483,6.1441],[81.1038,6.1174],[80.9869,6.1071],[80.8361,6.0408],[80.7957,6.0415],[80.6904,5.9607],[80.6344,5.9575],[80.5571,5.9168],[80.5234,5.9411],[80.4191,5.9431],[80.4224,5.9588],[80.4059,5.969],[80.3882,5.955],[80.3531,5.9595],[80.2145,6.0069],[80.1987,6.0351],[80.1888,6.022],[80.0688,6.1289],[80.0017,6.2656],[79.9954,6.3364],[79.9448,6.464],[79.9568,6.4771],[79.9498,6.5149],[79.839,6.8057],[79.8133,6.9333],[79.8415,6.9756],[79.8393,7.0027],[79.7892,7.1934],[79.8295,7.2756],[79.8148,7.2761],[79.773,7.4826],[79.7679,7.7275],[79.7215,7.9316],[79.6767,8.0445],[79.6693,8.1154],[79.6798,8.1343],[79.6686,8.2138],[79.6882,8.2167],[79.7083,8.28],[79.7514,8.3497],[79.7266,8.3071],[79.7213,8.2617],[79.7357,8.2739],[79.7276,8.2571],[79.7468,8.2541],[79.7391,8.2156],[79.7106,8.2008],[79.7194,8.1829],[79.7019,8.0868],[79.7244,8.0582],[79.7129,8.0],[79.7889,7.9719],[79.7785,7.8839],[79.7968,7.9206],[79.8042,8.0071],[79.7599,8.0682],[79.7789,8.0611],[79.765,8.0793],[79.804,8.1396],[79.7857,8.2037],[79.7649,8.2203],[79.7798,8.2174],[79.76,8.2301],[79.7804,8.2374],[79.8045,8.2919],[79.8179,8.2742],[79.8287,8.2846],[79.8065,8.3011],[79.8148,8.4289],[79.8335,8.4496],[79.8411,8.5352],[79.8966,8.559],[79.8895,8.5846],[79.9117,8.6155],[79.9261,8.7174],[79.895,8.7907],[79.9103,8.8068],[79.8887,8.8083],[79.901,8.8147],[79.8892,8.8188],[79.906,8.8913],[79.8825,8.9299],[80.0106,9.0133],[80.0363,9.0562],[80.056,9.0999],[80.0463,9.1203],[80.0876,9.2073],[80.0819,9.2768],[80.098,9.2906],[80.0379,9.3287],[80.0252,9.3914],[80.1168,9.4347],[80.1563,9.4827],[80.1164,9.5361],[80.0243,9.5979],[80.0579,9.6249],[79.9878,9.6509],[79.9413,9.7077],[79.9183,9.6871],[79.8801,9.7587],[79.9231,9.7921],[79.9927,9.8126],[80.0758,9.8059],[80.1849,9.8314],[80.2088,9.8235]]],[[[73.6544,10.8231],[73.6325,10.8278],[73.6583,10.8286],[73.6544,10.8231]]],[[[72.7637,11.2543],[72.762,11.2562],[72.7636,11.2558],[72.7637,11.2543]]],[[[72.9736,11.4758],[72.9733,11.5042],[72.9747,11.5075],[72.983,11.485],[72.9736,11.4758]]],[[[72.6866,11.6942],[72.6725,11.6897],[72.6855,11.7],[72.6866,11.6942]]],[[[75.3329,11.8525],[75.3331,11.8524],[75.3363,11.8487],[75.3329,11.8525]]],[[[75.3395,11.855],[75.3401,11.8553],[75.3363,11.8487],[75.3395,11.855]]],[[[75.3469,11.8563],[75.3429,11.8573],[75.3459,11.8571],[75.3469,11.8563]]],[[[74.7952,12.8318],[74.7957,12.8378],[74.7964,12.8366],[74.7952,12.8318]]],[[[74.5225,13.9508],[74.5187,13.9498],[74.5226,13.9508],[74.5225,13.9508]]],[[[74.4679,14.0276],[74.4675,14.0303],[74.4681,14.0299],[74.4679,14.0276]]],[[[74.3243,14.509],[74.3184,14.5014],[74.3241,14.5103],[74.3243,14.509]]],[[[74.3241,14.5103],[74.3171,14.5185],[74.324,14.5117],[74.3241,14.5103]]],[[[73.8883,15.0993],[73.8885,15.1046],[73.8891,15.1036],[73.8883,15.0993]]],[[[73.8883,15.1049],[73.8825,15.1086],[73.8876,15.1058],[73.8883,15.1049]]],[[[73.8578,15.4111],[73.8556,15.4075],[73.8602,15.4192],[73.8578,15.4111]]],[[[73.6568,15.7146],[73.6543,15.7202],[73.6574,15.7154],[73.6568,15.7146]]],[[[80.9125,15.7347],[80.8416,15.8033],[80.8488,15.8433],[80.9622,15.7658],[80.9125,15.7347]]],[[[73.3211,16.5168],[73.318,16.5132],[73.3199,16.5166],[73.3211,16.5168]]],[[[73.3223,16.5171],[73.3239,16.5163],[73.3212,16.5168],[73.3223,16.5171]]],[[[73.1835,17.273],[73.1906,17.2605],[73.1824,17.2736],[73.1835,17.273]]],[[[73.1775,17.2689],[73.1811,17.2742],[73.1824,17.2736],[73.1775,17.2689]]],[[[72.9884,19.0086],[72.9906,19.0162],[72.9917,19.017],[72.9884,19.0086]]],[[[72.9928,19.0178],[72.9952,19.0161],[72.9917,19.017],[72.9928,19.0178]]],[[[86.2289,20.0381],[86.2339,20.05],[86.2577,20.04],[86.2539,20.0381],[86.2289,20.0381]]],[[[72.8585,20.634],[72.8575,20.6368],[72.8582,20.6363],[72.8585,20.634]]],[[[72.8757,20.6959],[72.8743,20.6985],[72.8757,20.6966],[72.8757,20.6959]]],[[[72.8785,20.7105],[72.877,20.7159],[72.8789,20.7111],[72.8785,20.7105]]],[[[72.8783,20.7329],[72.8792,20.7372],[72.8798,20.7361],[72.8783,20.7329]]],[[[72.8756,20.737],[72.8786,20.7384],[72.8792,20.7373],[72.8756,20.737]]],[[[72.9011,20.7528],[72.8995,20.7574],[72.9021,20.7522],[72.9011,20.7528]]],[[[70.5916,20.7702],[70.5903,20.7704],[70.5916,20.7702],[70.5916,20.7702]]],[[[72.8685,20.7856],[72.8693,20.7863],[72.8754,20.7858],[72.8685,20.7856]]],[[[72.889,20.7891],[72.8858,20.7855],[72.8879,20.7889],[72.889,20.7891]]],[[[72.8901,20.7893],[72.8861,20.7763],[72.889,20.7891],[72.8901,20.7893]]],[[[72.8554,20.7925],[72.8526,20.794],[72.8532,20.7941],[72.8554,20.7925]]],[[[72.848,20.798],[72.8447,20.8015],[72.8484,20.799],[72.848,20.798]]],[[[70.491,20.8102],[70.4813,20.8182],[70.4819,20.818],[70.491,20.8102]]],[[[70.4555,20.8302],[70.4482,20.8365],[70.4551,20.8314],[70.4555,20.8302]]],[[[71.6023,20.9815],[71.6016,20.9825],[71.6019,20.988],[71.6023,20.9815]]],[[[72.7889,20.9987],[72.7818,20.9964],[72.7897,20.9998],[72.7889,20.9987]]],[[[72.7897,20.9998],[72.7898,21.0048],[72.7904,21.001],[72.7897,20.9998]]],[[[71.6507,21.0051],[71.6527,21.0081],[71.6534,21.0089],[71.6507,21.0051]]],[[[71.6541,21.0098],[71.663,21.0104],[71.6534,21.0089],[71.6541,21.0098]]],[[[72.7713,21.0342],[72.7675,21.0335],[72.767,21.0344],[72.7713,21.0342]]],[[[72.7389,21.0343],[72.7384,21.0343],[72.7428,21.0382],[72.7389,21.0343]]],[[[72.7666,21.0353],[72.7713,21.0412],[72.767,21.0344],[72.7666,21.0353]]],[[[72.809,21.0687],[72.7993,21.0671],[72.8087,21.0697],[72.809,21.0687]]],[[[72.8052,21.0712],[72.8083,21.0707],[72.8087,21.0697],[72.8052,21.0712]]],[[[72.7549,21.1102],[72.7509,21.1126],[72.7515,21.1128],[72.7549,21.1102]]],[[[72.5924,21.1868],[72.5907,21.1928],[72.5924,21.1876],[72.5924,21.1868]]],[[[72.5848,21.1954],[72.5879,21.2009],[72.5882,21.1995],[72.5848,21.1954]]],[[[72.6335,21.2396],[72.6286,21.2427],[72.6337,21.2405],[72.6335,21.2396]]],[[[72.1538,21.4016],[72.1543,21.4023],[72.1762,21.4172],[72.1538,21.4016]]],[[[88.8291,21.52],[88.7958,21.5594],[88.798,21.5997],[88.8202,21.6086],[88.8683,21.5794],[88.8836,21.55],[88.8739,21.5264],[88.8291,21.52]]],[[[72.798,21.655],[72.798,21.6551],[72.798,21.6552],[72.798,21.655]]],[[[72.6944,21.6092],[72.5966,21.6156],[72.5736,21.6436],[72.6039,21.6586],[72.7364,21.6553],[72.6944,21.6092]]],[[[88.0983,21.6194],[88.023,21.6344],[88.0152,21.6608],[88.0627,21.8194],[88.1027,21.8761],[88.1272,21.8431],[88.1369,21.7697],[88.1355,21.7233],[88.0983,21.6194]]],[[[88.6152,21.7847],[88.5639,21.7978],[88.5494,21.8269],[88.6122,21.9217],[88.6461,21.9072],[88.6177,21.8369],[88.6152,21.7847]]],[[[72.2156,21.9185],[72.2148,21.9252],[72.2153,21.9248],[72.2156,21.9185]]],[[[88.0525,21.8478],[88.0383,21.8869],[88.0675,21.9447],[88.0833,21.9486],[88.1055,21.9075],[88.0525,21.8478]]],[[[72.6636,21.9819],[72.6626,21.9824],[72.6636,21.9852],[72.6636,21.9819]]],[[[72.3412,22.1522],[72.3412,22.1814],[72.3419,22.182],[72.3412,22.1522]]],[[[72.3424,22.1826],[72.3474,22.181],[72.3419,22.182],[72.3424,22.1826]]],[[[72.7371,22.1936],[72.7329,22.1861],[72.7359,22.1941],[72.7371,22.1936]]],[[[72.7324,22.1928],[72.7349,22.1946],[72.7359,22.1941],[72.7324,22.1928]]],[[[72.6334,22.211],[72.6206,22.2142],[72.6193,22.2145],[72.62,22.2144],[72.6334,22.211]]],[[[72.7279,22.2153],[72.7231,22.2172],[72.7283,22.2163],[72.7279,22.2153]]],[[[72.718,22.224],[72.7164,22.2261],[72.7172,22.2261],[72.718,22.224]]],[[[72.4598,22.232],[72.4517,22.2237],[72.4524,22.2257],[72.4598,22.232]]],[[[72.7051,22.2303],[72.693,22.2378],[72.6935,22.2375],[72.7051,22.2303]]],[[[72.618,22.2627],[72.6133,22.2627],[72.6189,22.2635],[72.618,22.2627]]],[[[72.6171,22.2672],[72.6197,22.2643],[72.6189,22.2635],[72.6171,22.2672]]],[[[69.5194,22.3927],[69.5116,22.3952],[69.512,22.3964],[69.5194,22.3927]]],[[[69.5123,22.3975],[69.521,22.3976],[69.512,22.3964],[69.5123,22.3975]]],[[[69.4869,22.4261],[69.4871,22.4262],[69.4871,22.4262],[69.4869,22.4261]]],[[[69.6786,22.7422],[69.6783,22.7426],[69.6785,22.7425],[69.6786,22.7422]]],[[[70.4183,22.97],[70.4242,22.9836],[70.4249,22.9826],[70.4183,22.97]]],[[[90.6471,23.6476],[90.7025,23.6524],[90.7301,23.6309],[90.7061,23.6271],[90.6987,23.5956],[90.6753,23.5769],[90.6238,23.6235],[90.6287,23.6553],[90.6471,23.6476]]],[[[90.6199,23.6254],[90.613,23.6569],[90.6336,23.6642],[90.6205,23.6478],[90.6199,23.6254]]],[[[90.6544,23.6613],[90.6397,23.6628],[90.6427,23.669],[90.6544,23.6613]]],[[[90.6343,23.6736],[90.6232,23.6724],[90.6177,23.6798],[90.6343,23.6736]]],[[[90.6871,23.6597],[90.6715,23.6628],[90.6615,23.6714],[90.6966,23.6788],[90.6871,23.6597]]],[[[90.7033,23.6942],[90.6648,23.6848],[90.6848,23.7266],[90.7033,23.6942]]],[[[67.5963,23.8122],[67.6027,23.8347],[67.603,23.8337],[67.5963,23.8122]]],[[[67.5884,23.8415],[67.5957,23.8429],[67.5963,23.8423],[67.5884,23.8415]]],[[[67.8053,23.8437],[67.8052,23.8445],[67.8065,23.853],[67.8053,23.8437]]],[[[68.0819,23.8535],[68.0817,23.8535],[68.0738,23.8555],[68.0819,23.8535]]],[[[68.1346,23.8557],[68.1381,23.8565],[68.1383,23.8563],[68.1346,23.8557]]],[[[68.1075,23.8557],[68.1072,23.8563],[68.105,23.8659],[68.1075,23.8557]]],[[[67.5437,23.8743],[67.5424,23.8831],[67.543,23.8839],[67.5437,23.8743]]],[[[67.5508,23.8703],[67.5492,23.8841],[67.5494,23.8838],[67.5508,23.8703]]],[[[67.4798,23.8852],[67.4651,23.8992],[67.4659,23.8987],[67.4798,23.8852]]],[[[67.8136,23.8994],[67.8081,23.8755],[67.8136,23.8995],[67.8136,23.8994]]],[[[67.4639,23.9],[67.46,23.9004],[67.4399,23.9033],[67.4639,23.9]]],[[[68.2441,23.9366],[68.234,23.9287],[68.2447,23.9372],[68.2441,23.9366]]],[[[67.4068,23.9907],[67.405,23.9828],[67.4064,23.9916],[67.4068,23.9907]]],[[[67.4033,23.995],[67.406,23.9925],[67.4064,23.9916],[67.4033,23.995]]],[[[67.364,24.0616],[67.3602,24.0621],[67.365,24.0625],[67.364,24.0616]]],[[[67.3652,24.0662],[67.3658,24.0633],[67.365,24.0625],[67.3652,24.0662]]],[[[67.3362,24.1112],[67.3359,24.1105],[67.3328,24.1179],[67.3362,24.1112]]],[[[67.3953,24.1281],[67.3909,24.1238],[67.395,24.1292],[67.3953,24.1281]]],[[[67.395,24.1293],[67.3933,24.1318],[67.3948,24.1302],[67.395,24.1293]]],[[[67.3863,24.2119],[67.391,24.2098],[67.3871,24.2109],[67.3863,24.2119]]],[[[67.3144,24.2142],[67.3066,24.2164],[67.3152,24.2151],[67.3144,24.2142]]],[[[67.3153,24.2152],[67.3154,24.219],[67.3159,24.2161],[67.3153,24.2152]]],[[[67.3854,24.2129],[67.3854,24.2249],[67.3863,24.2119],[67.3854,24.2129]]],[[[67.3006,24.2515],[67.3004,24.2525],[67.3044,24.2553],[67.3006,24.2515]]],[[[67.3684,24.2827],[67.3649,24.2869],[67.3659,24.2866],[67.3684,24.2827]]],[[[67.3493,24.2777],[67.3636,24.2874],[67.3648,24.287],[67.3493,24.2777]]],[[[67.2747,24.3043],[67.2766,24.3018],[67.2735,24.3044],[67.2747,24.3043]]],[[[67.2682,24.299],[67.2721,24.3046],[67.2735,24.3044],[67.2682,24.299]]],[[[67.292,24.3199],[67.2871,24.3156],[67.2924,24.321],[67.292,24.3199]]],[[[67.2912,24.3248],[67.2928,24.3222],[67.2924,24.321],[67.2912,24.3248]]],[[[67.4282,24.3412],[67.4312,24.3361],[67.4275,24.3417],[67.4282,24.3412]]],[[[67.4263,24.3415],[67.4187,24.3401],[67.4275,24.3417],[67.4263,24.3415]]],[[[67.4702,24.3386],[67.4766,24.3449],[67.4778,24.3454],[67.4702,24.3386]]],[[[67.3884,24.3646],[67.3934,24.3758],[67.3926,24.3736],[67.3884,24.3646]]],[[[67.3765,24.3944],[67.3797,24.395],[67.3719,24.397],[67.3765,24.3944]]],[[[67.346,24.4337],[67.345,24.4345],[67.3515,24.4393],[67.346,24.4337]]],[[[67.3585,24.4423],[67.3589,24.4486],[67.3597,24.4493],[67.3585,24.4423]]],[[[67.3605,24.4501],[67.3634,24.4497],[67.3597,24.4493],[67.3605,24.4501]]],[[[67.3209,24.4634],[67.3211,24.4637],[67.3227,24.4645],[67.3209,24.4634]]],[[[67.4069,24.4788],[67.4075,24.4779],[67.4053,24.4751],[67.4069,24.4788]]],[[[67.4045,24.4789],[67.3983,24.4792],[67.4069,24.4788],[67.4045,24.4789]]],[[[67.3263,24.4919],[67.3256,24.5028],[67.3269,24.4926],[67.3263,24.4919]]],[[[67.3627,24.5125],[67.3651,24.5053],[67.3618,24.5151],[67.3627,24.5125]]],[[[67.3622,24.5161],[67.3661,24.5164],[67.3618,24.5151],[67.3622,24.5161]]],[[[67.3437,24.5442],[67.3451,24.5387],[67.3431,24.5434],[67.3437,24.5442]]],[[[67.3437,24.5442],[67.3442,24.5449],[67.3469,24.545],[67.3437,24.5442]]],[[[67.2849,24.5569],[67.2758,24.5556],[67.2852,24.5579],[67.2849,24.5569]]],[[[67.2852,24.5579],[67.2699,24.5771],[67.2855,24.5589],[67.2852,24.5579]]],[[[67.2905,24.5757],[67.2936,24.5791],[67.2936,24.5788],[67.2905,24.5757]]],[[[67.3071,24.5888],[67.3035,24.5882],[67.3078,24.5897],[67.3071,24.5888]]],[[[67.3113,24.5989],[67.3084,24.5905],[67.3078,24.5897],[67.3113,24.5989]]],[[[67.3691,24.6357],[67.3604,24.6381],[67.3694,24.6357],[67.3691,24.6357]]],[[[67.3631,24.7155],[67.3617,24.7085],[67.3623,24.7163],[67.3631,24.7155]]],[[[67.3598,24.717],[67.3575,24.7176],[67.3623,24.7163],[67.3598,24.717]]],[[[67.436,24.7546],[67.4323,24.757],[67.4373,24.7541],[67.436,24.7546]]],[[[67.4373,24.7542],[67.4409,24.759],[67.4383,24.7538],[67.4373,24.7542]]],[[[67.3974,24.7692],[67.4038,24.772],[67.4038,24.7715],[67.3974,24.7692]]],[[[67.4334,24.7747],[67.4296,24.7725],[67.4337,24.7761],[67.4334,24.7747]]],[[[67.4312,24.7801],[67.434,24.7775],[67.4337,24.7761],[67.4312,24.7801]]],[[[67.295,24.7745],[67.2694,24.7829],[67.2948,24.7757],[67.295,24.7745]]],[[[67.2167,24.7918],[67.2152,24.7891],[67.216,24.7929],[67.2167,24.7918]]],[[[67.21,24.7974],[67.2153,24.7941],[67.216,24.7929],[67.21,24.7974]]],[[[66.9503,24.8095],[66.9526,24.8146],[66.9531,24.8149],[66.9503,24.8095]]],[[[66.9392,24.8275],[66.9398,24.8286],[66.9436,24.8304],[66.9392,24.8275]]],[[[66.9063,24.8372],[66.9052,24.8375],[66.9054,24.8375],[66.9063,24.8372]]],[[[66.8825,24.8505],[66.8822,24.8495],[66.8825,24.8506],[66.8825,24.8505]]],[[[66.8825,24.8507],[66.8828,24.852],[66.8893,24.8549],[66.8825,24.8507]]],[[[66.9412,24.8542],[66.9417,24.8552],[66.9441,24.8555],[66.9412,24.8542]]],[[[66.9496,24.8584],[66.9486,24.8586],[66.9496,24.8584],[66.9496,24.8584]]],[[[66.6923,24.8918],[66.682,24.8801],[66.692,24.893],[66.6923,24.8918]]],[[[66.692,24.893],[66.6858,24.8926],[66.6917,24.8943],[66.692,24.893]]],[[[66.6691,24.9739],[66.664,24.9932],[66.669,24.9748],[66.6691,24.9739]]],[[[61.7064,25.0712],[61.7078,25.0788],[61.7079,25.0783],[61.7064,25.0712]]],[[[61.8296,25.0958],[61.8297,25.0961],[61.8348,25.0997],[61.8296,25.0958]]],[[[61.7553,25.1559],[61.7548,25.1626],[61.7555,25.1567],[61.7553,25.1559]]],[[[61.687,25.1855],[61.6839,25.1887],[61.6847,25.1887],[61.687,25.1855]]],[[[64.6643,25.1933],[64.6288,25.1946],[64.6285,25.1947],[64.6643,25.1933]]],[[[61.6242,25.1872],[61.614,25.1995],[61.6142,25.1994],[61.6242,25.1872]]],[[[63.4713,25.2048],[63.4713,25.2051],[63.4714,25.2049],[63.4713,25.2048]]],[[[63.4656,25.2311],[63.456,25.2365],[63.454,25.2391],[63.4557,25.2372],[63.4656,25.2311]]],[[[65.0879,25.3085],[65.0922,25.31],[65.0932,25.31],[65.0879,25.3085]]],[[[63.462,25.3025],[63.4643,25.3102],[63.4649,25.3111],[63.462,25.3025]]],[[[65.1488,25.3116],[65.1449,25.3111],[65.1461,25.3114],[65.1488,25.3116]]],[[[65.1535,25.312],[65.1542,25.3117],[65.1489,25.3116],[65.1535,25.312]]],[[[65.1734,25.3164],[65.1725,25.3169],[65.1734,25.3164],[65.1734,25.3164]]],[[[65.0675,25.3184],[65.0709,25.3203],[65.0715,25.3193],[65.0675,25.3184]]],[[[65.1983,25.3287],[65.1982,25.3292],[65.1993,25.3341],[65.1983,25.3287]]],[[[65.203,25.3401],[65.2038,25.3408],[65.1993,25.3341],[65.203,25.3401]]],[[[63.4698,25.318],[63.5059,25.3457],[63.5066,25.3461],[63.4698,25.318]]],[[[66.5439,25.3687],[66.5407,25.3687],[66.5448,25.3693],[66.5439,25.3687]]],[[[66.5502,25.374],[66.5496,25.3729],[66.5448,25.3693],[66.5502,25.374]]],[[[65.4189,25.3817],[65.4227,25.3826],[65.4238,25.3822],[65.4189,25.3817]]],[[[65.2249,25.3818],[65.2254,25.3822],[65.2388,25.3851],[65.2249,25.3818]]],[[[65.3322,25.3888],[65.3413,25.3902],[65.3421,25.3901],[65.3322,25.3888]]],[[[65.502,25.3833],[65.5068,25.3964],[65.5077,25.4023],[65.5066,25.3953],[65.502,25.3833]]],[[[66.4923,25.4081],[66.4967,25.4116],[66.4967,25.4114],[66.4923,25.4081]]],[[[63.9508,25.4126],[63.9383,25.4048],[63.9377,25.4073],[63.9508,25.4126]]],[[[65.8972,25.4122],[65.9103,25.4143],[65.9035,25.4131],[65.8972,25.4122]]],[[[65.9209,25.4137],[65.9116,25.4145],[65.9127,25.4147],[65.9209,25.4137]]],[[[65.9252,25.4132],[65.9662,25.4206],[65.9673,25.4206],[65.9525,25.418],[65.9252,25.4132]]],[[[63.9661,25.4224],[63.9622,25.4243],[63.962,25.4254],[63.9661,25.4224]]],[[[63.9618,25.4264],[63.9635,25.4295],[63.962,25.4254],[63.9618,25.4264]]],[[[66.4695,25.4318],[66.4687,25.4322],[66.4675,25.4339],[66.4695,25.4318]]],[[[65.9822,25.4409],[65.9794,25.4368],[65.9815,25.4413],[65.9822,25.4409]]],[[[66.0673,25.4755],[66.0664,25.4756],[66.0648,25.4771],[66.0673,25.4755]]],[[[66.0621,25.4796],[66.0653,25.485],[66.0648,25.4771],[66.0621,25.4796]]],[[[66.4846,25.4817],[66.4847,25.4827],[66.4866,25.4851],[66.4846,25.4817]]],[[[66.1332,25.4842],[66.1429,25.4856],[66.1426,25.4855],[66.1332,25.4842]]],[[[66.0659,25.4861],[66.07,25.4876],[66.0653,25.485],[66.0659,25.4861]]],[[[66.5267,25.4851],[66.526,25.5032],[66.5269,25.4858],[66.5267,25.4851]]],[[[66.104,25.5128],[66.101,25.5213],[66.1041,25.5129],[66.104,25.5128]]],[[[66.334,25.5228],[66.3329,25.5231],[66.3503,25.5249],[66.334,25.5228]]],[[[66.5117,25.5389],[66.516,25.5391],[66.5159,25.539],[66.5117,25.5389]]],[[[66.2871,25.5418],[66.2853,25.5426],[66.2868,25.5422],[66.2871,25.5418]]],[[[66.5195,25.541],[66.523,25.5438],[66.5238,25.5428],[66.5195,25.541]]],[[[66.1365,25.5703],[66.1318,25.5672],[66.143,25.5751],[66.1365,25.5703]]],[[[66.4652,25.5833],[66.4622,25.5851],[66.4632,25.5853],[66.4652,25.5833]]],[[[66.1979,25.59],[66.2017,25.5903],[66.2017,25.5902],[66.1979,25.59]]],[[[66.4734,25.5854],[66.4731,25.5853],[66.4767,25.5917],[66.4734,25.5854]]],[[[66.156,25.5953],[66.1522,25.5866],[66.1596,25.5987],[66.156,25.5953]]],[[[66.2047,25.5986],[66.2048,25.5999],[66.2089,25.6011],[66.2047,25.5986]]],[[[66.1603,25.5993],[66.1667,25.6014],[66.1596,25.5987],[66.1603,25.5993]]],[[[66.4373,25.6025],[66.4392,25.5955],[66.4366,25.6031],[66.4373,25.6025]]],[[[66.4329,25.603],[66.4304,25.6028],[66.4366,25.6031],[66.4329,25.603]]],[[[66.4808,25.6027],[66.4803,25.6034],[66.4827,25.6044],[66.4808,25.6027]]],[[[66.5105,25.6064],[66.5131,25.6148],[66.5132,25.6144],[66.5105,25.6064]]],[[[66.5116,25.6194],[66.513,25.6151],[66.5103,25.6201],[66.5116,25.6194]]],[[[66.5103,25.6201],[66.5072,25.6204],[66.5092,25.6208],[66.5103,25.6201]]],[[[66.4955,25.6342],[66.4953,25.6338],[66.4955,25.6342],[66.4955,25.6342]]],[[[66.4967,25.6356],[66.5005,25.6403],[66.5014,25.6408],[66.4967,25.6356]]],[[[66.5124,25.6412],[66.5101,25.6339],[66.512,25.6419],[66.5124,25.6412]]],[[[66.5084,25.6439],[66.5095,25.6442],[66.512,25.6419],[66.5084,25.6439]]],[[[78.9414,32.3508],[78.9002,32.36],[78.7611,32.4647],[78.7353,32.5461],[78.7465,32.6028],[79.0924,32.4541],[79.0483,32.3814],[78.9414,32.3508]]],[[[72.9044,20.7533],[72.8955,20.8128],[72.8561,20.8094],[72.8172,20.8442],[72.8233,21.0678],[72.7783,21.1264],[72.673,21.0742],[72.6011,21.0825],[72.5861,21.0972],[72.5855,21.1272],[72.6883,21.1961],[72.615,21.2592],[72.5777,21.2581],[72.5344,21.3781],[72.7222,21.4553],[72.7166,21.4786],[72.6855,21.475],[72.5561,21.4133],[72.6016,21.4944],[72.7836,21.6322],[72.8686,21.6425],[73.0814,21.73],[73.1011,21.7536],[73.0919,21.7647],[72.9069,21.6817],[72.7588,21.6678],[72.7108,21.6864],[72.5975,21.6861],[72.5119,21.6639],[72.4955,21.6947],[72.5272,21.7611],[72.5377,21.8481],[72.5966,21.9283],[72.6222,21.9411],[72.6513,21.9303],[72.7047,21.9864],[72.6786,21.9925],[72.593,21.9603],[72.5219,21.9072],[72.498,21.9172],[72.4711,21.9767],[72.5069,22.1378],[72.5458,22.1953],[72.5955,22.2089],[72.7172,22.1647],[72.788,22.2397],[72.8605,22.2117],[72.8853,22.2161],[72.8911,22.2625],[72.8777,22.2786],[72.7883,22.2722],[72.7502,22.2522],[72.5514,22.2861],[72.4366,22.2272],[72.36,22.2494],[72.3461,22.2992],[72.1222,22.2839],[72.1491,22.2475],[72.2672,22.2322],[72.2961,22.1567],[72.2755,22.0636],[72.2355,22.0161],[72.1494,21.9706],[72.0958,21.9728],[72.0019,21.9428],[72.0825,21.9147],[72.1225,21.9286],[72.1322,21.8353],[72.0575,21.8281],[71.975,21.8589],[71.9644,21.8478],[71.9627,21.7892],[71.99,21.7736],[72.1427,21.7858],[72.1844,21.7361],[72.1836,21.705],[72.2216,21.6892],[72.2594,21.6108],[72.2127,21.4653],[72.1497,21.403],[72.0741,21.3097],[72.0808,21.2019],[71.9736,21.1347],[71.5383,20.975],[71.4372,20.8819],[70.9364,20.7028],[70.7891,20.6975],[70.488,20.8167],[70.2991,20.9281],[70.0311,21.1444],[69.7588,21.4664],[69.5986,21.6181],[69.5255,21.6586],[69.0858,22.0625],[68.9472,22.2272],[68.9147,22.2942],[68.9147,22.3283],[68.9566,22.4183],[69.0375,22.4808],[69.1219,22.4033],[69.1477,22.3603],[69.1414,22.3028],[69.2086,22.2733],[69.8411,22.4655],[70.0108,22.5583],[70.1358,22.5483],[70.3377,22.8886],[70.405,22.9614],[70.4547,22.9611],[70.4816,22.9853],[70.4989,23.0464],[70.4772,23.1022],[70.4455,23.1275],[70.3811,23.0853],[70.3597,22.9353],[70.3133,22.9305],[70.1975,22.9575],[69.8197,22.8586],[69.7252,22.8061],[69.6805,22.7428],[69.1861,22.8403],[68.6236,23.1525],[68.5133,23.2692],[68.4524,23.3582],[68.2215,23.5869],[68.2839,24.2559],[68.1495,24.8761],[68.3017,25.877],[69.1669,28.0982],[70.1688,29.5892],[70.2338,31.0719],[70.185,31.8819],[69.7559,32.516],[69.1555,33.1317],[68.8527,33.6544],[68.3953,33.2478],[67.5,32.5762],[66.3437,30.7809],[66.1319,30.1744],[66.0138,29.9952],[65.4904,29.6487],[63.6391,29.4806],[62.5955,28.2683],[62.4018,26.8767],[61.638,25.4928],[61.6346,25.3334],[61.5807,25.1949],[61.592,25.1997],[61.5602,25.1837],[61.5399,25.1845],[61.5733,25.2043],[61.533,25.2175],[61.5405,25.2398],[61.5124,25.2388],[61.5249,25.2163],[61.4987,25.2069],[61.521,25.1893],[61.4244,25.1854],[61.4609,25.1719],[61.4621,25.1583],[61.4445,25.1072],[61.3751,25.0874],[61.3849,25.064],[61.1508,25.1258],[61.1376,25.1667],[61.0317,25.2019],[60.7121,25.273],[60.5759,25.2883],[60.5908,25.3072],[60.5613,25.352],[60.5742,25.3785],[60.5635,25.4162],[60.5018,25.4464],[60.3999,25.4201],[60.3707,25.38],[60.3664,25.3504],[60.4169,25.3324],[60.4096,25.3188],[60.4289,25.2924],[60.3849,25.3183],[60.276,25.3399],[60.2649,25.3894],[60.296,25.3705],[60.2745,25.4029],[60.1717,25.3782],[60.1555,25.3524],[60.1775,25.3343],[60.1674,25.3286],[60.0806,25.3519],[60.0746,25.377],[60.0,25.3838],[60.0,38.0],[71.4561,38.0],[72.0211,37.6045],[72.3958,37.005],[72.9204,36.4055],[73.6698,35.8809],[74.3442,35.3563],[75.3934,34.6819],[76.3676,34.0074],[77.2158,32.9896],[77.6996,32.9896],[77.7965,32.7957],[78.5235,32.6988],[78.6776,32.6325],[78.6311,32.5842],[78.5441,32.5664],[78.4664,32.5825],[78.3908,32.5661],[78.3655,32.538],[78.4475,32.4247],[78.4591,32.2519],[78.4462,32.243],[78.515,32.2094],[78.573,32.1178],[78.6508,32.0353],[78.7414,31.9811],[78.6627,31.7742],[78.7203,31.6767],[78.7441,31.6739],[78.8141,31.61],[78.683,31.5097],[78.7408,31.305],[78.7886,31.2867],[78.8479,31.2916],[78.9966,31.4186],[79.0627,31.4375],[79.1344,31.3953],[79.1877,31.3408],[79.2105,31.2442],[79.2852,31.1331],[79.3635,31.1011],[79.3897,31.0522],[79.5291,30.9542],[79.5766,30.9356],[79.6339,30.975],[79.7191,30.9897],[79.8494,30.9592],[79.8939,30.8889],[80.1539,30.7978],[80.2205,30.74],[80.1988,30.6042],[80.1773,30.5755],[80.2922,30.5647],[80.4916,30.4772],[80.5772,30.4747],[80.7222,30.395],[80.7741,30.3267],[80.9594,30.2672],[80.9997,30.2203],[80.9956,30.2044],[80.8458,30.1431],[80.6491,29.9703],[80.5691,29.9553],[80.5022,29.8389],[80.4572,29.7986],[80.381,29.7816],[81.1637,29.586],[82.3627,29.0614],[83.1121,28.9116],[83.7116,28.5369],[84.3206,28.1889],[84.5698,28.1026],[84.9287,27.9094],[86.1097,27.7125],[87.2338,27.6376],[87.7583,27.6376],[88.1391,27.7328],[88.1661,27.8414],[88.113,27.8661],[88.093,27.8922],[88.1064,27.9492],[88.3677,27.9833],[88.5991,28.1192],[88.7436,28.0511],[88.8152,27.9964],[88.8511,27.8367],[88.8047,27.6611],[88.775,27.6205],[89.1072,27.4877],[89.6318,27.0381],[90.1517,26.8069],[90.1872,26.8508],[90.3625,26.9036],[90.5294,26.8072],[90.665,26.7722],[91.02,26.7889],[91.09,26.8092],[91.2111,26.8053],[91.2847,26.7781],[91.35,26.8075],[91.395,26.8756],[91.4675,26.8725],[91.5125,26.8044],[91.6828,26.8],[91.8061,26.8633],[92.0291,26.8575],[92.0658,26.8822],[92.0825,26.9203],[92.0536,27.0228],[91.9803,27.0983],[91.9855,27.1681],[92.0847,27.2858],[92.0594,27.3494],[91.9691,27.4781],[91.9211,27.4503],[91.7411,27.4317],[91.6439,27.4886],[91.5877,27.5608],[91.5652,27.6455],[91.623,27.7117],[91.628,27.7647],[91.7947,27.7664],[91.855,27.7311],[91.9486,27.7286],[92.0166,27.7503],[92.0886,27.8125],[92.2241,27.8158],[92.2319,27.8742],[92.2763,27.7983],[92.2936,27.7939],[92.5152,27.8619],[92.6886,27.9736],[92.6986,28.036],[92.6455,28.0807],[92.6807,28.1419],[92.8003,28.2128],[92.8576,28.1987],[93.016,28.3103],[93.1923,28.3193],[93.2084,28.3874],[93.1858,28.4183],[93.2906,28.5405],[93.2989,28.595],[93.3222,28.6188],[93.4723,28.6792],[93.6175,28.6475],[93.7022,28.6776],[93.8288,28.6904],[93.932,28.6692],[93.9914,28.836],[94.1227,28.9307],[94.2048,29.0735],[94.2784,29.1412],[94.398,29.2155],[94.5091,29.2148],[94.5515,29.2315],[94.5634,29.2724],[94.6178,29.3335],[94.6676,29.3365],[94.7625,29.2608],[94.8343,29.175],[95.1002,29.1175],[95.358,29.0353],[95.4308,29.0517],[95.4955,29.1361],[95.5116,29.1911],[95.595,29.255],[95.76,29.3428],[95.9138,29.3933],[96.0541,29.4678],[96.148,29.3578],[96.1572,29.3111],[96.2055,29.2544],[96.2597,29.2414],[96.3327,29.2906],[96.3655,29.2553],[96.3233,29.1831],[96.1891,29.1472],[96.1191,29.0597],[96.1189,28.9433],[96.1394,28.9036],[96.1605,28.9008],[96.2205,28.9408],[96.3141,29.0325],[96.4411,29.0567],[96.4661,29.0361],[96.4547,28.9683],[96.5861,28.7903],[96.5764,28.7394],[96.3105,28.525],[96.3319,28.3928],[96.3722,28.3511],[96.4308,28.4219],[96.5669,28.4689],[96.6241,28.4675],[96.7111,28.4264],[96.7544,28.3731],[96.955,28.3325],[96.9911,28.335],[97.0619,28.3792],[97.1053,28.3814],[97.2039,28.3178],[97.2772,28.2339],[97.3191,28.2228],[97.2863,28.0892],[97.3302,28.0436],[97.3508,27.9914],[97.3314,27.9408],[97.0169,27.7497],[96.9025,27.6622],[96.8569,27.6061],[96.8755,27.4517],[97.1291,27.1386],[97.1069,27.0858],[97.03,27.093],[96.8586,27.1781],[96.8358,27.1994],[96.8255,27.2628],[96.7936,27.3194],[96.6994,27.3656],[96.5922,27.3658],[96.4669,27.3022],[96.3908,27.3044],[96.1644,27.2708],[96.0061,27.1925],[95.8894,27.0356],[95.7741,27.0011],[95.6414,26.8983],[95.5811,26.8214],[95.4897,26.8231],[95.4113,26.7092],[95.2414,26.6447],[95.2166,26.6797],[95.1116,26.6125],[95.0366,26.4797],[95.0355,26.3256],[95.0836,26.1383],[95.1483,26.0589],[95.088,25.9833],[95.0302,25.9436],[94.9666,25.7322],[94.8555,25.5786],[94.7597,25.4967],[94.7113,25.4958],[94.6655,25.4725],[94.5958,25.3978],[94.5519,25.2864],[94.5466,25.2144],[94.5697,25.1783],[94.6988,25.1364],[94.7047,25.0247],[94.5886,24.7603],[94.4425,24.5817],[94.2841,24.2858],[94.1886,24.0058],[94.1147,23.8478],[94.0069,23.9178],[93.8969,23.9558],[93.7894,23.9353],[93.7236,24.0075],[93.5916,24.0161],[93.5666,23.9722],[93.4522,23.965],[93.376,24.0763],[93.341,24.091],[93.309,24.0779],[93.2983,23.9817],[93.3213,23.9533],[93.3544,23.8481],[93.393,23.6625],[93.3697,23.4233],[93.3422,23.3578],[93.3589,23.2233],[93.3205,23.0733],[93.2777,23.0178],[93.2091,23.0089],[93.1716,23.0589],[93.1175,23.0539],[93.0969,23.0256],[93.1114,22.9506],[93.0725,22.8017],[93.0675,22.6653],[93.1064,22.4744],[93.1508,22.4406],[93.1694,22.2669],[93.1241,22.1867],[93.0483,22.2117],[93.0177,22.2058],[92.9611,22.0486],[92.93,22.0247],[92.8947,22.005],[92.8561,22.0106],[92.7761,22.1039],[92.6822,22.1597],[92.6677,22.1522],[92.65,22.0269],[92.5711,21.9822],[92.5552,22.0661],[92.5672,22.1756],[92.5544,22.2761],[92.5544,22.242],[92.0299,22.167],[91.8561,22.3753],[91.8983,22.4147],[91.9721,22.4046],[91.9923,22.4167],[92.0051,22.4459],[92.0518,22.4371],[92.1119,22.4616],[92.1142,22.4703],[92.0575,22.4443],[92.0033,22.4505],[91.9732,22.4124],[91.896,22.4192],[91.8666,22.4094],[91.8499,22.3829],[91.6552,22.6167],[91.3567,23.0644],[90.8308,23.441],[90.6786,23.5741],[90.7023,23.5912],[90.7095,23.6216],[90.7349,23.629],[90.7116,23.6621],[90.7281,23.721],[90.7128,23.6938],[90.7105,23.7242],[90.7018,23.7102],[90.6859,23.7414],[90.6521,23.6867],[90.6076,23.6841],[90.6029,23.6402],[90.2313,23.9656],[89.6318,24.2653],[89.2571,24.2653],[88.8824,24.1904],[88.7136,24.2386],[88.7166,24.1888],[88.6872,24.1839],[88.67,24.1472],[88.6716,24.0792],[88.7294,24.036],[88.7069,23.9198],[88.5731,23.8624],[88.5341,23.6522],[88.5572,23.6022],[88.7197,23.4669],[88.7516,23.5036],[88.7636,23.4942],[88.7566,23.4508],[88.6816,23.3086],[88.6914,23.2517],[88.7683,23.2253],[88.8119,23.2442],[88.9564,23.2083],[88.8405,23.0878],[88.833,22.9667],[88.9036,22.8658],[88.9636,22.3244],[88.9853,22.2617],[89.0666,22.1486],[89.0355,22.1153],[89.0125,22.1328],[89.008,22.0794],[89.0336,22.0142],[89.0344,21.9417],[88.9758,21.9036],[89.06,21.6503],[89.053,21.6203],[88.9777,21.6],[88.8911,21.6339],[88.8258,21.6328],[88.7547,21.5569],[88.7091,21.5497],[88.6775,21.5664],[88.6525,21.6961],[88.6669,21.843],[88.6942,21.9635],[88.7359,22.0052],[88.7228,22.0437],[88.6833,22.0619],[88.6977,22.0158],[88.6586,21.9347],[88.6008,21.945],[88.5933,21.9681],[88.629,22.017],[88.608,22.0967],[88.653,22.1739],[88.638,22.2022],[88.5841,22.1008],[88.5958,22.0369],[88.5668,21.9884],[88.5738,21.9369],[88.5272,21.8133],[88.5327,21.7664],[88.5789,21.7806],[88.5988,21.7492],[88.573,21.6119],[88.5425,21.56],[88.5085,21.5258],[88.4822,21.5219],[88.4647,21.5242],[88.4536,21.5508],[88.4647,21.585],[88.4883,21.5953],[88.5022,21.8317],[88.4664,21.9503],[88.4422,21.8914],[88.4447,21.6725],[88.4241,21.615],[88.37,21.5833],[88.2789,21.6031],[88.2675,21.7728],[88.2322,21.8],[88.2786,21.5706],[88.2244,21.5486],[88.1697,21.6117],[88.1516,21.6636],[88.175,21.7139],[88.1761,21.8014],[88.1252,21.8747],[88.1125,21.9489],[88.1197,21.9797],[88.1889,22.0708],[88.1697,22.1553],[88.1161,22.1936],[87.9777,22.2353],[87.9361,22.2975],[87.9097,22.4128],[87.878,22.4217],[87.9177,22.2697],[87.9522,22.223],[87.985,22.1989],[88.1122,22.1722],[88.1447,22.1231],[88.1383,22.0917],[88.0525,22.0181],[87.9422,21.8394],[87.7666,21.6989],[87.6433,21.6439],[87.4344,21.6094],[87.2994,21.5617],[87.1858,21.5528],[87.0419,21.4819],[86.9336,21.3819],[86.8458,21.2744],[86.7983,21.1525],[86.8469,20.9761],[86.9377,20.7953],[86.9322,20.7811],[86.8616,20.7594],[86.9111,20.6964],[86.9958,20.6748],[86.7261,20.4914],[86.6966,20.4522],[86.6911,20.3725],[86.7094,20.3722],[86.7747,20.4361],[86.7708,20.3817],[86.6806,20.2826],[86.6219,20.2439],[86.4569,20.1764],[86.3905,19.9828],[86.3447,19.9811],[86.2599,20.0601],[86.1666,20.075],[86.2155,20.0233],[86.3311,19.9603],[86.1283,19.8714],[85.6044,19.7278],[85.4216,19.6603],[85.4208,19.6803],[85.3926,19.696],[85.5195,19.7324],[85.5453,19.8355],[85.5044,19.8807],[85.429,19.9033],[85.4051,19.887],[85.3235,19.8292],[85.2971,19.7928],[85.2091,19.7406],[85.114,19.603],[85.0922,19.5131],[85.1237,19.4988],[85.1379,19.5112],[85.1622,19.5724],[85.2025,19.6008],[85.2242,19.6546],[85.2791,19.6419],[85.3564,19.6845],[85.3805,19.6544],[85.355,19.6139],[85.3105,19.5914],[85.2869,19.6183],[85.26,19.5952],[85.3001,19.5712],[85.1521,19.4792],[84.8508,19.2283],[84.7647,19.1208],[84.7328,19.1122],[84.6968,19.124],[84.688,19.0964],[84.7055,19.0747],[84.7511,19.0942],[84.6466,18.9419],[84.6019,18.9122],[84.3197,18.5689],[84.1044,18.3417],[84.0766,18.2922],[84.0408,18.2633],[83.7427,18.1397],[83.553,18.0175],[83.2044,17.5925],[82.9805,17.4872],[82.8544,17.4081],[82.5852,17.2911],[82.4455,17.2022],[82.3347,17.1008],[82.2686,17.0267],[82.2189,16.9203],[82.2222,16.8844],[82.2425,16.8622],[82.33,16.8206],[82.3375,16.88],[82.3411,16.8678],[82.3167,16.7047],[82.272,16.5831],[82.1692,16.5092],[81.9647,16.4078],[81.6975,16.3108],[81.4003,16.3681],[81.3825,16.3853],[81.2836,16.3633],[81.2161,16.31],[81.1342,16.0661],[81.1206,15.97],[80.972,15.8444],[80.9875,15.7756],[80.87,15.8581],[80.8825,15.9322],[80.8622,16.0261],[80.8472,16.0117],[80.8677,15.9111],[80.7955,15.7519],[80.7777,15.8406],[80.7491,15.8764],[80.655,15.9],[80.5244,15.8769],[80.3375,15.7742],[80.27,15.7203],[80.2305,15.6714],[80.1794,15.5308],[80.0611,15.3092],[80.0191,15.0489],[80.0789,14.76],[80.1652,14.5558],[80.1477,14.3581],[80.1025,14.2539],[80.0963,14.2003],[80.1216,14.0358],[80.2177,13.8089],[80.1961,13.68],[80.2833,13.4392],[80.2208,13.5736],[80.1227,13.7181],[80.0627,13.6903],[80.0197,13.6178],[80.0891,13.4997],[80.2016,13.48],[80.2841,13.4222],[80.3037,13.4019],[80.32,13.3342],[80.2961,13.1817],[80.233,12.9492],[80.2291,12.7822],[80.1305,12.4731],[79.8375,12.0328],[79.7741,11.7953],[79.7541,11.775],[79.7333,11.6489],[79.7216,11.5492],[79.7525,11.4306],[79.8033,11.3394],[79.8244,11.1372],[79.8111,10.8178],[79.83,10.2889],[79.7572,10.2672],[79.7511,10.2894],[79.7159,10.3038],[79.6477,10.3003],[79.709,10.2798],[79.7242,10.2883],[79.7339,10.2583],[79.3694,10.3197],[79.2953,10.2808],[79.2111,10.1811],[79.2097,10.0883],[79.2319,10.0417],[79.2203,10.0172],[78.9522,9.6642],[78.9111,9.5939],[78.8783,9.4797],[78.9113,9.4094],[78.9794,9.3317],[79.0971,9.2917],[79.2012,9.2927],[79.3019,9.2642],[79.4216,9.15],[79.2647,9.2467],[78.9414,9.2736],[78.3669,9.0897],[78.2041,8.9678],[78.1627,8.9042],[78.1447,8.8611],[78.1019,8.4867],[78.0308,8.3642],[77.9672,8.3383],[77.7583,8.1961],[77.5575,8.1347],[77.5064,8.0719],[77.2694,8.1331],[76.9689,8.3653],[76.6386,8.7819],[76.5461,8.8769],[76.5411,8.9392],[76.5708,8.9719],[76.6289,8.965],[76.6377,9.0036],[76.5314,8.9922],[76.5044,8.965],[76.3505,9.2814],[76.278,9.4969],[76.213,9.9661],[76.2625,9.9139],[76.228,9.9069],[76.2565,9.8311],[76.2966,9.7697],[76.3272,9.7767],[76.353,9.6467],[76.3225,9.5225],[76.4402,9.4953],[76.4689,9.5322],[76.3947,9.5944],[76.3544,9.8603],[76.3266,9.9144],[76.2905,9.9439],[76.2136,10.1069],[76.1866,10.1322],[76.1758,10.1153],[76.1977,10.0719],[76.2091,9.9836],[76.1733,10.0378],[76.1344,10.1878],[75.8944,10.7556],[75.8319,10.9806],[75.6591,11.4353],[75.6222,11.4644],[75.5833,11.4717],[75.4989,11.7003],[75.3477,11.8606],[75.2447,12.0078],[75.1627,12.0078],[75.0977,12.2081],[74.8255,12.755],[74.808,12.8461],[74.7805,12.8647],[74.5894,13.8325],[74.5389,13.9336],[74.468,14.0464],[74.4211,14.2461],[74.3455,14.4483],[74.3697,14.4528],[74.3822,14.4833],[74.3283,14.5683],[74.3083,14.5556],[74.3039,14.5156],[74.2711,14.5217],[74.2411,14.6828],[74.2211,14.7189],[74.1975,14.7367],[74.1463,14.7417],[74.06,14.7978],[74.0716,14.8671],[73.9286,15.0658],[73.9219,15.1625],[73.8761,15.3014],[73.8426,15.3501],[73.7847,15.37],[73.7547,15.4031],[73.7628,15.413],[73.8827,15.4011],[73.9339,15.3636],[73.9205,15.4],[73.8141,15.4447],[73.7616,15.4506],[73.6522,15.6978],[73.6675,15.7219],[73.6122,15.7403],[73.6197,15.7842],[73.5641,15.8928],[73.4697,15.9758],[73.418,16.0558],[73.3783,16.2344],[73.2964,16.4858],[73.3091,16.5133],[73.3308,16.5122],[73.2827,16.6064],[73.24,16.8533],[73.2233,16.9989],[73.2439,17.0347],[73.245,17.0819],[73.1488,17.4711],[73.0847,17.6367],[73.073,17.6894],[73.0925,17.7172],[73.0794,17.7697],[72.9816,17.9908],[72.9416,18.1805],[72.9375,18.3017],[72.8644,18.4158],[72.8589,18.4722],[72.873,18.5189],[72.8241,18.6606],[72.8277,18.7953],[72.9033,18.8197],[72.9433,18.7789],[72.9577,18.7278],[72.9633,18.7906],[72.8822,18.9175],[73.025,18.9961],[73.0258,19.0119],[72.94,19.0789],[72.9025,19.0611],[72.7933,18.9125],[72.7402,18.9431],[72.7958,19.0531],[72.7911,19.1728],[72.7536,19.1481],[72.7369,19.2281],[72.7508,19.3125],[72.8266,19.3178],[72.9622,19.2572],[72.9864,19.2058],[73.0175,19.2173],[72.9769,19.2831],[72.9341,19.3092],[72.768,19.3261],[72.7247,19.3697],[72.678,19.5875],[72.67,19.7636],[72.6475,19.7936],[72.6344,19.8708],[72.6363,19.9186],[72.6739,19.9878],[72.7239,20.295],[72.7552,20.3503],[72.7866,20.3675],[72.7997,20.4419],[72.8555,20.5131],[72.9044,20.7533]],[[68.3468,23.6194],[68.3503,23.6282],[68.3467,23.6193],[68.3468,23.6194]],[[68.4746,23.7499],[68.4769,23.7531],[68.4746,23.7499],[68.4746,23.7499]],[[88.3578,24.9268],[88.3086,24.8669],[88.2472,24.8881],[88.1916,24.9543],[88.108,24.9214],[88.1414,24.8517],[88.0136,24.6842],[88.0958,24.5086],[88.3578,24.3958],[88.3578,24.9268]],[[92.2172,24.8945],[92.2639,24.905],[92.372,24.8404],[92.465,24.8831],[92.4533,24.93],[92.3869,24.9725],[92.3766,25.0306],[92.3027,25.0794],[92.037,25.1829],[92.2172,24.8945]],[[88.5627,25.1958],[88.4566,25.2006],[88.4211,25.1878],[88.433,25.0797],[88.3828,24.9709],[88.5627,25.1958]],[[88.1249,26.0885],[88.0658,25.9153],[88.0808,25.8356],[88.1108,25.7897],[88.1361,25.7794],[88.2377,25.8108],[88.4172,25.6661],[88.4275,25.5856],[88.5269,25.5047],[88.5654,25.4985],[88.3578,25.914],[88.1249,26.0885]],[[87.24,26.3753],[87.4372,26.435],[86.9884,26.5262],[87.0547,26.4864],[87.1402,26.4],[87.24,26.3753]],[[86.9183,26.5309],[86.9566,26.5305],[86.0371,26.6531],[86.0775,26.6172],[86.1111,26.6025],[86.1541,26.6081],[86.1769,26.5856],[86.3044,26.6078],[86.7019,26.42],[86.7912,26.4367],[86.8562,26.4687],[86.8725,26.5025],[86.9183,26.5309]],[[85.9138,26.6172],[85.9328,26.6472],[85.9861,26.6599],[85.6966,26.6897],[85.7108,26.6539],[85.8258,26.5703],[85.9138,26.6172]],[[87.5238,26.4058],[87.6161,26.3952],[87.4859,26.4241],[87.5238,26.4058]],[[82.6993,27.6566],[82.7147,27.5511],[82.7389,27.5017],[83.0077,27.4481],[83.1466,27.4489],[83.2261,27.3864],[83.2414,27.3461],[83.2616,27.3378],[83.3175,27.3456],[83.3666,27.4108],[83.3706,27.4358],[82.6993,27.6566]],[[80.1324,29.0795],[80.0302,28.9317],[80.0261,28.8361],[80.2164,28.7508],[80.3578,28.625],[80.4425,28.59],[80.4811,28.6211],[80.4786,28.6625],[80.5116,28.6853],[80.9088,28.4411],[81.0016,28.403],[81.1591,28.3692],[81.2683,28.1639],[81.3447,28.1661],[81.4505,28.08],[81.6972,27.9558],[81.8505,27.8572],[81.8808,27.8553],[81.948,27.9172],[82.0367,27.9142],[82.3944,27.6794],[82.4491,27.6728],[82.6068,27.7027],[81.3885,28.312],[80.1324,29.0795]]]]}}