{"type":"Feature","properties":{"speciesId":490,"category":"LC","source":"IUCN Red List","simplifyTol":0.01,"clippedToSubcontinent":true},"geometry":{"type":"Polygon","coordinates":[[[83.4694,26.4608],[84.2021,26.7538],[85.3744,26.7538],[87.1817,26.705],[88.8424,26.5096],[90.2101,26.4608],[92.6524,26.4608],[93.6781,26.8515],[94.3131,27.0469],[95.0458,27.34],[95.7296,27.4377],[96.3646,27.2423],[96.8042,26.9004],[97.3415,26.5584],[98.0,25.6826],[98.0,20.3833],[96.6577,20.8436],[95.4365,21.4785],[94.2643,22.1624],[93.4827,22.7974],[92.5547,23.3347],[91.822,23.6277],[90.7962,23.9208],[89.5263,24.2139],[88.4517,24.165],[87.8167,24.1162],[86.1559,24.1162],[85.2767,24.0673],[84.4464,24.2627],[83.4206,24.6046],[83.1275,24.8977],[82.8345,25.4839],[83.0298,26.0212],[83.4694,26.4608]]]}}