{"type":"Feature","properties":{"speciesId":491,"category":"LC","source":"IUCN Red List","simplifyTol":0.01,"clippedToSubcontinent":true},"geometry":{"type":"Polygon","coordinates":[[[97.3479,28.212],[97.9258,26.2181],[98.0,25.7636],[98.0,24.4407],[97.3455,24.0673],[96.7627,24.29],[95.994,24.1625],[95.7275,23.8198],[95.5942,23.4772],[95.1754,23.0965],[94.947,23.1155],[94.7197,22.9842],[94.496,22.935],[94.414,22.6967],[94.1289,22.4414],[94.1142,22.1706],[94.0025,21.8211],[94.0728,21.6678],[93.7477,21.4594],[93.5044,21.3242],[93.5142,21.2478],[93.4478,21.0861],[93.2683,20.7542],[93.0978,20.5085],[93.087,20.5198],[93.1051,20.5307],[93.0919,20.53],[93.0702,20.602],[93.0483,20.5975],[93.0217,20.6219],[93.0277,20.6439],[93.0055,20.6398],[93.0388,20.5937],[93.0757,20.5792],[93.081,20.5411],[93.0258,20.4274],[93.0173,20.454],[93.0428,20.4633],[93.0402,20.4931],[93.0636,20.5246],[93.035,20.5378],[93.0556,20.5207],[93.0195,20.4791],[93.0333,20.4857],[93.0386,20.4686],[93.0135,20.4606],[93.0227,20.4002],[92.8393,20.1359],[92.7805,20.2245],[92.7873,20.2401],[92.7969,20.2102],[92.8305,20.1805],[92.8458,20.1823],[92.799,20.2141],[92.7988,20.2583],[92.9445,20.3156],[92.8982,20.3078],[92.8393,20.3808],[92.9108,20.3717],[92.9315,20.3863],[92.9417,20.3522],[92.9508,20.374],[92.9161,20.4026],[92.9136,20.4177],[92.9341,20.4277],[92.9037,20.4768],[92.8996,20.4606],[92.9285,20.4299],[92.9072,20.421],[92.9117,20.3774],[92.8867,20.4218],[92.8866,20.4039],[92.8571,20.4195],[92.8637,20.4051],[92.8418,20.4017],[92.8166,20.4429],[92.8337,20.4407],[92.8383,20.4688],[92.8487,20.4591],[92.8275,20.4968],[92.8108,20.4924],[92.7961,20.5101],[92.7639,20.4734],[92.7523,20.4794],[92.7322,20.5696],[92.7486,20.5782],[92.7524,20.5867],[92.7468,20.5986],[92.7266,20.6168],[92.7482,20.5876],[92.731,20.5792],[92.6844,20.6278],[92.6456,20.6891],[92.645,20.7277],[92.5832,20.7199],[92.591,20.732],[92.5697,20.7796],[92.5997,20.7956],[92.6024,20.8064],[92.5649,20.7864],[92.5494,20.8493],[92.5449,20.8118],[92.5713,20.7516],[92.5466,20.7631],[92.5441,20.743],[92.591,20.6851],[92.6395,20.6883],[92.6954,20.5825],[92.7292,20.5496],[92.72,20.4706],[92.7478,20.4143],[92.7304,20.3],[92.466,20.6986],[92.3774,20.6957],[92.3877,20.7048],[92.3611,20.7723],[92.3901,20.8168],[92.3787,20.8246],[92.3584,20.7833],[92.3353,20.8433],[92.3602,20.8647],[92.3366,20.8509],[92.3146,20.8826],[92.3164,20.901],[92.3619,20.9419],[92.3477,20.9871],[92.3313,20.9978],[92.2968,20.9872],[92.2891,21.0036],[92.2933,20.98],[92.2798,20.9694],[92.2694,21.0182],[92.2887,21.0225],[92.2646,21.0358],[92.3128,21.0579],[92.3122,21.0703],[92.2734,21.0458],[92.2297,21.1046],[92.2243,21.1365],[92.198,21.1546],[92.1976,21.1198],[92.255,21.0615],[92.2627,20.9273],[92.2957,20.884],[92.3351,20.7773],[92.3385,20.7461],[92.3059,20.751],[92.2117,20.9253],[92.1847,21.0139],[92.0533,21.1632],[92.0496,21.2642],[92.0289,21.3402],[91.9535,21.4502],[91.9993,21.5054],[92.0221,21.4864],[91.9963,21.5656],[92.0246,21.6034],[92.0184,21.6251],[92.0405,21.6722],[92.0251,21.6822],[92.0352,21.7006],[92.021,21.7182],[92.0118,21.6601],[91.9852,21.6542],[91.9741,21.6664],[91.9841,21.6875],[91.9796,21.7042],[91.9766,21.6841],[91.9617,21.6831],[91.9481,21.7453],[91.9694,21.7384],[91.9964,21.7558],[91.9925,21.7678],[91.9716,21.7472],[91.9545,21.7539],[91.9706,21.7862],[91.9424,21.8042],[91.9308,21.7855],[91.8912,21.7773],[91.9199,21.8473],[91.9095,21.9079],[91.9275,21.9345],[91.8949,21.9689],[91.8548,22.1276],[91.8345,22.1221],[91.814,22.1797],[91.842,22.2605],[91.8138,22.3017],[91.8665,22.3221],[91.9129,22.4086],[92.0019,22.4046],[92.022,22.4167],[92.0349,22.4459],[92.0815,22.4371],[92.1417,22.4615],[92.1439,22.4703],[92.0873,22.4443],[92.0331,22.4505],[92.0029,22.4124],[91.8964,22.4094],[91.8722,22.3498],[91.7955,22.2927],[91.8276,22.2469],[91.798,22.2196],[91.7856,22.2294],[91.7519,22.3866],[91.7001,22.4841],[91.6273,22.5721],[91.5992,22.6334],[91.4901,22.7254],[91.475,22.7759],[91.4757,22.897],[91.4922,22.9007],[91.4758,22.9049],[91.4776,23.2103],[91.4532,23.2173],[91.4612,23.2315],[91.4277,23.2591],[91.3917,23.2581],[91.3798,23.1752],[91.4081,23.0677],[91.4003,23.0542],[91.3715,23.0644],[91.3263,23.1486],[91.3198,23.2473],[91.2977,23.2956],[91.3077,23.3023],[91.2878,23.3194],[91.3135,23.3557],[91.2898,23.3493],[91.2434,23.4841],[91.2085,23.5109],[91.1606,23.6593],[91.197,23.648],[91.1981,23.6849],[91.1512,23.7018],[91.1627,23.742],[91.2133,23.7392],[91.2275,23.7641],[91.246,23.8334],[91.2271,23.8808],[91.2418,23.9194],[91.2666,23.9254],[91.2619,23.9588],[91.3025,23.9877],[91.3702,23.9776],[91.3683,24.0062],[91.3957,24.0443],[91.3766,24.0956],[91.3882,24.1085],[91.5369,24.071],[91.5944,24.0774],[91.6379,24.1053],[91.6521,24.227],[91.6928,24.1594],[91.7534,24.1376],[91.7514,24.2364],[91.8098,24.2114],[91.8415,24.2254],[91.838,24.1953],[91.8832,24.1428],[91.9061,24.1452],[91.9333,24.2794],[91.9203,24.3264],[91.9587,24.3522],[91.9881,24.3192],[91.9964,24.3264],[91.9639,24.3751],[92.1056,24.3746],[92.1376,24.3989],[92.1288,24.5131],[92.1936,24.5727],[92.274,24.7851],[92.2603,24.8302],[92.2809,24.8554],[92.4851,24.8651],[92.4864,24.9365],[92.4508,24.94],[92.4632,24.9599],[92.4209,24.9748],[92.4131,25.0205],[92.3384,25.0474],[92.3344,25.0783],[92.2702,25.0778],[92.2188,25.1007],[92.2104,25.1225],[92.1827,25.133],[92.1762,25.12],[92.1567,25.1458],[92.1387,25.1369],[92.1224,25.1662],[92.0553,25.1851],[91.9789,25.1646],[91.9145,25.1789],[91.4718,25.4236],[91.3912,25.3973],[91.8821,25.1729],[91.7599,25.1688],[91.7417,25.1454],[91.7008,25.1555],[91.6827,25.1266],[91.6324,25.1227],[91.6015,25.1377],[91.5991,25.1664],[91.5509,25.1434],[91.4765,25.1352],[91.2615,25.2024],[91.0698,25.1946],[90.8893,25.1541],[90.8389,25.1533],[90.7708,25.1804],[90.725,25.1568],[90.6762,25.1606],[90.649,25.1859],[90.6192,25.1668],[90.5117,25.1728],[90.4432,25.1456],[90.3604,25.1591],[90.3184,25.1874],[90.1078,25.2265],[89.9522,25.302],[89.9025,25.306],[89.8576,25.2825],[89.8345,25.2968],[89.8157,25.3716],[89.8686,25.5826],[89.8728,25.6542],[89.8218,25.7281],[89.8389,25.7646],[89.8203,25.8149],[89.8386,25.8831],[89.8803,25.9313],[89.8245,25.9458],[89.857,25.981],[89.8268,25.9856],[89.8007,26.0343],[89.776,26.0444],[89.7894,26.0794],[89.7441,26.1567],[89.6797,26.1621],[89.6909,26.2072],[89.6753,26.2288],[89.6322,26.2189],[89.6235,26.188],[89.6478,26.1687],[89.6152,26.175],[89.5904,26.1564],[89.6009,26.1179],[89.6299,26.1179],[89.5988,26.1073],[89.6008,26.0869],[89.6296,26.1032],[89.64,26.0705],[89.5834,26.0364],[89.5826,25.9782],[89.5687,25.9604],[89.5471,25.9656],[89.5323,26.0038],[89.4692,26.0004],[89.4304,26.0398],[89.3845,26.0055],[89.3574,26.0083],[89.2624,26.0603],[89.2671,26.0895],[89.2299,26.1203],[89.1676,26.1386],[89.1405,26.1844],[89.1446,26.2335],[89.105,26.2836],[89.1026,26.3113],[89.1312,26.2991],[89.1386,26.3151],[89.0906,26.3257],[89.1036,26.355],[89.0841,26.3663],[89.1002,26.396],[89.0493,26.397],[88.9913,26.4206],[88.9572,26.462],[88.9372,26.4303],[88.9247,26.4387],[88.9332,26.4188],[88.9011,26.4069],[88.915,26.4035],[88.9154,26.3635],[88.9494,26.3679],[88.9459,26.3441],[88.9718,26.3548],[88.997,26.3367],[88.9806,26.3149],[88.9864,26.2979],[89.0169,26.3019],[89.0167,26.3147],[89.0307,26.2862],[89.0555,26.2893],[89.0646,26.257],[89.0034,26.2289],[88.9587,26.2357],[88.9116,26.2885],[88.8703,26.2847],[88.8578,26.2639],[88.8717,26.2352],[88.8389,26.2366],[88.8067,26.2562],[88.8143,26.2947],[88.7956,26.3121],[88.7451,26.3117],[88.7453,26.2922],[88.7176,26.299],[88.7147,26.2835],[88.6729,26.2696],[88.6641,26.3001],[88.7016,26.2855],[88.6912,26.3135],[88.7539,26.327],[88.7391,26.3359],[88.745,26.3538],[88.7086,26.3474],[88.6838,26.3913],[88.6951,26.3966],[88.6746,26.4037],[88.6831,26.4144],[88.6255,26.4345],[88.6184,26.4764],[88.5599,26.4666],[88.556,26.486],[88.5234,26.485],[88.5154,26.5121],[88.4876,26.5124],[88.4794,26.5435],[88.4293,26.5536],[88.408,26.632],[88.3946,26.6292],[88.3981,26.6022],[88.3732,26.5815],[88.3321,26.4845],[88.3538,26.4507],[88.365,26.4852],[88.483,26.4609],[88.5264,26.3726],[88.4784,26.3482],[88.4539,26.3773],[88.433,26.3433],[88.4005,26.3273],[88.4088,26.3157],[88.3588,26.3013],[88.3465,26.2805],[88.3546,26.2294],[88.0775,26.4245],[88.1015,26.4793],[88.092,26.5121],[88.1092,26.5728],[88.1251,26.5753],[88.1599,26.6391],[88.1885,26.7669],[88.1826,26.8141],[88.1713,26.8676],[88.1149,26.9561],[88.1281,26.9839],[88.0776,27.0291],[88.0251,27.0476],[88.0134,27.0895],[87.9837,27.1213],[88.0287,27.293],[88.0561,27.3415],[88.037,27.371],[88.0574,27.4215],[89.1112,27.4565],[89.1802,27.3813],[89.1507,27.3224],[89.0707,27.2866],[89.0657,27.2438],[88.9859,27.213],[88.9233,27.2728],[88.9093,27.2331],[88.8136,27.2107],[88.7998,27.1593],[88.7597,27.1143],[88.8785,27.0683],[88.8891,27.0253],[88.8768,26.9492],[88.9165,26.9899],[88.9468,26.9685],[88.9477,26.9351],[88.9786,26.9208],[89.0216,26.9379],[89.0886,26.8945],[89.1116,26.8272],[89.1371,26.8104],[89.2651,26.8216],[89.3759,26.8601],[89.3962,26.8382],[89.4454,26.8385],[89.4658,26.8128],[89.5395,26.8151],[89.6364,26.7823],[89.6433,26.7607],[89.6251,26.7242],[89.6968,26.7384],[89.7808,26.7096],[89.8592,26.7076],[89.8559,26.7468],[89.9171,26.7286],[90.1702,26.7653],[90.1891,26.7763],[90.1904,26.825],[90.2224,26.8567],[90.3001,26.8542],[90.3483,26.896],[90.3814,26.9026],[90.4167,26.9035],[90.5537,26.8139],[90.6969,26.7717],[91.0453,26.7869],[91.088,26.8159],[91.2627,26.8072],[91.3345,26.7774],[91.3811,26.8027],[91.4179,26.8608],[91.4452,26.8739],[91.5112,26.8684],[91.5409,26.8091],[91.5739,26.7994],[91.6352,26.8132],[91.7153,26.7956],[91.8514,26.8636],[91.8833,26.8579],[91.892,26.8126],[91.9129,26.8043],[91.904,26.8503],[91.934,26.8605],[91.9332,26.8989],[92.0093,26.8504],[92.1079,26.8583],[92.1236,26.9635],[92.0747,27.0447],[92.0349,27.0675],[92.0256,27.1119],[92.0312,27.1717],[92.06,27.194],[92.0758,27.2517],[92.1248,27.2766],[92.0139,27.4768],[91.9458,27.4679],[91.8382,27.4933],[91.7321,27.4664],[91.5962,27.5392],[93.9204,27.6166],[95.8706,27.5723],[96.3674,28.124],[97.3479,28.212]],[[93.3301,23.3423],[93.3587,23.3476],[93.3672,23.3853],[93.3301,23.3423]]]}}