{"type":"Feature","properties":{"speciesId":492,"category":"LC","source":"IUCN Red List","simplifyTol":0.01,"clippedToSubcontinent":true},"geometry":{"type":"MultiPolygon","coordinates":[[[[86.6889,20.2951],[86.7035,20.2956],[86.7088,20.2939],[86.6946,20.2865],[86.6889,20.2951]]],[[[86.7909,20.4204],[86.8043,20.4822],[86.8161,20.4409],[86.7981,20.3886],[86.7909,20.4204]]],[[[88.214,21.5284],[88.177,21.5662],[88.1738,21.5858],[88.1919,21.5548],[88.1999,21.57],[88.2166,21.5506],[88.214,21.5284]]],[[[88.501,21.5359],[88.485,21.5596],[88.4997,21.5997],[88.5382,21.5822],[88.5488,21.5337],[88.501,21.5359]]],[[[88.8366,21.6017],[88.8959,21.5858],[88.9119,21.5463],[88.8767,21.5333],[88.8383,21.5541],[88.8366,21.6017]]],[[[88.5183,21.6094],[88.5266,21.6569],[88.5355,21.6422],[88.5894,21.6116],[88.5955,21.5862],[88.5557,21.5578],[88.5459,21.5872],[88.5183,21.6094]]],[[[88.804,21.5975],[88.7996,21.5749],[88.7728,21.5643],[88.7166,21.5718],[88.7252,21.6306],[88.6902,21.6844],[88.6971,21.7184],[88.7156,21.6772],[88.7542,21.6466],[88.7787,21.6526],[88.782,21.6162],[88.804,21.5975]]],[[[88.3204,21.6074],[88.3205,21.699],[88.3272,21.7039],[88.36,21.6705],[88.349,21.6469],[88.3587,21.6321],[88.3333,21.6006],[88.3204,21.6074]]],[[[88.2219,21.6019],[88.1876,21.6808],[88.2174,21.7157],[88.2026,21.6903],[88.2144,21.6747],[88.2331,21.6742],[88.2393,21.647],[88.2218,21.6272],[88.2219,21.6019]]],[[[88.6459,21.6462],[88.6324,21.6546],[88.6448,21.6839],[88.652,21.6799],[88.6459,21.6462]]],[[[88.5599,21.6377],[88.5347,21.6735],[88.5229,21.7156],[88.5494,21.6979],[88.5671,21.6982],[88.572,21.6819],[88.5599,21.6377]]],[[[88.4841,21.675],[88.4526,21.6002],[88.4295,21.6003],[88.4483,21.6233],[88.427,21.6599],[88.4273,21.6899],[88.4436,21.7026],[88.432,21.7436],[88.4564,21.7929],[88.4865,21.7932],[88.4587,21.7307],[88.4841,21.675]]],[[[89.294,21.6897],[89.2909,21.6664],[89.2517,21.6457],[89.1998,21.6592],[89.2319,21.7014],[89.2199,21.7399],[89.2401,21.7552],[89.2917,21.7472],[89.2843,21.7036],[89.2613,21.6969],[89.294,21.6897]]],[[[89.3353,21.6995],[89.3397,21.7212],[89.3422,21.7214],[89.3542,21.7008],[89.3353,21.6995]]],[[[88.1315,21.7347],[88.1361,21.6857],[88.1507,21.6709],[88.1466,21.6232],[88.0509,21.647],[88.0604,21.721],[88.1075,21.7943],[88.1454,21.7562],[88.1315,21.7347]]],[[[88.6017,21.6541],[88.6125,21.6055],[88.5642,21.6419],[88.5808,21.6629],[88.5699,21.7091],[88.5233,21.7224],[88.5069,21.7573],[88.5331,21.7746],[88.5469,21.8165],[88.5779,21.7923],[88.5666,21.7684],[88.58,21.7201],[88.6154,21.679],[88.6017,21.6541]]],[[[88.212,21.7319],[88.2152,21.722],[88.2011,21.7083],[88.212,21.7319]]],[[[88.3649,21.688],[88.3486,21.7126],[88.3579,21.7201],[88.3559,21.7567],[88.3928,21.7648],[88.3936,21.7418],[88.3714,21.7272],[88.4033,21.7103],[88.3649,21.688]]],[[[88.3014,21.7282],[88.3064,21.7345],[88.3061,21.7207],[88.3014,21.7282]]],[[[90.3541,21.7359],[90.3554,21.7449],[90.3622,21.7465],[90.3541,21.7359]]],[[[88.6277,21.7412],[88.5942,21.7781],[88.6205,21.7879],[88.6374,21.7259],[88.6178,21.7021],[88.6068,21.7143],[88.6302,21.7314],[88.6277,21.7412]]],[[[88.5729,21.7718],[88.5897,21.775],[88.5909,21.7566],[88.6261,21.7321],[88.5867,21.7213],[88.5729,21.7718]]],[[[88.35,21.721],[88.3365,21.7285],[88.3345,21.7054],[88.3143,21.7168],[88.3104,21.7792],[88.3376,21.7868],[88.3467,21.7984],[88.3864,21.7918],[88.3867,21.768],[88.3493,21.7566],[88.35,21.721]]],[[[88.21,21.7763],[88.2156,21.7564],[88.211,21.7397],[88.21,21.7763]]],[[[90.4396,21.7701],[90.4519,21.7673],[90.4403,21.7679],[90.4396,21.7701]]],[[[89.5645,21.7425],[89.5313,21.8231],[89.5459,21.8493],[89.6102,21.7968],[89.5922,21.7519],[89.6231,21.7109],[89.5611,21.7135],[89.5645,21.7425]]],[[[88.1542,21.6821],[88.1386,21.7341],[88.1523,21.7597],[88.1138,21.7999],[88.0944,21.7905],[88.1462,21.8823],[88.1833,21.8056],[88.1801,21.7304],[88.1542,21.6821]]],[[[88.5256,21.7752],[88.5187,21.7851],[88.5298,21.7965],[88.5256,21.7752]]],[[[88.3183,21.7914],[88.3091,21.7865],[88.298,21.7928],[88.3009,21.7952],[88.3183,21.7914]]],[[[88.4614,21.8097],[88.4962,21.8336],[88.5087,21.8062],[88.4614,21.8097]]],[[[89.7806,21.8233],[89.783,21.8145],[89.7733,21.8198],[89.7806,21.8233]]],[[[88.5953,21.8479],[88.622,21.8302],[88.6137,21.7971],[88.5834,21.8142],[88.5953,21.8479]]],[[[90.4182,21.8319],[90.4438,21.8237],[90.4151,21.8238],[90.4182,21.8319]]],[[[89.3482,21.7823],[89.3226,21.8485],[89.3747,21.8824],[89.3482,21.7823]]],[[[90.2977,21.8389],[90.3173,21.8476],[90.3294,21.8386],[90.3152,21.8232],[90.2977,21.8389]]],[[[88.6194,21.8162],[88.627,21.8319],[88.601,21.8612],[88.6272,21.8978],[88.6384,21.8686],[88.6618,21.87],[88.6488,21.7863],[88.6194,21.8162]]],[[[88.1838,21.8626],[88.1996,21.8381],[88.1971,21.8345],[88.1932,21.8362],[88.1838,21.8626]]],[[[89.7553,21.8507],[89.7771,21.856],[89.778,21.8534],[89.7553,21.8507]]],[[[90.5036,21.8513],[90.5028,21.868],[90.538,21.8673],[90.531,21.8569],[90.5036,21.8513]]],[[[89.6547,21.8592],[89.6452,21.8736],[89.6541,21.8891],[89.6633,21.8709],[89.6547,21.8592]]],[[[88.096,21.8579],[88.0821,21.8751],[88.0898,21.8981],[88.1093,21.8728],[88.096,21.8579]]],[[[90.5638,21.8896],[90.5542,21.8824],[90.5613,21.8976],[90.5638,21.8896]]],[[[88.6271,21.9038],[88.6735,21.917],[88.657,21.8745],[88.6408,21.8761],[88.6271,21.9038]]],[[[90.1032,21.889],[90.0593,21.8322],[90.0215,21.8445],[90.0414,21.8442],[90.0198,21.904],[90.0309,21.9602],[90.077,21.972],[90.0787,21.9526],[90.0953,21.9352],[90.0873,21.9],[90.1032,21.889]]],[[[88.4961,21.9076],[88.4991,21.8986],[88.4888,21.9004],[88.4961,21.9076]]],[[[88.13,21.893],[88.1162,21.8816],[88.0937,21.9267],[88.1172,21.9101],[88.13,21.893]]],[[[89.5635,21.9218],[89.5522,21.9026],[89.5431,21.868],[89.5465,21.9637],[89.5635,21.9218]]],[[[90.5466,21.9551],[90.5707,21.9475],[90.5456,21.9173],[90.5563,21.8993],[90.547,21.8774],[90.5061,21.8778],[90.5228,21.9378],[90.5466,21.9551]]],[[[90.5651,21.9237],[90.5781,21.9243],[90.573,21.9154],[90.5651,21.9237]]],[[[90.3036,21.8658],[90.3366,21.9548],[90.3496,21.9564],[90.3716,21.9963],[90.3851,21.9977],[90.3573,21.8707],[90.3203,21.8541],[90.3036,21.8658]]],[[[90.3972,21.9326],[90.388,21.9224],[90.3941,21.9377],[90.3972,21.9326]]],[[[88.1212,21.9632],[88.1557,21.9241],[88.1422,21.8976],[88.099,21.9318],[88.1212,21.9632]]],[[[89.9604,21.915],[89.9434,21.9296],[89.9606,21.9471],[89.9725,21.9238],[89.9604,21.915]]],[[[90.2458,21.8987],[90.2753,21.9426],[90.2679,21.9696],[90.2946,21.9806],[90.3036,21.9223],[90.2744,21.8846],[90.2458,21.8987]]],[[[90.4891,21.9568],[90.4956,21.9701],[90.5186,21.9792],[90.4964,21.9317],[90.5012,21.9562],[90.4891,21.9568]]],[[[90.3883,21.9603],[90.3961,21.958],[90.3882,21.9514],[90.3883,21.9603]]],[[[90.4176,21.8969],[90.3945,21.9049],[90.4216,22.016],[90.412,22.0293],[90.4475,22.0343],[90.4715,21.9969],[90.4658,21.9473],[90.4579,21.9207],[90.4176,21.8969]]],[[[90.3228,21.9689],[90.3317,21.9815],[90.327,21.9623],[90.3228,21.9689]]],[[[88.6807,21.9453],[88.6418,21.9509],[88.6341,21.9658],[88.6639,22.0153],[88.6834,22.0024],[88.719,21.9997],[88.6807,21.9453]]],[[[88.1215,21.974],[88.102,21.9713],[88.0954,21.9897],[88.1346,22.0231],[88.1215,21.974]]],[[[90.5536,21.9927],[90.548,21.9916],[90.5577,22.0054],[90.5536,21.9927]]],[[[90.5248,22.0008],[90.4996,21.9977],[90.5159,22.0226],[90.5409,22.027],[90.5248,22.0008]]],[[[88.6732,22.0152],[88.6848,22.0171],[88.6873,22.0101],[88.6836,22.0086],[88.6732,22.0152]]],[[[90.5627,22.0093],[90.5512,22.0073],[90.558,22.0227],[90.5627,22.0093]]],[[[90.3886,22.0639],[90.4087,22.0466],[90.3402,21.9625],[90.3518,22.0194],[90.3886,22.0639]]],[[[90.3995,22.0273],[90.4074,22.0266],[90.4014,22.0152],[90.3995,22.0273]]],[[[90.3076,21.9737],[90.2981,21.9849],[90.2806,21.9868],[90.284,22.0554],[90.3145,22.0777],[90.3159,22.086],[90.3473,22.0893],[90.3372,22.1034],[90.3502,22.0981],[90.3701,22.0992],[90.379,22.0859],[90.329,22.0288],[90.3076,21.9737]]],[[[90.4401,22.0439],[90.4316,22.0338],[90.4136,22.0404],[90.4401,22.0439]]],[[[90.4915,22.0106],[90.5314,22.0515],[90.5574,22.0982],[90.5496,22.0163],[90.5394,22.007],[90.5491,22.0314],[90.5201,22.0312],[90.4915,22.0106]]],[[[90.523,22.0807],[90.4844,22.0437],[90.4821,22.0755],[90.5167,22.1057],[90.523,22.0807]]],[[[90.531,22.0858],[90.5236,22.1064],[90.542,22.1173],[90.5522,22.1054],[90.5386,22.0775],[90.5056,22.0443],[90.531,22.0858]]],[[[90.5064,22.1709],[90.5463,22.1707],[90.5107,22.1361],[90.5064,22.1709]]],[[[90.5702,22.2206],[90.5519,22.1927],[90.5387,22.1893],[90.5586,22.2297],[90.5702,22.2206]]],[[[89.8616,22.2442],[89.8656,22.2576],[89.8708,22.2377],[89.8616,22.2442]]],[[[90.2792,22.3456],[90.2835,22.3636],[90.2864,22.3644],[90.2792,22.3456]]],[[[90.5575,22.628],[90.5695,22.6148],[90.5632,22.6057],[90.5575,22.628]]],[[[90.4893,22.7199],[90.4723,22.7396],[90.4747,22.7461],[90.4893,22.7199]]],[[[90.5288,22.6841],[90.4885,22.7697],[90.5006,22.7921],[90.5482,22.768],[90.5473,22.7143],[90.5288,22.6841]]],[[[90.4765,22.7516],[90.4576,22.7485],[90.4346,22.7747],[90.4604,22.7881],[90.4765,22.7516]]],[[[90.4912,22.8191],[90.4637,22.8077],[90.4526,22.8264],[90.4843,22.8343],[90.4912,22.8191]]],[[[90.5568,22.7903],[90.4846,22.8396],[90.4608,22.8402],[90.4824,22.867],[90.5329,22.8745],[90.5521,22.9054],[90.5449,22.941],[90.6496,22.8941],[90.6438,22.8594],[90.6005,22.8155],[90.5568,22.7903]]],[[[90.5413,22.9533],[90.5431,22.8996],[90.515,22.8747],[90.4671,22.8659],[90.4447,22.8264],[90.4491,22.8052],[90.4274,22.8167],[90.4278,22.8417],[90.3951,22.8281],[90.3898,22.839],[90.4218,22.8989],[90.4173,22.9163],[90.3845,22.856],[90.3951,22.7999],[90.4151,22.7819],[90.3844,22.7899],[90.42,22.7752],[90.3923,22.7672],[90.3323,22.8477],[90.3807,22.9076],[90.3533,22.9932],[90.4309,22.9917],[90.4512,22.9721],[90.4551,23.0016],[90.5413,22.9533]]],[[[90.3335,22.9724],[90.3564,22.9623],[90.368,22.9212],[90.3518,22.9514],[90.325,22.9598],[90.3335,22.9724]]],[[[90.3078,22.9705],[90.321,22.9539],[90.3475,22.9474],[90.3481,22.9398],[90.301,22.9519],[90.2932,22.9627],[90.3078,22.9705]]],[[[90.4343,23.0095],[90.4295,22.9979],[90.4177,23.0005],[90.4343,23.0095]]],[[[90.4081,23.0135],[90.4052,23.0052],[90.3919,23.0089],[90.4081,23.0135]]],[[[90.5003,23.0214],[90.5067,23.0154],[90.5034,23.0104],[90.5003,23.0214]]],[[[90.5669,23.0068],[90.5566,22.9989],[90.5357,23.0213],[90.5551,23.048],[90.5669,23.0068]]],[[[90.4815,23.0384],[90.496,23.0157],[90.4929,23.0117],[90.4733,23.0279],[90.4815,23.0384]]],[[[90.2885,23.0314],[90.2918,23.0496],[90.3079,23.0375],[90.2885,23.0314]]],[[[90.5058,23.0361],[90.491,23.0532],[90.5057,23.0637],[90.5083,23.062],[90.5058,23.0361]]],[[[90.5198,23.0649],[90.5237,23.0524],[90.5218,23.0527],[90.5198,23.0649]]],[[[90.5185,23.1366],[90.5241,23.0914],[90.5131,23.0812],[90.5003,23.1001],[90.5185,23.1366]]],[[[90.4477,23.0556],[90.4435,23.1068],[90.4907,23.1312],[90.4643,23.1914],[90.4687,23.2012],[90.4724,23.1855],[90.5053,23.1688],[90.5079,23.1439],[90.4922,23.0819],[90.4684,23.097],[90.4477,23.0556]]],[[[90.4753,23.1555],[90.479,23.1329],[90.4571,23.1226],[90.4645,23.1499],[90.4753,23.1555]]],[[[90.5389,23.1444],[90.5215,23.1812],[90.5317,23.2004],[90.5297,23.1719],[90.5449,23.1982],[90.5492,23.1828],[90.5389,23.1444]]],[[[90.4785,23.3039],[90.4798,23.2316],[90.4512,23.1977],[90.4659,23.1672],[90.4338,23.1001],[90.4459,23.0225],[90.3609,23.0111],[90.3426,22.9819],[90.326,22.9816],[90.3087,23.0538],[90.3259,23.0679],[90.3326,23.1087],[90.3229,23.1024],[90.2729,23.1468],[90.267,23.1328],[90.2905,23.1207],[90.2538,23.1253],[90.2444,23.1379],[90.2657,23.1601],[90.2142,23.1915],[90.1842,23.1708],[90.1781,23.1892],[90.2071,23.2097],[90.2108,23.224],[90.1721,23.262],[90.2124,23.2553],[90.233,23.2607],[90.2526,23.2882],[90.24,23.2931],[90.2866,23.3161],[90.3026,23.3547],[90.3339,23.3674],[90.393,23.3396],[90.4122,23.3025],[90.4785,23.3039]]],[[[90.5761,23.1787],[90.5547,23.1611],[90.5726,23.2083],[90.5768,23.2038],[90.5761,23.1787]]],[[[90.5661,23.2048],[90.5566,23.1903],[90.5569,23.2114],[90.5661,23.2048]]],[[[90.5631,23.2392],[90.5704,23.2357],[90.5578,23.2282],[90.5631,23.2392]]],[[[90.552,23.2822],[90.5051,23.1817],[90.4788,23.1889],[90.4982,23.2794],[90.4511,23.3395],[90.525,23.3236],[90.552,23.2822]]],[[[90.2286,23.2652],[90.1662,23.2687],[90.1826,23.2415],[90.1328,23.2442],[90.1245,23.2738],[90.0892,23.2811],[90.1807,23.3378],[90.2557,23.3117],[90.2334,23.2961],[90.2286,23.2652]]],[[[90.5699,23.308],[90.5699,23.3181],[90.5748,23.3061],[90.5699,23.308]]],[[[90.5473,23.3245],[90.5526,23.3295],[90.5608,23.3132],[90.5473,23.3245]]],[[[90.4206,23.3182],[90.349,23.3965],[90.4311,23.3598],[90.4532,23.3159],[90.4206,23.3182]]],[[[90.4849,23.346],[90.4467,23.3667],[90.4464,23.3699],[90.4849,23.346]]],[[[90.5399,23.3589],[90.5275,23.3583],[90.5293,23.3648],[90.5399,23.3589]]],[[[90.306,23.3773],[90.3441,23.3739],[90.2989,23.3679],[90.306,23.3773]]],[[[90.1966,23.3718],[90.1914,23.373],[90.1896,23.386],[90.1966,23.3718]]],[[[90.5529,23.3901],[90.5606,23.3717],[90.5602,23.3673],[90.5444,23.3781],[90.5529,23.3901]]],[[[90.4238,23.3903],[90.4829,23.3774],[90.4857,23.3672],[90.4238,23.3903]]],[[[90.2503,23.3317],[90.2182,23.3603],[90.2488,23.3252],[90.2056,23.3503],[90.1836,23.4498],[90.2382,23.4169],[90.3299,23.3948],[90.3316,23.3845],[90.286,23.3796],[90.2964,23.3733],[90.2757,23.33],[90.2503,23.3317]]],[[[90.4506,23.3978],[90.4948,23.3982],[90.501,23.3839],[90.4739,23.3845],[90.4506,23.3978]]],[[[90.413,23.3934],[90.3949,23.4],[90.3924,23.4059],[90.4093,23.4048],[90.413,23.3934]]],[[[90.184,23.3987],[90.1658,23.4199],[90.1682,23.4225],[90.184,23.3987]]],[[[90.1768,23.4246],[90.167,23.4337],[90.1686,23.4386],[90.1768,23.4246]]],[[[90.5637,23.4684],[90.5591,23.449],[90.5469,23.4491],[90.5431,23.4794],[90.5637,23.4684]]],[[[90.2377,23.4724],[90.2303,23.4706],[90.2255,23.4789],[90.2377,23.4724]]],[[[90.2006,23.4875],[90.19,23.5033],[90.2035,23.4881],[90.2006,23.4875]]],[[[90.5608,23.5364],[90.5756,23.5199],[90.5753,23.5125],[90.5607,23.5261],[90.5608,23.5364]]],[[[90.5542,23.5553],[90.5566,23.5649],[90.5668,23.5437],[90.5542,23.5553]]],[[[90.4697,23.5534],[90.4532,23.549],[90.4394,23.5536],[90.4698,23.5718],[90.4697,23.5534]]],[[[90.4432,23.5992],[90.4335,23.558],[90.4251,23.6052],[90.4432,23.5992]]],[[[90.4285,23.5723],[90.408,23.5882],[90.4039,23.6053],[90.4199,23.5975],[90.4285,23.5723]]],[[[90.4475,23.5912],[90.4564,23.6062],[90.4791,23.5844],[90.5024,23.5851],[90.4601,23.5745],[90.4475,23.5912]]],[[[90.0918,23.6166],[90.1101,23.6069],[90.1143,23.5944],[90.0967,23.6051],[90.0918,23.6166]]],[[[90.3924,23.6086],[90.4098,23.6151],[90.4177,23.611],[90.3924,23.6086]]],[[[90.4646,23.6349],[90.4239,23.6183],[90.4349,23.637],[90.429,23.6419],[90.415,23.624],[90.3853,23.6458],[90.3978,23.6253],[90.3763,23.6272],[90.2958,23.6657],[90.2617,23.7243],[90.2876,23.7327],[90.3085,23.7608],[90.313,23.7323],[90.3713,23.6956],[90.3979,23.6982],[90.4646,23.6349]]],[[[89.932,23.6851],[89.902,23.7014],[89.8987,23.7073],[89.9318,23.6995],[89.932,23.6851]]],[[[89.8656,23.7068],[89.8689,23.7138],[89.8759,23.7073],[89.8656,23.7068]]],[[[89.8686,23.7271],[89.8746,23.7189],[89.8652,23.7226],[89.8686,23.7271]]],[[[90.3547,23.715],[90.3291,23.7271],[90.3466,23.7315],[90.3547,23.715]]],[[[89.8515,23.7281],[89.8568,23.7306],[89.8623,23.7229],[89.8515,23.7281]]],[[[89.8001,23.7323],[89.786,23.7414],[89.7868,23.7639],[89.7904,23.7596],[89.8001,23.7323]]],[[[90.2416,23.792],[90.2482,23.7344],[90.2259,23.725],[90.2118,23.7551],[90.2416,23.792]]],[[[89.746,23.8048],[89.7758,23.7887],[89.7791,23.7421],[89.7587,23.7631],[89.746,23.8048]]],[[[89.741,23.7775],[89.6852,23.7896],[89.6826,23.8011],[89.718,23.8016],[89.741,23.7775]]],[[[89.6373,23.7995],[89.6716,23.8044],[89.6763,23.7912],[89.6412,23.7843],[89.6373,23.7995]]],[[[89.4879,23.8167],[89.5325,23.8154],[89.5155,23.7856],[89.4879,23.8167]]],[[[89.5575,23.8056],[89.595,23.8151],[89.62,23.8056],[89.5465,23.7973],[89.5669,23.8019],[89.5575,23.8056]]],[[[90.2236,23.8068],[90.2054,23.8221],[90.1823,23.8071],[90.1342,23.812],[90.0872,23.8364],[90.1157,23.8541],[90.1171,23.8704],[90.1436,23.827],[90.176,23.8211],[90.2147,23.8334],[90.2338,23.8213],[90.2236,23.8068]]],[[[89.3139,23.8911],[89.3448,23.8902],[89.3479,23.8867],[89.328,23.8813],[89.3139,23.8911]]],[[[89.6885,23.9281],[89.7347,23.8824],[89.7311,23.8789],[89.6953,23.9025],[89.6885,23.9281]]],[[[89.3773,23.9177],[89.4109,23.9196],[89.3791,23.9063],[89.3773,23.9177]]],[[[89.3112,23.9075],[89.2906,23.9388],[89.3638,23.9429],[89.3787,23.9275],[89.3556,23.8929],[89.3112,23.9075]]],[[[89.6796,23.9139],[89.6611,23.9383],[89.6645,23.9423],[89.6726,23.9407],[89.6796,23.9139]]],[[[89.2358,23.9322],[89.2241,23.9316],[89.1825,23.9548],[89.2314,23.9586],[89.2524,23.9367],[89.2298,23.9463],[89.2358,23.9322]]],[[[89.1722,23.9906],[89.1391,23.9934],[89.1773,23.9953],[89.1722,23.9906]]],[[[93.7184,19.5938],[93.7067,19.5966],[93.7034,19.6042],[93.7184,19.5938]]],[[[93.6539,19.6291],[93.6549,19.6392],[93.6609,19.6273],[93.6539,19.6291]]],[[[93.7,19.6579],[93.6886,19.6621],[93.6973,19.6616],[93.7,19.6579]]],[[[93.814,19.7108],[93.8094,19.7149],[93.8121,19.7273],[93.814,19.7108]]],[[[93.5403,19.7333],[93.5471,19.7501],[93.5825,19.7697],[93.5891,19.7461],[93.572,19.7093],[93.5561,19.7083],[93.5403,19.7333]]],[[[93.6946,19.7183],[93.6318,19.7184],[93.6369,19.7488],[93.6559,19.7784],[93.6663,19.76],[93.6911,19.7895],[93.7046,19.7612],[93.6946,19.7183]]],[[[93.5629,19.7997],[93.5815,19.789],[93.5518,19.7608],[93.5442,19.785],[93.5629,19.7997]]],[[[93.6832,19.8335],[93.6742,19.7998],[93.6318,19.7618],[93.5996,19.7099],[93.5916,19.7776],[93.6301,19.8135],[93.6423,19.8601],[93.7012,19.8521],[93.6832,19.8335]]],[[[93.7423,19.7949],[93.6995,19.7988],[93.7213,19.8073],[93.7435,19.8326],[93.7423,19.7949]]],[[[93.7911,19.8258],[93.7771,19.7662],[93.7124,19.7645],[93.7041,19.7837],[93.7469,19.7906],[93.7545,19.8254],[93.7409,19.8452],[93.7589,19.86],[93.7818,19.8542],[93.7911,19.8258]]],[[[93.5492,19.8179],[93.583,19.8359],[93.5964,19.8282],[93.5822,19.8035],[93.5507,19.8014],[93.5492,19.8179]]],[[[93.7326,19.8242],[93.6753,19.7916],[93.6827,19.8215],[93.734,19.8509],[93.7326,19.8242]]],[[[93.4727,19.903],[93.4978,19.8995],[93.5115,19.8611],[93.5051,19.8348],[93.4822,19.8391],[93.4692,19.8297],[93.499,19.8213],[93.5155,19.7509],[93.4274,19.8433],[93.4313,19.8676],[93.3966,19.9247],[93.3958,19.9583],[93.4274,19.9541],[93.4727,19.903]]],[[[93.6589,19.9056],[93.5966,19.8414],[93.5459,19.8272],[93.5471,19.8669],[93.5941,19.8746],[93.6184,19.9037],[93.6589,19.9056]]],[[[93.731,19.8721],[93.6902,19.8775],[93.6633,19.8581],[93.6521,19.8729],[93.6999,19.8948],[93.719,19.882],[93.7357,19.8838],[93.731,19.8721]]],[[[93.7226,19.8864],[93.7206,19.8914],[93.7237,19.8883],[93.7226,19.8864]]],[[[93.5022,19.9068],[93.5264,19.9144],[93.524,19.867],[93.5106,19.8723],[93.5022,19.9068]]],[[[93.5855,19.8796],[93.5936,19.9044],[93.6058,19.9024],[93.5855,19.8796]]],[[[93.7233,19.9209],[93.7142,19.9279],[93.7264,19.9232],[93.7233,19.9209]]],[[[93.5036,19.9304],[93.4941,19.9174],[93.4897,19.9217],[93.5036,19.9304]]],[[[93.4942,19.9558],[93.4944,19.931],[93.4678,19.9349],[93.4942,19.9558]]],[[[93.4875,19.9522],[93.4612,19.9413],[93.4752,19.9624],[93.4875,19.9522]]],[[[93.4543,19.9927],[93.4609,19.9581],[93.4444,19.9893],[93.4543,19.9927]]],[[[93.4729,19.9865],[93.4974,19.9747],[93.4864,19.9612],[93.4729,19.9865]]],[[[93.1238,20.0477],[93.1381,20.0532],[93.1504,20.036],[93.1333,20.0338],[93.1238,20.0477]]],[[[93.1655,20.0426],[93.1431,20.0611],[93.1373,20.0718],[93.1742,20.0586],[93.1655,20.0426]]],[[[93.3333,20.0521],[93.3317,20.0642],[93.339,20.0728],[93.3416,20.066],[93.3333,20.0521]]],[[[93.1188,20.0584],[93.1284,20.062],[93.1218,20.0559],[93.1188,20.0584]]],[[[93.0564,20.1217],[93.0872,20.0864],[93.074,20.0766],[93.1244,20.0327],[93.0302,20.0209],[92.9793,20.0713],[92.9746,20.1264],[92.9967,20.1116],[93.0564,20.1217]]],[[[93.1089,20.0653],[93.0949,20.0879],[93.1195,20.0869],[93.0909,20.0952],[93.0736,20.1239],[93.0954,20.1426],[93.1267,20.079],[93.1089,20.0653]]],[[[93.2903,20.1555],[93.3034,20.1704],[93.3109,20.1152],[93.3309,20.0821],[93.3039,20.0484],[93.2862,20.0946],[93.2934,20.1158],[93.2903,20.1555]]],[[[93.328,20.1069],[93.3118,20.1313],[93.313,20.1365],[93.328,20.1069]]],[[[93.23,20.1103],[93.2035,20.0935],[93.1892,20.0628],[93.1548,20.0721],[93.1272,20.0921],[93.0981,20.1542],[93.123,20.1798],[93.1761,20.1878],[93.1898,20.168],[93.2242,20.1518],[93.23,20.1103]]],[[[93.0841,20.1652],[93.0787,20.1366],[93.0643,20.1276],[93.0841,20.1652]]],[[[93.2806,20.1526],[93.2815,20.0373],[93.2123,20.0437],[93.2016,20.0806],[93.2467,20.116],[93.2317,20.1537],[93.1829,20.1916],[93.2081,20.2124],[93.2167,20.2346],[93.2528,20.2427],[93.2512,20.2636],[93.2991,20.1972],[93.2837,20.158],[93.251,20.146],[93.2806,20.1526]]],[[[93.1121,20.1752],[93.0985,20.1618],[93.0919,20.1653],[93.095,20.1789],[93.1121,20.1752]]],[[[93.3329,20.2862],[93.3906,20.2092],[93.4112,20.1214],[93.4012,20.1103],[93.3839,20.1859],[93.3959,20.1024],[93.3666,20.084],[93.3799,20.0275],[93.3672,20.0156],[93.3556,20.0728],[93.3143,20.1414],[93.3067,20.2079],[93.2713,20.2575],[93.2776,20.2882],[93.2691,20.3011],[93.2839,20.3204],[93.3206,20.3269],[93.3329,20.2862]]],[[[92.9752,20.2112],[92.965,20.1694],[92.9498,20.1894],[92.9752,20.2112]]],[[[92.9252,20.2444],[92.9465,20.2489],[92.9509,20.2204],[92.9286,20.1897],[92.9164,20.2045],[92.9252,20.2444]]],[[[92.9608,20.2151],[92.9763,20.2319],[92.9804,20.2315],[92.9744,20.2179],[92.9608,20.2151]]],[[[93.2152,20.3051],[93.143,20.2188],[93.1272,20.2428],[93.1284,20.2167],[93.0613,20.1595],[93.0187,20.1333],[92.9977,20.1385],[93.0012,20.2153],[93.0221,20.2687],[93.04,20.2773],[93.04,20.3263],[93.0911,20.3689],[93.12,20.3744],[93.1322,20.3447],[93.1199,20.3296],[93.1288,20.321],[93.1403,20.3166],[93.1334,20.3059],[93.1755,20.3243],[93.2152,20.3051]]],[[[93.2412,20.2975],[93.2708,20.3147],[93.2636,20.2969],[93.2728,20.2683],[93.2385,20.2685],[93.2412,20.2975]]],[[[93.2914,20.353],[93.2882,20.3402],[93.286,20.3375],[93.2847,20.3436],[93.2914,20.353]]],[[[92.7497,20.3511],[92.7522,20.3624],[92.7527,20.3521],[92.7497,20.3511]]],[[[92.8117,20.4109],[92.8664,20.3114],[92.8411,20.2875],[92.8044,20.2838],[92.8025,20.3036],[92.8357,20.3129],[92.8128,20.3389],[92.8143,20.3141],[92.8056,20.3113],[92.7945,20.296],[92.7647,20.3327],[92.7623,20.4322],[92.797,20.4356],[92.8214,20.4216],[92.8117,20.4109]]],[[[92.8528,20.3926],[92.8766,20.4023],[92.8916,20.3885],[92.8718,20.3864],[92.8528,20.3926]]],[[[92.8278,20.4109],[92.8169,20.4066],[92.8166,20.4091],[92.8278,20.4109]]],[[[93.0701,20.3596],[93.0435,20.3504],[93.0348,20.411],[93.0899,20.5061],[93.1102,20.4209],[93.0785,20.4073],[93.0701,20.3596]]],[[[92.782,20.4624],[92.7891,20.4417],[92.7636,20.4417],[92.7559,20.4701],[92.7683,20.4705],[92.7972,20.4995],[92.8037,20.4826],[92.782,20.4624]]],[[[92.6987,20.6033],[92.7084,20.5986],[92.7207,20.5712],[92.7008,20.5817],[92.6987,20.6033]]],[[[92.5844,20.7087],[92.6143,20.7136],[92.6389,20.72],[92.6335,20.6965],[92.6086,20.6838],[92.5844,20.7087]]],[[[92.5761,20.7333],[92.5864,20.7294],[92.5754,20.7211],[92.5491,20.7402],[92.5512,20.757],[92.5627,20.7432],[92.5806,20.749],[92.5761,20.7333]]],[[[92.3088,20.9121],[92.3159,20.9543],[92.3067,20.9822],[92.3326,20.9939],[92.3552,20.9436],[92.3446,20.9386],[92.3255,20.9093],[92.3088,20.9121]]],[[[92.2996,20.9292],[92.2813,20.9476],[92.3007,20.9774],[92.3098,20.9528],[92.2996,20.9292]]],[[[92.2638,21.0272],[92.2566,21.0234],[92.2613,21.0311],[92.2638,21.0272]]],[[[92.2168,21.1148],[92.2195,21.103],[92.211,21.1081],[92.2168,21.1148]]],[[[92.2179,21.1304],[92.2124,21.1257],[92.2076,21.1318],[92.2179,21.1304]]],[[[91.9017,21.5093],[91.8969,21.4671],[91.8684,21.4885],[91.8587,21.5221],[91.8821,21.557],[91.8742,21.6069],[91.8913,21.6376],[91.8851,21.6807],[91.9399,21.735],[91.9586,21.6702],[91.9876,21.6301],[91.9859,21.5872],[91.9727,21.5058],[91.9479,21.4896],[91.9017,21.5093]]],[[[92.0049,21.6227],[92.0135,21.6135],[92.0109,21.5983],[92.0082,21.6005],[92.0049,21.6227]]],[[[92.0347,21.6491],[92.0131,21.6296],[92.0032,21.6316],[92.0276,21.6687],[92.0347,21.6491]]],[[[91.8524,21.6604],[91.8884,21.7621],[91.9121,21.7467],[91.9045,21.7087],[91.8799,21.6822],[91.8806,21.6342],[91.8524,21.6604]]],[[[91.9416,21.7483],[91.9207,21.7299],[91.9145,21.7585],[91.9416,21.7483]]],[[[91.9399,21.7579],[91.9078,21.7618],[91.8934,21.7677],[91.9417,21.7736],[91.9399,21.7579]]],[[[91.8783,21.8216],[91.8757,21.8544],[91.8714,21.8878],[91.8567,21.8746],[91.8745,21.8059],[91.8311,21.7169],[91.8467,21.8128],[91.8409,21.8963],[91.8725,21.922],[91.894,21.8587],[91.8783,21.8216]]],[[[90.6282,21.9359],[90.6555,21.9128],[90.6378,21.8985],[90.6209,21.9111],[90.6282,21.9359]]],[[[90.654,21.9222],[90.6288,21.9403],[90.6301,21.944],[90.6494,21.9476],[90.654,21.9222]]],[[[90.7052,21.9593],[90.7139,21.9719],[90.7172,21.9585],[90.7052,21.9593]]],[[[90.6699,21.9968],[90.6793,22.0038],[90.6835,21.9899],[90.6699,21.9968]]],[[[90.6374,21.997],[90.6221,21.9849],[90.6115,21.9988],[90.6455,22.0513],[90.6374,21.997]]],[[[90.6579,22.0479],[90.6684,22.028],[90.6637,22.0212],[90.6566,22.0346],[90.6579,22.0479]]],[[[90.6992,22.0657],[90.6938,22.0191],[90.6742,22.0232],[90.6691,22.0671],[90.6992,22.0657]]],[[[90.6674,22.0801],[90.6646,22.067],[90.6561,22.0573],[90.6674,22.0801]]],[[[90.6135,22.0483],[90.6312,22.0947],[90.6057,22.0544],[90.6228,22.0354],[90.613,22.0195],[90.5929,22.041],[90.6162,22.1069],[90.6394,22.1289],[90.6644,22.1249],[90.6614,22.0905],[90.6315,22.0708],[90.633,22.0481],[90.6135,22.0483]]],[[[90.7492,22.0637],[90.7778,22.0923],[90.7527,22.0551],[90.7492,22.0637]]],[[[91.0491,22.0834],[91.0363,22.0839],[91.0367,22.0863],[91.0491,22.0834]]],[[[91.0694,22.1018],[91.0744,22.1086],[91.0757,22.1064],[91.0694,22.1018]]],[[[90.593,22.1161],[90.5935,22.1025],[90.5862,22.098],[90.593,22.1161]]],[[[91.0429,22.1007],[91.0576,22.1273],[91.0851,22.122],[91.0429,22.1007]]],[[[90.5773,22.128],[90.5954,22.1267],[90.5848,22.117],[90.5773,22.128]]],[[[91.0693,22.1388],[91.0838,22.1321],[91.0611,22.1333],[91.0693,22.1388]]],[[[91.0462,22.1754],[91.0596,22.167],[91.0934,22.1649],[91.1061,22.1524],[91.0912,22.133],[91.0677,22.1422],[91.0443,22.128],[91.0462,22.1754]]],[[[90.942,22.2125],[90.9536,22.2114],[90.9512,22.1168],[90.9211,22.1356],[90.942,22.2125]]],[[[90.6168,22.1767],[90.6113,22.1743],[90.6161,22.1831],[90.6168,22.1767]]],[[[91.0382,22.2043],[91.0434,22.1886],[91.0396,22.1839],[91.0382,22.2043]]],[[[90.8406,22.217],[90.8282,22.1879],[90.8394,22.2206],[90.8406,22.217]]],[[[90.9272,22.2134],[90.9348,22.207],[90.9265,22.1974],[90.9272,22.2134]]],[[[90.9954,22.2463],[91.0004,22.2371],[90.9819,22.1761],[90.9751,22.2175],[90.9954,22.2463]]],[[[91.8151,22.214],[91.8241,22.2213],[91.8173,22.2085],[91.8151,22.214]]],[[[90.5686,22.2396],[90.5841,22.2483],[90.575,22.2311],[90.5686,22.2396]]],[[[90.9772,22.2394],[90.9827,22.251],[90.9913,22.2609],[90.9872,22.2427],[90.9772,22.2394]]],[[[91.8008,22.28],[91.8009,22.2931],[91.8095,22.2977],[91.8201,22.2775],[91.8008,22.28]]],[[[90.9714,22.374],[90.9911,22.3296],[90.9848,22.2934],[90.9577,22.2223],[90.9352,22.2185],[90.9523,22.3471],[90.9714,22.374]]],[[[91.1698,22.2065],[91.1309,22.163],[91.1152,22.1683],[91.1191,22.1934],[91.1011,22.2106],[91.1115,22.1597],[91.0492,22.1817],[91.0519,22.4201],[91.0269,22.4766],[91.0408,22.508],[91.1111,22.5023],[91.1275,22.4837],[91.1369,22.3951],[91.1831,22.3015],[91.1698,22.2065]]],[[[90.632,22.4123],[90.6509,22.3808],[90.6486,22.3674],[90.632,22.4123]]],[[[90.6487,22.4076],[90.6505,22.4138],[90.6512,22.3998],[90.6487,22.4076]]],[[[90.6012,22.4608],[90.6258,22.4422],[90.6322,22.3575],[90.6038,22.4221],[90.6012,22.4608]]],[[[90.8828,22.482],[90.8889,22.445],[90.8462,22.2419],[90.8319,22.2192],[90.8082,22.2193],[90.8254,22.1984],[90.8024,22.2081],[90.796,22.246],[90.7981,22.2038],[90.8209,22.1843],[90.7784,22.186],[90.8194,22.1776],[90.8219,22.1395],[90.7919,22.1083],[90.7958,22.1457],[90.783,22.1074],[90.7622,22.1112],[90.7195,22.053],[90.7086,22.0646],[90.7371,22.132],[90.7058,22.0721],[90.6749,22.0707],[90.6781,22.1053],[90.6991,22.1114],[90.6703,22.1264],[90.6957,22.1379],[90.6597,22.1332],[90.6338,22.1481],[90.6334,22.1324],[90.6198,22.1325],[90.6111,22.1582],[90.6706,22.2784],[90.6714,22.4739],[90.6066,22.6012],[90.5888,22.6067],[90.6186,22.5467],[90.5729,22.5947],[90.5746,22.6194],[90.5634,22.6408],[90.5889,22.6338],[90.5796,22.6542],[90.5401,22.6309],[90.5569,22.6934],[90.6594,22.7846],[90.726,22.7769],[90.778,22.6269],[90.8828,22.482]]],[[[91.1724,22.4261],[91.1987,22.4311],[91.1998,22.4124],[91.1858,22.4085],[91.1724,22.4261]]],[[[90.6393,22.4252],[90.6476,22.4201],[90.6445,22.415],[90.6393,22.4252]]],[[[91.0331,22.4391],[91.0338,22.4077],[91.018,22.4086],[91.0183,22.4451],[91.0331,22.4391]]],[[[90.9757,22.458],[90.9897,22.476],[91.0007,22.4545],[90.9757,22.458]]],[[[91.0193,22.4851],[91.0099,22.4991],[91.0285,22.5053],[91.0316,22.4949],[91.0193,22.4851]]],[[[91.1942,22.4985],[91.1866,22.4726],[91.1388,22.5159],[91.1756,22.5187],[91.1942,22.4985]]],[[[90.6136,22.5392],[90.6607,22.4688],[90.6556,22.4599],[90.6136,22.5392]]],[[[91.4849,22.3429],[91.4551,22.3987],[91.4007,22.4361],[91.3798,22.4944],[91.3921,22.564],[91.3567,22.66],[91.4389,22.6389],[91.5454,22.4693],[91.5582,22.4111],[91.5189,22.35],[91.4849,22.3429]]],[[[91.1976,22.5092],[91.2093,22.5065],[91.2106,22.4958],[91.1976,22.5092]]],[[[90.6512,22.5029],[90.6436,22.5073],[90.6452,22.5117],[90.6512,22.5029]]],[[[91.0241,22.5578],[91.0326,22.5576],[91.0189,22.5533],[91.0241,22.5578]]],[[[91.2803,22.5426],[91.2417,22.5466],[91.2151,22.6068],[91.2217,22.6441],[91.2783,22.6111],[91.3048,22.5574],[91.2803,22.5426]]],[[[91.0912,22.595],[91.141,22.6642],[91.1723,22.6084],[91.1574,22.5798],[91.1132,22.5611],[91.0912,22.595]]],[[[91.0886,22.5983],[91.0853,22.553],[91.0658,22.569],[91.062,22.627],[91.0449,22.6359],[91.0663,22.7043],[91.1122,22.7],[91.1284,22.6708],[91.0886,22.5983]]],[[[91.2982,22.6729],[91.2801,22.6656],[91.2851,22.6791],[91.2982,22.6729]]],[[[90.7969,22.6901],[90.8157,22.6838],[90.8206,22.6552],[90.7937,22.659],[90.7969,22.6901]]],[[[90.9825,22.7653],[91.0202,22.7154],[91.0079,22.7052],[90.9757,22.7222],[90.9658,22.7155],[91.0357,22.6706],[91.0292,22.6419],[91.06,22.5964],[91.0553,22.5807],[91.0512,22.5934],[91.0248,22.5766],[91.0438,22.5696],[90.9869,22.5398],[90.9385,22.5619],[90.9256,22.5787],[90.9401,22.5911],[90.9144,22.5899],[90.8618,22.6339],[90.8337,22.7293],[90.7969,22.7739],[90.9095,22.8108],[90.9778,22.7739],[90.9711,22.7579],[90.9825,22.7653]]],[[[91.0417,22.6769],[91.0194,22.6926],[91.0181,22.7025],[91.0462,22.7046],[91.0417,22.6769]]],[[[91.2707,22.6674],[91.2165,22.7007],[91.2357,22.7099],[91.2122,22.7042],[91.1311,22.7361],[91.228,22.7451],[91.2995,22.7044],[91.2707,22.6674]]],[[[90.8025,22.7089],[90.7923,22.7182],[90.8037,22.7112],[90.8025,22.7089]]],[[[91.3538,22.7432],[91.3411,22.7184],[91.3098,22.7485],[91.342,22.7563],[91.3538,22.7432]]],[[[90.6003,22.7771],[90.5747,22.7445],[90.571,22.7444],[90.5676,22.7785],[90.6003,22.7771]]],[[[90.5955,22.7887],[90.6362,22.8136],[90.6628,22.8097],[90.6197,22.783],[90.5955,22.7887]]],[[[90.7021,22.8276],[90.6815,22.8128],[90.6665,22.8261],[90.7021,22.8276]]],[[[90.6322,22.838],[90.6434,22.85],[90.647,22.8467],[90.6322,22.838]]],[[[90.6937,22.8538],[90.67,22.8458],[90.6796,22.8543],[90.6937,22.8538]]],[[[90.6725,22.8754],[90.6623,22.8542],[90.6521,22.8487],[90.6554,22.8821],[90.6725,22.8754]]],[[[90.6388,22.9635],[90.6342,22.959],[90.6318,22.9651],[90.6388,22.9635]]],[[[90.6884,22.9553],[90.6683,22.9639],[90.6485,22.9847],[90.6803,22.9808],[90.6884,22.9553]]],[[[90.5835,23.218],[90.5963,23.2287],[90.5899,23.2108],[90.5835,23.218]]],[[[90.6188,23.2298],[90.6138,23.2315],[90.6161,23.2364],[90.6188,23.2298]]],[[[90.5816,23.2599],[90.5803,23.239],[90.5713,23.2467],[90.5816,23.2599]]],[[[90.6334,23.2534],[90.6232,23.2389],[90.6207,23.2617],[90.6334,23.2534]]],[[[90.591,23.3393],[90.5829,23.3499],[90.5857,23.3557],[90.591,23.3393]]],[[[90.6816,23.3461],[90.6734,23.3486],[90.6783,23.3582],[90.6816,23.3461]]],[[[90.5714,23.3878],[90.5719,23.3743],[90.5656,23.4056],[90.5851,23.43],[90.5714,23.3878]]],[[[90.5686,23.4417],[90.5754,23.4453],[90.5713,23.4342],[90.5686,23.4417]]],[[[90.6132,23.4946],[90.6184,23.4883],[90.6087,23.4896],[90.6132,23.4946]]],[[[90.6888,23.5014],[90.6691,23.4877],[90.6436,23.5019],[90.6637,23.5167],[90.6888,23.5014]]],[[[90.7068,23.5051],[90.6946,23.4979],[90.702,23.5148],[90.7068,23.5051]]],[[[90.7032,23.5522],[90.7019,23.5256],[90.6912,23.5485],[90.7032,23.5522]]],[[[90.6517,23.606],[90.6946,23.5158],[90.6576,23.5209],[90.5851,23.4883],[90.58,23.5629],[90.5632,23.583],[90.6517,23.606]]],[[[90.6949,23.5552],[90.6936,23.5641],[90.6992,23.5613],[90.6949,23.5552]]],[[[90.6848,23.5676],[90.6804,23.5794],[90.6905,23.5679],[90.6848,23.5676]]],[[[90.7322,23.6524],[90.7598,23.6309],[90.7358,23.6271],[90.7284,23.5956],[90.6991,23.573],[90.6684,23.59],[90.6585,23.6553],[90.6769,23.6476],[90.7322,23.6524]]],[[[90.6261,23.6259],[90.6195,23.6099],[90.6019,23.6062],[90.6033,23.6099],[90.6261,23.6259]]],[[[90.6428,23.6569],[90.6634,23.6642],[90.6503,23.6478],[90.6474,23.6139],[90.6317,23.6169],[90.6428,23.6569]]],[[[90.6797,23.6534],[90.6724,23.669],[90.6841,23.6613],[90.6797,23.6534]]],[[[90.72,23.6614],[90.7013,23.6628],[90.6913,23.6714],[90.7264,23.6788],[90.72,23.6614]]],[[[90.6579,23.6711],[90.6474,23.6798],[90.6641,23.6736],[90.6579,23.6711]]],[[[90.6946,23.6848],[90.7146,23.7266],[90.7319,23.6849],[90.6946,23.6848]]],[[[95.387,4.8735],[95.3773,4.8558],[95.3626,4.8701],[95.3642,4.8746],[95.387,4.8735]]],[[[97.5829,5.1504],[97.5769,5.1653],[97.5884,5.1511],[97.5829,5.1504]]],[[[95.16,5.5608],[95.1651,5.5484],[95.1456,5.5515],[95.16,5.5608]]],[[[95.2081,5.5731],[95.1766,5.5707],[95.2094,5.5765],[95.2081,5.5731]]],[[[95.1441,5.5907],[95.1356,5.6045],[95.1213,5.5914],[95.1138,5.6084],[95.1404,5.6576],[95.1864,5.6057],[95.1441,5.5907]]],[[[95.0483,5.6347],[95.0675,5.6397],[95.0797,5.6371],[95.0535,5.6194],[95.0483,5.6347]]],[[[95.0594,5.7485],[95.1219,5.6951],[95.1341,5.663],[95.0728,5.6668],[95.0494,5.6444],[95.0602,5.6681],[95.0418,5.6688],[95.0586,5.6868],[95.0399,5.7078],[95.0581,5.7165],[95.0456,5.7323],[95.0093,5.725],[95.0293,5.7484],[95.0594,5.7485]]],[[[95.2152,5.9044],[95.2949,5.837],[95.2997,5.8668],[95.3217,5.8814],[95.313,5.8913],[95.3331,5.8926],[95.3736,5.847],[95.3742,5.8025],[95.3454,5.8252],[95.3354,5.773],[95.2859,5.778],[95.2549,5.8439],[95.218,5.8746],[95.2152,5.9044]]],[[[97.8699,9.3689],[97.8671,9.3691],[97.8688,9.3731],[97.8699,9.3689]]],[[[97.8636,9.4241],[97.8627,9.405],[97.8739,9.4034],[97.8806,9.3819],[97.8433,9.4163],[97.8636,9.4241]]],[[[97.874,9.4204],[97.8584,9.4301],[97.8615,9.4345],[97.874,9.4204]]],[[[97.8734,9.4578],[97.871,9.436],[97.8514,9.4472],[97.8734,9.4578]]],[[[97.8847,9.464],[97.901,9.4455],[97.8777,9.4613],[97.8847,9.464]]],[[[97.904,9.6738],[97.9126,9.6776],[97.9061,9.6705],[97.904,9.6738]]],[[[97.8819,10.2026],[97.876,10.1897],[97.8737,10.2003],[97.8819,10.2026]]],[[[97.6887,10.4591],[97.6794,10.4619],[97.6889,10.4663],[97.6887,10.4591]]],[[[97.8968,10.5042],[97.9208,10.5161],[97.898,10.4959],[97.8968,10.5042]]],[[[97.9541,10.9303],[97.9448,10.867],[97.9226,10.8695],[97.8877,10.8415],[97.8927,10.8661],[97.9101,10.8674],[97.8944,10.8946],[97.9043,10.9151],[97.9267,10.9327],[97.9541,10.9303]]],[[[97.5034,11.6356],[97.5053,11.6436],[97.5098,11.645],[97.5034,11.6356]]],[[[97.4988,11.7733],[97.4472,11.7826],[97.4402,11.8008],[97.4988,11.7733]]],[[[97.5283,11.813],[97.5229,11.7797],[97.4993,11.7818],[97.4772,11.8106],[97.5283,11.813]]],[[[97.6691,11.8226],[97.6684,11.8048],[97.6479,11.8162],[97.6497,11.8187],[97.6691,11.8226]]],[[[97.4681,11.8164],[97.4753,11.8233],[97.4692,11.8134],[97.4681,11.8164]]],[[[97.6422,11.8705],[97.6742,11.8987],[97.6892,11.8879],[97.6739,11.8559],[97.6827,11.8324],[97.6494,11.8505],[97.6422,11.8705]]],[[[97.7544,11.9951],[97.7415,11.9906],[97.7355,12.0086],[97.7465,12.0058],[97.7544,11.9951]]],[[[97.6528,12.0075],[97.6665,12.0539],[97.6889,12.052],[97.6528,12.0075]]],[[[97.762,12.0486],[97.791,12.0462],[97.7632,12.038],[97.762,12.0486]]],[[[97.6463,12.036],[97.6354,12.057],[97.6468,12.0623],[97.6463,12.036]]],[[[97.748,12.1239],[97.7271,12.1025],[97.7141,12.1348],[97.7452,12.146],[97.748,12.1239]]],[[[97.877,12.2434],[97.8679,12.242],[97.8756,12.2468],[97.877,12.2434]]],[[[97.8035,12.3017],[97.7809,12.2637],[97.7723,12.2629],[97.8035,12.3017]]],[[[97.8668,12.2796],[97.8671,12.2991],[97.8858,12.2931],[97.8839,12.2866],[97.8668,12.2796]]],[[[97.8236,12.4671],[97.8376,12.4512],[97.824,12.4268],[97.8198,12.4436],[97.8236,12.4671]]],[[[97.7966,12.5111],[97.8099,12.5065],[97.8057,12.4978],[97.8027,12.4964],[97.7966,12.5111]]],[[[97.8776,12.5749],[97.8529,12.539],[97.8266,12.5836],[97.8444,12.5842],[97.8491,12.6],[97.8776,12.5749]]],[[[97.8639,12.6069],[97.8515,12.606],[97.8555,12.6136],[97.8639,12.6069]]],[[[97.8634,12.6145],[97.8675,12.6274],[97.882,12.622],[97.8634,12.6145]]],[[[97.8716,12.8064],[97.8754,12.765],[97.8403,12.7762],[97.8385,12.8003],[97.8557,12.8093],[97.8456,12.8203],[97.8716,12.8064]]],[[[97.9277,13.8521],[97.9134,13.7836],[97.9026,13.797],[97.9125,13.8685],[97.9277,13.8521]]],[[[97.9117,13.9085],[97.9111,13.9417],[97.9173,13.8862],[97.9117,13.9085]]],[[[97.8013,14.1339],[97.8244,14.1246],[97.8045,14.109],[97.8013,14.1339]]],[[[97.7919,14.1344],[97.7883,14.176],[97.8229,14.1869],[97.7919,14.1344]]],[[[97.8138,14.2806],[97.8071,14.2613],[97.802,14.2771],[97.8138,14.2806]]],[[[97.7835,14.4145],[97.7802,14.389],[97.7677,14.3957],[97.7835,14.4145]]],[[[97.7657,14.4376],[97.777,14.4412],[97.7782,14.4396],[97.7758,14.4339],[97.7657,14.4376]]],[[[97.7389,15.0666],[97.7274,15.0641],[97.739,15.0756],[97.7389,15.0666]]],[[[97.744,15.0871],[97.7371,15.088],[97.7381,15.0962],[97.744,15.0871]]],[[[97.7407,15.2026],[97.7301,15.2004],[97.7351,15.2072],[97.7407,15.2026]]],[[[97.6462,15.5884],[97.6642,15.5139],[97.6552,15.494],[97.6462,15.5884]]],[[[95.0568,15.7419],[95.0594,15.7396],[95.052,15.7421],[95.0568,15.7419]]],[[[95.0646,15.8444],[95.0675,15.8125],[95.0568,15.8101],[95.0646,15.8444]]],[[[95.0606,15.8772],[95.0666,15.8747],[95.0628,15.8664],[95.0606,15.8772]]],[[[94.7478,15.8435],[94.8121,15.9418],[94.8402,15.869],[94.8149,15.8211],[94.7478,15.8435]]],[[[94.8409,15.8952],[94.8346,15.8899],[94.8309,15.9062],[94.8409,15.8952]]],[[[94.5213,15.9208],[94.5197,15.9423],[94.5225,15.9426],[94.5213,15.9208]]],[[[95.3327,15.9568],[95.3177,15.9308],[95.3142,15.9296],[95.3327,15.9568]]],[[[95.241,15.9118],[95.2678,15.9852],[95.2682,15.9572],[95.241,15.9118]]],[[[95.3453,15.9583],[95.3384,15.9631],[95.3452,15.9714],[95.3453,15.9583]]],[[[94.6647,15.9598],[94.6603,15.9655],[94.6672,15.9685],[94.6647,15.9598]]],[[[95.1207,15.9944],[95.1186,15.9526],[95.104,15.939],[95.1036,15.9645],[95.1207,15.9944]]],[[[95.3489,16.0],[95.2736,15.8683],[95.2366,15.8652],[95.273,15.9563],[95.2842,16.0323],[95.3264,16.0786],[95.3489,16.0]]],[[[94.3061,16.0],[94.3322,16.0117],[94.3502,16.0084],[94.3295,15.9829],[94.3061,16.0]]],[[[94.8448,16.0627],[94.8619,16.0538],[94.8544,16.0088],[94.8099,15.9774],[94.8448,16.0627]]],[[[95.0752,16.0156],[95.0836,16.0383],[95.0807,16.0085],[95.0752,16.0156]]],[[[94.7214,16.0352],[94.6923,16.0022],[94.7171,16.0504],[94.7214,16.0352]]],[[[95.1377,16.0363],[95.0988,15.9801],[95.0997,16.046],[95.1202,16.0802],[95.1719,16.1117],[95.2087,16.1057],[95.1806,16.075],[95.1854,16.028],[95.1377,16.0363]]],[[[94.6513,16.0928],[94.6425,16.0649],[94.6173,16.0416],[94.6182,16.0528],[94.6513,16.0928]]],[[[94.5799,16.0431],[94.5922,16.0997],[94.5718,16.0745],[94.573,16.0451],[94.5966,16.0307],[94.5938,16.0155],[94.5131,15.9889],[94.4733,15.935],[94.3828,15.9651],[94.3863,16.0],[94.4535,16.0189],[94.5847,16.1991],[94.6492,16.2476],[94.6728,16.2032],[94.6594,16.1444],[94.6263,16.0719],[94.5953,16.038],[94.5799,16.0431]]],[[[95.1617,16.1199],[95.1454,16.1152],[95.1399,16.1177],[95.1617,16.1199]]],[[[94.6674,16.1206],[94.665,16.1337],[94.6683,16.1346],[94.6674,16.1206]]],[[[94.5256,16.1322],[94.5276,16.1457],[94.5448,16.1502],[94.5345,16.1377],[94.5256,16.1322]]],[[[95.1272,16.1447],[95.1335,16.1565],[95.1277,16.1379],[95.1272,16.1447]]],[[[95.3658,16.2014],[95.3641,16.1565],[95.3263,16.1146],[95.3113,16.1457],[95.3183,16.1719],[95.3658,16.2014]]],[[[95.8727,16.2216],[95.8853,16.234],[95.8943,16.2393],[95.8886,16.2243],[95.8727,16.2216]]],[[[94.5195,16.2282],[94.5266,16.2838],[94.5602,16.2407],[94.5404,16.2011],[94.5195,16.2282]]],[[[95.9016,16.2554],[95.9031,16.273],[95.9078,16.2866],[95.9133,16.2749],[95.9016,16.2554]]],[[[94.6576,16.2671],[94.6579,16.2763],[94.6624,16.2782],[94.6576,16.2671]]],[[[97.5796,16.3061],[97.5955,16.3324],[97.6161,16.2774],[97.5936,16.2399],[97.5796,16.3061]]],[[[94.6827,16.2978],[94.6827,16.2978],[94.6827,16.2978],[94.6827,16.2978]]],[[[94.6065,16.2748],[94.6165,16.3223],[94.6499,16.3302],[94.6864,16.3779],[94.6279,16.2577],[94.5788,16.2248],[94.5746,16.2472],[94.6065,16.2748]]],[[[95.9178,16.273],[95.913,16.3313],[95.9399,16.3786],[95.9563,16.3263],[95.9519,16.2719],[95.9427,16.2459],[95.8941,16.2265],[95.9178,16.273]]],[[[94.6812,16.3123],[94.6827,16.2978],[94.678,16.2989],[94.6812,16.3123]]],[[[95.9885,16.3769],[96.0187,16.3769],[96.0736,16.3414],[96.0835,16.3147],[95.9562,16.2513],[95.9885,16.3769]]],[[[95.9577,16.3487],[95.9672,16.3175],[95.9615,16.2951],[95.9577,16.3487]]],[[[96.0779,16.3521],[96.0722,16.3487],[96.0648,16.3563],[96.0779,16.3521]]],[[[97.6087,16.441],[97.5794,16.3995],[97.5904,16.3597],[97.5683,16.3141],[97.5706,16.2383],[97.5368,16.2263],[97.5009,16.2468],[97.4565,16.3187],[97.482,16.3525],[97.4418,16.4469],[97.472,16.4712],[97.4465,16.4702],[97.5023,16.5124],[97.5793,16.4835],[97.6081,16.4883],[97.6087,16.441]]],[[[95.9291,16.3683],[95.9279,16.3735],[95.9334,16.3835],[95.9291,16.3683]]],[[[95.9544,16.4042],[95.9924,16.3898],[95.9658,16.3464],[95.9522,16.3705],[95.9544,16.4042]]],[[[94.6973,16.3689],[94.698,16.3876],[94.7024,16.3906],[94.7021,16.3785],[94.6973,16.3689]]],[[[95.9515,16.3793],[95.9437,16.3836],[95.9477,16.39],[95.9515,16.3793]]],[[[95.9967,16.3987],[96.0038,16.385],[95.9936,16.399],[95.9967,16.3987]]],[[[95.9399,16.3965],[95.9325,16.3958],[95.9328,16.3981],[95.9399,16.3965]]],[[[97.6029,16.3816],[97.601,16.3972],[97.6051,16.4101],[97.6131,16.3953],[97.6029,16.3816]]],[[[96.1985,16.4841],[96.1788,16.5142],[96.1851,16.5578],[96.1782,16.581],[96.2356,16.5983],[96.2628,16.5187],[96.3026,16.4722],[96.2944,16.4457],[96.3266,16.4653],[96.3322,16.4318],[96.1856,16.3431],[96.1044,16.3223],[96.0914,16.3535],[96.109,16.3796],[96.1432,16.3846],[96.1668,16.414],[96.1488,16.4548],[96.1585,16.453],[96.1804,16.4603],[96.1866,16.4686],[96.1895,16.4766],[96.1831,16.4835],[96.1985,16.4841]]],[[[96.3192,16.4688],[96.309,16.4677],[96.3076,16.4757],[96.3192,16.4688]]],[[[96.1871,16.4718],[96.1871,16.4718],[96.1871,16.4718],[96.1871,16.4718]]],[[[97.5905,16.4882],[97.5739,16.4879],[97.5694,16.493],[97.5905,16.4882]]],[[[97.5449,16.512],[97.5467,16.5019],[97.5285,16.5115],[97.5449,16.512]]],[[[97.5555,16.5248],[97.6083,16.5085],[97.5945,16.5049],[97.5555,16.5248]]],[[[97.6466,16.5086],[97.651,16.5202],[97.6558,16.5234],[97.6557,16.5165],[97.6466,16.5086]]],[[[97.4998,16.5268],[97.5085,16.5321],[97.5211,16.5336],[97.5148,16.5236],[97.4998,16.5268]]],[[[97.6435,16.5772],[97.6647,16.5554],[97.6276,16.5296],[97.6344,16.5656],[97.6435,16.5772]]],[[[97.7111,16.5602],[97.7152,16.5643],[97.7161,16.5622],[97.7111,16.5602]]],[[[97.6508,16.5698],[97.6515,16.5872],[97.6534,16.5681],[97.6508,16.5698]]],[[[97.6129,16.5792],[97.6219,16.6113],[97.6261,16.6184],[97.6424,16.5868],[97.6325,16.5706],[97.6129,16.5792]]],[[[96.3107,16.8499],[96.3016,16.8461],[96.3033,16.8612],[96.3107,16.8499]]],[[[97.183,16.8705],[97.1989,16.8658],[97.1871,16.8463],[97.183,16.8705]]],[[[96.6652,17.3236],[96.6596,17.3426],[96.6759,17.3462],[96.6652,17.3236]]],[[[96.7677,17.3663],[96.778,17.3694],[96.7687,17.3647],[96.7677,17.3663]]],[[[96.8428,17.407],[96.7884,17.3795],[96.7766,17.4062],[96.7413,17.4254],[96.7409,17.4431],[96.7865,17.4833],[96.8078,17.4389],[96.8428,17.407]]],[[[94.5871,17.5687],[94.5929,17.5688],[94.5905,17.5607],[94.5871,17.5687]]],[[[94.0555,19.3461],[94.0403,19.3418],[94.0545,19.3488],[94.0555,19.3461]]],[[[93.8534,19.4938],[93.8301,19.4819],[93.7689,19.5315],[93.8111,19.5267],[93.8534,19.4938]]],[[[97.9705,9.6014],[97.9698,9.6218],[97.9537,9.6382],[97.9762,9.6376],[97.9705,9.6014]]],[[[97.9923,10.0489],[97.9959,10.0303],[97.9924,10.0227],[97.9857,10.0312],[97.9923,10.0489]]],[[[97.9897,10.0531],[97.9745,10.0747],[97.9935,10.0701],[97.9897,10.0531]]],[[[97.9771,10.1426],[97.9601,10.1236],[97.9814,10.1764],[97.9803,10.129],[97.9771,10.1426]]],[[[97.9161,10.1553],[97.9332,10.1536],[97.9133,10.1516],[97.9161,10.1553]]],[[[98.0,10.3565],[98.0,10.3201],[97.9977,10.3186],[97.9882,10.3267],[98.0,10.3565]]],[[[97.9674,10.3544],[97.9732,10.3578],[97.9676,10.347],[97.9674,10.3544]]],[[[97.9521,10.3643],[97.9439,10.3462],[97.9397,10.3457],[97.9419,10.3598],[97.9521,10.3643]]],[[[97.9468,10.4057],[97.9491,10.3912],[97.9396,10.4023],[97.9468,10.4057]]],[[[97.9674,10.4091],[97.9541,10.4173],[97.96,10.4338],[97.9674,10.4091]]],[[[97.937,10.4631],[97.9458,10.4198],[97.9207,10.4268],[97.9132,10.4151],[97.9425,10.4116],[97.8997,10.3938],[97.8963,10.4812],[97.9124,10.4938],[97.909,10.4651],[97.9482,10.476],[97.937,10.4631]]],[[[98.0,10.5605],[97.9915,10.537],[97.9451,10.5591],[97.9812,10.5704],[98.0,10.5605]]],[[[97.9894,10.8406],[97.9973,10.8459],[97.9947,10.8367],[97.9894,10.8406]]],[[[97.9996,10.8825],[98.0,10.8828],[98.0,10.8814],[97.9996,10.8825]]],[[[97.9334,11.2752],[97.9232,11.2711],[97.9279,11.2775],[97.9334,11.2752]]],[[[98.0,11.4051],[98.0,11.3834],[97.9922,11.3983],[98.0,11.4051]]],[[[98.0,11.4487],[97.9751,11.4382],[97.9732,11.4447],[98.0,11.4487]]],[[[97.9996,11.9566],[97.9753,11.9511],[97.9697,11.9569],[97.9915,11.9697],[97.9996,11.9566]]],[[[97.9231,12.0011],[97.9297,11.9857],[97.9265,11.9851],[97.9231,12.0011]]],[[[97.9683,12.014],[97.9849,12.0243],[97.9951,12.0049],[97.9935,12.0019],[97.9683,12.014]]],[[[97.9775,12.052],[97.9626,12.0469],[97.9627,12.0244],[97.9537,12.061],[97.9775,12.052]]],[[[97.9432,12.0516],[97.9443,12.0419],[97.9411,12.041],[97.9432,12.0516]]],[[[97.9849,12.0936],[97.9756,12.0814],[97.9763,12.1033],[97.9849,12.0936]]],[[[97.9887,12.1039],[98.0,12.1081],[98.0,12.0909],[97.9887,12.1039]]],[[[97.9746,12.1048],[97.9682,12.1183],[97.9735,12.1183],[97.9746,12.1048]]],[[[97.9746,12.1261],[97.9811,12.13],[97.9797,12.1238],[97.9746,12.1261]]],[[[98.0,12.1232],[97.9979,12.1287],[97.9992,12.1421],[98.0,12.1232]]],[[[97.9324,12.2427],[97.9398,12.2287],[97.9393,12.2075],[97.927,12.2312],[97.9324,12.2427]]],[[[97.9431,12.2818],[97.9604,12.2867],[97.9512,12.2735],[97.9431,12.2818]]],[[[97.9653,12.2893],[97.9698,12.2971],[97.9704,12.2819],[97.9653,12.2893]]],[[[97.9945,12.2796],[97.9813,12.3091],[97.9605,12.3213],[97.9453,12.3129],[97.9786,12.3388],[97.9686,12.3623],[97.9426,12.3311],[97.9567,12.3773],[97.9746,12.3869],[97.9765,12.3649],[98.0,12.3864],[97.9945,12.2796]]],[[[95.5434,5.6145],[95.6132,5.6266],[95.6729,5.5857],[95.879,5.5067],[95.9042,5.427],[96.049,5.327],[96.0735,5.2928],[96.1823,5.2636],[96.2587,5.2634],[96.3882,5.2149],[96.465,5.2376],[96.4908,5.2046],[96.5305,5.2024],[96.6139,5.2144],[96.7202,5.2559],[96.8273,5.2776],[96.8552,5.2774],[96.8303,5.2714],[96.8998,5.2516],[96.9753,5.2665],[97.0818,5.2327],[97.1448,5.2003],[97.1432,5.1623],[97.1981,5.1461],[97.4967,5.2537],[97.5137,5.2464],[97.5468,5.2151],[97.5273,5.2057],[97.57,5.1904],[97.5722,5.1386],[97.6017,5.1419],[97.611,5.1139],[97.6525,5.1197],[97.648,5.0751],[97.806,4.9341],[97.9015,4.8871],[97.934,4.808],[97.9619,4.7262],[97.9615,4.668],[97.9946,4.6349],[98.0,4.6047],[97.9604,4.5316],[97.9823,4.5447],[98.0,4.5268],[98.0,4.0],[96.2775,4.0],[96.1485,4.1406],[96.1249,4.128],[96.0536,4.206],[96.023,4.196],[95.7128,4.5268],[95.6081,4.6162],[95.5654,4.6262],[95.5834,4.6462],[95.5723,4.6567],[95.5387,4.6473],[95.4818,4.7609],[95.4119,4.8179],[95.4253,4.8339],[95.3756,4.9197],[95.3694,4.9459],[95.3817,4.9568],[95.3555,4.9992],[95.3623,5.0194],[95.3045,5.0793],[95.3152,5.0834],[95.3041,5.1067],[95.2825,5.1073],[95.3067,5.1271],[95.3055,5.1652],[95.2368,5.2204],[95.2503,5.2267],[95.2336,5.2472],[95.2385,5.2724],[95.2113,5.2699],[95.2156,5.3179],[95.2336,5.3195],[95.2223,5.3417],[95.2331,5.3582],[95.2389,5.3385],[95.2483,5.3663],[95.2286,5.4272],[95.2409,5.4467],[95.2295,5.4922],[95.1897,5.5228],[95.2202,5.5705],[95.2424,5.5512],[95.2806,5.5506],[95.3247,5.5899],[95.3527,5.5887],[95.4315,5.6564],[95.4651,5.6437],[95.4974,5.5988],[95.5221,5.5944],[95.5434,5.6145]]],[[[98.0,4.6171],[97.998,4.6246],[98.0,4.6279],[98.0,4.6171]]],[[[98.0,14.2877],[97.9679,14.3954],[98.0,14.4789],[98.0,14.2877]]],[[[97.9973,14.4796],[97.9654,14.4261],[97.9408,14.5262],[97.9058,14.5783],[97.9134,14.6195],[97.9047,14.6107],[97.8728,14.671],[97.8944,14.7054],[97.8855,14.7229],[97.8678,14.7078],[97.8392,14.7188],[97.7918,14.8683],[97.8083,14.9501],[97.7969,14.9972],[97.8132,15.0062],[97.8244,15.0243],[97.791,14.9984],[97.7707,15.0183],[97.7958,15.0271],[97.8063,15.1503],[97.787,15.1795],[97.7951,15.1903],[97.7653,15.1971],[97.7387,15.2445],[97.7417,15.295],[97.7215,15.3328],[97.7275,15.3548],[97.7469,15.3561],[97.7465,15.3837],[97.7828,15.397],[97.7408,15.4871],[97.762,15.5281],[97.6994,15.7541],[97.7217,15.7717],[97.7179,15.8434],[97.6754,15.9144],[97.6103,15.949],[97.6035,15.9803],[97.5713,16.0108],[97.5582,16.0726],[97.5967,16.0851],[97.6143,16.0611],[97.6277,16.0504],[97.648,16.0442],[97.6654,16.0486],[97.6772,16.0283],[97.6969,16.0274],[97.6673,16.0521],[97.6202,16.0587],[97.6072,16.1036],[97.5978,16.097],[97.6438,16.27],[97.6155,16.3556],[97.6294,16.3873],[97.6141,16.4256],[97.6284,16.4532],[97.6253,16.5],[97.6621,16.5123],[97.6624,16.4765],[97.6823,16.4655],[97.7025,16.4706],[97.7044,16.4501],[97.7232,16.4502],[97.7198,16.4268],[97.7539,16.4141],[97.7355,16.4023],[97.7334,16.3833],[97.7784,16.3746],[97.7974,16.354],[97.7858,16.3396],[97.7874,16.3327],[97.8346,16.3236],[97.8601,16.2918],[97.8887,16.2862],[97.8521,16.3024],[97.8441,16.3234],[97.7924,16.3327],[97.8031,16.3534],[97.7905,16.3703],[97.7614,16.386],[97.7372,16.386],[97.7578,16.4177],[97.7289,16.4247],[97.7259,16.4541],[97.7068,16.4536],[97.7023,16.474],[97.6641,16.48],[97.6755,16.5007],[97.6684,16.5455],[97.7465,16.5616],[97.7089,16.5706],[97.6685,16.5549],[97.6442,16.6134],[97.6214,16.6433],[97.6076,16.581],[97.6264,16.5585],[97.6215,16.5187],[97.5325,16.5376],[97.4885,16.5387],[97.481,16.5218],[97.3928,16.5251],[97.3629,16.479],[97.3284,16.6589],[97.3466,16.6471],[97.3939,16.64],[97.4108,16.6424],[97.4241,16.6584],[97.3928,16.6437],[97.3457,16.6544],[97.3406,16.6666],[97.3578,16.6694],[97.3476,16.6786],[97.328,16.667],[97.3301,16.6963],[97.3439,16.6953],[97.3419,16.7341],[97.3402,16.7096],[97.3207,16.7102],[97.3185,16.668],[97.2772,16.6862],[97.2398,16.7684],[97.2498,16.8225],[97.2349,16.8088],[97.2226,16.8417],[97.227,16.8573],[97.2664,16.8441],[97.2781,16.8505],[97.2659,16.8701],[97.265,16.8481],[97.2228,16.8672],[97.2092,16.8129],[97.1998,16.8823],[97.2181,16.9017],[97.2191,16.9379],[97.1906,16.8911],[97.1749,16.8905],[97.1693,16.9107],[97.2072,17.008],[97.1547,17.0679],[97.1533,17.0952],[97.1909,17.1169],[97.2134,17.0874],[97.2646,17.1036],[97.2278,17.1029],[97.2063,17.1338],[97.1791,17.1294],[97.1365,17.1162],[97.1343,17.0806],[97.1143,17.0778],[97.0887,17.1652],[97.1067,17.1878],[97.0833,17.1817],[97.0592,17.2533],[97.0003,17.2668],[97.0091,17.3],[96.9116,17.357],[96.8832,17.4541],[96.8649,17.3961],[96.8434,17.3893],[96.849,17.4134],[96.7859,17.49],[96.7671,17.4792],[96.7344,17.4353],[96.7735,17.3764],[96.7225,17.3474],[96.6924,17.3664],[96.6498,17.3383],[96.6683,17.2691],[96.6962,17.2479],[96.7086,17.2545],[96.6769,17.2675],[96.6854,17.3453],[96.7251,17.3382],[96.8366,17.3809],[96.8401,17.3648],[96.8443,17.3762],[96.8597,17.3615],[96.856,17.3431],[96.863,17.3527],[96.9111,17.3214],[96.8907,17.3119],[96.9129,17.3049],[96.9024,17.2717],[96.8335,17.2052],[96.8487,17.2008],[96.8771,17.1122],[96.9001,17.0889],[96.9121,17.0177],[96.8737,16.911],[96.8383,16.9272],[96.8509,16.9591],[96.8346,16.9511],[96.8316,16.9194],[96.8552,16.8877],[96.8359,16.9046],[96.8251,16.8937],[96.8072,16.9106],[96.7967,16.9065],[96.8333,16.8788],[96.853,16.8372],[96.8078,16.7555],[96.7808,16.7818],[96.7746,16.7731],[96.8013,16.7397],[96.7713,16.6916],[96.5964,16.5366],[96.4938,16.5046],[96.3837,16.4966],[96.2847,16.5537],[96.2867,16.5918],[96.3336,16.6234],[96.4269,16.6076],[96.4699,16.6127],[96.3313,16.6287],[96.2874,16.6001],[96.2777,16.5775],[96.2638,16.6474],[96.2348,16.6789],[96.2228,16.7542],[96.3156,16.8334],[96.3456,16.8333],[96.3941,16.8594],[96.4084,16.8552],[96.4861,16.8699],[96.5119,16.8882],[96.4839,16.8731],[96.3948,16.864],[96.3244,16.8384],[96.32,16.869],[96.3477,16.9059],[96.3007,16.8637],[96.298,16.8408],[96.2776,16.8693],[96.3037,16.8261],[96.2035,16.7632],[96.1848,16.7765],[96.195,16.7898],[96.1915,16.7999],[96.2124,16.7983],[96.2246,16.8111],[96.2182,16.8412],[96.2089,16.8458],[96.2203,16.8109],[96.1917,16.8059],[96.1802,16.7768],[96.1973,16.7597],[96.1288,16.7711],[96.1208,16.8137],[96.1155,16.8122],[96.1319,16.7589],[96.119,16.7566],[96.1921,16.7409],[96.2157,16.6707],[96.2461,16.636],[96.2366,16.6078],[96.1735,16.5831],[96.1736,16.5163],[96.1926,16.4892],[96.1804,16.4874],[96.1754,16.4635],[96.1417,16.4537],[96.1627,16.4177],[96.0771,16.3572],[96.0173,16.3845],[95.9964,16.4107],[95.9121,16.4109],[95.9275,16.385],[95.9059,16.3295],[95.8912,16.2446],[95.7735,16.1296],[95.7544,16.1266],[95.7404,16.1452],[95.7269,16.264],[95.7096,16.2731],[95.7229,16.2566],[95.733,16.0926],[95.4369,15.7481],[95.283,15.7353],[95.2704,15.8008],[95.2792,15.8463],[95.3045,15.8527],[95.2973,15.8621],[95.3195,15.8808],[95.3399,15.88],[95.3404,15.9022],[95.3479,15.8805],[95.3809,15.8721],[95.3989,15.8768],[95.4126,15.9057],[95.3871,15.8768],[95.3534,15.8849],[95.3388,15.9054],[95.3356,15.8829],[95.3225,15.8868],[95.2984,15.8701],[95.3478,15.9473],[95.364,16.0503],[95.3962,16.0616],[95.3628,16.0583],[95.3368,16.0993],[95.3706,16.1492],[95.3907,16.2396],[95.3263,16.1926],[95.306,16.1581],[95.3266,16.0873],[95.2792,16.0394],[95.2352,15.9326],[95.2101,15.8565],[95.2226,15.7902],[95.1768,15.7679],[95.1243,15.7917],[95.1094,15.8899],[95.1332,16.0193],[95.1896,16.0246],[95.1927,16.0799],[95.2671,16.1495],[95.1911,16.1138],[95.2079,16.1777],[95.1799,16.1374],[95.1526,16.1389],[95.165,16.1263],[95.1328,16.1239],[95.1408,16.2315],[95.1236,16.2067],[95.1323,16.1672],[95.1198,16.1153],[95.0867,16.0923],[95.0561,16.0355],[95.0701,15.9441],[95.0369,15.8038],[95.0011,15.7788],[94.9868,15.7848],[94.9843,15.8484],[94.9832,15.765],[94.8499,15.8094],[94.8893,15.8274],[94.8713,15.8954],[94.9508,15.9456],[94.9443,15.9536],[94.8637,15.8968],[94.873,15.8249],[94.845,15.8298],[94.8373,15.8467],[94.8501,15.8762],[94.8384,15.9381],[94.8233,15.9327],[94.8283,15.9601],[94.8619,16.0],[94.9145,16.0],[94.9218,16.0306],[94.9054,16.0747],[94.9333,16.0861],[94.9556,16.131],[95.0226,16.135],[95.0225,16.1603],[95.0557,16.1994],[95.0566,16.216],[95.0465,16.2391],[95.0693,16.2458],[95.1006,16.3006],[95.0652,16.2477],[95.0432,16.2457],[95.0479,16.1971],[95.0137,16.1616],[95.0162,16.1437],[94.9529,16.1388],[94.9304,16.0942],[94.9029,16.083],[94.9154,16.0299],[94.8918,16.0061],[94.8785,16.0115],[94.8656,16.1351],[94.8888,16.1818],[94.9573,16.1962],[95.0257,16.2628],[95.0421,16.3097],[95.0649,16.3114],[95.0509,16.3127],[95.0505,16.3334],[95.0165,16.2669],[94.9522,16.211],[94.8726,16.1872],[94.8388,16.1108],[94.8497,16.0723],[94.7209,15.8525],[94.6244,15.8846],[94.6005,15.9203],[94.6697,15.9557],[94.7184,16.0],[94.7362,16.0636],[94.7845,16.0965],[94.763,16.1241],[94.7876,16.1316],[94.8071,16.1998],[94.8411,16.2149],[94.8519,16.2428],[94.8035,16.2062],[94.7764,16.1448],[94.7554,16.1316],[94.7516,16.0937],[94.7196,16.0669],[94.6841,16.0],[94.5736,15.9294],[94.5495,15.9488],[94.5501,15.966],[94.5608,15.9567],[94.6846,16.1148],[94.6806,16.2026],[94.7209,16.2029],[94.7589,16.2373],[94.7395,16.2574],[94.7567,16.2809],[94.7336,16.2564],[94.7496,16.2377],[94.7262,16.2305],[94.7192,16.2091],[94.6748,16.2152],[94.6636,16.2472],[94.6981,16.2454],[94.7087,16.2549],[94.7058,16.2669],[94.6983,16.2493],[94.6636,16.2541],[94.6677,16.2693],[94.6827,16.2978],[94.6881,16.3066],[94.6989,16.3555],[94.7372,16.354],[94.7548,16.3841],[94.7858,16.3564],[94.8134,16.3558],[94.8254,16.3704],[94.7948,16.3601],[94.7519,16.3905],[94.7347,16.3608],[94.7195,16.3662],[94.7242,16.3986],[94.7432,16.4022],[94.75,16.4194],[94.7586,16.4096],[94.7705,16.4093],[94.7839,16.4261],[94.7588,16.4138],[94.7478,16.4265],[94.7126,16.3942],[94.6959,16.4757],[94.7404,16.5202],[94.7463,16.569],[94.7897,16.5778],[94.8004,16.5907],[94.7465,16.5768],[94.7237,16.5101],[94.6898,16.4927],[94.6782,16.5132],[94.7012,16.5517],[94.7103,16.6135],[94.7423,16.6328],[94.7216,16.6872],[94.7447,16.6957],[94.7416,16.7301],[94.7218,16.7336],[94.738,16.7245],[94.7361,16.7004],[94.7173,16.6913],[94.7097,16.6537],[94.733,16.629],[94.6784,16.6436],[94.6989,16.6798],[94.6889,16.7396],[94.6936,16.6767],[94.6754,16.6933],[94.6823,16.6714],[94.6688,16.6524],[94.6511,16.6702],[94.6557,16.6579],[94.6743,16.6497],[94.6581,16.6276],[94.6913,16.6391],[94.7012,16.6217],[94.6924,16.5549],[94.6644,16.5184],[94.6796,16.3932],[94.6529,16.3403],[94.6233,16.338],[94.6403,16.3836],[94.6062,16.3372],[94.6021,16.2844],[94.5648,16.2582],[94.5311,16.2921],[94.5464,16.308],[94.5265,16.2987],[94.5119,16.2832],[94.5109,16.1802],[94.4336,16.0697],[94.3681,16.0546],[94.3419,16.0163],[94.3045,16.006],[94.2549,16.2048],[94.416,16.6884],[94.4639,16.9372],[94.484,16.9432],[94.4782,16.9576],[94.4653,16.9443],[94.5068,17.1603],[94.5363,17.1869],[94.5166,17.2111],[94.5293,17.2773],[94.5464,17.2903],[94.5367,17.3095],[94.5437,17.3194],[94.5815,17.2885],[94.5917,17.3042],[94.5715,17.3171],[94.5596,17.4482],[94.5618,17.5925],[94.5923,17.5488],[94.6113,17.5402],[94.5961,17.5764],[94.5769,17.5914],[94.5884,17.6192],[94.5644,17.6401],[94.5772,17.8704],[94.2499,18.7264],[94.28,18.7351],[94.253,18.7341],[94.2492,18.7552],[94.2444,18.7408],[94.1696,18.89],[94.054,19.05],[94.1021,19.0766],[94.0897,19.085],[94.097,19.0986],[94.1182,19.0848],[94.1271,19.0876],[94.1083,19.1028],[94.1176,19.1149],[94.1302,19.1104],[94.1466,19.1191],[94.1161,19.1204],[94.0545,19.0754],[94.028,19.0896],[94.0931,19.1415],[94.1385,19.1514],[94.1357,19.1796],[94.1295,19.1561],[94.1075,19.1513],[94.0927,19.1822],[94.0911,19.1484],[94.0648,19.1263],[94.0735,19.165],[94.0624,19.1881],[94.0568,19.1255],[94.0329,19.1296],[94.0492,19.2206],[94.0711,19.2339],[94.0469,19.2483],[94.042,19.3002],[94.0763,19.3661],[94.0715,19.3837],[94.0687,19.3706],[94.0394,19.3453],[94.0315,19.3281],[94.0354,19.2177],[94.0163,19.1814],[93.9914,19.2229],[94.0078,19.1631],[93.9915,19.1454],[93.9071,19.2745],[93.9559,19.3061],[93.9498,19.3369],[93.9722,19.3514],[93.9841,19.3878],[94.0108,19.381],[93.9834,19.4055],[93.9663,19.3584],[93.8951,19.2929],[93.8842,19.3096],[93.9191,19.3345],[93.92,19.3802],[93.9111,19.3353],[93.8842,19.3196],[93.8889,19.3534],[93.8572,19.3861],[93.8824,19.3531],[93.8744,19.3246],[93.7713,19.4823],[93.7032,19.5538],[93.7462,19.5422],[93.7688,19.4853],[93.7758,19.5037],[93.7933,19.5003],[93.8187,19.4643],[93.8567,19.4843],[93.8585,19.4404],[93.877,19.473],[93.9764,19.4188],[93.9971,19.4525],[93.9766,19.4629],[93.9536,19.4479],[93.9046,19.4681],[93.9485,19.5081],[93.9383,19.564],[93.9323,19.4985],[93.9024,19.4885],[93.7768,19.5911],[93.8164,19.6042],[93.7935,19.614],[93.7602,19.5991],[93.722,19.6265],[93.7476,19.6525],[93.7943,19.6598],[93.7882,19.6815],[93.8193,19.7111],[93.8181,19.7292],[93.8066,19.7392],[93.7986,19.7014],[93.727,19.6711],[93.7059,19.7028],[93.7208,19.7482],[93.7914,19.7691],[93.7976,19.8329],[93.7863,19.8628],[93.7979,19.8666],[93.8012,19.891],[93.7933,19.916],[93.7937,19.873],[93.7386,19.8852],[93.7145,19.9079],[93.7457,19.9152],[93.7085,19.9375],[93.7091,19.9673],[93.702,19.9144],[93.6219,19.9171],[93.5518,19.8885],[93.5419,19.9036],[93.5754,19.9201],[93.5867,19.9378],[93.5688,19.9212],[93.5416,19.924],[93.546,19.9363],[93.5161,19.9234],[93.5121,19.9438],[93.5365,19.9552],[93.5085,19.9613],[93.5071,19.9748],[93.5401,19.9909],[93.4818,19.9914],[93.4674,20.0443],[93.4585,20.0541],[93.4762,20.0609],[93.4548,20.0552],[93.4762,20.0065],[93.4661,19.9825],[93.4543,19.9959],[93.4392,19.9925],[93.4567,19.95],[93.416,19.9708],[93.3807,20.0659],[93.3841,20.0801],[93.4167,20.0799],[93.4148,20.1121],[93.4329,20.1052],[93.4126,20.1727],[93.3623,20.2736],[93.343,20.2772],[93.3234,20.3297],[93.2966,20.33],[93.3259,20.3859],[93.3254,20.4036],[93.2805,20.3482],[93.2801,20.3282],[93.2398,20.306],[93.2306,20.2739],[93.2464,20.2454],[93.2099,20.2347],[93.1825,20.1969],[93.117,20.1857],[93.2165,20.2861],[93.2259,20.3076],[93.2124,20.3278],[93.2512,20.4261],[93.2252,20.3917],[93.198,20.3871],[93.2235,20.376],[93.203,20.3226],[93.1243,20.3281],[93.1374,20.3425],[93.1321,20.3693],[93.1564,20.3591],[93.1748,20.3741],[93.1293,20.3762],[93.1742,20.3994],[93.1648,20.422],[93.1681,20.4002],[93.0939,20.3797],[93.0884,20.4013],[93.1111,20.4138],[93.1167,20.4272],[93.107,20.5041],[93.087,20.5198],[93.1051,20.5307],[93.0919,20.53],[93.0702,20.602],[93.0483,20.5976],[93.0218,20.6219],[93.0277,20.6439],[93.0055,20.6398],[93.0178,20.6122],[93.0757,20.5791],[93.081,20.5411],[93.0258,20.4274],[93.0173,20.454],[93.0428,20.4633],[93.0402,20.4931],[93.0636,20.5246],[93.035,20.5378],[93.0556,20.5207],[93.0195,20.4791],[93.0333,20.4857],[93.0386,20.4686],[93.0135,20.4606],[93.0243,20.3894],[93.0039,20.2776],[92.963,20.2257],[92.945,20.2675],[92.915,20.2419],[92.9146,20.2122],[92.8862,20.2095],[92.9159,20.1934],[92.9096,20.1543],[92.8206,20.2638],[92.9446,20.3156],[92.8982,20.3078],[92.8393,20.3808],[92.9108,20.3717],[92.9315,20.3863],[92.9417,20.3522],[92.9508,20.374],[92.9161,20.4026],[92.9136,20.4177],[92.9341,20.4277],[92.9037,20.4768],[92.8996,20.4606],[92.9285,20.4299],[92.9072,20.421],[92.9117,20.3774],[92.8867,20.4218],[92.8866,20.4039],[92.8571,20.4195],[92.8637,20.4051],[92.8418,20.4017],[92.8166,20.4429],[92.8337,20.4407],[92.8383,20.4688],[92.8487,20.4591],[92.8275,20.4968],[92.8108,20.4924],[92.7961,20.5101],[92.7639,20.4734],[92.7523,20.4794],[92.7322,20.5696],[92.7486,20.5782],[92.7524,20.5868],[92.7468,20.5986],[92.7266,20.6168],[92.7482,20.5876],[92.731,20.5792],[92.6844,20.6278],[92.6456,20.6891],[92.6451,20.7277],[92.5832,20.7199],[92.591,20.732],[92.5697,20.7796],[92.5997,20.7956],[92.6024,20.8064],[92.5649,20.7864],[92.5494,20.8493],[92.5449,20.8118],[92.5713,20.7516],[92.5466,20.7631],[92.5441,20.743],[92.591,20.6851],[92.607,20.6776],[92.6395,20.6883],[92.6954,20.5825],[92.7292,20.5496],[92.72,20.4706],[92.7478,20.4143],[92.7325,20.3723],[92.3881,20.7962],[92.3611,20.7723],[92.3901,20.8168],[92.3787,20.8246],[92.3584,20.7833],[92.3353,20.8433],[92.3602,20.8647],[92.3366,20.8509],[92.3146,20.8826],[92.3164,20.901],[92.3619,20.9419],[92.3477,20.9871],[92.3313,20.9978],[92.2968,20.9872],[92.2891,21.0036],[92.2836,20.9674],[92.2686,21.0106],[92.2887,21.0225],[92.2662,21.0406],[92.279,21.0368],[92.3128,21.0579],[92.3122,21.0703],[92.2734,21.0458],[92.2298,21.1046],[92.2243,21.1365],[92.198,21.1546],[92.1976,21.1198],[92.255,21.0615],[92.2494,21.026],[92.2611,20.9362],[92.313,20.8469],[92.3408,20.7524],[92.3261,20.7433],[92.2996,20.7607],[92.2117,20.9253],[92.1847,21.0139],[92.0533,21.1632],[92.0496,21.2642],[92.0289,21.3402],[91.9535,21.4502],[91.9993,21.5054],[92.0221,21.4864],[91.9954,21.5518],[92.0389,21.6476],[92.0405,21.6722],[92.0251,21.6822],[92.0352,21.7006],[92.0181,21.7165],[92.0192,21.6685],[91.9818,21.656],[91.9796,21.7042],[91.9667,21.6781],[91.9481,21.7453],[91.9764,21.7418],[91.9924,21.7678],[91.9716,21.7472],[91.9545,21.7539],[91.9706,21.7862],[91.9424,21.8042],[91.9308,21.7855],[91.8912,21.7773],[91.9199,21.8473],[91.9095,21.9079],[91.9274,21.9345],[91.8949,21.9689],[91.8548,22.1276],[91.8345,22.1221],[91.8118,22.1905],[91.8351,22.2151],[91.842,22.2605],[91.8147,22.3049],[91.8666,22.3221],[91.9008,22.4007],[91.9451,22.4162],[92.0019,22.4046],[92.0221,22.4167],[92.0349,22.4459],[92.0815,22.4371],[92.1417,22.4616],[92.1439,22.4703],[92.0873,22.4443],[92.0331,22.4505],[92.0029,22.4124],[91.9541,22.421],[91.8964,22.4094],[91.8723,22.3498],[91.7955,22.2927],[91.7952,22.2778],[91.829,22.2566],[91.798,22.2196],[91.7693,22.2784],[91.7519,22.3866],[91.7001,22.4841],[91.5811,22.6536],[91.4576,22.7511],[91.4859,22.7668],[91.4692,22.7787],[91.4778,22.7633],[91.4547,22.7602],[91.4369,22.7772],[91.4746,22.8241],[91.4356,22.8048],[91.4836,22.8741],[91.4566,22.8989],[91.4922,22.9007],[91.4452,22.9007],[91.441,22.8836],[91.464,22.8832],[91.4647,22.869],[91.4204,22.8087],[91.4086,22.7609],[91.3301,22.8335],[91.3506,22.8515],[91.3427,22.8832],[91.3158,22.8394],[91.3525,22.7861],[91.3451,22.7758],[91.2963,22.8102],[91.1869,22.7977],[91.1164,22.8119],[91.1127,22.8262],[91.0831,22.8],[91.0287,22.7996],[90.9375,22.8561],[90.8246,22.8647],[90.8016,22.9088],[90.7578,22.9387],[90.7958,22.898],[90.7954,22.8634],[90.7333,22.8875],[90.6896,22.9783],[90.6294,22.9981],[90.5663,23.1036],[90.598,23.1778],[90.6524,23.2423],[90.6389,23.3166],[90.6776,23.3183],[90.6754,23.3407],[90.6978,23.3457],[90.6796,23.3628],[90.695,23.3777],[90.6733,23.3642],[90.6616,23.3375],[90.6738,23.3213],[90.5987,23.3393],[90.5796,23.3948],[90.6007,23.4314],[90.5856,23.4669],[90.6303,23.4903],[90.6817,23.4821],[90.7039,23.4901],[90.7178,23.5428],[90.7443,23.5443],[90.7254,23.5534],[90.7084,23.5386],[90.7057,23.5618],[90.732,23.5912],[90.7392,23.6216],[90.7646,23.629],[90.7414,23.6621],[90.7578,23.721],[90.7425,23.6938],[90.7403,23.7242],[90.7315,23.7102],[90.7156,23.7414],[90.6818,23.6867],[90.6429,23.6899],[90.6324,23.6392],[90.5628,23.5929],[90.5531,23.5715],[90.5147,23.5814],[90.505,23.6033],[90.4839,23.5866],[90.4539,23.6149],[90.4703,23.6298],[90.4427,23.6684],[90.368,23.7186],[90.3837,23.7022],[90.3658,23.7034],[90.3421,23.7401],[90.3176,23.735],[90.3128,23.7642],[90.2548,23.7303],[90.2571,23.7757],[90.2298,23.8877],[90.2396,23.827],[90.194,23.8405],[90.1518,23.8291],[90.1319,23.8674],[90.1117,23.8736],[90.1104,23.8573],[90.0572,23.8201],[90.047,23.8255],[90.0625,23.8769],[90.0468,23.8894],[90.0262,23.8817],[90.0227,23.9072],[89.9481,23.9709],[89.9523,23.9846],[89.9328,23.9846],[89.9487,23.9598],[89.9378,23.9554],[90.0,23.9161],[90.0192,23.8936],[90.0144,23.8769],[90.0547,23.8732],[90.0409,23.8278],[90.0466,23.8174],[90.0691,23.8163],[90.0887,23.83],[90.1247,23.8071],[90.1837,23.8023],[90.2068,23.8157],[90.2226,23.8004],[90.2415,23.8149],[90.2059,23.7537],[90.221,23.7216],[90.2524,23.721],[90.2746,23.6862],[90.2557,23.7074],[90.2383,23.7112],[90.2208,23.7081],[90.1813,23.7401],[90.1924,23.7203],[90.1626,23.7198],[90.1492,23.7107],[90.1219,23.7371],[90.0698,23.7579],[90.0232,23.7635],[90.0245,23.7952],[90.0021,23.816],[90.0195,23.7627],[90.1205,23.7334],[90.1497,23.7043],[90.1739,23.7165],[90.2205,23.7031],[90.2477,23.7076],[90.276,23.6548],[90.3797,23.6165],[90.4018,23.5883],[90.3789,23.5678],[90.4098,23.5802],[90.4377,23.5451],[90.4635,23.5452],[90.5054,23.5721],[90.5302,23.5669],[90.5701,23.4832],[90.538,23.4837],[90.5339,23.4659],[90.5539,23.4263],[90.5281,23.3907],[90.4858,23.4204],[90.4204,23.4161],[90.2542,23.4608],[90.1641,23.5242],[90.1103,23.6129],[89.97,23.6581],[89.9179,23.7216],[89.8638,23.7451],[89.7915,23.8077],[89.7742,23.8995],[89.7688,23.8876],[89.7046,23.9579],[89.7275,23.9776],[89.7208,24.0],[89.7153,23.9718],[89.6983,23.9645],[89.7051,23.9991],[89.6707,24.0],[89.6557,23.9361],[89.7033,23.8749],[89.7513,23.8659],[89.7708,23.8359],[89.7571,23.8473],[89.7242,23.8344],[89.6802,23.8626],[89.7179,23.8319],[89.6297,23.8456],[89.5468,23.8241],[89.4497,23.8706],[89.4256,23.9133],[89.3865,23.9431],[89.3288,23.9487],[89.2808,23.9875],[89.3161,23.9479],[89.2889,23.9467],[89.2414,23.9813],[89.1733,24.0],[89.0914,23.9991],[89.0608,23.9839],[89.0936,23.9665],[89.1225,23.9203],[89.1241,23.9541],[89.1671,23.9259],[89.2341,23.9194],[89.3047,23.8696],[89.4078,23.8978],[89.4594,23.8119],[89.5057,23.7768],[89.5362,23.7953],[89.5929,23.7975],[89.6397,23.7768],[89.7017,23.7769],[89.8567,23.6605],[89.9485,23.6357],[90.0246,23.5566],[90.0179,23.5823],[90.0954,23.567],[90.1529,23.4988],[90.1557,23.431],[90.2067,23.3338],[90.17,23.3466],[90.1639,23.3639],[90.1862,23.3591],[90.1608,23.3676],[90.1665,23.3332],[90.1253,23.3055],[90.1205,23.3356],[90.1417,23.3597],[90.1445,23.3786],[90.1279,23.351],[90.0995,23.359],[90.1208,23.3473],[90.1189,23.3041],[90.093,23.3005],[90.0871,23.2728],[90.1245,23.2685],[90.1287,23.2416],[90.2023,23.2256],[90.1987,23.2096],[90.1681,23.2041],[90.1774,23.1665],[90.219,23.1829],[90.2485,23.1621],[90.2336,23.1421],[90.2452,23.1232],[90.3091,23.1128],[90.3167,23.0671],[90.2678,23.0431],[90.2726,23.0254],[90.3072,23.0209],[90.3206,22.9865],[90.2739,22.9687],[90.2991,22.9434],[90.3537,22.9212],[90.3456,22.884],[90.3205,22.8726],[90.3213,22.8502],[90.3726,22.7652],[90.3682,22.7366],[90.4195,22.7331],[90.4167,22.7138],[90.3964,22.729],[90.3831,22.7054],[90.4003,22.7234],[90.4204,22.7086],[90.4297,22.7305],[90.4193,22.7453],[90.378,22.7401],[90.3825,22.7586],[90.4366,22.761],[90.4832,22.7098],[90.4769,22.6561],[90.4961,22.6723],[90.5133,22.6529],[90.5042,22.5879],[90.5187,22.5991],[90.5798,22.5261],[90.6132,22.3275],[90.5912,22.2573],[90.5587,22.2382],[90.5212,22.184],[90.5066,22.1851],[90.4373,22.0668],[90.4221,22.1192],[90.4427,22.1513],[90.4269,22.1517],[90.4192,22.1262],[90.4192,22.0904],[90.3882,22.0901],[90.3847,22.1054],[90.4039,22.1682],[90.4261,22.1813],[90.3999,22.2179],[90.4165,22.2649],[90.4035,22.2838],[90.4191,22.2895],[90.3788,22.2931],[90.4149,22.3388],[90.3641,22.2952],[90.4059,22.2709],[90.395,22.204],[90.4179,22.1836],[90.3986,22.1722],[90.3831,22.1366],[90.3408,22.1621],[90.3872,22.1955],[90.3873,22.2114],[90.3562,22.1794],[90.3438,22.1957],[90.3498,22.1792],[90.3338,22.1633],[90.3784,22.1309],[90.3751,22.1053],[90.3331,22.1088],[90.2616,22.0404],[90.2751,22.0358],[90.278,21.9971],[90.2568,21.9557],[90.211,21.9826],[90.2135,22.0022],[90.1962,21.9784],[90.2287,21.9716],[90.2343,21.9583],[90.2176,21.9508],[90.2685,21.9463],[90.2409,21.8994],[90.2606,21.8846],[90.2549,21.8666],[90.2241,21.8543],[90.2042,21.8874],[90.2401,21.9344],[90.1969,21.8906],[90.2199,21.8528],[90.2631,21.8583],[90.2478,21.8376],[90.2163,21.8373],[90.2556,21.8273],[90.2116,21.8183],[90.1756,21.7891],[90.1319,21.7907],[90.092,21.8147],[90.0824,21.841],[90.1222,21.8485],[90.1003,21.8554],[90.1103,21.884],[90.1543,21.8854],[90.1589,21.8603],[90.1728,21.8697],[90.1519,21.8956],[90.1886,21.9228],[90.144,21.8906],[90.1158,21.8993],[90.1162,21.9159],[90.15,21.9227],[90.1372,21.9485],[90.1685,21.9805],[90.1406,21.9702],[90.128,21.9914],[90.1418,21.9247],[90.1114,21.9219],[90.0988,21.8944],[90.0991,21.9412],[90.0725,22.0004],[90.0992,22.0506],[90.1633,22.1145],[90.2134,22.1143],[90.2283,22.1641],[90.2542,22.1638],[90.2717,22.1772],[90.2864,22.2071],[90.2723,22.2089],[90.2588,22.1722],[90.229,22.1724],[90.2401,22.1932],[90.2206,22.219],[90.2077,22.3093],[90.2269,22.3379],[90.2801,22.3407],[90.2896,22.3505],[90.2973,22.3714],[90.2696,22.3586],[90.2657,22.3711],[90.2809,22.4069],[90.3137,22.4635],[90.3413,22.4589],[90.3619,22.4905],[90.3405,22.4664],[90.3148,22.4741],[90.2586,22.3754],[90.2548,22.3443],[90.2223,22.3421],[90.1991,22.3026],[90.2097,22.2143],[90.2298,22.1915],[90.2032,22.1238],[90.1608,22.1241],[90.0879,22.0556],[90.0515,21.9702],[90.0298,21.9971],[90.0275,21.9782],[90.0,21.9882],[89.993,22.0361],[90.0307,22.0628],[90.0436,22.1336],[90.0717,22.1533],[90.1399,22.1551],[90.0801,22.1586],[90.0257,22.189],[90.081,22.2209],[90.1116,22.2858],[90.1016,22.3424],[90.176,22.4215],[90.2018,22.4859],[90.206,22.5118],[90.1876,22.5224],[90.2028,22.5725],[90.1858,22.6255],[90.2519,22.6212],[90.2832,22.6302],[90.2942,22.6556],[90.2487,22.6279],[90.181,22.6276],[90.1975,22.5676],[90.1819,22.5223],[90.1989,22.509],[90.1936,22.4802],[90.1724,22.4297],[90.095,22.3491],[90.1048,22.3039],[90.0669,22.2145],[90.025,22.1966],[90.0234,22.1724],[90.0632,22.1618],[90.0153,22.1191],[90.0183,22.0663],[89.9809,22.0416],[89.9896,21.991],[89.9644,21.9769],[89.9092,22.0731],[89.9175,22.136],[89.8787,22.2524],[89.9197,22.3718],[89.9847,22.4388],[90.0,22.4869],[90.025,22.4901],[90.033,22.5719],[90.065,22.6087],[90.0571,22.6225],[90.0268,22.599],[90.0327,22.6527],[90.0038,22.6772],[90.028,22.6463],[90.0132,22.5988],[90.0307,22.5814],[90.0179,22.4944],[89.9546,22.5055],[89.9855,22.4867],[89.9782,22.4521],[89.9057,22.3863],[89.8834,22.4052],[89.8834,22.4302],[89.8774,22.4139],[89.8987,22.3721],[89.8448,22.2487],[89.8905,22.1211],[89.8528,22.0679],[89.8188,22.066],[89.8534,22.0483],[89.8854,21.9055],[89.8584,21.8784],[89.8456,21.8859],[89.8408,21.856],[89.7715,21.8311],[89.7896,21.879],[89.7542,21.8561],[89.7334,21.8909],[89.7493,21.8346],[89.7143,21.8341],[89.7023,21.8494],[89.6756,21.8377],[89.6586,21.8922],[89.6795,21.9049],[89.6554,21.9134],[89.6339,21.8679],[89.7121,21.7853],[89.7124,21.7662],[89.6592,21.7511],[89.6548,21.765],[89.6067,21.7601],[89.6137,21.8111],[89.5627,21.8637],[89.5901,21.9386],[89.5607,21.9692],[89.5603,21.9911],[89.5152,21.9904],[89.5251,21.9563],[89.5123,21.8993],[89.4971,21.9081],[89.4607,21.8522],[89.4337,21.8477],[89.4627,21.8461],[89.4712,21.8204],[89.4581,21.8139],[89.4796,21.8006],[89.4783,21.7724],[89.4257,21.7147],[89.3906,21.7084],[89.3654,21.7459],[89.3557,21.8089],[89.3899,21.9021],[89.3671,21.9046],[89.3181,21.8611],[89.3072,21.8207],[89.2867,21.8053],[89.2927,21.7564],[89.2312,21.7683],[89.2193,21.7572],[89.197,21.8047],[89.1643,21.79],[89.1079,21.8105],[89.1121,21.8547],[89.0887,21.908],[89.0948,21.9381],[89.0836,21.9386],[89.0634,21.9272],[89.0904,21.8542],[89.0866,21.8134],[89.1522,21.7414],[89.1374,21.7198],[89.1154,21.7204],[89.0518,21.7859],[89.0648,21.8682],[89.0397,21.9077],[89.001,21.9031],[88.9972,21.8895],[89.0372,21.8577],[89.0246,21.8014],[89.0356,21.7544],[89.0801,21.7081],[89.1033,21.645],[89.0968,21.6249],[89.0595,21.6116],[89.028,21.6634],[89.0061,21.6549],[89.0292,21.6541],[89.043,21.6175],[89.0167,21.6008],[88.9943,21.6465],[88.9946,21.6095],[88.9519,21.6408],[88.928,21.6302],[88.8989,21.6496],[88.8754,21.701],[88.8799,21.7675],[88.8496,21.7251],[88.8692,21.6433],[88.8529,21.6161],[88.8139,21.631],[88.8229,21.6604],[88.7594,21.6566],[88.7243,21.6805],[88.6993,21.7411],[88.7229,21.8073],[88.6998,21.8403],[88.7311,21.9352],[88.7291,21.976],[88.7903,22.0183],[88.7667,22.0237],[88.7594,22.0502],[88.7747,22.0519],[88.7486,22.0659],[88.7157,22.0484],[88.7415,22.0282],[88.735,22.0071],[88.6685,22.0226],[88.6445,22.1181],[88.631,22.1198],[88.6214,22.105],[88.6438,22.0459],[88.6084,21.972],[88.6202,21.9377],[88.5852,21.9852],[88.5792,21.9633],[88.611,21.9322],[88.6096,21.9095],[88.5833,21.8856],[88.5618,21.814],[88.5031,21.8849],[88.5314,21.9303],[88.5095,21.9704],[88.5525,21.9851],[88.5652,22.0228],[88.5449,21.9865],[88.5049,21.973],[88.5103,21.9217],[88.4898,21.9084],[88.485,21.8966],[88.4664,21.9001],[88.4688,21.9487],[88.4597,21.9382],[88.4534,21.9068],[88.4633,21.8964],[88.4841,21.8913],[88.5001,21.8489],[88.4583,21.8201],[88.4548,21.8117],[88.469,21.7932],[88.4479,21.8015],[88.4292,21.7659],[88.4363,21.7042],[88.4196,21.6881],[88.4183,21.6661],[88.4412,21.6244],[88.4216,21.6097],[88.4177,21.5818],[88.3929,21.6083],[88.4045,21.6197],[88.3891,21.6672],[88.4121,21.717],[88.3795,21.7303],[88.3991,21.7368],[88.4075,21.7646],[88.3915,21.7795],[88.4082,21.7984],[88.4001,21.8346],[88.4213,21.8892],[88.3996,21.8993],[88.4164,21.9231],[88.4056,21.9516],[88.3903,21.9667],[88.4057,21.9738],[88.4124,21.9947],[88.3873,21.9675],[88.4114,21.9216],[88.396,21.9071],[88.3979,21.8949],[88.4077,21.8854],[88.3976,21.8749],[88.3953,21.7943],[88.3717,21.8007],[88.3643,21.8528],[88.3642,21.8014],[88.3445,21.8041],[88.3296,21.7886],[88.3146,21.7988],[88.2816,21.7969],[88.2765,21.8073],[88.3154,21.8303],[88.3238,21.8496],[88.311,21.8646],[88.2686,21.865],[88.3175,21.8502],[88.2587,21.7956],[88.2892,21.7581],[88.2832,21.7309],[88.3067,21.6718],[88.3004,21.5917],[88.3254,21.5806],[88.3064,21.5615],[88.2626,21.5575],[88.2265,21.6188],[88.2493,21.6474],[88.2411,21.6786],[88.2116,21.6855],[88.2308,21.6996],[88.2186,21.7919],[88.2381,21.7646],[88.2396,21.7811],[88.2115,21.8029],[88.2035,21.8456],[88.166,21.888],[88.1748,21.9239],[88.1487,21.9596],[88.1863,21.9934],[88.2351,22.0789],[88.2142,22.1574],[88.1788,22.195],[88.0826,22.2206],[88.0342,22.2183],[88.0321,22.2018],[88.1438,22.1871],[88.1902,22.1329],[88.1961,22.1048],[88.1618,22.0645],[88.067,22.0155],[87.9805,21.8551],[87.9519,21.8236],[87.8866,21.803],[87.8924,21.7812],[87.8286,21.7222],[87.7551,21.7008],[87.7498,21.6855],[87.6786,21.6537],[87.6499,21.6646],[87.6369,21.6472],[87.3726,21.5781],[87.366,21.5609],[87.1955,21.5494],[87.0644,21.4708],[86.8946,21.3136],[86.8168,21.1382],[86.9296,20.9008],[86.9701,20.8491],[86.9758,20.768],[87.0013,20.7584],[87.0139,20.7253],[86.996,20.6992],[87.0246,20.6897],[87.052,20.7035],[86.7655,20.5046],[86.7358,20.4491],[86.7409,20.4177],[86.7226,20.3935],[86.7414,20.3757],[86.7284,20.3611],[86.7785,20.3974],[86.7709,20.3651],[86.7859,20.3717],[86.7636,20.3353],[86.8031,20.3666],[86.8079,20.3953],[86.8074,20.3638],[86.7191,20.2992],[86.6865,20.3181],[86.683,20.2911],[86.6943,20.2819],[86.7649,20.3146],[86.5418,20.1847],[86.4254,20.0257],[86.4299,20.0505],[86.4185,20.038],[86.4012,20.0047],[86.4288,19.9947],[86.4181,19.9776],[86.1519,19.8703],[86.0522,19.8561],[86.0654,19.8472],[85.688,19.7458],[85.3281,19.5669],[84.8699,19.2139],[84.8096,19.1478],[84.8041,19.1159],[84.6929,18.9579],[84.6006,18.8682],[84.5635,18.7904],[84.5298,18.7609],[84.2139,18.8183],[84.1235,18.8522],[84.1574,19.0444],[84.2705,19.2592],[84.5304,19.6322],[85.0391,20.6042],[85.3217,21.2938],[85.4573,21.7346],[85.4573,22.3337],[85.3217,22.831],[85.0391,23.3396],[84.5983,24.1987],[84.2252,24.8204],[83.9088,25.476],[83.4679,26.7306],[83.2871,27.4088],[83.2871,27.6801],[83.4227,27.8384],[83.5131,27.8949],[83.8409,27.9062],[85.8303,27.6123],[86.8363,27.4088],[88.0009,27.3674],[88.1566,27.4342],[88.6939,27.461],[90.2154,27.6006],[91.1316,27.7592],[93.1803,27.9714],[93.7713,28.1595],[94.416,28.6699],[95.2757,28.8311],[95.4906,28.6699],[96.1354,27.9983],[96.7264,27.5953],[97.1025,27.4073],[97.5055,27.7297],[98.0,27.702],[97.9973,14.4796]]]]}}