{"type":"Feature","properties":{"speciesId":493,"category":"LC","source":"IUCN Red List","simplifyTol":0.01,"clippedToSubcontinent":true},"geometry":{"type":"MultiPolygon","coordinates":[[[[87.0063,23.7649],[87.5488,23.7914],[88.1189,24.0161],[88.7851,23.8464],[88.8047,23.3103],[88.6478,22.8573],[87.8785,22.6924],[86.9718,21.7583],[86.3125,21.2363],[86.0102,20.7143],[85.2684,20.0275],[84.4992,18.901],[83.0431,17.857],[82.576,17.39],[81.6144,16.813],[81.0924,16.346],[80.5429,16.0437],[80.0961,15.4911],[80.0457,15.0876],[80.0484,14.9997],[80.0872,14.8059],[80.1815,14.508],[80.1695,14.3491],[80.1263,14.2069],[80.1285,14.1412],[80.1489,14.0355],[80.2059,13.8974],[80.1858,13.7634],[80.3188,13.1865],[80.2972,13.0816],[80.2742,13.0163],[80.2609,13.0127],[80.2741,13.0056],[80.2506,12.7961],[80.1096,12.4147],[79.8286,11.9776],[79.8093,11.8273],[79.7762,11.7694],[79.794,11.7694],[79.7932,11.7502],[79.7589,11.6076],[79.7703,11.5115],[79.7462,11.3182],[79.0585,10.3401],[78.1252,9.6972],[77.823,8.4609],[77.6187,8.1451],[77.5609,8.1154],[77.5635,8.0834],[77.5495,8.0703],[77.4245,8.0935],[77.239,8.1734],[77.1087,8.3785],[76.6141,8.9554],[76.344,9.6825],[76.1745,10.4116],[75.9548,11.016],[75.8174,12.6644],[76.0647,13.626],[76.779,14.4777],[77.6032,14.8349],[78.1696,15.2384],[78.345,15.714],[78.1527,16.3734],[78.0153,16.7855],[77.6856,17.4174],[77.6581,17.9394],[77.3285,18.2966],[77.3559,18.7087],[77.301,19.423],[77.4658,20.4945],[78.0703,21.044],[78.5923,21.3462],[79.1417,21.6484],[79.8561,21.8682],[80.1583,22.1704],[80.488,22.5551],[80.488,22.7474],[80.5389,23.0395],[80.6528,23.4342],[81.2572,23.4617],[81.5595,23.1595],[81.7518,23.187],[81.6694,23.3518],[81.6144,23.5441],[81.8617,23.7365],[82.521,23.9013],[82.8782,23.6815],[83.3453,23.7365],[83.8123,23.8738],[84.197,23.7639],[84.6365,23.8464],[84.9662,24.0936],[85.8179,24.176],[86.3949,24.0936],[86.6971,23.8738],[87.0063,23.7649]]],[[[73.7019,21.9781],[73.592,22.0605],[73.2623,22.2254],[73.2348,22.4727],[73.3172,22.6924],[73.5645,22.8573],[73.9766,23.0221],[74.3338,22.8298],[74.5261,22.5001],[74.4712,22.2803],[74.3613,22.0605],[73.8118,22.0056],[73.7019,21.9781]]]]}}