{"type":"Feature","properties":{"speciesId":496,"category":"LC","source":"IUCN Red List","simplifyTol":0.01,"clippedToSubcontinent":true},"geometry":{"type":"MultiPolygon","coordinates":[[[[69.4552,22.3572],[69.4394,22.3542],[69.4349,22.3576],[69.4425,22.3616],[69.4552,22.3572]]],[[[69.3398,22.3892],[69.3309,22.3776],[69.3267,22.379],[69.3398,22.3892]]],[[[69.4801,22.387],[69.4831,22.3989],[69.4874,22.391],[69.4801,22.387]]],[[[69.6372,22.4077],[69.5847,22.4358],[69.6451,22.4408],[69.6372,22.4077]]],[[[70.0282,22.5741],[70.0175,22.5603],[70.0133,22.5592],[70.0282,22.5741]]],[[[69.6567,22.7518],[69.6458,22.751],[69.6294,22.76],[69.6385,22.7619],[69.6567,22.7518]]],[[[70.3884,22.954],[70.3756,22.9387],[70.3896,22.9602],[70.3884,22.954]]],[[[70.3823,22.9953],[70.3863,22.9939],[70.3759,22.9897],[70.3823,22.9953]]],[[[70.3954,23.0582],[70.3915,23.0352],[70.3679,23.0431],[70.3828,23.0558],[70.3954,23.0582]]],[[[68.5005,23.7184],[68.4903,23.6983],[68.4653,23.6921],[68.4681,23.7086],[68.5005,23.7184]]],[[[68.4776,23.7281],[68.4622,23.7168],[68.4532,23.7292],[68.4586,23.7341],[68.4776,23.7281]]],[[[68.5867,23.7472],[68.5761,23.7339],[68.5728,23.7352],[68.5867,23.7472]]],[[[68.5693,23.7576],[68.6101,23.7728],[68.5676,23.7489],[68.5693,23.7576]]],[[[68.6391,23.7899],[68.6294,23.7773],[68.6271,23.7793],[68.6391,23.7899]]],[[[68.1204,23.8312],[68.1551,23.8173],[68.1729,23.8229],[68.1674,23.8444],[68.1836,23.8426],[68.1905,23.7835],[68.0884,23.8062],[68.1204,23.8312]]],[[[68.2576,23.8557],[68.2474,23.8543],[68.2581,23.8653],[68.2576,23.8557]]],[[[68.2118,23.8714],[68.246,23.86],[68.208,23.8459],[68.2118,23.8714]]],[[[67.412,24.6574],[67.3899,24.6492],[67.3405,24.6858],[67.4257,24.6969],[67.4158,24.6699],[67.4357,24.6453],[67.412,24.6574]]],[[[67.3465,24.7355],[67.3915,24.6966],[67.3332,24.6865],[67.2687,24.7187],[67.3031,24.7372],[67.3297,24.7274],[67.3465,24.7355]]],[[[67.3322,24.7394],[67.2878,24.7417],[67.2635,24.7213],[67.2446,24.7308],[67.3027,24.7739],[67.3412,24.7601],[67.3322,24.7394]]],[[[67.2497,24.745],[67.2333,24.7364],[67.209,24.7486],[67.2384,24.7603],[67.2497,24.745]]],[[[67.2674,24.7539],[67.2367,24.7796],[67.2859,24.7823],[67.2674,24.7539]]],[[[67.1626,24.7717],[67.2151,24.7933],[67.2292,24.7821],[67.1894,24.7584],[67.1626,24.7717]]],[[[67.2157,24.8062],[67.2318,24.7917],[67.2118,24.8053],[67.2157,24.8062]]],[[[72.7286,19.4696],[72.7383,19.4681],[72.7327,19.4608],[72.7286,19.4696]]],[[[72.7849,20.9214],[72.8226,20.8256],[72.8415,20.8054],[72.8261,20.8098],[72.7849,20.9214]]],[[[72.8173,20.919],[72.8112,20.9064],[72.807,20.9073],[72.8173,20.919]]],[[[72.7751,20.9933],[72.7723,20.9793],[72.7658,20.9849],[72.7751,20.9933]]],[[[72.6836,21.0665],[72.6852,21.0536],[72.6751,21.0652],[72.6836,21.0665]]],[[[72.6761,21.0766],[72.6692,21.0781],[72.6749,21.0808],[72.6761,21.0766]]],[[[72.6814,21.1409],[72.6983,21.1384],[72.6831,21.1081],[72.6731,21.1247],[72.6814,21.1409]]],[[[72.6278,21.2829],[72.6391,21.2741],[72.6346,21.2663],[72.6202,21.2709],[72.6278,21.2829]]],[[[72.6284,21.3343],[72.6204,21.3316],[72.6267,21.3382],[72.6284,21.3343]]],[[[72.6387,21.6287],[72.807,21.6431],[72.7991,21.6238],[72.6902,21.5999],[72.6692,21.5706],[72.6228,21.5682],[72.6295,21.5877],[72.6119,21.6056],[72.6372,21.6122],[72.6387,21.6287]]],[[[72.3581,22.1888],[72.3604,22.1838],[72.3515,22.1744],[72.3581,22.1888]]],[[[72.6066,22.2135],[72.5628,22.1698],[72.5454,22.1524],[72.5709,22.1909],[72.6066,22.2135]]],[[[72.4321,22.1981],[72.4713,22.2145],[72.4785,22.2097],[72.4323,22.1795],[72.4321,22.1981]]],[[[72.4992,22.2229],[72.5175,22.2305],[72.5105,22.2179],[72.4992,22.2229]]],[[[72.7317,22.2225],[72.6691,22.2351],[72.663,22.2475],[72.7191,22.2376],[72.7317,22.2225]]],[[[70.3915,22.9704],[70.3919,22.9712],[70.3919,22.971],[70.3915,22.9704]]],[[[70.4469,22.9759],[70.4335,22.9737],[70.4491,22.9798],[70.4469,22.9759]]],[[[70.4415,22.9801],[70.4295,22.9817],[70.4484,22.994],[70.4415,22.9801]]],[[[70.4164,23.0236],[70.4424,23.0472],[70.4098,22.9911],[70.4164,23.0236]]],[[[70.3753,23.0222],[70.393,23.0311],[70.3961,23.0206],[70.3753,23.0222]]],[[[70.4583,23.0414],[70.4456,23.0256],[70.4561,23.0439],[70.4583,23.0414]]],[[[70.4345,23.0444],[70.4163,23.0281],[70.4187,23.0392],[70.4345,23.0444]]],[[[70.4713,23.061],[70.462,23.0467],[70.4592,23.0503],[70.4713,23.061]]],[[[70.6432,34.3724],[70.7294,34.3309],[70.7605,34.2414],[70.7194,34.156],[70.63,34.1245],[70.5439,34.166],[70.5127,34.2555],[70.5538,34.3409],[70.6432,34.3724]]],[[[73.7711,15.3583],[73.7725,15.3522],[73.7666,15.3553],[73.7711,15.3583]]],[[[73.7605,15.3574],[73.7579,15.3541],[73.7569,15.3573],[73.7605,15.3574]]],[[[73.7904,15.3776],[73.7866,15.3716],[73.7865,15.3772],[73.7904,15.3776]]],[[[73.5407,15.925],[73.5379,15.9247],[73.5395,15.9267],[73.5407,15.925]]],[[[73.4554,15.9319],[73.4576,15.9313],[73.4564,15.9307],[73.4554,15.9319]]],[[[73.4707,15.9724],[73.4701,15.9747],[73.471,15.9736],[73.4707,15.9724]]],[[[73.4872,15.9983],[73.4981,15.9732],[73.4957,15.9712],[73.4863,15.9812],[73.4872,15.9983]]],[[[73.4516,15.9891],[73.4503,15.9909],[73.4513,15.9917],[73.4516,15.9891]]],[[[73.3589,16.5158],[73.3558,16.5152],[73.357,16.5205],[73.3589,16.5158]]],[[[72.8413,18.7725],[72.8456,18.7691],[72.8426,18.7656],[72.8413,18.7725]]],[[[72.8519,18.7925],[72.8435,18.7877],[72.8464,18.7967],[72.8519,18.7925]]],[[[72.9389,18.9654],[72.9321,18.9527],[72.9234,18.9567],[72.9276,18.967],[72.9389,18.9654]]],[[[73.0566,19.0171],[73.0544,19.0031],[73.0493,19.0066],[73.0566,19.0171]]],[[[72.8516,19.3378],[72.8684,19.3295],[72.838,19.3354],[72.8516,19.3378]]],[[[72.8807,20.6811],[72.89,20.6884],[72.8883,20.6806],[72.8807,20.6811]]],[[[72.877,20.7253],[72.8737,20.6908],[72.8667,20.7131],[72.8576,20.706],[72.8726,20.6676],[72.8785,20.6761],[72.8779,20.6457],[72.8474,20.7183],[72.8454,20.7442],[72.855,20.7205],[72.877,20.7253]]],[[[72.8752,20.7521],[72.8613,20.7556],[72.8767,20.754],[72.8752,20.7521]]],[[[72.8711,20.7696],[72.8696,20.7604],[72.8648,20.7678],[72.8711,20.7696]]],[[[72.9361,20.7636],[72.932,20.7705],[72.9412,20.7674],[72.9361,20.7636]]],[[[72.856,20.7635],[72.8404,20.7752],[72.8406,20.7799],[72.856,20.7635]]],[[[72.8436,20.7883],[72.8407,20.7969],[72.8444,20.7987],[72.8436,20.7883]]],[[[72.8465,21.0385],[72.8357,21.0425],[72.8453,21.0424],[72.8465,21.0385]]],[[[72.8784,21.6802],[72.8683,21.6724],[72.8578,21.6764],[72.8784,21.6802]]],[[[69.8687,29.1742],[70.2605,29.811],[70.4565,30.5457],[70.3585,31.5744],[70.1136,32.3581],[70.3585,32.4561],[70.6524,32.8969],[71.2892,32.9949],[71.632,33.3378],[71.73,34.3174],[72.0729,34.7093],[72.5627,35.1991],[73.1015,35.7869],[73.5914,36.1788],[74.2771,36.2278],[74.767,35.689],[74.9629,35.2971],[74.9629,34.8073],[75.3058,34.2684],[75.3547,33.5337],[76.1875,32.0152],[76.7753,30.4478],[77.1671,29.86],[77.7549,29.0273],[78.8325,27.9497],[80.1061,27.4598],[81.9674,27.2639],[82.5552,27.1659],[82.9471,26.7251],[83.192,26.1863],[82.7512,25.6475],[80.9388,24.8147],[78.1958,23.7371],[77.2651,22.9044],[76.8732,22.0717],[76.7753,21.3859],[77.0202,20.7981],[77.559,20.2593],[78.7346,19.7205],[79.3224,19.0837],[79.3224,18.398],[79.3713,17.5163],[79.0285,16.8795],[77.9508,16.0958],[76.6773,15.3121],[75.7466,14.9692],[74.2281,14.8712],[73.9832,15.1651],[73.931,15.1912],[73.8737,15.3601],[73.8357,15.361],[73.7803,15.4047],[73.7916,15.4143],[73.8044,15.4012],[73.8362,15.4108],[73.8757,15.3984],[73.8899,15.4192],[73.8764,15.4337],[73.8584,15.4258],[73.845,15.4491],[73.7822,15.4597],[73.8199,15.4996],[73.7574,15.4939],[73.731,15.6146],[73.6841,15.7202],[73.6509,15.7384],[73.655,15.7734],[73.6238,15.8436],[73.5838,15.9077],[73.5376,15.9339],[73.5041,15.94],[73.5097,15.9913],[73.4955,15.985],[73.4563,16.0581],[73.4839,16.0698],[73.4595,16.0759],[73.4705,16.113],[73.4608,16.0941],[73.4377,16.1936],[73.4522,16.2253],[73.428,16.2044],[73.4118,16.2564],[73.4119,16.2734],[73.4392,16.2897],[73.4061,16.2808],[73.3862,16.363],[73.3699,16.3641],[73.3717,16.3896],[73.3948,16.3901],[73.4084,16.4088],[73.3688,16.3999],[73.3586,16.4351],[73.3812,16.4487],[73.3596,16.4433],[73.344,16.46],[73.354,16.5065],[73.3708,16.5129],[73.359,16.5298],[73.4444,16.9285],[73.0068,18.2414],[73.063,18.2177],[73.0702,18.1968],[73.0672,18.2708],[73.0525,18.2857],[73.0313,18.2636],[72.9926,18.284],[72.908,18.5376],[72.9213,18.5286],[72.9616,18.5423],[72.9202,18.5479],[72.884,18.6304],[72.898,18.631],[72.874,18.6398],[72.8567,18.6917],[72.8701,18.8028],[72.9142,18.7924],[72.9356,18.8241],[72.9886,18.7759],[72.999,18.7794],[72.9859,18.8052],[73.0578,18.8027],[72.9898,18.8116],[72.9821,18.8626],[72.9381,18.847],[72.9069,18.8865],[72.9247,18.9098],[72.942,18.8943],[72.9495,18.9458],[72.9772,18.9461],[72.9539,18.9701],[73.0908,18.9988],[73.0667,19.0143],[73.0847,19.0314],[73.0644,19.0292],[73.0904,19.0457],[73.0061,19.005],[72.9844,19.0708],[72.9952,19.0869],[72.9764,19.1069],[72.9764,19.1707],[72.9642,19.1353],[72.9522,19.1374],[72.9569,19.1077],[72.9307,19.0904],[72.9472,19.068],[72.9137,19.0744],[72.9517,19.0432],[72.9034,18.9938],[72.8784,19.0226],[72.8573,19.0094],[72.8157,18.9066],[72.8212,18.9319],[72.8038,18.969],[72.8126,19.0202],[72.8597,19.0602],[72.8179,19.0482],[72.8248,19.087],[72.808,19.1435],[72.7926,19.1315],[72.7804,19.1626],[72.8011,19.1976],[72.7783,19.1922],[72.7799,19.2804],[72.7907,19.3107],[72.8107,19.2999],[72.8444,19.316],[72.9155,19.2908],[72.869,19.3343],[72.8509,19.3431],[72.8024,19.3314],[72.7583,19.3757],[72.7663,19.3956],[72.7441,19.4603],[72.7564,19.4738],[72.7169,19.5799],[72.7187,19.5967],[72.7449,19.6026],[72.7289,19.6097],[72.7078,19.6822],[72.7005,19.7289],[72.7146,19.747],[72.701,19.742],[72.6902,19.7581],[72.7061,19.8084],[72.6859,19.8043],[72.6607,19.8368],[72.686,19.8742],[72.6716,19.9365],[72.7035,19.9651],[72.7249,19.9671],[72.76,19.9233],[72.7451,19.9679],[72.7216,19.9802],[72.7068,20.0701],[72.731,20.0951],[72.7448,20.1954],[72.7794,20.207],[72.7456,20.203],[72.749,20.2818],[72.778,20.3364],[72.8183,20.3657],[72.8262,20.4424],[72.8869,20.5046],[72.8771,20.5274],[72.8946,20.5296],[72.8828,20.5439],[72.8927,20.5834],[72.8736,20.6444],[72.9035,20.5969],[72.8864,20.6374],[72.9015,20.6429],[72.8967,20.7022],[72.9087,20.7111],[72.8907,20.7199],[72.9241,20.7558],[72.9519,20.755],[72.9425,20.7755],[72.9178,20.7699],[72.9199,20.7893],[72.91,20.7807],[72.8745,20.8015],[72.896,20.8134],[72.8756,20.8245],[72.8948,20.8665],[72.8268,20.8292],[72.8547,20.86],[72.8245,20.8829],[72.8351,20.9065],[72.8491,20.9044],[72.8239,20.9212],[72.8822,20.9546],[72.8765,20.9718],[72.8913,20.9864],[72.8308,20.9734],[72.8387,20.9855],[72.8052,20.9872],[72.827,21.014],[72.7661,21.0042],[72.7425,20.9769],[72.767,20.9279],[72.7473,20.9498],[72.7229,21.0266],[72.7218,21.0569],[72.7417,21.0289],[72.7856,21.0461],[72.8068,21.0247],[72.857,21.0392],[72.8419,21.0537],[72.8549,21.0677],[72.8326,21.0544],[72.8227,21.0878],[72.8419,21.1137],[72.8215,21.0977],[72.8145,21.1053],[72.8304,21.1146],[72.8143,21.1191],[72.8114,21.1483],[72.8316,21.1672],[72.8059,21.1497],[72.8016,21.1242],[72.7904,21.1447],[72.7878,21.11],[72.7636,21.1227],[72.7569,21.1046],[72.7443,21.1262],[72.719,21.1034],[72.7302,21.0781],[72.7016,21.0949],[72.7059,21.1358],[72.7275,21.1475],[72.6707,21.1568],[72.6561,21.1148],[72.6223,21.2094],[72.6817,21.2184],[72.6431,21.2498],[72.6304,21.2406],[72.6501,21.2798],[72.621,21.2928],[72.621,21.3125],[72.6554,21.3191],[72.6684,21.342],[72.7365,21.3238],[72.6962,21.355],[72.7016,21.3724],[72.6746,21.3486],[72.6646,21.3689],[72.6528,21.3494],[72.6459,21.3627],[72.6934,21.4664],[72.6715,21.4468],[72.6379,21.4484],[72.7409,21.5657],[72.8165,21.6136],[72.8406,21.6659],[72.9193,21.6478],[73.1089,21.7201],[73.0803,21.7366],[72.9438,21.6753],[72.8728,21.6882],[72.8047,21.661],[72.7776,21.6604],[72.7389,21.6861],[72.6117,21.6771],[72.6117,21.8019],[72.6458,21.8329],[72.6544,21.8912],[72.675,21.8872],[72.6786,21.912],[72.6878,21.886],[72.7223,21.8841],[72.7187,21.9318],[72.7786,21.9518],[72.746,21.988],[72.7719,22.0014],[72.7754,22.0168],[72.735,21.9912],[72.7203,22.0212],[72.718,21.9943],[72.6839,21.9646],[72.6719,21.9749],[72.6704,21.9621],[72.6465,21.9619],[72.6488,21.9881],[72.6368,22.0028],[72.6418,21.9581],[72.6281,21.9705],[72.6332,21.9546],[72.6117,21.9409],[72.6117,22.2153],[72.6631,22.211],[72.7419,22.1758],[72.7668,22.1936],[72.7581,22.2163],[72.7121,22.2444],[72.6726,22.2567],[72.6273,22.255],[72.6127,22.2672],[72.6495,22.2643],[72.6288,22.2759],[72.5679,22.2652],[72.6219,22.2837],[72.5708,22.2739],[72.5231,22.2332],[72.4958,22.2372],[72.479,22.2205],[72.4931,22.2641],[72.4597,22.2136],[72.4151,22.2149],[72.4247,22.2006],[72.4084,22.1524],[72.381,22.1539],[72.3885,22.1924],[72.3709,22.1814],[72.3689,22.1449],[72.367,22.1858],[72.3907,22.2002],[72.3697,22.1934],[72.3821,22.2262],[72.3704,22.2843],[72.4013,22.3249],[72.3581,22.313],[72.342,22.2572],[72.3322,22.2999],[72.3459,22.2239],[72.3116,22.1866],[72.303,22.2311],[72.2924,22.2146],[72.3209,22.1379],[72.242,22.0036],[72.2551,21.8193],[72.2391,21.7952],[72.2185,21.8162],[72.2081,21.8058],[72.2371,21.7651],[72.238,21.7346],[72.2981,21.6513],[72.2996,21.616],[72.1048,21.3114],[72.0758,21.3224],[72.0992,21.303],[72.0239,21.19],[71.9364,21.1184],[71.8968,21.1146],[71.8756,21.0914],[71.8063,21.0683],[71.7917,21.0504],[71.8047,21.0394],[71.6397,20.994],[71.6368,20.9745],[71.565,20.9506],[71.5339,20.9425],[71.5268,20.9531],[71.4825,20.9164],[71.4787,20.8892],[71.425,20.8675],[71.3824,20.8714],[71.382,20.8538],[71.2142,20.8041],[71.1424,20.7546],[70.7504,20.7492],[70.5181,20.8125],[70.4116,20.8754],[70.4257,20.8804],[70.29,20.9485],[70.0171,21.1847],[69.737,21.4993],[69.5945,21.6333],[69.5993,21.6524],[69.5782,21.6363],[69.5255,21.6851],[69.2319,22.0227],[68.9639,22.3801],[68.9877,22.4146],[69.0448,22.4146],[69.0836,22.3896],[69.1102,22.4074],[69.1346,22.3987],[69.1923,22.4146],[69.2014,22.3986],[69.1735,22.3637],[69.1622,22.3041],[69.1994,22.2686],[69.2346,22.2602],[69.3081,22.2868],[69.3313,22.326],[69.4151,22.3178],[69.4425,22.3332],[69.4534,22.3156],[69.4962,22.3665],[69.5196,22.3724],[69.5154,22.426],[69.5553,22.3889],[69.5382,22.3779],[69.5909,22.3584],[69.5761,22.3399],[69.5856,22.3334],[69.6023,22.3542],[69.6192,22.3464],[69.6216,22.3651],[69.6442,22.3555],[69.6634,22.3925],[69.6937,22.3961],[69.7018,22.4456],[69.7325,22.4481],[69.7472,22.4296],[69.751,22.4416],[69.7943,22.3997],[69.8213,22.4555],[69.9176,22.4636],[69.9986,22.5445],[70.1779,22.5604],[70.2419,22.683],[70.2655,22.6892],[70.2377,22.6953],[70.2559,22.7099],[70.2514,22.7324],[70.2887,22.7381],[70.3559,22.8761],[70.4429,22.9596],[70.4865,23.0526],[70.4856,23.0888],[70.4091,23.0363],[70.4029,23.0606],[70.3715,23.0588],[70.3624,23.0403],[70.3746,23.0183],[70.3943,23.0061],[70.2716,22.948],[70.2374,22.973],[70.2032,22.9444],[70.1582,22.9416],[70.1211,22.9587],[70.1318,22.9827],[70.1208,22.9852],[70.104,22.9585],[70.1328,22.9342],[70.0933,22.9022],[70.0647,22.9131],[69.8084,22.8463],[69.7905,22.8206],[69.7341,22.7987],[69.7163,22.7535],[69.6953,22.7657],[69.7105,22.7461],[69.6886,22.7548],[69.7062,22.7367],[69.6524,22.758],[69.6279,22.8022],[69.6366,22.7697],[69.6022,22.7736],[69.6118,22.7581],[69.596,22.757],[69.5709,22.7617],[69.5553,22.7984],[69.5458,22.7861],[69.5019,22.7935],[69.5156,22.7862],[69.5052,22.7837],[69.4542,22.8002],[69.493,22.7751],[69.4671,22.7708],[69.3616,22.8195],[69.3614,22.8319],[69.2808,22.8226],[69.1768,22.8428],[69.0221,22.9393],[68.7421,23.2473],[68.4703,23.6355],[68.5457,23.7129],[68.6186,23.7489],[68.6581,23.7992],[68.6794,23.7916],[68.7146,23.8241],[68.766,23.8422],[68.7823,23.8606],[68.7697,23.876],[68.7628,23.8511],[68.726,23.8369],[68.6554,23.8397],[68.5235,23.7464],[68.5192,23.7731],[68.4902,23.7327],[68.4632,23.7386],[68.4329,23.7338],[68.4203,23.707],[68.3992,23.7371],[68.2115,23.7788],[68.2074,23.8372],[68.2221,23.8313],[68.2408,23.8494],[68.2556,23.835],[68.2675,23.8377],[68.2573,23.8761],[68.2747,23.9179],[68.3201,23.9174],[68.2862,23.9383],[68.2377,23.9002],[68.1856,23.8863],[68.1889,23.8501],[68.1361,23.8696],[68.1421,23.8397],[68.1035,23.8555],[68.1044,23.8432],[68.073,23.8347],[68.053,23.8538],[68.0553,23.903],[68.042,23.9119],[68.0277,23.8693],[68.0413,23.8166],[67.8708,23.8643],[67.8653,23.9016],[67.9027,23.9647],[67.8939,23.9751],[67.8636,23.9463],[67.838,23.8752],[67.5175,23.982],[67.445,24.3201],[67.449,24.3322],[67.4906,24.3218],[67.5146,24.3424],[67.5291,24.3345],[67.5124,24.3526],[67.4873,24.3263],[67.4566,24.3422],[67.4428,24.3305],[67.42,24.4371],[67.4646,24.4235],[67.4721,24.4304],[67.4192,24.4408],[67.4103,24.482],[67.4218,24.4644],[67.4504,24.4602],[67.455,24.4655],[67.4177,24.4758],[67.3902,24.5761],[67.4136,24.5857],[67.4396,24.5746],[67.4171,24.5902],[67.3894,24.5799],[67.3801,24.623],[67.4143,24.6494],[67.4341,24.6406],[67.4465,24.6433],[67.4523,24.6596],[67.4416,24.6479],[67.4203,24.6727],[67.4325,24.6982],[67.3932,24.7046],[67.3496,24.7458],[67.3493,24.7629],[67.3744,24.7761],[67.4427,24.776],[66.7126,24.8948],[66.4734,26.1117],[66.3064,27.754],[66.2507,28.088],[66.4456,28.5612],[66.6682,28.9787],[67.3215,29.0163],[67.3215,29.3212],[67.4195,29.762],[67.9583,29.86],[68.2522,29.6151],[68.3502,29.3212],[68.84,28.9293],[69.6237,28.8313],[69.8687,29.1742]]]]}}