{"type":"Feature","properties":{"speciesId":499,"category":"VU","source":"IUCN Red List","simplifyTol":0.01,"clippedToSubcontinent":true},"geometry":{"type":"MultiPolygon","coordinates":[[[[92.6934,11.4273],[92.6734,11.4098],[92.6372,11.4073],[92.6249,11.4622],[92.6428,11.5091],[92.6885,11.4659],[92.6934,11.4273]]],[[[92.618,11.5534],[92.6314,11.5518],[92.628,11.5364],[92.618,11.5534]]],[[[92.5987,11.5669],[92.6071,11.5669],[92.6077,11.5603],[92.5987,11.5669]]],[[[92.6263,11.5608],[92.6146,11.5659],[92.6184,11.585],[92.625,11.5837],[92.6263,11.5608]]],[[[92.6079,11.9095],[92.6142,11.908],[92.61,11.9049],[92.6079,11.9095]]],[[[92.6042,11.9633],[92.6155,11.9568],[92.6142,11.9227],[92.6076,11.9399],[92.6042,11.9633]]],[[[92.7742,12.0218],[92.7473,12.0347],[92.7412,12.0183],[92.7649,11.997],[92.7344,11.9874],[92.7453,11.964],[92.7282,11.9525],[92.7249,11.9246],[92.7935,11.9323],[92.7989,11.8557],[92.7693,11.7061],[92.7534,11.7164],[92.7531,11.6929],[92.6997,11.6645],[92.6339,11.5639],[92.6201,11.615],[92.6512,11.6092],[92.6588,11.6434],[92.6494,11.6366],[92.6455,11.6596],[92.6397,11.6289],[92.6222,11.6329],[92.6052,11.6693],[92.5985,11.8852],[92.6244,11.9202],[92.6313,12.0815],[92.7077,12.0765],[92.7742,12.0218]]],[[[92.7362,11.9478],[92.7387,11.9356],[92.7364,11.9356],[92.7362,11.9478]]],[[[92.7483,11.953],[92.7652,11.9613],[92.7751,11.9587],[92.7595,11.9398],[92.7483,11.953]]],[[[92.7632,11.9731],[92.7453,11.9802],[92.7682,11.9826],[92.7632,11.9731]]],[[[92.7686,11.9989],[92.7786,12.0034],[92.7799,11.991],[92.7686,11.9989]]],[[[92.9378,12.206],[92.9494,12.2223],[92.9508,12.1922],[92.9378,12.206]]]]}}