{"type":"Feature","properties":{"speciesId":5,"category":"LC","source":"IUCN Red List","simplifyTol":0.01,"clippedToSubcontinent":true},"geometry":{"type":"MultiPolygon","coordinates":[[[[60.0006,37.9876],[60.0127,38.0],[60.2821,38.0],[60.325,37.9719],[60.4209,37.7083],[60.8683,37.0531],[61.2271,36.7014],[61.4365,36.0945],[61.6512,35.9746],[62.3937,36.0745],[62.4741,36.1823],[62.4741,36.2862],[62.2824,36.9733],[61.5873,37.5645],[61.5155,37.7481],[61.7071,37.876],[62.0987,37.8359],[62.53,37.149],[62.7058,36.7496],[63.4887,36.8374],[64.3755,36.8374],[64.7351,37.3408],[65.6458,37.8281],[66.2788,37.8986],[66.4174,38.0],[71.3302,38.0],[71.4658,37.3437],[71.4658,36.997],[71.5814,36.8044],[71.8703,36.6696],[72.217,36.4577],[72.5407,35.9721],[73.0396,35.0855],[73.4056,34.2314],[73.6497,33.3773],[73.6497,32.8325],[74.6762,32.658],[75.3122,32.3443],[75.1653,32.1005],[74.538,31.8164],[73.3535,32.1283],[73.2836,32.0351],[72.4295,31.9131],[71.6974,32.2792],[70.8433,32.4012],[70.1113,32.1572],[69.8672,31.5471],[69.6232,30.693],[69.1351,30.2049],[67.671,29.2288],[67.0609,29.1068],[66.5728,29.7169],[66.7462,30.0637],[66.8169,30.2049],[67.4269,30.815],[68.159,31.181],[68.4031,31.7911],[68.4031,32.5232],[67.915,33.0113],[67.1829,33.2553],[66.6949,32.8892],[66.2068,32.1572],[65.5967,32.0351],[64.9867,32.1572],[64.0105,31.181],[62.7904,31.3031],[61.9363,31.181],[61.3262,30.449],[60.9608,29.7181],[61.4482,29.2288],[62.3023,28.6187],[62.7904,28.1307],[62.9124,27.2766],[63.4006,27.1536],[62.9124,26.6665],[62.0583,26.3005],[61.8808,25.8851],[61.1618,25.8673],[60.0,26.269],[60.0006,37.9876]]],[[[74.6973,37.461],[74.7346,37.4431],[74.7484,37.4034],[74.7302,37.3663],[74.6911,37.3527],[74.6534,37.3711],[74.6401,37.4103],[74.6582,37.4475],[74.6973,37.461]]]]}}