{"type":"Feature","properties":{"speciesId":501,"category":"LC","source":"IUCN Red List","simplifyTol":0.01,"clippedToSubcontinent":true},"geometry":{"type":"MultiPolygon","coordinates":[[[[92.3262,20.5853],[92.3129,20.627],[92.3212,20.6346],[92.3296,20.5991],[92.3262,20.5853]]],[[[92.3447,20.7173],[92.3591,20.7199],[92.358,20.7139],[92.3447,20.7173]]],[[[97.998,17.5047],[97.9291,17.5399],[97.9053,17.5868],[97.772,17.7166],[97.7777,17.7508],[97.6977,17.8203],[97.6815,17.885],[97.6959,17.9229],[97.7396,17.9506],[97.7433,17.9712],[97.7094,18.0531],[97.6892,18.0586],[97.6812,18.1549],[97.6157,18.2331],[97.6436,18.2876],[97.6181,18.3186],[97.5609,18.3371],[97.5382,18.2764],[97.5073,18.2645],[97.4512,18.33],[97.4516,18.3902],[97.4048,18.4565],[97.3882,18.5091],[97.3526,18.5415],[97.3486,18.5763],[97.3614,18.5951],[97.3674,18.5645],[97.4001,18.5638],[97.425,18.5434],[97.446,18.4936],[97.482,18.5078],[97.5069,18.4945],[97.5383,18.5013],[96.9947,19.5224],[96.7865,20.6824],[96.6378,21.8424],[97.2326,23.7459],[97.6648,24.3246],[97.6627,24.3417],[97.7174,24.3547],[97.6848,24.4004],[97.6736,24.4532],[97.5366,24.4359],[97.5647,24.5307],[97.5725,24.626],[97.574,24.7065],[97.5545,24.7413],[97.5759,24.7633],[97.6422,24.7768],[97.7115,24.8371],[97.7677,24.8235],[97.7889,24.8561],[97.7387,24.9069],[97.7215,24.9631],[97.0244,25.709],[96.1024,25.5603],[95.567,24.7275],[95.3588,23.8649],[95.2696,22.6454],[94.645,21.5747],[93.9333,19.5624],[93.9324,19.4985],[93.9024,19.4885],[93.7768,19.5911],[93.8164,19.6042],[93.7935,19.614],[93.7602,19.5991],[93.722,19.6265],[93.7476,19.6525],[93.7943,19.6598],[93.7882,19.6815],[93.8193,19.7111],[93.8066,19.7392],[93.7986,19.7014],[93.727,19.6711],[93.7059,19.7028],[93.7208,19.7482],[93.7914,19.7691],[93.7862,19.8628],[93.7979,19.8666],[93.8012,19.891],[93.7933,19.916],[93.7937,19.873],[93.7386,19.8852],[93.7145,19.9079],[93.7457,19.9152],[93.7085,19.9375],[93.7091,19.9673],[93.702,19.9144],[93.6219,19.9171],[93.5518,19.8885],[93.5419,19.9036],[93.5754,19.9201],[93.5867,19.9378],[93.5688,19.9212],[93.5416,19.924],[93.546,19.9363],[93.5161,19.9234],[93.5121,19.9438],[93.5365,19.9552],[93.5085,19.9613],[93.5071,19.9748],[93.5401,19.9909],[93.4818,19.9914],[93.4674,20.0443],[93.4584,20.0541],[93.4762,20.0609],[93.4548,20.0552],[93.4762,20.0065],[93.4661,19.9825],[93.4392,19.9925],[93.4541,19.9469],[93.4083,19.9826],[93.3807,20.0659],[93.3841,20.0801],[93.4167,20.0799],[93.4148,20.1121],[93.4329,20.1052],[93.4126,20.1727],[93.3257,20.327],[93.2948,20.3367],[93.3308,20.4008],[93.2805,20.3482],[93.2801,20.3282],[93.2398,20.306],[93.2306,20.2739],[93.2464,20.2454],[93.2099,20.2347],[93.1825,20.1969],[93.117,20.1857],[93.2165,20.2861],[93.2259,20.3076],[93.2124,20.3278],[93.2512,20.4261],[93.2252,20.3917],[93.198,20.3871],[93.2235,20.376],[93.203,20.3226],[93.1282,20.3242],[93.1321,20.3693],[93.1564,20.3591],[93.1748,20.3741],[93.1292,20.3762],[93.1481,20.3969],[93.1732,20.3966],[93.1703,20.412],[93.1647,20.422],[93.1681,20.4002],[93.1475,20.4043],[93.1195,20.3786],[93.0939,20.3797],[93.0884,20.4013],[93.1167,20.4272],[93.107,20.5041],[93.087,20.5198],[93.1051,20.5307],[93.0919,20.53],[93.0701,20.602],[93.0483,20.5976],[93.0218,20.6219],[93.0277,20.6439],[93.0089,20.6419],[93.0178,20.6122],[93.072,20.5823],[93.0816,20.5606],[93.0583,20.4764],[93.0258,20.4274],[93.0173,20.454],[93.0427,20.4633],[93.0402,20.4931],[93.063,20.5208],[93.055,20.5337],[93.0351,20.5378],[93.0556,20.5207],[93.0196,20.4791],[93.0333,20.4857],[93.0386,20.4686],[93.0135,20.4606],[93.0243,20.3894],[93.0091,20.2869],[92.963,20.2257],[92.9449,20.2674],[92.915,20.2419],[92.9146,20.2122],[92.8862,20.2095],[92.9203,20.1809],[92.8966,20.1094],[92.8531,20.1232],[92.7649,20.2],[92.7873,20.2401],[92.7969,20.2102],[92.8305,20.1804],[92.8458,20.1823],[92.799,20.2141],[92.7988,20.2582],[92.9446,20.3156],[92.8982,20.3078],[92.8393,20.3808],[92.9108,20.3717],[92.9315,20.3863],[92.9417,20.3522],[92.9508,20.3739],[92.9161,20.4026],[92.9136,20.4177],[92.9341,20.4277],[92.9037,20.4768],[92.8996,20.4606],[92.9285,20.4299],[92.9072,20.421],[92.9117,20.3774],[92.8867,20.4218],[92.8866,20.4039],[92.8571,20.4195],[92.8637,20.4051],[92.8418,20.4017],[92.8166,20.4429],[92.8337,20.4407],[92.8383,20.4688],[92.8487,20.4591],[92.8275,20.4968],[92.8108,20.4924],[92.7961,20.5101],[92.7639,20.4734],[92.7523,20.4794],[92.7322,20.5696],[92.7486,20.5782],[92.7524,20.5868],[92.7467,20.5986],[92.7266,20.6168],[92.7482,20.5876],[92.7311,20.5792],[92.6844,20.6278],[92.6456,20.6891],[92.6451,20.7277],[92.5832,20.7199],[92.591,20.732],[92.5697,20.7796],[92.5997,20.7956],[92.6024,20.8064],[92.5649,20.7864],[92.5494,20.8493],[92.5449,20.8118],[92.5713,20.7516],[92.5466,20.7631],[92.5441,20.7431],[92.591,20.6851],[92.6395,20.6883],[92.6954,20.5825],[92.7292,20.5496],[92.72,20.4706],[92.7478,20.4143],[92.7299,20.2954],[92.747,20.2559],[92.7324,20.2568],[92.638,20.4332],[92.5281,20.5435],[92.5133,20.5993],[92.4597,20.649],[92.4661,20.6597],[92.3774,20.6957],[92.3877,20.7048],[92.3611,20.7723],[92.3901,20.8168],[92.3787,20.8246],[92.3584,20.7833],[92.3353,20.8433],[92.3602,20.8647],[92.3366,20.8509],[92.3146,20.8826],[92.3164,20.901],[92.3619,20.9419],[92.3477,20.9871],[92.3313,20.9978],[92.2968,20.9872],[92.2891,21.0036],[92.2836,20.9674],[92.272,20.9911],[92.2694,21.0182],[92.2887,21.0225],[92.2662,21.0406],[92.279,21.0368],[92.3128,21.0579],[92.3122,21.0703],[92.2734,21.0458],[92.2298,21.1046],[92.2243,21.1365],[92.198,21.1546],[92.1976,21.1198],[92.255,21.0615],[92.2611,20.9362],[92.313,20.8469],[92.3351,20.7437],[92.2996,20.7607],[92.2117,20.9253],[92.1847,21.0139],[92.0773,21.1357],[92.1253,21.2896],[92.1877,21.3694],[92.3996,21.4193],[92.5243,21.4791],[92.5867,21.6785],[92.4869,21.8777],[92.3747,21.9872],[92.2874,22.1365],[92.2126,22.4249],[92.2251,22.6335],[92.2999,23.0503],[92.2999,23.2585],[92.2625,23.3081],[92.1877,23.3279],[92.0131,23.1991],[91.9009,23.0702],[91.6889,23.0107],[91.6016,23.0107],[91.4645,23.0702],[91.3772,23.1396],[91.3024,23.2288],[91.24,23.318],[91.24,23.4567],[91.1153,23.5953],[91.0281,23.9612],[91.2151,24.1984],[91.6764,24.3761],[91.8136,24.5142],[91.8261,24.6128],[92.1378,24.7804],[92.2126,24.8395],[92.2874,24.9282],[92.2625,25.0168],[92.1129,25.066],[91.3148,25.066],[90.654,25.1152],[90.4171,25.1152],[90.1802,25.1841],[89.8186,25.3611],[89.7063,25.5184],[89.8061,25.6854],[89.8186,25.7443],[89.6191,25.8817],[89.457,25.9307],[89.058,26.1367],[88.9333,26.1465],[88.3472,26.362],[87.7861,26.3032],[86.9507,26.2738],[86.4644,26.3326],[86.3273,26.4207],[86.0529,26.5382],[85.7911,26.5871],[85.3422,26.7632],[85.0804,26.812],[84.831,26.9293],[84.7312,26.9977],[84.6315,27.1344],[84.5317,27.232],[84.3572,27.3295],[84.0953,27.4368],[83.9706,27.5147],[83.8459,27.8361],[83.7836,28.0599],[83.6838,28.5552],[83.6464,28.7976],[83.7337,29.0494],[83.8958,29.0978],[84.1951,29.0784],[84.3946,28.9913],[84.619,28.9332],[84.9058,28.8266],[85.3297,28.6425],[85.6664,28.4678],[85.7911,28.3513],[85.8534,28.2056],[85.9906,28.1959],[86.1652,28.2154],[87.0006,28.1959],[87.0754,28.1376],[87.437,27.9723],[87.7113,27.8945],[87.8609,27.914],[88.1353,28.0501],[88.5093,28.1376],[88.7836,28.1473],[88.8959,28.0987],[88.9457,27.9042],[89.0081,27.7875],[89.058,27.4075],[89.1951,27.1441],[89.3447,26.9488],[89.5442,26.812],[89.7687,26.8316],[89.9557,26.9586],[90.0804,27.0074],[90.3173,27.0172],[90.5168,26.9977],[90.6789,26.9098],[90.9158,26.9],[91.0779,26.9977],[91.2774,26.9977],[91.4645,27.0172],[91.8385,26.9977],[92.4246,26.9977],[92.6615,27.027],[93.4221,27.027],[93.5842,27.0953],[93.6964,27.1832],[94.0455,27.5147],[94.4071,27.6998],[95.1678,28.0307],[95.28,28.1182],[95.467,28.1862],[95.6042,28.2834],[95.8161,28.3319],[96.0156,28.2931],[96.7513,28.0404],[96.9134,28.0404],[97.0007,28.0793],[97.1503,28.3028],[97.3124,28.594],[97.4994,28.72],[97.674,28.7976],[98.0,28.9793],[97.998,17.5047]]]]}}