{"type":"Feature","properties":{"speciesId":503,"category":"NT","source":"IUCN Red List","simplifyTol":0.01,"clippedToSubcontinent":true},"geometry":{"type":"MultiPolygon","coordinates":[[[[94.2795,15.8707],[94.2777,15.8603],[94.2738,15.8646],[94.2795,15.8707]]],[[[94.234,16.3846],[94.227,16.3781],[94.2321,16.3873],[94.234,16.3846]]],[[[94.2422,16.5182],[94.246,16.5378],[94.2493,16.5399],[94.2516,16.5215],[94.2422,16.5182]]],[[[94.2341,18.5377],[94.2478,18.5369],[94.2436,18.5307],[94.2341,18.5377]]],[[[94.0091,18.7307],[93.9915,18.7312],[93.9846,18.744],[93.9961,18.7476],[94.0091,18.7307]]],[[[93.9408,18.8204],[93.9726,18.8367],[93.975,18.8024],[93.9923,18.7854],[93.9608,18.78],[93.9424,18.7993],[93.9408,18.8204]]],[[[94.1157,18.8095],[94.0733,18.8313],[94.0678,18.8476],[94.0864,18.8476],[94.1155,18.8697],[94.1131,18.8492],[94.1376,18.8564],[94.1346,18.8249],[94.1157,18.8095]]],[[[94.0331,19.0228],[94.0409,19.0389],[94.0559,19.0356],[94.0447,19.0229],[94.0331,19.0228]]],[[[94.0186,19.0454],[94.0346,19.0609],[94.0409,19.0594],[94.0346,19.0444],[94.0186,19.0454]]],[[[93.9972,19.103],[94.0167,19.1014],[94.0006,19.0971],[93.9972,19.103]]],[[[93.8194,19.2598],[93.8359,19.2586],[93.8263,19.2521],[93.8194,19.2598]]],[[[93.7439,19.2818],[93.7604,19.2793],[93.7547,19.2753],[93.7439,19.2818]]],[[[93.837,19.2717],[93.8367,19.2933],[93.8451,19.2768],[93.837,19.2717]]],[[[93.8654,19.2833],[93.8532,19.2712],[93.8486,19.2721],[93.8502,19.296],[93.8654,19.2833]]],[[[93.7747,19.2932],[93.8275,19.295],[93.8326,19.2758],[93.8002,19.2673],[93.7747,19.2932]]],[[[94.0419,19.3426],[94.0545,19.3488],[94.0466,19.337],[94.0419,19.3426]]],[[[93.6509,19.3456],[93.6527,19.3733],[93.6864,19.3668],[93.6691,19.3399],[93.6509,19.3456]]],[[[93.6891,19.3979],[93.6737,19.391],[93.6631,19.4074],[93.6891,19.3979]]],[[[93.6319,19.4231],[93.6406,19.4241],[93.6363,19.4039],[93.6319,19.4231]]],[[[93.6616,19.429],[93.6551,19.4218],[93.6531,19.4273],[93.6616,19.429]]],[[[93.5999,19.442],[93.6099,19.4506],[93.6157,19.4504],[93.614,19.4362],[93.5999,19.442]]],[[[93.5981,19.4617],[93.5827,19.4751],[93.5946,19.4729],[93.5981,19.4617]]],[[[93.5366,19.4636],[93.5311,19.4769],[93.5522,19.4705],[93.5366,19.4636]]],[[[93.6021,19.4703],[93.6064,19.4912],[93.6273,19.4906],[93.6441,19.4497],[93.6021,19.4703]]],[[[93.5338,19.4866],[93.5197,19.4767],[93.5116,19.4978],[93.5195,19.5018],[93.5338,19.4866]]],[[[93.5489,19.4801],[93.5182,19.5238],[93.5768,19.4794],[93.5489,19.4801]]],[[[93.8301,19.4819],[93.7709,19.5239],[93.7689,19.5315],[93.8592,19.5001],[93.8301,19.4819]]],[[[93.5319,19.5332],[93.5248,19.5359],[93.525,19.5391],[93.5319,19.5332]]],[[[93.6321,19.5433],[93.6397,19.5666],[93.6662,19.5656],[93.6621,19.5474],[93.6321,19.5433]]],[[[93.4999,19.5532],[93.5014,19.5448],[93.4902,19.5639],[93.4999,19.5532]]],[[[93.6007,19.5511],[93.5878,19.5576],[93.5987,19.5569],[93.6007,19.5511]]],[[[93.6597,19.5781],[93.6681,19.5679],[93.659,19.5754],[93.6597,19.5781]]],[[[93.7184,19.5938],[93.7067,19.5966],[93.7034,19.6042],[93.7184,19.5938]]],[[[93.6013,19.6074],[93.6265,19.6262],[93.635,19.6109],[93.6013,19.6074]]],[[[93.6614,19.6301],[93.6539,19.6291],[93.6549,19.6392],[93.6614,19.6301]]],[[[93.5469,19.649],[93.5394,19.6491],[93.5373,19.6578],[93.5469,19.649]]],[[[93.6886,19.6621],[93.7,19.6579],[93.6921,19.6539],[93.6886,19.6621]]],[[[93.5654,19.664],[93.5894,19.6599],[93.5687,19.6491],[93.5654,19.664]]],[[[93.495,19.7145],[93.5017,19.6741],[93.457,19.6908],[93.4078,19.7406],[93.4406,19.7464],[93.495,19.7145]]],[[[93.8104,19.7264],[93.814,19.7108],[93.8111,19.7096],[93.8104,19.7264]]],[[[93.5438,19.6949],[93.5539,19.687],[93.5246,19.6804],[93.5162,19.7214],[93.5825,19.7697],[93.5762,19.7142],[93.5438,19.6949]]],[[[93.5022,19.7176],[93.4829,19.7251],[93.4726,19.7381],[93.4967,19.7301],[93.5022,19.7176]]],[[[93.6388,19.7183],[93.6308,19.7333],[93.6489,19.7721],[93.6629,19.7797],[93.6663,19.76],[93.6934,19.7879],[93.7046,19.7612],[93.6946,19.7183],[93.6388,19.7183]]],[[[93.5815,19.789],[93.5583,19.7629],[93.5489,19.7621],[93.5456,19.7889],[93.5667,19.8012],[93.5815,19.789]]],[[[93.6706,19.8147],[93.6742,19.7998],[93.6318,19.7618],[93.5996,19.7099],[93.5916,19.7776],[93.6301,19.8135],[93.6423,19.8601],[93.7012,19.8521],[93.6706,19.8147]]],[[[93.4054,19.7978],[93.3997,19.8053],[93.4035,19.8074],[93.4054,19.7978]]],[[[93.7016,19.7919],[93.7213,19.8073],[93.7435,19.8326],[93.7368,19.7887],[93.7016,19.7919]]],[[[93.7925,19.8314],[93.7726,19.7636],[93.717,19.7625],[93.7037,19.7795],[93.7469,19.7906],[93.7545,19.8254],[93.7409,19.8452],[93.7634,19.8635],[93.7925,19.8314]]],[[[93.5947,19.8321],[93.5822,19.8034],[93.5446,19.8059],[93.5665,19.8315],[93.5947,19.8321]]],[[[93.6781,19.7891],[93.7134,19.8481],[93.734,19.8509],[93.7326,19.8242],[93.6781,19.7891]]],[[[93.4773,19.9022],[93.4978,19.8995],[93.5115,19.8611],[93.5051,19.8348],[93.4822,19.8391],[93.4692,19.8297],[93.499,19.8213],[93.5212,19.7592],[93.5112,19.7345],[93.4446,19.7876],[93.3958,19.9583],[93.4274,19.9541],[93.4773,19.9022]]],[[[93.5996,19.843],[93.5459,19.8272],[93.5471,19.8669],[93.5941,19.8746],[93.6184,19.9037],[93.6589,19.9056],[93.5996,19.843]]],[[[93.7236,19.8673],[93.6902,19.8775],[93.6633,19.8581],[93.6521,19.8729],[93.6999,19.8948],[93.719,19.882],[93.7357,19.8838],[93.7236,19.8673]]],[[[93.7206,19.8914],[93.7113,19.8909],[93.7106,19.8934],[93.7206,19.8914]]],[[[93.5289,19.9084],[93.5269,19.8703],[93.5187,19.8667],[93.5011,19.9039],[93.5289,19.9084]]],[[[93.5936,19.9044],[93.5855,19.8796],[93.5699,19.8837],[93.5936,19.9044]]],[[[93.7112,19.9182],[93.7223,19.9264],[93.7264,19.9232],[93.7112,19.9182]]],[[[93.498,19.9161],[93.5036,19.9304],[93.5093,19.9231],[93.498,19.9161]]],[[[93.2272,19.8161],[93.1633,19.9447],[93.1267,20.0519],[93.1576,20.0248],[93.1809,19.9394],[93.2507,19.8162],[93.2272,19.8161]]],[[[93.4994,19.9347],[93.4842,19.9297],[93.4678,19.9349],[93.4991,19.9572],[93.4994,19.9347]]],[[[93.4629,19.939],[93.4711,19.9623],[93.4875,19.9522],[93.4629,19.939]]],[[[93.0159,19.8894],[92.9159,20.0553],[92.926,20.0833],[92.9602,20.0616],[93.02,19.9194],[93.0358,19.8746],[93.0291,19.8189],[93.0159,19.8894]]],[[[93.0832,20.0912],[93.074,20.0766],[93.1218,20.0396],[93.1382,20.0047],[93.103,19.9467],[93.1733,19.7869],[93.0568,19.9513],[93.0421,20.0089],[92.9792,20.0713],[92.9746,20.1264],[92.9967,20.1116],[93.0564,20.1217],[93.0832,20.0912]]],[[[93.4609,19.9581],[93.4444,19.9893],[93.4543,19.9927],[93.4609,19.9581]]],[[[93.4831,19.9701],[93.4747,19.9808],[93.4747,19.9909],[93.497,19.9809],[93.4831,19.9701]]],[[[93.1373,20.0718],[93.1742,20.0586],[93.1752,20.0428],[93.1373,20.0718]]],[[[93.3316,20.0642],[93.3416,20.066],[93.3333,20.0521],[93.3316,20.0642]]],[[[93.1264,20.0691],[93.1259,20.0572],[93.1188,20.0584],[93.1264,20.0691]]],[[[93.1186,20.0846],[93.0747,20.1186],[93.0954,20.1426],[93.1267,20.079],[93.1119,20.0615],[93.0949,20.0879],[93.1186,20.0846]]],[[[93.3034,20.1704],[93.3109,20.1152],[93.3309,20.0821],[93.2991,20.0481],[93.2862,20.0946],[93.3034,20.1704]]],[[[93.3256,20.1211],[93.328,20.1069],[93.3129,20.1366],[93.3256,20.1211]]],[[[93.1978,20.084],[93.1892,20.0627],[93.1329,20.0846],[93.1036,20.1616],[93.1717,20.1884],[93.1898,20.168],[93.2184,20.159],[93.2312,20.113],[93.1978,20.084]]],[[[93.0895,20.1485],[93.0643,20.1276],[93.0841,20.1652],[93.0895,20.1485]]],[[[93.2744,20.0875],[93.2911,20.0604],[93.275,20.0333],[93.2057,20.0497],[93.2079,20.0922],[93.2467,20.116],[93.2317,20.1537],[93.1829,20.1916],[93.2081,20.2124],[93.2167,20.2346],[93.2528,20.2428],[93.2513,20.2636],[93.2766,20.2438],[93.3004,20.1904],[93.2837,20.1579],[93.251,20.146],[93.2845,20.1445],[93.2744,20.0875]]],[[[93.0953,20.1603],[93.095,20.1789],[93.113,20.179],[93.1024,20.1719],[93.0953,20.1603]]],[[[93.3577,20.27],[93.3906,20.2092],[93.4112,20.1214],[93.4012,20.1103],[93.3839,20.1859],[93.3959,20.1024],[93.3666,20.084],[93.3799,20.0275],[93.3672,20.0156],[93.3556,20.0728],[93.3143,20.1414],[93.3067,20.2079],[93.2713,20.2575],[93.2776,20.2882],[93.2677,20.2972],[93.2839,20.3204],[93.3206,20.3269],[93.3364,20.2789],[93.3577,20.27]]],[[[92.972,20.1728],[92.9498,20.1894],[92.9752,20.2112],[92.9807,20.1927],[92.972,20.1728]]],[[[92.9341,20.2471],[92.9465,20.2489],[92.9504,20.2119],[92.9238,20.1903],[92.9341,20.2471]]],[[[92.9575,20.21],[92.9763,20.2319],[92.9804,20.2315],[92.9575,20.21]]],[[[92.7343,20.2213],[92.7365,20.2369],[92.7405,20.2161],[92.7343,20.2213]]],[[[93.193,20.2818],[93.143,20.2188],[93.1272,20.2428],[93.1284,20.2167],[93.0613,20.1595],[93.0187,20.1333],[92.9977,20.1385],[93.0012,20.2153],[93.0221,20.2687],[93.0399,20.2773],[93.04,20.3263],[93.0911,20.3689],[93.12,20.3744],[93.1322,20.3447],[93.1199,20.3296],[93.1288,20.321],[93.1403,20.3166],[93.1334,20.3059],[93.1755,20.3243],[93.2129,20.3129],[93.2135,20.2929],[93.193,20.2818]]],[[[93.2677,20.3154],[93.2636,20.2969],[93.2728,20.2683],[93.2385,20.2685],[93.2444,20.3054],[93.2677,20.3154]]],[[[93.2847,20.3436],[93.2902,20.3544],[93.286,20.3375],[93.2847,20.3436]]],[[[92.7527,20.3521],[92.7418,20.3584],[92.7522,20.3624],[92.7527,20.3521]]],[[[92.8117,20.4109],[92.8664,20.3114],[92.8411,20.2875],[92.7948,20.2773],[92.8025,20.3036],[92.8357,20.3129],[92.8128,20.3389],[92.8143,20.3141],[92.7758,20.2801],[92.7623,20.4322],[92.8202,20.4236],[92.8117,20.4109]]],[[[92.8454,20.3947],[92.8766,20.4023],[92.8908,20.3856],[92.8454,20.3947]]],[[[92.8192,20.4105],[92.8326,20.402],[92.8169,20.4066],[92.8192,20.4105]]],[[[93.0435,20.3504],[93.038,20.423],[93.0899,20.5061],[93.1102,20.4209],[93.0785,20.4073],[93.0778,20.3641],[93.0435,20.3504]]],[[[92.7753,20.4392],[92.7559,20.4701],[92.7683,20.4705],[92.7972,20.4995],[92.8037,20.4826],[92.7789,20.4549],[92.7891,20.4417],[92.7753,20.4392]]],[[[92.7207,20.5712],[92.7008,20.5817],[92.6991,20.6049],[92.7084,20.5986],[92.7207,20.5712]]],[[[92.3262,20.5853],[92.3129,20.627],[92.3212,20.6346],[92.3296,20.5991],[92.3262,20.5853]]],[[[92.5844,20.7087],[92.6389,20.72],[92.6335,20.6965],[92.6086,20.6838],[92.5844,20.7087]]],[[[92.3511,20.7187],[92.3599,20.7178],[92.3431,20.7244],[92.3511,20.7187]]],[[[92.5795,20.723],[92.5491,20.7402],[92.5512,20.757],[92.5627,20.7432],[92.5806,20.749],[92.5795,20.723]]],[[[92.3145,20.9072],[92.3036,20.9269],[92.3159,20.9543],[92.3067,20.9822],[92.3326,20.9939],[92.3552,20.9436],[92.3145,20.9072]]],[[[92.3098,20.9528],[92.2969,20.9277],[92.2813,20.9476],[92.3007,20.9774],[92.3098,20.9528]]],[[[92.2638,21.0272],[92.2566,21.0234],[92.2613,21.0311],[92.2638,21.0272]]],[[[92.2168,21.1148],[92.2195,21.103],[92.211,21.1081],[92.2168,21.1148]]],[[[92.2102,21.1334],[92.2178,21.1235],[92.2076,21.1318],[92.2102,21.1334]]],[[[95.3773,4.8558],[95.3642,4.8746],[95.387,4.8735],[95.3773,4.8558]]],[[[97.5884,5.1511],[97.5765,5.1603],[97.5769,5.1653],[97.5884,5.1511]]],[[[95.1651,5.5484],[95.1456,5.5516],[95.1662,5.5611],[95.1651,5.5484]]],[[[95.1773,5.5691],[95.1899,5.5783],[95.2094,5.5765],[95.2081,5.5731],[95.1773,5.5691]]],[[[95.137,5.5921],[95.1137,5.6084],[95.1404,5.6576],[95.1864,5.6057],[95.137,5.5921]]],[[[95.0502,5.6374],[95.0781,5.6323],[95.0461,5.6207],[95.0502,5.6374]]],[[[95.0594,5.7485],[95.1341,5.663],[95.0728,5.6668],[95.0494,5.6444],[95.0602,5.6681],[95.0418,5.6688],[95.0586,5.6868],[95.0399,5.7078],[95.0581,5.7165],[95.0456,5.7323],[95.0093,5.725],[95.0293,5.7484],[95.0594,5.7485]]],[[[95.2869,5.8388],[95.2997,5.8668],[95.3217,5.8814],[95.313,5.8913],[95.3331,5.8926],[95.3736,5.8469],[95.3742,5.8025],[95.3454,5.8252],[95.3354,5.7729],[95.2859,5.778],[95.2549,5.8439],[95.218,5.8746],[95.2152,5.9044],[95.2869,5.8388]]],[[[97.9277,13.8521],[97.9134,13.7836],[97.9026,13.797],[97.9125,13.8685],[97.9277,13.8521]]],[[[97.9111,13.9417],[97.919,13.911],[97.9173,13.8862],[97.9021,13.9267],[97.9111,13.9417]]],[[[97.8154,14.1343],[97.8045,14.109],[97.8013,14.1339],[97.8154,14.1343]]],[[[97.7883,14.176],[97.8243,14.1837],[97.7919,14.1344],[97.7792,14.1517],[97.7883,14.176]]],[[[97.8099,14.2617],[97.802,14.2771],[97.8138,14.2806],[97.8099,14.2617]]],[[[97.7802,14.389],[97.7672,14.4001],[97.7836,14.4145],[97.7802,14.389]]],[[[97.777,14.4412],[97.7657,14.4339],[97.7657,14.4376],[97.777,14.4412]]],[[[97.7274,15.0641],[97.7389,15.0666],[97.7323,15.0554],[97.7274,15.0641]]],[[[97.744,15.0871],[97.7371,15.088],[97.7381,15.0962],[97.744,15.0871]]],[[[97.7351,15.2072],[97.7376,15.1921],[97.7324,15.193],[97.7351,15.2072]]],[[[97.6608,15.5668],[97.6552,15.494],[97.6462,15.5884],[97.6504,15.5634],[97.6608,15.5668]]],[[[95.1104,15.6706],[95.1155,15.6605],[95.1074,15.6644],[95.1104,15.6706]]],[[[95.0567,15.6656],[95.0564,15.6728],[95.0717,15.6793],[95.0567,15.6656]]],[[[95.2044,15.6826],[95.1915,15.6663],[95.1829,15.6738],[95.2044,15.6826]]],[[[95.2779,15.6769],[95.2641,15.6731],[95.2634,15.6823],[95.2779,15.6769]]],[[[95.0624,15.7327],[95.0443,15.7145],[95.0181,15.7194],[95.0521,15.7421],[95.0624,15.7327]]],[[[95.0637,15.8104],[95.0534,15.8195],[95.0646,15.8444],[95.0697,15.8263],[95.0637,15.8104]]],[[[94.7332,15.8221],[94.7914,15.9258],[94.8121,15.9418],[94.8402,15.869],[94.8108,15.7875],[94.7344,15.7929],[94.7332,15.8221]]],[[[95.0651,15.8834],[95.0649,15.8676],[95.0628,15.8664],[95.0651,15.8834]]],[[[94.8384,15.8842],[94.8309,15.9062],[94.8422,15.884],[94.8384,15.8842]]],[[[94.4544,15.9197],[94.4557,15.9113],[94.4509,15.9176],[94.4544,15.9197]]],[[[94.515,15.9145],[94.5197,15.9423],[94.5225,15.9426],[94.515,15.9145]]],[[[95.313,15.9345],[95.3209,15.9478],[95.3327,15.9568],[95.3321,15.9424],[95.313,15.9345]]],[[[95.2678,15.9852],[95.2507,15.9233],[95.241,15.9118],[95.2678,15.9852]]],[[[95.3453,15.9714],[95.3453,15.9583],[95.3396,15.9546],[95.3384,15.9631],[95.3453,15.9714]]],[[[94.6603,15.9655],[94.6647,15.9598],[94.6597,15.9602],[94.6603,15.9655]]],[[[95.1207,15.9944],[95.104,15.939],[95.102,15.9576],[95.1207,15.9944]]],[[[95.2736,15.8683],[95.2473,15.8572],[95.2349,15.8718],[95.273,15.9563],[95.2842,16.0323],[95.3264,16.0786],[95.3489,16.0],[95.2736,15.8683]]],[[[94.3218,15.978],[94.2822,15.9942],[94.3503,16.0084],[94.3218,15.978]]],[[[94.8637,16.0362],[94.8491,16.0],[94.8099,15.9774],[94.845,16.0629],[94.8637,16.0362]]],[[[95.0846,16.0328],[95.0807,16.0085],[95.0752,16.0156],[95.0846,16.0328]]],[[[94.6923,16.0023],[94.7095,16.0423],[94.7171,16.0504],[94.7196,16.0274],[94.6923,16.0023]]],[[[94.5799,16.0431],[94.5922,16.0997],[94.5718,16.0745],[94.573,16.0451],[94.5966,16.0307],[94.5938,16.0155],[94.5131,15.9889],[94.4469,15.9199],[94.3974,15.8322],[94.4109,15.8631],[94.3929,15.9017],[94.3863,16.0],[94.4535,16.0189],[94.5847,16.1991],[94.6492,16.2476],[94.6728,16.2033],[94.6476,16.1113],[94.5953,16.038],[94.5799,16.0431]]],[[[95.1377,16.0363],[95.0987,15.9801],[95.0997,16.046],[95.1202,16.0802],[95.1719,16.1117],[95.2087,16.1057],[95.1806,16.075],[95.1854,16.028],[95.1377,16.0363]]],[[[94.6214,16.0421],[94.6182,16.0528],[94.6513,16.0928],[94.6425,16.0649],[94.6214,16.0421]]],[[[95.1454,16.1152],[95.1551,16.121],[95.1617,16.1199],[95.1454,16.1152]]],[[[94.665,16.1337],[94.6684,16.1227],[94.6629,16.1192],[94.665,16.1337]]],[[[94.5263,16.1324],[94.5276,16.1457],[94.5448,16.1502],[94.5263,16.1324]]],[[[95.1272,16.1448],[95.1362,16.1514],[95.1277,16.1379],[95.1272,16.1448]]],[[[95.3685,16.1971],[95.3608,16.1503],[95.3213,16.1173],[95.3183,16.1719],[95.3685,16.1971]]],[[[95.8876,16.2228],[95.8727,16.2216],[95.8943,16.2393],[95.8876,16.2228]]],[[[94.5266,16.2838],[94.5602,16.2407],[94.5404,16.2011],[94.5185,16.2316],[94.5266,16.2838]]],[[[95.9078,16.2866],[95.9133,16.2749],[95.9016,16.2554],[95.9031,16.273],[95.9078,16.2866]]],[[[94.6579,16.2763],[94.6604,16.2697],[94.6576,16.2671],[94.6579,16.2763]]],[[[97.5955,16.3324],[97.6161,16.2774],[97.5936,16.2399],[97.5804,16.3194],[97.5955,16.3324]]],[[[95.9178,16.273],[95.913,16.3313],[95.9399,16.3786],[95.9563,16.3263],[95.9441,16.2474],[95.8751,16.2001],[95.9178,16.273]]],[[[96.0412,16.2625],[95.927,16.2097],[95.9557,16.2478],[95.9886,16.3774],[96.0188,16.3769],[96.0736,16.3414],[96.0835,16.3147],[96.0412,16.2625]]],[[[94.6139,16.3189],[94.6499,16.3302],[94.6864,16.3779],[94.6279,16.2577],[94.5831,16.2227],[94.5746,16.2472],[94.6086,16.2773],[94.6139,16.3189]]],[[[94.6843,16.31],[94.6779,16.2989],[94.6812,16.3123],[94.6843,16.31]]],[[[95.9615,16.2951],[95.9577,16.3129],[95.9577,16.3487],[95.9672,16.3175],[95.9615,16.2951]]],[[[96.0681,16.3567],[96.0805,16.3436],[96.0648,16.3563],[96.0681,16.3567]]],[[[97.5825,16.4071],[97.5904,16.3597],[97.5642,16.2884],[97.5721,16.2436],[97.5591,16.2244],[97.5368,16.2262],[97.5009,16.2468],[97.4565,16.3187],[97.482,16.3525],[97.4418,16.4469],[97.472,16.4712],[97.4489,16.4757],[97.5023,16.5124],[97.5793,16.4835],[97.6081,16.4883],[97.6115,16.4467],[97.5825,16.4071]]],[[[95.9343,16.3798],[95.9279,16.3735],[95.9334,16.3835],[95.9343,16.3798]]],[[[95.9641,16.4063],[95.9924,16.3898],[95.9658,16.3464],[95.9522,16.3705],[95.9641,16.4063]]],[[[94.695,16.3713],[94.7034,16.387],[94.6979,16.3684],[94.695,16.3713]]],[[[95.9515,16.3792],[95.9437,16.3836],[95.9477,16.39],[95.9515,16.3792]]],[[[95.9967,16.3988],[96.0038,16.385],[95.9936,16.399],[95.9967,16.3988]]],[[[95.9325,16.3958],[95.9399,16.3965],[95.9418,16.3884],[95.9325,16.3958]]],[[[97.6029,16.3816],[97.601,16.3972],[97.6051,16.4101],[97.6131,16.3953],[97.6029,16.3816]]],[[[96.1781,16.525],[96.1851,16.5578],[96.1801,16.5847],[96.2356,16.5983],[96.2628,16.5187],[96.3026,16.4722],[96.2944,16.4457],[96.3266,16.4653],[96.3211,16.447],[96.336,16.4437],[96.281,16.3911],[96.1241,16.314],[96.0992,16.3264],[96.0914,16.3535],[96.109,16.3796],[96.1432,16.3846],[96.1689,16.4176],[96.1488,16.4548],[96.1585,16.453],[96.1804,16.4603],[96.1866,16.4686],[96.1895,16.4766],[96.1831,16.4835],[96.1985,16.4841],[96.1781,16.525]]],[[[96.3192,16.4688],[96.309,16.4677],[96.3076,16.4757],[96.3192,16.4688]]],[[[97.5739,16.4879],[97.5885,16.4907],[97.5905,16.4882],[97.5739,16.4879]]],[[[97.5339,16.514],[97.5541,16.503],[97.5285,16.5115],[97.5339,16.514]]],[[[97.5998,16.5168],[97.5876,16.5066],[97.5555,16.5248],[97.5998,16.5168]]],[[[97.651,16.5202],[97.6557,16.5165],[97.6466,16.5086],[97.651,16.5202]]],[[[97.5211,16.5336],[97.5076,16.5229],[97.4991,16.5271],[97.5211,16.5336]]],[[[97.6435,16.5772],[97.6564,16.5387],[97.6276,16.5296],[97.6435,16.5772]]],[[[97.7045,16.5644],[97.7111,16.5602],[97.7036,16.5633],[97.7045,16.5644]]],[[[97.6481,16.5788],[97.6573,16.5738],[97.6534,16.5681],[97.6481,16.5788]]],[[[97.6422,16.6084],[97.6359,16.5736],[97.6181,16.574],[97.6261,16.6184],[97.6422,16.6084]]],[[[96.3033,16.8612],[96.3107,16.8499],[96.3078,16.8424],[96.3016,16.8461],[96.3033,16.8612]]],[[[97.1907,16.8475],[97.183,16.8705],[97.1928,16.8778],[97.1989,16.8658],[97.1907,16.8475]]],[[[96.6759,17.3463],[96.6653,17.3236],[96.6557,17.3309],[96.6596,17.3426],[96.6759,17.3463]]],[[[96.7776,17.3754],[96.7742,17.3662],[96.7677,17.3663],[96.7776,17.3754]]],[[[96.7977,17.379],[96.7389,17.4316],[96.7865,17.4833],[96.8078,17.4389],[96.8428,17.407],[96.7977,17.379]]],[[[94.5929,17.5688],[94.5871,17.5687],[94.588,17.5735],[94.5929,17.5688]]],[[[94.4417,18.1332],[94.452,18.1374],[94.4471,18.1291],[94.4417,18.1332]]],[[[94.3767,18.3504],[94.3768,18.3426],[94.371,18.3442],[94.3767,18.3504]]],[[[95.6132,5.6266],[95.6729,5.5857],[95.879,5.5068],[95.9043,5.427],[96.049,5.327],[96.0735,5.2928],[96.1823,5.2636],[96.2587,5.2634],[96.3883,5.2149],[96.465,5.2376],[96.4908,5.2046],[96.5318,5.2027],[96.6139,5.2144],[96.7202,5.2559],[96.8273,5.2776],[96.8552,5.2774],[96.8303,5.2714],[96.8998,5.2516],[96.9753,5.2665],[97.0818,5.2327],[97.1448,5.2004],[97.1432,5.1623],[97.1981,5.1461],[97.4967,5.2537],[97.5137,5.2464],[97.5468,5.2151],[97.5273,5.2057],[97.57,5.1904],[97.5722,5.1386],[97.6018,5.1419],[97.611,5.1139],[97.6525,5.1197],[97.648,5.0751],[97.806,4.9341],[97.9015,4.8871],[97.934,4.808],[97.9619,4.7262],[97.9615,4.668],[97.9946,4.6349],[98.0,4.6047],[97.9604,4.5316],[97.9823,4.5447],[98.0,4.5268],[98.0,4.0],[96.2775,4.0],[96.1485,4.1406],[96.1249,4.128],[96.0536,4.206],[96.0229,4.196],[95.7128,4.5268],[95.6081,4.6162],[95.5654,4.6262],[95.5834,4.6462],[95.5723,4.6567],[95.5387,4.6473],[95.4818,4.7609],[95.4119,4.8179],[95.4252,4.8339],[95.3756,4.9197],[95.3694,4.9459],[95.3817,4.9568],[95.3555,4.9992],[95.3623,5.0193],[95.3045,5.0793],[95.3152,5.0834],[95.3041,5.1067],[95.2825,5.1073],[95.3067,5.1271],[95.2962,5.1834],[95.2367,5.2204],[95.2503,5.2266],[95.2336,5.2472],[95.2385,5.2724],[95.2113,5.2699],[95.2156,5.3179],[95.2336,5.3195],[95.2223,5.3417],[95.2331,5.3582],[95.2389,5.3385],[95.2483,5.3663],[95.2286,5.4272],[95.2409,5.4467],[95.2295,5.4922],[95.1897,5.5228],[95.2202,5.5705],[95.2424,5.5512],[95.2806,5.5506],[95.3247,5.5899],[95.3527,5.5887],[95.4314,5.6564],[95.4651,5.6437],[95.5107,5.5957],[95.6132,5.6266]]],[[[97.998,4.6246],[98.0,4.6279],[98.0,4.6171],[97.998,4.6246]]],[[[98.0,14.2877],[97.9679,14.3954],[98.0,14.4789],[98.0,14.2877]]],[[[97.9963,14.4786],[97.9654,14.4261],[97.9408,14.5262],[97.9058,14.5783],[97.9134,14.6195],[97.9047,14.6107],[97.8728,14.671],[97.8944,14.7054],[97.8855,14.7229],[97.8678,14.7078],[97.8392,14.7188],[97.7917,14.8683],[97.8083,14.9501],[97.7969,14.9972],[97.8132,15.0062],[97.8244,15.0243],[97.791,14.9984],[97.7707,15.0183],[97.7958,15.0271],[97.8063,15.1503],[97.787,15.1795],[97.7951,15.1903],[97.7653,15.1971],[97.7387,15.2445],[97.7417,15.295],[97.7215,15.3328],[97.7274,15.3548],[97.7469,15.3561],[97.7465,15.3837],[97.7828,15.397],[97.7408,15.4871],[97.762,15.5281],[97.6994,15.7541],[97.7217,15.7717],[97.7179,15.8434],[97.6754,15.9144],[97.6103,15.949],[97.6035,15.9803],[97.5713,16.0108],[97.5582,16.0726],[97.5967,16.0851],[97.6143,16.0611],[97.6277,16.0504],[97.648,16.0442],[97.6654,16.0486],[97.6772,16.0283],[97.6969,16.0274],[97.6673,16.0521],[97.6202,16.0587],[97.6072,16.1036],[97.5978,16.097],[97.6438,16.27],[97.6155,16.3556],[97.6294,16.3873],[97.6141,16.4256],[97.6284,16.4532],[97.6253,16.5],[97.6621,16.5123],[97.6624,16.4765],[97.6823,16.4655],[97.7025,16.4706],[97.7044,16.4501],[97.7232,16.4502],[97.7199,16.4268],[97.7539,16.4141],[97.7355,16.4023],[97.7334,16.3833],[97.7784,16.3746],[97.7974,16.354],[97.7858,16.3396],[97.7874,16.3327],[97.8346,16.3236],[97.8601,16.2918],[97.8887,16.2862],[97.8521,16.3024],[97.8441,16.3234],[97.7924,16.3327],[97.8031,16.3534],[97.7905,16.3703],[97.7614,16.386],[97.7372,16.386],[97.7578,16.4177],[97.7289,16.4247],[97.7259,16.4541],[97.7068,16.4536],[97.7023,16.474],[97.6641,16.48],[97.6755,16.5007],[97.6684,16.5455],[97.7465,16.5616],[97.7089,16.5706],[97.6685,16.5549],[97.6441,16.6134],[97.6214,16.6432],[97.6076,16.581],[97.6264,16.5585],[97.6215,16.5187],[97.5325,16.5376],[97.4886,16.5387],[97.481,16.5218],[97.3928,16.5251],[97.3629,16.479],[97.3284,16.6589],[97.3466,16.6471],[97.3939,16.64],[97.4108,16.6424],[97.4241,16.6584],[97.3928,16.6437],[97.3457,16.6544],[97.3406,16.6666],[97.3578,16.6694],[97.3476,16.6786],[97.328,16.6669],[97.3301,16.6963],[97.3439,16.6953],[97.3419,16.7341],[97.3402,16.7096],[97.3207,16.7102],[97.3185,16.6679],[97.2772,16.6862],[97.2398,16.7684],[97.2498,16.8225],[97.2349,16.8088],[97.2226,16.8417],[97.227,16.8573],[97.2664,16.8441],[97.2781,16.8505],[97.2659,16.8701],[97.265,16.8481],[97.2228,16.8672],[97.2092,16.8129],[97.1998,16.8823],[97.2181,16.9017],[97.2191,16.9379],[97.1906,16.8911],[97.1749,16.8905],[97.1693,16.9107],[97.2072,17.008],[97.1547,17.0679],[97.1533,17.0952],[97.1909,17.1169],[97.2134,17.0874],[97.2646,17.1036],[97.2278,17.1029],[97.2063,17.1338],[97.1791,17.1294],[97.1365,17.1162],[97.1343,17.0806],[97.1143,17.0778],[97.0887,17.1652],[97.1067,17.1878],[97.0833,17.1817],[97.0592,17.2533],[97.0003,17.2668],[97.0091,17.3],[96.9116,17.357],[96.8832,17.4541],[96.8649,17.3961],[96.8417,17.3905],[96.849,17.4134],[96.8209,17.4331],[96.7918,17.4904],[96.7344,17.4353],[96.7735,17.3764],[96.7225,17.3474],[96.6924,17.3664],[96.6584,17.3486],[96.6488,17.3303],[96.6683,17.2691],[96.6962,17.2479],[96.7086,17.2545],[96.6769,17.2675],[96.6854,17.3453],[96.7251,17.3382],[96.8366,17.3809],[96.8401,17.3648],[96.8443,17.3762],[96.8597,17.3614],[96.856,17.3431],[96.863,17.3527],[96.9111,17.3214],[96.8907,17.3119],[96.9129,17.3049],[96.9024,17.2717],[96.8335,17.2052],[96.8487,17.2008],[96.8771,17.1122],[96.9001,17.0889],[96.9121,17.0177],[96.8737,16.911],[96.8383,16.9272],[96.8509,16.9591],[96.8346,16.9511],[96.8316,16.9194],[96.8552,16.8876],[96.8359,16.9046],[96.8251,16.8937],[96.8073,16.9106],[96.7968,16.9065],[96.8333,16.8788],[96.8531,16.8372],[96.8078,16.7555],[96.7808,16.7817],[96.7746,16.7731],[96.8013,16.7397],[96.7713,16.6916],[96.5964,16.5366],[96.4938,16.5046],[96.3837,16.4966],[96.2847,16.5537],[96.2867,16.5918],[96.3336,16.6234],[96.4269,16.6076],[96.4699,16.6127],[96.3313,16.6287],[96.2874,16.6001],[96.2777,16.5775],[96.2637,16.6474],[96.2348,16.6789],[96.2228,16.7542],[96.3156,16.8334],[96.3456,16.8334],[96.3941,16.8594],[96.4084,16.8552],[96.4861,16.8699],[96.5119,16.8882],[96.4839,16.8731],[96.3948,16.864],[96.3244,16.8384],[96.32,16.869],[96.3477,16.9059],[96.3007,16.8638],[96.298,16.8408],[96.2776,16.8693],[96.3037,16.8261],[96.2035,16.7632],[96.1848,16.7765],[96.195,16.7898],[96.1915,16.7999],[96.2124,16.7983],[96.2246,16.8111],[96.2182,16.8412],[96.2089,16.8458],[96.2203,16.8109],[96.1917,16.8059],[96.1802,16.7768],[96.1973,16.7597],[96.1288,16.7711],[96.1208,16.8137],[96.1155,16.8122],[96.1319,16.7589],[96.119,16.7566],[96.1921,16.7409],[96.2158,16.6707],[96.2461,16.636],[96.2366,16.6077],[96.1735,16.5831],[96.1736,16.5163],[96.1926,16.4892],[96.1804,16.4874],[96.1754,16.4635],[96.1417,16.4537],[96.1628,16.4177],[96.0771,16.3572],[96.0173,16.3845],[95.9964,16.4107],[95.9121,16.4109],[95.9275,16.385],[95.9059,16.3295],[95.8912,16.2446],[95.7786,16.1291],[95.7544,16.1266],[95.7404,16.1452],[95.7269,16.264],[95.7096,16.2731],[95.7229,16.2566],[95.7382,16.113],[95.6966,16.046],[95.6934,16.0],[95.6483,15.9258],[95.5158,15.7881],[95.4568,15.7474],[95.4672,15.7451],[95.3713,15.7047],[95.3125,15.7078],[95.283,15.721],[95.2704,15.8008],[95.2791,15.8463],[95.3045,15.8527],[95.2973,15.8621],[95.3195,15.8808],[95.3399,15.88],[95.3404,15.9023],[95.3479,15.8805],[95.3809,15.8721],[95.3989,15.8768],[95.4126,15.9056],[95.3871,15.8768],[95.3534,15.8849],[95.3388,15.9054],[95.3356,15.8829],[95.3225,15.8868],[95.2984,15.8701],[95.3477,15.9473],[95.364,16.0503],[95.3962,16.0616],[95.3628,16.0583],[95.3368,16.0993],[95.3706,16.1492],[95.3907,16.2396],[95.3263,16.1926],[95.306,16.1581],[95.3266,16.0873],[95.2792,16.0394],[95.2352,15.9326],[95.2101,15.8565],[95.2226,15.7902],[95.1768,15.7679],[95.1243,15.7917],[95.1094,15.8899],[95.1332,16.0193],[95.1896,16.0246],[95.1927,16.0799],[95.2671,16.1495],[95.1911,16.1138],[95.2079,16.1777],[95.1799,16.1374],[95.1526,16.1389],[95.165,16.1263],[95.1328,16.1239],[95.1442,16.168],[95.1293,16.2051],[95.1408,16.2315],[95.1236,16.2066],[95.1323,16.1672],[95.1198,16.1153],[95.0867,16.0923],[95.0561,16.0354],[95.0701,15.9441],[95.0369,15.8038],[95.0011,15.7788],[94.9868,15.7848],[94.9843,15.8484],[94.9821,15.76],[94.9476,15.7412],[94.8343,15.7808],[94.8398,15.8061],[94.8893,15.8274],[94.8713,15.8954],[94.9508,15.9456],[94.9443,15.9536],[94.8637,15.8968],[94.873,15.8249],[94.845,15.8298],[94.8373,15.8467],[94.8501,15.8762],[94.8384,15.9381],[94.8233,15.9327],[94.8283,15.9601],[94.8619,16.0],[94.9145,16.0],[94.9218,16.0306],[94.9054,16.0748],[94.9333,16.0861],[94.9556,16.131],[95.0226,16.1351],[95.0225,16.1603],[95.0557,16.1994],[95.0566,16.2159],[95.0465,16.2391],[95.0693,16.2458],[95.1006,16.3006],[95.0652,16.2477],[95.0432,16.2457],[95.0479,16.1971],[95.0137,16.1616],[95.0162,16.1437],[94.9529,16.1388],[94.9304,16.0942],[94.9029,16.083],[94.9154,16.0299],[94.8918,16.0061],[94.8785,16.0115],[94.8656,16.1351],[94.8888,16.1817],[94.9573,16.1962],[95.0257,16.2628],[95.0421,16.3097],[95.0649,16.3114],[95.0509,16.3127],[95.0505,16.3334],[95.0165,16.2669],[94.9522,16.211],[94.8726,16.1872],[94.8388,16.1108],[94.8497,16.0723],[94.7194,15.8504],[94.6856,15.8371],[94.634,15.8613],[94.6005,15.9202],[94.6697,15.9557],[94.7184,16.0],[94.7362,16.0636],[94.7845,16.0965],[94.763,16.1241],[94.7876,16.1316],[94.8071,16.1998],[94.8411,16.2149],[94.8519,16.2428],[94.8035,16.2062],[94.7764,16.1448],[94.7554,16.1316],[94.7516,16.0937],[94.7196,16.0669],[94.6841,16.0],[94.5736,15.9294],[94.5495,15.9488],[94.5501,15.966],[94.5608,15.9567],[94.6846,16.1148],[94.6806,16.2026],[94.7209,16.2029],[94.7589,16.2373],[94.7395,16.2574],[94.7567,16.2809],[94.7336,16.2564],[94.7496,16.2377],[94.7262,16.2305],[94.7192,16.2091],[94.6748,16.2152],[94.6636,16.2472],[94.6981,16.2454],[94.7087,16.2549],[94.7058,16.2669],[94.6983,16.2493],[94.6636,16.2541],[94.6881,16.3066],[94.6989,16.3555],[94.7371,16.354],[94.7548,16.3841],[94.7858,16.3564],[94.8134,16.3559],[94.8254,16.3704],[94.7948,16.3601],[94.7519,16.3905],[94.7347,16.3608],[94.7116,16.376],[94.7432,16.4022],[94.75,16.4194],[94.7586,16.4096],[94.7705,16.4093],[94.7839,16.4261],[94.7588,16.4137],[94.7478,16.4265],[94.7126,16.3942],[94.6965,16.4844],[94.7322,16.5056],[94.7463,16.569],[94.7897,16.5778],[94.8004,16.5907],[94.7465,16.5768],[94.7281,16.5145],[94.6898,16.4927],[94.6782,16.5132],[94.7012,16.5517],[94.7103,16.6135],[94.7423,16.6328],[94.7216,16.6873],[94.7447,16.6957],[94.7416,16.7301],[94.7218,16.7336],[94.738,16.7245],[94.7361,16.7004],[94.7173,16.6913],[94.7097,16.6537],[94.733,16.629],[94.6784,16.6436],[94.6989,16.6798],[94.6889,16.7396],[94.6936,16.6767],[94.6754,16.6933],[94.6823,16.6714],[94.6688,16.6524],[94.6511,16.6702],[94.6557,16.6579],[94.6743,16.6497],[94.6581,16.6276],[94.6913,16.6391],[94.7012,16.6217],[94.6924,16.5549],[94.6644,16.5184],[94.6796,16.3932],[94.6529,16.3403],[94.6233,16.338],[94.6403,16.3836],[94.6062,16.3372],[94.6021,16.2844],[94.5648,16.2582],[94.5311,16.2921],[94.5464,16.308],[94.5265,16.2987],[94.5119,16.2832],[94.5109,16.1802],[94.4336,16.0697],[94.3681,16.0546],[94.3419,16.0163],[94.2827,16.0],[94.2435,15.9541],[94.1976,16.0363],[94.2285,16.2519],[94.2433,16.2647],[94.2309,16.3217],[94.2643,16.3968],[94.2771,16.4963],[94.2615,16.5308],[94.2907,16.5386],[94.2897,16.5191],[94.3149,16.5196],[94.3503,16.5688],[94.3234,16.6004],[94.3508,16.6207],[94.3679,16.6149],[94.3563,16.6903],[94.3759,16.7572],[94.4039,16.7884],[94.3788,16.8748],[94.3885,16.907],[94.4106,16.8895],[94.4434,16.9306],[94.484,16.9432],[94.4782,16.9576],[94.443,16.9481],[94.4582,16.9806],[94.4567,17.0673],[94.4896,17.1177],[94.4558,17.1417],[94.4447,17.179],[94.4644,17.1882],[94.4993,17.1568],[94.5216,17.1687],[94.5363,17.1869],[94.5014,17.2162],[94.5083,17.2999],[94.5264,17.2768],[94.5464,17.2903],[94.5409,17.319],[94.5815,17.2885],[94.5917,17.3042],[94.5715,17.3171],[94.5654,17.4983],[94.5416,17.5488],[94.563,17.5931],[94.6099,17.5365],[94.6111,17.5501],[94.5769,17.5914],[94.5884,17.6192],[94.5693,17.6453],[94.5588,17.6362],[94.5416,17.6813],[94.5448,17.7349],[94.4898,17.7824],[94.4815,17.9029],[94.4375,17.9956],[94.4808,18.0107],[94.4817,18.0676],[94.4469,18.1691],[94.4208,18.1909],[94.4167,18.2398],[94.3372,18.2416],[94.3221,18.2642],[94.3284,18.302],[94.3911,18.2835],[94.4074,18.3107],[94.4023,18.3463],[94.3816,18.3656],[94.3376,18.3662],[94.3225,18.4359],[94.2492,18.5245],[94.2626,18.5486],[94.2513,18.5468],[94.2579,18.6085],[94.2402,18.6458],[94.1409,18.736],[94.1743,18.7141],[94.1745,18.7283],[94.2197,18.7182],[94.2788,18.7378],[94.253,18.7341],[94.2492,18.7552],[94.2388,18.7347],[94.2169,18.731],[94.2064,18.7431],[94.2243,18.7812],[94.2039,18.7527],[94.1916,18.7712],[94.1994,18.7931],[94.1831,18.7796],[94.1466,18.8144],[94.1762,18.8347],[94.1458,18.8353],[94.1523,18.8795],[94.1696,18.89],[94.1467,18.8848],[94.127,18.8567],[94.1169,18.8566],[94.1287,18.8786],[94.0553,18.8461],[94.0309,18.8633],[94.0439,18.8846],[94.0738,18.8676],[94.0906,18.8806],[94.1057,18.8997],[94.1353,18.8919],[94.1086,18.9296],[94.113,18.9662],[94.0864,18.8797],[94.0315,18.8964],[94.0552,18.9352],[94.0364,18.9913],[94.0632,19.0376],[94.0586,19.0598],[94.1021,19.0766],[94.0897,19.0849],[94.097,19.0986],[94.1228,19.0846],[94.109,19.1051],[94.1466,19.1191],[94.1161,19.1204],[94.0545,19.0754],[94.0272,19.0792],[94.0375,19.1067],[94.1385,19.1514],[94.1357,19.1796],[94.1295,19.1561],[94.1075,19.1513],[94.0927,19.1822],[94.0911,19.1484],[94.0648,19.1263],[94.0735,19.165],[94.0624,19.1881],[94.0568,19.1255],[94.0329,19.1296],[94.0492,19.2206],[94.0711,19.2339],[94.0469,19.2483],[94.042,19.3002],[94.0763,19.3661],[94.0715,19.3837],[94.0315,19.3281],[94.0354,19.2177],[94.0163,19.1814],[93.9914,19.2229],[94.005,19.1555],[93.9663,19.1394],[93.9439,19.1562],[93.9453,19.1934],[93.9092,19.1995],[93.9677,19.1238],[93.9534,19.0885],[93.9557,19.0208],[93.9858,18.9614],[93.9559,18.9192],[93.9596,18.8981],[93.9399,18.8857],[93.9373,18.8473],[93.8923,18.8923],[93.7728,18.9664],[93.7448,18.9689],[93.7151,19.0075],[93.6742,19.0103],[93.6659,19.0664],[93.6901,19.0844],[93.6976,19.1146],[93.7476,19.1213],[93.6942,19.1196],[93.6897,19.0961],[93.6629,19.0763],[93.6393,19.1378],[93.5993,19.1513],[93.5699,19.2256],[93.4727,19.3633],[93.4841,19.4091],[93.5135,19.4341],[93.5509,19.4324],[93.568,19.4163],[93.5514,19.4101],[93.5682,19.4046],[93.6041,19.4144],[93.6374,19.3542],[93.6342,19.3399],[93.6172,19.3482],[93.6001,19.3227],[93.6214,19.3411],[93.6672,19.3022],[93.6417,19.2398],[93.6446,19.2238],[93.6815,19.3001],[93.7215,19.2926],[93.6948,19.2819],[93.7269,19.2754],[93.7207,19.2445],[93.739,19.2567],[93.809,19.2263],[93.8733,19.2466],[93.9559,19.3061],[93.9498,19.3369],[93.9722,19.3514],[93.9817,19.3851],[94.0108,19.381],[93.9834,19.4055],[93.9663,19.3584],[93.8921,19.2916],[93.8818,19.3076],[93.9191,19.3345],[93.9218,19.3773],[93.9111,19.3353],[93.8842,19.3196],[93.8889,19.3534],[93.8589,19.3878],[93.8824,19.3531],[93.8692,19.3068],[93.7751,19.3011],[93.7392,19.3449],[93.7463,19.3542],[93.7753,19.3404],[93.78,19.3542],[93.7704,19.3446],[93.7533,19.3576],[93.7323,19.3566],[93.7319,19.3826],[93.7121,19.4014],[93.7393,19.4088],[93.6516,19.4445],[93.6372,19.4889],[93.6546,19.4919],[93.6468,19.5122],[93.6875,19.5654],[93.7462,19.5422],[93.7688,19.4853],[93.7758,19.5037],[93.7933,19.5003],[93.8187,19.4643],[93.8567,19.4843],[93.8585,19.4404],[93.877,19.473],[93.9764,19.4188],[93.9971,19.4526],[93.9766,19.4629],[93.9536,19.4479],[93.9046,19.4681],[93.9484,19.5081],[93.9383,19.564],[93.9324,19.4985],[93.9024,19.4885],[93.7768,19.5911],[93.8164,19.6042],[93.7935,19.614],[93.7602,19.5991],[93.722,19.6265],[93.7476,19.6525],[93.7943,19.6598],[93.7882,19.6815],[93.8193,19.7111],[93.8181,19.7292],[93.8066,19.7392],[93.7986,19.7014],[93.727,19.6711],[93.7059,19.7028],[93.7208,19.7482],[93.7914,19.7691],[93.7976,19.8329],[93.7862,19.8628],[93.7979,19.8666],[93.8012,19.891],[93.7933,19.916],[93.7937,19.873],[93.7386,19.8852],[93.7145,19.9079],[93.7457,19.9152],[93.7085,19.9375],[93.7091,19.9673],[93.702,19.9144],[93.6219,19.9171],[93.5518,19.8885],[93.5419,19.9036],[93.5754,19.9201],[93.5867,19.9378],[93.5688,19.9212],[93.5416,19.924],[93.546,19.9363],[93.5161,19.9234],[93.5121,19.9438],[93.5365,19.9552],[93.5085,19.9613],[93.5071,19.9748],[93.5401,19.9909],[93.4818,19.9914],[93.4674,20.0443],[93.4584,20.0541],[93.4762,20.0609],[93.4548,20.0552],[93.4762,20.0065],[93.4661,19.9825],[93.4542,19.9959],[93.4392,19.9925],[93.4567,19.95],[93.416,19.9708],[93.3807,20.0659],[93.3841,20.0801],[93.4167,20.0799],[93.4148,20.1121],[93.4329,20.1052],[93.4126,20.1727],[93.3623,20.2736],[93.343,20.2772],[93.3234,20.3298],[93.2966,20.33],[93.3259,20.3859],[93.3254,20.4036],[93.2805,20.3482],[93.2801,20.3282],[93.2398,20.306],[93.2306,20.2739],[93.2464,20.2454],[93.2099,20.2347],[93.1825,20.1969],[93.117,20.1857],[93.2165,20.2861],[93.2259,20.3076],[93.2124,20.3278],[93.2512,20.4261],[93.2252,20.3917],[93.198,20.3871],[93.2235,20.376],[93.203,20.3226],[93.1243,20.3281],[93.1374,20.3425],[93.1321,20.3693],[93.1564,20.3591],[93.1748,20.3741],[93.1292,20.3762],[93.1742,20.3994],[93.1647,20.422],[93.1681,20.4002],[93.0939,20.3797],[93.0884,20.4013],[93.1111,20.4138],[93.1167,20.4272],[93.107,20.5041],[93.087,20.5198],[93.1051,20.5307],[93.0919,20.53],[93.0701,20.602],[93.0483,20.5976],[93.0218,20.6219],[93.0277,20.6439],[93.0056,20.6398],[93.0178,20.6122],[93.0757,20.5791],[93.0816,20.5517],[93.0583,20.4764],[93.0258,20.4274],[93.0173,20.454],[93.0427,20.4633],[93.0402,20.4931],[93.063,20.5208],[93.055,20.5337],[93.0351,20.5378],[93.0556,20.5207],[93.0196,20.4791],[93.0333,20.4857],[93.0386,20.4686],[93.0135,20.4606],[93.0243,20.3894],[93.0091,20.2869],[92.963,20.2257],[92.9449,20.2674],[92.915,20.2419],[92.9146,20.2122],[92.8862,20.2095],[92.9203,20.1809],[92.8966,20.1094],[92.8531,20.1232],[92.7649,20.2],[92.7873,20.2401],[92.7969,20.2102],[92.8305,20.1804],[92.8458,20.1823],[92.799,20.2141],[92.7988,20.2582],[92.9446,20.3156],[92.8982,20.3078],[92.8393,20.3808],[92.9108,20.3717],[92.9315,20.3863],[92.9417,20.3522],[92.9508,20.3739],[92.9161,20.4026],[92.9136,20.4177],[92.9341,20.4277],[92.9037,20.4768],[92.8996,20.4606],[92.9285,20.4299],[92.9072,20.421],[92.9117,20.3774],[92.8867,20.4218],[92.8866,20.4039],[92.8571,20.4195],[92.8637,20.4051],[92.8418,20.4017],[92.8166,20.4429],[92.8337,20.4407],[92.8383,20.4688],[92.8487,20.4591],[92.8275,20.4968],[92.8108,20.4924],[92.7961,20.5101],[92.7639,20.4734],[92.7523,20.4794],[92.7322,20.5696],[92.7486,20.5782],[92.7524,20.5868],[92.7467,20.5986],[92.7266,20.6168],[92.7482,20.5876],[92.7311,20.5792],[92.6844,20.6278],[92.6456,20.6891],[92.6451,20.7277],[92.5832,20.7199],[92.591,20.732],[92.5697,20.7796],[92.5997,20.7956],[92.6024,20.8064],[92.5649,20.7864],[92.5494,20.8493],[92.5449,20.8118],[92.5713,20.7516],[92.5466,20.7631],[92.5441,20.7431],[92.591,20.6851],[92.607,20.6776],[92.6395,20.6883],[92.6954,20.5825],[92.7292,20.5496],[92.72,20.4706],[92.7478,20.4143],[92.7299,20.2954],[92.747,20.2559],[92.7324,20.2568],[92.638,20.4332],[92.5281,20.5435],[92.5133,20.5993],[92.4597,20.649],[92.4661,20.6597],[92.3774,20.6957],[92.3877,20.7048],[92.3611,20.7723],[92.3901,20.8168],[92.3787,20.8246],[92.3584,20.7833],[92.3353,20.8433],[92.3602,20.8647],[92.3366,20.8509],[92.3146,20.8826],[92.3164,20.901],[92.3619,20.9419],[92.3477,20.9871],[92.3313,20.9978],[92.2968,20.9872],[92.2891,21.0036],[92.2836,20.9674],[92.272,20.9911],[92.2694,21.0182],[92.2887,21.0225],[92.2662,21.0406],[92.279,21.0368],[92.3128,21.0579],[92.3122,21.0703],[92.2734,21.0458],[92.2298,21.1046],[92.2243,21.1365],[92.198,21.1546],[92.1976,21.1198],[92.255,21.0615],[92.2494,21.026],[92.2611,20.9362],[92.313,20.8469],[92.3351,20.7437],[92.2996,20.7607],[92.2117,20.9253],[92.1847,21.0139],[92.0942,21.1164],[92.1968,21.3165],[92.2854,21.4239],[92.372,21.5695],[92.3813,21.7621],[92.372,21.9917],[92.3349,22.2506],[92.2292,22.4767],[92.1919,22.6142],[92.2144,23.1513],[92.1773,23.3134],[92.0661,23.3576],[91.9733,23.2692],[91.9301,23.1016],[91.9461,22.7396],[91.8344,22.3837],[91.5273,22.2441],[90.0267,22.0556],[89.4335,22.0207],[89.3567,22.7256],[89.3288,23.1653],[89.1822,23.947],[88.8123,25.2731],[88.3475,26.4789],[87.9961,26.8768],[87.9034,27.0221],[87.857,27.3486],[88.0146,27.7905],[88.1351,27.8819],[88.1908,28.0582],[88.3206,28.1377],[88.5153,28.2027],[88.7007,28.1883],[88.8386,28.145],[88.9139,28.0582],[88.9695,27.928],[88.9901,27.7998],[89.259,27.8415],[89.9081,27.8067],[90.8363,27.8695],[91.3668,27.8764],[91.7018,27.8276],[91.974,27.695],[92.3997,27.3181],[92.5383,27.1746],[93.2157,27.1891],[93.4752,27.2471],[93.6792,27.3486],[93.8739,27.5154],[94.0408,27.624],[94.7268,27.8123],[94.9401,27.8918],[95.2758,28.1519],[95.5149,28.2749],[96.0248,28.3038],[96.3956,28.246],[96.7479,28.0654],[96.8777,28.0293],[96.9933,28.0517],[97.1466,28.1305],[97.2379,28.2846],[97.3598,28.4338],[97.5763,28.5471],[97.8444,28.5817],[98.0,28.5734],[97.9963,14.4786]]]]}}