{"type":"Feature","properties":{"speciesId":505,"category":"LC","source":"IUCN Red List","simplifyTol":0.01,"clippedToSubcontinent":true},"geometry":{"type":"Polygon","coordinates":[[[97.9999,24.0559],[97.8852,24.0102],[97.8881,23.9879],[97.8595,23.9759],[97.8545,23.9535],[97.7951,23.9476],[97.7654,23.9149],[97.7369,23.9094],[97.7159,23.8744],[97.6582,23.8673],[97.6496,23.8445],[97.6286,23.8908],[97.535,23.9378],[97.5852,23.9935],[97.6326,24.0],[97.6619,24.0604],[97.7343,24.117],[97.7579,24.1699],[97.7285,24.2038],[97.7654,24.2659],[97.7534,24.2863],[97.6694,24.3072],[97.6627,24.3417],[97.7174,24.3547],[97.6848,24.4004],[97.6736,24.4532],[97.5366,24.4359],[97.5647,24.5307],[97.5725,24.626],[97.574,24.7065],[97.5545,24.7413],[97.5759,24.7633],[97.6422,24.7768],[97.6461,25.4067],[97.5985,26.1324],[97.432,26.644],[97.1344,27.0882],[97.0582,27.1002],[97.0112,27.1366],[96.9097,27.1593],[96.8714,27.1831],[96.8549,27.2075],[96.8871,27.2524],[96.8501,27.2693],[96.7837,27.3491],[96.7024,27.3658],[96.66,27.3347],[96.6284,27.3661],[96.6081,27.3669],[96.5758,27.3124],[96.5293,27.2932],[96.4381,27.3024],[96.3808,27.284],[96.2999,27.2904],[96.094,27.2243],[96.0247,27.1767],[95.9234,27.0324],[95.8019,27.0079],[95.7309,26.8924],[95.6518,26.889],[95.5985,26.8092],[95.5487,26.8216],[95.512,26.8119],[95.4344,26.6979],[95.2754,26.6432],[95.2408,26.6803],[95.2,26.6391],[95.1547,26.6213],[95.1409,26.6032],[95.1503,26.5727],[95.0727,26.4716],[95.0983,26.4047],[95.0708,26.3079],[95.0953,26.2185],[95.1238,26.1978],[95.1036,26.1712],[95.1157,26.1122],[95.1834,26.0636],[95.0917,25.9561],[95.0238,25.9246],[95.0172,25.881],[95.0423,25.7476],[95.0337,25.7304],[94.9906,25.7208],[94.9524,25.6702],[92.956,25.8189],[91.2064,25.909],[89.7839,26.3328],[88.7455,26.5633],[88.1282,26.5991],[88.1599,26.6391],[88.1885,26.7669],[88.1713,26.8676],[88.1148,26.9561],[88.1281,26.9839],[88.0776,27.0291],[88.0251,27.0476],[88.0134,27.0895],[87.9843,27.1132],[88.0287,27.2929],[88.0561,27.3415],[88.037,27.371],[88.0447,27.4116],[88.0659,27.4316],[88.0396,27.4858],[88.053,27.5427],[88.0788,27.5918],[88.116,27.6224],[88.1526,27.7402],[88.1725,27.756],[88.7819,28.0563],[88.8432,28.0008],[88.8363,27.9058],[88.8689,27.8715],[88.8789,27.8181],[88.8512,27.7782],[88.8419,27.6273],[88.8149,27.6086],[88.7692,27.5279],[88.7851,27.4939],[88.7851,27.4283],[88.8367,27.3512],[88.8632,27.3454],[88.9043,27.3004],[88.9805,27.2754],[88.9981,27.3077],[88.9617,27.3881],[89.0222,27.5681],[89.0728,27.6155],[89.1313,27.6175],[89.2731,27.8359],[89.3206,27.8431],[89.3743,27.8754],[89.3505,27.9367],[89.3576,27.9639],[89.456,27.9958],[89.4609,28.0319],[89.5158,28.0949],[89.5511,28.0997],[89.6007,28.1563],[89.6239,28.1489],[89.6971,28.1735],[89.7657,28.1758],[89.8009,28.1946],[89.806,28.2257],[89.8992,28.304],[89.9432,28.2842],[90.0026,28.3238],[90.3808,28.248],[90.399,28.2134],[90.3619,28.1157],[90.3765,28.0744],[90.4663,28.0651],[90.6034,28.0763],[90.6267,28.0572],[90.6369,28.0727],[90.7142,28.0909],[90.773,28.0558],[90.9437,28.0408],[91.0148,27.9777],[91.1013,27.97],[91.1278,27.9741],[91.2217,28.068],[91.2845,28.0646],[91.3225,28.0893],[91.3508,28.0486],[91.4795,27.9797],[91.5277,27.985],[91.6571,27.952],[91.6875,27.9187],[91.6525,27.8432],[91.6588,27.7163],[91.6019,27.6537],[91.6283,27.5438],[91.6864,27.4856],[91.776,27.4509],[91.7713,27.4168],[91.8974,27.4471],[91.9482,27.4441],[92.0097,27.4768],[92.1246,27.2804],[92.0689,27.2359],[92.0505,27.1806],[92.0323,27.1683],[92.0245,27.1024],[92.0304,27.0746],[92.0873,27.0249],[92.1203,26.9475],[92.0933,26.8707],[92.1215,26.8599],[92.6464,26.9563],[92.7897,26.9012],[92.9084,26.9182],[93.1115,26.884],[93.1415,26.8644],[93.5667,26.9418],[93.7458,27.0194],[93.816,27.0291],[93.8411,27.0495],[93.8457,27.0793],[94.7835,27.4894],[95.6446,27.9615],[96.37,27.911],[96.9352,27.6598],[97.3658,27.696],[97.5649,28.012],[97.4076,28.3374],[97.3311,28.979],[97.4511,29.3293],[97.8779,29.4912],[98.0,29.4762],[97.9999,24.0559]]]}}