{"type":"Feature","properties":{"speciesId":506,"category":"LC","source":"IUCN Red List","simplifyTol":0.01,"clippedToSubcontinent":true},"geometry":{"type":"MultiPolygon","coordinates":[[[[97.8437,25.7406],[97.65,25.5572],[97.4398,25.2993],[97.0504,25.2383],[96.8621,25.1917],[96.6623,25.1171],[96.4037,24.9858],[96.347,24.9971],[96.1486,25.1462],[95.9474,25.2603],[95.7695,25.3348],[95.4824,25.4264],[95.4568,25.5017],[95.5211,25.722],[95.6894,25.8938],[95.8094,26.0442],[95.9218,26.2236],[96.0047,26.3973],[96.222,27.0578],[96.263,27.2709],[96.234,27.2771],[96.0361,27.1885],[95.9358,27.0455],[95.8767,27.0131],[95.8076,27.0132],[95.7604,26.9567],[95.7576,26.9076],[95.7303,26.8802],[95.6678,26.9012],[95.6363,26.8722],[95.611,26.8141],[95.5543,26.8326],[95.5323,26.8243],[95.4283,26.6932],[95.3021,26.6494],[95.2716,26.6563],[95.2504,26.6859],[95.2365,26.6809],[95.2159,26.729],[95.2419,26.7794],[95.215,26.7922],[95.199,26.8338],[95.2086,26.8446],[95.1845,26.8588],[95.2299,26.8796],[95.234,26.9136],[95.1954,26.9841],[95.1958,27.0372],[95.1103,26.9612],[95.0216,26.9198],[94.986,26.9127],[94.9286,26.9468],[94.8867,26.9272],[94.797,26.8133],[94.8025,26.8008],[94.7567,26.767],[94.7461,26.7769],[94.6869,26.7274],[94.6537,26.7185],[94.6286,26.7136],[94.6003,26.7328],[94.6046,26.7117],[94.5751,26.6861],[94.5455,26.706],[94.4987,26.6689],[94.465,26.6627],[94.4629,26.6307],[94.4083,26.6096],[94.4152,26.5785],[94.3968,26.5249],[94.3514,26.5039],[94.3168,26.4582],[94.2942,26.4761],[94.2902,26.5596],[94.2119,26.4854],[94.1761,26.4273],[94.1794,26.3842],[94.1647,26.3556],[94.1757,26.3397],[94.1083,26.322],[94.005,26.1689],[93.9921,26.129],[94.0022,26.107],[93.9549,26.0029],[93.9792,25.9151],[93.9157,25.8832],[93.8825,25.8415],[93.8422,25.8583],[93.7956,25.8101],[93.7804,25.8413],[93.7983,25.9055],[93.7731,25.9619],[93.7511,25.9328],[93.6878,25.9055],[93.6859,25.901],[93.7065,25.8492],[93.7046,25.8452],[93.6411,25.814],[93.6056,25.7635],[93.5736,25.7564],[93.4999,25.6528],[93.4276,25.6278],[93.4068,25.5928],[93.3225,25.5297],[93.2979,25.5447],[93.2777,25.5289],[93.2652,25.5452],[93.2138,25.5436],[93.173,25.5966],[93.1913,25.6289],[93.1333,25.6838],[93.1511,25.7375],[93.1089,25.7742],[93.0815,25.7632],[93.011,25.7914],[92.9918,25.8226],[92.986,25.7833],[92.9588,25.8005],[92.9632,25.817],[92.9314,25.8076],[92.9221,25.7708],[92.8229,25.7405],[92.8128,25.702],[92.7778,25.6779],[92.7885,25.6555],[92.7472,25.5975],[92.6983,25.5982],[92.6648,25.5716],[92.6492,25.59],[92.5944,25.5516],[92.5619,25.572],[92.5586,25.6098],[92.5028,25.6208],[92.4666,25.6804],[92.4356,25.6855],[92.4339,25.7297],[92.3874,25.7511],[92.3349,25.7233],[92.2305,25.7145],[92.166,25.6676],[92.1512,25.7129],[92.1671,25.7328],[92.1548,25.8111],[92.1823,25.8693],[92.2272,25.9053],[92.1655,25.9102],[92.1581,25.9423],[92.1693,25.9661],[92.304,26.075],[92.2431,26.0609],[92.1817,26.0673],[92.1703,26.1634],[92.0862,26.1778],[92.0934,26.1882],[92.0485,26.2134],[92.046,26.1993],[91.9999,26.2045],[91.9619,26.2277],[91.9559,26.2537],[91.9843,26.2749],[92.0455,26.2754],[92.1564,26.4106],[92.1814,26.423],[92.2225,26.4168],[92.3459,26.5019],[92.3328,26.5146],[92.3858,26.5345],[92.359,26.5709],[92.3638,26.5857],[92.3351,26.5865],[92.3419,26.6003],[92.3257,26.6133],[92.3329,26.6408],[92.3444,26.6368],[92.3334,26.6512],[92.3347,26.8307],[92.3676,26.9313],[92.4029,26.9248],[92.4627,26.9618],[92.5882,26.9602],[92.6484,26.9858],[92.6386,27.0236],[92.6009,27.0526],[92.5933,27.0787],[92.6111,27.1399],[92.7531,27.1949],[92.8193,27.1775],[92.906,27.2134],[92.8913,27.2841],[92.8507,27.289],[92.8041,27.3504],[92.827,27.3805],[92.8047,27.4506],[92.8173,27.5237],[92.7873,27.5559],[92.721,27.5553],[92.661,27.525],[92.6473,27.5421],[92.657,27.585],[93.6943,28.3899],[94.4902,28.9111],[94.6545,29.3051],[95.2232,29.8203],[95.7467,29.8527],[96.098,29.4524],[96.3201,29.2595],[96.4704,29.0564],[96.6166,28.7483],[97.2127,28.6181],[97.5243,28.5066],[98.0,28.2183],[98.0,25.8615],[97.8437,25.7406]]],[[[92.9995,22.2592],[92.7899,21.833],[92.9995,21.3696],[92.9995,21.0005],[92.4873,21.3725],[92.237,21.1728],[92.2804,21.0447],[92.2298,21.1046],[92.2243,21.1365],[92.198,21.1546],[92.1976,21.1198],[92.255,21.0615],[92.2494,21.026],[92.2611,20.9362],[92.313,20.8469],[92.275,20.8245],[92.2117,20.9253],[92.1847,21.0139],[92.0533,21.1632],[92.0496,21.2642],[92.0289,21.3402],[91.9535,21.4502],[91.9993,21.5054],[92.0221,21.4864],[91.9954,21.5518],[92.0389,21.6476],[92.0405,21.6722],[92.0251,21.6822],[92.0352,21.7006],[92.0181,21.7165],[92.0192,21.6685],[91.9818,21.656],[91.9796,21.7042],[91.9667,21.6781],[91.9481,21.7453],[91.9764,21.7418],[91.9924,21.7678],[91.9716,21.7472],[91.9545,21.7539],[91.9706,21.7862],[91.9424,21.8042],[91.9308,21.7855],[91.8912,21.7773],[91.9199,21.8473],[91.9095,21.9079],[91.9274,21.9345],[91.8949,21.9689],[91.8548,22.1276],[91.8345,22.1221],[91.8118,22.1905],[91.8351,22.2151],[91.842,22.2605],[91.8147,22.3049],[91.8666,22.3221],[91.9008,22.4007],[91.9451,22.4162],[92.0019,22.4046],[92.0221,22.4167],[92.0349,22.4459],[92.0815,22.4371],[92.1417,22.4616],[92.1439,22.4703],[92.0873,22.4443],[92.0331,22.4505],[92.0029,22.4124],[91.9541,22.421],[91.8964,22.4094],[91.8723,22.3498],[91.7955,22.2927],[91.7952,22.2778],[91.829,22.2566],[91.798,22.2196],[91.7818,22.2343],[91.7421,22.4091],[91.6451,22.5541],[91.6565,22.6011],[91.3922,24.0341],[91.4491,24.1282],[91.5444,24.2084],[91.7845,24.3227],[91.9903,24.3426],[92.5055,23.9518],[92.6288,23.6793],[92.7416,23.3213],[92.7416,22.6936],[92.8221,22.5011],[92.9995,22.2592]]],[[[91.8201,22.2775],[91.7995,22.2839],[91.806,22.2983],[91.8201,22.2775]]],[[[91.8215,22.2134],[91.8151,22.214],[91.8227,22.2236],[91.8215,22.2134]]],[[[96.1036,21.9589],[96.0868,21.976],[96.1048,21.9911],[96.1213,21.9744],[96.1036,21.9589]]],[[[91.894,21.8587],[91.8783,21.8216],[91.8714,21.8878],[91.8567,21.8746],[91.8745,21.8059],[91.8311,21.7169],[91.8467,21.8128],[91.8409,21.8963],[91.868,21.9222],[91.894,21.8587]]],[[[91.9443,21.7597],[91.9078,21.7618],[91.8934,21.7677],[91.9417,21.7736],[91.9443,21.7597]]],[[[91.8806,21.6342],[91.8524,21.6604],[91.8884,21.7621],[91.9121,21.7467],[91.9045,21.7087],[91.8799,21.6822],[91.8806,21.6342]]],[[[91.9416,21.7483],[91.9207,21.7299],[91.9145,21.7585],[91.9416,21.7483]]],[[[91.9741,21.509],[91.9479,21.4896],[91.9017,21.5093],[91.9114,21.4757],[91.8969,21.4671],[91.8684,21.4885],[91.8587,21.5221],[91.8821,21.557],[91.8851,21.6807],[91.9399,21.735],[91.9876,21.6301],[91.9741,21.509]]],[[[92.0072,21.6281],[92.0021,21.6463],[92.0303,21.6683],[92.0347,21.6491],[92.0072,21.6281]]],[[[92.0109,21.5983],[92.0041,21.6176],[92.0071,21.6241],[92.0135,21.6135],[92.0109,21.5983]]],[[[93.9756,21.3559],[93.9588,21.373],[93.9768,21.3881],[93.9932,21.3714],[93.9756,21.3559]]],[[[92.2179,21.1304],[92.2124,21.1257],[92.2076,21.1318],[92.2179,21.1304]]],[[[92.2201,21.109],[92.211,21.1081],[92.2168,21.1148],[92.2201,21.109]]],[[[92.2646,21.0357],[92.2822,21.0394],[92.2877,21.0232],[92.2646,21.0357]]],[[[92.2638,21.0272],[92.2566,21.0234],[92.2613,21.0311],[92.2638,21.0272]]],[[[92.3,20.9869],[92.2891,21.0036],[92.2933,20.9801],[92.2798,20.9694],[92.2694,21.0182],[92.288,21.0224],[92.3,20.9869]]],[[[92.2969,20.9277],[92.2813,20.9476],[92.3007,20.9774],[92.3098,20.9528],[92.2969,20.9277]]],[[[92.3261,20.9097],[92.3036,20.9269],[92.3129,20.9486],[92.3261,20.9097]]],[[[92.3442,20.8562],[92.3146,20.8826],[92.3273,20.9061],[92.3442,20.8562]]],[[[92.337,20.8464],[92.3372,20.8468],[92.3464,20.8497],[92.337,20.8464]]]]}}