{"type":"Feature","properties":{"speciesId":508,"category":"NT","source":"IUCN Red List","simplifyTol":0.01,"clippedToSubcontinent":true},"geometry":{"type":"MultiPolygon","coordinates":[[[[67.3557,24.3838],[67.3579,24.3574],[67.3386,24.3609],[67.3376,24.3671],[67.3557,24.3838]]],[[[67.3104,24.3831],[67.3337,24.3733],[67.3154,24.3647],[67.3104,24.3831]]],[[[67.3438,24.4131],[67.3388,24.3912],[67.3054,24.3943],[67.3086,24.4156],[67.34,24.4177],[67.3104,24.428],[67.3607,24.4341],[67.3632,24.4118],[67.3438,24.4131]]],[[[67.3728,24.4528],[67.3059,24.4321],[67.2966,24.4417],[67.3728,24.4528]]],[[[67.3236,24.4969],[67.321,24.4697],[67.3097,24.4745],[67.3236,24.4969]]],[[[67.3027,24.471],[67.2567,24.4769],[67.2746,24.4961],[67.2676,24.5186],[67.288,24.5262],[67.3062,24.5103],[67.3027,24.471]]],[[[67.313,24.5104],[67.3466,24.4983],[67.3448,24.4909],[67.313,24.5104]]],[[[67.3153,24.5267],[67.3043,24.5176],[67.2934,24.5293],[67.32,24.5467],[67.3618,24.5287],[67.3505,24.5024],[67.3153,24.5267]]],[[[67.3029,24.5478],[67.2705,24.525],[67.2499,24.5383],[67.2405,24.5284],[67.2163,24.5566],[67.2242,24.576],[67.2858,24.581],[67.3029,24.5478]]],[[[67.3093,24.5925],[67.3006,24.5926],[67.3086,24.6039],[67.3093,24.5925]]],[[[67.3178,24.5905],[67.308,24.6127],[67.2914,24.5904],[67.292,24.6207],[67.3124,24.6349],[67.3353,24.6107],[67.3178,24.5905]]],[[[67.3491,24.6178],[67.3398,24.6175],[67.3479,24.6213],[67.3491,24.6178]]],[[[67.3268,24.63],[67.3556,24.6445],[67.374,24.6299],[67.3623,24.6155],[67.3268,24.63]]],[[[67.2818,24.6304],[67.2562,24.5972],[67.2196,24.6208],[67.22,24.6389],[67.182,24.6243],[67.1721,24.6663],[67.1982,24.681],[67.216,24.6634],[67.2566,24.6611],[67.2818,24.6304]]],[[[67.2806,24.6379],[67.281,24.6615],[67.2986,24.6662],[67.3054,24.6397],[67.2806,24.6379]]],[[[67.3088,24.6622],[67.3199,24.6586],[67.3343,24.6766],[67.3449,24.6623],[67.3243,24.6406],[67.3088,24.6622]]],[[[67.3161,24.6635],[67.2911,24.6875],[67.3208,24.6697],[67.3161,24.6635]]],[[[67.1158,24.6905],[67.1336,24.6752],[67.1159,24.6769],[67.1158,24.6905]]],[[[67.1889,24.6911],[67.2122,24.7168],[67.2199,24.6909],[67.2449,24.6676],[67.1889,24.6911]]],[[[67.3465,24.7355],[67.3915,24.6966],[67.3402,24.6922],[67.3272,24.677],[67.2873,24.6917],[67.295,24.6711],[67.2725,24.6681],[67.271,24.6536],[67.2723,24.6789],[67.2481,24.6771],[67.2171,24.7201],[67.2545,24.7063],[67.3031,24.7372],[67.3297,24.7274],[67.3465,24.7355]]],[[[67.1414,24.6901],[67.1233,24.7035],[67.1137,24.7474],[67.1395,24.7526],[67.1515,24.7393],[67.1414,24.6901]]],[[[67.1739,24.7265],[67.2384,24.7603],[67.2497,24.745],[67.1991,24.7243],[67.189,24.7043],[67.1739,24.7265]]],[[[67.326,24.7352],[67.2878,24.7417],[67.2442,24.7116],[67.2337,24.7284],[67.3027,24.7739],[67.3412,24.7601],[67.326,24.7352]]],[[[67.2643,24.7511],[67.2367,24.7796],[67.2859,24.7823],[67.2643,24.7511]]],[[[67.1825,24.7512],[67.1653,24.7763],[67.2278,24.7852],[67.227,24.7761],[67.1825,24.7512]]],[[[67.2157,24.8062],[67.2318,24.7917],[67.2118,24.8053],[67.2157,24.8062]]],[[[66.6175,24.8999],[66.612,24.8851],[66.6102,24.9045],[66.6175,24.8999]]],[[[72.3581,22.1888],[72.3604,22.1838],[72.3515,22.1744],[72.3581,22.1888]]],[[[69.6385,22.7619],[69.6458,22.751],[69.6294,22.76],[69.6385,22.7619]]],[[[70.351,22.9316],[70.3011,22.9435],[70.385,22.9959],[70.3919,22.971],[70.3688,22.9605],[70.3896,22.9602],[70.3834,22.9427],[70.351,22.9316]]],[[[70.4469,22.9759],[70.4335,22.9737],[70.4491,22.9798],[70.4469,22.9759]]],[[[70.4415,22.9801],[70.4295,22.9817],[70.4484,22.994],[70.4415,22.9801]]],[[[70.4424,23.0472],[70.4312,23.0099],[70.4098,22.9911],[70.4164,23.0236],[70.4424,23.0472]]],[[[70.3753,23.0222],[70.393,23.0311],[70.3961,23.0206],[70.3753,23.0222]]],[[[70.4512,23.0406],[70.4523,23.0287],[70.4474,23.0241],[70.4512,23.0406]]],[[[70.4345,23.0444],[70.4163,23.0281],[70.4187,23.0392],[70.4345,23.0444]]],[[[70.3679,23.0431],[70.3954,23.0582],[70.3915,23.0352],[70.3679,23.0431]]],[[[70.4769,23.0622],[70.462,23.0467],[70.4592,23.0503],[70.4769,23.0622]]],[[[68.2353,23.575],[68.2215,23.5869],[68.2369,23.578],[68.2353,23.575]]],[[[68.4448,23.6222],[68.4628,23.6081],[68.4309,23.5774],[68.423,23.6096],[68.4448,23.6222]]],[[[68.2526,23.6373],[68.2627,23.6088],[68.2451,23.5773],[68.2153,23.5952],[68.2219,23.5722],[68.1868,23.5809],[68.1629,23.6099],[68.1973,23.6474],[68.2526,23.6373]]],[[[68.5005,23.7184],[68.4903,23.6983],[68.4653,23.6921],[68.4681,23.7086],[68.5005,23.7184]]],[[[68.4824,23.7252],[68.4622,23.7168],[68.4532,23.7292],[68.4586,23.7341],[68.4824,23.7252]]],[[[68.5914,23.7415],[68.5774,23.741],[68.5917,23.7475],[68.5914,23.7415]]],[[[68.5693,23.7576],[68.6101,23.7728],[68.5676,23.7489],[68.5693,23.7576]]],[[[68.1899,23.7806],[68.1371,23.6947],[68.1034,23.727],[68.0914,23.7184],[68.1074,23.6977],[68.0328,23.713],[68.0705,23.7478],[68.074,23.7953],[68.091,23.8118],[68.1177,23.8314],[68.1729,23.8229],[68.1674,23.8444],[68.1836,23.8426],[68.1899,23.7806]]],[[[68.6391,23.7899],[68.6294,23.7773],[68.6271,23.7793],[68.6391,23.7899]]],[[[68.2576,23.8557],[68.2474,23.8543],[68.2581,23.8653],[68.2576,23.8557]]],[[[68.2118,23.8714],[68.246,23.86],[68.208,23.8459],[68.2118,23.8714]]],[[[67.4094,23.9572],[67.391,23.9794],[67.3929,23.9825],[67.4239,23.9778],[67.4094,23.9572]]],[[[67.4231,24.0676],[67.4129,24.0593],[67.4046,24.0705],[67.413,24.0806],[67.4231,24.0676]]],[[[67.3927,24.4328],[67.3861,24.422],[67.3713,24.4261],[67.3774,24.4338],[67.3927,24.4328]]],[[[67.3433,24.6548],[67.3584,24.6667],[67.3688,24.6637],[67.3649,24.6521],[67.3433,24.6548]]],[[[67.412,24.6574],[67.3899,24.6492],[67.3405,24.6858],[67.4257,24.6969],[67.4158,24.6699],[67.4357,24.6453],[67.412,24.6574]]],[[[80.2493,9.8236],[80.3657,9.6603],[80.8117,9.2909],[80.8841,9.1219],[81.0005,8.9388],[80.993,8.918],[81.0102,8.929],[81.013,8.8911],[81.021,8.9048],[81.0589,8.8595],[81.0875,8.8584],[81.1048,8.8126],[81.2267,8.6475],[81.2208,8.6062],[81.2298,8.581],[81.2451,8.5793],[81.2471,8.5458],[81.2257,8.5323],[81.2261,8.5695],[81.1927,8.5665],[81.2119,8.5077],[81.1896,8.5018],[81.1977,8.4615],[81.2624,8.4569],[81.304,8.4326],[81.304,8.4583],[81.2958,8.4465],[81.2809,8.4568],[81.2831,8.5032],[81.3222,8.5224],[81.353,8.4909],[81.3937,8.3567],[81.4078,8.2419],[81.4769,8.0343],[81.5686,7.9227],[81.5874,7.921],[81.5671,7.8981],[81.593,7.83],[81.6268,7.8247],[81.6544,7.7729],[81.6999,7.7536],[81.7713,7.6448],[81.8718,7.3159],[81.8586,7.0907],[81.8813,7.0267],[81.8704,6.9789],[81.8489,6.9896],[81.8578,6.9672],[81.8729,6.9669],[81.8364,6.8853],[81.8518,6.8884],[81.8483,6.8675],[81.8397,6.8542],[81.8211,6.8621],[81.8444,6.8344],[81.8233,6.8088],[81.8249,6.7653],[81.8084,6.7647],[81.8279,6.7586],[81.7759,6.6639],[81.7664,6.592],[81.7324,6.5669],[81.7003,6.482],[81.6518,6.4367],[81.5973,6.4241],[81.6135,6.4056],[81.56,6.3612],[81.522,6.3525],[81.4869,6.3055],[81.3285,6.1945],[81.2222,6.1589],[81.1946,6.1576],[81.197,6.1776],[81.178,6.1441],[81.1336,6.1174],[81.0167,6.1071],[80.8659,6.0408],[80.8255,6.0415],[80.7202,5.9607],[80.6641,5.9575],[80.5868,5.9168],[80.5532,5.9411],[80.4489,5.9431],[80.4522,5.9588],[80.4357,5.969],[80.4179,5.955],[80.3828,5.9595],[80.2442,6.0069],[80.2285,6.0351],[80.2186,6.022],[80.0986,6.1289],[80.0314,6.2656],[80.0252,6.3364],[79.9746,6.464],[79.9866,6.4771],[79.9796,6.5149],[79.8687,6.8057],[79.8431,6.9333],[79.8712,6.9756],[79.869,7.0027],[79.819,7.1934],[79.8592,7.2756],[79.8445,7.2761],[79.8027,7.4826],[79.7977,7.7275],[79.7513,7.9316],[79.7064,8.0445],[79.699,8.1154],[79.7095,8.1343],[79.6984,8.2138],[79.7179,8.2167],[79.7381,8.28],[79.7812,8.3497],[79.7563,8.3071],[79.7511,8.2617],[79.7655,8.2739],[79.7573,8.2571],[79.7766,8.2541],[79.7688,8.2156],[79.7404,8.2008],[79.7492,8.1829],[79.7316,8.0868],[79.7541,8.0582],[79.7426,8.0],[79.8186,7.9719],[79.8082,7.8839],[79.8265,7.9206],[79.834,8.0071],[79.7896,8.0682],[79.8086,8.0611],[79.7948,8.0793],[79.8338,8.1396],[79.8154,8.2037],[79.7946,8.2203],[79.8095,8.2174],[79.7897,8.2301],[79.8101,8.2374],[79.8342,8.2919],[79.8476,8.2742],[79.8584,8.2846],[79.8362,8.3011],[79.8445,8.4289],[79.8632,8.4496],[79.8709,8.5352],[79.9263,8.559],[79.9193,8.5846],[79.9414,8.6155],[79.9558,8.7174],[79.9248,8.7907],[79.9401,8.8068],[79.9184,8.8083],[79.9307,8.8147],[79.919,8.8188],[79.9358,8.8913],[79.9122,8.9299],[80.0403,9.0133],[80.0661,9.0562],[80.0857,9.0999],[80.0761,9.1203],[80.1173,9.2072],[80.1116,9.2768],[80.1278,9.2906],[80.0676,9.3287],[80.0549,9.3914],[80.1466,9.4347],[80.1861,9.4827],[80.1461,9.5361],[80.054,9.5979],[80.0876,9.6249],[80.0176,9.6509],[79.971,9.7077],[79.948,9.6871],[79.9099,9.7587],[79.9772,9.8033],[80.1056,9.8059],[80.2147,9.8314],[80.2493,9.8236]]],[[[80.7852,15.8478],[80.7832,15.8385],[80.7824,15.8485],[80.7852,15.8478]]],[[[72.9389,18.9654],[72.9321,18.9527],[72.9234,18.9567],[72.9276,18.967],[72.9389,18.9654]]],[[[73.0595,19.016],[73.0493,19.0066],[73.0566,19.0171],[73.0595,19.016]]],[[[72.8495,19.3304],[72.8516,19.3378],[72.8684,19.3295],[72.8495,19.3304]]],[[[86.8016,20.4813],[86.8044,20.4821],[86.8014,20.4802],[86.8016,20.4813]]],[[[67.3815,24.0687],[67.3955,24.0633],[67.371,24.0874],[67.3626,24.1324],[67.4118,24.1233],[67.4245,24.1302],[67.3828,24.1326],[67.3453,24.1558],[67.3347,24.1763],[67.3545,24.1828],[67.3371,24.2265],[67.4016,24.2334],[67.4208,24.2098],[67.4312,24.2214],[67.4317,24.2472],[67.4212,24.2167],[67.4143,24.234],[67.3501,24.2542],[67.3613,24.2757],[67.3814,24.2732],[67.3934,24.2874],[67.3585,24.2837],[67.3259,24.2449],[67.2972,24.3074],[67.3299,24.3339],[67.3596,24.2907],[67.3386,24.3323],[67.3466,24.3428],[67.4109,24.3113],[67.4421,24.3161],[67.449,24.3322],[67.4906,24.3218],[67.5146,24.3424],[67.5291,24.3345],[67.5124,24.3526],[67.4873,24.3263],[67.4566,24.3422],[67.4343,24.3227],[67.3665,24.351],[67.369,24.3857],[67.4177,24.3865],[67.4229,24.3603],[67.4278,24.3918],[67.4158,24.4014],[67.3605,24.3877],[67.3491,24.4005],[67.4169,24.4368],[67.4646,24.4235],[67.4727,24.4269],[67.3902,24.4501],[67.3707,24.4367],[67.3834,24.4544],[67.3604,24.4608],[67.3951,24.4834],[67.4218,24.4644],[67.454,24.4622],[67.436,24.4797],[67.4213,24.4707],[67.4039,24.5064],[67.412,24.5215],[67.3919,24.5161],[67.4022,24.493],[67.3743,24.4721],[67.3094,24.4589],[67.3258,24.4653],[67.3282,24.4852],[67.3523,24.4797],[67.3702,24.5304],[67.3975,24.5246],[67.3987,24.5468],[67.3684,24.536],[67.3571,24.5504],[67.4136,24.5857],[67.4396,24.5746],[67.4071,24.5894],[67.3234,24.5491],[67.304,24.5532],[67.3152,24.5589],[67.299,24.5815],[67.3203,24.5757],[67.3231,24.5906],[67.371,24.6081],[67.3838,24.6377],[67.4069,24.6358],[67.4143,24.6494],[67.4405,24.6404],[67.4532,24.6537],[67.4416,24.6479],[67.4203,24.6727],[67.4325,24.6982],[67.3932,24.7046],[67.3515,24.7423],[67.3493,24.7629],[67.4528,24.7761],[67.4681,24.7538],[67.4491,24.7822],[68.0083,24.8453],[68.2984,25.236],[68.3778,25.5256],[68.3604,25.8304],[68.6983,26.1942],[69.014,26.123],[69.1586,25.0406],[70.0887,25.0001],[71.087,24.6874],[71.127,24.7266],[71.1928,24.7093],[74.1721,25.6501],[75.2973,28.8211],[75.3649,29.4844],[75.118,30.3194],[74.7161,31.0284],[74.6426,31.0331],[73.6292,30.9217],[73.1383,30.6861],[72.5886,30.5569],[72.4455,30.8222],[72.6305,31.1436],[72.6503,31.8128],[72.9539,32.0408],[73.3439,32.1517],[74.0272,32.9411],[74.5193,32.7534],[75.6731,32.5573],[77.2067,31.9239],[79.2866,29.503],[79.4274,29.4035],[80.1265,28.9945],[80.0563,28.9169],[80.0665,28.8335],[80.1143,28.8295],[80.193,28.7667],[80.2577,28.7526],[80.2538,28.7252],[80.3158,28.6989],[80.3224,28.6696],[80.3726,28.6293],[80.4428,28.6322],[80.472,28.5837],[80.5157,28.554],[80.5264,28.5702],[80.5017,28.6668],[80.5328,28.6876],[80.5771,28.6855],[80.5919,28.6478],[80.6615,28.6389],[80.7081,28.5708],[80.7531,28.5698],[80.8444,28.4921],[80.8745,28.5091],[80.8983,28.5005],[80.9051,28.4609],[80.9575,28.4472],[80.9727,28.4596],[80.9696,28.4344],[81.0093,28.4507],[81.0107,28.4321],[81.0304,28.4285],[81.0165,28.4108],[81.0289,28.3943],[81.0366,28.4078],[81.2066,28.3633],[81.2327,28.3252],[81.2345,28.2799],[81.3285,28.1875],[81.4454,28.1604],[81.482,28.117],[81.4808,28.0795],[81.6426,27.9962],[81.7003,27.9896],[81.8903,27.8585],[81.9189,27.8612],[81.9664,27.9303],[82.0616,27.925],[82.1165,27.8694],[82.2127,27.8396],[82.4446,27.6864],[82.701,27.722],[82.7568,27.5856],[82.756,27.5592],[82.7403,27.5622],[82.7611,27.5068],[82.8132,27.4958],[82.9233,27.5043],[82.9579,27.4674],[82.9968,27.4574],[83.1896,27.4538],[83.2671,27.3902],[83.2942,27.3351],[83.3489,27.3387],[83.3862,27.3741],[83.4083,27.4139],[83.3832,27.4356],[83.3995,27.4524],[83.3891,27.4803],[83.6241,27.4674],[83.864,27.3519],[83.8819,27.3806],[83.8342,27.4309],[83.8503,27.4446],[83.9146,27.4461],[84.6864,27.1892],[84.6751,27.1012],[84.6442,27.0491],[84.7481,27.0106],[84.7739,27.0197],[84.7901,27.0019],[84.8277,27.0222],[84.8656,26.9855],[84.9602,26.9629],[84.9758,26.9412],[84.968,26.9171],[85.0546,26.8906],[85.0264,26.8705],[85.0276,26.8554],[85.0657,26.8539],[85.1024,26.8762],[85.1873,26.8745],[85.18,26.8051],[85.2066,26.7671],[85.3309,26.7471],[85.4041,26.7947],[85.459,26.7903],[85.5693,26.8647],[85.5931,26.8545],[85.6143,26.8804],[85.7164,26.8259],[85.7301,26.7794],[86.9546,26.5385],[87.8014,25.7483],[88.184,24.9498],[88.1365,24.9281],[88.1612,24.8937],[88.1621,24.8487],[88.1471,24.8489],[88.1329,24.8134],[88.1164,24.821],[88.1053,24.7845],[88.0705,24.7683],[88.0721,24.7437],[88.0283,24.6883],[88.0839,24.6238],[88.1206,24.5219],[88.2037,24.4748],[88.342,24.438],[88.4102,24.3794],[88.6238,23.8747],[88.5956,23.859],[88.613,23.8052],[88.5749,23.7864],[88.5911,23.7603],[88.5706,23.6455],[88.603,23.6388],[88.5971,23.6018],[88.6524,23.6051],[88.6638,23.5518],[88.7371,23.5069],[88.7517,23.4772],[88.7774,23.4794],[88.7841,23.4994],[88.794,23.4454],[88.7721,23.4405],[88.7726,23.3715],[88.7365,23.3512],[88.7487,23.3149],[88.733,23.3231],[88.728,23.3049],[88.7124,23.3151],[88.7017,23.3034],[88.7279,23.2574],[88.7836,23.2425],[88.7908,23.2261],[88.8146,23.2243],[88.8183,23.2494],[88.83,23.2486],[88.8802,22.974],[88.8665,22.9578],[88.8834,22.9566],[88.9506,22.5893],[88.9531,22.5599],[88.9267,22.5599],[88.958,22.5489],[89.0635,21.9277],[88.102,21.9713],[88.0772,21.8586],[87.9742,21.8481],[87.9158,21.8039],[87.8866,21.803],[87.8924,21.7812],[87.8286,21.7222],[87.7551,21.7008],[87.7336,21.6785],[86.8219,21.5585],[86.8219,20.8084],[86.878,20.5843],[86.7655,20.5046],[86.7366,20.4397],[84.9807,19.3423],[83.5146,18.0466],[82.1507,17.0919],[82.2871,16.5804],[81.2301,16.3077],[80.8891,15.8303],[80.8112,15.8363],[80.7408,15.8775],[80.6054,15.8756],[80.5477,15.8566],[80.4459,15.8644],[80.392,15.7835],[80.2936,15.7047],[80.2494,15.6334],[80.2179,15.5224],[80.0957,15.329],[79.9003,14.671],[80.2754,13.2731],[79.9715,12.1925],[79.5935,11.5341],[79.7299,10.4431],[79.2866,10.3749],[79.0138,9.7952],[79.0138,9.7234],[78.9382,9.6016],[78.9235,9.5345],[78.5706,9.1815],[78.4936,9.1255],[78.4912,9.1361],[78.3671,9.0798],[78.2767,8.9996],[78.2658,9.0126],[78.2681,8.9925],[78.1937,8.9249],[78.025,8.5336],[77.65,8.1586],[76.84,8.5635],[76.4225,9.3179],[76.0815,10.4771],[75.8769,11.4319],[74.9563,12.6593],[74.7859,13.7845],[74.2728,14.6692],[74.2537,14.7068],[74.2633,14.7094],[74.2647,14.7201],[74.2582,14.7122],[74.2291,14.7445],[73.8451,15.4066],[73.8757,15.3984],[73.8899,15.4192],[73.8189,15.4517],[73.8022,15.4804],[73.8177,15.5046],[73.7953,15.4963],[72.9416,18.8195],[72.9886,18.7759],[72.999,18.7794],[72.9859,18.8052],[73.0578,18.8027],[72.9864,18.8137],[72.9821,18.8626],[72.9381,18.847],[72.9191,18.9071],[72.9395,18.8914],[72.9544,18.9179],[72.9451,18.941],[72.9772,18.9461],[72.9539,18.9701],[73.0908,18.9988],[73.0667,19.0143],[73.0847,19.0314],[73.0644,19.0292],[73.0904,19.0457],[73.0061,19.005],[72.9844,19.0708],[72.9952,19.0869],[72.9764,19.1069],[72.9764,19.1707],[72.9642,19.1353],[72.9522,19.1374],[72.9569,19.1077],[72.9307,19.0904],[72.9472,19.068],[72.9137,19.0744],[72.9517,19.0432],[72.8988,18.9927],[72.8423,19.2059],[72.8486,19.316],[72.9155,19.2908],[72.869,19.3343],[72.8502,19.3431],[72.9105,20.3992],[72.8806,20.5291],[72.8946,20.5296],[72.8828,20.5439],[72.8927,20.5834],[72.8736,20.6444],[72.9035,20.5969],[72.8864,20.6374],[72.9015,20.6429],[72.8967,20.7022],[72.9087,20.7111],[72.8907,20.7199],[72.9241,20.7558],[72.9519,20.755],[72.9425,20.7755],[72.9178,20.7699],[72.9199,20.7893],[72.91,20.7807],[72.8745,20.8015],[72.896,20.8134],[72.8756,20.8245],[72.8948,20.8665],[72.8268,20.8292],[72.8547,20.86],[72.8245,20.8829],[72.8351,20.9065],[72.8491,20.9044],[72.8239,20.9212],[72.8822,20.9546],[72.8765,20.9718],[72.8944,20.9825],[72.8308,20.9734],[72.8387,20.9855],[72.8052,20.9872],[72.827,21.014],[72.7709,21.0045],[72.7638,21.0349],[72.79,21.0461],[72.8068,21.0247],[72.8327,21.0271],[72.857,21.0392],[72.8419,21.0537],[72.8559,21.0658],[72.8297,21.0602],[72.8388,21.0687],[72.8227,21.0878],[72.8419,21.1137],[72.8215,21.0977],[72.8145,21.1053],[72.8304,21.1146],[72.8143,21.1191],[72.8114,21.1483],[72.8316,21.1672],[72.8059,21.1497],[72.8016,21.1242],[72.7904,21.1447],[72.7878,21.11],[72.7636,21.1227],[72.7569,21.1046],[72.7434,21.1234],[72.7002,21.3377],[72.7365,21.3238],[72.6985,21.3533],[72.6972,21.459],[72.6821,21.5008],[72.7409,21.5657],[72.8165,21.6136],[72.8406,21.6659],[72.9193,21.6478],[73.0375,21.7005],[73.0901,21.7051],[73.1077,21.7297],[73.064,21.7327],[72.9438,21.6753],[72.8728,21.6882],[72.7887,21.6599],[72.7389,21.6861],[72.6624,21.6774],[72.6419,21.8619],[72.6578,21.8942],[72.675,21.8872],[72.6786,21.912],[72.6878,21.886],[72.7223,21.8841],[72.7187,21.9318],[72.7786,21.9518],[72.746,21.988],[72.7719,22.0014],[72.7754,22.0168],[72.735,21.9912],[72.7186,22.0205],[72.718,21.9943],[72.7074,21.9796],[72.6933,21.9852],[72.6999,21.9716],[72.6719,21.9749],[72.6605,21.9605],[72.6465,21.9619],[72.6488,21.9881],[72.6368,22.0028],[72.6401,21.9548],[72.6005,22.2106],[72.6491,22.2145],[72.7419,22.1758],[72.7668,22.1936],[72.7581,22.2163],[72.7121,22.2444],[72.6726,22.2567],[72.6273,22.255],[72.6127,22.2672],[72.6495,22.2643],[72.6288,22.2759],[72.5679,22.2652],[72.6219,22.2837],[72.5592,22.2656],[72.5014,22.3428],[72.4273,22.206],[72.4151,22.2149],[72.4246,22.2009],[72.4007,22.1569],[72.381,22.1539],[72.3885,22.1924],[72.3709,22.1814],[72.3689,22.1449],[72.367,22.1858],[72.3907,22.2002],[72.3697,22.1934],[72.3821,22.2262],[72.3704,22.2843],[72.4013,22.3249],[72.3892,22.3311],[72.3581,22.313],[72.342,22.2572],[72.3322,22.2999],[72.3459,22.2239],[72.3116,22.1866],[72.2953,22.2249],[72.3209,22.1379],[72.242,22.0036],[72.2571,21.8918],[72.0581,21.5244],[71.649,21.013],[70.9509,20.7027],[70.8524,20.7055],[70.8269,20.6883],[70.6904,20.7436],[70.6749,20.7589],[70.6808,20.7778],[70.6564,20.7576],[70.6481,20.7725],[70.6113,20.7678],[70.4274,20.8606],[70.4116,20.8754],[70.4257,20.8804],[70.4029,20.8813],[70.0464,21.1835],[69.5945,21.6333],[69.5993,21.6524],[69.5839,21.6348],[69.5707,21.6422],[69.3693,21.8299],[69.3897,21.8509],[69.3638,21.835],[69.2963,21.8995],[69.1258,22.2064],[70.1487,22.4791],[70.2734,22.6038],[70.1984,22.6137],[70.2213,22.6293],[70.2419,22.683],[70.2655,22.6892],[70.2377,22.6953],[70.2559,22.7099],[70.2514,22.7324],[70.2887,22.7381],[70.3559,22.8761],[70.4429,22.9596],[70.4865,23.0526],[70.4856,23.0888],[70.4091,23.0363],[70.4029,23.0606],[70.3715,23.0588],[70.3624,23.0403],[70.3746,23.0183],[70.3943,23.0061],[70.2917,22.9434],[70.2374,22.973],[70.2032,22.9444],[70.1582,22.9416],[70.1211,22.9587],[70.1318,22.9827],[70.1208,22.9852],[70.104,22.9585],[70.1328,22.9342],[70.0933,22.9022],[70.0647,22.9131],[69.8084,22.8463],[69.7905,22.8206],[69.7341,22.7987],[69.7163,22.7535],[69.6953,22.7657],[69.7105,22.7461],[69.6886,22.7548],[69.7062,22.7367],[69.6524,22.758],[69.6279,22.8022],[69.6366,22.7697],[69.6022,22.7736],[69.6118,22.7581],[69.596,22.757],[69.5709,22.7617],[69.5553,22.7984],[69.5458,22.7861],[69.5019,22.7935],[69.5156,22.7862],[69.5052,22.7837],[69.4542,22.8002],[69.493,22.7751],[69.4671,22.7708],[69.3616,22.8195],[69.3614,22.8319],[69.2808,22.8226],[69.1975,22.8335],[68.933,22.984],[68.8553,23.0359],[68.8515,23.0544],[68.839,23.0443],[68.8097,23.0734],[68.7461,23.0885],[68.7718,23.1176],[68.7653,23.1318],[68.7339,23.1034],[68.6376,23.1626],[68.636,23.1777],[68.6922,23.1393],[68.7255,23.1478],[68.6553,23.1676],[68.6515,23.1936],[68.6239,23.1862],[68.5846,23.2211],[68.584,23.2396],[68.6458,23.2582],[68.6212,23.2839],[68.6509,23.2985],[68.6146,23.2985],[68.611,23.2713],[68.5884,23.2516],[68.5406,23.2668],[68.5446,23.2882],[68.5595,23.2887],[68.5525,23.3122],[68.5849,23.3052],[68.5844,23.3197],[68.6165,23.3244],[68.6182,23.3506],[68.6142,23.3278],[68.5609,23.3451],[68.5141,23.3201],[68.4995,23.3497],[68.4781,23.349],[68.5051,23.3966],[68.4955,23.4024],[68.5195,23.4173],[68.4855,23.4156],[68.4738,23.3863],[68.436,23.4214],[68.4389,23.3891],[68.3937,23.4216],[68.3886,23.4546],[68.4475,23.4758],[68.4187,23.5359],[68.4555,23.571],[68.4391,23.5684],[68.4662,23.5997],[68.4708,23.6367],[68.5457,23.7129],[68.6186,23.7489],[68.6581,23.7992],[68.6794,23.7916],[68.7146,23.8241],[68.766,23.8422],[68.7823,23.8606],[68.7697,23.876],[68.7628,23.8511],[68.726,23.8369],[68.6554,23.8397],[68.5235,23.7464],[68.5192,23.7731],[68.4902,23.7327],[68.4632,23.7386],[68.4329,23.7338],[68.3763,23.619],[68.3827,23.6079],[68.3096,23.5672],[68.2657,23.5683],[68.2784,23.6004],[68.2649,23.6325],[68.2594,23.6394],[68.225,23.6457],[68.2611,23.6547],[68.3259,23.726],[68.291,23.7243],[68.2403,23.6712],[68.1867,23.723],[68.2112,23.7699],[68.2074,23.8372],[68.2221,23.8313],[68.2408,23.8494],[68.2556,23.835],[68.2675,23.8377],[68.2573,23.8761],[68.2747,23.9179],[68.3065,23.9135],[68.3188,23.9236],[68.2745,23.9372],[68.2377,23.9002],[68.1856,23.8863],[68.1889,23.8501],[68.1361,23.8696],[68.1421,23.8397],[68.1035,23.8555],[68.1044,23.8432],[68.076,23.8332],[68.053,23.8538],[68.0553,23.903],[68.042,23.9119],[68.0277,23.8693],[68.0446,23.7949],[67.9962,23.7867],[67.9202,23.8517],[67.9298,23.829],[67.872,23.8586],[67.8653,23.9016],[67.9027,23.9647],[67.8939,23.9751],[67.8456,23.9092],[67.8274,23.8136],[67.709,23.8562],[67.7502,23.8015],[67.652,23.7945],[67.6269,23.8088],[67.6254,23.8429],[67.5834,23.8394],[67.5762,23.889],[67.5651,23.8683],[67.5355,23.893],[67.5335,23.8746],[67.4655,23.9066],[67.4661,23.9215],[67.491,23.9139],[67.4855,23.9374],[67.4661,23.9454],[67.5007,23.9699],[67.4224,23.9449],[67.4365,23.9907],[67.4083,24.0],[67.4218,24.0024],[67.4092,24.0392],[67.438,24.0636],[67.4181,24.0862],[67.4465,24.1203],[67.4088,24.084],[67.405,24.0764],[67.4014,24.0464],[67.3815,24.0687]]],[[[72.8807,20.6811],[72.89,20.6884],[72.8912,20.6843],[72.8807,20.6811]]],[[[72.877,20.7253],[72.8695,20.6904],[72.8584,20.7102],[72.8779,20.6457],[72.8474,20.7183],[72.8454,20.7442],[72.855,20.7205],[72.877,20.7253]]],[[[72.8752,20.7521],[72.8613,20.7556],[72.8767,20.754],[72.8752,20.7521]]],[[[72.8711,20.7696],[72.8696,20.7604],[72.8648,20.7678],[72.8711,20.7696]]],[[[72.9361,20.7636],[72.932,20.7705],[72.9412,20.7674],[72.9361,20.7636]]],[[[72.856,20.7635],[72.8404,20.7752],[72.8406,20.7799],[72.856,20.7635]]],[[[72.8407,20.7969],[72.8454,20.7961],[72.8404,20.7849],[72.8407,20.7969]]],[[[72.7971,20.891],[72.8226,20.8256],[72.8415,20.8054],[72.8261,20.8098],[72.8029,20.8655],[72.7971,20.891]]],[[[72.8144,20.9178],[72.8112,20.9064],[72.807,20.9073],[72.8144,20.9178]]],[[[72.7737,20.9922],[72.7824,20.9862],[72.7761,20.9819],[72.7737,20.9922]]],[[[72.8465,21.0385],[72.8357,21.0425],[72.8453,21.0424],[72.8465,21.0385]]],[[[72.807,21.6431],[72.7932,21.6206],[72.6902,21.5999],[72.674,21.5734],[72.6671,21.6356],[72.7358,21.6496],[72.7402,21.6376],[72.807,21.6431]]],[[[72.8784,21.6802],[72.8683,21.6724],[72.8578,21.6764],[72.8784,21.6802]]],[[[88.0788,21.7489],[88.1096,21.7525],[88.1176,21.729],[88.0606,21.7215],[88.0788,21.7489]]],[[[88.0966,21.7904],[88.0944,21.7905],[88.0954,21.794],[88.0966,21.7904]]],[[[72.6317,21.9541],[72.6314,21.9571],[72.6332,21.9546],[72.6317,21.9541]]],[[[72.6327,21.9615],[72.631,21.9602],[72.6306,21.9641],[72.6327,21.9615]]],[[[72.7317,22.2225],[72.6691,22.2351],[72.6615,22.2445],[72.7191,22.2376],[72.7317,22.2225]]]]}}