{"type":"Feature","properties":{"speciesId":51,"category":"LC","source":"IUCN Red List","simplifyTol":0.01,"clippedToSubcontinent":true},"geometry":{"type":"MultiPolygon","coordinates":[[[[92.457,10.8704],[92.5064,10.8952],[92.5439,10.8619],[92.5491,10.8035],[92.5764,10.7793],[92.5689,10.7433],[92.5828,10.7018],[92.5793,10.6721],[92.5594,10.6676],[92.5655,10.6512],[92.5231,10.6121],[92.5228,10.5895],[92.5511,10.5747],[92.5103,10.5126],[92.4776,10.5082],[92.4121,10.5461],[92.3769,10.5278],[92.3593,10.5358],[92.4001,10.6138],[92.3897,10.6486],[92.3643,10.6684],[92.36,10.7812],[92.3972,10.7866],[92.457,10.8704]]],[[[94.6843,16.31],[94.6779,16.2989],[94.6812,16.3123],[94.6843,16.31]]],[[[92.6285,11.4809],[92.6472,11.5116],[92.6874,11.4719],[92.6961,11.4248],[92.6624,11.4038],[92.7013,11.3901],[92.7041,11.3741],[92.6781,11.3536],[92.6151,11.3453],[92.5992,11.3593],[92.6072,11.3984],[92.6359,11.4002],[92.6285,11.4809]]],[[[93.0176,13.5421],[93.0372,13.5732],[93.0527,13.521],[93.0313,13.4264],[93.0571,13.3998],[93.071,13.4117],[93.0776,13.3959],[93.0571,13.3699],[93.068,13.3762],[93.0973,13.3308],[93.0743,13.2994],[93.0674,13.3212],[93.0493,13.3208],[93.0551,13.3434],[93.0489,13.3622],[93.0492,13.3458],[93.0125,13.3479],[92.997,13.3327],[93.0011,13.3111],[93.0174,13.3157],[93.0297,13.2917],[93.0187,13.2773],[93.0525,13.2773],[93.0538,13.2552],[93.0699,13.2607],[93.0423,13.1752],[93.0427,13.0787],[93.0156,13.0284],[92.9744,13.0348],[92.9736,13.0111],[92.9476,13.0372],[92.9494,13.0607],[92.9259,13.0594],[92.9073,13.0177],[92.9283,12.9817],[92.943,12.9856],[92.9417,12.9625],[92.9166,12.947],[92.9054,12.9924],[92.861,12.9163],[92.8832,12.9081],[92.8818,12.8933],[92.9044,12.8971],[92.9053,12.9217],[92.9301,12.9108],[92.9119,12.8845],[92.9347,12.8837],[92.9546,12.8349],[92.9607,12.8039],[92.9439,12.7715],[92.9701,12.7532],[92.9867,12.7118],[92.972,12.7042],[92.963,12.6164],[92.9835,12.5448],[92.9782,12.4943],[92.9701,12.4848],[92.9547,12.4977],[92.9416,12.4653],[92.9618,12.4753],[92.9644,12.4644],[92.9267,12.4451],[92.9264,12.4034],[92.8901,12.3769],[92.8818,12.3519],[92.8989,12.3484],[92.9081,12.329],[92.8886,12.3331],[92.9085,12.3179],[92.8681,12.3119],[92.8931,12.2807],[92.8963,12.2556],[92.8666,12.2446],[92.8891,12.1885],[92.8597,12.2014],[92.8575,12.1639],[92.8281,12.1586],[92.8124,12.1299],[92.8178,12.1007],[92.8049,12.1042],[92.8001,12.0811],[92.77,12.0633],[92.7686,12.0479],[92.793,12.0402],[92.7888,12.0238],[92.7489,12.035],[92.7412,12.0183],[92.7649,11.997],[92.7344,11.9874],[92.7453,11.964],[92.7249,11.9246],[92.7887,11.9361],[92.7999,11.8769],[92.7702,11.7022],[92.7534,11.7164],[92.7444,11.6818],[92.7675,11.666],[92.764,11.6181],[92.7214,11.4793],[92.7099,11.5102],[92.6837,11.5027],[92.6599,11.5182],[92.6571,11.578],[92.6411,11.5863],[92.6339,11.5639],[92.6201,11.615],[92.6512,11.6092],[92.6588,11.6434],[92.6494,11.6366],[92.6455,11.6596],[92.6397,11.6289],[92.6222,11.6329],[92.5993,11.7157],[92.5723,11.6971],[92.5571,11.8291],[92.5342,11.8264],[92.526,11.8449],[92.5374,11.89],[92.5741,11.9336],[92.6025,11.8786],[92.6244,11.9202],[92.6201,12.0029],[92.6383,12.0382],[92.6309,12.0922],[92.6529,12.1793],[92.6696,12.2162],[92.662,12.1797],[92.6836,12.2184],[92.6872,12.1956],[92.7243,12.307],[92.7085,12.3296],[92.7149,12.4894],[92.7026,12.5079],[92.7174,12.5638],[92.6939,12.5977],[92.7153,12.6075],[92.7252,12.6362],[92.7287,12.6197],[92.7426,12.6302],[92.756,12.6641],[92.7359,12.6873],[92.7531,12.6944],[92.7429,12.7012],[92.7549,12.7161],[92.7403,12.7338],[92.7318,12.8278],[92.7466,12.8117],[92.7462,12.8333],[92.7534,12.8242],[92.7711,12.8597],[92.7846,12.8392],[92.7786,12.8607],[92.7997,12.8622],[92.816,12.8983],[92.8015,12.9766],[92.8071,12.9891],[92.8246,12.9816],[92.8106,12.9954],[92.8338,13.0086],[92.7973,13.0152],[92.8049,13.089],[92.8178,13.0731],[92.8121,13.0953],[92.8299,13.0949],[92.8173,13.1249],[92.8489,13.1246],[92.8524,13.1401],[92.8196,13.1521],[92.8222,13.1689],[92.8417,13.1687],[92.8251,13.1786],[92.8337,13.2316],[92.8585,13.2366],[92.8296,13.2811],[92.8474,13.2968],[92.8321,13.3037],[92.8402,13.3567],[92.8737,13.38],[92.8487,13.3959],[92.8746,13.3986],[92.8906,13.4258],[92.8836,13.4678],[92.9314,13.494],[92.9209,13.5042],[92.9334,13.5173],[92.9194,13.5235],[92.9711,13.5387],[92.9934,13.5246],[92.9952,13.5646],[93.0176,13.5421]]],[[[92.6943,12.9877],[92.7166,12.9915],[92.7288,12.9772],[92.729,12.9017],[92.7056,12.841],[92.6846,12.8347],[92.6958,12.8199],[92.6783,12.7863],[92.6596,12.8588],[92.6862,12.9395],[92.6758,12.9594],[92.6943,12.9877]]],[[[94.6827,16.2978],[94.7048,16.3606],[94.7371,16.354],[94.7548,16.3841],[94.7858,16.3564],[94.8134,16.3559],[94.8254,16.3704],[94.7948,16.3601],[94.7519,16.3905],[94.7347,16.3608],[94.7116,16.376],[94.7432,16.4022],[94.75,16.4194],[94.7586,16.4096],[94.7705,16.4093],[94.7839,16.4261],[94.7588,16.4137],[94.7478,16.4265],[94.7126,16.3942],[94.6965,16.4844],[94.7322,16.5056],[94.7463,16.569],[94.7897,16.5778],[94.8004,16.5907],[94.7465,16.5768],[94.7281,16.5145],[94.6898,16.4927],[94.6782,16.5132],[94.7012,16.5517],[94.7103,16.6135],[94.7423,16.6328],[94.7216,16.6873],[94.7447,16.6957],[94.7416,16.7301],[94.7218,16.7336],[94.738,16.7245],[94.7361,16.7004],[94.7173,16.6913],[94.7097,16.6537],[94.733,16.629],[94.6784,16.6436],[94.6989,16.6798],[94.6889,16.7396],[94.6936,16.6767],[94.6754,16.6933],[94.6823,16.6714],[94.6688,16.6524],[94.6511,16.6702],[94.6557,16.6579],[94.6743,16.6497],[94.6581,16.6276],[94.6913,16.6391],[94.7012,16.6217],[94.6924,16.5549],[94.6644,16.5184],[94.6796,16.3932],[94.6529,16.3403],[94.6233,16.338],[94.6403,16.3836],[94.6062,16.3372],[94.6021,16.2844],[94.5648,16.2582],[94.5311,16.2921],[94.5464,16.308],[94.5265,16.2987],[94.5119,16.2832],[94.5109,16.1802],[94.4336,16.0697],[94.3681,16.0546],[94.3419,16.0163],[94.2827,16.0],[94.2435,15.9541],[94.1976,16.0363],[94.2285,16.2519],[94.2433,16.2647],[94.2309,16.3217],[94.2643,16.3968],[94.2771,16.4963],[94.2615,16.5308],[94.2907,16.5386],[94.2897,16.5191],[94.3149,16.5196],[94.3503,16.5688],[94.3234,16.6004],[94.3508,16.6207],[94.3679,16.6149],[94.3563,16.6903],[94.3759,16.7572],[94.4039,16.7884],[94.3788,16.8748],[94.3885,16.907],[94.4106,16.8895],[94.4434,16.9306],[94.484,16.9432],[94.4782,16.9576],[94.443,16.9481],[94.4582,16.9806],[94.4567,17.0673],[94.4896,17.1177],[94.4558,17.1417],[94.4447,17.179],[94.4644,17.1882],[94.4993,17.1568],[94.5216,17.1687],[94.5363,17.1869],[94.5014,17.2162],[94.5083,17.2999],[94.5264,17.2768],[94.5464,17.2903],[94.5409,17.319],[94.5815,17.2885],[94.5917,17.3042],[94.5715,17.3171],[94.5654,17.4983],[94.5416,17.5488],[94.563,17.5931],[94.6099,17.5365],[94.6111,17.5501],[94.5769,17.5914],[94.5884,17.6192],[94.5693,17.6453],[94.5588,17.6362],[94.5416,17.6813],[94.5448,17.7349],[94.4898,17.7824],[94.4815,17.9029],[94.4375,17.9956],[94.4777,18.0065],[94.4847,18.0557],[94.4469,18.1691],[94.4208,18.1909],[94.4268,18.2197],[94.4075,18.2462],[94.3372,18.2416],[94.3221,18.2642],[94.3284,18.302],[94.3911,18.2835],[94.4074,18.3107],[94.4023,18.3463],[94.3816,18.3656],[94.3376,18.3662],[94.3225,18.4359],[94.2492,18.5245],[94.2626,18.5486],[94.2513,18.5468],[94.2579,18.6085],[94.2402,18.6458],[94.1409,18.736],[94.1743,18.7141],[94.1745,18.7283],[94.2197,18.7182],[94.28,18.7351],[94.253,18.7341],[94.2492,18.7552],[94.2388,18.7347],[94.2169,18.731],[94.2064,18.7431],[94.2243,18.7812],[94.2039,18.7527],[94.1916,18.7712],[94.1994,18.7931],[94.1831,18.7796],[94.1466,18.8144],[94.1762,18.8347],[94.1458,18.8353],[94.1523,18.8795],[94.1696,18.89],[94.1467,18.8848],[94.127,18.8567],[94.1169,18.8566],[94.1287,18.8786],[94.0553,18.8461],[94.0309,18.8633],[94.0439,18.8846],[94.0738,18.8676],[94.0906,18.8806],[94.1057,18.8997],[94.1353,18.8919],[94.1086,18.9296],[94.113,18.9662],[94.0864,18.8797],[94.0718,18.8743],[94.031,18.9005],[94.0552,18.9352],[94.0364,18.9913],[94.0632,19.0376],[94.0586,19.0598],[94.1021,19.0766],[94.0897,19.0849],[94.097,19.0986],[94.1228,19.0846],[94.109,19.1051],[94.1466,19.1191],[94.1161,19.1204],[94.0545,19.0754],[94.0272,19.0792],[94.0375,19.1067],[94.1385,19.1514],[94.1357,19.1796],[94.1295,19.1561],[94.1075,19.1513],[94.0927,19.1822],[94.0911,19.1484],[94.0648,19.1263],[94.0735,19.165],[94.0624,19.1881],[94.0568,19.1255],[94.0329,19.1296],[94.0492,19.2206],[94.0711,19.2339],[94.0469,19.2483],[94.0435,19.3119],[94.0762,19.3746],[94.0686,19.3853],[94.0315,19.3281],[94.0354,19.2177],[94.0163,19.1814],[93.9914,19.2229],[94.0,19.1502],[93.9663,19.1394],[93.9439,19.1562],[93.9453,19.1934],[93.9092,19.1995],[93.9677,19.1238],[93.9534,19.0885],[93.9557,19.0208],[93.9858,18.9614],[93.9324,18.8475],[93.8923,18.8923],[93.7728,18.9664],[93.7448,18.9689],[93.7151,19.0075],[93.6742,19.0103],[93.6659,19.0664],[93.6901,19.0844],[93.6976,19.1146],[93.7476,19.1213],[93.6942,19.1196],[93.6897,19.0961],[93.6629,19.0763],[93.6393,19.1378],[93.5993,19.1513],[93.5699,19.2256],[93.4722,19.3669],[93.4841,19.4091],[93.5135,19.4341],[93.5509,19.4324],[93.568,19.4163],[93.5514,19.4101],[93.5682,19.4046],[93.6041,19.4144],[93.6374,19.3542],[93.6342,19.3399],[93.6172,19.3482],[93.6001,19.3227],[93.6214,19.3411],[93.6672,19.3022],[93.6417,19.2398],[93.6446,19.2238],[93.6815,19.3001],[93.7215,19.2926],[93.6948,19.2819],[93.7269,19.2754],[93.7207,19.2445],[93.739,19.2567],[93.809,19.2263],[93.8733,19.2466],[93.9559,19.3061],[93.9498,19.3369],[93.9722,19.3514],[93.9817,19.3851],[94.0108,19.381],[93.9834,19.4055],[93.9663,19.3584],[93.8921,19.2916],[93.8818,19.3076],[93.9191,19.3345],[93.9218,19.3773],[93.9111,19.3353],[93.8842,19.3196],[93.8889,19.3534],[93.8589,19.3878],[93.8824,19.3531],[93.8692,19.3068],[93.7751,19.3011],[93.7392,19.3449],[93.7463,19.3542],[93.7753,19.3404],[93.78,19.3542],[93.7704,19.3446],[93.7533,19.3576],[93.7323,19.3566],[93.7319,19.3826],[93.7121,19.4014],[93.7393,19.4088],[93.6516,19.4445],[93.6372,19.4889],[93.6546,19.4919],[93.6468,19.5122],[93.6875,19.5654],[93.7462,19.5422],[93.7688,19.4853],[93.7758,19.5037],[93.7933,19.5003],[93.8187,19.4643],[93.8567,19.4843],[93.8585,19.4404],[93.877,19.473],[93.9764,19.4188],[93.9971,19.4526],[93.9766,19.4629],[93.9536,19.4479],[93.9046,19.4681],[93.9484,19.5081],[93.9383,19.564],[93.9324,19.4985],[93.9024,19.4885],[93.7768,19.5911],[93.8164,19.6042],[93.7935,19.614],[93.7602,19.5991],[93.722,19.6265],[93.7476,19.6525],[93.7943,19.6598],[93.7882,19.6815],[93.8193,19.7111],[93.8066,19.7392],[93.7986,19.7014],[93.727,19.6711],[93.7059,19.7028],[93.7208,19.7482],[93.7914,19.7691],[93.7862,19.8628],[93.7979,19.8666],[93.8012,19.891],[93.7933,19.916],[93.7937,19.873],[93.7386,19.8852],[93.7145,19.9079],[93.7457,19.9152],[93.7085,19.9375],[93.7091,19.9673],[93.702,19.9144],[93.6219,19.9171],[93.5518,19.8885],[93.5419,19.9036],[93.5754,19.9201],[93.5867,19.9378],[93.5688,19.9212],[93.5416,19.924],[93.546,19.9363],[93.5161,19.9234],[93.5121,19.9438],[93.5365,19.9552],[93.5085,19.9613],[93.5071,19.9748],[93.5401,19.9909],[93.4818,19.9914],[93.4674,20.0443],[93.4584,20.0541],[93.4762,20.0609],[93.4548,20.0552],[93.4762,20.0065],[93.4661,19.9825],[93.4392,19.9925],[93.4567,19.95],[93.416,19.9708],[93.3807,20.0659],[93.3841,20.0801],[93.4167,20.0799],[93.4148,20.1121],[93.4329,20.1052],[93.3623,20.2736],[93.343,20.2772],[93.3234,20.3298],[93.2966,20.33],[93.3259,20.3859],[93.3254,20.4036],[93.2801,20.3282],[93.2398,20.306],[93.2306,20.2739],[93.2464,20.2454],[93.2099,20.2347],[93.1825,20.1969],[93.117,20.1857],[93.2165,20.2861],[93.2259,20.3076],[93.2124,20.3278],[93.2512,20.4261],[93.2252,20.3917],[93.198,20.3871],[93.2235,20.376],[93.203,20.3226],[93.1243,20.3281],[93.1374,20.3425],[93.1321,20.3693],[93.1564,20.3591],[93.1748,20.3741],[93.1292,20.3762],[93.1742,20.3994],[93.1647,20.422],[93.1681,20.4002],[93.0939,20.3797],[93.0884,20.4013],[93.1167,20.4272],[93.107,20.5041],[93.087,20.5198],[93.1051,20.5307],[93.0919,20.53],[93.0701,20.602],[93.0483,20.5976],[93.0218,20.6219],[93.0277,20.6439],[93.0056,20.6398],[93.0178,20.6122],[93.0757,20.5791],[93.081,20.5411],[93.0258,20.4274],[93.0173,20.454],[93.0427,20.4633],[93.0402,20.4931],[93.0636,20.5246],[93.0351,20.5378],[93.0556,20.5207],[93.0196,20.4791],[93.0333,20.4857],[93.0386,20.4686],[93.0135,20.4606],[93.0243,20.3894],[93.0039,20.2776],[92.963,20.2257],[92.9449,20.2674],[92.915,20.2419],[92.9146,20.2122],[92.8862,20.2095],[92.9203,20.1809],[92.8966,20.1094],[92.8531,20.1232],[92.7694,20.1934],[92.7873,20.2401],[92.7969,20.2102],[92.8305,20.1804],[92.8458,20.1823],[92.799,20.2141],[92.7988,20.2582],[92.9446,20.3156],[92.8982,20.3078],[92.8393,20.3808],[92.9108,20.3717],[92.9315,20.3863],[92.9417,20.3522],[92.9508,20.3739],[92.9127,20.414],[92.9289,20.4211],[92.9326,20.4327],[92.8983,20.4822],[92.9285,20.4299],[92.9072,20.421],[92.9174,20.3833],[92.9063,20.3787],[92.8867,20.4218],[92.8866,20.4039],[92.8571,20.4195],[92.8637,20.4051],[92.8418,20.4017],[92.8166,20.4429],[92.8337,20.4407],[92.8383,20.4688],[92.8487,20.4591],[92.8275,20.4968],[92.8108,20.4924],[92.7961,20.5101],[92.7639,20.4734],[92.7523,20.4794],[92.7322,20.5696],[92.7486,20.5782],[92.7524,20.5868],[92.7467,20.5986],[92.7266,20.6168],[92.7482,20.5876],[92.7311,20.5792],[92.6844,20.6278],[92.6456,20.6891],[92.6451,20.7277],[92.5832,20.7199],[92.591,20.732],[92.5697,20.7796],[92.5997,20.7956],[92.6024,20.8064],[92.5649,20.7864],[92.5494,20.8493],[92.5449,20.8118],[92.5713,20.7516],[92.5466,20.7631],[92.5441,20.7431],[92.591,20.6851],[92.6395,20.6883],[92.6954,20.5825],[92.7292,20.5496],[92.72,20.4706],[92.7478,20.4143],[92.7299,20.2954],[92.747,20.2559],[92.7284,20.26],[92.638,20.4332],[92.5281,20.5435],[92.5133,20.5993],[92.4597,20.649],[92.4661,20.6597],[92.3774,20.6957],[92.3877,20.7048],[92.3611,20.7723],[92.3901,20.8168],[92.3787,20.8246],[92.3584,20.7833],[92.3353,20.8433],[92.3602,20.8647],[92.3366,20.8509],[92.3146,20.8826],[92.3164,20.901],[92.3619,20.9419],[92.3477,20.9871],[92.3313,20.9978],[92.2968,20.9872],[92.2891,21.0036],[92.2933,20.9801],[92.2798,20.9694],[92.2694,21.0182],[92.2887,21.0225],[92.2646,21.0357],[92.3128,21.0579],[92.3122,21.0703],[92.2734,21.0458],[92.2298,21.1046],[92.2243,21.1365],[92.198,21.1546],[92.1976,21.1198],[92.255,21.0615],[92.2611,20.9362],[92.3351,20.7773],[92.3385,20.7461],[92.3059,20.751],[92.2117,20.9253],[92.1847,21.0139],[92.0533,21.1632],[92.0496,21.2642],[92.0289,21.3402],[91.9535,21.4502],[91.9993,21.5054],[92.0221,21.4864],[91.9963,21.5656],[92.0246,21.6034],[92.0184,21.6251],[92.0405,21.6722],[92.0251,21.6822],[92.0352,21.7006],[92.021,21.7182],[92.0119,21.6601],[91.9852,21.6542],[91.9741,21.6664],[91.9841,21.6875],[91.9796,21.7042],[91.9766,21.6841],[91.9617,21.6831],[91.9481,21.7453],[91.9694,21.7384],[91.9964,21.7558],[91.9924,21.7678],[91.9716,21.7472],[91.9545,21.7539],[91.9706,21.7862],[91.9424,21.8042],[91.9308,21.7855],[91.8912,21.7773],[91.9199,21.8473],[91.9095,21.9079],[91.9274,21.9345],[91.8949,21.9689],[91.8857,22.0295],[92.0344,22.0445],[92.1937,22.0229],[92.4574,21.904],[92.6083,21.7659],[94.5398,19.4072],[95.3139,18.6555],[95.9382,18.2199],[96.1903,18.0874],[97.2653,17.6909],[97.4276,17.5709],[97.7072,17.1062],[98.0,16.4443],[98.0,14.4825],[97.9851,14.4713],[97.9669,14.4417],[97.9654,14.4261],[97.9408,14.5262],[97.9058,14.5783],[97.9134,14.6195],[97.9047,14.6107],[97.8728,14.671],[97.8944,14.7054],[97.8855,14.7229],[97.8678,14.7078],[97.8392,14.7188],[97.7917,14.8683],[97.8083,14.9501],[97.7969,14.9972],[97.8132,15.0062],[97.8244,15.0243],[97.791,14.9984],[97.7707,15.0183],[97.7958,15.0271],[97.8063,15.1503],[97.787,15.1795],[97.7951,15.1903],[97.7653,15.1971],[97.7387,15.2445],[97.7417,15.295],[97.7215,15.3328],[97.7274,15.3548],[97.7469,15.3561],[97.7465,15.3837],[97.7828,15.397],[97.7408,15.4871],[97.762,15.5281],[97.6994,15.7541],[97.7217,15.7717],[97.7179,15.8434],[97.6754,15.9144],[97.6103,15.949],[97.6035,15.9803],[97.5713,16.0108],[97.5582,16.0726],[97.5967,16.0851],[97.6143,16.0611],[97.6277,16.0504],[97.648,16.0442],[97.6654,16.0486],[97.6772,16.0283],[97.6969,16.0274],[97.6673,16.0521],[97.6202,16.0587],[97.6072,16.1036],[97.5978,16.097],[97.6438,16.27],[97.6155,16.3556],[97.6294,16.3873],[97.6141,16.4256],[97.6284,16.4532],[97.6253,16.5],[97.6621,16.5123],[97.6624,16.4765],[97.6823,16.4655],[97.7025,16.4706],[97.7044,16.4501],[97.7232,16.4502],[97.7199,16.4268],[97.7539,16.4141],[97.7355,16.4023],[97.7334,16.3833],[97.7784,16.3746],[97.7974,16.354],[97.7858,16.3396],[97.7874,16.3327],[97.8346,16.3236],[97.8601,16.2918],[97.8887,16.2862],[97.8521,16.3024],[97.8441,16.3234],[97.7924,16.3327],[97.8031,16.3534],[97.7905,16.3703],[97.7614,16.386],[97.7372,16.386],[97.7578,16.4177],[97.7289,16.4247],[97.7259,16.4541],[97.7068,16.4536],[97.7023,16.474],[97.6641,16.48],[97.6755,16.5007],[97.6684,16.5455],[97.7465,16.5616],[97.7089,16.5706],[97.6685,16.5549],[97.6214,16.6432],[97.6076,16.581],[97.6264,16.5585],[97.6215,16.5187],[97.5325,16.5376],[97.4886,16.5387],[97.481,16.5218],[97.3928,16.5251],[97.3629,16.479],[97.3284,16.6589],[97.3466,16.6471],[97.3939,16.64],[97.4108,16.6424],[97.4241,16.6584],[97.3928,16.6437],[97.3457,16.6544],[97.3406,16.6666],[97.3578,16.6694],[97.3476,16.6786],[97.328,16.6669],[97.3301,16.6963],[97.3439,16.6953],[97.3419,16.7341],[97.3402,16.7096],[97.3207,16.7102],[97.3185,16.6679],[97.2772,16.6862],[97.2398,16.7684],[97.2498,16.8225],[97.2349,16.8088],[97.2226,16.8417],[97.227,16.8573],[97.2664,16.8441],[97.2781,16.8505],[97.2659,16.8701],[97.265,16.8481],[97.2228,16.8672],[97.2092,16.8129],[97.1998,16.8823],[97.2181,16.9017],[97.2191,16.9379],[97.1906,16.8911],[97.1749,16.8905],[97.1693,16.9107],[97.2072,17.008],[97.1547,17.0679],[97.1533,17.0952],[97.1909,17.1169],[97.2134,17.0874],[97.2646,17.1036],[97.2278,17.1029],[97.2063,17.1338],[97.1791,17.1294],[97.1365,17.1162],[97.1343,17.0806],[97.1143,17.0778],[97.0887,17.1652],[97.1067,17.1878],[97.0833,17.1817],[97.0592,17.2533],[97.0003,17.2668],[97.0091,17.3],[96.9116,17.357],[96.8832,17.4541],[96.8649,17.3961],[96.8434,17.3893],[96.849,17.4134],[96.7859,17.4899],[96.7344,17.4353],[96.7735,17.3764],[96.7225,17.3474],[96.6924,17.3664],[96.6498,17.3383],[96.6683,17.2691],[96.6962,17.2479],[96.7086,17.2545],[96.6769,17.2675],[96.6854,17.3453],[96.7251,17.3382],[96.8366,17.3809],[96.8401,17.3648],[96.8443,17.3762],[96.8597,17.3614],[96.856,17.3431],[96.863,17.3527],[96.9111,17.3214],[96.8907,17.3119],[96.9129,17.3049],[96.9024,17.2717],[96.8335,17.2052],[96.8487,17.2008],[96.8771,17.1122],[96.9001,17.0889],[96.9121,17.0177],[96.8737,16.911],[96.8383,16.9272],[96.8509,16.9591],[96.8346,16.9511],[96.8316,16.9194],[96.8552,16.8876],[96.8359,16.9046],[96.8251,16.8937],[96.8073,16.9106],[96.7968,16.9065],[96.8333,16.8788],[96.8531,16.8372],[96.8078,16.7555],[96.7808,16.7817],[96.7746,16.7731],[96.8013,16.7397],[96.7713,16.6916],[96.5964,16.5366],[96.4938,16.5046],[96.3837,16.4966],[96.2847,16.5537],[96.2867,16.5918],[96.3336,16.6234],[96.4269,16.6076],[96.4699,16.6127],[96.3313,16.6287],[96.2874,16.6001],[96.2777,16.5775],[96.2637,16.6474],[96.2348,16.6789],[96.2228,16.7542],[96.3156,16.8334],[96.3456,16.8334],[96.3941,16.8594],[96.4084,16.8552],[96.4861,16.8699],[96.5119,16.8882],[96.4839,16.8731],[96.3948,16.864],[96.3244,16.8384],[96.32,16.869],[96.3477,16.9059],[96.3007,16.8638],[96.298,16.8408],[96.2776,16.8693],[96.3037,16.8261],[96.2035,16.7632],[96.1848,16.7765],[96.195,16.7898],[96.1915,16.7999],[96.2124,16.7983],[96.2246,16.8111],[96.2182,16.8412],[96.2089,16.8458],[96.2203,16.8109],[96.1917,16.8059],[96.1802,16.7768],[96.1973,16.7597],[96.1288,16.7711],[96.1208,16.8137],[96.1155,16.8122],[96.1319,16.7589],[96.119,16.7566],[96.1921,16.7409],[96.2158,16.6707],[96.2461,16.636],[96.2366,16.6077],[96.1735,16.5831],[96.1736,16.5163],[96.1926,16.4892],[96.1754,16.4635],[96.1417,16.4537],[96.1628,16.4177],[96.0771,16.3572],[96.0173,16.3845],[95.9964,16.4107],[95.9121,16.4109],[95.9275,16.385],[95.8912,16.2446],[95.7786,16.1291],[95.7544,16.1266],[95.7404,16.1452],[95.7269,16.264],[95.7096,16.2731],[95.7229,16.2566],[95.7382,16.113],[95.6966,16.046],[95.6931,15.9993],[95.6483,15.9258],[95.5158,15.7881],[95.4264,15.7213],[95.358,15.7039],[95.2868,15.7187],[95.2704,15.8008],[95.2791,15.8463],[95.3045,15.8527],[95.2973,15.8621],[95.3195,15.8808],[95.3399,15.88],[95.3404,15.9023],[95.3479,15.8805],[95.3809,15.8721],[95.3989,15.8768],[95.4126,15.9056],[95.3871,15.8768],[95.3534,15.8849],[95.3388,15.9054],[95.3356,15.8829],[95.3225,15.8868],[95.2984,15.8701],[95.3477,15.9473],[95.364,16.0503],[95.3962,16.0616],[95.3628,16.0583],[95.3368,16.0993],[95.3706,16.1492],[95.3907,16.2396],[95.3144,16.1801],[95.3053,16.143],[95.3266,16.0873],[95.2792,16.0394],[95.2352,15.9326],[95.2101,15.8565],[95.2245,15.7932],[95.1768,15.7679],[95.1123,15.8061],[95.1257,15.9908],[95.1415,16.0256],[95.1896,16.0246],[95.1927,16.0799],[95.2671,16.1495],[95.1911,16.1138],[95.2079,16.1777],[95.1799,16.1374],[95.1526,16.1389],[95.165,16.1263],[95.1328,16.1239],[95.1408,16.2315],[95.1236,16.2066],[95.1323,16.1672],[95.1198,16.1153],[95.0867,16.0923],[95.0561,16.0354],[95.0701,15.9441],[95.0369,15.8038],[95.0011,15.7788],[94.9868,15.7848],[94.9843,15.8484],[94.9821,15.76],[94.9391,15.7409],[94.8428,15.7733],[94.832,15.7955],[94.8893,15.8274],[94.8713,15.8954],[94.9508,15.9456],[94.9443,15.9536],[94.8637,15.8968],[94.873,15.8249],[94.845,15.8298],[94.8373,15.8467],[94.8501,15.8762],[94.8241,15.9493],[94.8619,16.0],[94.9145,16.0],[94.9218,16.0306],[94.9054,16.0748],[94.9333,16.0861],[94.9556,16.131],[95.0226,16.1351],[95.0225,16.1603],[95.0557,16.1994],[95.0566,16.2159],[95.0465,16.2391],[95.0693,16.2458],[95.1006,16.3006],[95.0652,16.2477],[95.0432,16.2457],[95.0479,16.1971],[95.0137,16.1616],[95.0162,16.1437],[94.9529,16.1388],[94.9304,16.0942],[94.9029,16.083],[94.9154,16.0299],[94.8918,16.0061],[94.8785,16.0115],[94.8656,16.1351],[94.8888,16.1817],[94.9573,16.1962],[95.0257,16.2628],[95.0421,16.3097],[95.0649,16.3114],[95.0509,16.3127],[95.0505,16.3334],[95.0165,16.2669],[94.9522,16.211],[94.8726,16.1872],[94.8388,16.1108],[94.8497,16.0723],[94.7987,15.989],[94.7996,15.9677],[94.7194,15.8504],[94.6856,15.8371],[94.634,15.8613],[94.6005,15.9202],[94.7184,16.0],[94.7362,16.0636],[94.7845,16.0965],[94.763,16.1241],[94.7876,16.1316],[94.8071,16.1998],[94.8374,16.2115],[94.8529,16.2398],[94.8035,16.2062],[94.7764,16.1448],[94.7554,16.1316],[94.7516,16.0937],[94.7196,16.0669],[94.6841,16.0],[94.5696,15.9289],[94.5501,15.966],[94.5608,15.9567],[94.6846,16.1148],[94.6806,16.2026],[94.7209,16.2029],[94.7589,16.2373],[94.7395,16.2574],[94.7567,16.2809],[94.7336,16.2564],[94.7496,16.2377],[94.7262,16.2305],[94.7192,16.2091],[94.6748,16.2152],[94.6636,16.2472],[94.6981,16.2454],[94.7087,16.2549],[94.7058,16.2669],[94.6983,16.2493],[94.6636,16.2541],[94.6827,16.2978]]],[[[98.0,14.2877],[97.9679,14.3954],[98.0,14.4789],[98.0,14.2877]]]]}}