{"type":"Feature","properties":{"speciesId":513,"category":"NT","source":"IUCN Red List","simplifyTol":0.01,"clippedToSubcontinent":true},"geometry":{"type":"Polygon","coordinates":[[[73.8332,15.5042],[74.0583,15.993],[74.184,16.1207],[74.6989,15.1243],[74.8649,14.5932],[75.0143,14.1948],[75.2135,13.813],[75.3463,13.5972],[75.4791,13.2653],[75.5786,12.5681],[75.6284,12.3689],[76.0434,12.0204],[76.143,11.8876],[76.5248,10.6924],[76.5248,10.4103],[76.4584,10.1945],[76.1928,10.2609],[76.0483,10.492],[76.0639,10.4735],[76.0463,10.5317],[76.0317,10.5264],[76.0233,10.5405],[75.9106,10.9912],[75.728,11.4394],[75.5952,11.6718],[75.3795,11.871],[75.1637,12.1199],[74.9479,12.7673],[74.7653,13.2487],[74.6491,13.8296],[74.4499,14.2114],[74.4024,14.346],[74.3953,14.4186],[74.3779,14.4155],[74.2507,14.7758],[74.035,15.0247],[73.9022,15.4065],[73.8332,15.5042]]]}}