{"type":"Feature","properties":{"speciesId":516,"category":"LC","source":"IUCN Red List","simplifyTol":0.01,"clippedToSubcontinent":true},"geometry":{"type":"MultiPolygon","coordinates":[[[[77.4037,8.4013],[77.0255,8.5111],[76.9051,8.5874],[76.9066,8.6977],[76.9645,8.7794],[77.0255,8.8038],[77.1963,8.8282],[77.3063,8.7844],[77.3915,8.7184],[77.5256,8.6696],[77.5796,8.5727],[77.5134,8.4379],[77.4037,8.4013]]],[[[76.4644,11.2799],[76.2835,11.3004],[75.9166,11.4227],[75.8351,11.5638],[75.8664,11.7018],[76.18,11.752],[76.3525,11.7175],[76.4309,11.683],[76.6108,11.5361],[76.623,11.4507],[76.5742,11.3531],[76.4644,11.2799]]],[[[78.2132,11.4791],[78.1419,11.4827],[78.0501,11.5239],[78.0257,11.5727],[78.0379,11.719],[78.0831,11.7645],[78.1477,11.7922],[78.2331,11.7922],[78.2819,11.7556],[78.3194,11.6729],[78.3234,11.5866],[78.3063,11.4995],[78.2132,11.4791]]],[[[76.9881,12.5402],[76.8615,12.567],[76.808,12.6258],[76.7816,12.6827],[76.8008,12.7774],[76.956,12.8345],[77.0865,12.8046],[77.1379,12.7382],[77.1486,12.6508],[77.1231,12.5607],[76.9881,12.5402]]],[[[75.2935,13.0852],[75.1837,13.1096],[75.0495,13.2682],[75.0007,13.3901],[74.9885,13.5243],[75.0246,13.6102],[75.1102,13.6191],[75.2208,13.505],[75.2672,13.4337],[75.3028,13.3267],[75.3544,13.256],[75.3492,13.1501],[75.2935,13.0852]]]]}}