{"type":"Feature","properties":{"speciesId":518,"category":"LC","source":"IUCN Red List","simplifyTol":0.01,"clippedToSubcontinent":true},"geometry":{"type":"MultiPolygon","coordinates":[[[[88.1653,21.7247],[88.1382,21.6238],[88.0503,21.6371],[88.0609,21.7489],[88.1295,21.875],[88.1617,21.8274],[88.1653,21.7247]]],[[[80.8132,28.6169],[80.7948,28.6328],[80.8126,28.6491],[80.8312,28.6334],[80.8132,28.6169]]],[[[80.2272,28.7939],[80.2087,28.8098],[80.2266,28.8261],[80.2453,28.8104],[80.2272,28.7939]]],[[[93.9995,24.9985],[94.0485,24.2499],[94.0271,24.0758],[93.9722,23.9566],[93.8314,23.8379],[93.6114,23.7466],[93.3246,23.6878],[92.9999,23.6674],[92.6752,23.6878],[92.3885,23.7466],[92.1686,23.8379],[92.0277,23.9566],[91.9755,24.0677],[91.9554,24.2268],[92.0002,25.0005],[91.2506,25.032],[90.5,25.0426],[89.7494,25.032],[88.9997,25.0004],[89.0056,24.6932],[89.055,24.2955],[89.3529,22.8046],[89.43,22.3071],[89.4455,22.0812],[89.4387,21.8988],[89.4096,21.7586],[89.3579,21.6578],[89.2943,21.6018],[89.213,21.5745],[89.0919,21.5795],[88.8921,21.6354],[88.8432,21.6239],[88.7809,21.5558],[88.7414,21.5494],[88.7097,21.564],[88.6867,21.6175],[88.6868,21.7769],[88.7198,21.9545],[88.7665,22.0126],[88.7507,22.0456],[88.7137,22.0624],[88.7281,22.0089],[88.7059,21.9489],[88.6647,21.9315],[88.628,21.9523],[88.6259,21.9721],[88.6584,22.0139],[88.6378,22.0967],[88.6795,22.1684],[88.6744,22.1981],[88.616,22.1176],[88.6254,22.0367],[88.5968,21.9895],[88.5985,21.9131],[88.5594,21.8375],[88.5626,21.7715],[88.605,21.7775],[88.6294,21.7459],[88.6167,21.6509],[88.5813,21.5726],[88.537,21.5254],[88.4994,21.52],[88.4855,21.5398],[88.4879,21.5716],[88.5208,21.6101],[88.5351,21.7521],[88.5253,21.8945],[88.497,21.9491],[88.4676,21.8691],[88.4751,21.689],[88.4535,21.6158],[88.3927,21.5819],[88.3151,21.5988],[88.2992,21.5631],[88.2462,21.5521],[88.1818,21.652],[88.2096,21.777],[88.1411,21.9271],[88.1538,21.9835],[88.2147,22.0602],[88.2111,22.129],[88.1664,22.1854],[88.0062,22.2364],[87.9635,22.3034],[87.9392,22.4127],[87.8994,22.4183],[87.9013,22.373],[87.9677,22.2393],[88.0145,22.198],[88.143,22.1705],[88.1733,22.1225],[88.1639,22.085],[88.0698,22.004],[87.9605,21.8276],[87.8139,21.7091],[87.6616,21.6407],[87.4615,21.608],[87.334,21.5628],[87.1616,21.5333],[87.0433,21.4594],[86.9142,21.3263],[86.8473,21.2243],[86.8288,21.1387],[86.8666,21.0079],[86.9624,20.8144],[86.9577,20.7802],[86.8968,20.7645],[86.892,20.7504],[86.9397,20.6977],[87.0,20.6764],[86.9972,20.6463],[86.9659,20.6138],[86.8106,20.5402],[86.7391,20.4718],[86.7164,20.4164],[86.7272,20.3706],[86.8002,20.4346],[86.8075,20.4042],[86.7922,20.3678],[86.7208,20.2916],[86.6573,20.2464],[86.4914,20.1828],[86.4716,20.0562],[86.4433,19.9986],[86.3687,19.9826],[86.2821,20.0654],[86.2006,20.0786],[86.2328,20.0323],[86.3384,19.9827],[86.352,19.9553],[86.227,19.8923],[85.6631,19.7371],[85.4593,19.6582],[85.4321,19.6974],[85.5509,19.734],[85.5733,19.8437],[85.527,19.8855],[85.4749,19.9057],[85.3802,19.8525],[85.3204,19.7868],[85.2329,19.7334],[85.1783,19.6349],[85.139,19.5954],[85.1235,19.5099],[85.172,19.5135],[85.1925,19.5736],[85.2325,19.601],[85.2489,19.6493],[85.3078,19.6417],[85.3821,19.6762],[85.4091,19.6585],[85.3946,19.6248],[85.3604,19.6005],[85.2939,19.5997],[85.3294,19.5688],[85.1953,19.4892],[84.9522,19.2956],[84.7966,19.1213],[84.7257,19.1231],[84.7182,19.1019],[84.7336,19.0792],[84.766,19.093],[84.7423,19.0276],[84.3875,18.6102],[84.1682,18.3905],[84.1056,18.29],[84.0567,18.2551],[83.6782,18.0915],[83.4934,17.9448],[83.353,17.918],[83.1739,17.938],[83.0014,18.0],[82.9367,18.0719],[82.9135,18.1613],[82.9124,18.2861],[82.9909,18.8077],[83.0003,19.0004],[82.2271,18.9749],[82.0671,18.9873],[81.9411,19.019],[81.7987,19.0965],[81.6679,19.2175],[81.55,19.3809],[81.4473,19.5825],[81.3382,19.8963],[81.2588,20.2611],[81.2126,20.6593],[81.2013,21.0774],[81.2255,21.4887],[81.2844,21.8785],[81.3744,22.2238],[81.493,22.5157],[81.594,22.6873],[81.7079,22.8253],[81.8324,22.9264],[81.9666,22.9898],[82.0879,23.0157],[82.2416,23.0253],[83.0004,22.9996],[82.9959,23.1721],[82.9395,23.6102],[82.9309,23.7875],[82.9602,23.9393],[83.0369,24.0276],[83.1343,24.0613],[83.2707,24.0691],[83.8118,24.0055],[84.0004,23.9997],[83.9796,24.3875],[83.8169,25.42],[83.8155,25.6614],[83.8557,25.8381],[83.9,25.9163],[83.96,25.975],[84.0343,26.014],[84.1305,26.037],[84.3253,26.0434],[84.8019,26.0022],[85.0004,25.9997],[84.987,26.8388],[85.0039,27.0221],[85.0433,27.1906],[85.121,27.3708],[85.2314,27.523],[85.3748,27.6476],[85.553,27.7455],[85.8157,27.8279],[86.1337,27.8713],[86.5096,27.8755],[86.9499,27.8403],[87.8854,27.6869],[89.8331,27.2589],[90.6205,27.1077],[91.3845,27.0105],[91.7082,26.9945],[92.0001,26.9995],[91.9748,27.7609],[91.9848,27.916],[92.0119,28.0388],[92.0785,28.1752],[92.1829,28.3002],[92.3249,28.4143],[92.503,28.5162],[92.7785,28.6263],[93.1006,28.7114],[93.4627,28.7693],[93.8454,28.7969],[94.2378,28.7936],[94.6196,28.759],[94.9719,28.6954],[95.2869,28.6041],[95.5195,28.5051],[95.7097,28.3901],[95.8554,28.2605],[95.9549,28.1179],[96.0218,27.9039],[96.0804,27.5419],[96.0888,27.2828],[96.0562,27.0964],[96.022,27.0276],[95.9756,26.9805],[95.91,26.9493],[95.8233,26.9331],[95.6577,26.935],[95.1975,26.9936],[94.9996,27.0004],[95.0041,26.8279],[95.0608,26.3869],[95.0688,26.2061],[95.0365,26.0535],[94.9542,25.9674],[94.8572,25.9373],[94.7223,25.9311],[94.1882,25.9945],[93.9996,26.0004],[93.9995,24.9985]],[[88.3151,21.599],[88.3128,21.6171],[88.307,21.6399],[88.3055,21.6136],[88.3151,21.599]],[[88.3071,21.6403],[88.298,21.7706],[88.2629,21.7979],[88.2615,21.7593],[88.3071,21.6403]],[[85.6556,27.0849],[85.673,27.1018],[85.6539,27.1171],[85.637,27.1002],[85.6556,27.0849]]],[[[81.4682,28.2919],[81.4498,28.3078],[81.4676,28.3241],[81.4862,28.3084],[81.4682,28.2919]]]]}}