{"type":"Feature","properties":{"speciesId":52,"category":"LC","source":"IUCN Red List","simplifyTol":0.01,"clippedToSubcontinent":true},"geometry":{"type":"MultiPolygon","coordinates":[[[[72.8784,21.6802],[72.8683,21.6724],[72.8578,21.6764],[72.8784,21.6802]]],[[[72.3604,22.1838],[72.3515,22.1744],[72.3581,22.1888],[72.3604,22.1838]]],[[[72.5105,22.2179],[72.5039,22.2326],[72.5175,22.2305],[72.5105,22.2179]]],[[[72.4713,22.2145],[72.4656,22.2019],[72.4323,22.1795],[72.4442,22.2056],[72.4713,22.2145]]],[[[72.6615,22.2445],[72.7191,22.2376],[72.7317,22.2225],[72.6615,22.2445]]],[[[72.8453,21.0376],[72.8357,21.0425],[72.8453,21.0424],[72.8453,21.0376]]],[[[72.7274,21.0909],[72.7233,21.0963],[72.7288,21.093],[72.7274,21.0909]]],[[[72.6966,21.1319],[72.689,21.1421],[72.6971,21.1414],[72.6966,21.1319]]],[[[72.6391,21.2741],[72.6202,21.2709],[72.6254,21.2826],[72.6391,21.2741]]],[[[72.6284,21.3343],[72.6204,21.3316],[72.6267,21.3382],[72.6284,21.3343]]],[[[72.7402,21.6376],[72.8073,21.6385],[72.7932,21.6206],[72.6902,21.5999],[72.6692,21.5706],[72.6228,21.5682],[72.6295,21.5877],[72.6119,21.6056],[72.6372,21.6122],[72.6387,21.6287],[72.7358,21.6496],[72.7402,21.6376]]],[[[86.9955,27.2988],[89.348,27.2988],[90.1222,26.6436],[90.42,26.0183],[90.0925,25.3036],[88.7822,25.0356],[88.6333,24.8569],[88.1569,24.1423],[87.7995,23.2489],[87.6507,22.1471],[87.204,21.7302],[86.1022,21.4027],[84.524,21.4027],[82.8266,21.8196],[81.6652,21.6707],[80.8612,21.1644],[80.3848,20.3604],[80.0274,19.7947],[79.1639,19.7053],[77.7048,20.2413],[77.4367,20.42],[76.7816,20.4498],[76.4243,20.7773],[74.8163,20.6284],[74.3398,21.1347],[74.2207,21.3729],[72.8509,20.9262],[72.844,20.9354],[72.8822,20.9546],[72.8765,20.9718],[72.8944,20.9825],[72.8308,20.9734],[72.8387,20.9855],[72.8052,20.9872],[72.827,21.014],[72.7936,21.0027],[72.7694,21.0349],[72.79,21.0461],[72.8068,21.0247],[72.857,21.0392],[72.8419,21.0537],[72.8549,21.0677],[72.8326,21.0544],[72.8227,21.0878],[72.8419,21.1137],[72.8215,21.0977],[72.8145,21.1053],[72.8304,21.1146],[72.8143,21.1191],[72.8114,21.1483],[72.8316,21.1672],[72.8059,21.1497],[72.8016,21.1242],[72.7904,21.1447],[72.7878,21.11],[72.7636,21.1227],[72.7569,21.1046],[72.7475,21.1288],[72.7188,21.1024],[72.7027,21.1276],[72.7275,21.1475],[72.6774,21.1575],[72.6389,21.209],[72.6817,21.2184],[72.6431,21.2498],[72.6304,21.2406],[72.6501,21.2798],[72.621,21.2928],[72.621,21.3125],[72.6554,21.3191],[72.6684,21.342],[72.7365,21.3238],[72.6962,21.355],[72.7016,21.3724],[72.6746,21.3486],[72.6646,21.3689],[72.6528,21.3494],[72.6459,21.3627],[72.6934,21.4664],[72.6715,21.4468],[72.6379,21.4484],[72.7409,21.5657],[72.8165,21.6136],[72.8406,21.6659],[72.9193,21.6478],[73.0375,21.7005],[73.0901,21.7051],[73.1077,21.7297],[73.064,21.7327],[72.9364,21.6744],[72.8728,21.6882],[72.7887,21.6599],[72.7389,21.6861],[72.6059,21.6766],[72.5992,21.7954],[72.6312,21.8088],[72.6544,21.8912],[72.675,21.8872],[72.6682,21.9049],[72.6874,21.9044],[72.6878,21.886],[72.7223,21.8841],[72.7187,21.9318],[72.7511,21.9531],[72.7776,21.9495],[72.7647,21.9815],[72.746,21.988],[72.7719,22.0014],[72.7754,22.0168],[72.735,21.9912],[72.7186,22.0205],[72.718,21.9943],[72.7074,21.9796],[72.6933,21.9852],[72.6999,21.9716],[72.6719,21.9749],[72.6605,21.9605],[72.6465,21.9619],[72.6488,21.9881],[72.6368,22.0028],[72.6401,21.9548],[72.6281,21.9705],[72.6332,21.9546],[72.588,21.9274],[72.5829,21.9982],[72.5244,22.0567],[72.5384,22.1322],[72.5709,22.1909],[72.6099,22.2151],[72.6631,22.211],[72.7419,22.1758],[72.7668,22.1936],[72.7581,22.2163],[72.7121,22.2444],[72.6273,22.255],[72.6127,22.2672],[72.6495,22.2643],[72.6288,22.2759],[72.5679,22.2652],[72.6254,22.2802],[72.5931,22.2817],[72.479,22.2205],[72.4931,22.2641],[72.4597,22.2136],[72.4151,22.2149],[72.4247,22.2006],[72.4084,22.1524],[72.381,22.1539],[72.3885,22.1924],[72.3709,22.1814],[72.3689,22.1449],[72.367,22.1858],[72.3907,22.2002],[72.3697,22.1934],[72.3821,22.2262],[72.3704,22.2843],[72.4013,22.3249],[72.3925,22.3315],[72.3581,22.313],[72.342,22.2572],[72.3386,22.3066],[72.3287,22.2926],[72.3459,22.2239],[72.3116,22.1866],[72.303,22.2311],[72.2924,22.2146],[72.3209,22.1379],[72.242,22.0036],[72.2551,21.8193],[72.2391,21.7952],[72.2185,21.8162],[72.2081,21.8058],[72.2371,21.7651],[72.238,21.7346],[72.2771,21.6894],[72.2256,21.5218],[72.1501,21.3521],[72.112,21.3047],[72.0758,21.3224],[72.1088,21.2927],[72.097,21.2799],[72.0872,21.2893],[72.0985,21.2661],[72.0777,21.2534],[72.0837,21.2424],[71.8682,21.1347],[71.5739,20.9548],[71.5168,20.9482],[71.4825,20.9164],[71.4865,20.9014],[71.4366,20.8709],[71.3824,20.8714],[71.382,20.8538],[71.2142,20.8041],[71.1424,20.7546],[71.0869,20.7508],[71.0512,20.7313],[71.0014,20.7354],[70.9853,20.7226],[70.9984,20.7117],[70.8989,20.698],[70.681,20.7505],[70.6808,20.7778],[70.6564,20.7576],[70.6481,20.7725],[70.6094,20.7696],[70.4429,20.8502],[70.4116,20.8754],[70.4257,20.8804],[70.3381,20.9142],[70.0863,21.1186],[69.7035,21.5315],[70.1113,21.9685],[70.7962,22.3258],[71.8087,22.4747],[74.1314,23.1894],[76.1861,24.4996],[77.3176,26.3756],[77.9132,29.2641],[78.3003,30.3957],[78.7768,30.5743],[79.3723,30.2468],[79.9679,29.7703],[80.6826,29.2641],[82.6777,28.4303],[84.2857,27.8645],[85.3577,27.6263],[86.9955,27.2988]]]]}}