{"type":"Feature","properties":{"speciesId":520,"category":"LC","source":"IUCN Red List","simplifyTol":0.01,"clippedToSubcontinent":true},"geometry":{"type":"MultiPolygon","coordinates":[[[[72.8445,18.7679],[72.8445,18.7707],[72.8456,18.7691],[72.8445,18.7679]]],[[[74.2486,14.6996],[74.246,14.702],[74.2488,14.7011],[74.2486,14.6996]]],[[[74.2353,14.7098],[74.2318,14.7098],[74.2337,14.7107],[74.2353,14.7098]]],[[[72.8502,18.7868],[72.844,18.7916],[72.8501,18.7971],[72.8502,18.7868]]],[[[72.9321,18.9527],[72.9223,18.9629],[72.9424,18.9688],[72.9389,18.9654],[72.9321,18.9527]]],[[[73.0594,19.0065],[73.0493,19.0066],[73.0566,19.0171],[73.0594,19.0065]]],[[[72.8672,19.3274],[72.8447,19.3312],[72.838,19.3354],[72.8516,19.3378],[72.8672,19.3274]]],[[[72.8752,20.7521],[72.8613,20.7556],[72.8767,20.754],[72.8752,20.7521]]],[[[72.9361,20.7636],[72.932,20.7705],[72.9412,20.7674],[72.9361,20.7636]]],[[[72.8793,20.6887],[72.89,20.6884],[72.8883,20.6806],[72.8793,20.6887]]],[[[72.8697,20.7172],[72.877,20.7253],[72.8737,20.6908],[72.8667,20.7131],[72.8576,20.706],[72.8726,20.6676],[72.8785,20.6761],[72.8779,20.6457],[72.8474,20.7183],[72.8454,20.7442],[72.8697,20.7172]]],[[[75.9744,22.2767],[76.5054,22.1649],[77.2789,21.824],[77.7629,21.6339],[78.2496,21.1599],[78.4616,20.7117],[78.505,19.6527],[78.4488,18.9886],[78.266,18.3084],[78.1821,17.5539],[77.9865,16.8552],[77.7629,16.1846],[77.6314,15.6678],[77.3504,15.1161],[77.1154,14.8147],[76.7848,14.5358],[76.0583,13.8651],[75.5623,13.3791],[75.1894,13.0726],[74.9952,12.9602],[74.8007,12.9708],[74.6975,13.3385],[74.6274,13.8849],[74.5252,13.9819],[74.3953,14.4186],[74.3536,14.5358],[74.2826,14.6372],[74.2946,14.6402],[74.2745,14.6488],[74.2756,14.6779],[74.2537,14.7068],[74.2633,14.7094],[74.2647,14.7201],[74.2582,14.7122],[74.2346,14.7444],[74.2153,14.7333],[74.0379,14.9819],[74.0476,14.9848],[73.9633,15.0752],[73.8686,15.4004],[73.8899,15.4192],[73.8393,15.4474],[73.8111,15.4927],[73.8177,15.5046],[73.8061,15.5008],[73.7028,15.6666],[73.6872,15.7154],[73.6523,15.7487],[73.6238,15.8436],[73.5838,15.9077],[73.5388,15.9331],[73.4877,16.0162],[73.47,16.0694],[73.4762,16.0584],[73.4839,16.0698],[73.4682,16.0748],[73.4705,16.113],[73.461,16.0966],[73.4377,16.1936],[73.4522,16.2253],[73.428,16.2044],[73.4118,16.2564],[73.4119,16.2734],[73.4392,16.2897],[73.4061,16.2808],[73.3862,16.363],[73.3705,16.3715],[73.3717,16.3896],[73.3948,16.3901],[73.4084,16.4088],[73.3688,16.3999],[73.3586,16.4351],[73.3812,16.4487],[73.3485,16.4519],[73.3247,16.5108],[73.3223,16.5572],[73.3372,16.5601],[73.3585,16.5193],[73.3494,16.5081],[73.3708,16.5129],[73.352,16.5379],[73.356,16.5666],[73.3205,16.5905],[73.3218,16.6063],[73.3479,16.5967],[73.3593,16.6253],[73.3362,16.6211],[73.3218,16.6378],[73.3276,16.6797],[73.3429,16.6911],[73.3158,16.6968],[73.3179,16.8014],[73.2925,16.9658],[73.3057,16.9717],[73.2909,16.9807],[73.2851,17.0358],[73.3264,17.0286],[73.2845,17.0418],[73.2914,17.0704],[73.2571,17.2613],[73.2657,17.2889],[73.297,17.2812],[73.2909,17.2948],[73.2484,17.2889],[73.1607,17.568],[73.1696,17.5888],[73.1501,17.6016],[73.1207,17.6949],[73.135,17.7114],[73.1285,17.7446],[73.0283,17.9873],[73.0209,18.0199],[73.0444,18.04],[73.0247,18.0295],[73.0296,18.0465],[73.0181,18.0319],[72.9875,18.1661],[73.0293,18.2347],[73.0747,18.2002],[73.0672,18.2708],[73.0525,18.2857],[73.0458,18.2672],[73.0234,18.2662],[72.9142,18.349],[72.9106,18.3676],[72.9275,18.3799],[72.8901,18.458],[72.9047,18.5384],[72.9213,18.5286],[72.9616,18.5423],[72.9202,18.5479],[72.884,18.6304],[72.898,18.631],[72.8664,18.644],[72.8563,18.6884],[72.8701,18.8028],[72.9142,18.7924],[72.9356,18.8241],[72.9886,18.7759],[72.999,18.7794],[72.9859,18.8052],[73.0578,18.8027],[72.9898,18.8116],[72.9821,18.8626],[72.9381,18.847],[72.9069,18.8865],[72.9247,18.9098],[72.942,18.8943],[72.9495,18.9458],[72.9772,18.9461],[72.9539,18.9701],[73.0908,18.9988],[73.0667,19.0143],[73.0847,19.0314],[73.0644,19.0292],[73.0904,19.0457],[73.0061,19.005],[72.9844,19.0708],[72.9952,19.0869],[72.9764,19.1069],[72.9764,19.1707],[72.9642,19.1353],[72.9522,19.1374],[72.9569,19.1077],[72.9307,19.0904],[72.9472,19.068],[72.9137,19.0744],[72.9503,19.0538],[72.9398,19.0263],[72.8988,18.9927],[72.8784,19.0226],[72.8573,19.0094],[72.8371,18.9334],[72.8085,18.8975],[72.8167,18.9484],[72.792,18.9442],[72.8126,19.0202],[72.8597,19.0602],[72.8179,19.0482],[72.8248,19.087],[72.808,19.1435],[72.7863,19.1386],[72.7814,19.1669],[72.8011,19.1976],[72.7783,19.1922],[72.787,19.3062],[72.8517,19.316],[72.9155,19.2908],[72.8509,19.3431],[72.8024,19.3314],[72.7583,19.3757],[72.7663,19.3956],[72.7464,19.4657],[72.7564,19.4738],[72.7257,19.599],[72.7449,19.6026],[72.7289,19.6097],[72.7078,19.6822],[72.7005,19.7289],[72.7146,19.747],[72.701,19.742],[72.6902,19.7581],[72.7061,19.8084],[72.6859,19.8043],[72.6605,19.8418],[72.685,19.8684],[72.6807,19.905],[72.7035,19.9651],[72.7249,19.9671],[72.76,19.9233],[72.7451,19.9679],[72.7216,19.9802],[72.7068,20.0701],[72.731,20.0951],[72.7448,20.1954],[72.7794,20.207],[72.7456,20.203],[72.749,20.2818],[72.778,20.3364],[72.8183,20.3657],[72.8262,20.4424],[72.8869,20.5046],[72.8771,20.5274],[72.8946,20.5296],[72.8828,20.5439],[72.8927,20.5834],[72.8736,20.6444],[72.9035,20.5969],[72.8864,20.6374],[72.9015,20.6429],[72.8967,20.7022],[72.9087,20.7111],[72.8907,20.7199],[72.9241,20.7558],[72.9519,20.755],[72.9425,20.7755],[72.9178,20.7699],[72.9199,20.7893],[72.91,20.7807],[72.8745,20.8015],[72.896,20.8134],[72.8756,20.8245],[72.8948,20.8665],[72.8268,20.8292],[72.8547,20.86],[72.8245,20.8829],[72.8351,20.9065],[72.8491,20.9044],[72.8239,20.9212],[72.8822,20.9546],[72.8765,20.9718],[72.8944,20.9825],[72.8308,20.9734],[72.8387,20.9855],[72.8052,20.9872],[72.827,21.014],[72.7601,20.9965],[72.7475,21.0286],[72.7856,21.0461],[72.8068,21.0247],[72.857,21.0392],[72.8419,21.0537],[72.8549,21.0677],[72.8326,21.0544],[72.8227,21.0878],[72.8419,21.1137],[72.8215,21.0977],[72.8145,21.1053],[72.8304,21.1146],[72.8143,21.1191],[72.8114,21.1483],[72.8316,21.1672],[72.8059,21.1497],[72.8016,21.1242],[72.7904,21.1447],[72.7878,21.11],[72.7636,21.1227],[72.7569,21.1046],[72.7443,21.1262],[72.719,21.1034],[72.7302,21.0781],[72.7016,21.0949],[72.7059,21.1358],[72.7275,21.1475],[72.6739,21.1582],[72.6473,21.0933],[72.6298,21.0986],[72.6271,21.1301],[72.6467,21.1489],[72.6293,21.1338],[72.6202,21.209],[72.6817,21.2184],[72.6634,21.2405],[72.6289,21.2445],[72.6498,21.272],[72.6382,21.2851],[72.6483,21.3231],[72.6684,21.342],[72.7365,21.3238],[72.6962,21.355],[72.7016,21.3724],[72.6746,21.3486],[72.6605,21.3685],[72.6972,21.459],[72.6814,21.4548],[72.6922,21.5118],[72.7328,21.5572],[72.8165,21.6136],[72.8406,21.6659],[72.9193,21.6478],[73.0375,21.7005],[73.0901,21.7051],[73.1077,21.7297],[73.064,21.7327],[72.9438,21.6753],[72.8728,21.6882],[72.7887,21.6599],[72.7389,21.6861],[72.6848,21.6781],[72.6405,21.8591],[72.6578,21.8942],[72.675,21.8872],[72.6786,21.912],[72.6878,21.886],[72.7223,21.8841],[72.7187,21.9318],[72.7786,21.9518],[72.746,21.988],[72.7719,22.0014],[72.7754,22.0168],[72.735,21.9912],[72.7186,22.0205],[72.718,21.9943],[72.7074,21.9796],[72.6933,21.9852],[72.6999,21.9716],[72.6719,21.9749],[72.6605,21.9605],[72.6465,21.9619],[72.6488,21.9881],[72.6368,22.0028],[72.6401,21.9548],[72.6281,21.9705],[72.6332,21.9546],[72.597,21.9332],[72.5222,22.044],[72.5471,22.1572],[72.579,22.1986],[72.6491,22.2145],[72.7419,22.1758],[72.7668,22.1936],[72.7581,22.2163],[72.7121,22.2444],[72.6726,22.2567],[72.6273,22.255],[72.6127,22.2672],[72.6495,22.2643],[72.6288,22.2759],[72.5679,22.2652],[72.6219,22.2837],[72.5708,22.2739],[72.5231,22.2332],[72.4958,22.2372],[72.479,22.2205],[72.4931,22.2641],[72.4597,22.2136],[72.4151,22.2149],[72.4247,22.2006],[72.4084,22.1524],[72.381,22.1539],[72.3885,22.1924],[72.3709,22.1814],[72.3689,22.1449],[72.367,22.1858],[72.3907,22.2002],[72.3697,22.1934],[72.3821,22.2262],[72.3704,22.2843],[72.4013,22.3249],[72.3667,22.3217],[72.342,22.2572],[72.3386,22.3066],[72.3287,22.2926],[72.3459,22.2239],[72.3116,22.1866],[72.2953,22.2249],[72.3209,22.1379],[72.242,22.0036],[72.2518,21.8649],[72.2325,21.8015],[72.2185,21.8162],[72.2081,21.8058],[72.2267,21.7825],[72.216,21.7474],[72.2876,21.635],[72.2416,21.4868],[72.1583,21.3616],[72.112,21.3047],[72.0758,21.3224],[72.1088,21.2927],[72.097,21.2799],[72.0872,21.2893],[72.0985,21.2661],[72.0777,21.2534],[72.0975,21.2232],[72.0835,21.1912],[71.9973,21.139],[71.8968,21.1146],[71.8756,21.0914],[71.5923,20.9616],[71.5339,20.9425],[71.5268,20.9531],[71.4825,20.9164],[71.4892,20.9058],[71.4395,20.8789],[71.276,20.8329],[71.0768,20.7409],[71.0014,20.7354],[70.8974,20.7019],[70.8524,20.7055],[70.8369,20.6918],[70.6752,20.758],[70.6808,20.7778],[70.6673,20.7612],[70.3564,20.9044],[70.101,21.1139],[69.7536,21.4817],[69.7147,21.6898],[69.7706,21.8854],[69.9103,22.109],[70.078,22.1928],[70.4133,22.2767],[70.6928,22.4443],[71.3075,22.6679],[71.7547,22.7797],[72.354,22.8202],[73.3757,22.8611],[73.9684,22.7538],[74.6331,22.7238],[75.9744,22.2767]]],[[[72.8726,20.768],[72.8648,20.7678],[72.866,20.7692],[72.8726,20.768]]],[[[72.856,20.7635],[72.8404,20.7752],[72.8406,20.7799],[72.856,20.7635]]],[[[72.8436,20.7883],[72.8407,20.7969],[72.8444,20.7987],[72.8436,20.7883]]],[[[72.831,20.8052],[72.8057,20.8587],[72.7973,20.8906],[72.8226,20.8256],[72.8415,20.8054],[72.831,20.8052]]],[[[72.817,20.91],[72.807,20.9073],[72.8173,20.919],[72.817,20.91]]],[[[72.7868,20.9919],[72.7723,20.9793],[72.7658,20.9849],[72.7751,20.9933],[72.7868,20.9919]]],[[[72.8453,21.0376],[72.8357,21.0425],[72.8453,21.0424],[72.8453,21.0376]]],[[[72.6831,21.1081],[72.6743,21.1286],[72.6971,21.1414],[72.6959,21.1289],[72.6831,21.1081]]],[[[72.6386,21.2709],[72.636,21.2769],[72.6376,21.2766],[72.6386,21.2709]]],[[[72.7402,21.6376],[72.781,21.6471],[72.8073,21.6385],[72.7932,21.6206],[72.7008,21.5982],[72.6924,21.6403],[72.7358,21.6496],[72.7402,21.6376]]],[[[72.8784,21.6802],[72.8683,21.6724],[72.8578,21.6764],[72.8784,21.6802]]],[[[72.3604,22.1838],[72.3515,22.1744],[72.3581,22.1888],[72.3604,22.1838]]],[[[72.5105,22.2179],[72.5039,22.2326],[72.5175,22.2305],[72.5105,22.2179]]],[[[72.4713,22.2145],[72.4656,22.2019],[72.4323,22.1795],[72.4442,22.2056],[72.4713,22.2145]]],[[[72.6615,22.2445],[72.7191,22.2376],[72.7317,22.2225],[72.6615,22.2445]]]]}}