{"type":"Feature","properties":{"speciesId":521,"category":"LC","source":"IUCN Red List","simplifyTol":0.01,"clippedToSubcontinent":true},"geometry":{"type":"MultiPolygon","coordinates":[[[[79.8229,7.9447],[79.8199,7.9542],[79.822,7.9553],[79.8229,7.9447]]],[[[79.8083,8.166],[79.8027,8.1732],[79.8052,8.174],[79.8083,8.166]]],[[[79.7294,9.4951],[79.7176,9.475],[79.6604,9.5007],[79.653,9.5535],[79.6746,9.5497],[79.6884,9.5211],[79.7192,9.5281],[79.7294,9.4951]]],[[[79.7995,9.5898],[79.794,9.5846],[79.7955,9.5892],[79.7995,9.5898]]],[[[79.8325,9.5865],[79.8639,9.6054],[79.8582,9.568],[79.8055,9.5805],[79.8102,9.6223],[79.8325,9.5865]]],[[[79.7619,9.5986],[79.7754,9.6198],[79.7733,9.5849],[79.7619,9.5986]]],[[[79.8372,9.6099],[79.8256,9.6075],[79.8273,9.6121],[79.8372,9.6099]]],[[[79.8466,9.6175],[79.853,9.6066],[79.8408,9.6103],[79.8466,9.6175]]],[[[79.8577,9.635],[79.8632,9.6188],[79.8526,9.6321],[79.8577,9.635]]],[[[79.779,9.6829],[79.7856,9.6697],[79.7759,9.6457],[79.7642,9.6597],[79.779,9.6829]]],[[[79.7943,9.687],[79.7937,9.68],[79.7918,9.6851],[79.7943,9.687]]],[[[79.815,9.7137],[79.8123,9.6974],[79.8128,9.6842],[79.8091,9.6937],[79.815,9.7137]]],[[[79.8884,9.7068],[79.8537,9.7135],[79.8644,9.7594],[79.8977,9.7621],[79.8884,9.7068]]],[[[73.6455,10.0975],[73.6453,10.0686],[73.6347,10.0508],[73.6303,10.0711],[73.6455,10.0975]]],[[[73.6716,10.8297],[73.6841,10.8231],[73.6622,10.8278],[73.6716,10.8297]]],[[[72.7386,11.1142],[72.7511,11.1117],[72.7392,11.105],[72.7386,11.1142]]],[[[72.7703,11.1931],[72.7933,11.2558],[72.7769,11.1856],[72.7703,11.1931]]],[[[73.0133,11.5022],[73.0033,11.4758],[73.0044,11.5075],[73.0133,11.5022]]],[[[72.7092,11.6964],[72.7056,11.6819],[72.7022,11.6833],[72.7092,11.6964]]],[[[72.66,21.6028],[72.6033,21.6436],[72.6208,21.6561],[72.7661,21.6553],[72.718,21.6064],[72.66,21.6028]]],[[[80.2493,9.8236],[80.3657,9.6603],[80.8117,9.2909],[80.8841,9.1219],[81.0005,8.9388],[80.993,8.918],[81.0102,8.929],[81.013,8.8911],[81.021,8.9048],[81.0589,8.8595],[81.0875,8.8584],[81.1048,8.8125],[81.2267,8.6475],[81.2208,8.6062],[81.2298,8.581],[81.2451,8.5793],[81.2471,8.5458],[81.2257,8.5323],[81.2261,8.5695],[81.1927,8.5665],[81.2119,8.5077],[81.1896,8.5018],[81.1977,8.4615],[81.2624,8.4569],[81.304,8.4326],[81.304,8.4583],[81.2958,8.4465],[81.2809,8.4568],[81.2831,8.5032],[81.3222,8.5224],[81.353,8.4909],[81.3937,8.3567],[81.4077,8.2419],[81.4769,8.0343],[81.5686,7.9227],[81.5874,7.921],[81.5671,7.8981],[81.593,7.83],[81.6268,7.8247],[81.6544,7.7729],[81.6999,7.7536],[81.7713,7.6448],[81.8718,7.3159],[81.8586,7.0907],[81.8813,7.0267],[81.8704,6.9789],[81.8489,6.9896],[81.8577,6.9672],[81.8729,6.9669],[81.8364,6.8853],[81.8518,6.8884],[81.8482,6.8675],[81.8397,6.8542],[81.8211,6.8621],[81.8444,6.8344],[81.8233,6.8088],[81.825,6.7653],[81.8084,6.7647],[81.8279,6.7586],[81.7759,6.6639],[81.7664,6.592],[81.7324,6.5669],[81.7003,6.482],[81.6518,6.4367],[81.5973,6.4241],[81.6135,6.4056],[81.56,6.3612],[81.522,6.3525],[81.4869,6.3055],[81.3285,6.1945],[81.2222,6.1589],[81.1946,6.1576],[81.197,6.1776],[81.178,6.1441],[81.1336,6.1174],[81.0167,6.1071],[80.8659,6.0408],[80.8255,6.0415],[80.7202,5.9607],[80.6641,5.9575],[80.5868,5.9168],[80.5532,5.9411],[80.4489,5.9431],[80.4522,5.9588],[80.4357,5.969],[80.4179,5.955],[80.3828,5.9595],[80.2442,6.0069],[80.2285,6.0351],[80.2186,6.022],[80.0985,6.1289],[80.0314,6.2656],[80.0357,6.2982],[80.0,6.4245],[79.9746,6.464],[79.9866,6.4771],[79.9796,6.5149],[79.8687,6.8057],[79.8431,6.9333],[79.8712,6.9756],[79.869,7.0027],[79.819,7.1934],[79.8592,7.2756],[79.8445,7.2761],[79.8027,7.4826],[79.7977,7.7275],[79.7513,7.9316],[79.7065,8.0445],[79.699,8.1154],[79.7095,8.1343],[79.6984,8.2138],[79.7179,8.2167],[79.7381,8.28],[79.7812,8.3498],[79.7563,8.3071],[79.7511,8.2617],[79.7655,8.2739],[79.7573,8.257],[79.7761,8.2529],[79.7688,8.2155],[79.7404,8.2008],[79.7492,8.183],[79.7316,8.0868],[79.7541,8.0582],[79.7426,8.0],[79.8186,7.9718],[79.8082,7.8839],[79.8265,7.9206],[79.834,8.0071],[79.7896,8.0682],[79.8086,8.0611],[79.7948,8.0792],[79.8338,8.1396],[79.8154,8.2037],[79.7946,8.2203],[79.8095,8.2174],[79.7897,8.2302],[79.8101,8.2374],[79.8342,8.2919],[79.8476,8.2742],[79.8584,8.2845],[79.8362,8.3011],[79.8445,8.4289],[79.8632,8.4496],[79.8709,8.5352],[79.9263,8.559],[79.9193,8.5846],[79.9414,8.6155],[79.9558,8.7174],[79.9248,8.7907],[79.94,8.8068],[79.9184,8.8083],[79.9307,8.8147],[79.919,8.8188],[79.9358,8.8913],[79.9123,8.9299],[80.0403,9.0133],[80.0661,9.0562],[80.0857,9.0999],[80.0761,9.1203],[80.1173,9.2073],[80.1116,9.2768],[80.1278,9.2906],[80.0914,9.3239],[80.0676,9.3288],[80.0549,9.3915],[80.1466,9.4347],[80.1861,9.4827],[80.1461,9.5362],[80.054,9.5979],[80.0876,9.6249],[80.0176,9.6509],[79.971,9.7077],[79.948,9.6871],[79.9099,9.7587],[79.9772,9.8033],[80.1056,9.8059],[80.2147,9.8314],[80.2493,9.8236]],[[80.7095,7.5097],[80.6732,7.452],[80.6732,7.4072],[80.6775,7.3645],[80.7053,7.3261],[80.7266,7.3047],[80.7437,7.3538],[80.7629,7.3538],[80.7757,7.3026],[80.7971,7.2855],[80.8099,7.2983],[80.8248,7.2791],[80.827,7.215],[80.8654,7.2129],[80.8654,7.2706],[80.8868,7.2727],[80.9017,7.2428],[80.9124,7.2577],[80.9444,7.2001],[80.9401,7.2471],[80.9658,7.2599],[80.9423,7.3069],[80.9038,7.3346],[80.9188,7.4115],[80.8868,7.4286],[80.8633,7.4051],[80.8505,7.4371],[80.8697,7.4584],[80.827,7.499],[80.8035,7.499],[80.7949,7.4819],[80.7843,7.5481],[80.7394,7.5524],[80.733,7.61],[80.7053,7.6036],[80.6882,7.5801],[80.6861,7.5374],[80.7095,7.5097]],[[80.6391,6.9332],[80.6305,7.0186],[80.5985,7.0122],[80.5985,6.9845],[80.5494,6.9396],[80.5793,6.9225],[80.59,6.8948],[80.5473,6.8841],[80.575,6.835],[80.5644,6.7987],[80.4875,6.8692],[80.4683,6.8371],[80.4661,6.7923],[80.5131,6.7475],[80.5878,6.7475],[80.622,6.7154],[80.6434,6.7154],[80.8355,6.7346],[80.8483,6.7581],[80.9679,6.7368],[81.0597,6.7581],[81.0618,6.7795],[81.0234,6.8115],[80.9465,6.8094],[80.9465,6.8371],[80.8718,6.8499],[80.8505,6.9183],[80.8633,6.9482],[80.9252,6.9482],[80.9465,6.9652],[80.938,6.9909],[80.9145,6.9887],[80.9145,7.0165],[80.8633,7.0891],[80.7885,7.0442],[80.7885,7.0869],[80.6925,7.1467],[80.6498,7.1019],[80.7053,7.0485],[80.6839,7.0357],[80.6818,7.0015],[80.6519,7.0015],[80.6668,6.9503],[80.6391,6.9332]],[[80.3679,6.4955],[80.3423,6.4955],[80.3423,6.4784],[80.4021,6.3994],[80.4341,6.3717],[80.5281,6.3503],[80.4555,6.3396],[80.4982,6.282],[80.5558,6.3012],[80.6092,6.2991],[80.6113,6.2607],[80.6562,6.2585],[80.6647,6.2884],[80.7053,6.2863],[80.7159,6.2991],[80.7031,6.3503],[80.7159,6.3909],[80.7608,6.3866],[80.7672,6.3994],[80.7522,6.4315],[80.6391,6.4934],[80.5836,6.519],[80.5836,6.4912],[80.4939,6.5425],[80.464,6.5403],[80.4875,6.5062],[80.4192,6.5019],[80.4128,6.4806],[80.4683,6.4165],[80.4149,6.4443],[80.3679,6.4955]]],[[[81.2153,8.5394],[81.2077,8.5364],[81.208,8.5447],[81.2153,8.5394]]],[[[79.8849,8.9512],[79.9086,8.9236],[79.923,8.8973],[79.8849,8.9512]]],[[[79.9145,8.9439],[79.9039,8.9383],[79.9131,8.9481],[79.9145,8.9439]]],[[[79.8909,8.9525],[79.9038,8.945],[79.8985,8.9403],[79.8909,8.9525]]],[[[80.0916,9.3117],[80.0807,9.3119],[80.0761,9.3176],[80.0916,9.3117]]],[[[80.0607,9.3299],[80.0553,9.3316],[80.0579,9.3456],[80.0607,9.3299]]],[[[79.9709,9.6054],[79.993,9.6293],[80.0061,9.6272],[79.9988,9.6005],[79.9709,9.6054]]],[[[80.0054,9.6346],[79.9936,9.6407],[79.9973,9.6451],[80.0,9.6437],[80.0054,9.6346]]],[[[80.009,9.6453],[80.0135,9.6387],[80.0065,9.645],[80.009,9.6453]]],[[[79.8435,9.7012],[79.8998,9.6841],[79.9108,9.6559],[79.9085,9.6712],[79.9372,9.6751],[79.9271,9.6624],[79.9831,9.6203],[79.9701,9.6115],[79.9249,9.6329],[79.9068,9.6135],[79.8743,9.6348],[79.8766,9.6666],[79.8611,9.6582],[79.8435,9.7012]]],[[[80.8705,15.8092],[80.8894,15.8456],[80.9919,15.7603],[80.9422,15.7347],[80.8705,15.8092]]],[[[86.2636,20.05],[86.2836,20.0381],[86.2514,20.045],[86.2636,20.05]]],[[[74.8057,33.1757],[75.072,33.1989],[75.122,33.1838],[76.0073,32.4243],[76.0073,32.9688],[77.9935,32.9688],[77.9935,30.9825],[78.9866,30.9825],[78.9866,29.9894],[80.0195,29.9894],[80.0195,28.9963],[80.1051,28.9993],[80.0553,28.9169],[80.063,28.8275],[80.2461,28.7508],[80.3875,28.625],[80.4722,28.59],[80.5108,28.6211],[80.5083,28.6625],[80.5414,28.6853],[80.9386,28.4411],[81.0314,28.403],[81.1936,28.3667],[81.298,28.1639],[81.3744,28.1661],[81.4803,28.08],[81.7269,27.9558],[81.8803,27.8572],[81.9105,27.8553],[81.9778,27.9172],[82.0433,27.9186],[82.4347,27.6756],[82.7011,27.7111],[82.7208,27.6836],[82.7444,27.5511],[82.7686,27.5017],[83.0375,27.4481],[83.1764,27.4489],[83.2558,27.3864],[83.2711,27.3461],[83.3161,27.3356],[83.3766,27.3753],[83.4183,27.4728],[83.6078,27.4692],[83.8583,27.3522],[83.8714,27.4403],[83.9225,27.4518],[84.0403,27.4447],[84.1472,27.5114],[84.2978,27.3883],[84.6053,27.3383],[84.6519,27.2942],[84.6841,27.2155],[84.6811,27.1408],[84.6453,27.0619],[84.6514,27.0417],[84.7503,27.0075],[84.8022,27.0153],[84.855,26.9955],[85.1844,26.8011],[85.2117,26.7669],[85.328,26.7361],[85.6303,26.8675],[85.7261,26.8017],[85.7272,26.68],[85.7405,26.6539],[85.8555,26.5703],[85.9436,26.6172],[85.9625,26.6472],[86.0364,26.6633],[86.1072,26.6172],[86.1408,26.6025],[86.1839,26.6081],[86.2066,26.5856],[86.3342,26.6078],[86.7317,26.42],[86.821,26.4367],[86.892,26.4721],[86.9022,26.5025],[86.948,26.5309],[87.0044,26.5344],[87.0844,26.4864],[87.17,26.4],[87.2697,26.3753],[87.4769,26.4356],[87.643,26.3925],[87.6914,26.4283],[87.8905,26.4733],[87.9494,26.4006],[88.0033,26.3672],[88.0264,26.3692],[88.0958,26.4389],[88.1019,26.5303],[88.1708,26.6608],[88.195,26.7542],[88.1755,26.8742],[88.1186,26.9844],[88.0311,27.0525],[87.993,27.1144],[88.0347,27.2836],[88.0569,27.5333],[88.1191,27.6083],[88.1889,27.7878],[88.1939,27.8475],[88.1286,27.8825],[88.1305,27.9406],[88.1455,27.9553],[88.3975,27.9833],[88.6289,28.1192],[88.8392,28.0061],[88.8772,27.8756],[88.8808,27.8367],[88.8344,27.6611],[88.7633,27.5433],[88.7833,27.438],[88.8233,27.3867],[88.9172,27.3144],[88.9014,27.2822],[88.798,27.2464],[88.7519,27.1486],[88.795,27.1414],[88.8605,27.0964],[88.8939,26.9756],[88.9478,26.9694],[89.035,26.9247],[89.0822,26.8911],[89.1153,26.8269],[89.2208,26.8147],[89.2744,26.8281],[89.3025,26.8522],[89.3672,26.8594],[89.4683,26.7994],[89.5336,26.8122],[89.6361,26.7711],[89.6439,26.7525],[89.6183,26.7269],[89.6317,26.7181],[89.7625,26.703],[90.1431,26.7533],[90.1808,26.7769],[90.1836,26.8181],[90.2169,26.8508],[90.3853,26.9033],[90.5591,26.8072],[90.6947,26.7722],[91.0497,26.7889],[91.1197,26.8092],[91.2408,26.8053],[91.3144,26.7781],[91.3797,26.8075],[91.4247,26.8756],[91.4972,26.8725],[91.5478,26.8031],[91.7125,26.8],[91.8436,26.8642],[92.0589,26.8575],[92.0955,26.8822],[92.1147,26.9311],[92.0833,27.0228],[92.0111,27.0914],[92.0153,27.1681],[92.0458,27.1903],[92.1136,27.2975],[92.0042,27.4758],[91.9508,27.4503],[91.7708,27.4317],[91.6736,27.4886],[91.6175,27.5608],[91.595,27.6455],[91.6528,27.7117],[91.6578,27.7647],[91.8244,27.7664],[91.8847,27.7311],[91.9783,27.7286],[92.0464,27.7503],[92.1183,27.8125],[92.2539,27.8158],[92.2617,27.8742],[92.3061,27.7983],[92.3233,27.7939],[92.545,27.8619],[92.7183,27.9736],[92.7284,28.036],[92.6752,28.0807],[92.7104,28.1419],[92.83,28.2128],[92.8873,28.1987],[93.0457,28.3103],[93.2221,28.3193],[93.2382,28.3874],[93.2155,28.4183],[93.3204,28.5405],[93.3287,28.595],[93.3519,28.6188],[93.5021,28.6792],[93.6473,28.6475],[93.7319,28.6776],[93.8585,28.6904],[93.9617,28.6692],[94.0211,28.836],[94.1525,28.9307],[94.2346,29.0735],[94.3081,29.1412],[94.4278,29.2155],[94.5389,29.2148],[94.5812,29.2315],[94.5932,29.2724],[94.6475,29.3335],[94.6974,29.3365],[94.7923,29.2608],[94.8641,29.175],[95.13,29.1175],[95.3878,29.0353],[95.4605,29.0517],[95.5253,29.1361],[95.5414,29.1911],[95.6247,29.255],[95.7897,29.3428],[95.9436,29.3933],[96.0839,29.4678],[96.1778,29.3578],[96.1869,29.3111],[96.2353,29.2544],[96.2894,29.2414],[96.3625,29.2906],[96.3953,29.2553],[96.353,29.1831],[96.2189,29.1472],[96.1489,29.0597],[96.1486,28.9433],[96.1691,28.9036],[96.1903,28.9008],[96.2503,28.9408],[96.3439,29.0325],[96.4708,29.0567],[96.4958,29.0361],[96.4844,28.9683],[96.6158,28.7903],[96.6061,28.7394],[96.3403,28.525],[96.3616,28.3928],[96.4019,28.3511],[96.4553,28.4194],[96.6039,28.4689],[96.6539,28.4675],[96.7408,28.4264],[96.7841,28.3731],[96.9847,28.3325],[97.0208,28.335],[97.0917,28.3792],[97.135,28.3814],[97.2336,28.3178],[97.3069,28.2339],[97.3489,28.2228],[97.3161,28.0892],[97.36,28.0436],[97.3805,27.9914],[97.3611,27.9408],[97.0466,27.7497],[96.8889,27.6175],[96.9053,27.4517],[97.1589,27.1386],[97.1367,27.0858],[97.0597,27.093],[96.8883,27.1781],[96.8655,27.1994],[96.8553,27.2628],[96.8233,27.3194],[96.7292,27.3656],[96.6219,27.3658],[96.4966,27.3022],[96.4205,27.3044],[96.1941,27.2708],[96.0358,27.1925],[95.9191,27.0356],[95.8039,27.0011],[95.6711,26.8983],[95.6108,26.8214],[95.5194,26.8231],[95.4411,26.7092],[95.2711,26.6447],[95.2464,26.6797],[95.1414,26.6125],[95.0664,26.4797],[95.0653,26.3256],[95.1133,26.1383],[95.178,26.0589],[95.1178,25.9833],[95.06,25.9436],[94.9964,25.7322],[94.8853,25.5786],[94.7894,25.4967],[94.7411,25.4958],[94.6953,25.4725],[94.6255,25.3978],[94.5817,25.2864],[94.5764,25.2144],[94.5994,25.1783],[94.7286,25.1364],[94.7344,25.0247],[94.6183,24.7603],[94.4722,24.5817],[94.3139,24.2858],[94.2183,24.0058],[94.1444,23.8478],[94.0367,23.9178],[93.9267,23.9558],[93.8192,23.9353],[93.7533,24.0075],[93.6214,24.0161],[93.5964,23.9722],[93.4819,23.965],[93.4058,24.0763],[93.3707,24.091],[93.3387,24.0779],[93.328,23.9817],[93.3511,23.9533],[93.3842,23.8481],[93.4228,23.6625],[93.3994,23.4233],[93.3719,23.3578],[93.3886,23.2233],[93.3503,23.0733],[93.3033,23.0147],[93.2389,23.0089],[93.2014,23.0589],[93.138,23.0481],[93.125,23.0144],[93.1411,22.9506],[93.0928,22.7144],[93.1361,22.4744],[93.1805,22.4406],[93.1966,22.2564],[93.1539,22.1867],[93.078,22.2117],[93.0475,22.2058],[92.9908,22.0486],[92.9244,22.005],[92.8858,22.0106],[92.8655,22.0489],[92.7936,22.1128],[92.7186,22.1597],[92.6975,22.1522],[92.6822,22.0314],[92.6082,21.9847],[92.6267,21.8846],[92.6026,21.6593],[92.6194,21.4961],[92.6687,21.2841],[92.6142,21.2421],[92.5936,21.2452],[92.5546,21.3763],[92.4946,21.3496],[92.4384,21.3632],[92.4238,21.3792],[92.4222,21.4276],[92.3804,21.4734],[92.3416,21.4544],[92.3105,21.4129],[92.27,21.4231],[92.2559,21.358],[92.1986,21.323],[92.2184,21.2543],[92.1893,21.1765],[92.1954,21.1269],[92.255,21.0615],[92.2611,20.9362],[92.313,20.8469],[92.3385,20.7461],[92.3059,20.751],[92.2117,20.9253],[92.1847,21.0139],[92.0474,21.1766],[92.0496,21.2642],[92.0289,21.3402],[91.9529,21.4548],[91.9993,21.5054],[92.0221,21.4864],[91.9954,21.5518],[92.0389,21.6476],[92.0405,21.6722],[92.0251,21.6822],[92.0352,21.7006],[92.0181,21.7165],[92.0192,21.6685],[91.9818,21.656],[91.9796,21.7042],[91.9667,21.6781],[91.9481,21.7453],[91.9764,21.7418],[91.9924,21.7678],[91.9716,21.7472],[91.9545,21.7539],[91.9706,21.7862],[91.9424,21.8042],[91.9308,21.7855],[91.8912,21.7773],[91.9199,21.8473],[91.9095,21.9079],[91.9274,21.9345],[91.8949,21.9689],[91.8548,22.1276],[91.8345,22.1221],[91.8118,22.1905],[91.8351,22.2151],[91.842,22.2605],[91.8147,22.3049],[91.8666,22.3221],[91.9008,22.4007],[91.9451,22.4162],[92.0019,22.4046],[92.0221,22.4167],[92.0349,22.4459],[92.0815,22.4371],[92.1417,22.4616],[92.1439,22.4703],[92.0873,22.4443],[92.0331,22.4505],[92.0029,22.4124],[91.9541,22.421],[91.8964,22.4094],[91.8723,22.3498],[91.7955,22.2927],[91.7952,22.2778],[91.829,22.2566],[91.798,22.2196],[91.7693,22.2784],[91.7519,22.3866],[91.7001,22.4841],[91.5811,22.6536],[91.4576,22.7511],[91.4859,22.7668],[91.4692,22.7787],[91.4778,22.7633],[91.4547,22.7602],[91.4369,22.7772],[91.4746,22.8241],[91.4356,22.8048],[91.4719,22.8412],[91.4748,22.8865],[91.4452,22.9007],[91.441,22.8836],[91.464,22.8832],[91.4647,22.869],[91.4204,22.8087],[91.4086,22.7609],[91.3301,22.8335],[91.3506,22.8515],[91.3427,22.8832],[91.3158,22.8394],[91.3525,22.7861],[91.3451,22.7758],[91.2963,22.8102],[91.1869,22.7977],[91.1164,22.8119],[91.1127,22.8262],[91.0958,22.82],[91.099,22.8052],[91.0404,22.797],[90.9375,22.8561],[90.8246,22.8647],[90.8016,22.9088],[90.7578,22.9387],[90.7992,22.8841],[90.7954,22.8634],[90.776,22.8608],[90.7333,22.8875],[90.6819,22.9866],[90.6235,23.0044],[90.5673,23.1188],[90.6524,23.2423],[90.6389,23.3166],[90.6776,23.3183],[90.6754,23.3407],[90.6978,23.3457],[90.6795,23.3644],[90.6972,23.3775],[90.6701,23.3584],[90.6616,23.3375],[90.6738,23.3213],[90.5987,23.3393],[90.5795,23.3975],[90.6007,23.4314],[90.5847,23.4571],[90.5966,23.4788],[90.6303,23.4903],[90.666,23.4837],[90.5636,23.5164],[90.5689,23.4752],[90.5528,23.4887],[90.5353,23.4767],[90.5539,23.4263],[90.5281,23.3907],[90.4858,23.4204],[90.4204,23.4161],[90.2542,23.4608],[90.1641,23.5242],[90.1103,23.6129],[89.97,23.6581],[89.9179,23.7216],[89.8058,23.7917],[89.7878,23.8166],[89.7742,23.8995],[89.7688,23.8876],[89.7046,23.9579],[89.7275,23.9776],[89.7208,24.0],[89.7153,23.9718],[89.6983,23.9645],[89.7051,23.9991],[89.6707,24.0],[89.6557,23.9361],[89.7033,23.8749],[89.7513,23.8659],[89.7708,23.8359],[89.7571,23.8473],[89.7242,23.8344],[89.6802,23.8626],[89.7179,23.8319],[89.6297,23.8456],[89.5468,23.8241],[89.4497,23.8706],[89.3865,23.9431],[89.3288,23.9487],[89.2808,23.9875],[89.3161,23.9479],[89.2889,23.9467],[89.2414,23.9813],[89.1733,24.0],[89.0914,23.9991],[89.0608,23.9839],[89.0936,23.9665],[89.1272,23.9183],[89.1241,23.9541],[89.1671,23.9259],[89.2341,23.9194],[89.3047,23.8696],[89.4078,23.8978],[89.4384,23.8386],[89.4996,23.7788],[89.5929,23.7975],[89.6397,23.7768],[89.7017,23.7769],[89.8567,23.6605],[89.9485,23.6357],[90.0246,23.5566],[90.0179,23.5823],[90.0954,23.567],[90.1529,23.4988],[90.1557,23.431],[90.2067,23.3338],[90.17,23.3466],[90.1639,23.3639],[90.1862,23.3591],[90.1608,23.3676],[90.1665,23.3332],[90.1253,23.3055],[90.1205,23.3356],[90.1417,23.3597],[90.1445,23.3786],[90.1279,23.351],[90.0995,23.359],[90.1208,23.3473],[90.1189,23.3041],[90.093,23.3005],[90.0871,23.2728],[90.1245,23.2685],[90.1287,23.2416],[90.2023,23.2256],[90.1987,23.2096],[90.1681,23.2041],[90.1774,23.1665],[90.219,23.1829],[90.2485,23.1621],[90.2336,23.1421],[90.2452,23.1232],[90.3091,23.1128],[90.3167,23.0671],[90.2678,23.0431],[90.2726,23.0254],[90.3072,23.0209],[90.3206,22.9865],[90.2739,22.9687],[90.3537,22.9212],[90.3456,22.884],[90.3205,22.8726],[90.3213,22.8502],[90.3726,22.7652],[90.3682,22.7366],[90.4195,22.7331],[90.4167,22.7138],[90.3964,22.729],[90.3831,22.7054],[90.4003,22.7234],[90.4204,22.7086],[90.4297,22.7305],[90.4193,22.7453],[90.378,22.7401],[90.3825,22.7586],[90.4366,22.761],[90.4832,22.7098],[90.4769,22.6561],[90.4961,22.6723],[90.5133,22.6529],[90.5042,22.5879],[90.5187,22.5991],[90.5798,22.5261],[90.6132,22.3275],[90.5912,22.2573],[90.5587,22.2382],[90.5212,22.184],[90.5066,22.1851],[90.4373,22.0668],[90.4221,22.1192],[90.4427,22.1513],[90.4269,22.1517],[90.4192,22.1262],[90.4192,22.0904],[90.3882,22.0901],[90.3847,22.1054],[90.4039,22.1682],[90.4261,22.1813],[90.3999,22.2179],[90.4165,22.2649],[90.4035,22.2838],[90.4191,22.2895],[90.3788,22.2931],[90.4149,22.3388],[90.3641,22.2952],[90.4059,22.2709],[90.395,22.204],[90.4179,22.1836],[90.3986,22.1722],[90.3831,22.1366],[90.3408,22.1621],[90.3872,22.1955],[90.3873,22.2114],[90.3562,22.1794],[90.3438,22.1957],[90.3498,22.1792],[90.3338,22.1633],[90.3784,22.1309],[90.3751,22.1053],[90.3331,22.1088],[90.2616,22.0404],[90.2751,22.0358],[90.278,21.9971],[90.2568,21.9557],[90.211,21.9826],[90.2135,22.0022],[90.1962,21.9784],[90.2287,21.9716],[90.2343,21.9583],[90.2176,21.9508],[90.2685,21.9463],[90.2409,21.8994],[90.2606,21.8846],[90.2549,21.8666],[90.2241,21.8543],[90.2042,21.8874],[90.2401,21.9344],[90.1969,21.8906],[90.2199,21.8528],[90.2631,21.8583],[90.2478,21.8376],[90.2163,21.8373],[90.2556,21.8273],[90.2116,21.8183],[90.1756,21.7891],[90.1319,21.7907],[90.092,21.8147],[90.0824,21.841],[90.1222,21.8485],[90.1003,21.8554],[90.1103,21.884],[90.1543,21.8854],[90.1589,21.8603],[90.1728,21.8697],[90.1519,21.8956],[90.1886,21.9228],[90.144,21.8906],[90.1158,21.8993],[90.1162,21.9159],[90.15,21.9227],[90.1372,21.9485],[90.1685,21.9805],[90.1406,21.9702],[90.128,21.9914],[90.1418,21.9247],[90.1114,21.9219],[90.0988,21.8944],[90.0991,21.9412],[90.0725,22.0004],[90.0992,22.0506],[90.1633,22.1145],[90.2134,22.1143],[90.2283,22.1641],[90.2542,22.1638],[90.2717,22.1772],[90.2864,22.2071],[90.2723,22.2089],[90.2588,22.1722],[90.229,22.1724],[90.2401,22.1932],[90.2206,22.219],[90.2077,22.3093],[90.2269,22.3379],[90.2896,22.3505],[90.2973,22.3714],[90.2696,22.3586],[90.2657,22.3711],[90.2809,22.4069],[90.3137,22.4635],[90.3413,22.4589],[90.3619,22.4905],[90.3405,22.4664],[90.3148,22.4741],[90.2586,22.3754],[90.2548,22.3443],[90.2223,22.3421],[90.1991,22.3026],[90.2097,22.2143],[90.2298,22.1915],[90.2032,22.1238],[90.1608,22.1241],[90.0879,22.0556],[90.0515,21.9702],[90.0298,21.9971],[90.0275,21.9782],[90.0,21.9882],[89.993,22.0361],[90.0307,22.0628],[90.0436,22.1336],[90.0717,22.1533],[90.1399,22.1551],[90.0801,22.1586],[90.0257,22.189],[90.081,22.2209],[90.1116,22.2858],[90.1016,22.3424],[90.176,22.4215],[90.2018,22.4859],[90.206,22.5118],[90.1876,22.5224],[90.2028,22.5725],[90.1858,22.6255],[90.2519,22.6212],[90.2832,22.6302],[90.2942,22.6556],[90.2487,22.6279],[90.181,22.6276],[90.1975,22.5676],[90.1819,22.5223],[90.1989,22.509],[90.1936,22.4802],[90.1724,22.4297],[90.095,22.3491],[90.1048,22.3039],[90.0669,22.2145],[90.025,22.1966],[90.0234,22.1724],[90.0632,22.1618],[90.0153,22.1191],[90.0183,22.0663],[89.9809,22.0416],[89.9896,21.991],[89.9644,21.9769],[89.9092,22.0731],[89.9175,22.136],[89.8787,22.2524],[89.9197,22.3718],[89.9847,22.4388],[90.0,22.4869],[90.025,22.4901],[90.033,22.5719],[90.065,22.6087],[90.0571,22.6225],[90.0268,22.599],[90.0327,22.6527],[90.0038,22.6772],[90.028,22.6463],[90.0132,22.5988],[90.0307,22.5814],[90.0179,22.4944],[89.9546,22.5055],[89.9855,22.4867],[89.9872,22.466],[89.9102,22.3882],[89.8834,22.4052],[89.8834,22.4302],[89.8779,22.4031],[89.8987,22.3721],[89.8448,22.2487],[89.8905,22.1211],[89.8528,22.0679],[89.8188,22.066],[89.8534,22.0483],[89.8854,21.9055],[89.8584,21.8784],[89.8456,21.8859],[89.8408,21.856],[89.7762,21.8305],[89.7896,21.879],[89.7542,21.8561],[89.7334,21.8909],[89.7516,21.8391],[89.7383,21.8313],[89.7067,21.8491],[89.6756,21.8377],[89.6586,21.8922],[89.6795,21.9049],[89.6554,21.9134],[89.6339,21.8679],[89.7121,21.7853],[89.7124,21.7662],[89.6894,21.755],[89.6067,21.7601],[89.6137,21.8111],[89.5627,21.8637],[89.5901,21.9386],[89.5466,21.9949],[89.5152,21.9904],[89.5251,21.9563],[89.5123,21.8993],[89.4971,21.9081],[89.4607,21.8522],[89.4337,21.8477],[89.4627,21.8461],[89.4712,21.8204],[89.459,21.8111],[89.4707,21.8137],[89.4843,21.7864],[89.4162,21.7099],[89.3867,21.7099],[89.3559,21.8004],[89.3899,21.9021],[89.3671,21.9046],[89.3181,21.8611],[89.3072,21.8207],[89.2867,21.8053],[89.2927,21.7564],[89.2312,21.7683],[89.2193,21.7572],[89.197,21.8047],[89.1643,21.79],[89.1103,21.8086],[89.1121,21.8547],[89.0887,21.908],[89.0948,21.9381],[89.0836,21.9386],[89.0907,22.0094],[89.0549,22.0696],[89.0611,22.1272],[89.0439,22.1364],[89.0378,22.0794],[89.0633,22.0142],[89.0641,21.9417],[89.0056,21.9036],[89.0889,21.6281],[89.0075,21.6],[88.9208,21.6339],[88.8555,21.6328],[88.7844,21.5569],[88.7336,21.5508],[88.7072,21.5664],[88.6822,21.6961],[88.714,21.9312],[88.724,21.9635],[88.7656,22.0052],[88.7526,22.0437],[88.713,22.0619],[88.7275,22.0158],[88.6883,21.9347],[88.6305,21.945],[88.623,21.9681],[88.6587,22.017],[88.6378,22.0967],[88.6828,22.1739],[88.6822,22.1958],[88.6611,22.2006],[88.6125,22.0958],[88.6255,22.0369],[88.5966,21.9884],[88.6036,21.9369],[88.5569,21.8133],[88.5625,21.7664],[88.6086,21.7806],[88.6275,21.7558],[88.6028,21.6119],[88.5383,21.5258],[88.498,21.5206],[88.483,21.5569],[88.4944,21.585],[88.5181,21.5953],[88.5319,21.8317],[88.5105,21.9369],[88.4961,21.9503],[88.4719,21.8914],[88.4733,21.6614],[88.4539,21.615],[88.4055,21.5842],[88.3086,21.6031],[88.2972,21.7728],[88.258,21.7967],[88.3083,21.5706],[88.2542,21.5486],[88.1994,21.6117],[88.1814,21.6636],[88.2047,21.7139],[88.2058,21.8014],[88.155,21.8747],[88.1422,21.9489],[88.1494,21.9797],[88.2186,22.0708],[88.1994,22.1553],[88.1458,22.1936],[88.0075,22.2353],[87.9658,22.2975],[87.9394,22.4128],[87.9078,22.4217],[87.9475,22.2697],[87.9819,22.223],[88.0147,22.1989],[88.1419,22.1722],[88.1744,22.1231],[88.168,22.0917],[88.0822,22.0181],[87.9719,21.8394],[87.7964,21.6989],[87.673,21.6439],[87.4642,21.6094],[87.3292,21.5617],[87.2155,21.5528],[87.0717,21.4819],[86.9633,21.3819],[86.8755,21.2744],[86.828,21.1525],[86.8766,20.9761],[86.9675,20.7953],[86.9619,20.7811],[86.8914,20.7594],[86.9408,20.6964],[87.0256,20.6748],[86.7558,20.4914],[86.7264,20.4522],[86.7208,20.3725],[86.7392,20.3722],[86.8044,20.4361],[86.8005,20.3817],[86.7103,20.2826],[86.6517,20.2439],[86.4866,20.1764],[86.4203,19.9828],[86.3744,19.9811],[86.2896,20.0601],[86.1964,20.075],[86.2453,20.0233],[86.3608,19.9603],[86.158,19.8714],[85.6342,19.7278],[85.4514,19.6603],[85.4506,19.6803],[85.4223,19.696],[85.5492,19.7324],[85.575,19.8355],[85.5342,19.8807],[85.4588,19.9033],[85.4349,19.887],[85.3532,19.8292],[85.3268,19.7928],[85.2388,19.7406],[85.1438,19.603],[85.1219,19.5131],[85.1535,19.4988],[85.1677,19.5112],[85.1919,19.5724],[85.2323,19.6008],[85.2539,19.6546],[85.3088,19.6419],[85.3861,19.6845],[85.4103,19.6544],[85.3847,19.6139],[85.3403,19.5914],[85.3167,19.6183],[85.2898,19.5952],[85.3298,19.5712],[85.1818,19.4792],[84.8805,19.2283],[84.7944,19.1208],[84.7625,19.1122],[84.7266,19.124],[84.7178,19.0964],[84.7353,19.0747],[84.7808,19.0942],[84.6764,18.9419],[84.6317,18.9122],[84.3494,18.5689],[84.1342,18.3417],[84.1064,18.2922],[84.0705,18.2633],[83.7724,18.1397],[83.5828,18.0175],[83.2341,17.5925],[83.0103,17.4872],[82.8842,17.4081],[82.615,17.2911],[82.4753,17.2022],[82.3644,17.1008],[82.2983,17.0267],[82.2486,16.9203],[82.2519,16.8844],[82.2722,16.8622],[82.3597,16.8206],[82.3673,16.88],[82.3709,16.8678],[82.3464,16.7047],[82.3017,16.5831],[82.1989,16.5092],[81.9945,16.4078],[81.7273,16.3108],[81.43,16.3681],[81.4123,16.3853],[81.3134,16.3633],[81.2459,16.31],[81.1639,16.0661],[81.1503,15.97],[81.0017,15.8444],[81.0173,15.7756],[80.8998,15.8581],[80.9122,15.9322],[80.8919,16.0261],[80.8769,16.0117],[80.8975,15.9111],[80.8253,15.7519],[80.8075,15.8406],[80.7789,15.8764],[80.6847,15.9],[80.5542,15.8769],[80.3672,15.7742],[80.2997,15.7203],[80.2603,15.6714],[80.2092,15.5308],[80.0908,15.3092],[80.0489,15.0489],[80.1086,14.76],[80.195,14.5558],[80.1775,14.3581],[80.1322,14.2539],[80.1261,14.2003],[80.1514,14.0358],[80.2475,13.8089],[80.2258,13.68],[80.313,13.4392],[80.2505,13.5736],[80.1525,13.7181],[80.0925,13.6903],[80.0494,13.6178],[80.1189,13.4997],[80.2314,13.48],[80.3139,13.4222],[80.3334,13.4019],[80.3497,13.3342],[80.3258,13.1817],[80.2628,12.9492],[80.2589,12.7822],[80.1603,12.4731],[79.8672,12.0328],[79.8039,11.7953],[79.7839,11.775],[79.763,11.6489],[79.7514,11.5492],[79.7822,11.4306],[79.8331,11.3394],[79.8542,11.1372],[79.8408,10.8178],[79.8597,10.2889],[79.7869,10.2672],[79.7808,10.2894],[79.7456,10.3038],[79.6774,10.3003],[79.7388,10.2798],[79.7539,10.2883],[79.7636,10.2583],[79.3992,10.3197],[79.325,10.2808],[79.2408,10.1811],[79.2394,10.0883],[79.2617,10.0417],[79.25,10.0172],[78.9819,9.6642],[78.9408,9.5939],[78.908,9.4797],[78.9411,9.4094],[79.0092,9.3317],[79.1268,9.2917],[79.231,9.2927],[79.3317,9.2642],[79.4514,9.15],[79.2944,9.2467],[78.9711,9.2736],[78.3967,9.0897],[78.2339,8.9678],[78.1925,8.9042],[78.1744,8.8611],[78.1317,8.4867],[78.0605,8.3642],[77.9969,8.3383],[77.788,8.1961],[77.5872,8.1347],[77.5361,8.0719],[77.2991,8.1331],[76.9986,8.3653],[76.6683,8.7819],[76.5758,8.8769],[76.5708,8.9392],[76.6005,8.9719],[76.6586,8.965],[76.6675,9.0036],[76.5611,8.9922],[76.5341,8.965],[76.3803,9.2814],[76.3078,9.4969],[76.2428,9.9661],[76.2922,9.9139],[76.2578,9.9069],[76.2863,9.8311],[76.3264,9.7697],[76.3569,9.7767],[76.3828,9.6467],[76.3522,9.5225],[76.47,9.4953],[76.4986,9.5322],[76.4244,9.5944],[76.3842,9.8603],[76.3564,9.9144],[76.3203,9.9439],[76.2433,10.1069],[76.2164,10.1322],[76.2056,10.1153],[76.2275,10.0719],[76.2389,9.9836],[76.203,10.0378],[76.1642,10.1878],[75.9241,10.7556],[75.8616,10.9806],[75.6889,11.4353],[75.6519,11.4644],[75.613,11.4717],[75.5286,11.7003],[75.3775,11.8606],[75.2744,12.0078],[75.1925,12.0078],[75.1275,12.2081],[74.8553,12.755],[74.8378,12.8461],[74.8103,12.8647],[74.6191,13.8325],[74.4978,14.0464],[74.4508,14.2461],[74.3753,14.4483],[74.3994,14.4528],[74.4119,14.4833],[74.358,14.5683],[74.338,14.5556],[74.3336,14.5156],[74.3008,14.5217],[74.2708,14.6828],[74.2508,14.7189],[74.2272,14.7367],[74.1761,14.7417],[74.0897,14.7978],[74.1014,14.8671],[73.9583,15.0658],[73.9517,15.1625],[73.9058,15.3014],[73.8724,15.3501],[73.8144,15.37],[73.7844,15.4031],[73.9125,15.4011],[73.9636,15.3636],[73.9503,15.4],[73.8439,15.4447],[73.7914,15.4506],[73.6819,15.6978],[73.6972,15.7219],[73.6419,15.7403],[73.6494,15.7842],[73.5939,15.8928],[73.4994,15.9758],[73.4478,16.0558],[73.408,16.2344],[73.3261,16.4858],[73.3389,16.5133],[73.3605,16.5122],[73.3125,16.6064],[73.2697,16.8533],[73.2531,16.9989],[73.2736,17.0347],[73.2747,17.0819],[73.1786,17.4711],[73.1144,17.6367],[73.1028,17.6894],[73.1222,17.7172],[73.1091,17.7697],[73.0114,17.9908],[72.9714,18.1805],[72.9672,18.3017],[72.8941,18.4158],[72.8886,18.4722],[72.9028,18.5189],[72.8539,18.6606],[72.8575,18.7953],[72.933,18.8197],[72.973,18.7789],[72.9875,18.7278],[72.993,18.7906],[72.9119,18.9175],[73.0547,18.9961],[73.0555,19.0119],[72.9697,19.0789],[72.9322,19.0611],[72.823,18.9125],[72.77,18.9431],[72.8255,19.0531],[72.8208,19.1728],[72.7833,19.1481],[72.7667,19.2281],[72.7805,19.3125],[72.8564,19.3178],[72.9919,19.2572],[73.0161,19.2058],[73.0472,19.2173],[73.0067,19.2831],[72.9639,19.3092],[72.7978,19.3261],[72.7544,19.3697],[72.7078,19.5875],[72.6997,19.7636],[72.6772,19.7936],[72.6642,19.8708],[72.6661,19.9186],[72.7036,19.9878],[72.7536,20.295],[72.785,20.3503],[72.8164,20.3675],[72.8294,20.4419],[72.8853,20.5131],[72.9344,20.7747],[72.9253,20.8128],[72.8858,20.8094],[72.8469,20.8442],[72.853,21.0678],[72.808,21.1264],[72.7028,21.0742],[72.6308,21.0825],[72.6158,21.0972],[72.6153,21.1272],[72.718,21.1961],[72.6447,21.2592],[72.6075,21.2581],[72.5641,21.3781],[72.7519,21.4553],[72.7464,21.4786],[72.7153,21.475],[72.5858,21.4133],[72.6314,21.4944],[72.8133,21.6322],[72.8983,21.6425],[73.1111,21.73],[73.1308,21.7536],[73.1216,21.7647],[72.9366,21.6817],[72.7886,21.6678],[72.7405,21.6864],[72.6272,21.6861],[72.5417,21.6639],[72.5253,21.6947],[72.5569,21.7611],[72.5675,21.8481],[72.6264,21.9283],[72.6519,21.9411],[72.6811,21.9303],[72.7344,21.9864],[72.7083,21.9925],[72.6228,21.9603],[72.5517,21.9072],[72.5278,21.9172],[72.5008,21.9767],[72.5367,22.1378],[72.5755,22.1953],[72.6253,22.2089],[72.7469,22.1647],[72.8178,22.2397],[72.8903,22.2117],[72.915,22.2161],[72.9191,22.2678],[72.9075,22.2786],[72.8181,22.2722],[72.78,22.2522],[72.5811,22.2861],[72.4664,22.2272],[72.3897,22.2494],[72.3758,22.2992],[72.1519,22.2839],[72.1789,22.2475],[72.2969,22.2322],[72.3258,22.1567],[72.3053,22.0636],[72.2653,22.0161],[72.1792,21.9706],[72.1255,21.9728],[72.0317,21.9428],[72.1122,21.9147],[72.1522,21.9286],[72.1619,21.8353],[72.0872,21.8281],[72.0047,21.8589],[71.9941,21.8478],[71.9925,21.7892],[72.0197,21.7736],[72.1725,21.7858],[72.2142,21.7361],[72.2133,21.705],[72.2514,21.6892],[72.2892,21.6108],[72.2425,21.4653],[72.1039,21.3097],[72.1105,21.2019],[72.0033,21.1347],[71.5681,20.975],[71.4669,20.8819],[70.9661,20.7028],[70.8189,20.6975],[70.5178,20.8167],[70.3289,20.9281],[70.0608,21.1444],[69.7886,21.4664],[69.6283,21.6181],[69.5553,21.6586],[69.1155,22.0625],[68.9769,22.2272],[68.9444,22.2942],[68.9444,22.3283],[68.9864,22.4183],[69.0672,22.4808],[69.1517,22.4033],[69.1775,22.3603],[69.1711,22.3028],[69.2383,22.2733],[69.8708,22.4655],[70.0405,22.5583],[70.1655,22.5483],[70.3675,22.8886],[70.4347,22.9614],[70.4844,22.9611],[70.5114,22.9853],[70.5286,23.0464],[70.4866,23.125],[70.4047,23.0761],[70.4091,23.0125],[70.3894,22.9353],[70.343,22.9305],[70.2272,22.9575],[69.8494,22.8586],[69.755,22.8061],[69.7103,22.7428],[69.2694,22.8292],[69.1475,22.8692],[69.0503,22.9417],[68.9028,23.0047],[68.6667,23.1422],[68.543,23.2692],[68.433,23.43],[68.4025,23.5206],[68.4083,23.6128],[68.7208,23.8161],[68.7414,23.8442],[68.61,23.8075],[68.4475,23.7269],[68.3828,23.6761],[68.3572,23.6103],[68.3264,23.5828],[68.2108,23.5861],[68.2097,23.8572],[68.2905,23.9444],[68.3905,23.9675],[68.7472,23.97],[68.7453,24.3164],[68.7831,24.3328],[68.9269,24.3256],[68.988,24.2569],[69.0803,24.2972],[69.2525,24.2797],[69.5986,24.2814],[69.7236,24.1711],[70.0147,24.1697],[70.0707,24.1979],[70.1201,24.309],[70.2544,24.3322],[70.4147,24.4022],[70.5555,24.4353],[70.6008,24.415],[70.5842,24.3842],[70.5844,24.2783],[70.6505,24.2414],[70.7619,24.2358],[70.8858,24.2744],[70.8644,24.3169],[70.9417,24.3692],[71.0292,24.3636],[71.1058,24.4164],[71.0928,24.4433],[71.0108,24.455],[70.9958,24.4808],[70.9841,24.6208],[71.0036,24.6478],[71.0774,24.6805],[70.9206,24.9945],[70.9964,24.9945],[70.9964,25.9837],[71.1716,25.9826],[71.9951,27.7059],[71.9951,28.0032],[72.0902,28.0032],[72.3019,28.6648],[72.6225,29.8269],[72.7804,30.1054],[72.7333,30.0988],[72.6857,30.1204],[72.4724,30.4021],[72.2755,30.62],[72.0041,30.867],[71.7287,31.0704],[71.7028,31.1091],[71.6998,31.1555],[71.7699,31.4166],[71.8181,31.6729],[71.8544,32.1183],[71.8319,32.5646],[71.7843,32.8589],[71.7188,33.1253],[71.7332,33.187],[71.7682,33.2177],[71.8139,33.2267],[72.3432,33.1301],[72.6032,33.113],[72.8638,33.1159],[73.3074,33.1673],[73.768,33.2809],[74.2942,33.1885],[74.8057,33.1757]],[[88.9558,22.6797],[88.9685,22.6865],[88.9663,22.695],[88.9541,22.6935],[88.9558,22.6797]],[[88.965,22.603],[88.9648,22.6122],[88.9639,22.6125],[88.965,22.603]],[[89.0066,22.4226],[88.9999,22.4713],[88.9727,22.5392],[88.9886,22.4077],[89.0066,22.4226]],[[89.0796,22.1807],[89.0065,22.2833],[89.0342,22.2954],[88.9952,22.3274],[89.0016,22.384],[88.9876,22.3974],[88.9933,22.3244],[89.0072,22.2764],[89.0796,22.1807]],[[89.1047,22.1452],[89.0944,22.1524],[89.0805,22.1279],[89.1047,22.1452]],[[90.0195,23.7627],[90.1497,23.7043],[90.1945,23.714],[90.1492,23.7107],[90.1219,23.7371],[90.0698,23.7579],[90.0232,23.7635],[90.0245,23.7952],[90.0021,23.816],[90.0195,23.7627]],[[90.2803,23.658],[90.2751,23.658],[90.276,23.6548],[90.2803,23.658]],[[90.4066,23.5755],[90.3789,23.5678],[90.3951,23.5661],[90.4066,23.5755]],[[90.4677,23.5471],[90.4215,23.5658],[90.4377,23.5451],[90.4677,23.5471]],[[92.5551,22.4168],[92.5617,22.3772],[92.5715,22.3472],[92.5686,22.3578],[92.5551,22.4168]],[[92.58,22.3088],[92.5768,22.2712],[92.587,22.254],[92.58,22.3088]],[[92.5899,22.231],[92.5929,22.195],[92.5954,22.1876],[92.5899,22.231]],[[92.5872,22.0811],[92.5842,22.1375],[92.5644,22.1293],[92.5872,22.0811]]],[[[88.8255,21.5594],[88.8278,21.5997],[88.85,21.6086],[88.898,21.5794],[88.9128,21.5444],[88.9036,21.5264],[88.8589,21.52],[88.8255,21.5594]]],[[[88.0466,21.6431],[88.053,21.7208],[88.1325,21.8761],[88.1569,21.8431],[88.1667,21.7697],[88.1386,21.6233],[88.0466,21.6431]]],[[[88.5792,21.8269],[88.6278,21.9133],[88.6733,21.9125],[88.645,21.7847],[88.5936,21.7978],[88.5792,21.8269]]],[[[88.0681,21.8869],[88.0972,21.9447],[88.113,21.9486],[88.135,21.9139],[88.1225,21.8864],[88.0822,21.8478],[88.0681,21.8869]]]]}}