{"type":"Feature","properties":{"speciesId":522,"category":"DD","source":"IUCN Red List","simplifyTol":0.01,"clippedToSubcontinent":true},"geometry":{"type":"Polygon","coordinates":[[[80.1106,16.3985],[79.9475,16.4353],[79.8106,16.4985],[79.6685,16.609],[79.5738,16.83],[79.5867,17.0959],[79.6422,17.2878],[79.7475,17.451],[79.9685,17.5562],[80.2001,17.5773],[80.4421,17.5194],[80.5947,17.4194],[80.7421,17.0826],[80.7474,16.8405],[80.6789,16.6195],[80.5,16.4722],[80.2895,16.4037],[80.1106,16.3985]]]}}