{"type":"Feature","properties":{"speciesId":524,"category":"DD","source":"IUCN Red List","simplifyTol":0.01,"clippedToSubcontinent":true},"geometry":{"type":"MultiPolygon","coordinates":[[[[77.5033,10.387],[77.5996,10.3944],[77.7425,10.4824],[77.8745,10.4824],[78.0065,10.3944],[78.0533,10.3113],[78.1139,10.2508],[78.1038,10.1397],[77.9075,10.0205],[77.7865,10.0095],[77.7404,9.8723],[77.6216,9.7786],[77.5234,9.4585],[77.5234,9.3374],[77.4932,9.2364],[77.3821,9.1456],[77.3519,9.0295],[77.3418,8.8781],[77.4578,8.5854],[77.5666,8.5249],[77.5991,8.4088],[77.5638,8.3382],[77.4566,8.3269],[77.3686,8.4259],[77.0167,8.7118],[76.9986,8.7873],[77.0138,8.8832],[77.0188,9.1961],[76.9734,9.4887],[76.8069,9.7613],[76.7816,9.9126],[76.7748,10.1635],[76.5697,10.387],[76.5545,10.4778],[76.6201,10.5737],[76.7059,10.609],[76.7917,10.6141],[76.9067,10.5484],[77.0167,10.5374],[77.1047,10.4714],[77.4016,10.4494],[77.5033,10.387]]],[[[75.9717,11.5389],[75.8812,11.5573],[75.8079,11.6068],[75.7569,11.6838],[75.7401,11.7705],[75.7569,11.8573],[75.8079,11.9343],[75.8812,11.9837],[75.9717,12.0021],[76.0622,11.9837],[76.1354,11.9343],[76.1864,11.8573],[76.2033,11.7705],[76.1864,11.6838],[76.1354,11.6068],[76.0622,11.5573],[75.9717,11.5389]]]]}}