{"type":"Feature","properties":{"speciesId":525,"category":"NT","source":"IUCN Red List","simplifyTol":0.01,"clippedToSubcontinent":true},"geometry":{"type":"Polygon","coordinates":[[[77.2209,9.8479],[77.1386,9.8476],[77.0775,9.9031],[76.9775,9.9422],[77.0549,10.0349],[76.9644,10.0372],[76.7697,10.0904],[76.67,10.1356],[76.6294,10.1992],[76.6566,10.2339],[76.7064,10.2547],[76.8444,10.2617],[76.9509,10.234],[77.0911,10.3427],[77.5505,10.3936],[77.641,10.4469],[77.7497,10.426],[77.8085,10.3751],[77.8085,10.3079],[77.7338,10.2385],[77.6231,10.1857],[77.4477,10.0662],[77.2209,9.8479]],[[77.4849,10.102],[77.2948,10.0974],[77.3943,10.0395],[77.4849,10.102]]]}}