{"type":"Feature","properties":{"speciesId":526,"category":"DD","source":"IUCN Red List","simplifyTol":0.01,"clippedToSubcontinent":true},"geometry":{"type":"MultiPolygon","coordinates":[[[[77.4513,8.56],[77.3819,8.5735],[77.3203,8.6143],[77.2807,8.6729],[77.266,8.7453],[77.2807,8.8177],[77.3203,8.8763],[77.3819,8.9171],[77.4513,8.9306],[77.5207,8.9171],[77.5823,8.8763],[77.6231,8.8147],[77.6366,8.7453],[77.6231,8.6759],[77.5823,8.6143],[77.5207,8.5735],[77.4513,8.56]]],[[[77.3917,9.5409],[77.3023,9.5591],[77.2299,9.6079],[77.1811,9.6803],[77.1629,9.7697],[77.1811,9.8591],[77.2299,9.9315],[77.3023,9.9803],[77.3917,9.9985],[77.4811,9.9803],[77.5535,9.9315],[77.6023,9.8591],[77.6205,9.7697],[77.6023,9.6803],[77.5535,9.6079],[77.4811,9.5591],[77.3917,9.5409]]]]}}