{"type":"Feature","properties":{"speciesId":527,"category":"VU","source":"IUCN Red List","simplifyTol":0.01,"clippedToSubcontinent":true},"geometry":{"type":"MultiPolygon","coordinates":[[[[70.2513,21.1003],[70.1345,21.1235],[70.0356,21.1898],[69.9701,21.2875],[69.9466,21.4043],[69.9696,21.5211],[70.0356,21.6202],[70.1345,21.6864],[70.2513,21.7097],[70.3681,21.6864],[70.467,21.6202],[70.533,21.5211],[70.556,21.4057],[70.533,21.2889],[70.467,21.1898],[70.3681,21.1235],[70.2513,21.1003]]],[[[68.1913,23.7876],[68.1785,23.7629],[68.0514,23.7382],[68.0705,23.7478],[68.074,23.7953],[68.1177,23.8314],[68.1551,23.8173],[68.1729,23.8229],[68.1674,23.8444],[68.1836,23.8426],[68.1913,23.7876]]],[[[68.2576,23.8557],[68.2474,23.8543],[68.2581,23.8653],[68.2576,23.8557]]],[[[68.224,23.8419],[68.2062,23.8482],[68.2094,23.867],[68.2387,23.8734],[68.246,23.86],[68.224,23.8419]]],[[[67.391,23.9794],[67.4239,23.9778],[67.4094,23.9572],[67.391,23.9794]]],[[[67.4226,24.0661],[67.4046,24.0705],[67.4066,24.0719],[67.4226,24.0661]]],[[[67.1205,24.7108],[67.1134,24.747],[67.1371,24.7553],[67.1423,24.7495],[67.1205,24.7108]]],[[[66.6188,24.8954],[66.5961,24.8909],[66.6062,24.9055],[66.6188,24.8954]]],[[[64.1073,25.4172],[64.0651,25.4156],[64.1245,25.4227],[64.1073,25.4172]]],[[[66.5279,25.4597],[66.5058,25.4565],[66.5285,25.467],[66.5279,25.4597]]],[[[66.4226,25.522],[66.3967,25.5379],[66.3953,25.552],[66.4199,25.5522],[66.4226,25.522]]],[[[66.3516,25.5599],[66.3428,25.5618],[66.3439,25.5636],[66.3516,25.5599]]],[[[66.3873,25.5655],[66.3798,25.5631],[66.3842,25.5685],[66.3873,25.5655]]],[[[66.1976,25.5373],[66.1624,25.5407],[66.2052,25.5732],[66.1938,25.5568],[66.1976,25.5373]]],[[[66.3817,25.5807],[66.3694,25.5874],[66.3709,25.5899],[66.3817,25.5807]]],[[[66.3614,25.5854],[66.35,25.5891],[66.351,25.5923],[66.3614,25.5854]]],[[[66.3278,25.6103],[66.3043,25.6156],[66.3377,25.6157],[66.3278,25.6103]]],[[[66.3578,25.6132],[66.3485,25.6158],[66.3634,25.6159],[66.3578,25.6132]]],[[[64.5102,25.6147],[66.2764,25.6154],[66.2322,25.5904],[66.1901,25.5993],[66.1337,25.5443],[66.1328,25.5079],[66.0919,25.4796],[66.1956,25.4889],[66.2848,25.5421],[66.3141,25.5377],[66.3088,25.5465],[66.3349,25.5532],[66.358,25.5248],[66.3972,25.5216],[66.3943,25.5066],[66.4265,25.4826],[66.4752,25.4996],[66.5174,25.4921],[66.4928,25.4478],[66.5284,25.4158],[66.5059,25.4053],[66.3219,25.4669],[66.2341,25.4657],[66.0391,25.4266],[66.0238,25.4437],[66.0092,25.4368],[66.0144,25.4209],[65.9549,25.4132],[65.8387,25.4194],[65.773,25.3835],[65.6357,25.3495],[65.5178,25.3704],[65.5398,25.4202],[65.5057,25.3761],[65.3711,25.3902],[65.3381,25.3805],[65.3189,25.3967],[65.2551,25.3822],[65.2296,25.3209],[65.1955,25.3097],[64.9953,25.3252],[64.8271,25.3189],[64.7806,25.3477],[64.7927,25.3239],[64.688,25.3002],[64.3714,25.2629],[64.24,25.307],[64.2462,25.3325],[64.2233,25.318],[64.0838,25.3294],[64.0918,25.3659],[64.1175,25.3649],[64.0809,25.3978],[64.1419,25.4112],[64.1381,25.4323],[64.1651,25.4533],[64.1243,25.439],[64.1174,25.4545],[64.0642,25.4452],[64.0473,25.4314],[64.0287,25.465],[64.0287,25.4441],[63.9915,25.4264],[64.0198,25.4249],[64.0058,25.4066],[63.9744,25.4234],[63.9678,25.4056],[63.9913,25.4099],[64.0042,25.3844],[64.0208,25.4095],[64.0361,25.4061],[64.072,25.3632],[64.0643,25.3283],[63.6751,25.3827],[63.5356,25.3457],[63.4811,25.2844],[63.4561,25.2952],[63.5039,25.2262],[63.4961,25.2145],[63.1353,25.2576],[63.2745,25.6623],[63.9755,25.6623],[64.5102,25.6147]]],[[[72.8449,32.8502],[73.6264,33.1154],[73.6283,33.0947],[73.7503,33.0531],[73.8058,33.0089],[73.9211,33.0342],[74.0028,32.9517],[74.3328,32.8156],[74.3717,32.7711],[74.4545,32.7931],[74.5315,32.7407],[74.6147,32.7577],[74.6415,32.7919],[74.642,32.8229],[74.697,32.8397],[74.6501,32.7184],[74.6762,32.658],[74.6422,32.611],[74.6524,32.5602],[74.6805,32.5382],[74.6867,32.4931],[74.7477,32.4792],[74.8353,32.4962],[74.9731,32.4479],[75.0302,32.4918],[75.0826,32.48],[75.1279,32.4212],[75.1885,32.4245],[75.1955,32.4053],[75.2315,32.3992],[75.3339,32.3266],[75.4925,32.3406],[75.5022,32.3258],[75.4755,32.2869],[75.4964,32.2594],[75.5294,32.2769],[75.534,32.3376],[75.5644,32.3643],[75.6153,32.3913],[75.6918,32.3986],[75.727,32.4276],[75.7327,32.453],[75.83,32.4978],[75.8702,32.5417],[75.8814,32.5873],[75.928,32.6117],[75.9189,32.6878],[75.9474,32.7297],[76.2005,31.8864],[75.9251,31.3497],[75.2518,30.6875],[75.2064,29.9397],[75.2088,29.5683],[75.2353,29.5536],[75.2264,29.2185],[75.4749,28.9012],[75.1996,28.2091],[75.0447,27.1619],[75.7586,26.6146],[75.9675,26.1242],[75.7586,25.6152],[75.4968,25.3535],[74.8782,25.6866],[74.6878,25.9245],[74.5213,25.9721],[73.855,26.2975],[72.9437,25.7865],[72.8211,25.5453],[71.087,24.6874],[69.6934,24.1936],[69.1185,24.1118],[68.568,23.9631],[68.2113,23.7739],[68.2074,23.8372],[68.2221,23.8313],[68.2408,23.8494],[68.2556,23.835],[68.2675,23.8377],[68.2573,23.8761],[68.2747,23.9179],[68.3065,23.9135],[68.3188,23.9236],[68.2745,23.9372],[68.2377,23.9002],[68.1856,23.8863],[68.1889,23.8501],[68.1361,23.8696],[68.1421,23.8397],[68.1035,23.8555],[68.1044,23.8432],[68.076,23.8332],[68.053,23.8538],[68.0553,23.903],[68.042,23.9119],[68.0277,23.8693],[68.0446,23.7949],[67.9962,23.7867],[67.9202,23.8517],[67.9298,23.829],[67.872,23.8586],[67.8653,23.9016],[67.9027,23.9647],[67.8939,23.9751],[67.8485,23.9131],[67.4356,24.0615],[67.4184,24.0883],[67.4465,24.1203],[67.4088,24.084],[67.4047,24.0726],[67.3759,24.0829],[67.3626,24.1324],[67.4118,24.1233],[67.4245,24.1302],[67.3828,24.1326],[67.3453,24.1558],[67.3347,24.1763],[67.3545,24.1828],[67.3371,24.2265],[67.4016,24.2334],[67.4208,24.2098],[67.4312,24.2214],[67.4317,24.2472],[67.4212,24.2167],[67.4143,24.234],[67.3501,24.2542],[67.3613,24.2757],[67.3814,24.2732],[67.3934,24.2874],[67.3585,24.2837],[67.3259,24.2449],[67.2972,24.3074],[67.3299,24.3339],[67.3596,24.2907],[67.3386,24.3323],[67.3466,24.3428],[67.4109,24.3113],[67.4421,24.3161],[67.449,24.3322],[67.4906,24.3218],[67.5146,24.3424],[67.5291,24.3345],[67.5124,24.3526],[67.4873,24.3263],[67.4566,24.3422],[67.4343,24.3227],[67.3665,24.351],[67.369,24.3857],[67.4177,24.3865],[67.4229,24.3603],[67.4278,24.3918],[67.4158,24.4014],[67.3605,24.3877],[67.3491,24.4005],[67.4169,24.4368],[67.4646,24.4235],[67.4727,24.4269],[67.3902,24.4501],[67.3753,24.4341],[67.3834,24.4544],[67.3604,24.4608],[67.4009,24.4844],[67.4218,24.4644],[67.4504,24.4602],[67.455,24.4655],[67.436,24.4797],[67.4213,24.4707],[67.4039,24.5064],[67.412,24.5215],[67.3919,24.5161],[67.4022,24.493],[67.3743,24.4721],[67.3424,24.4591],[67.3099,24.4622],[67.3258,24.4653],[67.3282,24.4852],[67.3523,24.4797],[67.3702,24.5304],[67.3975,24.5246],[67.3987,24.5468],[67.3684,24.536],[67.3552,24.546],[67.3807,24.571],[67.4136,24.5857],[67.4396,24.5746],[67.4071,24.5894],[67.3234,24.5491],[67.304,24.5532],[67.3152,24.5589],[67.299,24.5815],[67.3203,24.5757],[67.3231,24.5906],[67.371,24.6081],[67.3838,24.6377],[67.4069,24.6358],[67.4143,24.6494],[67.4405,24.6404],[67.4532,24.6537],[67.4416,24.6479],[67.4203,24.6727],[67.4325,24.6982],[67.3932,24.7046],[67.3515,24.7423],[67.3493,24.7629],[67.4528,24.7761],[67.4681,24.7538],[67.4637,24.7775],[67.3755,24.7834],[67.3296,24.7712],[67.2456,24.7849],[67.2199,24.8141],[67.174,24.781],[67.1547,24.7937],[67.1224,24.7788],[67.1049,24.7976],[67.1023,24.7781],[67.0908,24.7921],[67.0931,24.7569],[67.0217,24.8083],[66.9758,24.8108],[66.9736,24.8306],[66.9627,24.825],[66.9825,24.8579],[66.9538,24.861],[66.9122,24.8447],[66.9578,24.8259],[66.9792,24.7917],[66.862,24.8569],[66.8191,24.8344],[66.7562,24.8438],[66.6833,24.8214],[66.6514,24.8294],[66.6843,24.8757],[66.722,24.8918],[66.6869,24.8927],[66.6754,24.9236],[66.7004,24.9496],[66.7041,25.0826],[66.7386,25.1422],[66.7373,25.1964],[66.6783,25.2711],[66.5501,25.3652],[66.5553,25.3922],[66.5794,25.3729],[66.5783,25.4114],[66.5942,25.425],[66.56,25.4529],[66.5576,25.5381],[66.5289,25.5422],[66.5159,25.5634],[66.5429,25.6144],[66.5414,25.6426],[66.4995,25.5743],[66.4799,25.5877],[66.4672,25.5699],[66.4552,25.6194],[66.4454,25.5972],[66.3991,25.5835],[66.3676,25.6159],[67.4369,25.8011],[67.8176,25.8325],[68.2728,26.2575],[68.9458,26.8347],[69.7433,26.6385],[70.1616,26.2019],[70.4365,26.1564],[70.1667,26.307],[70.5951,27.0905],[71.016,27.7552],[71.7489,27.9112],[72.9998,29.1465],[73.6603,29.6105],[73.3237,29.7048],[72.5128,29.8333],[71.5733,29.7817],[70.8789,29.2223],[70.4997,28.9528],[70.1085,29.281],[69.9896,29.4],[70.7806,30.0943],[70.8244,30.9381],[71.1793,31.4701],[70.8642,31.6916],[70.632,32.1126],[70.3036,32.3319],[69.8468,32.7788],[69.5798,33.0973],[69.6642,33.8733],[69.8135,34.4083],[70.5225,34.4184],[71.12,34.2688],[71.5941,33.5289],[72.1311,32.874],[72.8449,32.8502]]]]}}