{"type":"Feature","properties":{"speciesId":528,"category":"LC","source":"IUCN Red List","simplifyTol":0.01,"clippedToSubcontinent":true},"geometry":{"type":"MultiPolygon","coordinates":[[[[74.4786,14.0953],[74.4748,14.0931],[74.4746,14.0957],[74.4786,14.0953]]],[[[74.4705,14.1065],[74.47,14.1083],[74.4703,14.1079],[74.4705,14.1065]]],[[[74.2486,14.6996],[74.246,14.702],[74.2488,14.7011],[74.2486,14.6996]]],[[[74.2345,14.7079],[74.2316,14.7096],[74.2353,14.7098],[74.2345,14.7079]]],[[[74.1451,14.7215],[74.1419,14.7216],[74.1435,14.7234],[74.1451,14.7215]]],[[[74.1524,14.7386],[74.1492,14.7349],[74.1488,14.7389],[74.1524,14.7386]]],[[[74.1152,14.754],[74.1034,14.7558],[74.1052,14.7621],[74.1152,14.754]]],[[[73.9592,17.0234],[74.0772,16.2647],[74.1953,16.0455],[74.5156,15.3374],[74.7853,14.8991],[75.1225,14.5113],[75.2911,14.1741],[75.3923,13.7189],[75.3923,13.4155],[75.6957,12.4545],[75.9149,12.0498],[76.1341,11.8475],[76.5724,11.6621],[76.7579,11.3755],[76.7579,11.1057],[76.6736,10.8022],[76.7073,10.5325],[77.0445,10.4482],[77.2468,10.2627],[77.3143,9.8918],[77.3143,9.6558],[77.3817,9.2849],[77.2805,9.1163],[77.2974,8.9477],[77.4491,8.7285],[77.4997,8.3576],[77.1625,8.307],[76.9508,8.4296],[76.7096,8.7221],[76.5556,8.9477],[76.4846,9.1394],[76.4921,9.1672],[76.4759,9.1628],[76.2896,9.6853],[76.2446,9.9545],[76.1596,10.1757],[76.1004,10.4482],[75.8598,10.998],[75.8326,11.1235],[75.8054,11.1508],[75.7296,11.3316],[75.7333,11.354],[75.662,11.4935],[75.5615,11.6275],[75.5294,11.6966],[75.5386,11.7048],[75.3696,11.8552],[75.1488,12.1182],[75.0648,12.3407],[75.0296,12.3922],[75.0386,12.4111],[75.0229,12.3997],[75.0063,12.4371],[75.0154,12.4444],[74.994,12.4534],[74.8359,12.8254],[74.776,13.0949],[74.7699,13.0782],[74.6891,13.3799],[74.6657,13.6381],[74.6428,13.6709],[74.6058,13.8523],[74.6169,13.8576],[74.565,13.9466],[74.5278,13.9626],[74.505,14.0011],[74.3953,14.4186],[74.3538,14.5117],[74.324,14.5132],[74.2643,14.626],[74.2946,14.6402],[74.2751,14.6467],[74.2756,14.6779],[74.2537,14.7068],[74.2633,14.7094],[74.2647,14.7201],[74.2582,14.7122],[74.2215,14.7472],[74.1993,14.7176],[74.1765,14.7446],[74.1477,14.7464],[74.1341,14.7778],[74.1039,14.7843],[74.0911,14.8021],[74.1171,14.8034],[74.1249,14.8405],[74.1079,14.8451],[74.0912,14.8945],[74.0388,14.9156],[74.0487,14.9568],[74.0298,14.9815],[74.0476,14.9848],[73.9857,15.0225],[73.9786,15.0504],[73.95,15.0729],[73.9138,15.0871],[73.9118,15.1089],[73.9458,15.1408],[73.8949,15.3115],[73.8692,15.3651],[73.8185,15.3719],[73.8073,15.4055],[73.8757,15.3984],[73.8899,15.4192],[73.8764,15.4337],[73.8584,15.4258],[73.845,15.4491],[73.7914,15.4532],[73.8177,15.5046],[73.7791,15.4901],[73.6872,15.7154],[73.6493,15.7433],[73.655,15.7734],[73.6238,15.8436],[73.5838,15.9077],[73.4981,15.9518],[73.5097,15.9913],[73.4955,15.985],[73.4774,16.0393],[73.4563,16.0581],[73.4839,16.0698],[73.4595,16.0759],[73.4705,16.113],[73.4608,16.0941],[73.4377,16.1936],[73.4522,16.2253],[73.428,16.2044],[73.4118,16.2564],[73.4119,16.2734],[73.4392,16.2897],[73.4061,16.2808],[73.3773,16.3605],[73.3721,16.3896],[73.3948,16.3901],[73.4084,16.4088],[73.3704,16.399],[73.3639,16.4356],[73.3812,16.4487],[73.3625,16.4436],[73.3513,16.5074],[73.3698,16.5219],[73.3536,16.5338],[73.3569,16.5645],[73.3377,16.6025],[73.3479,16.5967],[73.3593,16.6253],[73.3347,16.6237],[73.3276,16.6797],[73.3429,16.6911],[73.3253,16.6896],[73.2881,16.9503],[73.3057,16.9717],[73.2833,16.9834],[73.2784,17.0176],[73.2924,17.0077],[73.2813,17.0365],[73.3264,17.0286],[73.2797,17.0446],[73.2914,17.0704],[73.2685,17.1133],[73.2407,17.2819],[73.2569,17.2599],[73.2657,17.2889],[73.297,17.2812],[73.2909,17.2948],[73.2395,17.2904],[73.1331,17.8832],[73.4703,18.0518],[73.8749,18.0518],[73.9592,17.5966],[73.9592,17.0234]]],[[[74.0833,14.7935],[74.0817,14.791],[74.0817,14.7939],[74.0833,14.7935]]],[[[74.0529,14.817],[74.0499,14.8172],[74.0567,14.8188],[74.0529,14.817]]],[[[74.0961,14.8432],[74.0918,14.8414],[74.0919,14.8455],[74.0961,14.8432]]],[[[74.1,14.8622],[74.0991,14.8645],[74.0999,14.8645],[74.1,14.8622]]],[[[74.0919,14.8759],[74.0891,14.8748],[74.0899,14.8778],[74.0919,14.8759]]],[[[73.5407,15.925],[73.5379,15.9247],[73.5395,15.9267],[73.5407,15.925]]],[[[73.4957,15.9712],[73.4863,15.9812],[73.4838,16.0],[73.4877,16.0],[73.4957,15.9712]]],[[[73.3585,16.5193],[73.35,16.5167],[73.3485,16.5272],[73.3585,16.5193]]]]}}