{"type":"Feature","properties":{"speciesId":537,"category":"DD","source":"IUCN Red List","simplifyTol":0.01,"clippedToSubcontinent":true},"geometry":{"type":"MultiPolygon","coordinates":[[[[93.5291,8.1792],[93.513,8.1811],[93.4996,8.1446],[93.5465,8.0824],[93.5445,8.0392],[93.5269,8.047],[93.5052,8.0296],[93.4994,7.9923],[93.484,8.0109],[93.4839,8.0886],[93.4623,8.1053],[93.4713,8.1206],[93.4564,8.1165],[93.4513,8.1697],[93.4878,8.1987],[93.4908,8.2198],[93.5188,8.2298],[93.5382,8.2269],[93.5435,8.2092],[93.5291,8.1792]]],[[[96.6724,17.3327],[96.655,17.3372],[96.6759,17.3462],[96.6724,17.3327]]],[[[96.7677,17.3663],[96.778,17.3694],[96.7687,17.3647],[96.7677,17.3663]]],[[[96.8428,17.407],[96.819,17.3837],[96.7884,17.3795],[96.7385,17.4383],[96.792,17.4828],[96.8078,17.4389],[96.8428,17.407]]],[[[96.2461,20.9919],[96.273,20.6253],[96.2453,20.0642],[96.2955,19.7047],[96.4301,19.5617],[96.4703,19.3436],[96.5875,19.0183],[96.6519,18.685],[96.7513,18.5052],[96.7941,18.3553],[96.8512,18.2268],[96.9797,18.0341],[97.0511,17.8627],[97.0725,17.7271],[97.0258,17.5842],[97.0226,17.4487],[96.9882,17.3065],[96.9006,17.3713],[96.8832,17.4541],[96.8649,17.3961],[96.8417,17.3905],[96.849,17.4134],[96.8209,17.4331],[96.7918,17.4904],[96.7344,17.4353],[96.7735,17.3763],[96.7225,17.3474],[96.6924,17.3664],[96.6498,17.3383],[96.6683,17.2691],[96.6962,17.2479],[96.7086,17.2545],[96.6769,17.2675],[96.6854,17.3453],[96.725,17.3382],[96.8366,17.3809],[96.8401,17.3648],[96.8443,17.3762],[96.8597,17.3615],[96.856,17.3431],[96.863,17.3527],[96.9111,17.3215],[96.8907,17.3119],[96.9129,17.3049],[96.9024,17.2717],[96.8335,17.2052],[96.8487,17.2008],[96.913,17.0469],[96.8807,16.924],[96.8383,16.9272],[96.848,16.9584],[96.8297,16.9264],[96.7717,16.9292],[96.6299,16.8562],[96.5119,16.8882],[96.4547,16.9872],[96.395,17.0356],[96.3955,17.0808],[96.3344,17.1897],[96.2817,17.3903],[96.3058,17.5486],[96.1564,17.5883],[96.0814,17.7261],[96.0125,17.7378],[95.9008,17.6472],[95.8525,17.5697],[95.7755,17.5206],[95.7083,17.5161],[95.5673,17.6046],[95.4689,17.7031],[95.4328,17.944],[95.3308,18.0697],[95.2737,18.2054],[95.1441,18.3811],[95.2255,18.7544],[95.3165,18.8835],[95.4093,18.9478],[95.6591,19.0334],[95.828,19.1739],[95.8517,19.2347],[95.8444,19.3444],[95.8006,19.4637],[95.7258,19.5806],[95.7678,19.6831],[95.7892,19.8142],[95.763,19.9711],[95.7889,20.2128],[95.7466,20.3044],[95.7361,20.4194],[95.7053,20.5142],[95.5806,20.5182],[95.3022,20.561],[95.0625,20.6378],[94.9667,20.7181],[94.8453,20.9778],[94.9381,21.1036],[95.0095,21.1535],[95.1258,21.2881],[95.2951,21.2892],[95.3736,21.3534],[95.4735,21.6104],[95.5633,21.7419],[95.7083,21.6344],[95.8192,21.6714],[95.9589,21.746],[96.0367,21.9164],[96.0209,22.0465],[96.1374,22.2314],[96.2016,22.26],[96.3016,22.2243],[96.3373,22.16],[96.2944,22.0173],[96.2966,21.7622],[96.2659,21.6247],[96.2159,21.4962],[96.2622,21.1642],[96.2461,20.9919]]]]}}