{"type":"Feature","properties":{"speciesId":538,"category":"LC","source":"IUCN Red List","simplifyTol":0.01,"clippedToSubcontinent":true},"geometry":{"type":"MultiPolygon","coordinates":[[[[97.7962,8.8277],[97.8027,8.8284],[97.8002,8.8245],[97.7962,8.8277]]],[[[97.8181,9.0681],[97.8064,9.0702],[97.8084,9.0838],[97.8181,9.0681]]],[[[97.8699,9.3689],[97.8625,9.3707],[97.8678,9.3747],[97.8699,9.3689]]],[[[97.8668,9.422],[97.8627,9.405],[97.8825,9.3808],[97.8401,9.4145],[97.8668,9.422]]],[[[97.8347,9.4245],[97.8284,9.4188],[97.8321,9.4258],[97.8347,9.4245]]],[[[97.8544,9.4554],[97.9027,9.453],[97.9001,9.4218],[97.8775,9.4426],[97.8801,9.4145],[97.8462,9.4366],[97.8611,9.436],[97.8544,9.4554]]],[[[97.9537,9.6382],[97.9812,9.6199],[97.9709,9.6004],[97.9537,9.6382]]],[[[97.9119,9.6751],[97.904,9.6738],[97.911,9.6816],[97.9119,9.6751]]],[[[97.9959,10.0303],[97.9857,10.0312],[97.9923,10.0489],[97.9959,10.0303]]],[[[97.9784,10.0757],[97.9874,10.0526],[97.9745,10.0748],[97.9784,10.0757]]],[[[97.9321,10.1555],[97.92,10.1463],[97.9137,10.1544],[97.9321,10.1555]]],[[[97.9835,10.1325],[97.9731,10.1413],[97.9601,10.1236],[97.9814,10.1764],[97.9835,10.1325]]],[[[97.8819,10.2026],[97.876,10.1897],[97.8737,10.2003],[97.8819,10.2026]]],[[[98.0,10.3201],[97.9882,10.3267],[98.0,10.3565],[98.0,10.3201]]],[[[97.9718,10.3521],[97.9674,10.3544],[97.9723,10.3615],[97.9718,10.3521]]],[[[97.9439,10.3462],[97.9419,10.3598],[97.9521,10.3678],[97.9439,10.3462]]],[[[97.9507,10.3959],[97.9396,10.4023],[97.9455,10.4061],[97.9507,10.3959]]],[[[97.9655,10.4069],[97.9541,10.4173],[97.96,10.4338],[97.9637,10.4326],[97.9655,10.4069]]],[[[97.6887,10.4591],[97.6794,10.4619],[97.689,10.4663],[97.6887,10.4591]]],[[[97.909,10.4651],[97.9494,10.4738],[97.9352,10.4563],[97.9474,10.4528],[97.9458,10.4198],[97.9207,10.4268],[97.9132,10.4151],[97.9425,10.4115],[97.9155,10.3923],[97.8985,10.3965],[97.8941,10.4605],[97.9124,10.4938],[97.909,10.4651]]],[[[97.9217,10.5131],[97.8957,10.5024],[97.9208,10.5161],[97.9217,10.5131]]],[[[98.0,10.5605],[97.9915,10.537],[97.9451,10.5591],[97.9812,10.5704],[98.0,10.5605]]],[[[97.9961,10.8403],[97.9913,10.8487],[97.9957,10.8498],[97.9961,10.8403]]],[[[97.9996,10.8825],[98.0,10.8828],[98.0,10.8814],[97.9996,10.8825]]],[[[97.9464,10.9285],[97.9559,10.9027],[97.9448,10.867],[97.9226,10.8695],[97.8877,10.8415],[97.8927,10.8661],[97.9101,10.8674],[97.8944,10.8946],[97.9043,10.9151],[97.9267,10.9327],[97.9464,10.9285]]],[[[97.932,11.2717],[97.9241,11.275],[97.9321,11.277],[97.932,11.2717]]],[[[97.9996,11.3836],[97.9922,11.3983],[97.999,11.4087],[98.0,11.4051],[97.9996,11.3836]]],[[[97.9995,11.4354],[97.9809,11.4361],[97.9723,11.4422],[98.0,11.4487],[97.9995,11.4354]]],[[[97.5107,11.6427],[97.5009,11.6388],[97.5098,11.645],[97.5107,11.6427]]],[[[97.4988,11.7733],[97.4677,11.7701],[97.4402,11.8008],[97.4764,11.7938],[97.4988,11.7733]]],[[[97.4982,11.806],[97.5283,11.813],[97.5285,11.7808],[97.4993,11.7818],[97.4781,11.8145],[97.4977,11.8179],[97.4982,11.806]]],[[[97.6691,11.8226],[97.6649,11.8108],[97.6479,11.8162],[97.6691,11.8226]]],[[[97.4725,11.8145],[97.4711,11.8256],[97.4739,11.826],[97.4725,11.8145]]],[[[97.6752,11.8304],[97.6422,11.8705],[97.6742,11.8987],[97.6905,11.8764],[97.6752,11.8304]]],[[[97.9996,11.9566],[97.9753,11.9511],[97.9697,11.9569],[97.9915,11.9697],[97.9996,11.9566]]],[[[97.9311,11.9989],[97.9226,11.9877],[97.9231,12.0011],[97.9311,11.9989]]],[[[97.7537,11.9989],[97.7415,11.9906],[97.7355,12.0086],[97.7537,11.9989]]],[[[97.9849,12.0243],[97.9935,12.0019],[97.9683,12.014],[97.9849,12.0243]]],[[[97.791,12.0462],[97.7688,12.0359],[97.7609,12.0447],[97.7824,12.052],[97.791,12.0462]]],[[[97.9443,12.0419],[97.9397,12.0445],[97.9451,12.0528],[97.9443,12.0419]]],[[[97.6528,12.0075],[97.6522,12.0374],[97.6875,12.0546],[97.6828,12.0424],[97.6528,12.0075]]],[[[97.6468,12.0623],[97.6463,12.036],[97.6342,12.0365],[97.6354,12.057],[97.6468,12.0623]]],[[[97.9782,12.0519],[97.9626,12.0469],[97.9627,12.0244],[97.9537,12.061],[97.9782,12.0519]]],[[[97.9784,12.0812],[97.9737,12.0957],[97.9763,12.1033],[97.9849,12.0936],[97.9784,12.0812]]],[[[97.9973,12.0954],[97.9887,12.1039],[97.9897,12.1104],[98.0,12.1081],[97.9973,12.0954]]],[[[97.9746,12.1048],[97.9682,12.1183],[97.9735,12.1183],[97.9746,12.1048]]],[[[97.9811,12.13],[97.9745,12.1261],[97.9748,12.1337],[97.9811,12.13]]],[[[98.0,12.1232],[97.9979,12.1288],[97.9992,12.1421],[98.0,12.1232]]],[[[97.7462,12.1425],[97.748,12.1239],[97.7271,12.1025],[97.7141,12.1348],[97.7462,12.1425]]],[[[97.9377,12.2073],[97.927,12.2312],[97.9324,12.2427],[97.9398,12.2287],[97.9377,12.2073]]],[[[97.877,12.2434],[97.8679,12.242],[97.8756,12.2468],[97.877,12.2434]]],[[[97.9554,12.2751],[97.9431,12.2818],[97.96,12.2939],[97.9554,12.2751]]],[[[97.9698,12.2971],[97.9653,12.2893],[97.9675,12.2969],[97.9698,12.2971]]],[[[97.8671,12.2991],[97.8858,12.2931],[97.8635,12.28],[97.8671,12.2991]]],[[[97.7722,12.2629],[97.777,12.2806],[97.8035,12.3017],[97.7985,12.2759],[97.7722,12.2629]]],[[[97.9945,12.2795],[97.9813,12.3091],[97.9605,12.3213],[97.9453,12.3129],[97.9786,12.3388],[97.9686,12.3623],[97.9425,12.3311],[97.9567,12.3773],[97.9746,12.3869],[97.9765,12.3649],[98.0,12.3864],[97.9945,12.2795]]],[[[97.824,12.4268],[97.8198,12.4436],[97.8255,12.4728],[97.8371,12.4348],[97.824,12.4268]]],[[[97.795,12.5089],[97.8109,12.5042],[97.8027,12.4964],[97.795,12.5089]]],[[[97.8449,12.5994],[97.882,12.5668],[97.8529,12.539],[97.8266,12.5836],[97.8444,12.5842],[97.8449,12.5994]]],[[[97.8639,12.6069],[97.8515,12.606],[97.8555,12.6136],[97.8639,12.6069]]],[[[97.8616,12.621],[97.882,12.622],[97.8634,12.6145],[97.8616,12.621]]],[[[97.8716,12.8064],[97.8794,12.7659],[97.8403,12.7762],[97.8385,12.8003],[97.8557,12.8093],[97.8456,12.8203],[97.8716,12.8064]]],[[[97.9207,13.8593],[97.9272,13.8187],[97.9134,13.7836],[97.907,13.8613],[97.9207,13.8593]]],[[[97.9173,13.8862],[97.9021,13.9267],[97.9074,13.9421],[97.9169,13.926],[97.9173,13.8862]]],[[[97.8045,14.109],[97.8013,14.1339],[97.8154,14.1343],[97.8244,14.1246],[97.8045,14.109]]],[[[97.7919,14.1344],[97.7792,14.1517],[97.7883,14.176],[97.8229,14.1869],[97.7919,14.1344]]],[[[97.8071,14.2613],[97.802,14.2771],[97.8138,14.2806],[97.817,14.2704],[97.8071,14.2613]]],[[[97.7802,14.389],[97.7672,14.4001],[97.7835,14.4145],[97.7871,14.4064],[97.7802,14.389]]],[[[97.777,14.4412],[97.7657,14.4339],[97.7657,14.4376],[97.777,14.4412]]],[[[97.7389,15.0666],[97.7274,15.0641],[97.739,15.0756],[97.7389,15.0666]]],[[[97.744,15.0871],[97.7371,15.088],[97.7381,15.0963],[97.744,15.0871]]],[[[97.7407,15.2026],[97.7301,15.2004],[97.7351,15.2073],[97.7407,15.2026]]],[[[97.6462,15.5884],[97.6649,15.5236],[97.6552,15.494],[97.6462,15.5884]]],[[[95.1121,15.6704],[95.1074,15.6644],[95.1104,15.6706],[95.1121,15.6704]]],[[[95.0718,15.6742],[95.0564,15.6728],[95.0717,15.6793],[95.0718,15.6742]]],[[[95.2707,15.6782],[95.2641,15.6731],[95.2634,15.6823],[95.2707,15.6782]]],[[[95.2044,15.6826],[95.1915,15.6663],[95.1829,15.6738],[95.2044,15.6826]]],[[[95.0605,15.7203],[95.0181,15.7194],[95.0568,15.7419],[95.0605,15.7203]]],[[[95.0689,15.8164],[95.0534,15.8195],[95.0646,15.8444],[95.0689,15.8164]]],[[[94.2838,15.8652],[94.2738,15.8646],[94.2795,15.8707],[94.2838,15.8652]]],[[[95.0666,15.8747],[95.0606,15.8772],[95.0651,15.8834],[95.0666,15.8747]]],[[[94.8409,15.8952],[94.8346,15.8899],[94.8309,15.9062],[94.8409,15.8952]]],[[[94.4628,15.9129],[94.4518,15.9193],[94.464,15.9157],[94.4628,15.9129]]],[[[94.8107,15.7875],[94.7375,15.7916],[94.7306,15.814],[94.8088,15.9425],[94.8402,15.869],[94.8107,15.7875]]],[[[94.5213,15.9208],[94.5155,15.9292],[94.5225,15.9426],[94.5213,15.9208]]],[[[95.3142,15.9296],[95.321,15.9478],[95.3328,15.9568],[95.3321,15.9424],[95.3142,15.9296]]],[[[94.6686,15.9667],[94.6578,15.9625],[94.6672,15.9685],[94.6686,15.9667]]],[[[95.3453,15.9583],[95.3384,15.9631],[95.3452,15.9714],[95.3453,15.9583]]],[[[95.241,15.9118],[95.2378,15.9276],[95.2678,15.9852],[95.2683,15.9572],[95.241,15.9118]]],[[[95.104,15.939],[95.1036,15.9645],[95.1207,15.9944],[95.1186,15.9526],[95.104,15.939]]],[[[94.3422,16.0097],[94.3218,15.978],[94.2799,15.9896],[94.3322,16.0117],[94.3422,16.0097]]],[[[95.0846,16.0328],[95.0752,16.0156],[95.0836,16.0383],[95.0846,16.0328]]],[[[94.6944,16.0016],[94.7016,16.0264],[94.7171,16.0504],[94.7196,16.0274],[94.6944,16.0016]]],[[[94.8099,15.9774],[94.8423,16.0605],[94.86,16.0582],[94.8491,16.0],[94.8099,15.9774]]],[[[95.3453,16.0479],[95.3256,15.968],[95.2736,15.8683],[95.2366,15.8652],[95.273,15.9563],[95.28,16.022],[95.3198,16.079],[95.3453,16.0479]]],[[[94.6173,16.0416],[94.6182,16.0528],[94.6513,16.0928],[94.6425,16.0649],[94.6173,16.0416]]],[[[95.1806,16.075],[95.1811,16.025],[95.1377,16.0363],[95.0988,15.98],[95.1122,16.0688],[95.1719,16.1117],[95.2106,16.1027],[95.1806,16.075]]],[[[95.1586,16.1178],[95.1399,16.1177],[95.1617,16.1199],[95.1586,16.1178]]],[[[94.6684,16.1227],[94.665,16.1337],[94.6683,16.1346],[94.6684,16.1227]]],[[[94.5203,16.1307],[94.5275,16.1457],[94.5448,16.1502],[94.5345,16.1377],[94.5203,16.1307]]],[[[95.1362,16.1514],[95.1272,16.1447],[95.1335,16.1565],[95.1362,16.1514]]],[[[95.3263,16.1146],[95.3113,16.1457],[95.3183,16.1719],[95.3666,16.2017],[95.3641,16.1565],[95.3263,16.1146]]],[[[95.8876,16.2228],[95.8727,16.2216],[95.8943,16.2393],[95.8876,16.2228]]],[[[94.6367,16.0898],[94.5953,16.038],[94.5788,16.0516],[94.5903,16.0994],[94.5718,16.0745],[94.573,16.0451],[94.5966,16.0307],[94.5938,16.0155],[94.5131,15.9889],[94.4469,15.9199],[94.3974,15.8322],[94.4109,15.8631],[94.3929,15.9017],[94.3863,16.0],[94.4535,16.0189],[94.5847,16.1991],[94.6492,16.2476],[94.6728,16.2032],[94.6367,16.0898]]],[[[94.6604,16.2697],[94.6579,16.2763],[94.6624,16.2782],[94.6604,16.2697]]],[[[94.5347,16.2006],[94.5185,16.2316],[94.5266,16.2838],[94.5602,16.2407],[94.5347,16.2006]]],[[[95.9016,16.2554],[95.9031,16.273],[95.9078,16.2866],[95.9133,16.2749],[95.9016,16.2554]]],[[[94.6827,16.2978],[94.6777,16.3019],[94.6812,16.3123],[94.6827,16.2978]]],[[[97.5936,16.2399],[97.5768,16.2936],[97.5955,16.3324],[97.6161,16.2773],[97.5936,16.2399]]],[[[95.9615,16.2951],[95.9577,16.313],[95.9577,16.3487],[95.9672,16.3175],[95.9615,16.2951]]],[[[96.0779,16.3521],[96.0722,16.3487],[96.0648,16.3563],[96.0779,16.3521]]],[[[95.8751,16.2001],[95.9178,16.273],[95.913,16.3313],[95.9399,16.3786],[95.9563,16.3263],[95.9441,16.2473],[95.8751,16.2001]]],[[[94.5831,16.2228],[94.5746,16.2472],[94.6086,16.2773],[94.6139,16.3189],[94.6499,16.3302],[94.6864,16.3779],[94.6279,16.2577],[94.5831,16.2228]]],[[[96.021,16.2485],[95.927,16.2097],[95.9519,16.2379],[95.9703,16.3017],[95.971,16.3446],[95.9938,16.382],[96.0736,16.3414],[96.0835,16.3147],[96.021,16.2485]]],[[[95.9343,16.3798],[95.9279,16.3735],[95.9334,16.3835],[95.9343,16.3798]]],[[[94.234,16.3846],[94.227,16.3781],[94.2321,16.3873],[94.234,16.3846]]],[[[95.9515,16.3793],[95.9437,16.3836],[95.9477,16.39],[95.9515,16.3793]]],[[[94.6979,16.3684],[94.698,16.3876],[94.7024,16.3907],[94.7021,16.3785],[94.6979,16.3684]]],[[[95.9399,16.3965],[95.9325,16.3958],[95.9328,16.3981],[95.9399,16.3965]]],[[[96.0071,16.3859],[95.9936,16.3955],[95.9936,16.399],[96.0071,16.3859]]],[[[95.9658,16.3464],[95.9522,16.3705],[95.9586,16.4063],[95.9924,16.3898],[95.9658,16.3464]]],[[[97.6046,16.3789],[97.601,16.3972],[97.6051,16.4101],[97.6131,16.3953],[97.6046,16.3789]]],[[[96.3192,16.4688],[96.309,16.4677],[96.3076,16.4757],[96.3192,16.4688]]],[[[97.5905,16.4882],[97.5739,16.4879],[97.5694,16.493],[97.5905,16.4882]]],[[[97.5793,16.4835],[97.6081,16.4883],[97.6162,16.4666],[97.5794,16.3995],[97.5904,16.3597],[97.5642,16.2884],[97.5721,16.2436],[97.5543,16.2238],[97.5084,16.2396],[97.4639,16.3021],[97.4565,16.3187],[97.482,16.3525],[97.4711,16.3576],[97.478,16.3796],[97.4418,16.4469],[97.472,16.4712],[97.4489,16.4675],[97.4547,16.4823],[97.5023,16.5124],[97.5793,16.4835]]],[[[97.5467,16.5019],[97.5285,16.5115],[97.5532,16.5085],[97.5467,16.5019]]],[[[97.6557,16.5165],[97.6474,16.5138],[97.6558,16.5234],[97.6557,16.5165]]],[[[97.6083,16.5085],[97.5876,16.5066],[97.5555,16.5248],[97.6083,16.5085]]],[[[97.5148,16.5236],[97.4991,16.5271],[97.5211,16.5336],[97.5148,16.5236]]],[[[94.253,16.5291],[94.2422,16.5182],[94.2493,16.5399],[94.253,16.5291]]],[[[97.7152,16.5643],[97.7047,16.5617],[97.7035,16.5633],[97.7152,16.5643]]],[[[97.6425,16.5285],[97.6262,16.5365],[97.6435,16.5772],[97.6647,16.5554],[97.6425,16.5285]]],[[[97.6573,16.5738],[97.6481,16.5787],[97.6515,16.5872],[97.6573,16.5738]]],[[[96.3026,16.4723],[96.2944,16.4457],[96.3266,16.4653],[96.3211,16.447],[96.336,16.4437],[96.3069,16.408],[96.155,16.322],[96.1241,16.314],[96.0992,16.3264],[96.0897,16.3464],[96.1023,16.3716],[96.1432,16.3846],[96.1689,16.4176],[96.1488,16.4548],[96.1585,16.453],[96.1804,16.4603],[96.1895,16.4766],[96.1831,16.4835],[96.1985,16.4841],[96.1788,16.5142],[96.1851,16.5578],[96.1801,16.5847],[96.2356,16.5983],[96.2628,16.5187],[96.3026,16.4723]]],[[[97.6359,16.5736],[97.6122,16.58],[97.6261,16.6184],[97.6445,16.6024],[97.6359,16.5736]]],[[[96.3107,16.8499],[96.3016,16.8461],[96.3033,16.8612],[96.3107,16.8499]]],[[[97.1871,16.8463],[97.183,16.8705],[97.1928,16.8777],[97.1989,16.8658],[97.1871,16.8463]]],[[[96.6759,17.3462],[96.6652,17.3236],[96.655,17.3372],[96.6759,17.3462]]],[[[96.778,17.3694],[96.7677,17.3663],[96.7776,17.3754],[96.778,17.3694]]],[[[96.8399,17.4047],[96.7884,17.3795],[96.7385,17.4383],[96.792,17.4828],[96.8078,17.4389],[96.8399,17.4047]]],[[[94.5929,17.5688],[94.5871,17.5687],[94.588,17.5735],[94.5929,17.5688]]],[[[94.0883,18.0462],[94.0826,18.0583],[94.0996,18.0615],[94.0994,18.0544],[94.0883,18.0462]]],[[[94.4506,18.1328],[94.4417,18.1332],[94.4503,18.1388],[94.4506,18.1328]]],[[[94.3823,18.3461],[94.3727,18.3476],[94.3806,18.3498],[94.3823,18.3461]]],[[[93.9109,18.4304],[93.9043,18.4343],[93.9055,18.4414],[93.9109,18.4304]]],[[[94.2478,18.5369],[94.2351,18.5354],[94.2353,18.5403],[94.2478,18.5369]]],[[[93.7859,18.6024],[93.7754,18.6206],[93.7935,18.6657],[93.8024,18.6113],[93.7859,18.6024]]],[[[93.8182,18.7147],[93.811,18.7247],[93.8158,18.7252],[93.8182,18.7147]]],[[[94.0065,18.729],[93.9915,18.7312],[93.9846,18.744],[93.9961,18.7475],[94.0065,18.729]]],[[[93.9661,18.7794],[93.9393,18.8168],[93.9726,18.8367],[93.975,18.8025],[93.9923,18.7854],[93.9661,18.7794]]],[[[94.1131,18.8492],[94.1386,18.8543],[94.1191,18.8079],[94.0678,18.8476],[94.0864,18.8476],[94.1155,18.8697],[94.1131,18.8492]]],[[[93.5278,18.9017],[93.5252,18.8954],[93.5226,18.8981],[93.5278,18.9017]]],[[[93.6532,18.873],[93.7415,18.8723],[93.7474,18.7242],[93.7201,18.6758],[93.6913,18.6669],[93.6373,18.6853],[93.5448,18.7668],[93.4825,18.8677],[93.5766,18.8837],[93.6152,18.9146],[93.6532,18.873]]],[[[94.0394,19.0215],[94.0409,19.0389],[94.0542,19.0382],[94.0545,19.0336],[94.0394,19.0215]]],[[[94.0403,19.0527],[94.0186,19.0454],[94.0375,19.0623],[94.0403,19.0527]]],[[[94.0168,19.1014],[93.9972,19.103],[94.0165,19.106],[94.0168,19.1014]]],[[[93.8359,19.2586],[93.8195,19.2598],[93.8354,19.2629],[93.8359,19.2586]]],[[[93.7538,19.2865],[93.7518,19.2755],[93.7439,19.2818],[93.7538,19.2865]]],[[[93.8451,19.2768],[93.8351,19.2742],[93.8367,19.2933],[93.8451,19.2768]]],[[[93.8653,19.2833],[93.8532,19.2712],[93.8486,19.2721],[93.8502,19.296],[93.8653,19.2833]]],[[[93.8326,19.2758],[93.7868,19.2761],[93.7766,19.2976],[93.8275,19.295],[93.8326,19.2758]]],[[[94.0555,19.3461],[94.0403,19.3418],[94.0545,19.3488],[94.0555,19.3461]]],[[[93.6879,19.3625],[93.6571,19.3361],[93.6422,19.3591],[93.6746,19.377],[93.6879,19.3625]]],[[[93.6891,19.3979],[93.6737,19.391],[93.6631,19.4074],[93.6891,19.3979]]],[[[93.6616,19.429],[93.6551,19.4218],[93.6531,19.4273],[93.6616,19.429]]],[[[93.6362,19.4039],[93.6319,19.4231],[93.6274,19.4313],[93.6406,19.4241],[93.6362,19.4039]]],[[[93.6173,19.439],[93.5999,19.442],[93.614,19.4516],[93.6173,19.439]]],[[[93.5967,19.4615],[93.5902,19.4722],[93.5827,19.4751],[93.5946,19.4729],[93.5967,19.4615]]],[[[93.5372,19.4682],[93.5311,19.4769],[93.5522,19.4705],[93.5372,19.4682]]],[[[93.6273,19.4906],[93.6412,19.4492],[93.6058,19.4669],[93.6031,19.4877],[93.6273,19.4906]]],[[[93.5197,19.4767],[93.5116,19.4978],[93.5149,19.5022],[93.5338,19.4866],[93.5197,19.4767]]],[[[93.5182,19.5238],[93.5768,19.4794],[93.5489,19.4801],[93.5182,19.5238]]],[[[93.7689,19.5315],[93.8592,19.5002],[93.8301,19.4819],[93.7689,19.5315]]],[[[93.5319,19.5332],[93.5248,19.5359],[93.525,19.5391],[93.5319,19.5332]]],[[[93.6007,19.5511],[93.5878,19.5576],[93.5987,19.5569],[93.6007,19.5511]]],[[[93.4999,19.5532],[93.4938,19.5531],[93.4903,19.5639],[93.4999,19.5532]]],[[[93.6626,19.5572],[93.6502,19.5431],[93.6303,19.546],[93.6397,19.5666],[93.6626,19.5572]]],[[[93.6743,19.5716],[93.659,19.5753],[93.6597,19.5781],[93.6743,19.5716]]],[[[93.7184,19.5938],[93.7067,19.5966],[93.7034,19.6042],[93.7184,19.5938]]],[[[93.6354,19.6136],[93.6225,19.6185],[93.5988,19.612],[93.6156,19.6299],[93.6354,19.6136]]],[[[93.6614,19.6301],[93.6539,19.6291],[93.6549,19.6392],[93.6614,19.6301]]],[[[93.5469,19.649],[93.5394,19.6491],[93.5373,19.6578],[93.5469,19.649]]],[[[93.7,19.6579],[93.6921,19.6539],[93.6886,19.6621],[93.7,19.6579]]],[[[93.5894,19.6599],[93.5746,19.648],[93.5628,19.6584],[93.5801,19.6701],[93.5894,19.6599]]],[[[93.814,19.7108],[93.8093,19.7149],[93.8121,19.7273],[93.814,19.7108]]],[[[93.5022,19.7176],[93.4829,19.7251],[93.4726,19.7381],[93.4967,19.7301],[93.5022,19.7176]]],[[[93.4077,19.7406],[93.4407,19.7464],[93.495,19.7145],[93.5017,19.6741],[93.457,19.6907],[93.4077,19.7406]]],[[[93.5891,19.7461],[93.572,19.7093],[93.5452,19.7002],[93.5539,19.687],[93.5246,19.6804],[93.5162,19.7214],[93.5825,19.7697],[93.5891,19.7461]]],[[[93.704,19.7568],[93.69,19.7132],[93.6317,19.7182],[93.6559,19.7785],[93.6663,19.76],[93.6911,19.7895],[93.704,19.7568]]],[[[93.5518,19.7608],[93.5456,19.7889],[93.5806,19.7961],[93.5772,19.782],[93.5518,19.7608]]],[[[93.4054,19.7978],[93.3997,19.8053],[93.4035,19.8074],[93.4054,19.7978]]],[[[93.7368,19.7887],[93.6991,19.7962],[93.7435,19.8326],[93.7452,19.8097],[93.7368,19.7887]]],[[[93.5822,19.8035],[93.5507,19.8014],[93.5446,19.8059],[93.583,19.8359],[93.5964,19.8282],[93.5822,19.8035]]],[[[93.7265,19.8506],[93.7327,19.8242],[93.678,19.7891],[93.6827,19.8215],[93.7265,19.8506]]],[[[93.6423,19.8601],[93.7012,19.8521],[93.5996,19.7099],[93.593,19.7818],[93.6301,19.8135],[93.6423,19.8601]]],[[[93.7634,19.8635],[93.7925,19.8314],[93.7771,19.7662],[93.7124,19.7645],[93.7041,19.7837],[93.7335,19.7817],[93.7469,19.7906],[93.7545,19.8254],[93.7409,19.8453],[93.7634,19.8635]]],[[[93.7206,19.8914],[93.7113,19.8908],[93.7106,19.8934],[93.7206,19.8914]]],[[[93.7234,19.8811],[93.7357,19.8838],[93.7369,19.8696],[93.6902,19.8775],[93.6632,19.8581],[93.6521,19.8729],[93.6831,19.8949],[93.7234,19.8811]]],[[[93.575,19.8794],[93.5936,19.9044],[93.6058,19.9024],[93.5855,19.8796],[93.575,19.8794]]],[[[93.6607,19.9012],[93.5996,19.843],[93.5459,19.8272],[93.5471,19.8669],[93.594,19.8746],[93.6184,19.9037],[93.6607,19.9012]]],[[[93.5187,19.8667],[93.5011,19.9039],[93.5199,19.9157],[93.531,19.9023],[93.5187,19.8667]]],[[[93.7233,19.9209],[93.7142,19.9279],[93.7264,19.9232],[93.7233,19.9209]]],[[[93.5093,19.9231],[93.4897,19.9217],[93.5036,19.9304],[93.5093,19.9231]]],[[[93.4994,19.9347],[93.4678,19.935],[93.4991,19.9572],[93.4994,19.9347]]],[[[93.3958,19.9583],[93.4275,19.9541],[93.4602,19.9091],[93.4978,19.8995],[93.5081,19.8392],[93.4692,19.8297],[93.4989,19.8214],[93.5212,19.7592],[93.5112,19.7345],[93.4446,19.7875],[93.4312,19.8676],[93.3966,19.9247],[93.3958,19.9583]]],[[[93.4629,19.939],[93.4711,19.9623],[93.4875,19.9522],[93.4779,19.9436],[93.4629,19.939]]],[[[93.4864,19.9612],[93.4747,19.9808],[93.4747,19.9909],[93.497,19.9809],[93.4864,19.9612]]],[[[93.4609,19.9581],[93.4445,19.9836],[93.4499,19.9931],[93.4635,19.9765],[93.4609,19.9581]]],[[[93.235,19.8134],[93.1633,19.9447],[93.1267,20.0519],[93.1638,20.0113],[93.1809,19.9394],[93.2492,19.8221],[93.235,19.8134]]],[[[93.1285,20.062],[93.1188,20.0584],[93.1264,20.0691],[93.1285,20.062]]],[[[93.1585,20.0669],[93.1752,20.0428],[93.1373,20.0718],[93.1585,20.0669]]],[[[93.3333,20.0521],[93.3317,20.0642],[93.339,20.0728],[93.3416,20.066],[93.3333,20.0521]]],[[[93.0291,19.8189],[93.0134,19.8954],[92.9159,20.0553],[92.926,20.0833],[92.9602,20.0616],[93.02,19.9194],[93.0358,19.8746],[93.0291,19.8189]]],[[[92.9967,20.1116],[93.0682,20.116],[93.0872,20.0864],[93.074,20.0766],[93.1218,20.0396],[93.14,19.9983],[93.1133,19.9816],[93.1051,19.9366],[93.175,19.7877],[93.0568,19.9513],[93.0421,20.0089],[92.9793,20.0713],[92.9746,20.1264],[92.9967,20.1116]]],[[[93.328,20.1069],[93.3118,20.1313],[93.313,20.1366],[93.3256,20.1211],[93.328,20.1069]]],[[[93.1267,20.079],[93.1119,20.0615],[93.0988,20.0779],[93.0949,20.0879],[93.1195,20.0869],[93.0855,20.1002],[93.0736,20.1239],[93.0877,20.1388],[93.1092,20.1359],[93.1267,20.079]]],[[[93.0665,20.1258],[93.0674,20.1456],[93.0863,20.1643],[93.0895,20.1485],[93.0665,20.1258]]],[[[93.2991,20.0481],[93.2862,20.0946],[93.3034,20.1704],[93.3109,20.1152],[93.3309,20.0821],[93.2991,20.0481]]],[[[93.0953,20.1603],[93.095,20.1789],[93.113,20.179],[93.1024,20.1719],[93.0953,20.1603]]],[[[93.2119,20.1598],[93.2312,20.113],[93.2035,20.0935],[93.1892,20.0627],[93.1329,20.0846],[93.1113,20.1403],[93.0981,20.1542],[93.123,20.1798],[93.1717,20.1884],[93.1898,20.168],[93.2119,20.1598]]],[[[92.965,20.1694],[92.9516,20.1975],[92.9752,20.2112],[92.978,20.1795],[92.965,20.1694]]],[[[92.9744,20.2179],[92.9608,20.2151],[92.9804,20.2315],[92.9744,20.2179]]],[[[92.7417,20.2186],[92.7343,20.2213],[92.7338,20.2383],[92.7417,20.2186]]],[[[92.9286,20.1897],[92.9164,20.2045],[92.9252,20.2444],[92.9426,20.2506],[92.9504,20.2119],[92.9286,20.1897]]],[[[93.2528,20.1437],[93.2845,20.1445],[93.2744,20.0854],[93.2911,20.0604],[93.275,20.0333],[93.2057,20.0498],[93.2079,20.0922],[93.2467,20.116],[93.2292,20.1567],[93.1829,20.1916],[93.2081,20.2124],[93.2167,20.2346],[93.2528,20.2427],[93.2512,20.2636],[93.2766,20.2438],[93.3004,20.1904],[93.2837,20.158],[93.2528,20.1437]]],[[[93.2728,20.2683],[93.2347,20.2758],[93.2548,20.3126],[93.2708,20.3147],[93.2636,20.2969],[93.2728,20.2683]]],[[[93.3231,20.3224],[93.3364,20.2789],[93.3577,20.27],[93.3906,20.2092],[93.4112,20.1214],[93.4012,20.1103],[93.3839,20.1859],[93.3959,20.1024],[93.3666,20.084],[93.3799,20.0275],[93.3672,20.0156],[93.3556,20.0728],[93.3143,20.1414],[93.3067,20.2079],[93.2713,20.2575],[93.2776,20.2882],[93.2677,20.2972],[93.2839,20.3204],[93.3231,20.3224]]],[[[93.2914,20.353],[93.2847,20.3436],[93.2902,20.3544],[93.2914,20.353]]],[[[92.7522,20.3625],[92.7468,20.3513],[92.7418,20.3584],[92.7522,20.3625]]],[[[93.1334,20.3059],[93.1755,20.3243],[93.2152,20.3051],[93.143,20.2188],[93.1272,20.2428],[93.1284,20.2167],[93.0046,20.1324],[92.9958,20.1906],[93.0221,20.2687],[93.04,20.2773],[93.04,20.3263],[93.0911,20.3689],[93.12,20.3744],[93.1322,20.3447],[93.1199,20.3296],[93.1288,20.321],[93.1403,20.3166],[93.1334,20.3059]]],[[[92.8766,20.4023],[92.8882,20.3848],[92.8454,20.3947],[92.8766,20.4023]]],[[[92.8278,20.4109],[92.8169,20.4066],[92.8166,20.4091],[92.8278,20.4109]]],[[[92.7623,20.4323],[92.8214,20.4216],[92.8122,20.4063],[92.8665,20.3114],[92.8411,20.2875],[92.7948,20.2773],[92.7874,20.2901],[92.7807,20.2786],[92.7647,20.3199],[92.7623,20.4323]]],[[[92.8048,20.4859],[92.7789,20.4549],[92.7891,20.4417],[92.7635,20.4417],[92.7559,20.4701],[92.7683,20.4705],[92.7973,20.4995],[92.8048,20.4859]]],[[[93.1093,20.4186],[93.0785,20.4073],[93.0778,20.3641],[93.0435,20.3504],[93.038,20.423],[93.0851,20.5053],[93.1093,20.4186]]],[[[92.7219,20.5749],[92.7008,20.5817],[92.6991,20.6048],[92.7219,20.5749]]],[[[92.6335,20.6965],[92.6086,20.6838],[92.5844,20.7087],[92.6185,20.7141],[92.6353,20.7243],[92.6335,20.6965]]],[[[92.5627,20.7432],[92.5806,20.749],[92.5749,20.7317],[92.5864,20.7294],[92.5754,20.7211],[92.5491,20.7402],[92.5512,20.757],[92.5627,20.7432]]],[[[92.2969,20.9277],[92.2813,20.9476],[92.3007,20.9774],[92.3098,20.9528],[92.2969,20.9277]]],[[[92.3326,20.9939],[92.3553,20.9436],[92.3145,20.9072],[92.3036,20.9269],[92.3159,20.9543],[92.3067,20.9822],[92.3326,20.9939]]],[[[92.2638,21.0272],[92.2566,21.0234],[92.2613,21.0311],[92.2638,21.0272]]],[[[92.2201,21.109],[92.211,21.1081],[92.2168,21.1148],[92.2201,21.109]]],[[[92.2179,21.1304],[92.2124,21.1257],[92.2076,21.1318],[92.2179,21.1304]]],[[[90.136,23.582],[90.1261,23.5945],[90.1311,23.5908],[90.136,23.582]]],[[[89.9699,23.9479],[90.0227,23.9072],[90.0262,23.8817],[90.0468,23.8894],[90.0625,23.8769],[90.047,23.8255],[90.0572,23.8201],[90.1104,23.8573],[90.1117,23.8736],[90.1319,23.8674],[90.1518,23.8291],[90.194,23.8405],[90.2396,23.827],[90.2298,23.8877],[90.2571,23.7757],[90.2548,23.7303],[90.3128,23.7642],[90.3176,23.735],[90.3421,23.7401],[90.3658,23.7034],[90.3837,23.7022],[90.368,23.7186],[90.4427,23.6684],[90.4703,23.6298],[90.4539,23.6149],[90.4839,23.5866],[90.505,23.6033],[90.5147,23.5814],[90.5531,23.5715],[90.6324,23.6392],[90.6429,23.6899],[90.6818,23.6867],[90.7156,23.7414],[90.7315,23.7102],[90.7403,23.7242],[90.7425,23.6938],[90.7578,23.721],[90.7414,23.6621],[90.7646,23.629],[90.7392,23.6216],[90.7057,23.5618],[90.7084,23.5386],[90.7254,23.5534],[90.7443,23.5443],[90.7178,23.5428],[90.7039,23.4901],[90.6303,23.4903],[90.5856,23.4669],[90.6007,23.4314],[90.5796,23.3948],[90.5987,23.3393],[90.6738,23.3213],[90.6616,23.3375],[90.6733,23.3642],[90.695,23.3777],[90.6796,23.3628],[90.6978,23.3457],[90.6754,23.3407],[90.6776,23.3183],[90.6389,23.3166],[90.6524,23.2423],[90.598,23.1778],[90.5663,23.1036],[90.6294,22.9981],[90.6896,22.9783],[90.7333,22.8875],[90.7954,22.8634],[90.7958,22.898],[90.7578,22.9387],[90.8016,22.9088],[90.8246,22.8647],[90.9375,22.8561],[91.0287,22.7996],[91.0831,22.8],[91.1127,22.8262],[91.1164,22.8119],[91.1869,22.7977],[91.2963,22.8102],[91.3451,22.7758],[91.3525,22.7861],[91.3158,22.8394],[91.3427,22.8832],[91.3506,22.8515],[91.3301,22.8335],[91.4086,22.7609],[91.4204,22.8087],[91.4647,22.869],[91.464,22.8832],[91.441,22.8836],[91.4452,22.9007],[91.4922,22.9007],[91.4566,22.8989],[91.4836,22.8741],[91.4356,22.8048],[91.4746,22.8241],[91.4369,22.7772],[91.4547,22.7602],[91.4778,22.7633],[91.4692,22.7787],[91.4859,22.7668],[91.4576,22.7511],[91.5811,22.6536],[91.7001,22.4841],[91.7519,22.3866],[91.7693,22.2784],[91.798,22.2196],[91.829,22.2566],[91.7952,22.2778],[91.7955,22.2927],[91.8723,22.3498],[91.8964,22.4094],[91.9541,22.421],[92.0029,22.4124],[92.0331,22.4505],[92.0873,22.4443],[92.1439,22.4703],[92.0815,22.4371],[92.0349,22.4459],[92.0019,22.4046],[91.9129,22.4086],[91.8666,22.3221],[91.8147,22.3049],[91.842,22.2605],[91.8141,22.1798],[91.8345,22.1221],[91.8548,22.1276],[91.894,21.9714],[90.9144,22.5899],[90.1944,23.5075],[90.2765,23.4502],[90.4204,23.4161],[90.4858,23.4204],[90.5281,23.3907],[90.5539,23.4263],[90.538,23.4837],[90.5689,23.4752],[90.5525,23.5394],[90.5168,23.5727],[90.4457,23.5421],[90.4098,23.5802],[90.3951,23.5661],[90.3789,23.5678],[90.3969,23.5739],[90.3976,23.6021],[90.276,23.6548],[90.2477,23.7076],[90.2205,23.7031],[90.1739,23.7165],[90.1497,23.7043],[90.1335,23.7111],[90.1205,23.7334],[90.1068,23.7323],[90.0195,23.7627],[90.0021,23.816],[90.0245,23.7952],[90.0232,23.7635],[90.1219,23.7371],[90.1492,23.7107],[90.1626,23.7198],[90.1924,23.7203],[90.1813,23.7401],[90.2208,23.7081],[90.2383,23.7112],[90.2557,23.7074],[90.2746,23.6862],[90.2524,23.721],[90.221,23.7216],[90.2059,23.7537],[90.2415,23.8149],[90.2226,23.8004],[90.2068,23.8157],[90.1837,23.8023],[90.1247,23.8071],[90.0887,23.83],[90.0691,23.8163],[90.0466,23.8174],[90.0409,23.8278],[90.0547,23.8732],[90.0144,23.8769],[90.0192,23.8936],[89.9378,23.9554],[89.9487,23.9598],[89.9328,23.9846],[89.9523,23.9846],[89.9699,23.9479]]],[[[88.64,25.4884],[88.629,25.5026],[88.6451,25.5033],[88.64,25.4884]]],[[[88.8003,25.5169],[88.839,25.4595],[88.8104,25.4161],[88.8316,25.4061],[88.8342,25.3713],[88.8781,25.3352],[88.8952,25.3429],[88.9096,25.3201],[88.9958,25.3178],[89.0113,25.2988],[88.9976,25.2741],[88.9465,25.2512],[88.9553,25.2154],[88.9337,25.214],[88.9402,25.1838],[88.9222,25.1723],[88.868,25.1979],[88.6433,25.4842],[88.6989,25.4792],[88.732,25.5089],[88.7611,25.4999],[88.7597,25.5292],[88.8037,25.5331],[88.8003,25.5169]]],[[[88.1854,26.0679],[88.1834,26.0704],[88.1854,26.068],[88.1854,26.0679]]],[[[88.3342,26.2124],[88.3555,26.2325],[88.3516,26.2186],[88.3342,26.2124]]],[[[94.6827,16.2978],[94.6989,16.3555],[94.7372,16.354],[94.7502,16.3834],[94.7858,16.3564],[94.8134,16.3558],[94.8254,16.3704],[94.7948,16.3601],[94.7519,16.3905],[94.7347,16.3608],[94.7116,16.376],[94.7432,16.4022],[94.75,16.4194],[94.7586,16.4096],[94.7705,16.4093],[94.7839,16.4261],[94.7588,16.4138],[94.7478,16.4265],[94.7126,16.3942],[94.6965,16.4844],[94.7323,16.5056],[94.7463,16.569],[94.7898,16.5778],[94.8004,16.5907],[94.7465,16.5768],[94.7281,16.5145],[94.6898,16.4927],[94.6782,16.5132],[94.7012,16.5517],[94.7103,16.6135],[94.7423,16.6328],[94.7216,16.6872],[94.7447,16.6957],[94.7416,16.7301],[94.7218,16.7336],[94.738,16.7245],[94.7361,16.7004],[94.7173,16.6913],[94.7098,16.6537],[94.733,16.629],[94.6784,16.6436],[94.6989,16.6797],[94.6889,16.7396],[94.6936,16.6767],[94.6754,16.6933],[94.6823,16.6714],[94.6688,16.6524],[94.6511,16.6702],[94.6557,16.6579],[94.6743,16.6497],[94.6581,16.6276],[94.6913,16.6391],[94.7012,16.6217],[94.6924,16.5549],[94.6644,16.5184],[94.6796,16.3932],[94.6529,16.3403],[94.6233,16.338],[94.6403,16.3835],[94.6062,16.3372],[94.6021,16.2844],[94.5648,16.2582],[94.531,16.2921],[94.5464,16.308],[94.5265,16.2987],[94.5119,16.2832],[94.5109,16.1802],[94.4336,16.0697],[94.3681,16.0546],[94.3419,16.0163],[94.2827,16.0],[94.2435,15.9541],[94.1976,16.0363],[94.2285,16.252],[94.2433,16.2647],[94.2309,16.3217],[94.2643,16.3968],[94.2771,16.4963],[94.2615,16.5308],[94.2907,16.5387],[94.2897,16.5191],[94.3149,16.5196],[94.3503,16.5688],[94.3234,16.6005],[94.3508,16.6207],[94.368,16.6149],[94.3563,16.6903],[94.3759,16.7572],[94.4039,16.7885],[94.3788,16.8748],[94.3885,16.907],[94.4106,16.8895],[94.4434,16.9306],[94.484,16.9432],[94.4782,16.9576],[94.443,16.9481],[94.4582,16.9806],[94.4567,17.0673],[94.4896,17.1177],[94.4558,17.1417],[94.4447,17.179],[94.4644,17.1882],[94.4993,17.1568],[94.5216,17.1687],[94.5363,17.1869],[94.5014,17.2162],[94.5083,17.2999],[94.5264,17.2768],[94.5464,17.2903],[94.5409,17.319],[94.5815,17.2885],[94.5917,17.3042],[94.5715,17.3171],[94.5654,17.4983],[94.5416,17.5488],[94.563,17.5931],[94.6099,17.5365],[94.6112,17.5501],[94.5769,17.5914],[94.5884,17.6192],[94.5692,17.6453],[94.5588,17.6362],[94.5416,17.6813],[94.5448,17.7349],[94.4897,17.7824],[94.4815,17.9029],[94.4375,17.9956],[94.4777,18.0065],[94.4847,18.0557],[94.4469,18.1691],[94.4198,18.1937],[94.4268,18.2197],[94.4075,18.2462],[94.3372,18.2416],[94.322,18.2642],[94.3284,18.302],[94.3911,18.2835],[94.4074,18.3107],[94.4023,18.3463],[94.3816,18.3656],[94.3376,18.3662],[94.3225,18.4359],[94.2492,18.5245],[94.2626,18.5486],[94.2513,18.5468],[94.2579,18.6085],[94.2402,18.6458],[94.1409,18.736],[94.1744,18.714],[94.1745,18.7283],[94.2197,18.7182],[94.28,18.7351],[94.253,18.7341],[94.2492,18.7552],[94.2388,18.7347],[94.2169,18.731],[94.2064,18.7431],[94.2243,18.7812],[94.2039,18.7527],[94.1916,18.7712],[94.1993,18.7931],[94.1831,18.7796],[94.1465,18.8144],[94.1762,18.8347],[94.1458,18.8353],[94.1523,18.8795],[94.1696,18.89],[94.1467,18.8848],[94.127,18.8567],[94.1169,18.8566],[94.1287,18.8786],[94.0553,18.8461],[94.0309,18.8633],[94.0439,18.8846],[94.0738,18.8676],[94.0906,18.8806],[94.1057,18.8997],[94.1353,18.892],[94.1086,18.9296],[94.113,18.9662],[94.0864,18.8798],[94.0718,18.8743],[94.031,18.9005],[94.0552,18.9352],[94.0364,18.9913],[94.0632,19.0376],[94.0586,19.0598],[94.1021,19.0766],[94.0897,19.085],[94.097,19.0986],[94.1228,19.0846],[94.109,19.1051],[94.1466,19.1191],[94.1161,19.1204],[94.0545,19.0754],[94.0272,19.0792],[94.0375,19.1067],[94.1385,19.1514],[94.1357,19.1796],[94.1295,19.1561],[94.1075,19.1513],[94.0927,19.1822],[94.0911,19.1484],[94.0648,19.1263],[94.0735,19.165],[94.0624,19.1881],[94.0568,19.1255],[94.0329,19.1296],[94.0492,19.2206],[94.0711,19.2339],[94.0469,19.2483],[94.0435,19.312],[94.0762,19.3746],[94.0686,19.3853],[94.0687,19.3706],[94.0394,19.3453],[94.0315,19.3281],[94.0355,19.2177],[94.0163,19.1814],[93.9914,19.2229],[94.0,19.1502],[93.9663,19.1395],[93.9438,19.1562],[93.938,19.2012],[93.9092,19.1995],[93.9677,19.1238],[93.9534,19.0885],[93.9557,19.0208],[93.9858,18.9614],[93.9325,18.8475],[93.8923,18.8923],[93.7728,18.9664],[93.7448,18.9689],[93.7151,19.0075],[93.6742,19.0102],[93.6659,19.0664],[93.6901,19.0844],[93.6976,19.1146],[93.7476,19.1212],[93.6942,19.1196],[93.6897,19.0961],[93.6629,19.0763],[93.6393,19.1378],[93.5992,19.1513],[93.5699,19.2256],[93.4722,19.3669],[93.4841,19.4091],[93.5135,19.4341],[93.5509,19.4324],[93.568,19.4163],[93.5514,19.4101],[93.5682,19.4046],[93.6041,19.4145],[93.6374,19.3542],[93.6343,19.3399],[93.6172,19.3482],[93.6001,19.3227],[93.6214,19.3411],[93.6672,19.3022],[93.6417,19.2398],[93.6446,19.2238],[93.6815,19.3001],[93.7215,19.2926],[93.6948,19.2819],[93.7269,19.2754],[93.7207,19.2445],[93.739,19.2567],[93.809,19.2263],[93.8733,19.2466],[93.9559,19.3061],[93.9498,19.3369],[93.9722,19.3514],[93.9817,19.385],[94.0108,19.381],[93.9834,19.4055],[93.9663,19.3584],[93.8921,19.2916],[93.8817,19.3076],[93.9191,19.3345],[93.9218,19.3772],[93.9111,19.3353],[93.8842,19.3196],[93.8889,19.3534],[93.8589,19.3878],[93.8824,19.3531],[93.8692,19.3068],[93.7751,19.301],[93.7392,19.345],[93.7463,19.3542],[93.7753,19.3403],[93.78,19.3542],[93.7704,19.3447],[93.7533,19.3575],[93.7323,19.3566],[93.7319,19.3826],[93.7121,19.4014],[93.7393,19.4088],[93.6517,19.4445],[93.6372,19.4889],[93.6546,19.4919],[93.6468,19.5122],[93.6875,19.5654],[93.7462,19.5422],[93.7688,19.4853],[93.7758,19.5037],[93.7933,19.5003],[93.8187,19.4643],[93.8567,19.4843],[93.8585,19.4404],[93.877,19.473],[93.9764,19.4188],[93.9971,19.4525],[93.9766,19.4629],[93.9536,19.4479],[93.9046,19.468],[93.9485,19.5081],[93.9383,19.564],[93.9323,19.4985],[93.9024,19.4885],[93.7768,19.5911],[93.8164,19.6042],[93.7935,19.614],[93.7602,19.5991],[93.722,19.6265],[93.7476,19.6525],[93.7943,19.6598],[93.7882,19.6815],[93.8193,19.7111],[93.8181,19.7292],[93.8066,19.7392],[93.7986,19.7014],[93.727,19.6711],[93.7059,19.7028],[93.7208,19.7483],[93.7914,19.7691],[93.7976,19.8329],[93.7863,19.8628],[93.7979,19.8666],[93.8012,19.891],[93.7933,19.916],[93.7937,19.873],[93.7386,19.8852],[93.7145,19.9079],[93.7457,19.9152],[93.7085,19.9375],[93.7091,19.9673],[93.702,19.9144],[93.6218,19.917],[93.5518,19.8885],[93.5419,19.9036],[93.5754,19.9201],[93.5867,19.9378],[93.5688,19.9212],[93.5416,19.924],[93.546,19.9363],[93.5161,19.9234],[93.5121,19.9438],[93.5365,19.9552],[93.5085,19.9613],[93.5071,19.9748],[93.5401,19.9909],[93.4818,19.9914],[93.4674,20.0443],[93.4585,20.0541],[93.4762,20.0609],[93.4548,20.0552],[93.4762,20.0065],[93.4661,19.9825],[93.4543,19.9959],[93.4392,19.9925],[93.4567,19.95],[93.416,19.9708],[93.3807,20.0659],[93.3841,20.0801],[93.4167,20.0799],[93.4148,20.1121],[93.4329,20.1052],[93.4126,20.1727],[93.3623,20.2736],[93.343,20.2772],[93.3234,20.3297],[93.2966,20.33],[93.3259,20.3859],[93.3254,20.4036],[93.2805,20.3482],[93.2801,20.3282],[93.2398,20.306],[93.2306,20.2739],[93.2464,20.2454],[93.2099,20.2347],[93.1825,20.1969],[93.117,20.1857],[93.2165,20.2861],[93.2259,20.3076],[93.2124,20.3278],[93.2512,20.4261],[93.2252,20.3917],[93.198,20.3871],[93.2235,20.376],[93.203,20.3226],[93.1243,20.3281],[93.1374,20.3425],[93.1321,20.3693],[93.1563,20.3591],[93.1748,20.3741],[93.1293,20.3762],[93.1742,20.3994],[93.1648,20.422],[93.1681,20.4002],[93.0939,20.3798],[93.0884,20.4013],[93.1111,20.4138],[93.1167,20.4272],[93.107,20.5041],[93.087,20.5198],[93.1051,20.5307],[93.0919,20.53],[93.0702,20.602],[93.0483,20.5975],[93.0217,20.6219],[93.0277,20.6439],[93.0055,20.6398],[93.0178,20.6122],[93.0757,20.5792],[93.081,20.5411],[93.0258,20.4274],[93.0173,20.454],[93.0428,20.4633],[93.0402,20.4931],[93.0636,20.5246],[93.035,20.5378],[93.0556,20.5207],[93.0195,20.4791],[93.0333,20.4857],[93.0386,20.4686],[93.0135,20.4606],[93.0243,20.3894],[93.0091,20.2869],[92.963,20.2257],[92.945,20.2675],[92.915,20.2419],[92.9146,20.2122],[92.8862,20.2095],[92.9203,20.1809],[92.8966,20.1094],[92.8531,20.1232],[92.7649,20.2],[92.7873,20.2401],[92.7969,20.2102],[92.8305,20.1805],[92.8458,20.1823],[92.799,20.2141],[92.7988,20.2583],[92.9445,20.3156],[92.8982,20.3078],[92.8393,20.3808],[92.9108,20.3717],[92.9315,20.3863],[92.9417,20.3522],[92.9508,20.374],[92.9127,20.414],[92.9289,20.4212],[92.9326,20.4327],[92.8983,20.4822],[92.9285,20.4299],[92.9072,20.421],[92.9175,20.3833],[92.9063,20.3787],[92.8867,20.4218],[92.8866,20.4039],[92.8571,20.4195],[92.8637,20.4051],[92.8418,20.4017],[92.8166,20.4429],[92.8337,20.4407],[92.8383,20.4688],[92.8487,20.4591],[92.8275,20.4968],[92.8108,20.4924],[92.7961,20.5101],[92.7639,20.4734],[92.7523,20.4794],[92.7322,20.5696],[92.7486,20.5782],[92.7524,20.5867],[92.7468,20.5986],[92.7266,20.6168],[92.7482,20.5876],[92.731,20.5792],[92.6844,20.6278],[92.6456,20.6891],[92.645,20.7277],[92.5832,20.7199],[92.591,20.732],[92.5697,20.7796],[92.5997,20.7956],[92.6024,20.8064],[92.5649,20.7864],[92.5494,20.8493],[92.5449,20.8118],[92.5713,20.7516],[92.5466,20.7631],[92.5441,20.743],[92.591,20.6851],[92.607,20.6776],[92.6395,20.6883],[92.6954,20.5825],[92.7292,20.5496],[92.72,20.4706],[92.7478,20.4143],[92.7299,20.2954],[92.747,20.256],[92.7285,20.26],[92.638,20.4332],[92.5281,20.5435],[92.5133,20.5993],[92.4633,20.6445],[92.4661,20.6597],[92.3774,20.6957],[92.3877,20.7048],[92.3611,20.7723],[92.3901,20.8168],[92.3787,20.8246],[92.3584,20.7833],[92.3353,20.8433],[92.3602,20.8647],[92.3366,20.8509],[92.3146,20.8826],[92.3164,20.901],[92.3619,20.9419],[92.3477,20.9871],[92.3313,20.9978],[92.2968,20.9872],[92.2891,21.0036],[92.2933,20.98],[92.2798,20.9694],[92.2694,21.0182],[92.2887,21.0225],[92.2646,21.0358],[92.3128,21.0579],[92.3122,21.0703],[92.2734,21.0458],[92.1893,21.1765],[92.2184,21.2543],[92.1986,21.323],[92.2559,21.358],[92.27,21.4231],[92.3202,21.4175],[92.3667,21.4722],[92.3889,21.4704],[92.4222,21.4276],[92.4238,21.3792],[92.4384,21.3632],[92.4946,21.3496],[92.5546,21.3763],[92.5936,21.2452],[92.6142,21.2421],[92.6737,21.2913],[92.6281,21.4487],[92.6026,21.6593],[92.6267,21.8846],[92.5963,22.0583],[92.5644,22.1293],[92.6039,22.1259],[92.609,22.1641],[92.5768,22.2712],[92.5456,22.5169],[92.5253,22.5539],[92.5364,22.5844],[92.5163,22.7162],[92.4746,22.7451],[92.4438,22.8833],[92.3722,22.9404],[92.3886,23.0458],[92.3583,23.1037],[92.3484,23.2343],[92.3859,23.2763],[92.3669,23.3232],[92.3766,23.3484],[92.3405,23.4249],[92.3274,23.4231],[92.3021,23.5803],[92.2732,23.6265],[92.2899,23.6943],[92.2464,23.7211],[92.2129,23.6503],[92.2114,23.6963],[92.1605,23.7335],[92.0846,23.6741],[92.0741,23.6452],[92.0297,23.6394],[91.9795,23.7215],[91.9538,23.7264],[91.9388,23.6541],[91.9666,23.4871],[91.9416,23.463],[91.9358,23.4298],[91.9016,23.4345],[91.8421,23.3999],[91.7704,23.2676],[91.8138,23.1011],[91.8279,23.0906],[91.81,23.0652],[91.7756,23.0642],[91.7792,23.0298],[91.7177,22.9855],[91.6424,22.9753],[91.6204,22.9291],[91.5995,22.9526],[91.6124,22.958],[91.6045,22.9674],[91.5753,22.9632],[91.5446,22.9926],[91.5416,23.0358],[91.5224,23.0508],[91.5287,23.0884],[91.4919,23.1595],[91.4973,23.1869],[91.4699,23.192],[91.4762,23.2132],[91.4532,23.2173],[91.4613,23.2315],[91.4277,23.2591],[91.3917,23.2581],[91.3816,23.1984],[91.4037,23.0552],[91.3495,23.0854],[91.2977,23.2956],[91.3077,23.3023],[91.2878,23.3194],[91.3135,23.3556],[91.2898,23.3493],[91.2434,23.4841],[91.1971,23.5195],[91.2073,23.5418],[91.1576,23.6102],[91.1636,23.667],[91.1938,23.6462],[91.2004,23.6753],[91.1963,23.6876],[91.1556,23.6904],[91.1513,23.7155],[91.1627,23.7419],[91.2133,23.7392],[91.2275,23.7641],[91.246,23.8334],[91.2294,23.8927],[91.2418,23.9194],[91.2666,23.9254],[91.2619,23.9587],[91.3025,23.9877],[91.3702,23.9776],[91.3682,24.0061],[91.3957,24.0443],[91.3766,24.0956],[91.3882,24.1085],[91.5369,24.071],[91.5944,24.0774],[91.6379,24.1053],[91.6521,24.2269],[91.6928,24.1594],[91.7534,24.1376],[91.7514,24.2364],[91.8098,24.2114],[91.8415,24.2254],[91.838,24.1952],[91.8832,24.1428],[91.9017,24.1425],[91.9333,24.2794],[91.9204,24.3264],[91.9587,24.3522],[91.9881,24.3192],[91.9964,24.3264],[91.9639,24.3751],[92.1056,24.3746],[92.1325,24.3921],[92.1432,24.4366],[92.1288,24.5131],[92.1936,24.5727],[92.2739,24.7851],[92.2603,24.8302],[92.2809,24.8554],[92.428,24.8526],[92.4896,24.8681],[92.4864,24.9365],[92.4508,24.94],[92.4632,24.9599],[92.4209,24.9748],[92.3994,25.0334],[92.3384,25.0474],[92.3344,25.0783],[92.2702,25.0778],[92.2188,25.1006],[92.2104,25.1225],[92.1827,25.133],[92.1762,25.12],[92.1567,25.1458],[92.1387,25.1369],[92.1224,25.1662],[92.0553,25.1851],[91.9789,25.1646],[91.9498,25.1801],[91.7599,25.1688],[91.7417,25.1454],[91.7008,25.1555],[91.6827,25.1266],[91.6324,25.1226],[91.6014,25.1378],[91.5991,25.1664],[91.5509,25.1434],[91.4765,25.1351],[91.2615,25.2024],[91.0697,25.1946],[90.8893,25.1541],[90.8389,25.1533],[90.7708,25.1804],[90.725,25.1568],[90.6762,25.1606],[90.649,25.1859],[90.6192,25.1668],[90.5117,25.1728],[90.4432,25.1456],[90.3604,25.1591],[90.3184,25.1874],[90.1078,25.2265],[89.9522,25.302],[89.9025,25.3059],[89.8576,25.2825],[89.8345,25.2968],[89.8157,25.3716],[89.8686,25.5826],[89.8727,25.6542],[89.8217,25.7281],[89.8389,25.7646],[89.8203,25.8149],[89.8386,25.8831],[89.8803,25.9313],[89.8245,25.9458],[89.857,25.981],[89.8268,25.9856],[89.8007,26.0343],[89.776,26.0444],[89.7894,26.0794],[89.7441,26.1567],[89.6797,26.1621],[89.6909,26.2072],[89.6753,26.2288],[89.6322,26.2189],[89.6235,26.1879],[89.6478,26.1687],[89.6152,26.175],[89.5904,26.1564],[89.6009,26.1179],[89.6299,26.1179],[89.5988,26.1073],[89.6008,26.0869],[89.6296,26.1032],[89.64,26.0705],[89.5834,26.0364],[89.5826,25.9782],[89.5687,25.9604],[89.5471,25.9656],[89.5323,26.0038],[89.4691,26.0004],[89.4304,26.0397],[89.3845,26.0055],[89.3574,26.0083],[89.2624,26.0603],[89.2671,26.0894],[89.2299,26.1203],[89.1676,26.1386],[89.1405,26.1844],[89.1446,26.2335],[89.105,26.2836],[89.1026,26.3113],[89.1312,26.2991],[89.1386,26.3151],[89.0906,26.3257],[89.1036,26.355],[89.0841,26.3663],[89.1002,26.396],[89.0493,26.397],[88.9913,26.4206],[88.9572,26.462],[88.9372,26.4303],[88.9247,26.4387],[88.9332,26.4188],[88.9011,26.4069],[88.915,26.4035],[88.9154,26.3635],[88.9494,26.3679],[88.9459,26.3441],[88.9718,26.3548],[88.997,26.3367],[88.9806,26.3149],[88.9864,26.2979],[89.0169,26.3019],[89.0167,26.3147],[89.0307,26.2861],[89.0555,26.2893],[89.0646,26.257],[89.0034,26.2289],[88.9586,26.2357],[88.9116,26.2885],[88.8703,26.2847],[88.8579,26.2639],[88.8717,26.2352],[88.8389,26.2366],[88.8067,26.2562],[88.8142,26.2947],[88.7956,26.3121],[88.7451,26.3117],[88.7453,26.2922],[88.7176,26.299],[88.7147,26.2835],[88.6729,26.2696],[88.6641,26.3001],[88.7016,26.2855],[88.6912,26.3135],[88.7539,26.3269],[88.7391,26.3359],[88.745,26.3538],[88.7086,26.3474],[88.6838,26.3913],[88.6951,26.3966],[88.6746,26.4037],[88.6831,26.4144],[88.6255,26.4344],[88.6184,26.4764],[88.5599,26.4666],[88.556,26.4859],[88.5234,26.485],[88.5154,26.5121],[88.4876,26.5124],[88.4794,26.5435],[88.4293,26.5536],[88.408,26.6319],[88.3946,26.6292],[88.3981,26.6022],[88.3732,26.5815],[88.3321,26.4845],[88.3538,26.4507],[88.365,26.4852],[88.483,26.4609],[88.5264,26.3726],[88.5006,26.3493],[88.5039,26.3629],[88.4784,26.3482],[88.4539,26.3773],[88.4374,26.3498],[88.0131,26.3614],[87.7707,26.4457],[87.756,26.4087],[87.6697,26.4336],[87.6741,26.4188],[87.6423,26.3926],[87.601,26.3825],[87.4946,26.4382],[87.4224,26.431],[87.3651,26.4059],[87.3501,26.3614],[87.328,26.3567],[87.2662,26.3771],[87.2492,26.4149],[87.1616,26.4069],[87.1101,26.437],[87.0835,26.4719],[87.0665,26.5894],[87.0411,26.5886],[87.0075,26.5337],[86.9273,26.5159],[86.9244,26.4935],[86.8955,26.4938],[86.8724,26.4591],[86.8236,26.4435],[86.7628,26.4608],[86.7247,26.4273],[86.5678,26.5006],[86.5391,26.5387],[86.3404,26.61],[86.3409,26.6219],[86.2531,26.6191],[86.2183,26.5939],[86.1961,26.6177],[86.1394,26.615],[86.1342,26.6302],[86.0318,26.6706],[85.9656,26.6539],[85.9483,26.6138],[85.8505,26.5679],[85.8487,26.6086],[85.8221,26.6075],[85.7316,26.6584],[85.7206,26.8208],[85.6461,26.8549],[85.6243,26.8805],[85.5931,26.8545],[85.5693,26.8647],[85.459,26.7903],[85.4041,26.7947],[85.331,26.7471],[85.2067,26.7671],[85.18,26.805],[85.1873,26.8745],[85.1024,26.8762],[85.0657,26.8539],[85.0276,26.8555],[85.0264,26.8705],[85.0546,26.8906],[84.968,26.9171],[84.9759,26.9412],[84.9602,26.9629],[84.8656,26.9855],[84.8277,27.0222],[84.7901,27.0019],[84.7739,27.0197],[84.7481,27.0106],[84.6442,27.0491],[84.6752,27.1012],[84.6908,27.2115],[84.6277,27.3282],[84.2863,27.3892],[84.2569,27.4451],[84.2107,27.4411],[84.2083,27.4671],[84.1482,27.492],[84.1551,27.5199],[84.1021,27.5201],[84.0599,27.4522],[84.0226,27.4349],[83.8503,27.4446],[83.8347,27.4289],[83.8819,27.3806],[83.864,27.3519],[83.6241,27.4674],[83.3891,27.4804],[83.3995,27.4524],[83.3832,27.4356],[83.4083,27.4139],[83.3566,27.3446],[83.3172,27.3322],[83.2942,27.3352],[83.2671,27.3902],[83.1896,27.4538],[82.9968,27.4574],[82.9579,27.4674],[82.9233,27.5043],[82.8132,27.4958],[82.7611,27.5068],[82.7403,27.5622],[82.756,27.5592],[82.7568,27.5856],[82.7378,27.6452],[82.7139,27.6643],[82.7219,27.6903],[82.7074,27.7195],[82.4446,27.6864],[82.2126,27.8396],[82.1165,27.8694],[82.0675,27.9244],[81.9664,27.9303],[81.9189,27.8612],[81.8903,27.8585],[81.7003,27.9896],[81.6426,27.9962],[81.4808,28.0795],[81.482,28.117],[81.4455,28.1604],[81.3285,28.1875],[81.2345,28.2799],[81.2327,28.3252],[81.2018,28.3673],[81.0366,28.4078],[81.0289,28.3942],[81.0165,28.4108],[81.0304,28.4285],[81.0107,28.4321],[81.0093,28.4507],[80.9696,28.4345],[80.9727,28.4596],[80.9575,28.4472],[80.905,28.4609],[80.8983,28.5005],[80.8745,28.5091],[80.8444,28.4921],[80.7531,28.5698],[80.7081,28.5708],[80.6615,28.6389],[80.5918,28.6478],[80.5771,28.6855],[80.5328,28.6876],[80.5017,28.6668],[80.5264,28.5702],[80.5113,28.5558],[80.472,28.5837],[80.4428,28.6322],[80.3573,28.6392],[80.3224,28.6696],[80.3158,28.6989],[80.2538,28.7252],[80.2577,28.7526],[80.193,28.7667],[80.1143,28.8295],[80.0748,28.8249],[80.0563,28.9169],[80.1311,29.0024],[80.1461,29.1028],[80.1764,29.1364],[80.2294,29.1173],[80.2684,29.1399],[80.2414,29.2182],[80.288,29.1999],[80.3133,29.3126],[80.2775,29.3386],[80.2684,29.3926],[80.2355,29.4101],[80.2464,29.447],[80.2969,29.4515],[80.2832,29.476],[80.3421,29.5126],[80.3529,29.5288],[80.3421,29.5508],[80.375,29.5616],[80.4055,29.5979],[80.4154,29.6365],[80.3799,29.6757],[80.3658,29.7483],[80.4291,29.804],[80.4912,29.7964],[80.5522,29.8495],[80.5986,29.9569],[80.6773,29.9627],[80.7504,30.0133],[80.7571,30.0413],[80.8014,30.0844],[82.01,30.4842],[82.692,29.7651],[83.6457,29.1658],[85.1225,28.329],[86.4372,27.9104],[88.1351,27.8819],[88.1629,27.8666],[88.1889,27.9481],[88.2116,27.9678],[88.2398,27.9707],[88.2559,27.9443],[88.3549,27.9898],[88.408,27.9818],[88.4666,28.0135],[88.485,28.0411],[88.552,28.0316],[88.5609,28.0809],[88.6085,28.0886],[88.6431,28.1151],[88.674,28.0719],[88.7619,28.072],[88.8042,28.0257],[88.8408,28.01],[88.8414,27.9255],[88.8713,27.9169],[88.8862,27.8575],[88.86,27.8118],[88.8684,27.7369],[88.853,27.7184],[89.1166,27.4441],[89.0931,27.4749],[89.1021,27.538],[89.1609,27.5779],[89.1251,27.6144],[89.1293,27.637],[89.2245,27.7288],[89.2369,27.8004],[89.2937,27.8519],[89.3733,27.8795],[89.4707,28.0156],[89.4594,28.0355],[89.5061,28.0877],[89.5395,28.0923],[89.6053,28.1664],[89.6797,28.1835],[89.7244,28.1739],[89.7697,28.1958],[89.7832,28.213],[89.7716,28.2257],[89.7928,28.2483],[89.8597,28.23],[89.9002,28.1857],[89.9743,28.1927],[90.0315,28.1406],[90.0713,28.1589],[90.1011,28.1452],[90.123,28.1941],[90.1649,28.1911],[90.2231,28.1491],[90.2951,28.1578],[90.3772,28.0655],[90.4354,28.0666],[90.4616,28.0484],[90.5128,28.0656],[90.5907,28.025],[90.7005,28.0797],[90.7582,28.0487],[90.7972,28.0472],[90.8457,27.9725],[90.8954,27.95],[90.9605,27.9571],[90.9751,27.9392],[90.9612,27.9073],[91.0332,27.8578],[91.1103,27.8507],[91.1488,27.8916],[91.1433,27.927],[91.1618,27.9707],[91.2149,27.9928],[91.2504,27.9739],[91.3112,28.0406],[91.3084,28.0614],[91.3349,28.0646],[91.4345,28.0044],[91.4638,28.0061],[91.4887,27.975],[91.4851,27.941],[91.5405,27.9214],[91.5539,27.8924],[91.588,27.9042],[91.6105,27.8953],[91.618,27.8604],[91.5601,27.8591],[91.5432,27.824],[91.6154,27.8207],[91.6421,27.7585],[91.8255,27.7671],[91.8946,27.7209],[91.9205,27.7382],[91.9831,27.7239],[92.0394,27.7429],[92.1076,27.8024],[92.2609,27.8731],[92.2813,27.8723],[92.3216,27.7975],[92.3465,27.8068],[92.3687,27.8477],[92.384,27.8209],[92.4221,27.8528],[92.4428,27.843],[92.7116,27.9527],[92.7246,27.9756],[92.7194,28.0322],[92.6695,28.0636],[92.6899,28.1216],[92.7579,28.1672],[92.8667,28.1846],[92.9558,28.2619],[93.0162,28.2627],[93.0353,28.33],[93.0639,28.312],[93.1065,28.3573],[93.2236,28.358],[93.2448,28.4482],[93.2256,28.5525],[93.3214,28.6509],[93.5683,28.686],[93.6728,28.6743],[93.6908,28.7013],[93.7313,28.6894],[93.7747,28.7162],[93.8463,28.707],[94.0499,28.8674],[95.0019,28.6747],[96.1551,28.954],[96.9883,29.3397],[98.0,29.4259],[98.0,14.4825],[97.9851,14.4713],[97.9669,14.4417],[97.9654,14.4261],[97.9407,14.5262],[97.9058,14.5783],[97.9134,14.6195],[97.9047,14.6107],[97.8728,14.671],[97.8944,14.7054],[97.8855,14.7229],[97.8678,14.7078],[97.8392,14.7187],[97.7918,14.8683],[97.8083,14.9501],[97.7969,14.9973],[97.8132,15.0062],[97.8244,15.0243],[97.791,14.9984],[97.7707,15.0183],[97.7958,15.0271],[97.8063,15.1503],[97.787,15.1795],[97.7951,15.1903],[97.7653,15.1971],[97.7387,15.2445],[97.7417,15.295],[97.7215,15.3328],[97.7275,15.3548],[97.7469,15.3561],[97.7465,15.3837],[97.7828,15.397],[97.7408,15.4871],[97.762,15.5281],[97.6994,15.7541],[97.7217,15.7717],[97.7179,15.8434],[97.6754,15.9144],[97.6103,15.949],[97.6035,15.9803],[97.5713,16.0108],[97.5582,16.0726],[97.5967,16.0851],[97.6143,16.0611],[97.6277,16.0504],[97.648,16.0442],[97.6654,16.0486],[97.6772,16.0283],[97.6969,16.0275],[97.6673,16.0521],[97.6202,16.0587],[97.6072,16.1036],[97.5978,16.097],[97.6438,16.27],[97.6155,16.3556],[97.6294,16.3873],[97.6141,16.4256],[97.6284,16.4532],[97.6253,16.5],[97.6486,16.4984],[97.6621,16.5123],[97.6624,16.4765],[97.6823,16.4655],[97.7025,16.4706],[97.7044,16.4501],[97.7232,16.4502],[97.7198,16.4268],[97.7539,16.4141],[97.7355,16.4023],[97.7334,16.3833],[97.7784,16.3746],[97.7974,16.354],[97.7858,16.3396],[97.7874,16.3327],[97.8346,16.3236],[97.8601,16.2918],[97.8887,16.2862],[97.8521,16.3024],[97.8441,16.3234],[97.7924,16.3327],[97.8031,16.3534],[97.7905,16.3703],[97.7614,16.386],[97.7372,16.386],[97.7578,16.4177],[97.7289,16.4247],[97.7259,16.4541],[97.7068,16.4536],[97.7023,16.474],[97.6641,16.48],[97.6755,16.5007],[97.6684,16.5455],[97.7465,16.5616],[97.7089,16.5706],[97.6685,16.5549],[97.6442,16.6134],[97.6214,16.6433],[97.6076,16.581],[97.6264,16.5585],[97.6215,16.5187],[97.5325,16.5376],[97.4885,16.5387],[97.481,16.5218],[97.3928,16.5251],[97.3629,16.479],[97.3284,16.6589],[97.3466,16.6471],[97.3939,16.64],[97.4108,16.6424],[97.424,16.6584],[97.3927,16.6437],[97.3457,16.6544],[97.3406,16.6666],[97.3578,16.6694],[97.3476,16.6786],[97.328,16.667],[97.3301,16.6963],[97.3439,16.6953],[97.3419,16.7341],[97.3403,16.7095],[97.3207,16.7102],[97.3185,16.668],[97.2772,16.6862],[97.2398,16.7684],[97.2498,16.8225],[97.2349,16.8088],[97.2226,16.8417],[97.227,16.8573],[97.2664,16.8442],[97.2781,16.8505],[97.2659,16.8701],[97.265,16.8481],[97.2228,16.8672],[97.2092,16.8129],[97.1998,16.8823],[97.218,16.9017],[97.2191,16.9379],[97.1906,16.8911],[97.1748,16.8905],[97.1693,16.9107],[97.2072,17.008],[97.1547,17.0678],[97.1533,17.0952],[97.1909,17.1169],[97.2134,17.0874],[97.2645,17.1036],[97.2278,17.1029],[97.2063,17.1338],[97.1791,17.1294],[97.1365,17.1162],[97.1343,17.0806],[97.1143,17.0778],[97.0887,17.1652],[97.1067,17.1878],[97.0833,17.1817],[97.0592,17.2533],[97.0003,17.2667],[97.0091,17.3],[96.9116,17.357],[96.8832,17.4541],[96.8649,17.3961],[96.8434,17.3893],[96.849,17.4134],[96.8209,17.4331],[96.7945,17.4883],[96.7859,17.49],[96.7344,17.4353],[96.7735,17.3763],[96.7225,17.3474],[96.6924,17.3664],[96.6498,17.3383],[96.6683,17.2691],[96.6962,17.2479],[96.7086,17.2545],[96.6769,17.2675],[96.6854,17.3453],[96.725,17.3382],[96.8366,17.3809],[96.8401,17.3648],[96.8443,17.3762],[96.8597,17.3615],[96.856,17.3431],[96.863,17.3527],[96.9111,17.3215],[96.8907,17.3119],[96.9129,17.3049],[96.9024,17.2717],[96.8335,17.2052],[96.8487,17.2008],[96.8771,17.1123],[96.9001,17.0889],[96.9121,17.0177],[96.8737,16.911],[96.8383,16.9272],[96.8509,16.9591],[96.8346,16.9511],[96.8316,16.9194],[96.8552,16.8877],[96.8359,16.9046],[96.8251,16.8937],[96.8072,16.9106],[96.7967,16.9065],[96.8333,16.8788],[96.853,16.8372],[96.8078,16.7555],[96.7808,16.7818],[96.7746,16.7731],[96.8013,16.7397],[96.7713,16.6916],[96.5964,16.5366],[96.4938,16.5046],[96.3837,16.4966],[96.2847,16.5537],[96.2867,16.5918],[96.3336,16.6234],[96.4268,16.6076],[96.4699,16.6127],[96.3313,16.6287],[96.2874,16.6001],[96.2778,16.5775],[96.2638,16.6474],[96.2348,16.6789],[96.2228,16.7542],[96.3156,16.8334],[96.3456,16.8333],[96.3941,16.8594],[96.4084,16.8552],[96.4861,16.8699],[96.5119,16.8882],[96.4839,16.8731],[96.3948,16.864],[96.3244,16.8384],[96.32,16.869],[96.3477,16.9059],[96.3007,16.8637],[96.298,16.8408],[96.2776,16.8693],[96.3037,16.8261],[96.2035,16.7632],[96.1847,16.7765],[96.195,16.7898],[96.1915,16.7999],[96.2124,16.7983],[96.2246,16.8111],[96.2182,16.8412],[96.2089,16.8458],[96.2203,16.8109],[96.1917,16.8059],[96.1802,16.7767],[96.1973,16.7597],[96.1288,16.7711],[96.1207,16.8138],[96.1155,16.8122],[96.1319,16.7589],[96.119,16.7566],[96.1921,16.7409],[96.2157,16.6707],[96.2461,16.636],[96.2366,16.6078],[96.1735,16.5831],[96.1736,16.5163],[96.1926,16.4892],[96.1805,16.4874],[96.1754,16.4635],[96.1417,16.4537],[96.1628,16.4177],[96.0771,16.3572],[96.0173,16.3845],[95.9964,16.4107],[95.9121,16.4109],[95.9275,16.385],[95.9059,16.3295],[95.8912,16.2446],[95.7785,16.1291],[95.7544,16.1266],[95.7403,16.1452],[95.7269,16.264],[95.7096,16.2731],[95.7229,16.2566],[95.7382,16.1126],[95.6966,16.046],[95.6931,15.9992],[95.6483,15.9258],[95.5158,15.7881],[95.4264,15.7213],[95.358,15.7039],[95.2868,15.7187],[95.2704,15.8008],[95.2792,15.8463],[95.3045,15.8527],[95.2973,15.8621],[95.3195,15.8808],[95.3399,15.88],[95.3404,15.9022],[95.3479,15.8805],[95.3809,15.8721],[95.3989,15.8768],[95.4126,15.9057],[95.3871,15.8768],[95.3534,15.8849],[95.3388,15.9054],[95.3356,15.8829],[95.3225,15.8868],[95.2984,15.8701],[95.3478,15.9473],[95.364,16.0503],[95.3962,16.0616],[95.3628,16.0583],[95.3368,16.0993],[95.3705,16.1492],[95.3907,16.2396],[95.3144,16.1801],[95.3053,16.143],[95.3266,16.0873],[95.2792,16.0394],[95.2352,15.9326],[95.2101,15.8565],[95.2245,15.7932],[95.1768,15.7679],[95.1123,15.8061],[95.1257,15.9908],[95.1415,16.0255],[95.1896,16.0246],[95.1927,16.0799],[95.2671,16.1495],[95.1911,16.1138],[95.2079,16.1777],[95.1799,16.1374],[95.1526,16.1389],[95.165,16.1263],[95.1328,16.1239],[95.1442,16.168],[95.1293,16.2051],[95.1408,16.2315],[95.1236,16.2067],[95.1323,16.1672],[95.1198,16.1153],[95.0867,16.0923],[95.0561,16.0355],[95.0701,15.944],[95.037,15.8038],[95.0011,15.7787],[94.9868,15.7848],[94.9842,15.8484],[94.9821,15.76],[94.9391,15.7409],[94.8428,15.7733],[94.832,15.7955],[94.8893,15.8274],[94.8713,15.8954],[94.9508,15.9456],[94.9443,15.9536],[94.8637,15.8967],[94.873,15.8249],[94.845,15.8298],[94.8373,15.8467],[94.8501,15.8762],[94.8241,15.9493],[94.8619,16.0],[94.9145,16.0],[94.9218,16.0306],[94.9054,16.0747],[94.9333,16.0862],[94.9555,16.131],[95.0226,16.135],[95.0225,16.1603],[95.0557,16.1994],[95.0566,16.216],[95.0465,16.2391],[95.0693,16.2458],[95.1006,16.3006],[95.0652,16.2477],[95.0432,16.2457],[95.0479,16.1971],[95.0137,16.1616],[95.0162,16.1437],[94.9529,16.1388],[94.9304,16.0942],[94.903,16.083],[94.9154,16.0299],[94.8918,16.0061],[94.8785,16.0115],[94.8656,16.1351],[94.8888,16.1818],[94.9573,16.1962],[95.0257,16.2628],[95.0421,16.3097],[95.0649,16.3114],[95.0509,16.3127],[95.0505,16.3334],[95.0165,16.2669],[94.9522,16.211],[94.8727,16.1872],[94.8388,16.1108],[94.8497,16.0723],[94.8395,16.0663],[94.7987,15.989],[94.7995,15.9677],[94.7194,15.8505],[94.6856,15.8371],[94.634,15.8613],[94.6005,15.9203],[94.6697,15.9557],[94.7184,16.0],[94.7362,16.0636],[94.7845,16.0965],[94.763,16.1241],[94.7876,16.1316],[94.8071,16.1998],[94.8374,16.2115],[94.8529,16.2398],[94.8035,16.2062],[94.7764,16.1448],[94.7554,16.1316],[94.7516,16.0937],[94.7196,16.0669],[94.6841,16.0],[94.5696,15.929],[94.5501,15.966],[94.5608,15.9567],[94.5826,16.0],[94.6173,16.0191],[94.6846,16.1148],[94.6806,16.2026],[94.7209,16.2029],[94.7589,16.2373],[94.7395,16.2574],[94.7567,16.2809],[94.7336,16.2564],[94.7496,16.2377],[94.7262,16.2305],[94.7192,16.2091],[94.6748,16.2152],[94.6636,16.2472],[94.6981,16.2454],[94.7087,16.2549],[94.7058,16.2669],[94.6983,16.2493],[94.6636,16.2541],[94.6677,16.2693],[94.6827,16.2978]],[[89.1676,27.391],[89.1808,27.3773],[89.1802,27.3813],[89.1676,27.391]],[[89.1592,27.4156],[89.1181,27.4426],[89.163,27.3958],[89.1592,27.4156]],[[88.0468,27.503],[88.0408,27.4947],[88.0408,27.4842],[88.0468,27.503]],[[88.0625,27.5521],[88.053,27.5427],[88.0568,27.5344],[88.0625,27.5521]]],[[[98.0,14.2877],[97.9679,14.3955],[98.0,14.4789],[98.0,14.2877]]]]}}