{"type":"Feature","properties":{"speciesId":539,"category":"LC","source":"IUCN Red List","simplifyTol":0.01,"clippedToSubcontinent":true},"geometry":{"type":"Polygon","coordinates":[[[73.7,20.91],[76.2691,32.0998],[77.1908,31.2519],[77.7441,30.5978],[77.972,30.282],[78.2352,30.0214],[79.8469,29.0722],[81.557,28.3672],[82.5569,27.8959],[84.4519,27.5351],[92.9376,26.2006],[88.6431,22.9339],[86.6712,22.0052],[86.5427,21.891],[86.0908,20.5842],[85.9203,20.3861],[85.7289,20.1207],[84.5582,19.6067],[84.3999,19.0566],[84.305,18.9081],[83.7477,18.9521],[83.1053,18.7737],[73.7,20.91]]]}}