{"type":"Feature","properties":{"speciesId":553,"category":"LC","source":"IUCN Red List","simplifyTol":0.01,"clippedToSubcontinent":true},"geometry":{"type":"Polygon","coordinates":[[[68.5985,23.2881],[68.5985,23.4095],[68.6514,23.6519],[69.1801,24.809],[70.1847,26.7962],[71.2289,28.2497],[71.7444,28.784],[72.4053,29.3731],[74.5335,30.6323],[75.7099,31.2219],[76.622,31.4702],[77.2036,31.4138],[77.6794,31.1653],[78.9087,30.0161],[81.3144,28.7028],[83.588,27.9932],[84.4207,27.7595],[84.4868,27.7128],[84.6454,27.5019],[84.2753,27.3259],[83.7598,27.3963],[83.0592,27.6425],[81.5127,27.9465],[80.3892,28.273],[79.2392,28.4823],[78.4461,28.4707],[77.5208,28.2846],[76.9789,27.9816],[76.3973,27.584],[75.8157,27.1379],[74.6789,26.3114],[73.78,25.5745],[73.5553,25.2402],[73.1588,24.3402],[73.0134,23.9542],[72.8151,23.7608],[72.5375,23.6155],[72.0352,23.4216],[70.7663,23.2274],[70.0657,23.0816],[69.3916,23.0694],[68.7968,23.1545],[68.5985,23.2881]]]}}