{"type":"Feature","properties":{"speciesId":557,"category":"LC","source":"IUCN Red List","simplifyTol":0.01,"clippedToSubcontinent":true},"geometry":{"type":"Polygon","coordinates":[[[77.0919,8.2941],[76.9771,8.3876],[76.5648,8.9245],[76.4831,9.1281],[76.4921,9.1672],[76.4754,9.1526],[76.4141,9.3466],[76.306,9.5628],[76.2687,10.0627],[76.3259,10.2622],[76.2863,10.3664],[76.2804,10.575],[76.3208,10.5885],[76.5338,10.5137],[76.5792,10.5526],[76.812,10.5672],[77.1587,10.506],[77.125,10.366],[77.0936,9.5439],[77.1108,9.2528],[77.2056,8.9364],[77.2772,8.8239],[77.2721,8.5607],[77.0919,8.2941]]]}}