{"type":"Feature","properties":{"speciesId":558,"category":"LC","source":"IUCN Red List","simplifyTol":0.01,"clippedToSubcontinent":true},"geometry":{"type":"MultiPolygon","coordinates":[[[[97.6602,15.501],[97.6533,15.5478],[97.6584,15.5718],[97.6649,15.5236],[97.6602,15.501]]],[[[94.8363,15.8873],[94.8309,15.9006],[94.8309,15.9061],[94.8363,15.8873]]],[[[94.4628,15.9129],[94.4518,15.9193],[94.464,15.9157],[94.4628,15.9129]]],[[[94.7822,15.788],[94.7425,15.7953],[94.7306,15.814],[94.811,15.9421],[94.8386,15.8689],[94.8094,15.8008],[94.7822,15.788]]],[[[94.823,15.9436],[94.8233,15.9327],[94.8229,15.9438],[94.823,15.9436]]],[[[95.2682,15.9572],[95.2679,15.9568],[95.2686,15.9597],[95.2682,15.9572]]],[[[95.1064,15.9404],[95.1036,15.9645],[95.1207,15.9944],[95.1186,15.9526],[95.1064,15.9404]]],[[[94.3422,16.0097],[94.3157,15.9811],[94.2799,15.9896],[94.3322,16.0117],[94.3422,16.0097]]],[[[94.694,16.0017],[94.7016,16.0264],[94.7171,16.0504],[94.7165,16.0229],[94.694,16.0017]]],[[[94.8099,15.9774],[94.8423,16.0605],[94.8509,16.0611],[94.843,16.0],[94.8099,15.9774]]],[[[95.3318,15.9687],[95.2636,15.8636],[95.2411,15.8644],[95.273,15.9563],[95.28,16.022],[95.3198,16.079],[95.3453,16.0479],[95.3318,15.9687]]],[[[95.186,16.0354],[95.1301,16.0312],[95.1019,15.9782],[95.1066,16.0586],[95.1719,16.1117],[95.2106,16.1027],[95.1806,16.075],[95.186,16.0354]]],[[[95.1362,16.1514],[95.1272,16.1447],[95.1335,16.1565],[95.1362,16.1514]]],[[[95.3263,16.1146],[95.3113,16.1457],[95.3183,16.1719],[95.3666,16.2017],[95.3641,16.1565],[95.3263,16.1146]]],[[[95.8944,16.238],[95.8925,16.2383],[95.8943,16.2393],[95.8944,16.238]]],[[[94.641,16.0983],[94.5953,16.038],[94.5788,16.0516],[94.5903,16.0994],[94.5718,16.0745],[94.5749,16.0401],[94.5969,16.0296],[94.5864,16.0133],[94.5131,15.9889],[94.4504,15.9243],[94.4158,15.8681],[94.3867,15.9958],[94.4535,16.0189],[94.5944,16.2091],[94.6494,16.2453],[94.6695,16.1952],[94.641,16.0983]]],[[[94.6634,16.2766],[94.6618,16.2779],[94.6624,16.2782],[94.6634,16.2766]]],[[[95.9016,16.2554],[95.9031,16.273],[95.9078,16.2866],[95.9133,16.2749],[95.9016,16.2554]]],[[[94.6827,16.2978],[94.6777,16.3019],[94.6812,16.3123],[94.6827,16.2978]]],[[[97.5832,16.2797],[97.5804,16.3194],[97.5938,16.3318],[97.5832,16.2797]]],[[[95.9615,16.2951],[95.9577,16.313],[95.9577,16.3487],[95.9672,16.3175],[95.9615,16.2951]]],[[[95.9294,16.2326],[95.8996,16.2374],[95.9178,16.273],[95.913,16.3313],[95.9399,16.3786],[95.9563,16.3263],[95.952,16.2719],[95.9294,16.2326]]],[[[94.6537,16.3052],[94.6463,16.3297],[94.6823,16.38],[94.6851,16.3628],[94.6537,16.3052]]],[[[95.9728,16.2189],[95.9341,16.2175],[95.9557,16.2478],[95.9703,16.3017],[95.971,16.3446],[96.0005,16.382],[96.0736,16.335],[96.0758,16.3169],[95.9728,16.2189]]],[[[95.9343,16.3798],[95.9279,16.3735],[95.9334,16.3835],[95.9343,16.3798]]],[[[95.9515,16.3793],[95.9437,16.3836],[95.9477,16.39],[95.9515,16.3793]]],[[[94.6979,16.3684],[94.698,16.3876],[94.7024,16.3907],[94.7021,16.3785],[94.6979,16.3684]]],[[[95.9399,16.3965],[95.9325,16.3958],[95.9328,16.3981],[95.9399,16.3965]]],[[[96.0071,16.3859],[95.9936,16.3955],[95.9936,16.399],[96.0071,16.3859]]],[[[95.9658,16.3464],[95.9522,16.3705],[95.9586,16.4063],[95.9924,16.3898],[95.9658,16.3464]]],[[[97.6036,16.3804],[97.601,16.3972],[97.6051,16.4101],[97.6089,16.4061],[97.6036,16.3804]]],[[[97.5865,16.4874],[97.5739,16.4879],[97.5706,16.4916],[97.5865,16.4874]]],[[[97.5039,16.5033],[97.6162,16.4666],[97.5794,16.3995],[97.5904,16.3597],[97.5683,16.314],[97.5706,16.2383],[97.5455,16.2319],[97.5022,16.2558],[97.4658,16.3161],[97.482,16.3525],[97.4486,16.4481],[97.472,16.4712],[97.4647,16.4858],[97.5039,16.5033]]],[[[97.6273,16.5418],[97.6435,16.5772],[97.6647,16.5554],[97.6616,16.5491],[97.6273,16.5418]]],[[[97.6573,16.5738],[97.6481,16.5787],[97.6515,16.5872],[97.6573,16.5738]]],[[[96.1866,16.4686],[96.1983,16.4864],[96.1788,16.5142],[96.1851,16.5578],[96.1782,16.581],[96.2256,16.5999],[96.3038,16.4614],[96.2944,16.4457],[96.3088,16.4524],[96.2683,16.3897],[96.1828,16.3475],[96.091,16.3517],[96.109,16.3796],[96.1432,16.3846],[96.1668,16.414],[96.1488,16.4548],[96.1585,16.453],[96.1804,16.4603],[96.1866,16.4686]]],[[[97.6359,16.5736],[97.6122,16.58],[97.6261,16.6184],[97.6445,16.6024],[97.6359,16.5736]]],[[[96.3107,16.85],[96.3016,16.8461],[96.3033,16.8612],[96.3107,16.85]]],[[[96.6759,17.3462],[96.6652,17.3236],[96.655,17.3372],[96.6759,17.3462]]],[[[96.778,17.3694],[96.7677,17.3663],[96.7776,17.3754],[96.778,17.3694]]],[[[96.8399,17.4047],[96.7884,17.3795],[96.7385,17.4383],[96.792,17.4828],[96.8078,17.4389],[96.8399,17.4047]]],[[[94.2452,18.533],[94.2458,18.5344],[94.2461,18.5343],[94.2452,18.533]]],[[[94.1131,18.8492],[94.1362,18.856],[94.1203,18.8111],[94.0733,18.8313],[94.0678,18.8476],[94.0863,18.8476],[94.1155,18.8697],[94.1131,18.8492]]],[[[94.0541,19.0332],[94.0549,19.0372],[94.0559,19.0357],[94.0541,19.0332]]],[[[93.8451,19.2768],[93.8392,19.2841],[93.8367,19.2933],[93.8451,19.2768]]],[[[93.8623,19.2975],[93.8489,19.2731],[93.8502,19.296],[93.8623,19.2975]]],[[[93.7983,19.2686],[93.7766,19.2976],[93.8034,19.3037],[93.8344,19.2845],[93.7983,19.2686]]],[[[94.0555,19.3461],[94.0403,19.3418],[94.0545,19.3488],[94.0555,19.3461]]],[[[93.5671,19.4137],[93.5514,19.4101],[93.6085,19.403],[93.6372,19.3558],[93.6001,19.3227],[93.6214,19.3411],[93.6661,19.2982],[93.6417,19.2398],[93.6446,19.2238],[93.6715,19.2938],[93.7294,19.2573],[93.7234,19.2434],[93.7357,19.2534],[93.809,19.2263],[93.8739,19.248],[93.9858,18.9614],[93.9559,18.9192],[93.9596,18.8981],[93.9399,18.8857],[93.9422,18.8625],[93.7669,18.967],[93.6683,19.0606],[93.6901,19.0844],[93.6976,19.1146],[93.7476,19.1212],[93.6942,19.1196],[93.6665,19.0757],[93.6393,19.1378],[93.4778,19.3535],[93.5064,19.4194],[93.5419,19.43],[93.5671,19.4137]]],[[[93.8301,19.4819],[93.7709,19.5239],[93.7689,19.5315],[93.8508,19.4915],[93.8301,19.4819]]],[[[93.7431,19.5242],[93.7631,19.5148],[93.7688,19.4853],[93.7758,19.5037],[93.7933,19.5003],[93.8187,19.4643],[93.8567,19.4843],[93.8585,19.4404],[93.877,19.473],[93.9683,19.4208],[93.9763,19.3944],[93.9628,19.3606],[93.9044,19.3006],[93.8908,19.2933],[93.8817,19.3076],[93.9191,19.3345],[93.92,19.3802],[93.9111,19.3353],[93.8842,19.3196],[93.8889,19.3534],[93.8573,19.3861],[93.8824,19.3531],[93.8692,19.3068],[93.8434,19.2959],[93.8087,19.3077],[93.7751,19.301],[93.7392,19.345],[93.7463,19.3542],[93.7753,19.3403],[93.78,19.3542],[93.7704,19.3447],[93.7533,19.3575],[93.7323,19.3566],[93.7319,19.3826],[93.7121,19.4014],[93.7393,19.4088],[93.7166,19.426],[93.6771,19.4271],[93.6603,19.4475],[93.6428,19.4867],[93.6828,19.5606],[93.7391,19.5483],[93.7431,19.5242]]],[[[93.814,19.7108],[93.8093,19.7149],[93.8121,19.7273],[93.814,19.7108]]],[[[93.704,19.7568],[93.69,19.7132],[93.6317,19.7182],[93.6559,19.7785],[93.6663,19.76],[93.6911,19.7895],[93.704,19.7568]]],[[[93.7368,19.7887],[93.6991,19.7962],[93.7435,19.8327],[93.7452,19.8097],[93.7368,19.7887]]],[[[93.7265,19.8506],[93.7327,19.8242],[93.678,19.7891],[93.6827,19.8215],[93.7265,19.8506]]],[[[93.6699,19.8526],[93.7012,19.8521],[93.6017,19.7153],[93.601,19.7906],[93.6301,19.8135],[93.6495,19.8618],[93.6699,19.8526]]],[[[93.7634,19.8635],[93.7925,19.8314],[93.7771,19.7662],[93.7124,19.7645],[93.7041,19.7837],[93.7335,19.7817],[93.7469,19.7906],[93.7545,19.8254],[93.7409,19.8453],[93.7634,19.8635]]],[[[93.6914,19.8883],[93.7357,19.8838],[93.7369,19.8696],[93.6902,19.8775],[93.6632,19.8581],[93.6545,19.8692],[93.6914,19.8883]]],[[[93.5855,19.8796],[93.5936,19.9044],[93.6058,19.9024],[93.5855,19.8796]]],[[[93.4773,19.9022],[93.5082,19.8393],[93.4692,19.8297],[93.4989,19.8214],[93.5203,19.7572],[93.508,19.743],[93.4443,19.7901],[93.4312,19.8676],[93.3943,19.9535],[93.4347,19.9436],[93.4773,19.9022]]],[[[93.4705,19.9607],[93.4711,19.9623],[93.476,19.9617],[93.4705,19.9607]]],[[[93.4855,19.9635],[93.4747,19.9808],[93.4747,19.9909],[93.497,19.9809],[93.4855,19.9635]]],[[[93.4609,19.9581],[93.4445,19.9836],[93.4499,19.9931],[93.4635,19.9765],[93.4609,19.9581]]],[[[93.2347,19.8206],[93.1633,19.9447],[93.1267,20.0519],[93.1379,20.0533],[93.1809,19.9394],[93.2466,19.826],[93.2347,19.8206]]],[[[93.1285,20.062],[93.1188,20.0584],[93.1264,20.0691],[93.1285,20.062]]],[[[93.1585,20.0669],[93.1774,20.052],[93.1425,20.0706],[93.1585,20.0669]]],[[[93.3333,20.0521],[93.3316,20.0642],[93.339,20.0728],[93.3416,20.066],[93.3333,20.0521]]],[[[93.0239,19.8268],[93.0134,19.8954],[92.9159,20.0553],[92.926,20.0833],[92.9544,20.0636],[93.0239,19.8856],[93.0239,19.8268]]],[[[92.9967,20.1116],[93.0682,20.116],[93.0872,20.0864],[93.074,20.0765],[93.1218,20.0396],[93.14,19.9983],[93.1014,19.9783],[93.0992,19.9556],[93.1311,19.8553],[93.1672,19.8025],[93.0564,19.9521],[93.0421,20.0089],[92.9844,20.0694],[92.9746,20.1264],[92.9967,20.1116]]],[[[93.328,20.1069],[93.3118,20.1313],[93.313,20.1366],[93.3256,20.1211],[93.328,20.1069]]],[[[93.1267,20.079],[93.1119,20.0615],[93.0988,20.0779],[93.0949,20.0879],[93.1195,20.0869],[93.0855,20.1002],[93.0736,20.1239],[93.0877,20.1388],[93.1092,20.1359],[93.1267,20.079]]],[[[93.0895,20.1485],[93.064,20.134],[93.0889,20.1524],[93.0895,20.1485]]],[[[93.2991,20.0481],[93.2862,20.0946],[93.3034,20.1704],[93.3109,20.1152],[93.3309,20.0821],[93.2991,20.0481]]],[[[93.2119,20.1598],[93.2312,20.113],[93.2035,20.0935],[93.1892,20.0627],[93.1329,20.0846],[93.1113,20.1403],[93.0981,20.1542],[93.123,20.1798],[93.1717,20.1884],[93.1898,20.168],[93.2119,20.1598]]],[[[92.9286,20.1897],[92.9165,20.2045],[92.9252,20.2444],[92.9426,20.2506],[92.9504,20.2119],[92.9286,20.1897]]],[[[93.2528,20.1437],[93.2845,20.1445],[93.2744,20.0854],[93.2894,20.0741],[93.288,20.0454],[93.2073,20.0483],[93.2079,20.0922],[93.2467,20.116],[93.2292,20.1567],[93.1829,20.1916],[93.2081,20.2124],[93.2167,20.2346],[93.2528,20.2427],[93.2512,20.2636],[93.2766,20.2438],[93.3004,20.1904],[93.2837,20.158],[93.2528,20.1437]]],[[[93.009,20.2867],[93.0157,20.3142],[93.0091,20.2869],[93.009,20.2867]]],[[[93.2728,20.2683],[93.2347,20.2758],[93.2548,20.3126],[93.2708,20.3147],[93.2636,20.2969],[93.2728,20.2683]]],[[[93.3231,20.3224],[93.3364,20.2789],[93.3577,20.27],[93.3906,20.2092],[93.4112,20.1214],[93.4012,20.1103],[93.3839,20.1859],[93.396,20.1024],[93.3666,20.084],[93.3755,20.0386],[93.359,20.0423],[93.3556,20.0728],[93.3143,20.1414],[93.3067,20.2079],[93.2713,20.2575],[93.2776,20.2882],[93.2677,20.2972],[93.2839,20.3204],[93.3231,20.3224]]],[[[93.2914,20.353],[93.2847,20.3436],[93.2902,20.3544],[93.2914,20.353]]],[[[93.1334,20.3059],[93.1755,20.3243],[93.2152,20.3051],[93.143,20.2188],[93.1272,20.2428],[93.1284,20.2167],[93.1036,20.2139],[93.0167,20.1442],[92.9954,20.1441],[93.0012,20.2153],[93.0221,20.2687],[93.04,20.2773],[93.0446,20.3321],[93.12,20.3744],[93.1322,20.3447],[93.1199,20.3296],[93.1288,20.321],[93.1403,20.3166],[93.1334,20.3059]]],[[[92.8905,20.3915],[92.8718,20.3864],[92.8496,20.3968],[92.8766,20.4023],[92.8905,20.3915]]],[[[93.0225,20.4406],[93.0173,20.454],[93.0283,20.4594],[93.0225,20.4406]]],[[[92.8048,20.4859],[92.7928,20.4945],[92.7973,20.4995],[92.8048,20.4859]]],[[[93.1093,20.4186],[93.0785,20.4073],[93.0778,20.3641],[93.0435,20.3504],[93.0351,20.3909],[93.0851,20.5053],[93.1093,20.4186]]],[[[93.0411,20.4872],[93.0444,20.5033],[93.0566,20.5153],[93.0411,20.4872]]],[[[92.7132,20.572],[92.7008,20.5817],[92.698,20.6001],[92.7075,20.5919],[92.7132,20.572]]],[[[92.6335,20.6965],[92.6086,20.6838],[92.5844,20.7087],[92.6185,20.7141],[92.6353,20.7243],[92.6335,20.6965]]],[[[92.5627,20.7432],[92.5806,20.749],[92.5749,20.7317],[92.5864,20.7294],[92.5754,20.7211],[92.5491,20.7402],[92.5512,20.757],[92.5627,20.7432]]],[[[92.2969,20.9277],[92.2815,20.9489],[92.3007,20.9774],[92.3098,20.9528],[92.2969,20.9277]]],[[[92.3326,20.9939],[92.3553,20.9436],[92.3145,20.9072],[92.3036,20.9269],[92.3159,20.9543],[92.3067,20.9822],[92.3326,20.9939]]],[[[92.2201,21.109],[92.211,21.1081],[92.2168,21.1148],[92.2201,21.109]]],[[[92.2179,21.1304],[92.2124,21.1257],[92.2076,21.1318],[92.2179,21.1304]]],[[[91.9578,21.5064],[91.9017,21.5092],[91.9103,21.4824],[91.8877,21.4736],[91.8587,21.522],[91.8821,21.557],[91.8742,21.6069],[91.8913,21.6376],[91.8851,21.6807],[91.9368,21.7322],[91.9822,21.6239],[91.9578,21.5064]]],[[[91.932,21.736],[91.9207,21.73],[91.9183,21.7417],[91.932,21.736]]],[[[91.8806,21.6342],[91.8524,21.6604],[91.8841,21.755],[91.9115,21.7445],[91.8799,21.6822],[91.8806,21.6342]]],[[[91.8844,21.8794],[91.8783,21.8216],[91.8714,21.8878],[91.8567,21.8746],[91.8747,21.8125],[91.8305,21.722],[91.8468,21.8128],[91.8409,21.8963],[91.869,21.9221],[91.8844,21.8794]]],[[[91.8215,22.2134],[91.8151,22.214],[91.8228,22.2236],[91.8215,22.2134]]],[[[91.8201,22.2775],[91.7995,22.2839],[91.806,22.2983],[91.8201,22.2775]]],[[[91.5582,22.4111],[91.5036,22.3464],[91.4753,22.3622],[91.4405,22.4145],[91.4028,22.5058],[91.4317,22.6239],[91.46,22.6056],[91.5421,22.4754],[91.5582,22.4111]]],[[[91.2507,22.6313],[91.2556,22.6161],[91.2242,22.5852],[91.2173,22.6408],[91.2507,22.6313]]],[[[91.1119,22.5775],[91.0918,22.5984],[91.141,22.6642],[91.1719,22.6049],[91.1577,22.58],[91.1119,22.5775]]],[[[91.1284,22.6708],[91.0886,22.5983],[91.0903,22.5817],[91.0705,22.5856],[91.0582,22.6391],[91.0449,22.636],[91.0554,22.6978],[91.1122,22.7],[91.1284,22.6708]]],[[[91.0417,22.677],[91.0194,22.6926],[91.0181,22.7025],[91.0462,22.7046],[91.0417,22.677]]],[[[91.268,22.7307],[91.2996,22.7012],[91.2664,22.669],[91.2165,22.7007],[91.2358,22.7099],[91.2122,22.7042],[91.1311,22.7361],[91.1898,22.7493],[91.268,22.7307]]],[[[91.3411,22.7184],[91.3104,22.7451],[91.3124,22.7514],[91.3475,22.7548],[91.3544,22.7304],[91.3411,22.7184]]],[[[90.9414,22.8032],[91.0202,22.7154],[91.0079,22.7052],[90.9757,22.7222],[90.9658,22.7155],[91.0357,22.6706],[91.0292,22.642],[91.0583,22.5879],[90.9828,22.5683],[90.9483,22.5783],[90.8474,22.6726],[90.8337,22.7293],[90.7969,22.7739],[90.8751,22.8055],[90.9414,22.8032]]],[[[90.6816,23.3461],[90.6734,23.3486],[90.6782,23.3582],[90.6816,23.3461]]],[[[90.6084,23.4913],[90.6132,23.4946],[90.6248,23.496],[90.6084,23.4913]]],[[[90.6457,23.5019],[90.6435,23.5019],[90.6464,23.5055],[90.6457,23.5019]]],[[[90.6948,23.5379],[90.6906,23.5452],[90.6922,23.5491],[90.6948,23.5379]]],[[[90.7022,23.5521],[90.7033,23.5523],[90.7032,23.5521],[90.7022,23.5521]]],[[[90.6949,23.5552],[90.6936,23.5641],[90.6992,23.5613],[90.6949,23.5552]]],[[[90.6905,23.568],[90.6789,23.5747],[90.6805,23.5794],[90.6905,23.568]]],[[[90.569,23.5895],[90.5706,23.5906],[90.5728,23.5908],[90.569,23.5895]]],[[[90.4844,23.5823],[90.5024,23.5851],[90.4736,23.5758],[90.4531,23.6055],[90.4844,23.5823]]],[[[90.6517,23.606],[90.6827,23.5581],[90.6669,23.5693],[90.6945,23.5158],[90.6669,23.5232],[90.5973,23.4939],[90.5867,23.5467],[90.6111,23.5842],[90.5984,23.5943],[90.6517,23.606]]],[[[90.6195,23.6099],[90.6019,23.6062],[90.6261,23.6259],[90.6195,23.6099]]],[[[90.6769,23.6476],[90.7322,23.6524],[90.7598,23.6309],[90.7358,23.627],[90.7284,23.5956],[90.6956,23.5734],[90.6684,23.59],[90.6536,23.6235],[90.6585,23.6553],[90.6769,23.6476]]],[[[90.6474,23.6139],[90.6317,23.6169],[90.6427,23.6569],[90.6634,23.6642],[90.6503,23.6477],[90.6474,23.6139]]],[[[90.6841,23.6613],[90.6694,23.6627],[90.6724,23.669],[90.6841,23.6613]]],[[[90.6641,23.6736],[90.6529,23.6724],[90.6474,23.6798],[90.6641,23.6736]]],[[[90.7168,23.6598],[90.7013,23.6627],[90.6913,23.6714],[90.7264,23.6788],[90.7168,23.6598]]],[[[90.4646,23.6349],[90.4402,23.6244],[90.3883,23.6996],[90.4183,23.6844],[90.4646,23.6349]]],[[[90.7331,23.6942],[90.6945,23.6848],[90.7145,23.7266],[90.7331,23.6942]]],[[[85.1226,27.6099],[85.105,27.6269],[85.1239,27.6421],[85.1411,27.6254],[85.1226,27.6099]]],[[[98.0,14.3165],[97.9698,14.4191],[98.0,14.4789],[98.0,14.3165]]],[[[97.9963,14.4786],[97.9654,14.4261],[97.9407,14.5262],[97.9056,14.5882],[97.9134,14.6195],[97.9047,14.6107],[97.8754,14.6767],[97.896,14.7011],[97.8855,14.723],[97.8583,14.7096],[97.7973,14.882],[97.8042,15.002],[97.8234,15.0163],[97.8244,15.0243],[97.8044,15.0055],[97.8105,15.1589],[97.7428,15.2522],[97.7358,15.3484],[97.7522,15.384],[97.7828,15.397],[97.7214,15.7653],[97.7236,15.8506],[97.693,15.9106],[97.5944,16.0022],[97.5689,16.0686],[97.5967,16.0851],[97.6143,16.0611],[97.6277,16.0504],[97.648,16.0442],[97.6654,16.0486],[97.6772,16.0283],[97.6969,16.0275],[97.6673,16.0521],[97.6202,16.0587],[97.6023,16.0908],[97.6508,16.2675],[97.6211,16.3553],[97.6225,16.4242],[97.6339,16.4883],[97.6592,16.5123],[97.6712,16.4994],[97.6609,16.4898],[97.6624,16.4765],[97.6823,16.4655],[97.7025,16.4706],[97.7044,16.4501],[97.7232,16.4502],[97.7198,16.4268],[97.7539,16.4141],[97.7355,16.4023],[97.7334,16.3833],[97.7784,16.3746],[97.7974,16.354],[97.7858,16.3396],[97.7874,16.3327],[97.8346,16.3236],[97.8601,16.2918],[97.8887,16.2862],[97.8521,16.3024],[97.8441,16.3234],[97.7924,16.3327],[97.8031,16.3534],[97.7905,16.3703],[97.7614,16.386],[97.7372,16.386],[97.7578,16.4177],[97.7289,16.4247],[97.7259,16.4541],[97.7068,16.4536],[97.7023,16.474],[97.6641,16.48],[97.6755,16.5007],[97.6636,16.5228],[97.6778,16.5394],[97.7465,16.5616],[97.713,16.5731],[97.6685,16.5549],[97.6441,16.6134],[97.6214,16.6433],[97.6077,16.581],[97.6264,16.5585],[97.6184,16.5399],[97.3928,16.5251],[97.3737,16.5015],[97.3535,16.5345],[97.3284,16.6589],[97.3466,16.6471],[97.3939,16.64],[97.4108,16.6424],[97.424,16.6584],[97.3927,16.6437],[97.3457,16.6544],[97.3406,16.6666],[97.3578,16.6694],[97.3476,16.6786],[97.328,16.667],[97.3301,16.6963],[97.3439,16.6953],[97.3419,16.7341],[97.3403,16.7095],[97.3207,16.7102],[97.3185,16.668],[97.2826,16.6824],[97.239,16.7731],[97.2498,16.8225],[97.2349,16.8088],[97.2226,16.8417],[97.227,16.8573],[97.2664,16.8442],[97.2781,16.8505],[97.2659,16.8701],[97.265,16.8481],[97.2299,16.8711],[97.2147,16.8239],[97.2047,16.8447],[97.2191,16.9379],[97.208,16.902],[97.1861,16.8997],[97.1842,16.9584],[97.2066,17.0126],[97.1652,17.054],[97.1556,17.0991],[97.1909,17.1169],[97.2134,17.0874],[97.2645,17.1035],[97.2278,17.1029],[97.2063,17.1338],[97.1503,17.1236],[97.0592,17.2533],[97.0013,17.279],[97.0091,17.3],[96.9116,17.357],[96.8832,17.4541],[96.8649,17.3961],[96.8434,17.3893],[96.849,17.4134],[96.8209,17.4331],[96.7918,17.4904],[96.7344,17.4353],[96.7735,17.3763],[96.7225,17.3474],[96.6924,17.3664],[96.6584,17.3486],[96.6488,17.3303],[96.6683,17.2691],[96.6962,17.2479],[96.7086,17.2545],[96.6769,17.2675],[96.6854,17.3453],[96.725,17.3382],[96.8366,17.3809],[96.8401,17.3648],[96.8443,17.3762],[96.8597,17.3615],[96.856,17.3431],[96.863,17.3527],[96.8789,17.3398],[96.8686,17.2469],[96.8335,17.2052],[96.9014,17.0814],[96.9111,17.0273],[96.8753,16.9233],[96.8383,16.9272],[96.8509,16.9591],[96.8346,16.9511],[96.8332,16.917],[96.7967,16.9065],[96.8475,16.8469],[96.8078,16.7555],[96.7808,16.7818],[96.7746,16.7731],[96.8011,16.74],[96.7872,16.7154],[96.5995,16.5403],[96.4788,16.5034],[96.3797,16.5014],[96.2922,16.5556],[96.2867,16.5918],[96.3336,16.6234],[96.4268,16.6076],[96.4699,16.6127],[96.3313,16.6287],[96.2874,16.6001],[96.2778,16.5776],[96.2228,16.7542],[96.3156,16.8334],[96.3456,16.8333],[96.3941,16.8594],[96.4084,16.8552],[96.4861,16.8699],[96.5119,16.8882],[96.4839,16.8731],[96.3948,16.864],[96.3244,16.8384],[96.32,16.869],[96.3477,16.9059],[96.3007,16.8637],[96.298,16.8408],[96.2776,16.8693],[96.3037,16.8261],[96.2419,16.8037],[96.197,16.7674],[96.1847,16.7765],[96.195,16.7898],[96.1915,16.7999],[96.2124,16.7983],[96.2246,16.8111],[96.2182,16.8412],[96.2089,16.8458],[96.2203,16.8109],[96.1917,16.8059],[96.1802,16.7767],[96.1964,16.7598],[96.1288,16.7711],[96.1207,16.8138],[96.1155,16.8122],[96.1245,16.7506],[96.1445,16.7607],[96.1942,16.7384],[96.2247,16.604],[96.1735,16.5831],[96.1736,16.5163],[96.1926,16.4892],[96.1754,16.4635],[96.1417,16.4537],[96.1628,16.4177],[96.0771,16.3572],[96.0173,16.3845],[95.9964,16.4107],[95.9121,16.4109],[95.9275,16.385],[95.9059,16.3295],[95.8912,16.2446],[95.746,16.1343],[95.7269,16.264],[95.7096,16.2731],[95.7229,16.2566],[95.7365,16.1211],[95.6914,16.0458],[95.6878,15.9908],[95.5225,15.8011],[95.4286,15.7297],[95.3786,15.71],[95.2905,15.7244],[95.2778,15.7933],[95.2794,15.835],[95.3222,15.881],[95.3399,15.88],[95.3355,15.8985],[95.3479,15.8805],[95.3809,15.8721],[95.3989,15.8768],[95.4126,15.9057],[95.3871,15.8768],[95.3534,15.8849],[95.3468,15.9059],[95.3315,15.8981],[95.3356,15.8829],[95.3242,15.8856],[95.36,15.9689],[95.3665,16.0524],[95.3962,16.0616],[95.3663,16.0573],[95.3623,16.1407],[95.3907,16.2396],[95.3263,16.1926],[95.306,16.1581],[95.3266,16.0873],[95.2792,16.0394],[95.2336,15.9378],[95.2101,15.8565],[95.2209,15.7894],[95.1719,15.7767],[95.1367,15.795],[95.111,15.9017],[95.1332,16.0193],[95.1896,16.0246],[95.1927,16.0799],[95.2671,16.1495],[95.2218,16.1237],[95.187,16.135],[95.2079,16.1777],[95.1799,16.1374],[95.1362,16.1364],[95.1442,16.168],[95.1293,16.2051],[95.1408,16.2315],[95.1236,16.2067],[95.1216,16.1247],[95.0561,16.0355],[95.0701,15.944],[95.037,15.8038],[95.0011,15.7787],[94.9868,15.7848],[94.9842,15.8484],[94.9839,15.7683],[94.9647,15.7536],[94.8458,15.7833],[94.8468,15.8085],[94.8893,15.8274],[94.8713,15.8954],[94.9508,15.9456],[94.9443,15.9536],[94.8637,15.8967],[94.873,15.8249],[94.849,15.8302],[94.8549,15.8884],[94.8364,15.9564],[94.8725,16.0],[94.9145,16.0],[94.9218,16.0306],[94.9054,16.0747],[94.9333,16.0862],[94.9555,16.131],[95.0226,16.135],[95.0225,16.1603],[95.0557,16.1994],[95.0566,16.216],[95.0465,16.2391],[95.0693,16.2458],[95.1006,16.3006],[95.0652,16.2477],[95.0432,16.2457],[95.0479,16.1971],[95.0137,16.1616],[95.0162,16.1437],[94.9529,16.1388],[94.9304,16.0942],[94.903,16.083],[94.9154,16.0299],[94.8918,16.0061],[94.8656,16.1351],[94.9039,16.1883],[94.9573,16.1962],[95.0257,16.2628],[95.0421,16.3097],[95.0649,16.3114],[95.0509,16.3127],[95.0505,16.3334],[95.0117,16.2625],[94.8727,16.1872],[94.8388,16.1108],[94.8497,16.0723],[94.8395,16.0663],[94.7987,15.989],[94.7995,15.9677],[94.7214,15.8542],[94.6975,15.8425],[94.6505,15.8542],[94.6042,15.9214],[94.6697,15.9557],[94.7255,16.0083],[94.7704,16.0958],[94.7845,16.0965],[94.7743,16.1033],[94.8071,16.1998],[94.8411,16.215],[94.8519,16.2428],[94.8035,16.2062],[94.6841,16.0],[94.5759,15.9309],[94.5603,15.9419],[94.6846,16.1148],[94.6834,16.2056],[94.7209,16.2029],[94.7589,16.2373],[94.7395,16.2574],[94.7567,16.2809],[94.7336,16.2564],[94.7496,16.2377],[94.7262,16.2305],[94.7192,16.2091],[94.681,16.2137],[94.6701,16.2503],[94.6981,16.2454],[94.7087,16.2549],[94.7058,16.2669],[94.6983,16.2493],[94.6662,16.2635],[94.6677,16.2693],[94.6827,16.2978],[94.6881,16.3066],[94.6989,16.3555],[94.7372,16.354],[94.7548,16.3841],[94.7858,16.3564],[94.8134,16.3559],[94.8254,16.3704],[94.7948,16.3601],[94.7519,16.3905],[94.7347,16.3608],[94.7195,16.3662],[94.7242,16.3986],[94.7432,16.4022],[94.75,16.4194],[94.7586,16.4096],[94.7705,16.4093],[94.7839,16.4261],[94.7588,16.4138],[94.7478,16.4265],[94.7126,16.3942],[94.6959,16.4757],[94.7404,16.5202],[94.7463,16.569],[94.7898,16.5778],[94.8004,16.5907],[94.7465,16.5768],[94.7237,16.5101],[94.6898,16.4927],[94.6782,16.5132],[94.7012,16.5517],[94.7103,16.6135],[94.7423,16.6328],[94.7216,16.6872],[94.7447,16.6957],[94.7416,16.7301],[94.7218,16.7336],[94.738,16.7245],[94.7361,16.7004],[94.7173,16.6913],[94.7098,16.6537],[94.733,16.629],[94.6784,16.6436],[94.6989,16.6797],[94.6889,16.7396],[94.6936,16.6767],[94.6754,16.6933],[94.6823,16.6714],[94.6688,16.6524],[94.6511,16.6702],[94.6557,16.6579],[94.6743,16.6497],[94.6581,16.6276],[94.6913,16.6391],[94.7012,16.6217],[94.6924,16.5549],[94.6644,16.5184],[94.6796,16.3932],[94.6529,16.3403],[94.6227,16.3415],[94.6403,16.3835],[94.5566,16.2708],[94.5355,16.2979],[94.5464,16.308],[94.5142,16.2893],[94.5086,16.1819],[94.4336,16.0697],[94.3681,16.0546],[94.3419,16.0163],[94.2827,16.0],[94.2622,15.9621],[94.2455,15.96],[94.1997,16.0325],[94.2285,16.252],[94.2433,16.2647],[94.2361,16.3486],[94.2484,16.348],[94.2469,16.3774],[94.3021,16.5179],[94.3433,16.5467],[94.368,16.6149],[94.4061,16.7958],[94.3933,16.8461],[94.4083,16.8898],[94.4434,16.9306],[94.484,16.9432],[94.4782,16.9576],[94.4433,16.9475],[94.5363,17.1869],[94.5117,17.2158],[94.5487,17.3123],[94.5815,17.2885],[94.5917,17.3042],[94.5715,17.3171],[94.5697,17.5019],[94.6147,17.5464],[94.582,17.6348],[94.5588,17.6362],[94.5416,17.6813],[94.5448,17.7349],[94.4897,17.7824],[94.467,18.0023],[94.4878,18.0239],[94.4905,18.0586],[94.4032,18.3077],[94.4023,18.3463],[94.3425,18.3967],[94.2492,18.5245],[94.2633,18.5394],[94.2405,18.7221],[94.28,18.7351],[94.253,18.7341],[94.2492,18.7552],[94.239,18.7349],[94.2155,18.7705],[94.2243,18.7812],[94.2113,18.7764],[94.1504,18.8627],[94.1696,18.89],[94.1467,18.8848],[94.127,18.8567],[94.1169,18.8566],[94.1287,18.8786],[94.0553,18.8461],[94.0324,18.8608],[94.0439,18.8846],[94.0738,18.8676],[94.0906,18.8806],[94.1057,18.8997],[94.1353,18.892],[94.1086,18.9296],[94.113,18.9662],[94.0864,18.8798],[94.0718,18.8743],[94.031,18.9005],[94.0552,18.9352],[94.0417,18.9682],[94.0632,19.0376],[94.0586,19.0598],[94.1021,19.0766],[94.0897,19.085],[94.097,19.0986],[94.1228,19.0846],[94.109,19.1051],[94.1466,19.1191],[94.1161,19.1204],[94.0545,19.0754],[94.0272,19.0797],[94.0375,19.1067],[94.1385,19.1514],[94.1357,19.1796],[94.1295,19.1561],[94.1075,19.1513],[94.0927,19.1822],[94.0911,19.1484],[94.0648,19.1263],[94.0735,19.165],[94.0624,19.1881],[94.0568,19.1255],[94.0329,19.1296],[94.0508,19.2243],[94.0711,19.2339],[94.0469,19.2483],[94.0435,19.312],[94.0762,19.3746],[94.0686,19.3853],[94.0687,19.3706],[94.0394,19.3453],[94.0315,19.3281],[94.0283,19.1989],[94.0091,19.1799],[93.9935,19.2264],[94.0073,19.1645],[93.9922,19.1467],[93.9539,19.1475],[93.9386,19.1722],[93.9453,19.1934],[93.9123,19.2029],[93.918,19.1853],[93.8761,19.2523],[93.9559,19.3061],[93.9457,19.3218],[93.9844,19.3878],[94.0108,19.381],[93.9869,19.4071],[93.9971,19.4525],[93.9147,19.4754],[93.9485,19.5081],[93.9383,19.564],[93.9324,19.4985],[93.9024,19.4885],[93.7768,19.5911],[93.8164,19.6042],[93.7935,19.614],[93.7602,19.5991],[93.7305,19.6258],[93.73,19.644],[93.7943,19.6598],[93.7882,19.6815],[93.8193,19.7111],[93.8117,19.7365],[93.7986,19.7014],[93.7626,19.6775],[93.727,19.6711],[93.7059,19.7028],[93.7208,19.7483],[93.7914,19.7691],[93.7976,19.8329],[93.7863,19.8628],[93.7979,19.8666],[93.8012,19.891],[93.7933,19.916],[93.7937,19.873],[93.7386,19.8852],[93.7457,19.9152],[93.7085,19.9375],[93.7091,19.9673],[93.704,19.9301],[93.5928,19.9111],[93.553,19.8886],[93.5564,19.9148],[93.5754,19.9201],[93.5867,19.9378],[93.5688,19.9212],[93.542,19.9249],[93.546,19.9363],[93.5253,19.9232],[93.5128,19.9445],[93.5365,19.9552],[93.5057,19.9704],[93.5401,19.9909],[93.4818,19.9914],[93.4674,20.0443],[93.4585,20.0541],[93.4762,20.0609],[93.4548,20.0552],[93.4762,20.0065],[93.4661,19.9825],[93.4543,19.9959],[93.4392,19.9925],[93.456,19.951],[93.416,19.9708],[93.3807,20.0659],[93.3841,20.0801],[93.4167,20.0799],[93.4148,20.1121],[93.4329,20.1052],[93.4126,20.1727],[93.3623,20.2736],[93.343,20.2772],[93.3234,20.3297],[93.2966,20.33],[93.3259,20.3859],[93.3254,20.4036],[93.2805,20.3482],[93.2801,20.3282],[93.2398,20.306],[93.2306,20.2739],[93.2464,20.2454],[93.2099,20.2347],[93.1825,20.1969],[93.117,20.1857],[93.2165,20.2861],[93.2259,20.3076],[93.2124,20.3278],[93.2512,20.4261],[93.2252,20.3917],[93.198,20.3871],[93.2235,20.376],[93.203,20.3226],[93.1243,20.3281],[93.1374,20.3425],[93.1321,20.3693],[93.1563,20.3591],[93.1748,20.3741],[93.1293,20.3762],[93.1742,20.3994],[93.1648,20.422],[93.1681,20.4002],[93.0939,20.3798],[93.0884,20.4013],[93.1111,20.4138],[93.1167,20.4272],[93.107,20.5041],[93.087,20.5198],[93.1051,20.5307],[93.0919,20.53],[93.0702,20.602],[93.0483,20.5975],[93.0217,20.6219],[93.0277,20.6439],[93.0055,20.6398],[93.0178,20.6122],[93.0757,20.5791],[93.0814,20.5488],[93.0626,20.5263],[93.035,20.5378],[93.0556,20.5207],[93.0195,20.4791],[93.0333,20.4857],[93.0301,20.4652],[93.0135,20.4606],[93.0216,20.3697],[93.0036,20.2889],[92.9618,20.2253],[92.945,20.2675],[92.915,20.2419],[92.9146,20.2122],[92.8862,20.2095],[92.9203,20.1809],[92.8889,20.1175],[92.8608,20.1211],[92.7733,20.195],[92.7873,20.2401],[92.7969,20.2102],[92.8305,20.1805],[92.8458,20.1823],[92.799,20.2141],[92.7988,20.2583],[92.9445,20.3156],[92.8982,20.3078],[92.8554,20.3867],[92.9108,20.3717],[92.9315,20.3863],[92.9417,20.3522],[92.9508,20.374],[92.9127,20.414],[92.9289,20.4212],[92.9326,20.4327],[92.8983,20.4822],[92.9285,20.4299],[92.9054,20.4152],[92.9158,20.3789],[92.8982,20.3848],[92.8867,20.4218],[92.8866,20.4039],[92.8571,20.4195],[92.8637,20.4051],[92.8467,20.4019],[92.8212,20.4462],[92.8337,20.4407],[92.8264,20.4527],[92.8383,20.4688],[92.8487,20.4591],[92.8451,20.4703],[92.8304,20.4725],[92.8275,20.4968],[92.8108,20.4924],[92.7961,20.5101],[92.7888,20.4998],[92.7349,20.5722],[92.7486,20.5782],[92.7524,20.5867],[92.7468,20.5986],[92.7266,20.6168],[92.7482,20.5876],[92.7282,20.5812],[92.6451,20.6906],[92.645,20.7277],[92.5832,20.7199],[92.591,20.732],[92.5697,20.7796],[92.5997,20.7956],[92.6024,20.8064],[92.5649,20.7864],[92.5494,20.8493],[92.5449,20.8118],[92.5713,20.7516],[92.5466,20.7631],[92.5441,20.743],[92.591,20.6851],[92.607,20.6776],[92.6358,20.6901],[92.6954,20.5825],[92.7155,20.5585],[92.72,20.4706],[92.7375,20.4264],[92.74,20.27],[92.726,20.2633],[92.638,20.4332],[92.4603,20.6497],[92.4661,20.6597],[92.377,20.6977],[92.3877,20.7048],[92.3611,20.7723],[92.3901,20.8168],[92.3787,20.8246],[92.3584,20.7833],[92.3353,20.8433],[92.3602,20.8647],[92.3366,20.8509],[92.3146,20.8826],[92.3164,20.901],[92.3619,20.9419],[92.3477,20.9871],[92.3313,20.9978],[92.2968,20.9872],[92.2891,21.0036],[92.2933,20.98],[92.2798,20.9694],[92.2694,21.0182],[92.2887,21.0225],[92.2649,21.0368],[92.3128,21.0579],[92.3122,21.0703],[92.2734,21.0458],[92.2297,21.1046],[92.2243,21.1365],[92.198,21.1546],[92.1976,21.1198],[92.255,21.0615],[92.2633,20.9192],[92.3097,20.8311],[92.3317,20.7442],[92.2989,20.7628],[92.2117,20.9253],[92.1847,21.0139],[92.0473,21.1766],[92.0461,21.2922],[91.9553,21.4506],[92.0054,21.4992],[92.0221,21.4864],[92.0073,21.5077],[92.0389,21.6476],[92.0352,21.7006],[92.0181,21.7165],[92.0163,21.6652],[91.9817,21.656],[91.9796,21.7042],[91.9667,21.6782],[91.9485,21.7393],[91.9764,21.7418],[91.9925,21.7678],[91.9716,21.7472],[91.9545,21.7539],[91.9706,21.7862],[91.9424,21.8042],[91.9017,21.7765],[91.9199,21.8473],[91.9095,21.9079],[91.9275,21.9345],[91.8949,21.9689],[91.8548,22.1276],[91.8345,22.1221],[91.8118,22.1905],[91.8351,22.2151],[91.842,22.2605],[91.8147,22.3049],[91.8665,22.3221],[91.9008,22.4007],[91.9451,22.4162],[92.0019,22.4046],[92.022,22.4167],[92.0349,22.4459],[92.0815,22.4371],[92.1417,22.4615],[92.1439,22.4703],[92.0873,22.4443],[92.0331,22.4505],[92.0029,22.4124],[91.9541,22.421],[91.8964,22.4094],[91.8722,22.3498],[91.7955,22.2927],[91.7952,22.2778],[91.829,22.2565],[91.798,22.2196],[91.7693,22.2784],[91.7519,22.3866],[91.6694,22.5372],[91.4859,22.7667],[91.4558,22.79],[91.4368,22.7779],[91.4746,22.8241],[91.4356,22.8047],[91.4836,22.8741],[91.4566,22.8989],[91.4922,22.9007],[91.4452,22.9007],[91.441,22.8836],[91.464,22.8832],[91.4647,22.869],[91.4204,22.8087],[91.4086,22.7609],[91.33,22.8335],[91.3506,22.8515],[91.3427,22.8832],[91.3158,22.8394],[91.3525,22.7861],[91.3451,22.7758],[91.2963,22.8102],[91.1869,22.7977],[91.1164,22.8119],[91.1127,22.8262],[91.0831,22.8],[91.0287,22.7996],[90.9375,22.8561],[90.8246,22.8647],[90.8016,22.9088],[90.7578,22.9387],[90.7958,22.898],[90.7954,22.8634],[90.7409,22.8827],[90.6896,22.9783],[90.6239,23.0586],[90.6546,23.2565],[90.6389,23.3167],[90.6776,23.3182],[90.6754,23.3407],[90.6978,23.3457],[90.6795,23.3644],[90.6972,23.3775],[90.67,23.3584],[90.6716,23.3208],[90.6154,23.3286],[90.593,23.3786],[90.6066,23.4744],[90.6364,23.4878],[90.6927,23.4764],[90.7167,23.5047],[90.7177,23.5428],[90.7443,23.5443],[90.715,23.5464],[90.7057,23.5617],[90.732,23.5912],[90.7392,23.6216],[90.7646,23.629],[90.7414,23.6621],[90.7578,23.721],[90.7425,23.6937],[90.7403,23.7242],[90.7315,23.7102],[90.7157,23.7414],[90.6818,23.6867],[90.6373,23.6841],[90.6274,23.6331],[90.5572,23.5862],[90.5147,23.5814],[90.505,23.6033],[90.484,23.5866],[90.4538,23.6148],[90.467,23.6379],[90.4116,23.6964],[90.3821,23.7085],[89.3436,25.2154],[88.8106,25.9197],[88.3583,26.2272],[87.643,26.3925],[87.2116,26.7002],[87.2865,27.1996],[86.93,27.3397],[86.572,27.445],[86.5316,27.4781],[86.5165,27.5281],[86.5316,27.5781],[86.5775,27.6133],[87.3161,27.7837],[87.3896,27.7533],[87.5061,27.5802],[87.9769,27.89],[90.1645,28.7132],[90.5216,28.8144],[90.4989,29.3069],[91.183,29.753],[92.0455,29.991],[93.5624,30.3777],[95.2281,30.913],[97.2209,31.7458],[98.0,31.9955],[97.9963,14.4786]]]]}}