{"type":"Feature","properties":{"speciesId":559,"category":"LC","source":"IUCN Red List","simplifyTol":0.01,"clippedToSubcontinent":true},"geometry":{"type":"MultiPolygon","coordinates":[[[[93.2396,7.9839],[93.2238,8.001],[93.2408,8.0161],[93.2562,7.9994],[93.2396,7.9839]]],[[[93.2996,7.9839],[93.2838,8.001],[93.3008,8.0161],[93.3162,7.9994],[93.2996,7.9839]]],[[[93.4042,8.0017],[93.4026,7.9675],[93.4336,7.9499],[93.349,7.9149],[93.3617,7.9295],[93.3457,7.943],[93.3299,7.9122],[93.3126,7.9455],[93.3268,8.0],[93.3713,8.0189],[93.4042,8.0017]]],[[[93.3496,8.0339],[93.3338,8.051],[93.3508,8.0661],[93.3662,8.0494],[93.3496,8.0339]]],[[[93.1296,8.1239],[93.1138,8.141],[93.1308,8.1561],[93.1462,8.1394],[93.1296,8.1239]]],[[[93.0796,8.1639],[93.0638,8.181],[93.0808,8.1961],[93.0962,8.1794],[93.0796,8.1639]]],[[[93.5349,8.1763],[93.513,8.1811],[93.4996,8.1446],[93.5465,8.0824],[93.5445,8.0392],[93.5269,8.047],[93.5052,8.0296],[93.4994,7.9923],[93.484,8.0109],[93.4839,8.0886],[93.4623,8.1053],[93.4713,8.1206],[93.4564,8.1165],[93.4513,8.1697],[93.4878,8.1987],[93.4908,8.2198],[93.5188,8.2298],[93.5382,8.2269],[93.5349,8.1763]]],[[[93.0296,8.2539],[93.0138,8.271],[93.0308,8.2861],[93.0462,8.2694],[93.0296,8.2539]]],[[[93.3696,8.2539],[93.3538,8.271],[93.3708,8.2861],[93.3862,8.2694],[93.3696,8.2539]]],[[[93.1143,8.3577],[93.1148,8.275],[93.1821,8.2281],[93.1834,8.201],[93.1097,8.2255],[93.0744,8.2767],[93.0828,8.3384],[93.1143,8.3577]]],[[[92.8047,9.2164],[92.8203,9.1354],[92.7726,9.1189],[92.7737,9.1384],[92.7439,9.1219],[92.7204,9.2169],[92.7605,9.2171],[92.7668,9.2593],[92.8047,9.2164]]],[[[97.8451,9.424],[97.839,9.421],[97.8416,9.4253],[97.8451,9.424]]],[[[97.8293,9.4279],[97.824,9.4346],[97.83,9.4362],[97.8293,9.4279]]],[[[92.9813,12.0303],[92.9881,12.0428],[93.0139,12.0238],[93.0625,11.8912],[93.0508,11.8777],[93.0067,11.9381],[93.0172,11.9428],[92.987,11.9429],[92.9709,11.976],[92.9368,11.9903],[92.9734,12.0447],[92.9813,12.0303]]],[[[95.2682,15.9572],[95.2679,15.9568],[95.2686,15.9597],[95.2682,15.9572]]],[[[95.1064,15.9404],[95.1036,15.9645],[95.1207,15.9944],[95.1186,15.9526],[95.1064,15.9404]]],[[[94.3422,16.0097],[94.3157,15.9811],[94.2799,15.9896],[94.3322,16.0117],[94.3422,16.0097]]],[[[94.694,16.0017],[94.7016,16.0264],[94.7171,16.0504],[94.7165,16.0229],[94.694,16.0017]]],[[[94.8099,15.9774],[94.8423,16.0605],[94.8509,16.0611],[94.843,16.0],[94.8099,15.9774]]],[[[95.3318,15.9687],[95.2636,15.8636],[95.2411,15.8644],[95.273,15.9563],[95.28,16.022],[95.3198,16.079],[95.3453,16.0479],[95.3318,15.9687]]],[[[95.186,16.0354],[95.1301,16.0312],[95.1019,15.9782],[95.1066,16.0586],[95.1719,16.1117],[95.2106,16.1027],[95.1806,16.075],[95.186,16.0354]]],[[[95.1362,16.1514],[95.1272,16.1447],[95.1335,16.1565],[95.1362,16.1514]]],[[[95.3263,16.1146],[95.3113,16.1457],[95.3183,16.1719],[95.3666,16.2017],[95.3641,16.1565],[95.3263,16.1146]]],[[[95.8944,16.238],[95.8925,16.2383],[95.8943,16.2393],[95.8944,16.238]]],[[[94.6634,16.2766],[94.6618,16.2779],[94.6624,16.2782],[94.6634,16.2766]]],[[[95.9016,16.2554],[95.9031,16.273],[95.9078,16.2866],[95.9133,16.2749],[95.9016,16.2554]]],[[[94.6827,16.2978],[94.6777,16.3019],[94.6812,16.3123],[94.6827,16.2978]]],[[[95.9615,16.2951],[95.9577,16.313],[95.9577,16.3487],[95.9672,16.3175],[95.9615,16.2951]]],[[[95.9294,16.2326],[95.8996,16.2374],[95.9178,16.273],[95.913,16.3313],[95.9399,16.3786],[95.9563,16.3263],[95.952,16.2719],[95.9294,16.2326]]],[[[94.6537,16.3052],[94.6463,16.3297],[94.6823,16.38],[94.6851,16.3628],[94.6537,16.3052]]],[[[95.9728,16.2189],[95.9341,16.2175],[95.9557,16.2478],[95.9703,16.3017],[95.971,16.3446],[96.0005,16.382],[96.0736,16.335],[96.0758,16.3169],[95.9728,16.2189]]],[[[95.9343,16.3798],[95.9279,16.3735],[95.9334,16.3835],[95.9343,16.3798]]],[[[95.9515,16.3793],[95.9437,16.3836],[95.9477,16.39],[95.9515,16.3793]]],[[[94.6979,16.3684],[94.698,16.3876],[94.7024,16.3907],[94.7021,16.3785],[94.6979,16.3684]]],[[[95.9399,16.3965],[95.9325,16.3958],[95.9328,16.3981],[95.9399,16.3965]]],[[[96.0071,16.3859],[95.9936,16.3955],[95.9936,16.399],[96.0071,16.3859]]],[[[95.9658,16.3464],[95.9522,16.3705],[95.9586,16.4063],[95.9924,16.3898],[95.9658,16.3464]]],[[[97.6273,16.5418],[97.6435,16.5772],[97.6647,16.5554],[97.6616,16.5491],[97.6273,16.5418]]],[[[97.6573,16.5738],[97.6481,16.5787],[97.6515,16.5872],[97.6573,16.5738]]],[[[96.1866,16.4686],[96.1983,16.4864],[96.1788,16.5142],[96.1851,16.5578],[96.1782,16.581],[96.2256,16.5999],[96.3038,16.4614],[96.2944,16.4457],[96.3088,16.4524],[96.2683,16.3897],[96.1828,16.3475],[96.091,16.3517],[96.109,16.3796],[96.1432,16.3846],[96.1668,16.414],[96.1488,16.4548],[96.1585,16.453],[96.1804,16.4603],[96.1866,16.4686]]],[[[97.6359,16.5736],[97.6122,16.58],[97.6261,16.6184],[97.6445,16.6024],[97.6359,16.5736]]],[[[96.3107,16.85],[96.3016,16.8461],[96.3033,16.8612],[96.3107,16.85]]],[[[96.6759,17.3462],[96.6652,17.3236],[96.655,17.3372],[96.6759,17.3462]]],[[[96.778,17.3694],[96.7677,17.3663],[96.7776,17.3754],[96.778,17.3694]]],[[[96.8399,17.4047],[96.7884,17.3795],[96.7385,17.4383],[96.792,17.4828],[96.8078,17.4389],[96.8399,17.4047]]],[[[94.4856,17.7459],[94.4692,17.763],[94.4868,17.7781],[94.5028,17.7614],[94.4856,17.7459]]],[[[94.2452,18.533],[94.2458,18.5344],[94.2461,18.5343],[94.2452,18.533]]],[[[94.1131,18.8492],[94.1362,18.856],[94.1203,18.8111],[94.0733,18.8313],[94.0678,18.8476],[94.0863,18.8476],[94.1155,18.8697],[94.1131,18.8492]]],[[[94.0541,19.0332],[94.0549,19.0372],[94.0559,19.0357],[94.0541,19.0332]]],[[[94.0555,19.3461],[94.0403,19.3418],[94.0545,19.3488],[94.0555,19.3461]]],[[[93.814,19.7108],[93.8093,19.7149],[93.8121,19.7273],[93.814,19.7108]]],[[[93.704,19.7568],[93.69,19.7132],[93.6317,19.7182],[93.6559,19.7785],[93.6663,19.76],[93.6911,19.7895],[93.704,19.7568]]],[[[93.7368,19.7887],[93.6991,19.7962],[93.7435,19.8327],[93.7452,19.8097],[93.7368,19.7887]]],[[[93.7265,19.8506],[93.7327,19.8242],[93.678,19.7891],[93.6827,19.8215],[93.7265,19.8506]]],[[[93.6699,19.8526],[93.7012,19.8521],[93.6017,19.7153],[93.601,19.7906],[93.6301,19.8135],[93.6495,19.8618],[93.6699,19.8526]]],[[[93.7634,19.8635],[93.7925,19.8314],[93.7771,19.7662],[93.7124,19.7645],[93.7041,19.7837],[93.7335,19.7817],[93.7469,19.7906],[93.7545,19.8254],[93.7409,19.8453],[93.7634,19.8635]]],[[[93.6914,19.8883],[93.7357,19.8838],[93.7369,19.8696],[93.6902,19.8775],[93.6632,19.8581],[93.6545,19.8692],[93.6914,19.8883]]],[[[93.5855,19.8796],[93.5936,19.9044],[93.6058,19.9024],[93.5855,19.8796]]],[[[93.4705,19.9607],[93.4711,19.9623],[93.476,19.9617],[93.4705,19.9607]]],[[[93.4855,19.9635],[93.4747,19.9808],[93.4747,19.9909],[93.497,19.9809],[93.4855,19.9635]]],[[[93.4609,19.9581],[93.4445,19.9836],[93.4499,19.9931],[93.4635,19.9765],[93.4609,19.9581]]],[[[93.2347,19.8206],[93.1633,19.9447],[93.1267,20.0519],[93.1379,20.0533],[93.1809,19.9394],[93.2466,19.826],[93.2347,19.8206]]],[[[93.1285,20.062],[93.1188,20.0584],[93.1264,20.0691],[93.1285,20.062]]],[[[93.1585,20.0669],[93.1774,20.052],[93.1425,20.0706],[93.1585,20.0669]]],[[[93.3333,20.0521],[93.3316,20.0642],[93.339,20.0728],[93.3416,20.066],[93.3333,20.0521]]],[[[92.9967,20.1116],[93.0682,20.116],[93.0872,20.0864],[93.074,20.0765],[93.1218,20.0396],[93.14,19.9983],[93.1014,19.9783],[93.0992,19.9556],[93.1311,19.8553],[93.1672,19.8025],[93.0564,19.9521],[93.0421,20.0089],[92.9844,20.0694],[92.9746,20.1264],[92.9967,20.1116]]],[[[93.328,20.1069],[93.3118,20.1313],[93.313,20.1366],[93.3256,20.1211],[93.328,20.1069]]],[[[93.1267,20.079],[93.1119,20.0615],[93.0988,20.0779],[93.0949,20.0879],[93.1195,20.0869],[93.0855,20.1002],[93.0736,20.1239],[93.0877,20.1388],[93.1092,20.1359],[93.1267,20.079]]],[[[93.0895,20.1485],[93.064,20.134],[93.0889,20.1524],[93.0895,20.1485]]],[[[93.2991,20.0481],[93.2862,20.0946],[93.3034,20.1704],[93.3109,20.1152],[93.3309,20.0821],[93.2991,20.0481]]],[[[93.2119,20.1598],[93.2312,20.113],[93.2035,20.0935],[93.1892,20.0627],[93.1329,20.0846],[93.1113,20.1403],[93.0981,20.1542],[93.123,20.1798],[93.1717,20.1884],[93.1898,20.168],[93.2119,20.1598]]],[[[92.9286,20.1897],[92.9165,20.2045],[92.9252,20.2444],[92.9426,20.2506],[92.9504,20.2119],[92.9286,20.1897]]],[[[93.2528,20.1437],[93.2845,20.1445],[93.2744,20.0854],[93.2894,20.0741],[93.288,20.0454],[93.2073,20.0483],[93.2079,20.0922],[93.2467,20.116],[93.2292,20.1567],[93.1829,20.1916],[93.2081,20.2124],[93.2167,20.2346],[93.2528,20.2427],[93.2512,20.2636],[93.2766,20.2438],[93.3004,20.1904],[93.2837,20.158],[93.2528,20.1437]]],[[[93.009,20.2867],[93.0157,20.3142],[93.0091,20.2869],[93.009,20.2867]]],[[[93.2728,20.2683],[93.2347,20.2758],[93.2548,20.3126],[93.2708,20.3147],[93.2636,20.2969],[93.2728,20.2683]]],[[[93.3231,20.3224],[93.3364,20.2789],[93.3577,20.27],[93.3906,20.2092],[93.4112,20.1214],[93.4012,20.1103],[93.3839,20.1859],[93.396,20.1024],[93.3666,20.084],[93.3755,20.0386],[93.359,20.0423],[93.3556,20.0728],[93.3143,20.1414],[93.3067,20.2079],[93.2713,20.2575],[93.2776,20.2882],[93.2677,20.2972],[93.2839,20.3204],[93.3231,20.3224]]],[[[93.2914,20.353],[93.2847,20.3436],[93.2902,20.3544],[93.2914,20.353]]],[[[93.1334,20.3059],[93.1755,20.3243],[93.2152,20.3051],[93.143,20.2188],[93.1272,20.2428],[93.1284,20.2167],[93.1036,20.2139],[93.0167,20.1442],[92.9954,20.1441],[93.0012,20.2153],[93.0221,20.2687],[93.04,20.2773],[93.0446,20.3321],[93.12,20.3744],[93.1322,20.3447],[93.1199,20.3296],[93.1288,20.321],[93.1403,20.3166],[93.1334,20.3059]]],[[[92.8905,20.3915],[92.8718,20.3864],[92.8496,20.3968],[92.8766,20.4023],[92.8905,20.3915]]],[[[93.0225,20.4406],[93.0173,20.454],[93.0283,20.4594],[93.0225,20.4406]]],[[[92.8048,20.4859],[92.7928,20.4945],[92.7973,20.4995],[92.8048,20.4859]]],[[[93.1093,20.4186],[93.0785,20.4073],[93.0778,20.3641],[93.0435,20.3504],[93.0351,20.3909],[93.0851,20.5053],[93.1093,20.4186]]],[[[93.0411,20.4872],[93.0444,20.5033],[93.0566,20.5153],[93.0411,20.4872]]],[[[92.7132,20.572],[92.7008,20.5817],[92.698,20.6001],[92.7075,20.5919],[92.7132,20.572]]],[[[92.6335,20.6965],[92.6086,20.6838],[92.5844,20.7087],[92.6185,20.7141],[92.6353,20.7243],[92.6335,20.6965]]],[[[92.5627,20.7432],[92.5806,20.749],[92.5749,20.7317],[92.5864,20.7294],[92.5754,20.7211],[92.5491,20.7402],[92.5512,20.757],[92.5627,20.7432]]],[[[92.2969,20.9277],[92.2815,20.9489],[92.3007,20.9774],[92.3098,20.9528],[92.2969,20.9277]]],[[[92.3326,20.9939],[92.3553,20.9436],[92.3145,20.9072],[92.3036,20.9269],[92.3159,20.9543],[92.3067,20.9822],[92.3326,20.9939]]],[[[91.8869,21.4733],[91.8544,21.5131],[91.8439,21.6906],[91.8633,21.7436],[91.884,21.755],[91.9364,21.7342],[91.9822,21.6117],[91.965,21.5164],[91.8869,21.4733]]],[[[91.0272,22.0839],[91.0536,22.1842],[91.073,22.5075],[91.0897,22.524],[91.1739,22.3211],[91.1747,22.2186],[91.1417,22.1614],[91.0272,22.0839]]],[[[91.513,22.3456],[91.4753,22.3622],[91.4053,22.4828],[91.4328,22.6227],[91.46,22.6056],[91.5253,22.5094],[91.56,22.4353],[91.5619,22.3707],[91.513,22.3456]]],[[[96.1826,16.4697],[96.1417,16.4537],[96.1628,16.4177],[96.1359,16.3879],[96.1062,16.384],[96.084,16.3583],[96.0173,16.3845],[95.9964,16.4107],[95.9121,16.4109],[95.9275,16.385],[95.9059,16.3295],[95.8912,16.2446],[95.7785,16.1291],[95.7544,16.1266],[95.7403,16.1452],[95.7269,16.264],[95.7096,16.2731],[95.7229,16.2566],[95.7382,16.1126],[95.6554,15.9341],[95.5158,15.7881],[95.4568,15.7474],[95.4672,15.7451],[95.3713,15.7047],[95.283,15.721],[95.2708,15.8215],[95.2843,15.8523],[95.3399,15.88],[95.3404,15.9022],[95.3479,15.8805],[95.3809,15.8721],[95.3989,15.8768],[95.4126,15.9057],[95.3871,15.8768],[95.3534,15.8849],[95.3388,15.9054],[95.3356,15.8829],[95.2984,15.8701],[95.3478,15.9473],[95.364,16.0503],[95.3962,16.0616],[95.3628,16.0583],[95.3368,16.0993],[95.3705,16.1492],[95.3805,16.2171],[95.3966,16.2336],[95.3144,16.1801],[95.3053,16.143],[95.3266,16.0873],[95.2792,16.0394],[95.2352,15.9326],[95.2101,15.8565],[95.2245,15.7932],[95.1768,15.7679],[95.1123,15.8061],[95.1257,15.9908],[95.1415,16.0255],[95.1896,16.0246],[95.1927,16.0799],[95.2671,16.1495],[95.1911,16.1138],[95.2079,16.1777],[95.1799,16.1374],[95.1526,16.1389],[95.165,16.1263],[95.1328,16.1239],[95.1442,16.168],[95.1293,16.2051],[95.1408,16.2315],[95.1236,16.2067],[95.1323,16.1672],[95.1198,16.1153],[95.0867,16.0923],[95.0561,16.0355],[95.0701,15.944],[95.037,15.8038],[95.0011,15.7787],[94.9868,15.7848],[94.9842,15.8484],[94.9821,15.76],[94.9391,15.7409],[94.8428,15.7733],[94.832,15.7955],[94.8893,15.8274],[94.8713,15.8954],[94.9508,15.9456],[94.9443,15.9536],[94.8637,15.8967],[94.873,15.8249],[94.845,15.8298],[94.8373,15.8467],[94.8501,15.8762],[94.8384,15.9381],[94.8227,15.9431],[94.8619,16.0],[94.9145,16.0],[94.9218,16.0306],[94.9054,16.0747],[94.9333,16.0862],[94.9555,16.131],[95.0226,16.135],[95.0225,16.1603],[95.0557,16.1994],[95.0566,16.216],[95.0465,16.2391],[95.0693,16.2458],[95.1006,16.3006],[95.0652,16.2477],[95.0432,16.2457],[95.0479,16.1971],[95.0137,16.1616],[95.0162,16.1437],[94.9529,16.1388],[94.9304,16.0942],[94.8992,16.0736],[94.9154,16.0299],[94.8918,16.0061],[94.8785,16.0115],[94.8759,16.089],[94.8582,16.1139],[94.8888,16.1818],[94.9682,16.2052],[95.0257,16.2628],[95.0421,16.3097],[95.0635,16.3091],[95.0505,16.3334],[95.0165,16.2669],[94.9522,16.211],[94.8727,16.1872],[94.8388,16.1108],[94.8497,16.0723],[94.8395,16.0663],[94.7987,15.989],[94.7995,15.9677],[94.7194,15.8505],[94.6856,15.8371],[94.634,15.8613],[94.6005,15.9203],[94.7184,16.0],[94.7362,16.0636],[94.7845,16.0965],[94.763,16.1241],[94.7876,16.1316],[94.8071,16.1998],[94.8411,16.215],[94.8519,16.2428],[94.8035,16.2062],[94.7764,16.1448],[94.7554,16.1316],[94.7516,16.0937],[94.7196,16.0669],[94.6725,15.9888],[94.5736,15.9294],[94.5476,15.9527],[94.5826,16.0],[94.6173,16.0191],[94.6846,16.1148],[94.6806,16.2026],[94.7209,16.2029],[94.7589,16.2373],[94.7395,16.2574],[94.7567,16.2809],[94.7336,16.2564],[94.7496,16.2377],[94.7262,16.2305],[94.7192,16.2091],[94.6748,16.2152],[94.6636,16.2472],[94.6981,16.2454],[94.7087,16.2549],[94.7058,16.2669],[94.6983,16.2493],[94.6636,16.2541],[94.6677,16.2693],[94.6827,16.2978],[94.6881,16.3066],[94.6989,16.3555],[94.7372,16.354],[94.7548,16.3841],[94.7858,16.3564],[94.8134,16.3559],[94.8254,16.3704],[94.7948,16.3601],[94.7519,16.3905],[94.7347,16.3608],[94.7116,16.376],[94.7432,16.4022],[94.75,16.4194],[94.7586,16.4096],[94.7705,16.4093],[94.7839,16.4261],[94.7588,16.4138],[94.7478,16.4265],[94.7126,16.3942],[94.6965,16.4844],[94.7323,16.5056],[94.7463,16.569],[94.7898,16.5778],[94.8004,16.5907],[94.7465,16.5768],[94.7281,16.5145],[94.6898,16.4927],[94.6782,16.5132],[94.7012,16.5517],[94.7103,16.6135],[94.7423,16.6328],[94.7216,16.6872],[94.7447,16.6957],[94.7416,16.7301],[94.7218,16.7336],[94.738,16.7245],[94.7361,16.7004],[94.7173,16.6913],[94.7098,16.6537],[94.733,16.629],[94.6784,16.6436],[94.6989,16.6797],[94.6889,16.7396],[94.6936,16.6767],[94.6754,16.6933],[94.6823,16.6714],[94.6688,16.6524],[94.6511,16.6702],[94.6557,16.6579],[94.6743,16.6497],[94.6581,16.6276],[94.6913,16.6391],[94.7012,16.6217],[94.6924,16.5549],[94.6644,16.5184],[94.6796,16.3932],[94.6529,16.3403],[94.6233,16.338],[94.6403,16.3835],[94.6062,16.3372],[94.5998,16.2809],[94.5624,16.2586],[94.531,16.2921],[94.5464,16.308],[94.5119,16.2832],[94.5109,16.1802],[94.4218,16.0595],[94.3681,16.0546],[94.3419,16.0163],[94.2827,16.0],[94.25,15.9578],[94.1997,16.0325],[94.2285,16.252],[94.2433,16.2647],[94.2361,16.3486],[94.2484,16.348],[94.2469,16.3774],[94.3021,16.5179],[94.3275,16.5286],[94.3503,16.5688],[94.3316,16.6027],[94.3508,16.6207],[94.368,16.6149],[94.3563,16.6903],[94.3759,16.7572],[94.4039,16.7885],[94.3829,16.8922],[94.3885,16.907],[94.4165,16.8923],[94.4434,16.9306],[94.484,16.9432],[94.4782,16.9576],[94.443,16.9481],[94.4582,16.9806],[94.4567,17.0673],[94.4896,17.1177],[94.4558,17.1417],[94.4447,17.179],[94.4644,17.1882],[94.4993,17.1568],[94.5216,17.1687],[94.5363,17.1869],[94.5014,17.2162],[94.5083,17.2999],[94.5264,17.2768],[94.5464,17.2903],[94.5409,17.319],[94.5815,17.2885],[94.5917,17.3042],[94.5715,17.3171],[94.5654,17.4983],[94.5427,17.5553],[94.563,17.5931],[94.6099,17.5365],[94.6112,17.5501],[94.5769,17.5914],[94.5884,17.6192],[94.5692,17.6453],[94.5588,17.6362],[94.5416,17.6813],[94.5448,17.7349],[94.4897,17.7824],[94.4815,17.9029],[94.4375,17.9956],[94.4777,18.0065],[94.4847,18.0557],[94.4469,18.1691],[94.4198,18.1937],[94.4268,18.2197],[94.4075,18.2462],[94.3372,18.2416],[94.322,18.2642],[94.3284,18.302],[94.3911,18.2835],[94.4074,18.3107],[94.4023,18.3463],[94.3816,18.3656],[94.3376,18.3662],[94.3225,18.4359],[94.2492,18.5245],[94.2626,18.5486],[94.2513,18.5468],[94.2579,18.6085],[94.2402,18.6458],[94.1409,18.736],[94.1744,18.714],[94.1745,18.7283],[94.2197,18.7182],[94.28,18.7351],[94.253,18.7341],[94.2492,18.7552],[94.2388,18.7347],[94.2169,18.731],[94.2064,18.7431],[94.2243,18.7812],[94.2039,18.7527],[94.1916,18.7712],[94.1993,18.7931],[94.1831,18.7796],[94.1465,18.8144],[94.1762,18.8347],[94.1458,18.8353],[94.1523,18.8795],[94.1696,18.89],[94.1467,18.8848],[94.127,18.8567],[94.1169,18.8566],[94.1287,18.8786],[94.0553,18.8461],[94.0309,18.8633],[94.0439,18.8846],[94.0738,18.8676],[94.0906,18.8806],[94.1057,18.8997],[94.1353,18.892],[94.1086,18.9296],[94.113,18.9662],[94.0864,18.8798],[94.0718,18.8743],[94.031,18.9005],[94.0552,18.9352],[94.0364,18.9913],[94.0632,19.0376],[94.0586,19.0598],[94.1021,19.0766],[94.0897,19.085],[94.097,19.0986],[94.1228,19.0846],[94.109,19.1051],[94.1466,19.1191],[94.1161,19.1204],[94.0545,19.0754],[94.0272,19.0792],[94.0375,19.1067],[94.1385,19.1514],[94.1357,19.1796],[94.1295,19.1561],[94.1075,19.1513],[94.0927,19.1822],[94.0911,19.1484],[94.0648,19.1263],[94.0735,19.165],[94.0624,19.1881],[94.0568,19.1255],[94.0329,19.1296],[94.0492,19.2206],[94.0711,19.2339],[94.0469,19.2483],[94.0435,19.312],[94.0762,19.3746],[94.0686,19.3853],[94.0687,19.3706],[94.0394,19.3453],[94.0315,19.3281],[94.0355,19.2177],[94.0163,19.1814],[93.9914,19.2229],[94.0,19.1502],[93.9663,19.1395],[93.9438,19.1562],[93.938,19.2012],[93.9092,19.1995],[93.9677,19.1238],[93.9534,19.0885],[93.9557,19.0208],[93.9858,18.9614],[93.9324,18.8475],[93.8923,18.8923],[93.7728,18.9664],[93.7448,18.9689],[93.7151,19.0075],[93.6742,19.0102],[93.6659,19.0664],[93.6901,19.0844],[93.6976,19.1146],[93.7476,19.1212],[93.6942,19.1196],[93.6897,19.0961],[93.6629,19.0763],[93.6393,19.1378],[93.5992,19.1513],[93.5699,19.2256],[93.4722,19.3669],[93.4841,19.4091],[93.5135,19.4341],[93.5508,19.4324],[93.568,19.4163],[93.5514,19.4101],[93.5682,19.4046],[93.6041,19.4145],[93.6374,19.3542],[93.6343,19.3399],[93.6172,19.3482],[93.6001,19.3227],[93.6214,19.3411],[93.6672,19.3022],[93.6417,19.2398],[93.6446,19.2238],[93.6815,19.3001],[93.7215,19.2926],[93.6948,19.2819],[93.7269,19.2754],[93.7207,19.2445],[93.739,19.2567],[93.809,19.2263],[93.8733,19.2466],[93.9559,19.3061],[93.9498,19.3369],[93.9722,19.3514],[93.9817,19.385],[94.0108,19.381],[93.9834,19.4055],[93.9663,19.3584],[93.8921,19.2916],[93.8817,19.3076],[93.9191,19.3345],[93.9218,19.3772],[93.9111,19.3353],[93.8842,19.3196],[93.8889,19.3534],[93.8589,19.3878],[93.8824,19.3531],[93.8692,19.3068],[93.7751,19.301],[93.7392,19.345],[93.7463,19.3542],[93.7753,19.3403],[93.78,19.3542],[93.7704,19.3447],[93.7533,19.3575],[93.7323,19.3566],[93.7319,19.3826],[93.7121,19.4014],[93.7393,19.4088],[93.6516,19.4445],[93.6372,19.4889],[93.6546,19.4919],[93.6468,19.5122],[93.6875,19.5654],[93.7462,19.5422],[93.7688,19.4853],[93.7758,19.5037],[93.7933,19.5003],[93.8187,19.4643],[93.8567,19.4843],[93.8585,19.4404],[93.877,19.473],[93.9764,19.4188],[93.9971,19.4525],[93.9766,19.4629],[93.9536,19.4479],[93.9046,19.468],[93.9485,19.5081],[93.9383,19.564],[93.9324,19.4985],[93.9024,19.4885],[93.7768,19.5911],[93.8164,19.6042],[93.7935,19.614],[93.7602,19.5991],[93.722,19.6265],[93.7476,19.6525],[93.7943,19.6598],[93.7882,19.6815],[93.8193,19.7111],[93.8181,19.7292],[93.8066,19.7392],[93.7986,19.7014],[93.727,19.6711],[93.7059,19.7028],[93.7208,19.7483],[93.7914,19.7691],[93.7976,19.8329],[93.7863,19.8628],[93.7979,19.8666],[93.8012,19.891],[93.7933,19.916],[93.7937,19.873],[93.7386,19.8852],[93.7145,19.9079],[93.7457,19.9152],[93.7085,19.9375],[93.7091,19.9673],[93.702,19.9144],[93.6218,19.917],[93.5518,19.8885],[93.5419,19.9036],[93.5754,19.9201],[93.5867,19.9378],[93.5688,19.9212],[93.5416,19.924],[93.546,19.9363],[93.5161,19.9234],[93.5121,19.9438],[93.5365,19.9552],[93.5085,19.9613],[93.5071,19.9748],[93.5401,19.9909],[93.4818,19.9914],[93.4674,20.0443],[93.4585,20.0541],[93.4762,20.0609],[93.4548,20.0552],[93.4762,20.0065],[93.4661,19.9825],[93.4543,19.9959],[93.4392,19.9925],[93.4567,19.95],[93.416,19.9708],[93.3807,20.0659],[93.3841,20.0801],[93.4167,20.0799],[93.4148,20.1121],[93.4329,20.1052],[93.4126,20.1727],[93.3623,20.2736],[93.343,20.2772],[93.3234,20.3297],[93.2966,20.33],[93.3259,20.3859],[93.3254,20.4036],[93.2805,20.3482],[93.2801,20.3282],[93.2398,20.306],[93.2306,20.2739],[93.2464,20.2454],[93.2099,20.2347],[93.1825,20.1969],[93.117,20.1857],[93.2165,20.2861],[93.2259,20.3076],[93.2124,20.3278],[93.2512,20.4261],[93.2252,20.3917],[93.198,20.3871],[93.2235,20.376],[93.203,20.3226],[93.1243,20.3281],[93.1374,20.3425],[93.1321,20.3693],[93.1563,20.3591],[93.1748,20.3741],[93.1293,20.3762],[93.1742,20.3994],[93.1648,20.422],[93.1681,20.4002],[93.0939,20.3798],[93.0884,20.4013],[93.1111,20.4138],[93.1167,20.4272],[93.107,20.5041],[93.087,20.5198],[93.1051,20.5307],[93.0919,20.53],[93.0702,20.602],[93.0483,20.5975],[93.0217,20.6219],[93.0277,20.6439],[93.0055,20.6398],[93.0178,20.6122],[93.0757,20.5791],[93.0814,20.5488],[93.0626,20.5263],[93.035,20.5378],[93.0556,20.5207],[93.0195,20.4791],[93.0333,20.4857],[93.0301,20.4652],[93.0135,20.4606],[93.0216,20.3697],[93.0036,20.2889],[92.9618,20.2253],[92.945,20.2675],[92.915,20.2419],[92.9146,20.2122],[92.8862,20.2095],[92.9203,20.1809],[92.8889,20.1175],[92.8608,20.1211],[92.7733,20.195],[92.7873,20.2401],[92.7969,20.2102],[92.8305,20.1805],[92.8458,20.1823],[92.799,20.2141],[92.7988,20.2583],[92.9445,20.3156],[92.8982,20.3078],[92.8554,20.3867],[92.9108,20.3717],[92.9315,20.3863],[92.9417,20.3522],[92.9508,20.374],[92.9127,20.414],[92.9289,20.4212],[92.9326,20.4327],[92.8983,20.4822],[92.9285,20.4299],[92.9054,20.4152],[92.9158,20.3789],[92.8982,20.3848],[92.8867,20.4218],[92.8866,20.4039],[92.8571,20.4195],[92.8637,20.4051],[92.8467,20.4019],[92.8212,20.4462],[92.8337,20.4407],[92.8264,20.4527],[92.8383,20.4688],[92.8487,20.4591],[92.8451,20.4703],[92.8304,20.4725],[92.8275,20.4968],[92.8108,20.4924],[92.7961,20.5101],[92.7888,20.4998],[92.7349,20.5722],[92.7486,20.5782],[92.7524,20.5867],[92.7468,20.5986],[92.7266,20.6168],[92.7482,20.5876],[92.7282,20.5812],[92.6451,20.6906],[92.645,20.7277],[92.5832,20.7199],[92.591,20.732],[92.5697,20.7796],[92.5997,20.7956],[92.6024,20.8064],[92.5649,20.7864],[92.5494,20.8493],[92.5449,20.8118],[92.5713,20.7516],[92.5466,20.7631],[92.5441,20.743],[92.591,20.6851],[92.607,20.6776],[92.6358,20.6901],[92.6954,20.5825],[92.7155,20.5585],[92.72,20.4706],[92.7375,20.4264],[92.74,20.27],[92.726,20.2633],[92.638,20.4332],[92.4603,20.6497],[92.4661,20.6597],[92.377,20.6977],[92.3877,20.7048],[92.3611,20.7723],[92.3901,20.8168],[92.3787,20.8246],[92.3584,20.7833],[92.3353,20.8433],[92.3602,20.8647],[92.3366,20.8509],[92.3146,20.8826],[92.3164,20.901],[92.3619,20.9419],[92.3477,20.9871],[92.3313,20.9978],[92.2968,20.9872],[92.2864,21.0005],[92.2933,20.98],[92.2798,20.9694],[92.2619,21.0543],[92.2633,20.9192],[92.3303,20.7742],[92.3261,20.7433],[92.2989,20.7628],[92.2117,20.9253],[92.1881,21.0005],[92.1649,21.0005],[92.048,21.165],[92.048,21.285],[91.9553,21.4506],[92.0047,21.4961],[92.0394,21.6603],[92.0245,21.7036],[92.0118,21.6601],[91.9826,21.6508],[91.9619,21.6801],[91.9502,21.7916],[91.9014,21.7744],[91.9153,21.8628],[91.85,22.1094],[91.8193,22.1453],[91.8114,22.1936],[91.7719,22.2587],[91.7419,22.4047],[91.6583,22.5542],[91.5441,22.7025],[91.4558,22.79],[91.2546,22.6546],[91.2594,22.6264],[91.2307,22.5864],[91.1187,22.5775],[91.0419,22.5911],[91.0005,22.5755],[91.0005,24.0],[90.9758,24.0036],[91.0036,24.0478],[91.6445,24.3692],[91.9294,24.6892],[91.8311,24.8958],[91.3645,25.0195],[89.7942,25.1877],[89.7373,25.3485],[89.7271,25.4925],[89.8179,26.0686],[89.4599,26.4838],[88.3906,26.6034],[86.948,26.5309],[86.9022,26.5025],[86.886,26.4687],[86.738,26.4197],[86.3342,26.6078],[86.2066,26.5856],[86.1839,26.6081],[86.1408,26.6025],[86.1072,26.6172],[86.0364,26.6633],[85.9625,26.6472],[85.9436,26.6172],[85.8555,26.5703],[85.7405,26.6539],[85.7272,26.68],[85.7261,26.8017],[85.6303,26.8675],[85.328,26.7361],[85.2117,26.7669],[85.1844,26.8011],[84.855,26.9955],[84.8022,27.0153],[84.7503,27.0075],[84.6514,27.0417],[84.6453,27.0619],[84.6786,27.1306],[84.6861,27.1969],[84.6344,27.315],[84.595,27.3419],[84.2978,27.3883],[84.1472,27.5114],[84.0403,27.4447],[83.9225,27.4518],[83.8714,27.4403],[83.8583,27.3522],[83.6078,27.4692],[83.4183,27.4728],[83.3766,27.3753],[83.3161,27.3356],[83.2711,27.3461],[83.2558,27.3864],[83.1764,27.4489],[83.0375,27.4481],[82.7686,27.5017],[82.7444,27.5511],[82.7151,27.6958],[81.4622,28.1883],[81.4138,28.2515],[81.4307,28.3237],[81.502,28.3589],[82.1006,28.3107],[82.7475,28.3321],[82.889,28.3472],[83.4205,28.5598],[83.7364,28.5177],[83.8237,28.5352],[84.4529,28.3422],[84.6765,28.2486],[85.2369,28.2786],[85.9964,27.8897],[87.1325,27.4177],[88.0005,27.5207],[88.0005,27.9995],[88.9995,27.9995],[88.9995,27.7462],[89.6294,28.1606],[91.0681,28.4789],[91.7953,28.0564],[92.5492,27.9093],[93.1524,28.4088],[93.8687,28.6728],[94.9406,29.581],[96.0284,29.6988],[96.2727,29.5511],[96.715,28.6306],[97.0965,28.3478],[97.478,28.3478],[97.8539,28.4271],[98.0,28.32],[98.0,14.4825],[97.9851,14.4713],[97.9669,14.4417],[97.9654,14.4261],[97.9407,14.5262],[97.9058,14.5783],[97.9134,14.6195],[97.9047,14.6107],[97.8728,14.671],[97.8944,14.7054],[97.8855,14.723],[97.8678,14.7078],[97.8392,14.7187],[97.7918,14.8683],[97.8083,14.9501],[97.7969,14.9973],[97.8132,15.0062],[97.8244,15.0243],[97.791,14.9984],[97.7707,15.0183],[97.7958,15.0271],[97.8063,15.1503],[97.787,15.1795],[97.7951,15.1903],[97.7653,15.1971],[97.7387,15.2445],[97.7417,15.295],[97.7215,15.3328],[97.7275,15.3548],[97.7469,15.3561],[97.7465,15.3837],[97.7828,15.397],[97.7408,15.4871],[97.762,15.5281],[97.6994,15.7541],[97.7217,15.7717],[97.7179,15.8434],[97.6754,15.9144],[97.6103,15.949],[97.6035,15.9803],[97.5713,16.0108],[97.5582,16.0726],[97.5967,16.0851],[97.6143,16.0611],[97.6277,16.0504],[97.648,16.0442],[97.6654,16.0486],[97.6772,16.0283],[97.6969,16.0275],[97.6673,16.0521],[97.6202,16.0587],[97.6072,16.1036],[97.5978,16.097],[97.6438,16.27],[97.6155,16.3556],[97.6294,16.3873],[97.6141,16.4256],[97.6284,16.4532],[97.6253,16.5],[97.6621,16.5123],[97.6624,16.4765],[97.6823,16.4655],[97.7025,16.4706],[97.7044,16.4501],[97.7232,16.4502],[97.7198,16.4268],[97.7539,16.4141],[97.7355,16.4023],[97.7334,16.3833],[97.7784,16.3746],[97.7974,16.354],[97.7858,16.3396],[97.7874,16.3327],[97.8346,16.3236],[97.8518,16.2976],[97.8882,16.2839],[97.8521,16.3024],[97.8441,16.3234],[97.7924,16.3327],[97.8031,16.3534],[97.7905,16.3703],[97.7614,16.386],[97.7372,16.386],[97.7578,16.4177],[97.7289,16.4247],[97.7259,16.4541],[97.7068,16.4536],[97.7023,16.474],[97.6641,16.48],[97.6755,16.5007],[97.6684,16.5455],[97.7465,16.5616],[97.7089,16.5706],[97.6685,16.5549],[97.6441,16.6134],[97.6214,16.6433],[97.6077,16.581],[97.6264,16.5585],[97.6215,16.5187],[97.5325,16.5376],[97.4885,16.5387],[97.481,16.5218],[97.3928,16.5251],[97.3629,16.479],[97.3284,16.6589],[97.3466,16.6471],[97.3939,16.64],[97.4108,16.6424],[97.424,16.6584],[97.3927,16.6437],[97.3457,16.6544],[97.3406,16.6666],[97.3578,16.6694],[97.3476,16.6786],[97.328,16.667],[97.3301,16.6963],[97.3439,16.6953],[97.3419,16.7341],[97.3403,16.7095],[97.3207,16.7102],[97.3185,16.668],[97.2772,16.6862],[97.2398,16.7684],[97.2498,16.8225],[97.2349,16.8088],[97.2226,16.8417],[97.227,16.8573],[97.2664,16.8442],[97.2781,16.8505],[97.2659,16.8701],[97.265,16.8481],[97.2228,16.8672],[97.2092,16.8129],[97.1998,16.8823],[97.218,16.9017],[97.2191,16.9379],[97.1906,16.8911],[97.1748,16.8905],[97.1693,16.9107],[97.2072,17.008],[97.1547,17.0678],[97.1533,17.0952],[97.1909,17.1169],[97.2134,17.0874],[97.2645,17.1035],[97.2278,17.1029],[97.2063,17.1338],[97.1791,17.1294],[97.1365,17.1162],[97.1343,17.0806],[97.1143,17.0778],[97.0887,17.1652],[97.1067,17.1878],[97.0833,17.1817],[97.0592,17.2533],[97.0003,17.2667],[97.0091,17.3],[96.9116,17.357],[96.8832,17.4541],[96.8649,17.3961],[96.8417,17.3905],[96.849,17.4134],[96.8209,17.4331],[96.7918,17.4904],[96.7344,17.4353],[96.7735,17.3763],[96.7225,17.3474],[96.6924,17.3664],[96.6584,17.3486],[96.6488,17.3303],[96.6683,17.2691],[96.6962,17.2479],[96.7086,17.2545],[96.6769,17.2675],[96.6854,17.3453],[96.725,17.3382],[96.8366,17.3809],[96.8401,17.3648],[96.8443,17.3762],[96.8597,17.3615],[96.856,17.3431],[96.863,17.3527],[96.9111,17.3215],[96.8907,17.3119],[96.9129,17.3049],[96.9024,17.2717],[96.8335,17.2052],[96.8487,17.2008],[96.8771,17.1123],[96.9001,17.0889],[96.9121,17.0177],[96.8737,16.911],[96.8383,16.9272],[96.8509,16.9591],[96.8346,16.9511],[96.8316,16.9194],[96.8552,16.8877],[96.8359,16.9046],[96.8251,16.8937],[96.8072,16.9106],[96.7967,16.9065],[96.8333,16.8788],[96.8531,16.8372],[96.8078,16.7555],[96.7808,16.7818],[96.7746,16.7731],[96.8013,16.7397],[96.7864,16.7133],[96.5964,16.5366],[96.4938,16.5046],[96.3837,16.4966],[96.2847,16.5537],[96.2867,16.5918],[96.3336,16.6234],[96.4268,16.6076],[96.4699,16.6127],[96.3313,16.6287],[96.2874,16.6001],[96.2778,16.5775],[96.2638,16.6474],[96.2348,16.6789],[96.2228,16.7542],[96.3156,16.8334],[96.3456,16.8333],[96.3941,16.8594],[96.4084,16.8552],[96.4861,16.8699],[96.5119,16.8882],[96.4839,16.8731],[96.3948,16.864],[96.3244,16.8384],[96.32,16.869],[96.3477,16.9059],[96.3007,16.8637],[96.298,16.8408],[96.2776,16.8693],[96.3037,16.8261],[96.2035,16.7632],[96.1847,16.7765],[96.195,16.7898],[96.1915,16.7999],[96.2124,16.7983],[96.2246,16.8111],[96.2182,16.8412],[96.2089,16.8458],[96.2203,16.8109],[96.1917,16.8059],[96.1802,16.7767],[96.1973,16.7597],[96.1288,16.7711],[96.1207,16.8138],[96.1155,16.8122],[96.1319,16.7589],[96.119,16.7566],[96.1921,16.7409],[96.2157,16.6707],[96.2438,16.6493],[96.2365,16.6078],[96.1735,16.5831],[96.1736,16.5163],[96.1926,16.4892],[96.1776,16.483],[96.1826,16.4697]]],[[[98.0,14.2877],[97.9679,14.3955],[98.0,14.4789],[98.0,14.2877]]]]}}