{"type":"Feature","properties":{"speciesId":56,"category":"DD","source":"IUCN Red List","simplifyTol":0.01,"clippedToSubcontinent":true},"geometry":{"type":"MultiPolygon","coordinates":[[[[93.6249,8.4658],[93.6118,8.4665],[93.6052,8.4193],[93.6065,8.5042],[93.6249,8.4658]]],[[[93.0391,8.441],[93.0266,8.4475],[93.0292,8.4697],[93.0422,8.4652],[93.0391,8.441]]],[[[93.6379,8.391],[93.6287,8.3867],[93.6256,8.3915],[93.6379,8.391]]],[[[93.1143,8.3577],[93.1148,8.275],[93.1821,8.2281],[93.1834,8.201],[93.1097,8.2255],[93.0744,8.2767],[93.0827,8.3384],[93.1143,8.3577]]],[[[93.221,8.2279],[93.1996,8.2409],[93.2058,8.2633],[93.2216,8.2491],[93.221,8.2279]]],[[[93.5349,8.1763],[93.513,8.1811],[93.4996,8.1446],[93.5464,8.0824],[93.5445,8.0392],[93.5269,8.0471],[93.5052,8.0296],[93.4994,7.9924],[93.484,8.0109],[93.4839,8.0886],[93.4623,8.1053],[93.4713,8.1206],[93.4564,8.1165],[93.4513,8.1697],[93.4878,8.1987],[93.4908,8.2198],[93.5188,8.2298],[93.5382,8.2269],[93.5435,8.2092],[93.5349,8.1763]]],[[[93.5263,8.0229],[93.5448,7.9988],[93.5413,8.0197],[93.5585,8.0212],[93.5727,7.9741],[93.5174,7.9675],[93.5078,7.9871],[93.5263,8.0229]]],[[[93.4042,8.0017],[93.4059,7.9626],[93.3233,7.979],[93.3268,8.0],[93.3713,8.0189],[93.4042,8.0017]]]]}}