{"type":"Feature","properties":{"speciesId":566,"category":"LC","source":"IUCN Red List","simplifyTol":0.01,"clippedToSubcontinent":true},"geometry":{"type":"MultiPolygon","coordinates":[[[[77.3745,8.655],[77.485,8.5998],[77.5306,8.5976],[77.5563,8.568],[77.496,8.5445],[77.497,8.5126],[77.5292,8.4672],[77.5292,8.4119],[77.5148,8.394],[77.5402,8.3622],[77.5402,8.3125],[77.5207,8.2892],[77.5015,8.2848],[77.4242,8.329],[77.264,8.5114],[77.1921,8.6053],[77.1648,8.6787],[77.1094,8.738],[77.0995,8.7855],[77.1331,8.8013],[77.1148,8.8539],[77.1203,8.887],[77.1905,8.9714],[77.2916,8.9257],[77.3413,8.7931],[77.3328,8.7242],[77.3131,8.6945],[77.3303,8.655],[77.3745,8.655]]],[[[77.4739,10.3732],[77.5857,10.3559],[77.6701,10.4016],[77.7685,10.3876],[77.7999,10.3566],[77.7943,10.2682],[77.7225,10.2406],[77.7004,10.213],[77.6452,10.213],[77.5488,10.1679],[77.5071,10.0638],[77.4522,10.0308],[77.3854,10.0203],[77.3468,10.0472],[77.287,10.0572],[77.2363,10.0196],[77.1811,10.003],[77.0982,10.003],[76.9654,10.0537],[76.9144,10.1116],[76.9104,10.3511],[76.9767,10.4505],[77.054,10.4782],[77.1977,10.4671],[77.2606,10.3893],[77.3327,10.3542],[77.4739,10.3732]]]]}}