{"type":"Feature","properties":{"speciesId":57,"category":"LC","source":"IUCN Red List","simplifyTol":0.01,"clippedToSubcontinent":true},"geometry":{"type":"Polygon","coordinates":[[[70.5497,26.8359],[70.1216,26.8979],[69.9437,26.94],[69.758,27.0006],[69.6619,27.0546],[69.6381,27.0928],[69.6434,27.1402],[69.6829,27.1929],[69.9859,27.4326],[70.0136,27.4708],[70.0781,27.6974],[70.1005,27.729],[70.3916,27.9292],[70.4443,27.9437],[70.4838,27.8976],[70.5668,27.7369],[70.6379,27.679],[70.7512,27.6526],[71.1161,27.6421],[71.1503,27.6131],[71.1569,27.5525],[71.099,27.4656],[71.041,27.4208],[70.8118,27.1626],[70.5905,26.8531],[70.5497,26.8359]]]}}