{"type":"Feature","properties":{"speciesId":572,"category":"LC","source":"IUCN Red List","simplifyTol":0.01,"clippedToSubcontinent":true},"geometry":{"type":"Polygon","coordinates":[[[94.0289,29.0945],[94.2973,29.4434],[94.6324,29.5996],[95.0389,29.649],[95.2243,29.5667],[95.3503,29.3761],[95.3016,29.1405],[95.1232,29.0903],[94.8633,28.7617],[94.6681,28.5516],[94.589,28.5149],[94.6538,28.3048],[94.7042,27.9642],[94.9369,27.5131],[95.1748,27.2026],[94.1328,26.6495],[93.6887,25.9202],[93.2589,25.7646],[93.158,25.142],[92.5808,24.5669],[90.8754,24.6189],[89.6419,25.0792],[89.2092,25.9264],[88.9913,26.4206],[88.3822,26.5889],[87.6793,26.6197],[86.7094,26.7154],[85.4893,27.0806],[84.8775,27.4261],[84.7529,27.8339],[85.0024,28.2375],[86.1122,27.9262],[87.4248,27.8161],[88.4666,28.0135],[88.8183,28.0342],[89.1581,27.9773],[88.6705,27.1704],[88.8347,26.9081],[89.3766,26.6363],[89.8903,26.5369],[90.8903,26.6213],[92.1496,26.6759],[92.3227,26.9019],[92.0606,27.7611],[92.945,28.2557],[93.2745,28.6103],[93.3039,29.0144],[93.8136,29.1394],[94.0289,29.0945]]]}}