{"type":"Feature","properties":{"speciesId":574,"category":"DD","source":"IUCN Red List","simplifyTol":0.01,"clippedToSubcontinent":true},"geometry":{"type":"Polygon","coordinates":[[[84.2401,28.983],[84.6527,28.8596],[85.5199,28.7765],[85.8771,28.8853],[86.2147,28.7856],[86.7462,28.0931],[87.5619,27.8673],[88.2947,28.0953],[89.2528,27.9764],[91.0145,27.8674],[91.3553,27.6402],[91.8946,27.7209],[92.0665,27.6712],[92.4597,27.2299],[92.527,27.1259],[92.527,27.0464],[92.2762,26.973],[90.8998,26.9241],[90.0923,26.9852],[88.9056,27.0097],[88.3306,26.9547],[87.9696,27.0403],[87.5843,27.1688],[85.3453,27.5419],[85.1315,27.6163],[84.2876,28.1238],[83.7153,28.7753],[83.2818,29.503],[83.3293,29.5035],[84.06,28.883],[84.2954,28.8654],[84.2401,28.983]]]}}