{"type":"Feature","properties":{"speciesId":575,"category":"LC","source":"IUCN Red List","simplifyTol":0.01,"clippedToSubcontinent":true},"geometry":{"type":"MultiPolygon","coordinates":[[[[67.4129,24.0593],[67.4118,24.0805],[67.4227,24.0664],[67.4129,24.0593]]],[[[67.4014,24.0464],[67.378,24.0656],[67.395,24.0662],[67.371,24.0873],[67.3626,24.1323],[67.4118,24.1233],[67.4248,24.1292],[67.3828,24.1326],[67.3453,24.1557],[67.3347,24.1763],[67.3545,24.1828],[67.3346,24.214],[67.342,24.2351],[67.3625,24.2385],[67.4125,24.2295],[67.4208,24.2098],[67.4312,24.2214],[67.4317,24.2472],[67.4205,24.2173],[67.4143,24.234],[67.3501,24.2542],[67.3613,24.2756],[67.3814,24.2732],[67.3946,24.287],[67.3585,24.2837],[67.3259,24.2448],[67.2972,24.3073],[67.3299,24.3339],[67.3596,24.2907],[67.3386,24.3323],[67.3466,24.3428],[67.4109,24.3113],[67.4421,24.316],[67.449,24.3321],[67.4906,24.3218],[67.5146,24.3424],[67.5291,24.3345],[67.5124,24.3525],[67.4873,24.3263],[67.4573,24.3417],[67.4343,24.3227],[67.3665,24.3509],[67.369,24.3857],[67.4177,24.3864],[67.4229,24.3603],[67.4278,24.3918],[67.4158,24.4014],[67.3605,24.3877],[67.3491,24.4005],[67.4169,24.4367],[67.4646,24.4234],[67.4727,24.4268],[67.3932,24.4497],[67.3757,24.4337],[67.3834,24.4544],[67.3608,24.4601],[67.4009,24.4844],[67.4218,24.4644],[67.4504,24.4601],[67.455,24.4655],[67.4366,24.4788],[67.4213,24.4707],[67.4039,24.5064],[67.412,24.5215],[67.3915,24.5151],[67.4022,24.493],[67.3743,24.472],[67.3424,24.4591],[67.3099,24.4622],[67.3258,24.4652],[67.3294,24.4856],[67.3523,24.4797],[67.3702,24.5304],[67.3975,24.5246],[67.3987,24.5467],[67.3684,24.5359],[67.3552,24.5459],[67.3807,24.571],[67.4136,24.5856],[67.4396,24.5746],[67.4071,24.5894],[67.3234,24.5491],[67.3048,24.5523],[67.3149,24.5579],[67.2998,24.5822],[67.3203,24.5757],[67.3231,24.5906],[67.371,24.608],[67.3838,24.6377],[67.4069,24.6357],[67.4143,24.6493],[67.4405,24.6404],[67.4532,24.6537],[67.4428,24.6478],[67.4206,24.6728],[67.4325,24.6982],[67.3932,24.7046],[67.3515,24.7423],[67.3493,24.7629],[67.4528,24.776],[67.467,24.7541],[67.4634,24.7761],[67.3755,24.7834],[67.3296,24.7712],[67.2456,24.7849],[67.2199,24.8141],[67.1748,24.7814],[67.1547,24.7937],[67.1224,24.7788],[67.1049,24.7976],[67.1023,24.7781],[67.0908,24.7921],[67.0931,24.7569],[67.0217,24.8083],[66.9758,24.8108],[66.9654,24.8414],[66.9825,24.8578],[66.9538,24.861],[66.9122,24.8447],[66.9578,24.8258],[66.9792,24.7917],[66.862,24.8568],[66.8191,24.8344],[66.7562,24.8437],[66.6833,24.8214],[66.6514,24.8293],[66.6843,24.8757],[66.7217,24.893],[66.6869,24.8927],[66.6754,24.9236],[66.7004,24.9496],[66.7041,25.0826],[66.7386,25.1422],[66.742,25.1832],[66.6783,25.2711],[66.5501,25.3652],[66.5553,25.3922],[66.5661,25.371],[66.58,25.374],[66.5783,25.4114],[66.5942,25.425],[66.56,25.4529],[66.5576,25.5381],[66.5289,25.5422],[66.5159,25.5634],[66.5428,25.6148],[66.5381,25.6439],[66.5021,25.5767],[66.4799,25.5877],[66.4672,25.5699],[66.4552,25.6194],[66.4454,25.5972],[66.3984,25.584],[66.3676,25.6159],[66.3105,25.61],[66.2969,25.6239],[66.2314,25.5902],[66.1964,25.6014],[66.1337,25.5442],[66.1328,25.5078],[66.0925,25.4805],[66.1956,25.4889],[66.2848,25.5421],[66.3141,25.5377],[66.3349,25.5531],[66.358,25.5248],[66.3972,25.5215],[66.3943,25.5066],[66.4265,25.4826],[66.4752,25.4995],[66.5174,25.492],[66.4928,25.4478],[66.5284,25.4158],[66.5133,25.4045],[66.36,25.4601],[66.2765,25.4678],[66.0391,25.4266],[66.0238,25.4437],[66.0094,25.4361],[66.0144,25.4209],[65.9549,25.4131],[65.8387,25.4194],[65.773,25.3834],[65.6357,25.3494],[65.5174,25.3712],[65.5435,25.4198],[65.5057,25.3761],[65.3718,25.39],[65.3381,25.3805],[65.3189,25.3966],[65.2545,25.3817],[65.2268,25.3178],[65.1564,25.306],[64.9953,25.3252],[64.8271,25.3189],[64.7806,25.3477],[64.7927,25.3239],[64.7262,25.3167],[64.6525,25.2732],[64.6402,25.2055],[64.7005,25.1866],[64.6623,25.16],[64.5838,25.1604],[64.611,25.2166],[64.5436,25.2704],[64.406,25.2382],[64.3405,25.2767],[64.2392,25.308],[64.2462,25.3324],[64.2233,25.318],[64.0838,25.3294],[64.0927,25.3664],[64.1175,25.3648],[64.081,25.3965],[64.1419,25.4112],[64.1381,25.4322],[64.1651,25.4533],[64.1243,25.439],[64.1174,25.4544],[64.0642,25.4452],[64.0473,25.4314],[64.0287,25.465],[64.0287,25.444],[63.9934,25.4298],[64.02,25.424],[64.0058,25.4065],[63.9744,25.4234],[63.9674,25.4073],[63.9913,25.4099],[64.0042,25.3843],[64.0208,25.4094],[64.0361,25.4061],[64.072,25.3631],[64.0643,25.3283],[63.9296,25.3371],[63.758,25.3787],[63.6059,25.3706],[63.5366,25.3462],[63.4811,25.2844],[63.4561,25.2951],[63.5039,25.2262],[63.4927,25.1981],[63.1395,25.2577],[63.0071,25.2106],[62.6949,25.2595],[62.4945,25.2528],[62.4637,25.2364],[62.4707,25.2126],[62.4118,25.2054],[62.3562,25.1699],[62.3394,25.1132],[62.3897,25.1037],[62.3769,25.0961],[62.2734,25.098],[62.3202,25.1205],[62.3149,25.1687],[62.2651,25.2048],[62.2034,25.215],[62.0735,25.1784],[62.0666,25.1547],[62.1054,25.1042],[62.0984,25.0961],[61.9847,25.1096],[61.8747,25.1027],[61.859,25.0955],[61.8449,25.0434],[61.7644,25.0327],[61.7242,25.054],[61.7575,25.0983],[61.7476,25.132],[61.769,25.124],[61.7831,25.1418],[61.7791,25.1926],[61.7523,25.1687],[61.6899,25.2053],[61.6592,25.1869],[61.6337,25.2028],[61.5696,25.1845],[61.603,25.2043],[61.5627,25.2175],[61.5702,25.2398],[61.5354,25.2375],[61.5557,25.2192],[61.5284,25.2069],[61.5556,25.1929],[61.4999,25.1944],[61.5279,25.1896],[61.4889,25.1778],[61.4893,25.192],[61.4541,25.1854],[61.4906,25.1719],[61.4918,25.1583],[61.4742,25.1072],[61.4048,25.0874],[61.4146,25.064],[61.1805,25.1258],[61.1673,25.1667],[61.0614,25.2019],[60.7418,25.273],[60.6056,25.2883],[60.6205,25.3072],[60.591,25.352],[60.6039,25.3785],[60.5932,25.4162],[60.5315,25.4464],[60.4296,25.4201],[60.4004,25.38],[60.3961,25.3504],[60.4466,25.3324],[60.4393,25.3188],[60.4586,25.2924],[60.4146,25.3183],[60.3057,25.3399],[60.2946,25.3894],[60.3257,25.3705],[60.3042,25.4029],[60.2014,25.3782],[60.1852,25.3524],[60.2072,25.3343],[60.1971,25.3286],[60.1103,25.3519],[60.108,25.3733],[60.0875,25.3822],[60.0,25.3822],[60.0,36.9173],[60.7675,36.4858],[61.0863,36.2307],[61.1819,35.9119],[61.15,35.5134],[61.425,35.5445],[63.1516,36.0493],[64.1938,36.4634],[64.423,36.8501],[64.9348,37.1917],[65.2243,37.2496],[65.8785,37.2914],[66.4414,37.1278],[66.4475,37.0305],[66.1783,36.6918],[65.4453,36.2386],[64.368,35.2283],[63.8603,34.5064],[63.1984,34.1504],[63.3178,33.9832],[63.3767,33.944],[63.2785,33.8654],[64.1326,32.0351],[65.1087,32.0351],[66.2068,32.2792],[66.8169,33.1333],[67.3049,33.7434],[68.037,34.4754],[68.8911,34.8415],[69.7452,34.7195],[70.6448,34.4957],[71.8195,34.1094],[73.1616,33.3773],[74.6249,32.7676],[75.8459,32.5232],[77.0661,32.0351],[78.1642,30.815],[78.1642,27.8867],[77.7982,26.9105],[77.1881,25.6904],[75.9679,24.7143],[74.0157,23.4941],[72.0635,22.8841],[70.2545,22.7118],[70.2514,22.7324],[70.271,22.7276],[70.3038,22.7581],[70.3092,22.7981],[70.3678,22.8932],[70.4429,22.9596],[70.4865,23.0526],[70.4856,23.0887],[70.4091,23.0363],[70.4029,23.0605],[70.3715,23.0587],[70.3624,23.0402],[70.3943,23.0061],[70.2917,22.9434],[70.2364,22.9726],[70.2032,22.9444],[70.1582,22.9416],[70.1211,22.9586],[70.1318,22.9827],[70.1208,22.9851],[70.104,22.9584],[70.1328,22.9342],[70.0933,22.9021],[70.0647,22.913],[69.8084,22.8462],[69.7905,22.8205],[69.7341,22.7987],[69.7163,22.7535],[69.6951,22.7645],[69.7062,22.7366],[69.6524,22.7579],[69.6279,22.8021],[69.6366,22.7697],[69.6022,22.7735],[69.6118,22.7581],[69.596,22.7569],[69.5709,22.7617],[69.5553,22.7984],[69.5052,22.7837],[69.4542,22.8002],[69.493,22.775],[69.4671,22.7707],[69.3616,22.8195],[69.3614,22.8319],[69.2808,22.8226],[69.1975,22.8334],[68.933,22.9839],[68.8553,23.0358],[68.8515,23.0543],[68.839,23.0442],[68.8097,23.0733],[68.7461,23.0885],[68.7673,23.1297],[68.7339,23.1034],[68.6376,23.1626],[68.636,23.1777],[68.6922,23.1393],[68.7255,23.1477],[68.6553,23.1675],[68.6515,23.1936],[68.6239,23.1862],[68.5846,23.221],[68.584,23.2396],[68.6458,23.2582],[68.622,23.2903],[68.6509,23.2984],[68.6146,23.2984],[68.611,23.2713],[68.5884,23.2516],[68.5406,23.2667],[68.5446,23.2881],[68.559,23.2898],[68.5525,23.3121],[68.5859,23.3059],[68.5844,23.3196],[68.6165,23.3244],[68.6182,23.3506],[68.6142,23.3278],[68.561,23.3445],[68.5141,23.3201],[68.4999,23.3492],[68.4781,23.349],[68.5051,23.3965],[68.4955,23.4023],[68.5195,23.4172],[68.4855,23.4156],[68.4738,23.3863],[68.436,23.4214],[68.4403,23.3894],[68.3937,23.4216],[68.3886,23.4545],[68.4473,23.4768],[68.4187,23.5359],[68.4552,23.5719],[68.4399,23.5677],[68.4662,23.5997],[68.4708,23.6367],[68.5457,23.7129],[68.6186,23.7489],[68.6581,23.7992],[68.6794,23.7915],[68.7146,23.824],[68.766,23.8422],[68.7823,23.8606],[68.7697,23.8759],[68.7628,23.851],[68.726,23.8369],[68.6554,23.8397],[68.5235,23.7464],[68.5192,23.7731],[68.4902,23.7327],[68.4329,23.7337],[68.3763,23.619],[68.3827,23.6079],[68.3105,23.5674],[68.2657,23.5683],[68.2784,23.6004],[68.2649,23.6325],[68.2261,23.6465],[68.2611,23.6546],[68.3259,23.7259],[68.291,23.7243],[68.2403,23.6712],[68.1867,23.723],[68.2112,23.7698],[68.2074,23.8372],[68.2221,23.8313],[68.2408,23.8493],[68.2556,23.835],[68.2675,23.8377],[68.2573,23.876],[68.2747,23.9179],[68.3065,23.9135],[68.3188,23.9235],[68.2745,23.9371],[68.2377,23.9001],[68.1856,23.8863],[68.1897,23.851],[68.1361,23.8695],[68.1427,23.8406],[68.1035,23.8555],[68.1044,23.8432],[68.076,23.8332],[68.053,23.8537],[68.0553,23.903],[68.042,23.9118],[68.0277,23.8692],[68.0446,23.7949],[67.9962,23.7867],[67.9202,23.8517],[67.9298,23.829],[67.872,23.8586],[67.8655,23.9024],[67.9027,23.9647],[67.8939,23.975],[67.8456,23.9091],[67.8274,23.8136],[67.709,23.8562],[67.7502,23.8014],[67.652,23.7945],[67.6269,23.8088],[67.6261,23.8423],[67.5841,23.8388],[67.5762,23.8889],[67.5651,23.8682],[67.5355,23.893],[67.5343,23.8753],[67.4655,23.9066],[67.4626,23.9205],[67.491,23.9139],[67.4855,23.9373],[67.4661,23.9453],[67.5007,23.9698],[67.4224,23.9449],[67.4361,23.9916],[67.4083,24.0],[67.4218,24.0024],[67.4092,24.0391],[67.438,24.0636],[67.4183,24.0872],[67.4465,24.1202],[67.4088,24.084],[67.4014,24.0464]]]]}}