{"type":"Feature","properties":{"speciesId":576,"category":"LC","source":"IUCN Red List","simplifyTol":0.01,"clippedToSubcontinent":true},"geometry":{"type":"MultiPolygon","coordinates":[[[[68.8349,23.0492],[68.8307,23.0543],[68.835,23.0492],[68.8349,23.0492]]],[[[68.8499,23.0539],[68.8515,23.0544],[68.8515,23.0544],[68.8499,23.0539]]],[[[68.8149,23.062],[68.8149,23.062],[68.8142,23.0633],[68.8149,23.062]]],[[[68.8074,23.0663],[68.8097,23.0734],[68.8097,23.0733],[68.8074,23.0663]]],[[[68.7642,23.0796],[68.8067,23.0657],[68.7568,23.0833],[68.7642,23.0796]]],[[[68.7398,23.1047],[68.7481,23.111],[68.7532,23.1166],[68.7481,23.111],[68.7398,23.1047]]],[[[68.7718,23.1176],[68.7568,23.1082],[68.7718,23.1176],[68.7728,23.1202],[68.7718,23.1176]]],[[[68.759,23.1229],[68.7604,23.1256],[68.759,23.1229],[68.759,23.1229]]],[[[68.7713,23.1273],[68.7713,23.1273],[68.7663,23.1195],[68.7655,23.1199],[68.7713,23.1273]]],[[[68.7664,23.1263],[68.7673,23.1297],[68.7673,23.1297],[68.7664,23.1263]]],[[[68.763,23.1308],[68.763,23.1308],[68.7632,23.1309],[68.763,23.1308]]],[[[68.7127,23.1193],[68.7127,23.1193],[68.686,23.1328],[68.7127,23.1193]]],[[[68.7001,23.1386],[68.6947,23.1391],[68.7138,23.141],[68.7001,23.1386]]],[[[68.7186,23.1419],[68.7204,23.1434],[68.7187,23.1419],[68.7186,23.1419]]],[[[68.716,23.1494],[68.7082,23.1496],[68.7244,23.1516],[68.716,23.1494]]],[[[68.6976,23.1518],[68.6976,23.1518],[68.6943,23.1537],[68.6976,23.1518]]],[[[68.6376,23.1626],[68.6376,23.1626],[68.6366,23.1644],[68.6376,23.1626]]],[[[68.633,23.1769],[68.633,23.177],[68.633,23.177],[68.633,23.1769]]],[[[68.6546,23.1753],[68.668,23.1676],[68.6748,23.1615],[68.6553,23.1676],[68.6546,23.1753],[68.6479,23.1757],[68.6468,23.1776],[68.6546,23.1753]]],[[[68.646,23.1675],[68.636,23.1777],[68.636,23.1777],[68.646,23.1675]]],[[[68.6281,23.1852],[68.6281,23.1852],[68.6293,23.1857],[68.6281,23.1852]]],[[[68.6454,23.18],[68.6454,23.18],[68.6519,23.189],[68.6454,23.18]]],[[[68.6354,23.1933],[68.6354,23.1933],[68.6384,23.1938],[68.6354,23.1933]]],[[[68.6427,23.19],[68.6427,23.19],[68.648,23.1943],[68.6427,23.19]]],[[[68.6515,23.1936],[68.6515,23.1936],[68.6485,23.1947],[68.6515,23.1936]]],[[[68.5879,23.2165],[68.6239,23.1862],[68.6012,23.2039],[68.5892,23.2147],[68.5879,23.2165]]],[[[68.5811,23.2341],[68.5811,23.2341],[68.582,23.2358],[68.5811,23.2341]]],[[[68.5992,23.2374],[68.5991,23.2374],[68.5997,23.2403],[68.5992,23.2374]]],[[[68.5869,23.2411],[68.5869,23.241],[68.585,23.2401],[68.5869,23.2411]]],[[[68.5529,23.253],[68.5529,23.253],[68.5602,23.253],[68.5529,23.253]]],[[[68.6043,23.2437],[68.6245,23.2482],[68.6318,23.2534],[68.6245,23.2482],[68.6043,23.2437]]],[[[68.5933,23.2556],[68.5933,23.2556],[68.595,23.259],[68.5933,23.2556]]],[[[68.6458,23.2582],[68.6458,23.2582],[68.6409,23.2639],[68.6458,23.2582]]],[[[68.5479,23.2586],[68.5406,23.2668],[68.5406,23.2668],[68.5479,23.2586]]],[[[68.5439,23.2742],[68.5439,23.2742],[68.5439,23.2742],[68.5439,23.2742]]],[[[68.6244,23.272],[68.6244,23.272],[68.6228,23.2781],[68.6244,23.272]]],[[[68.6063,23.2845],[68.6063,23.2845],[68.6066,23.2873],[68.6063,23.2845]]],[[[68.5433,23.2849],[68.5446,23.2882],[68.5446,23.2882],[68.5433,23.2849]]],[[[68.5478,23.2885],[68.5478,23.2885],[68.5456,23.2883],[68.5478,23.2885]]],[[[68.5583,23.2871],[68.5595,23.2887],[68.5595,23.2887],[68.5583,23.2871]]],[[[68.6216,23.2873],[68.622,23.2903],[68.622,23.2903],[68.6216,23.2873]]],[[[68.5593,23.2892],[68.5584,23.291],[68.5585,23.291],[68.5593,23.2892]]],[[[68.5546,23.293],[68.5477,23.2965],[68.5477,23.2965],[68.5546,23.293]]],[[[68.6333,23.2948],[68.646,23.2961],[68.6509,23.2985],[68.646,23.2961],[68.6333,23.2948]]],[[[68.6233,23.3009],[68.6233,23.3009],[68.628,23.3013],[68.6233,23.3009]]],[[[68.6449,23.3009],[68.6449,23.3009],[68.639,23.3014],[68.6449,23.3009]]],[[[68.5519,23.3101],[68.5525,23.3122],[68.5525,23.3122],[68.5519,23.3101]]],[[[68.5869,23.3066],[68.5846,23.3122],[68.5869,23.3066],[68.5869,23.3066]]],[[[68.5838,23.3187],[68.5844,23.3197],[68.5844,23.3197],[68.5838,23.3187]]],[[[68.5248,23.3171],[68.5311,23.3194],[68.5141,23.3201],[68.5248,23.3171]]],[[[68.6192,23.3284],[68.599,23.3215],[68.5972,23.3215],[68.6192,23.3284]]],[[[68.6011,23.3285],[68.6144,23.328],[68.5936,23.3322],[68.6011,23.3285]]],[[[68.5413,23.3259],[68.5541,23.3397],[68.5543,23.3413],[68.5541,23.3397],[68.5413,23.3259]]],[[[68.5715,23.3378],[68.5715,23.3378],[68.5704,23.3428],[68.5715,23.3378]]],[[[68.5667,23.3436],[68.5667,23.3436],[68.5616,23.342],[68.5667,23.3436]]],[[[68.5585,23.3441],[68.5609,23.3451],[68.5609,23.3451],[68.5585,23.3441]]],[[[68.5041,23.3449],[68.5021,23.347],[68.5041,23.345],[68.5041,23.3449]]],[[[68.481,23.344],[68.481,23.344],[68.4789,23.3476],[68.481,23.344]]],[[[68.4995,23.3497],[68.4995,23.3497],[68.4973,23.3498],[68.4995,23.3497]]],[[[68.4953,23.3477],[68.497,23.3499],[68.497,23.3499],[68.4953,23.3477]]],[[[68.6182,23.3506],[68.6217,23.339],[68.621,23.3325],[68.6182,23.3506],[68.6164,23.3304],[68.6182,23.3506]]],[[[68.4796,23.3524],[68.4796,23.3524],[68.4824,23.3586],[68.4796,23.3524]]],[[[68.4402,23.3894],[68.4416,23.3898],[68.4416,23.3898],[68.4402,23.3894]]],[[[68.4679,23.391],[68.4679,23.391],[68.4593,23.3924],[68.4679,23.391]]],[[[68.4806,23.3943],[68.4805,23.3943],[68.4799,23.3954],[68.4806,23.3943]]],[[[68.5032,23.3946],[68.5046,23.3969],[68.5051,23.3966],[68.5032,23.3946]]],[[[68.4934,23.397],[68.4934,23.397],[68.4944,23.3995],[68.4934,23.397]]],[[[68.456,23.3929],[68.456,23.3929],[68.4516,23.402],[68.456,23.3929]]],[[[68.4222,23.3985],[68.4197,23.4031],[68.4197,23.4031],[68.4222,23.3985]]],[[[68.4399,23.401],[68.4399,23.401],[68.4348,23.4085],[68.4399,23.401]]],[[[68.5209,23.4125],[68.5209,23.4125],[68.5203,23.4144],[68.5209,23.4125]]],[[[68.4075,23.4137],[68.4075,23.4137],[68.4142,23.4021],[68.4075,23.4137]]],[[[68.4433,23.4171],[68.4435,23.4175],[68.4435,23.4175],[68.4433,23.4171]]],[[[68.5007,23.4194],[68.5007,23.4194],[68.4981,23.4201],[68.5007,23.4194]]],[[[68.4286,23.4175],[68.4299,23.4224],[68.4299,23.4224],[68.4286,23.4175]]],[[[68.3937,23.4217],[68.3937,23.4216],[68.3866,23.4401],[68.3937,23.4217]]],[[[68.4033,23.4638],[68.3886,23.4546],[68.396,23.4605],[68.4033,23.4638]]],[[[68.442,23.4716],[68.4337,23.4738],[68.4294,23.471],[68.4337,23.4738],[68.442,23.4716],[68.4471,23.4782],[68.442,23.4716]]],[[[68.44,23.4898],[68.44,23.4898],[68.4403,23.49],[68.44,23.4898]]],[[[68.4378,23.5005],[68.4261,23.5081],[68.4187,23.5359],[68.4202,23.5402],[68.4378,23.5005]]],[[[68.4465,23.5639],[68.4259,23.5498],[68.437,23.5622],[68.4465,23.5639]]],[[[68.4406,23.5671],[68.44,23.5677],[68.4406,23.5671],[68.4406,23.5671]]],[[[68.4549,23.5729],[68.4549,23.5729],[68.4429,23.5676],[68.4549,23.5729]]],[[[68.2221,23.5731],[68.2226,23.5752],[68.2226,23.5752],[68.2221,23.5731]]],[[[68.2369,23.578],[68.2353,23.575],[68.2369,23.578],[68.2369,23.578]]],[[[68.2354,23.5803],[68.2354,23.5803],[68.233,23.5805],[68.2354,23.5803]]],[[[68.1868,23.5809],[68.1979,23.5811],[68.1844,23.5834],[68.1868,23.5809]]],[[[68.4281,23.5808],[68.4281,23.5808],[68.4275,23.5843],[68.4281,23.5808]]],[[[68.2654,23.5843],[68.2749,23.571],[68.3109,23.5676],[68.2657,23.5683],[68.2649,23.5821],[68.2654,23.5843]]],[[[68.2116,23.5855],[68.2116,23.5855],[68.2126,23.5864],[68.2116,23.5855]]],[[[68.2215,23.5869],[68.2215,23.5869],[68.2232,23.5812],[68.2215,23.5869]]],[[[68.216,23.5895],[68.2133,23.5919],[68.216,23.5895],[68.216,23.5895]]],[[[68.455,23.5942],[68.4464,23.5773],[68.4527,23.5923],[68.455,23.5942]]],[[[68.2706,23.5943],[68.2706,23.5943],[68.2708,23.5944],[68.2706,23.5943]]],[[[68.2451,23.5773],[68.236,23.5858],[68.2451,23.5773],[68.2507,23.5822],[68.2498,23.59],[68.2552,23.595],[68.2507,23.5822],[68.2451,23.5773]]],[[[68.2296,23.5919],[68.2153,23.5952],[68.2122,23.5929],[68.2153,23.5952],[68.2296,23.5919]]],[[[68.3141,23.5687],[68.3612,23.59],[68.3696,23.6021],[68.3613,23.59],[68.3141,23.5687]]],[[[68.2784,23.6005],[68.2784,23.6004],[68.2777,23.6037],[68.2784,23.6005]]],[[[68.4365,23.5782],[68.4462,23.5956],[68.4501,23.5994],[68.4592,23.6016],[68.462,23.6057],[68.4593,23.6016],[68.4462,23.5956],[68.4365,23.5782]]],[[[68.379,23.6071],[68.379,23.6071],[68.3796,23.6072],[68.379,23.6071]]],[[[68.4609,23.6145],[68.4602,23.6151],[68.4609,23.6145],[68.4609,23.6145]]],[[[68.1737,23.5948],[68.1659,23.6031],[68.1629,23.6099],[68.1628,23.6147],[68.1632,23.6155],[68.1737,23.5948]]],[[[68.4388,23.6221],[68.4388,23.6221],[68.4237,23.6103],[68.4388,23.6221]]],[[[68.3825,23.6269],[68.385,23.6275],[68.3813,23.6275],[68.3825,23.6269]]],[[[68.3791,23.6257],[68.3801,23.6282],[68.3801,23.6282],[68.3791,23.6257]]],[[[68.261,23.6201],[68.261,23.62],[68.257,23.6323],[68.261,23.6201]]],[[[68.2384,23.6366],[68.2526,23.6373],[68.2392,23.6366],[68.2384,23.6366]]],[[[68.2594,23.6394],[68.2649,23.6325],[68.2676,23.6235],[68.2594,23.6394],[68.2403,23.6414],[68.2594,23.6394]]],[[[68.2202,23.6382],[68.2202,23.6382],[68.2166,23.644],[68.2202,23.6382]]],[[[68.1649,23.6201],[68.1719,23.6289],[68.192,23.6446],[68.1719,23.6289],[68.1649,23.6201]]],[[[68.2306,23.6426],[68.2306,23.6426],[68.2269,23.6446],[68.2306,23.6426]]],[[[68.2044,23.6452],[68.2044,23.6452],[68.2054,23.6454],[68.2044,23.6452]]],[[[68.225,23.6457],[68.225,23.6457],[68.2262,23.6466],[68.225,23.6457]]],[[[68.1982,23.6437],[68.1982,23.6437],[68.1974,23.6472],[68.1982,23.6437]]],[[[68.4662,23.5997],[68.4662,23.5997],[68.4647,23.6226],[68.4708,23.6367],[68.483,23.6502],[68.5005,23.6659],[68.4708,23.6367],[68.4662,23.5997]]],[[[68.2403,23.6712],[68.236,23.6715],[68.248,23.6731],[68.2403,23.6712]]],[[[68.2313,23.6742],[68.2312,23.6742],[68.2276,23.6798],[68.2313,23.6742]]],[[[68.2631,23.6854],[68.2628,23.6863],[68.2631,23.6854],[68.2631,23.6854]]],[[[68.2235,23.686],[68.2125,23.6878],[68.2125,23.6878],[68.2235,23.686]]],[[[68.4689,23.6885],[68.4689,23.6885],[68.4674,23.6899],[68.4689,23.6885]]],[[[68.4827,23.6926],[68.4827,23.6926],[68.4897,23.6979],[68.4827,23.6926]]],[[[68.2028,23.6982],[68.2028,23.6981],[68.1992,23.7017],[68.2028,23.6982]]],[[[68.4681,23.7086],[68.4681,23.7086],[68.4842,23.7135],[68.4681,23.7086]]],[[[68.2361,23.6477],[68.276,23.6671],[68.2871,23.6788],[68.2885,23.6839],[68.3021,23.7087],[68.3067,23.7146],[68.3089,23.7162],[68.3092,23.7163],[68.2871,23.6788],[68.276,23.6671],[68.2361,23.6477]]],[[[68.4903,23.6983],[68.5024,23.7137],[68.5018,23.7172],[68.5024,23.7137],[68.4903,23.6983]]],[[[68.5176,23.6828],[68.5253,23.6928],[68.5457,23.7129],[68.5546,23.7185],[68.5176,23.6828]]],[[[68.3185,23.7182],[68.3191,23.7188],[68.3185,23.7182],[68.3185,23.7182]]],[[[68.4813,23.7241],[68.4824,23.7252],[68.4824,23.7252],[68.4813,23.7241]]],[[[68.276,23.6981],[68.291,23.7243],[68.3017,23.7256],[68.291,23.7243],[68.276,23.6981]]],[[[68.4622,23.7168],[68.4543,23.7237],[68.4535,23.7277],[68.4543,23.7237],[68.4622,23.7168]]],[[[68.3208,23.7322],[68.3208,23.7322],[68.3071,23.7262],[68.3208,23.7322]]],[[[68.3913,23.6372],[68.3995,23.6628],[68.4167,23.6941],[68.4223,23.7233],[68.4329,23.7338],[68.4223,23.7233],[68.4167,23.6941],[68.3913,23.6372]]],[[[68.4586,23.7341],[68.4754,23.7284],[68.4694,23.7293],[68.4586,23.7341],[68.4546,23.7317],[68.4586,23.7341]]],[[[68.1867,23.723],[68.1867,23.723],[68.1901,23.7364],[68.1867,23.723]]],[[[68.5761,23.7339],[68.5738,23.7348],[68.5848,23.7382],[68.5761,23.7339]]],[[[68.4419,23.7333],[68.4341,23.7337],[68.4419,23.7333],[68.4545,23.7382],[68.4576,23.7383],[68.4419,23.7333]]],[[[68.5728,23.7352],[68.5728,23.7352],[68.5758,23.739],[68.5728,23.7352]]],[[[68.5823,23.7442],[68.5867,23.7472],[68.5868,23.7472],[68.5823,23.7442]]],[[[68.5869,23.7472],[68.5917,23.7475],[68.5917,23.7475],[68.5869,23.7472]]],[[[68.4931,23.7351],[68.5002,23.7448],[68.4999,23.7486],[68.5002,23.7448],[68.4931,23.7351]]],[[[68.6147,23.7487],[68.6139,23.7486],[68.6168,23.7488],[68.6147,23.7487]]],[[[68.4999,23.7489],[68.4999,23.7489],[68.502,23.7494],[68.4999,23.7489]]],[[[68.5676,23.7489],[68.5676,23.7489],[68.5713,23.7499],[68.5676,23.7489]]],[[[68.6186,23.7489],[68.6199,23.7504],[68.6186,23.7489],[68.6186,23.7489]]],[[[68.5055,23.7515],[68.5066,23.7531],[68.5066,23.7531],[68.5055,23.7515]]],[[[68.6103,23.7534],[68.6103,23.7534],[68.5908,23.7355],[68.6103,23.7534]]],[[[68.565,23.7532],[68.5649,23.7532],[68.5689,23.7571],[68.565,23.7532]]],[[[68.5227,23.7627],[68.5235,23.7471],[68.5192,23.7731],[68.5227,23.7627]]],[[[68.5927,23.7712],[68.5966,23.7758],[68.5966,23.7758],[68.5927,23.7712]]],[[[68.6131,23.7774],[68.6114,23.7804],[68.6114,23.7804],[68.6131,23.7774]]],[[[68.6313,23.786],[68.6271,23.7793],[68.6283,23.7828],[68.6313,23.786]]],[[[68.6401,23.7874],[68.6391,23.7898],[68.6401,23.7874],[68.6401,23.7874]]],[[[68.5604,23.7768],[68.5714,23.7875],[68.5752,23.7899],[68.5714,23.7874],[68.5604,23.7768]]],[[[68.6383,23.7897],[68.6391,23.7899],[68.6391,23.7899],[68.6383,23.7897]]],[[[68.6581,23.7992],[68.6581,23.7992],[68.6627,23.8015],[68.6581,23.7992]]],[[[68.6702,23.8022],[68.6702,23.8022],[68.6662,23.8018],[68.6702,23.8022]]],[[[68.2118,23.7843],[68.2118,23.7843],[68.2074,23.7989],[68.206,23.813],[68.2118,23.7843]]],[[[68.5964,23.8008],[68.6308,23.8149],[68.6415,23.8264],[68.6308,23.8149],[68.5964,23.8008]]],[[[68.6794,23.7916],[68.6883,23.8041],[68.6947,23.8084],[68.7019,23.8096],[68.7146,23.8241],[68.7213,23.8278],[68.7019,23.8096],[68.6883,23.8041],[68.6794,23.7916]]],[[[68.2221,23.8313],[68.2218,23.8313],[68.2221,23.8313],[68.2221,23.8313]]],[[[68.2228,23.8318],[68.2279,23.8353],[68.2279,23.8353],[68.2228,23.8318]]],[[[68.2102,23.8379],[68.2102,23.8379],[68.2058,23.8346],[68.2102,23.8379]]],[[[68.7303,23.8319],[68.7432,23.8368],[68.7499,23.838],[68.7432,23.8367],[68.7303,23.8319]]],[[[68.6554,23.8397],[68.6554,23.8397],[68.6813,23.8398],[68.6554,23.8397]]],[[[68.2654,23.8398],[68.2654,23.8398],[68.2668,23.8384],[68.2654,23.8398]]],[[[68.2556,23.835],[68.2556,23.835],[68.2499,23.8417],[68.2556,23.835]]],[[[68.7181,23.8434],[68.7252,23.8372],[68.7152,23.8398],[68.7181,23.8434]]],[[[68.1913,23.7876],[68.1483,23.7247],[68.1589,23.7199],[68.15,23.6986],[68.1309,23.695],[68.1034,23.727],[68.0914,23.7184],[68.1074,23.6977],[68.0571,23.7166],[68.034,23.7076],[68.0705,23.7478],[68.074,23.7953],[68.1177,23.8314],[68.1551,23.8173],[68.1729,23.8229],[68.1674,23.8444],[68.1836,23.8426],[68.1913,23.7876]]],[[[68.2513,23.8489],[68.2513,23.8489],[68.2513,23.8489],[68.2513,23.8489]]],[[[68.2408,23.8494],[68.2408,23.8493],[68.229,23.8365],[68.2408,23.8494]]],[[[68.7274,23.8377],[68.7393,23.8449],[68.7611,23.8507],[68.7393,23.8449],[68.7274,23.8377]]],[[[68.7777,23.855],[68.7777,23.855],[68.7802,23.8553],[68.7777,23.855]]],[[[68.7806,23.8553],[68.7808,23.8557],[68.7806,23.8553],[68.7806,23.8553]]],[[[68.2062,23.8482],[68.2062,23.8482],[68.2077,23.8569],[68.2062,23.8482]]],[[[68.246,23.86],[68.2219,23.842],[68.2472,23.863],[68.246,23.86]]],[[[68.2581,23.8653],[68.2469,23.8518],[68.2474,23.8543],[68.2581,23.8653]]],[[[68.7686,23.8714],[68.7686,23.8714],[68.7648,23.8738],[68.7686,23.8714]]],[[[68.7812,23.8663],[68.7811,23.8663],[68.7746,23.8696],[68.7714,23.8738],[68.7812,23.8663]]],[[[68.2277,23.8742],[68.2118,23.8714],[68.222,23.8737],[68.2277,23.8742]]],[[[68.2654,23.8612],[68.2616,23.8721],[68.2573,23.8761],[68.2616,23.8721],[68.2654,23.8612]]],[[[68.763,23.8749],[68.763,23.8749],[68.7635,23.8768],[68.763,23.8749]]],[[[68.2629,23.8883],[68.2632,23.8886],[68.2632,23.8886],[68.2629,23.8883]]],[[[68.3065,23.9135],[68.3065,23.9135],[68.3087,23.9142],[68.3065,23.9135]]],[[[68.2698,23.8926],[68.2781,23.9022],[68.2738,23.9135],[68.2747,23.9179],[68.2784,23.9212],[68.2781,23.9022],[68.2698,23.8926]]],[[[68.2789,23.9217],[68.2789,23.9217],[68.2804,23.9218],[68.2789,23.9217]]],[[[67.4046,24.0705],[67.4046,24.0705],[67.4046,24.0705],[67.4046,24.0705]]],[[[67.4227,24.0664],[67.4046,24.0705],[67.4118,24.0805],[67.4227,24.0664]]],[[[67.405,24.0763],[67.4014,24.0464],[67.3814,24.0591],[67.395,24.0662],[67.371,24.0873],[67.3626,24.1323],[67.4118,24.1233],[67.4245,24.1302],[67.3828,24.1326],[67.3453,24.1558],[67.3347,24.1763],[67.3545,24.1828],[67.3346,24.214],[67.342,24.2351],[67.3625,24.2385],[67.4125,24.2295],[67.4208,24.2098],[67.4312,24.2214],[67.4317,24.2472],[67.4205,24.2173],[67.4143,24.234],[67.3501,24.2542],[67.3613,24.2756],[67.3814,24.2732],[67.3934,24.2874],[67.3585,24.2837],[67.3259,24.2449],[67.2972,24.3074],[67.3299,24.3339],[67.3596,24.2907],[67.3386,24.3323],[67.3466,24.3428],[67.4109,24.3113],[67.4421,24.316],[67.449,24.3321],[67.4906,24.3218],[67.5146,24.3424],[67.5291,24.3345],[67.5124,24.3526],[67.4873,24.3263],[67.4566,24.3422],[67.4343,24.3227],[67.3665,24.351],[67.369,24.3857],[67.4177,24.3864],[67.4229,24.3603],[67.4278,24.3918],[67.4158,24.4014],[67.3605,24.3877],[67.3491,24.4005],[67.4169,24.4367],[67.4646,24.4234],[67.4727,24.4268],[67.3902,24.4501],[67.3753,24.4341],[67.3834,24.4544],[67.3608,24.4601],[67.4009,24.4844],[67.4218,24.4644],[67.4504,24.4601],[67.455,24.4655],[67.436,24.4797],[67.4213,24.4707],[67.4039,24.5064],[67.412,24.5215],[67.3919,24.5161],[67.4022,24.493],[67.3743,24.4721],[67.3424,24.4591],[67.3099,24.4622],[67.3258,24.4652],[67.3294,24.4856],[67.3523,24.4797],[67.3702,24.5304],[67.3975,24.5246],[67.3987,24.5468],[67.3684,24.536],[67.3552,24.546],[67.3807,24.571],[67.4136,24.5856],[67.4396,24.5746],[67.4071,24.5894],[67.3234,24.5491],[67.3048,24.5523],[67.3152,24.5589],[67.2998,24.5822],[67.3203,24.5757],[67.3231,24.5906],[67.371,24.608],[67.3838,24.6377],[67.4069,24.6357],[67.4143,24.6493],[67.4405,24.6404],[67.4532,24.6537],[67.4428,24.6478],[67.4206,24.6728],[67.4325,24.6982],[67.3932,24.7046],[67.3515,24.7423],[67.3493,24.7629],[67.4528,24.776],[67.4681,24.7538],[67.4637,24.7775],[67.3755,24.7834],[67.3296,24.7712],[67.2456,24.7849],[67.2199,24.8141],[67.1748,24.7814],[67.1547,24.7937],[67.1224,24.7788],[67.1049,24.7976],[67.1023,24.7781],[67.0908,24.7921],[67.0931,24.7569],[67.0217,24.8083],[66.9758,24.8108],[66.9654,24.8414],[66.9825,24.8579],[66.9538,24.861],[66.9122,24.8447],[66.9578,24.8258],[66.9792,24.7918],[66.862,24.8569],[66.8191,24.8344],[66.7562,24.8438],[66.6833,24.8214],[66.6514,24.8294],[66.6843,24.8757],[66.722,24.8918],[66.6869,24.8927],[66.6754,24.9236],[66.7004,24.9496],[66.7041,25.0826],[66.7386,25.1422],[66.742,25.1832],[66.6783,25.2711],[66.5501,25.3652],[66.5553,25.3922],[66.5794,25.3729],[66.5783,25.4114],[66.5942,25.425],[66.56,25.4529],[66.5576,25.5381],[66.5289,25.5422],[66.5159,25.5634],[66.5429,25.6144],[66.5393,25.6442],[66.5021,25.5767],[66.4799,25.5877],[66.4672,25.5699],[66.4552,25.6194],[66.4454,25.5972],[66.3984,25.584],[66.3676,25.6159],[66.3105,25.6101],[66.2969,25.6239],[66.2315,25.5903],[66.1901,25.5993],[66.1337,25.5443],[66.1328,25.5079],[66.0919,25.4796],[66.1956,25.4889],[66.2848,25.5421],[66.3141,25.5377],[66.3349,25.5531],[66.358,25.5248],[66.3972,25.5215],[66.3943,25.5066],[66.4265,25.4826],[66.4752,25.4995],[66.5174,25.492],[66.4928,25.4478],[66.5284,25.4158],[66.5133,25.4046],[66.36,25.4601],[66.2765,25.4678],[66.0391,25.4266],[66.0238,25.4437],[66.0092,25.4368],[66.0144,25.4209],[65.9549,25.4132],[65.8387,25.4194],[65.773,25.3835],[65.6357,25.3495],[65.5174,25.3712],[65.5435,25.4199],[65.5057,25.3761],[65.3711,25.3902],[65.3381,25.3805],[65.3189,25.3967],[65.2545,25.3817],[65.2268,25.3178],[65.1564,25.3061],[64.9953,25.3252],[64.8271,25.3189],[64.7806,25.3477],[64.7927,25.3239],[64.7262,25.3167],[64.6525,25.2732],[64.6402,25.2055],[64.7005,25.1866],[64.6623,25.16],[64.5838,25.1604],[64.611,25.2166],[64.5436,25.2705],[64.406,25.2383],[64.3405,25.2768],[64.2392,25.308],[64.2462,25.3325],[64.2233,25.318],[64.0838,25.3294],[64.0927,25.3664],[64.1175,25.3649],[64.081,25.3965],[64.1419,25.4112],[64.1381,25.4322],[64.1651,25.4533],[64.1243,25.439],[64.1174,25.4545],[64.0642,25.4452],[64.0473,25.4314],[64.0287,25.465],[64.0287,25.4441],[63.9915,25.4264],[64.0199,25.4241],[64.0058,25.4066],[63.9744,25.4234],[63.9678,25.4056],[63.9913,25.4099],[64.0042,25.3843],[64.0208,25.4094],[64.0361,25.4061],[64.072,25.3631],[64.0643,25.3283],[63.9296,25.3371],[63.758,25.3788],[63.6059,25.3706],[63.5356,25.3457],[63.4811,25.2844],[63.4561,25.2952],[63.5039,25.2262],[63.4927,25.1982],[63.1395,25.2577],[63.0071,25.2106],[62.8301,25.2463],[62.5951,25.2623],[62.4738,25.2454],[62.4599,25.2296],[62.4707,25.2126],[62.4118,25.2054],[62.3643,25.178],[62.3394,25.1132],[62.3897,25.1037],[62.3769,25.0962],[62.2734,25.098],[62.3202,25.1205],[62.3149,25.1687],[62.2651,25.2048],[62.2034,25.2151],[62.0735,25.1785],[62.0666,25.1548],[62.1054,25.1042],[62.0984,25.0962],[61.9847,25.1096],[61.8747,25.1027],[61.859,25.0955],[61.864,25.0784],[61.8406,25.0408],[61.7644,25.0328],[61.7279,25.0443],[61.7397,25.0904],[61.7575,25.0983],[61.7476,25.132],[61.769,25.124],[61.7831,25.1418],[61.7857,25.1941],[61.757,25.2154],[61.6295,25.2455],[61.5905,25.2783],[61.4418,25.5216],[60.8166,26.33],[60.0,27.5525],[60.0,29.7192],[60.5256,30.1133],[61.334,30.5337],[61.8491,30.7607],[61.9832,30.845],[62.1438,30.876],[63.0344,30.876],[64.6206,31.4861],[67.3049,33.1943],[69.6232,34.0484],[71.0874,33.9264],[71.9415,33.4383],[72.4295,32.5842],[72.3132,30.9561],[72.4114,28.7862],[72.3298,28.7038],[72.279,28.5995],[71.9223,28.114],[71.8902,27.9583],[71.6749,27.8855],[71.2441,27.8494],[70.8655,27.7051],[70.7577,27.7172],[70.6784,27.839],[70.6721,27.9143],[70.5626,28.0198],[70.4897,28.0344],[70.3662,28.0083],[70.157,27.834],[70.1078,27.7669],[70.0163,27.556],[69.9363,27.5021],[69.862,27.4028],[69.5867,27.178],[69.5132,27.0169],[69.4837,26.8062],[69.5155,26.7401],[69.7219,26.6538],[69.8154,26.5922],[69.8793,26.5811],[70.0662,26.5993],[70.1677,26.5508],[70.1839,26.4868],[70.1646,26.2909],[70.1727,26.2451],[70.1452,26.1662],[70.0826,26.0739],[70.0961,25.9443],[70.2754,25.7113],[70.3747,25.6813],[70.5265,25.6885],[70.6048,25.7185],[70.6593,25.7015],[70.6724,25.6715],[70.6659,25.396],[70.7372,25.3257],[70.7525,25.2717],[70.8813,25.1459],[70.9179,24.9864],[70.9556,24.9017],[71.0861,24.6934],[71.065,24.6626],[71.0081,24.6357],[70.9894,24.6032],[71.0007,24.4489],[71.0203,24.4333],[71.1074,24.4332],[71.1244,24.4094],[71.0382,24.3561],[70.9809,24.3634],[70.8727,24.305],[70.8658,24.2843],[70.9041,24.2651],[70.8941,24.2571],[70.8058,24.2227],[70.7258,24.2209],[70.6553,24.2251],[70.5742,24.2523],[70.5878,24.2854],[70.5723,24.2936],[70.5874,24.3101],[70.5614,24.3584],[70.5959,24.4003],[70.5601,24.4186],[70.119,24.2907],[70.0593,24.1928],[70.0241,24.1694],[69.9787,24.1651],[69.7246,24.1751],[69.5901,24.2868],[69.5042,24.263],[69.3103,24.2767],[69.1998,24.2352],[69.0929,24.2691],[69.0005,24.2259],[68.9706,24.2375],[68.9267,24.2939],[68.8973,24.2769],[68.8736,24.2143],[68.8525,24.2057],[68.8264,24.3084],[68.7641,24.2841],[68.7492,23.9621],[68.3849,23.9642],[68.3742,23.9832],[68.3349,23.9654],[68.3259,23.922],[68.2789,23.9386],[68.2377,23.9002],[68.1856,23.8863],[68.1889,23.8501],[68.1361,23.8696],[68.1421,23.8397],[68.1035,23.8555],[68.1044,23.8432],[68.076,23.8332],[68.053,23.8538],[68.0553,23.903],[68.042,23.9119],[68.0282,23.8796],[68.0446,23.7949],[68.0336,23.788],[67.9962,23.7867],[67.9202,23.8517],[67.9298,23.829],[67.872,23.8586],[67.8653,23.9016],[67.9027,23.9647],[67.8939,23.9751],[67.8456,23.9092],[67.8274,23.8136],[67.709,23.8562],[67.7502,23.8015],[67.652,23.7945],[67.6269,23.8088],[67.6254,23.8429],[67.5841,23.8388],[67.5762,23.889],[67.5651,23.8683],[67.5355,23.893],[67.5343,23.8753],[67.4655,23.9066],[67.4627,23.9205],[67.491,23.9139],[67.4855,23.9374],[67.4661,23.9453],[67.5007,23.9699],[67.4224,23.9449],[67.4365,23.9907],[67.4083,24.0],[67.4218,24.0024],[67.4092,24.0391],[67.438,24.0636],[67.4183,24.0872],[67.4465,24.1203],[67.4088,24.084],[67.405,24.0763]]]]}}