{"type":"Feature","properties":{"speciesId":58,"category":"NT","source":"IUCN Red List","simplifyTol":0.01,"clippedToSubcontinent":true},"geometry":{"type":"MultiPolygon","coordinates":[[[[92.5439,10.8619],[92.5491,10.8035],[92.5764,10.7793],[92.5689,10.7433],[92.5828,10.7018],[92.5793,10.6721],[92.5594,10.6676],[92.5655,10.6512],[92.5231,10.6121],[92.5228,10.5895],[92.5511,10.5747],[92.5103,10.5126],[92.4776,10.5082],[92.4121,10.5461],[92.3599,10.5307],[92.4001,10.6138],[92.3897,10.6486],[92.3643,10.6684],[92.36,10.7812],[92.3972,10.7866],[92.4129,10.8212],[92.4438,10.8362],[92.446,10.8639],[92.5019,10.8949],[92.5439,10.8619]]],[[[92.6806,11.4745],[92.6961,11.4248],[92.6624,11.4038],[92.7013,11.3901],[92.7032,11.3717],[92.6781,11.3536],[92.6151,11.3453],[92.5979,11.3683],[92.6072,11.3984],[92.6359,11.4002],[92.6249,11.4622],[92.6432,11.5097],[92.6806,11.4745]]],[[[92.6173,11.5249],[92.6127,11.5205],[92.6158,11.5313],[92.6173,11.5249]]],[[[92.562,11.5284],[92.5782,11.522],[92.5744,11.5125],[92.562,11.5284]]],[[[92.6174,11.547],[92.6314,11.5518],[92.6231,11.5301],[92.6174,11.547]]],[[[92.5951,11.5448],[92.6071,11.5669],[92.607,11.5278],[92.5951,11.5448]]],[[[92.6237,11.56],[92.6146,11.5659],[92.6184,11.585],[92.6272,11.5762],[92.6237,11.56]]],[[[92.5802,11.5851],[92.5638,11.56],[92.5413,11.5502],[92.5466,11.6005],[92.5802,11.5851]]],[[[92.7687,11.6757],[92.7737,11.6698],[92.7721,11.6688],[92.7687,11.6757]]],[[[92.7362,11.9478],[92.7387,11.9356],[92.7364,11.9356],[92.7362,11.9478]]],[[[92.7499,11.9551],[92.7713,11.9617],[92.7756,11.9534],[92.7595,11.9398],[92.7499,11.9551]]],[[[92.7632,11.9731],[92.7453,11.9802],[92.7682,11.9826],[92.7632,11.9731]]],[[[92.7686,11.9989],[92.7786,12.0034],[92.7799,11.991],[92.7686,11.9989]]],[[[92.9301,12.9108],[92.9119,12.8845],[92.9347,12.8837],[92.9609,12.8074],[92.9439,12.7715],[92.9701,12.7532],[92.9867,12.7118],[92.972,12.7042],[92.963,12.6164],[92.9782,12.4943],[92.9701,12.4848],[92.9547,12.4977],[92.9416,12.4653],[92.9618,12.4753],[92.9644,12.4644],[92.9267,12.4451],[92.9264,12.4034],[92.8901,12.3769],[92.8818,12.3519],[92.8989,12.3484],[92.9081,12.329],[92.8886,12.3331],[92.9085,12.3179],[92.8681,12.3119],[92.8963,12.2556],[92.8666,12.2446],[92.8807,12.2048],[92.8561,12.1959],[92.8533,12.1599],[92.8281,12.1586],[92.8124,12.1299],[92.8178,12.1007],[92.8049,12.1042],[92.8001,12.0811],[92.77,12.0633],[92.7686,12.0479],[92.793,12.0402],[92.7888,12.0238],[92.7489,12.035],[92.7412,12.0183],[92.7649,11.997],[92.7344,11.9874],[92.7453,11.964],[92.7282,11.9525],[92.7249,11.9246],[92.7887,11.9361],[92.7999,11.8769],[92.7702,11.7022],[92.7534,11.7164],[92.7444,11.6818],[92.7682,11.6628],[92.7214,11.4793],[92.7099,11.5102],[92.6837,11.5027],[92.6599,11.5182],[92.6571,11.578],[92.6411,11.5863],[92.6339,11.5639],[92.6201,11.615],[92.6512,11.6092],[92.6588,11.6434],[92.6494,11.6366],[92.6455,11.6596],[92.6397,11.6289],[92.6222,11.6329],[92.6012,11.7141],[92.7077,12.0867],[92.845,12.4387],[92.8766,12.5998],[92.8782,12.8918],[92.882,12.9089],[92.8818,12.8933],[92.9044,12.8971],[92.9053,12.9217],[92.9301,12.9108]]],[[[92.8911,12.21],[92.8811,12.2404],[92.8957,12.2347],[92.9019,12.2515],[92.8911,12.21]]],[[[92.8771,12.2441],[92.8758,12.2344],[92.8699,12.2417],[92.8771,12.2441]]],[[[92.9191,12.3476],[92.9223,12.3326],[92.9204,12.3319],[92.9191,12.3476]]],[[[92.9452,12.3661],[92.9256,12.3656],[92.9351,12.4005],[92.9665,12.4313],[92.9452,12.3661]]],[[[92.8845,12.9202],[92.8863,12.9171],[92.8838,12.9172],[92.8845,12.9202]]],[[[92.8927,12.9321],[92.8944,12.9234],[92.8851,12.9329],[92.8927,12.9321]]],[[[92.9571,12.9376],[92.9668,12.9465],[92.9764,12.9434],[92.9756,12.9411],[92.9571,12.9376]]],[[[92.8836,12.954],[92.8879,12.9505],[92.8842,12.9451],[92.8836,12.954]]],[[[92.9877,12.9415],[92.961,12.9575],[92.9602,12.9777],[92.9697,12.9873],[92.9796,12.9702],[93.0111,12.9971],[92.9877,12.9415]]],[[[92.9503,13.0015],[92.9308,12.9989],[92.9311,13.0277],[92.9448,13.0226],[92.9503,13.0015]]],[[[93.0035,13.3381],[93.0011,13.3111],[93.0174,13.3157],[93.0297,13.2917],[93.0187,13.2773],[93.0525,13.2773],[93.0538,13.2552],[93.0699,13.2607],[93.0423,13.1752],[93.0383,13.0638],[93.0156,13.0284],[92.9744,13.0348],[92.9736,13.0111],[92.9476,13.0372],[92.9494,13.0607],[92.9259,13.0594],[92.9073,13.0177],[92.946,12.9727],[92.9166,12.947],[92.9054,12.9924],[92.8835,12.955],[92.8795,13.0082],[92.9723,13.408],[93.0311,13.3449],[93.0035,13.3381]]],[[[93.0326,13.3235],[93.0301,13.3004],[93.0272,13.327],[93.0326,13.3235]]],[[[93.0517,13.3159],[93.05,13.325],[93.0564,13.3182],[93.0517,13.3159]]]]}}