{"type":"Feature","properties":{"speciesId":587,"category":"LC","source":"IUCN Red List","simplifyTol":0.01,"clippedToSubcontinent":true},"geometry":{"type":"MultiPolygon","coordinates":[[[[95.1121,15.6704],[95.1074,15.6644],[95.1104,15.6706],[95.1121,15.6704]]],[[[95.0718,15.6742],[95.0564,15.6728],[95.0717,15.6793],[95.0718,15.6742]]],[[[95.2708,15.6782],[95.2641,15.6731],[95.2634,15.6823],[95.2708,15.6782]]],[[[95.2044,15.6826],[95.1915,15.6663],[95.1829,15.6738],[95.2044,15.6826]]],[[[95.0606,15.7203],[95.0181,15.7194],[95.0568,15.7419],[95.0606,15.7203]]],[[[95.0689,15.8164],[95.0534,15.8195],[95.0646,15.8444],[95.0689,15.8164]]],[[[94.2838,15.8652],[94.2738,15.8646],[94.2795,15.8707],[94.2838,15.8652]]],[[[95.0666,15.8747],[95.0606,15.8772],[95.0651,15.8834],[95.0666,15.8747]]],[[[94.8409,15.8952],[94.8346,15.8899],[94.8309,15.9062],[94.8409,15.8952]]],[[[94.4628,15.9129],[94.4518,15.9192],[94.464,15.9157],[94.4628,15.9129]]],[[[94.8108,15.7875],[94.7375,15.7916],[94.7306,15.814],[94.8087,15.9425],[94.8402,15.869],[94.8108,15.7875]]],[[[94.5213,15.9207],[94.5155,15.9292],[94.5225,15.9426],[94.5213,15.9207]]],[[[95.3142,15.9296],[95.3209,15.9478],[95.3327,15.9568],[95.3321,15.9424],[95.3142,15.9296]]],[[[94.6686,15.9667],[94.6578,15.9625],[94.6672,15.9685],[94.6686,15.9667]]],[[[95.3453,15.9583],[95.3384,15.9631],[95.3453,15.9714],[95.3453,15.9583]]],[[[95.241,15.9118],[95.2378,15.9276],[95.2678,15.9852],[95.2682,15.9572],[95.241,15.9118]]],[[[95.104,15.939],[95.1036,15.9645],[95.1207,15.9944],[95.1186,15.9526],[95.104,15.939]]],[[[94.3422,16.0097],[94.3218,15.978],[94.2799,15.9896],[94.3322,16.0117],[94.3422,16.0097]]],[[[95.0846,16.0328],[95.0752,16.0156],[95.0836,16.0383],[95.0846,16.0328]]],[[[94.6944,16.0016],[94.7016,16.0264],[94.7171,16.0504],[94.7196,16.0274],[94.6944,16.0016]]],[[[94.8099,15.9774],[94.8423,16.0604],[94.8599,16.0582],[94.8491,16.0],[94.8099,15.9774]]],[[[95.3453,16.0479],[95.3256,15.9681],[95.2736,15.8683],[95.2366,15.8652],[95.273,15.9563],[95.2799,16.022],[95.3198,16.079],[95.3453,16.0479]]],[[[94.6173,16.0416],[94.6182,16.0528],[94.6513,16.0928],[94.6425,16.0649],[94.6173,16.0416]]],[[[95.1806,16.075],[95.1811,16.025],[95.1377,16.0363],[95.0987,15.9801],[95.1121,16.0688],[95.1719,16.1117],[95.2106,16.1027],[95.1806,16.075]]],[[[95.1586,16.1178],[95.1399,16.1177],[95.1617,16.1199],[95.1586,16.1178]]],[[[94.6684,16.1227],[94.665,16.1337],[94.6683,16.1346],[94.6684,16.1227]]],[[[94.5203,16.1307],[94.5276,16.1457],[94.5448,16.1502],[94.5345,16.1377],[94.5203,16.1307]]],[[[95.1362,16.1514],[95.1272,16.1448],[95.1336,16.1565],[95.1362,16.1514]]],[[[95.3263,16.1146],[95.3112,16.1458],[95.3183,16.1719],[95.3666,16.2017],[95.3641,16.1565],[95.3263,16.1146]]],[[[95.8876,16.2228],[95.8727,16.2216],[95.8943,16.2393],[95.8876,16.2228]]],[[[94.6367,16.0898],[94.5953,16.038],[94.5788,16.0516],[94.5903,16.0994],[94.5718,16.0745],[94.573,16.0451],[94.5966,16.0307],[94.5938,16.0155],[94.5131,15.9889],[94.4469,15.9199],[94.3974,15.8322],[94.4109,15.8631],[94.3929,15.9017],[94.3863,16.0],[94.4535,16.0189],[94.5847,16.1991],[94.6492,16.2476],[94.6728,16.2033],[94.6367,16.0898]]],[[[94.6604,16.2697],[94.6579,16.2763],[94.6624,16.2782],[94.6604,16.2697]]],[[[94.5347,16.2006],[94.5185,16.2316],[94.5266,16.2838],[94.5602,16.2407],[94.5347,16.2006]]],[[[95.9016,16.2554],[95.9031,16.273],[95.9078,16.2866],[95.9133,16.2749],[95.9016,16.2554]]],[[[94.6827,16.2978],[94.6777,16.3019],[94.6812,16.3123],[94.6827,16.2978]]],[[[95.9615,16.2951],[95.9577,16.3129],[95.9577,16.3487],[95.9672,16.3175],[95.9615,16.2951]]],[[[96.0779,16.3521],[96.0721,16.3487],[96.0648,16.3563],[96.0779,16.3521]]],[[[95.8751,16.2001],[95.9178,16.273],[95.913,16.3313],[95.9399,16.3786],[95.9563,16.3263],[95.9441,16.2474],[95.8751,16.2001]]],[[[94.5831,16.2227],[94.5746,16.2472],[94.6086,16.2773],[94.6139,16.3189],[94.6499,16.3302],[94.6864,16.3779],[94.6279,16.2577],[94.5831,16.2227]]],[[[96.021,16.2485],[95.927,16.2097],[95.9519,16.2379],[95.9703,16.3017],[95.971,16.3446],[95.9938,16.382],[96.0736,16.3414],[96.0835,16.3147],[96.021,16.2485]]],[[[95.9343,16.3798],[95.9279,16.3735],[95.9334,16.3835],[95.9343,16.3798]]],[[[94.234,16.3846],[94.227,16.3781],[94.2321,16.3873],[94.234,16.3846]]],[[[95.9515,16.3792],[95.9437,16.3836],[95.9477,16.39],[95.9515,16.3792]]],[[[94.6979,16.3684],[94.6979,16.3876],[94.7024,16.3906],[94.7021,16.3785],[94.6979,16.3684]]],[[[95.9399,16.3965],[95.9325,16.3958],[95.9327,16.3981],[95.9399,16.3965]]],[[[96.0071,16.3859],[95.9936,16.3955],[95.9936,16.399],[96.0071,16.3859]]],[[[95.9658,16.3464],[95.9522,16.3705],[95.9586,16.4063],[95.9924,16.3898],[95.9658,16.3464]]],[[[96.3192,16.4688],[96.309,16.4677],[96.3076,16.4757],[96.3192,16.4688]]],[[[97.6101,16.4438],[97.5922,16.4851],[97.6034,16.4892],[97.6162,16.4666],[97.6101,16.4438]]],[[[97.6083,16.5084],[97.581,16.5111],[97.5759,16.523],[97.6083,16.5084]]],[[[97.6557,16.5165],[97.6474,16.5138],[97.6558,16.5234],[97.6557,16.5165]]],[[[94.253,16.5291],[94.2422,16.5182],[94.2493,16.5399],[94.253,16.5291]]],[[[97.7152,16.5643],[97.7047,16.5617],[97.7036,16.5633],[97.7152,16.5643]]],[[[97.6425,16.5286],[97.6262,16.5365],[97.6435,16.5772],[97.6647,16.5554],[97.6425,16.5286]]],[[[97.6573,16.5738],[97.6481,16.5788],[97.6515,16.5872],[97.6573,16.5738]]],[[[96.1866,16.4686],[96.1983,16.4864],[96.1788,16.5142],[96.1851,16.5578],[96.1782,16.581],[96.2296,16.6002],[96.2628,16.5187],[96.3026,16.4722],[96.2944,16.4457],[96.3266,16.4653],[96.3211,16.447],[96.336,16.4437],[96.3069,16.408],[96.155,16.322],[96.1044,16.3223],[96.0914,16.3535],[96.109,16.3796],[96.1432,16.3846],[96.1668,16.414],[96.1488,16.4548],[96.1585,16.453],[96.1804,16.4603],[96.1866,16.4686]]],[[[97.6359,16.5736],[97.6122,16.58],[97.6261,16.6184],[97.6445,16.6024],[97.6359,16.5736]]],[[[97.2228,16.8469],[97.227,16.8573],[97.2494,16.8486],[97.2228,16.8469]]],[[[96.3107,16.8499],[96.3016,16.8461],[96.3033,16.8612],[96.3107,16.8499]]],[[[97.1871,16.8463],[97.183,16.8705],[97.1928,16.8778],[97.1989,16.8658],[97.1871,16.8463]]],[[[96.6759,17.3463],[96.6653,17.3236],[96.655,17.3371],[96.6759,17.3463]]],[[[96.778,17.3694],[96.7677,17.3663],[96.7776,17.3754],[96.778,17.3694]]],[[[96.8399,17.4047],[96.7884,17.3795],[96.7385,17.4383],[96.792,17.4828],[96.8078,17.4389],[96.8399,17.4047]]],[[[94.5929,17.5688],[94.5871,17.5687],[94.588,17.5735],[94.5929,17.5688]]],[[[94.4506,18.1328],[94.4417,18.1332],[94.4503,18.1388],[94.4506,18.1328]]],[[[96.1826,16.4697],[96.1417,16.4537],[96.1628,16.4177],[96.1359,16.3879],[96.1062,16.384],[96.084,16.3583],[96.0173,16.3845],[95.9964,16.4107],[95.9121,16.4109],[95.9275,16.385],[95.9059,16.3295],[95.8912,16.2446],[95.7786,16.1291],[95.7544,16.1266],[95.7404,16.1452],[95.7269,16.264],[95.7096,16.2731],[95.7229,16.2566],[95.7382,16.113],[95.6554,15.9341],[95.5158,15.7881],[95.4568,15.7474],[95.4672,15.7451],[95.3713,15.7047],[95.283,15.721],[95.2708,15.8215],[95.2843,15.8523],[95.3399,15.88],[95.3404,15.9023],[95.3479,15.8805],[95.3809,15.8721],[95.3989,15.8768],[95.4126,15.9056],[95.3871,15.8768],[95.3534,15.8849],[95.3388,15.9054],[95.3356,15.8829],[95.2984,15.8701],[95.3477,15.9473],[95.364,16.0503],[95.3962,16.0616],[95.3628,16.0583],[95.3368,16.0993],[95.3706,16.1492],[95.3805,16.2171],[95.3966,16.2336],[95.3144,16.1801],[95.3053,16.143],[95.3266,16.0873],[95.2792,16.0394],[95.2352,15.9326],[95.2101,15.8565],[95.2245,15.7932],[95.1768,15.7679],[95.1123,15.8061],[95.1257,15.9908],[95.1415,16.0256],[95.1896,16.0246],[95.1927,16.0799],[95.2671,16.1495],[95.1911,16.1138],[95.2079,16.1777],[95.1799,16.1374],[95.1526,16.1389],[95.165,16.1263],[95.1328,16.1239],[95.1442,16.168],[95.1293,16.2051],[95.1408,16.2315],[95.1236,16.2066],[95.1323,16.1672],[95.1198,16.1153],[95.0867,16.0923],[95.0561,16.0354],[95.0701,15.9441],[95.0369,15.8038],[95.0011,15.7788],[94.9868,15.7848],[94.9843,15.8484],[94.9821,15.76],[94.9391,15.7409],[94.8428,15.7733],[94.832,15.7955],[94.8893,15.8274],[94.8713,15.8954],[94.9508,15.9456],[94.9443,15.9536],[94.8637,15.8968],[94.873,15.8249],[94.845,15.8298],[94.8373,15.8467],[94.8501,15.8762],[94.8384,15.9381],[94.8227,15.9431],[94.8619,16.0],[94.9145,16.0],[94.9218,16.0306],[94.9054,16.0748],[94.9333,16.0861],[94.9556,16.131],[95.0226,16.1351],[95.0225,16.1603],[95.0557,16.1994],[95.0566,16.2159],[95.0465,16.2391],[95.0693,16.2458],[95.1006,16.3006],[95.0652,16.2477],[95.0432,16.2457],[95.0479,16.1971],[95.0137,16.1616],[95.0162,16.1437],[94.9529,16.1388],[94.9304,16.0942],[94.8992,16.0736],[94.9154,16.0299],[94.8918,16.0061],[94.8785,16.0115],[94.8759,16.089],[94.8582,16.1139],[94.8888,16.1817],[94.9682,16.2052],[95.0257,16.2628],[95.0421,16.3097],[95.0635,16.3091],[95.0505,16.3334],[95.0165,16.2669],[94.9522,16.211],[94.8726,16.1872],[94.8388,16.1108],[94.8497,16.0723],[94.8395,16.0663],[94.7987,15.989],[94.7996,15.9677],[94.7194,15.8504],[94.6856,15.8371],[94.634,15.8613],[94.6005,15.9202],[94.6697,15.9557],[94.7184,16.0],[94.7362,16.0636],[94.7845,16.0965],[94.763,16.1241],[94.7876,16.1316],[94.8071,16.1998],[94.8411,16.2149],[94.8519,16.2428],[94.8035,16.2062],[94.7764,16.1448],[94.7554,16.1316],[94.7516,16.0937],[94.7196,16.0669],[94.6725,15.9888],[94.5736,15.9294],[94.5476,15.9527],[94.5826,16.0],[94.6173,16.0191],[94.6846,16.1148],[94.6806,16.2026],[94.7209,16.2029],[94.7589,16.2373],[94.7395,16.2574],[94.7567,16.2809],[94.7336,16.2564],[94.7496,16.2377],[94.7262,16.2305],[94.7192,16.2091],[94.6748,16.2152],[94.6636,16.2472],[94.6981,16.2454],[94.7087,16.2549],[94.7058,16.2669],[94.6983,16.2493],[94.6636,16.2541],[94.6677,16.2693],[94.6827,16.2978],[94.6881,16.3066],[94.6989,16.3555],[94.7371,16.354],[94.7548,16.3841],[94.7858,16.3564],[94.8134,16.3559],[94.8254,16.3704],[94.7948,16.3601],[94.7519,16.3905],[94.7347,16.3608],[94.7116,16.376],[94.7432,16.4022],[94.75,16.4194],[94.7586,16.4096],[94.7705,16.4093],[94.7839,16.4261],[94.7588,16.4137],[94.7478,16.4265],[94.7126,16.3942],[94.6965,16.4844],[94.7322,16.5056],[94.7463,16.569],[94.7897,16.5778],[94.8004,16.5907],[94.7465,16.5768],[94.7281,16.5145],[94.6898,16.4927],[94.6782,16.5132],[94.7012,16.5517],[94.7103,16.6135],[94.7423,16.6328],[94.7216,16.6873],[94.7447,16.6957],[94.7416,16.7301],[94.7218,16.7336],[94.738,16.7245],[94.7361,16.7004],[94.7173,16.6913],[94.7097,16.6537],[94.733,16.629],[94.6784,16.6436],[94.6989,16.6798],[94.6889,16.7396],[94.6936,16.6767],[94.6754,16.6933],[94.6823,16.6714],[94.6688,16.6524],[94.6511,16.6702],[94.6557,16.6579],[94.6743,16.6497],[94.6581,16.6276],[94.6913,16.6391],[94.7012,16.6217],[94.6924,16.5549],[94.6644,16.5184],[94.6796,16.3932],[94.6529,16.3403],[94.6233,16.338],[94.6403,16.3836],[94.6062,16.3372],[94.5997,16.2809],[94.5624,16.2586],[94.5311,16.2921],[94.5464,16.308],[94.5119,16.2832],[94.5109,16.1802],[94.4218,16.0595],[94.3681,16.0546],[94.3419,16.0163],[94.2827,16.0],[94.2457,15.9528],[94.1976,16.0363],[94.2285,16.2519],[94.2433,16.2647],[94.2309,16.3217],[94.2643,16.3968],[94.2771,16.4963],[94.2615,16.5308],[94.2907,16.5386],[94.2897,16.5191],[94.3149,16.5196],[94.3503,16.5688],[94.3234,16.6004],[94.3508,16.6207],[94.3679,16.6149],[94.3563,16.6903],[94.3759,16.7572],[94.4039,16.7884],[94.3788,16.8748],[94.3885,16.907],[94.4106,16.8895],[94.4434,16.9306],[94.484,16.9432],[94.4782,16.9576],[94.443,16.9481],[94.4582,16.9806],[94.4567,17.0673],[94.4896,17.1177],[94.4558,17.1417],[94.4447,17.179],[94.4644,17.1882],[94.4993,17.1568],[94.5216,17.1687],[94.5363,17.1869],[94.5014,17.2162],[94.5083,17.2999],[94.5264,17.2768],[94.5464,17.2903],[94.5409,17.319],[94.5815,17.2885],[94.5917,17.3042],[94.5715,17.3171],[94.5654,17.4983],[94.5416,17.5488],[94.563,17.5931],[94.6099,17.5365],[94.6111,17.5501],[94.5769,17.5914],[94.5884,17.6192],[94.5693,17.6453],[94.5588,17.6362],[94.5416,17.6813],[94.5448,17.7349],[94.4898,17.7824],[94.4815,17.9029],[94.4375,17.9956],[94.4808,18.0107],[94.4817,18.0676],[94.7922,18.7061],[96.0679,19.2289],[96.8531,19.4669],[96.4486,21.1563],[96.9245,21.5846],[96.9245,21.9891],[96.401,22.4412],[96.4248,22.6315],[96.3059,23.3692],[96.5438,23.9403],[96.8293,24.0116],[96.9721,23.7499],[97.2576,23.7023],[97.4242,24.1306],[97.5432,24.7969],[97.8763,25.4393],[97.6859,26.1769],[97.329,26.2483],[97.21,25.8438],[97.1863,25.4869],[96.9483,25.4869],[96.6628,25.7962],[96.9721,26.5815],[96.5914,26.867],[96.0917,26.748],[95.3779,25.9152],[94.6402,24.7017],[94.0454,23.393],[93.9264,22.6791],[93.974,21.8463],[94.1405,21.1563],[94.1643,20.6566],[93.4981,20.7994],[92.5197,21.7386],[92.5696,21.8813],[92.582,21.9909],[92.5405,22.0838],[92.3243,22.4121],[92.2869,22.4982],[92.2744,22.7135],[92.2993,22.8558],[92.2661,23.0476],[92.3035,23.3484],[92.2287,23.5135],[92.1996,23.5465],[92.0416,23.563],[91.946,23.5234],[91.8587,23.3814],[91.7838,23.1534],[91.7672,23.0311],[91.734,22.9914],[91.6175,22.9716],[91.5219,23.0212],[91.3723,23.0576],[91.2559,23.1634],[91.2351,23.1997],[91.1893,23.7412],[91.1893,23.8137],[91.2184,23.9456],[91.2974,24.0214],[91.3681,24.1235],[91.4762,24.2157],[91.7381,24.298],[91.7838,24.3309],[91.8545,24.4691],[91.9293,24.5645],[92.0832,24.6927],[92.3077,24.8241],[92.3201,24.88],[92.2702,24.9489],[92.1788,24.9785],[91.6591,25.0113],[91.2642,25.054],[90.915,25.113],[90.7362,25.159],[90.3953,25.1655],[90.2165,25.1852],[89.7509,25.3393],[89.6969,25.4115],[89.6927,25.5098],[89.701,25.572],[89.7467,25.667],[89.7883,25.8928],[89.7551,25.968],[89.701,25.9974],[89.5347,25.9647],[89.3934,25.9811],[89.2853,26.0171],[89.2146,26.0661],[89.0275,26.2393],[88.907,26.2818],[88.6617,26.3079],[88.5702,26.4646],[88.5203,26.507],[88.4039,26.5657],[88.3623,26.6179],[88.142,26.7418],[88.1046,26.8038],[88.0755,26.8657],[88.0921,26.9211],[88.0298,27.0806],[87.9965,27.2824],[88.009,27.6626],[88.063,27.9287],[88.158,28.0745],[88.2167,28.1203],[88.6277,28.2621],[88.7452,28.2621],[88.9448,28.1706],[89.0153,28.0745],[89.0329,27.9966],[89.0094,27.7034],[88.942,27.4832],[88.94,27.3929],[88.9622,27.32],[89.2724,26.9805],[89.4061,26.9233],[89.5419,26.9011],[89.623,26.9296],[89.698,26.9963],[89.7973,27.0281],[89.9595,27.0297],[90.2088,26.99],[90.6834,26.953],[91.0219,26.9806],[91.2969,27.0635],[91.5578,27.0414],[91.8187,27.0579],[91.9457,27.1021],[92.0021,27.1849],[91.995,27.2401],[91.9457,27.3229],[91.8893,27.3504],[91.8681,27.389],[91.7764,27.4607],[91.6424,27.5379],[91.5578,27.6261],[91.5225,27.6756],[91.5225,27.7307],[91.5437,27.7803],[91.6283,27.8243],[91.9104,27.8738],[92.1854,27.9894],[92.5028,28.0609],[92.9612,28.4839],[93.1093,28.5552],[93.1657,28.6046],[93.208,28.6869],[93.3067,28.7746],[93.6311,28.9116],[93.8427,28.939],[93.9978,28.928],[94.1177,28.9554],[94.2164,29.0321],[94.3363,29.1579],[94.569,29.2892],[94.6748,29.3111],[94.8229,29.3111],[95.1967,29.2017],[95.2742,29.1962],[95.4929,29.1251],[95.655,29.1306],[95.9512,29.2728],[96.0359,29.2947],[96.1416,29.2947],[96.2827,29.2236],[96.7129,28.7362],[96.8892,28.6101],[97.1219,28.407],[97.277,28.3137],[97.3475,28.3082],[97.3757,28.3301],[97.3546,28.4345],[97.3899,28.4729],[97.5309,28.5058],[97.6014,28.4949],[97.7142,28.4345],[97.7777,28.3631],[97.7848,28.2862],[97.8553,28.1818],[97.9681,28.1268],[98.0,28.0963],[98.0,24.922],[97.7566,24.6327],[97.6719,24.4765],[97.6508,24.4207],[97.6719,24.337],[97.6437,24.1974],[97.679,24.1248],[97.7636,24.041],[97.82,24.013],[98.0,24.0735],[98.0,15.5396],[97.6154,16.4314],[97.6253,16.5],[97.6486,16.4984],[97.6621,16.5123],[97.6624,16.4765],[97.6823,16.4655],[97.7025,16.4706],[97.7044,16.4501],[97.7232,16.4502],[97.7199,16.4268],[97.7539,16.4141],[97.7355,16.4023],[97.7334,16.3833],[97.7784,16.3746],[97.7974,16.354],[97.7858,16.3396],[97.7874,16.3327],[97.8346,16.3236],[97.8518,16.2976],[97.8883,16.2839],[97.8521,16.3024],[97.8441,16.3234],[97.7924,16.3327],[97.8031,16.3534],[97.7905,16.3703],[97.7614,16.386],[97.7372,16.386],[97.7578,16.4177],[97.7289,16.4247],[97.7259,16.4541],[97.7068,16.4536],[97.7023,16.474],[97.6641,16.48],[97.6755,16.5007],[97.6684,16.5455],[97.7465,16.5616],[97.7089,16.5706],[97.6685,16.5549],[97.6441,16.6134],[97.6214,16.6432],[97.6076,16.581],[97.6264,16.5585],[97.6232,16.5214],[97.5716,16.533],[97.4463,16.8236],[97.2781,16.8505],[97.2659,16.8701],[97.2695,16.8499],[97.2299,16.8711],[97.2163,16.8465],[97.1983,16.8454],[97.2191,16.9379],[97.1906,16.8911],[97.1749,16.8905],[97.1693,16.9107],[97.2066,17.0126],[97.1547,17.0679],[97.1533,17.0952],[97.1909,17.1169],[97.2134,17.0874],[97.2646,17.1036],[97.2278,17.1029],[97.2063,17.1338],[97.1791,17.1294],[97.1365,17.1162],[97.1343,17.0806],[97.1143,17.0778],[97.0887,17.1652],[97.1067,17.1878],[97.0833,17.1817],[97.0592,17.2533],[97.0003,17.2668],[97.0091,17.3],[96.9116,17.357],[96.8832,17.4541],[96.8649,17.3961],[96.8434,17.3893],[96.849,17.4134],[96.8209,17.4331],[96.7944,17.4883],[96.7859,17.4899],[96.7344,17.4353],[96.7735,17.3764],[96.7225,17.3474],[96.6924,17.3664],[96.6498,17.3383],[96.6683,17.2691],[96.6962,17.2479],[96.7086,17.2545],[96.6769,17.2675],[96.6854,17.3453],[96.7251,17.3382],[96.8366,17.3809],[96.8401,17.3648],[96.8443,17.3762],[96.8597,17.3614],[96.856,17.3431],[96.863,17.3527],[96.9111,17.3214],[96.8907,17.3119],[96.9129,17.3049],[96.9024,17.2717],[96.8335,17.2052],[96.8487,17.2008],[96.8771,17.1122],[96.9001,17.0889],[96.9121,17.0177],[96.8737,16.911],[96.8383,16.9272],[96.8509,16.9591],[96.8346,16.9511],[96.8316,16.9194],[96.8552,16.8876],[96.8359,16.9046],[96.8251,16.8937],[96.8073,16.9106],[96.7968,16.9065],[96.8333,16.8788],[96.8531,16.8372],[96.8078,16.7555],[96.7808,16.7817],[96.7746,16.7731],[96.8013,16.7397],[96.7799,16.7033],[96.5964,16.5366],[96.4938,16.5046],[96.3837,16.4966],[96.2847,16.5537],[96.2867,16.5918],[96.3336,16.6234],[96.4269,16.6076],[96.4699,16.6127],[96.3313,16.6287],[96.2874,16.6001],[96.2777,16.5775],[96.2637,16.6474],[96.2348,16.6789],[96.2228,16.7542],[96.3156,16.8334],[96.3456,16.8334],[96.3941,16.8594],[96.4084,16.8552],[96.4861,16.8699],[96.5119,16.8882],[96.4839,16.8731],[96.3948,16.864],[96.3244,16.8384],[96.32,16.869],[96.3477,16.9059],[96.3007,16.8638],[96.298,16.8408],[96.2776,16.8693],[96.3037,16.8261],[96.2035,16.7632],[96.1848,16.7765],[96.195,16.7898],[96.1915,16.7999],[96.2124,16.7983],[96.2246,16.8111],[96.2182,16.8412],[96.2089,16.8458],[96.2203,16.8109],[96.1917,16.8059],[96.1802,16.7768],[96.1973,16.7597],[96.1288,16.7711],[96.1208,16.8137],[96.1155,16.8122],[96.1319,16.7589],[96.119,16.7566],[96.1921,16.7409],[96.2158,16.6707],[96.2438,16.6493],[96.2366,16.6077],[96.1735,16.5831],[96.1736,16.5163],[96.1926,16.4892],[96.1776,16.483],[96.1826,16.4697]]]]}}