{"type":"Feature","properties":{"speciesId":589,"category":"LC","source":"IUCN Red List","simplifyTol":0.01,"clippedToSubcontinent":true},"geometry":{"type":"Polygon","coordinates":[[[96.3208,23.5067],[96.1144,25.7619],[95.5043,27.2082],[94.1887,26.4185],[93.3321,25.5575],[92.784,25.6943],[92.2599,26.0464],[90.7494,26.1656],[89.6758,26.2218],[89.9521,27.2419],[91.0865,27.2091],[92.347,27.3077],[93.8612,27.1909],[95.9645,27.9149],[97.7165,27.3103],[98.0,27.6834],[98.0,22.1793],[96.3208,23.5067]]]}}