{"type":"Feature","properties":{"speciesId":597,"category":"DD","source":"IUCN Red List","simplifyTol":0.01,"clippedToSubcontinent":true},"geometry":{"type":"MultiPolygon","coordinates":[[[[78.0524,10.0846],[77.9703,10.0917],[77.928,10.1445],[77.9209,10.2009],[77.9632,10.2749],[77.9914,10.289],[78.0621,10.2761],[78.1076,10.2326],[78.1323,10.1833],[78.1111,10.1199],[78.0524,10.0846]]],[[[77.4595,10.0917],[77.3328,10.134],[77.3095,10.2447],[77.3493,10.3049],[77.4769,10.3639],[77.6533,10.377],[77.7061,10.3524],[77.7272,10.289],[77.7026,10.1939],[77.6419,10.1797],[77.5744,10.1316],[77.4595,10.0917]]]]}}