{"type":"Feature","properties":{"speciesId":600,"category":"LC","source":"IUCN Red List","simplifyTol":0.01,"clippedToSubcontinent":true},"geometry":{"type":"MultiPolygon","coordinates":[[[[77.4559,8.3481],[77.2607,8.3611],[77.0655,8.6604],[77.0265,9.0508],[76.9137,9.4851],[76.7573,9.8372],[76.6399,10.2674],[76.4148,10.6645],[76.2457,11.081],[76.2066,11.3543],[76.3498,11.7056],[76.9919,12.2231],[77.495,12.4214],[78.0936,12.7598],[78.6738,12.8098],[79.2214,12.7706],[79.5512,12.5125],[79.6293,12.2652],[79.4861,11.9529],[79.1432,11.7537],[78.9085,11.4017],[78.6792,10.9378],[78.3018,10.6906],[78.0025,10.4693],[77.8464,9.8186],[77.7292,9.5974],[77.521,9.4673],[77.4429,9.2721],[77.495,8.9337],[77.6251,8.6344],[77.6121,8.4652],[77.4559,8.3481]]],[[[74.2486,14.6996],[74.246,14.702],[74.2488,14.7011],[74.2486,14.6996]]],[[[74.3985,14.3133],[74.3938,14.3089],[74.3921,14.3117],[74.3985,14.3133]]],[[[74.2345,14.7079],[74.2316,14.7096],[74.2353,14.7098],[74.2345,14.7079]]],[[[74.1451,14.7215],[74.1419,14.7216],[74.1435,14.7234],[74.1451,14.7215]]],[[[74.1524,14.7386],[74.1492,14.7349],[74.1488,14.7389],[74.1524,14.7386]]],[[[74.1152,14.754],[74.1034,14.7558],[74.1052,14.7621],[74.1152,14.754]]],[[[83.0154,17.9145],[82.8704,17.944],[82.753,18.0232],[82.6713,18.1466],[82.6443,18.2856],[82.6713,18.4246],[82.753,18.548],[82.8704,18.6272],[83.0154,18.6567],[83.1604,18.6272],[83.2777,18.548],[83.3569,18.4306],[83.3864,18.2856],[83.3569,18.1406],[83.2777,18.0232],[83.1604,17.944],[83.0154,17.9145]]],[[[84.8154,19.1448],[84.8018,19.1129],[84.7301,19.1764],[84.6795,19.2514],[84.6486,19.3364],[84.6459,19.4907],[84.7062,19.6327],[84.8135,19.7346],[84.9457,19.7853],[85.0936,19.7814],[85.223,19.7238],[85.2944,19.6584],[85.3464,19.5768],[85.1224,19.4198],[85.0869,19.3687],[84.9609,19.2916],[84.8154,19.1448]]],[[[73.6673,20.4253],[73.5165,20.4546],[73.3826,20.5432],[73.294,20.6771],[73.2646,20.8279],[73.294,20.9788],[73.3826,21.1127],[73.5165,21.2013],[73.6673,21.2306],[73.8182,21.2013],[73.9521,21.1127],[74.038,20.9853],[74.07,20.8279],[74.038,20.6706],[73.9521,20.5432],[73.8182,20.4546],[73.6673,20.4253]]],[[[77.344,21.1173],[77.2179,21.1418],[77.1061,21.2158],[77.0343,21.3223],[77.0075,21.4538],[77.0343,21.5852],[77.1061,21.6917],[77.2125,21.7635],[77.344,21.7902],[77.4754,21.7635],[77.5819,21.6917],[77.6559,21.5798],[77.6804,21.4538],[77.6559,21.3277],[77.5819,21.2158],[77.47,21.1418],[77.344,21.1173]]],[[[74.919,15.2739],[75.1927,14.9219],[75.2319,14.5698],[75.4274,14.0614],[75.5057,12.9662],[75.3101,12.8098],[75.0363,12.7315],[74.919,13.0053],[74.6843,13.6702],[74.6122,13.8288],[74.6058,13.8523],[74.6169,13.8576],[74.5593,13.9451],[74.4356,14.2273],[74.3953,14.4186],[74.3765,14.4165],[74.3538,14.5117],[74.3052,14.5196],[74.2912,14.5931],[74.2635,14.6245],[74.2946,14.6402],[74.2751,14.6467],[74.2756,14.6779],[74.2537,14.7068],[74.2633,14.7094],[74.2647,14.7201],[74.2582,14.7122],[74.2215,14.7472],[74.1993,14.7176],[74.1765,14.7446],[74.1477,14.7464],[74.1341,14.7778],[74.1039,14.7843],[74.0911,14.8021],[74.1171,14.8034],[74.1249,14.8405],[74.1079,14.8451],[74.0912,14.8945],[74.0388,14.9156],[74.0487,14.9568],[74.0298,14.9815],[74.0461,14.9869],[73.9888,15.0214],[73.8537,15.4015],[73.8757,15.3984],[73.8899,15.4192],[73.8376,15.4465],[73.7456,15.7041],[73.7456,15.8606],[73.9802,16.0561],[74.606,15.8606],[74.606,15.5868],[74.919,15.2739]]],[[[74.0833,14.7935],[74.0817,14.791],[74.0817,14.7939],[74.0833,14.7935]]],[[[74.0961,14.8432],[74.0918,14.8414],[74.0919,14.8455],[74.0961,14.8432]]],[[[74.1,14.8622],[74.0991,14.8645],[74.0999,14.8645],[74.1,14.8622]]],[[[74.0919,14.8759],[74.0891,14.8748],[74.0899,14.8778],[74.0919,14.8759]]]]}}