{"type":"Feature","properties":{"speciesId":601,"category":"NT","source":"IUCN Red List","simplifyTol":0.01,"clippedToSubcontinent":true},"geometry":{"type":"Polygon","coordinates":[[[76.8783,10.4698],[77.0918,10.4417],[77.1564,10.4108],[77.2098,10.3434],[77.2548,10.3322],[77.3166,10.3574],[77.4964,10.3574],[77.6341,10.4108],[77.7043,10.3715],[77.7661,10.3659],[77.7745,10.3209],[77.6678,10.2423],[77.3053,10.0652],[77.2491,10.0203],[77.1452,10.0006],[77.0384,10.0231],[76.9485,10.1158],[76.7378,10.2703],[76.6029,10.3322],[76.5832,10.4024],[76.5832,10.4839],[76.6479,10.5401],[76.7294,10.5597],[76.8783,10.4698]]]}}