{"type":"Feature","properties":{"speciesId":602,"category":"DD","source":"IUCN Red List","simplifyTol":0.01,"clippedToSubcontinent":true},"geometry":{"type":"MultiPolygon","coordinates":[[[[77.2739,8.2416],[77.2446,8.274],[77.2847,8.2895],[77.294,8.2524],[77.2739,8.2416]]],[[[77.3943,8.5365],[77.3773,8.5674],[77.3866,8.5874],[77.419,8.5921],[77.4437,8.5488],[77.3943,8.5365]]],[[[77.3742,9.7449],[77.4307,9.7472],[77.4431,9.7291],[77.4295,9.6986],[77.4623,9.6941],[77.4194,9.6432],[77.3934,9.6432],[77.3459,9.6896],[77.3425,9.7043],[77.3719,9.7235],[77.3696,9.7585],[77.3742,9.7449]]]]}}