{"type":"Feature","properties":{"speciesId":605,"category":"DD","source":"IUCN Red List","simplifyTol":0.01,"clippedToSubcontinent":true},"geometry":{"type":"MultiPolygon","coordinates":[[[[77.191,8.4592],[77.0643,8.4838],[76.9517,8.5583],[76.8773,8.6708],[76.8526,8.7976],[76.8773,8.9244],[76.9517,9.0369],[77.0643,9.1114],[77.191,9.136],[77.3178,9.1114],[77.4303,9.0369],[77.5048,8.9244],[77.5294,8.7976],[77.5048,8.6708],[77.4303,8.5583],[77.3178,8.4838],[77.191,8.4592]]],[[[77.0583,9.9922],[76.934,10.0164],[76.8237,10.0894],[76.7506,10.1997],[76.7265,10.324],[76.7528,10.4537],[76.8237,10.5587],[76.934,10.6317],[77.0583,10.6558],[77.188,10.6295],[77.2929,10.5587],[77.3638,10.4537],[77.3901,10.324],[77.366,10.1997],[77.2929,10.0894],[77.188,10.0186],[77.0583,9.9922]]]]}}