{"type":"Feature","properties":{"speciesId":609,"category":"LC","source":"IUCN Red List","simplifyTol":0.01,"clippedToSubcontinent":true},"geometry":{"type":"MultiPolygon","coordinates":[[[[77.524,8.2236],[77.3568,8.2793],[77.2358,8.4633],[77.1186,8.6802],[77.0659,8.9029],[77.0781,9.1991],[76.9662,9.4949],[76.8021,9.782],[76.808,10.0048],[76.7552,10.2041],[76.5485,10.3697],[76.5325,10.5264],[76.5852,10.6847],[76.7611,10.6788],[76.8551,10.6485],[77.1617,10.537],[77.4683,10.3976],[77.6754,10.3916],[77.7282,10.2744],[77.6461,10.1572],[77.4586,10.0692],[77.2944,9.8934],[77.3568,9.7287],[77.4996,9.6004],[77.3472,9.1666],[77.3289,8.9204],[77.524,8.6695],[77.6077,8.3351],[77.524,8.2236]]],[[[76.5501,11.007],[76.3813,11.0108],[76.1808,11.0598],[76.0577,11.2239],[76.0577,11.4408],[76.1632,11.5521],[76.3039,11.5756],[76.7845,11.5521],[76.9135,11.5111],[76.9604,11.429],[76.9545,11.3001],[76.849,11.1536],[76.7083,11.0656],[76.5501,11.007]]],[[[78.3946,22.2191],[78.224,22.2648],[78.1234,22.4232],[78.1904,22.6426],[78.3881,22.717],[78.5653,22.6823],[78.6323,22.5147],[78.5957,22.3105],[78.3946,22.2191]]]]}}