{"type":"Feature","properties":{"speciesId":610,"category":"DD","source":"IUCN Red List","simplifyTol":0.01,"clippedToSubcontinent":true},"geometry":{"type":"Polygon","coordinates":[[[77.018,10.3849],[77.1811,10.4121],[77.1593,10.3252],[77.2083,10.2871],[77.3441,10.3469],[77.4257,10.3523],[77.442,10.3252],[77.5127,10.3306],[77.5779,10.3578],[77.6431,10.3578],[77.6648,10.3252],[77.6268,10.2762],[77.5181,10.2273],[77.4311,10.1458],[77.2191,10.0588],[77.1322,10.0588],[76.9854,10.1675],[76.9636,10.211],[76.8658,10.2654],[76.8495,10.3197],[76.8984,10.3252],[76.931,10.3904],[76.9691,10.4176],[77.018,10.3849]]]}}