{"type":"Feature","properties":{"speciesId":611,"category":"VU","source":"IUCN Red List","simplifyTol":0.01,"clippedToSubcontinent":true},"geometry":{"type":"MultiPolygon","coordinates":[[[[73.7973,19.3295],[73.9356,19.1221],[73.967,18.9963],[73.967,18.5249],[73.9419,18.3489],[73.7596,18.1478],[73.5585,18.085],[73.2631,18.1478],[73.1437,18.2798],[73.0997,18.3678],[73.0871,18.8706],[73.0745,18.9649],[73.0478,18.995],[73.0908,18.9988],[73.0667,19.0143],[73.0847,19.0314],[73.0644,19.0292],[73.0904,19.0457],[73.0325,19.0122],[72.9984,19.0191],[72.9764,19.1707],[72.9642,19.1353],[72.9522,19.1374],[72.9569,19.1077],[72.9307,19.0904],[72.9472,19.068],[72.9137,19.0744],[72.9517,19.0432],[72.9153,19.0047],[72.8545,19.0655],[72.8105,19.1535],[72.7987,19.3008],[72.8517,19.316],[72.9155,19.2908],[72.869,19.3343],[72.8509,19.3431],[72.8011,19.3326],[72.8419,19.5558],[72.9111,19.6689],[73.0242,19.7632],[73.0808,19.782],[73.2568,19.7883],[73.4265,19.738],[73.4956,19.6752],[73.7156,19.3986],[73.7973,19.3295]]],[[[73.0594,19.0065],[73.0493,19.0066],[73.0566,19.0171],[73.0594,19.0065]]],[[[72.8672,19.3274],[72.8447,19.3312],[72.838,19.3354],[72.8516,19.3378],[72.8672,19.3274]]]]}}