{"type":"Feature","properties":{"speciesId":613,"category":"LC","source":"IUCN Red List","simplifyTol":0.01,"clippedToSubcontinent":true},"geometry":{"type":"MultiPolygon","coordinates":[[[[76.9543,10.1575],[76.9038,10.2217],[76.8946,10.3228],[76.9727,10.3687],[77.0094,10.3641],[77.0508,10.2677],[77.0508,10.2263],[77.0003,10.1712],[76.9543,10.1575]]],[[[77.2161,8.261],[77.1885,8.2748],[77.1793,8.3391],[77.2115,8.3667],[77.2528,8.3391],[77.2666,8.2886],[77.2666,8.2702],[77.2161,8.261]]],[[[77.2895,8.7937],[77.3355,8.7156],[77.2804,8.6927],[77.2758,8.6468],[77.3079,8.6192],[77.3538,8.6008],[77.5375,8.5871],[77.5237,8.5549],[77.464,8.5549],[77.5099,8.4723],[77.5099,8.4401],[77.4916,8.4218],[77.5329,8.3942],[77.5283,8.3667],[77.4824,8.3207],[77.4227,8.4172],[77.3538,8.4723],[77.2895,8.4998],[77.2161,8.6008],[77.1747,8.6192],[77.138,8.7202],[77.1013,8.7386],[77.1013,8.7616],[77.1564,8.7661],[77.1702,8.7937],[77.1702,8.8121],[77.1059,8.858],[77.1472,8.8718],[77.1793,8.835],[77.2161,8.835],[77.1518,8.9223],[77.1793,8.936],[77.2528,8.9131],[77.3033,8.8534],[77.2895,8.7937]]]]}}