{"type":"Feature","properties":{"speciesId":614,"category":"LC","source":"IUCN Red List","simplifyTol":0.01,"clippedToSubcontinent":true},"geometry":{"type":"Polygon","coordinates":[[[76.7821,10.9475],[76.8794,10.9475],[76.6847,10.861],[76.7172,10.7313],[76.7712,10.5907],[76.8469,10.5474],[76.9767,10.4393],[77.02,10.5258],[77.1173,10.4825],[77.2795,10.4501],[77.3336,10.3852],[77.4417,10.3852],[77.6472,10.4393],[77.7445,10.4825],[77.8202,10.4068],[77.7986,10.2879],[77.6472,10.2338],[77.3877,10.0824],[77.2795,10.0716],[77.2579,9.8985],[77.3012,9.758],[77.1822,9.6066],[77.2363,9.5633],[77.3228,9.6714],[77.3769,9.812],[77.485,9.8661],[77.5823,9.758],[77.4742,9.5092],[77.3877,9.4335],[77.3552,9.2929],[77.2795,9.174],[77.1606,9.1956],[77.0957,9.3362],[77.0849,9.466],[76.9118,9.7147],[76.8794,9.9959],[76.9226,10.1365],[76.8794,10.2662],[76.7388,10.2771],[76.6307,10.3419],[76.7064,10.5042],[76.7064,10.6556],[76.6415,10.8286],[76.5874,10.9151],[76.5658,11.0232],[76.4576,11.0341],[76.3927,11.1206],[76.436,11.3261],[76.4036,11.4883],[76.5009,11.7694],[76.5766,12.2236],[76.7496,12.6995],[76.8794,12.8076],[77.0524,12.8076],[77.0849,12.7644],[77.0957,12.6454],[77.0741,12.5373],[76.9335,12.2453],[76.8253,11.8668],[76.8037,11.7262],[76.8253,11.6397],[76.9984,11.4666],[76.9767,11.4126],[76.7712,11.2287],[76.8037,11.1855],[76.901,11.1638],[76.9443,11.0881],[76.9118,11.0016],[76.7929,11.0016],[76.7821,10.9475]]]}}