{"type":"Feature","properties":{"speciesId":616,"category":"LC","source":"IUCN Red List","simplifyTol":0.01,"clippedToSubcontinent":true},"geometry":{"type":"Polygon","coordinates":[[[76.8883,10.4521],[76.9563,10.4521],[77.0145,10.423],[77.131,10.4036],[77.2183,10.3502],[77.5192,10.3454],[77.6211,10.4133],[77.7764,10.3939],[77.7618,10.292],[77.6308,10.2338],[77.5095,10.1561],[77.3251,10.1076],[77.2571,9.9814],[77.2377,9.5349],[77.2668,9.4476],[77.2814,9.2923],[77.2765,8.904],[77.3202,8.6954],[77.3445,8.6565],[77.4513,8.574],[77.524,8.4188],[77.5289,8.3605],[77.5046,8.3071],[77.4658,8.3168],[77.4367,8.4139],[77.3105,8.4915],[77.1843,8.608],[77.1407,8.7148],[77.1601,9.1273],[77.1115,9.2486],[77.0921,9.3554],[77.0727,9.6271],[77.097,9.7485],[77.0921,9.8843],[77.0776,9.9814],[77.0339,10.0833],[76.9465,10.1852],[76.864,10.2386],[76.801,10.2386],[76.6117,10.3599],[76.5729,10.4424],[76.6214,10.5055],[76.7621,10.5589],[76.8883,10.4521]]]}}