{"type":"Feature","properties":{"speciesId":618,"category":"EN","source":"IUCN Red List","simplifyTol":0.01,"clippedToSubcontinent":true},"geometry":{"type":"MultiPolygon","coordinates":[[[[86.7645,20.3138],[86.7593,20.3142],[86.761,20.3156],[86.7645,20.3138]]],[[[86.7981,20.3886],[86.7909,20.4204],[86.8043,20.4822],[86.8161,20.4409],[86.7981,20.3886]]],[[[88.1948,21.5545],[88.1999,21.57],[88.214,21.5284],[88.1899,21.5446],[88.1738,21.5858],[88.1948,21.5545]]],[[[88.5488,21.5337],[88.5304,21.5249],[88.4864,21.5467],[88.4997,21.5997],[88.5382,21.5822],[88.5488,21.5337]]],[[[88.8767,21.5333],[88.8353,21.5592],[88.8438,21.6063],[88.9085,21.5719],[88.9119,21.5463],[88.8767,21.5333]]],[[[88.5654,21.556],[88.5161,21.6059],[88.5266,21.6569],[88.5929,21.607],[88.5955,21.5862],[88.5654,21.556]]],[[[88.6459,21.6462],[88.6324,21.6546],[88.6509,21.6829],[88.6459,21.6462]]],[[[88.3518,21.6872],[88.3508,21.6151],[88.3264,21.6021],[88.316,21.615],[88.3233,21.7035],[88.3518,21.6872]]],[[[88.5229,21.7156],[88.572,21.6819],[88.5599,21.6377],[88.5332,21.6558],[88.5229,21.7156]]],[[[88.2186,21.6736],[88.2331,21.6742],[88.2393,21.647],[88.2218,21.6272],[88.2219,21.6019],[88.1876,21.6808],[88.2151,21.7158],[88.2211,21.7034],[88.2026,21.6903],[88.2186,21.6736]]],[[[88.762,21.6462],[88.7787,21.6526],[88.782,21.6162],[88.8062,21.5887],[88.7996,21.5749],[88.7391,21.5609],[88.7126,21.5765],[88.7252,21.6306],[88.6902,21.6844],[88.6971,21.7184],[88.7103,21.6829],[88.762,21.6462]]],[[[89.3542,21.7008],[89.3353,21.6995],[89.3422,21.7214],[89.3542,21.7008]]],[[[88.2152,21.722],[88.1999,21.7108],[88.212,21.7319],[88.2152,21.722]]],[[[88.3078,21.7303],[88.3014,21.7282],[88.3016,21.7348],[88.3078,21.7303]]],[[[90.3603,21.7406],[90.3554,21.7449],[90.3622,21.7465],[90.3603,21.7406]]],[[[89.2843,21.7036],[89.2613,21.6969],[89.2926,21.6939],[89.2953,21.6711],[89.2631,21.65],[89.1998,21.6592],[89.2319,21.7014],[89.2199,21.7399],[89.2401,21.7552],[89.2917,21.7472],[89.2843,21.7036]]],[[[88.3724,21.7312],[88.4033,21.7103],[88.3778,21.6847],[88.3606,21.6916],[88.3486,21.7126],[88.3573,21.7176],[88.36,21.7617],[88.4005,21.7602],[88.3724,21.7312]]],[[[90.4467,21.7712],[90.4403,21.7679],[90.4396,21.7701],[90.4467,21.7712]]],[[[88.2156,21.7564],[88.2088,21.7409],[88.21,21.7763],[88.2156,21.7564]]],[[[88.6158,21.7249],[88.5867,21.7213],[88.5905,21.7451],[88.5729,21.7718],[88.587,21.7766],[88.5909,21.7566],[88.6224,21.7421],[88.6158,21.7249]]],[[[88.6178,21.7021],[88.6055,21.7109],[88.6277,21.7412],[88.5968,21.7582],[88.5942,21.7781],[88.6169,21.788],[88.6377,21.7533],[88.6178,21.7021]]],[[[88.118,21.7844],[88.1454,21.7562],[88.1315,21.7347],[88.1449,21.7002],[88.1361,21.6857],[88.1507,21.6709],[88.1466,21.6232],[88.0993,21.639],[88.0858,21.6304],[88.0496,21.6523],[88.0901,21.7851],[88.118,21.7844]]],[[[88.298,21.7928],[88.3134,21.7922],[88.3183,21.7914],[88.3091,21.7865],[88.298,21.7928]]],[[[88.4865,21.7932],[88.4591,21.7264],[88.4841,21.675],[88.4526,21.6002],[88.4295,21.6003],[88.4483,21.6233],[88.427,21.6599],[88.4273,21.6899],[88.4436,21.7026],[88.4366,21.7671],[88.4564,21.7929],[88.4865,21.7932]]],[[[88.5304,21.782],[88.5145,21.7764],[88.5298,21.7965],[88.5304,21.782]]],[[[88.3873,21.7702],[88.3684,21.7709],[88.3493,21.7566],[88.3528,21.7212],[88.3365,21.7285],[88.3345,21.7054],[88.3143,21.7168],[88.3144,21.7844],[88.3309,21.7846],[88.3603,21.7984],[88.3864,21.7918],[88.3873,21.7702]]],[[[88.58,21.7201],[88.6154,21.679],[88.6017,21.6541],[88.6125,21.6055],[88.5642,21.6419],[88.5808,21.6629],[88.5699,21.7091],[88.5233,21.7224],[88.5069,21.7573],[88.5331,21.7746],[88.5469,21.8165],[88.5779,21.7923],[88.5666,21.7684],[88.58,21.7201]]],[[[89.7904,21.8225],[89.7773,21.8151],[89.7733,21.8198],[89.7904,21.8225]]],[[[88.5096,21.8101],[88.4734,21.8011],[88.4606,21.8159],[88.4925,21.8357],[88.5096,21.8101]]],[[[90.4365,21.8359],[90.4281,21.8175],[90.4142,21.8272],[90.4365,21.8359]]],[[[90.3173,21.8476],[90.3152,21.8232],[90.2964,21.835],[90.3173,21.8476]]],[[[89.6231,21.7109],[89.5581,21.7187],[89.5646,21.7513],[89.5313,21.8231],[89.5459,21.8493],[89.6102,21.7968],[89.5922,21.7519],[89.6231,21.7109]]],[[[88.6137,21.7971],[88.5834,21.8142],[88.6003,21.8509],[88.622,21.8302],[88.6137,21.7971]]],[[[89.7771,21.856],[89.7591,21.849],[89.7553,21.8507],[89.7771,21.856]]],[[[88.1917,21.8544],[88.1932,21.8362],[88.1811,21.8622],[88.1917,21.8544]]],[[[90.51,21.8506],[90.5028,21.868],[90.538,21.8673],[90.531,21.8569],[90.51,21.8506]]],[[[88.1791,21.8239],[88.1801,21.7304],[88.1542,21.6821],[88.1386,21.7341],[88.1523,21.7597],[88.1138,21.7999],[88.0944,21.7905],[88.1462,21.8823],[88.1791,21.8239]]],[[[89.3747,21.8824],[89.347,21.8143],[89.3432,21.7813],[89.3406,21.8292],[89.3284,21.8442],[89.329,21.8185],[89.3202,21.8415],[89.3747,21.8824]]],[[[89.6582,21.8587],[89.6452,21.8736],[89.6541,21.8891],[89.6633,21.8709],[89.6582,21.8587]]],[[[90.5626,21.8832],[90.5542,21.8824],[90.5613,21.8976],[90.5626,21.8832]]],[[[88.642,21.8673],[88.6618,21.87],[88.6451,21.7857],[88.6272,21.7976],[88.627,21.8319],[88.601,21.8612],[88.6242,21.8974],[88.642,21.8673]]],[[[88.0934,21.8569],[88.0821,21.8751],[88.0922,21.8982],[88.1093,21.8728],[88.0934,21.8569]]],[[[88.4991,21.8986],[88.4961,21.9076],[88.5028,21.9081],[88.4991,21.8986]]],[[[88.657,21.8745],[88.6408,21.8761],[88.6271,21.9038],[88.6414,21.9224],[88.6735,21.917],[88.657,21.8745]]],[[[88.1162,21.8816],[88.0922,21.9134],[88.0937,21.9267],[88.1279,21.8976],[88.1162,21.8816]]],[[[90.5781,21.9243],[90.5651,21.9237],[90.5727,21.9301],[90.5781,21.9243]]],[[[90.6378,21.8985],[90.6209,21.9111],[90.6282,21.9359],[90.6555,21.9128],[90.6378,21.8985]]],[[[90.3972,21.9326],[90.3869,21.9302],[90.3941,21.9377],[90.3972,21.9326]]],[[[89.9725,21.9238],[89.9434,21.9296],[89.9606,21.9471],[89.9725,21.9238]]],[[[90.654,21.9222],[90.6288,21.9403],[90.6301,21.944],[90.6494,21.9476],[90.654,21.9222]]],[[[90.5431,21.8757],[90.5061,21.8778],[90.5093,21.9068],[90.5244,21.9406],[90.5607,21.9596],[90.5707,21.9475],[90.5456,21.9173],[90.5563,21.8993],[90.5431,21.8757]]],[[[88.1422,21.8976],[88.099,21.9318],[88.1176,21.9629],[88.1543,21.928],[88.1422,21.8976]]],[[[89.5431,21.868],[89.5446,21.9589],[89.5495,21.9638],[89.565,21.9289],[89.5431,21.868]]],[[[90.3961,21.958],[90.3883,21.9603],[90.3958,21.9656],[90.3961,21.958]]],[[[90.0787,21.9526],[90.0953,21.9352],[90.0873,21.9],[90.1036,21.8865],[90.0644,21.8363],[90.0426,21.8319],[90.0194,21.8484],[90.0414,21.8442],[90.0217,21.8907],[90.0245,21.9466],[90.077,21.972],[90.0787,21.9526]]],[[[90.7172,21.9585],[90.7036,21.9613],[90.7099,21.9727],[90.7172,21.9585]]],[[[90.5146,21.9812],[90.4932,21.9323],[90.5012,21.9562],[90.4898,21.9609],[90.5146,21.9812]]],[[[90.3077,21.9587],[90.2712,21.8834],[90.2458,21.8987],[90.2753,21.9426],[90.2679,21.9696],[90.2862,21.9815],[90.3077,21.9587]]],[[[90.3303,21.9661],[90.3234,21.9739],[90.3317,21.9815],[90.3303,21.9661]]],[[[90.3851,21.9977],[90.355,21.8667],[90.3128,21.8557],[90.3036,21.8658],[90.3366,21.9548],[90.3496,21.9564],[90.3716,21.9963],[90.3851,21.9977]]],[[[90.5536,21.9927],[90.548,21.9916],[90.5577,22.0054],[90.5536,21.9927]]],[[[90.6835,21.9899],[90.6699,21.9968],[90.6687,22.0055],[90.6793,22.0038],[90.6835,21.9899]]],[[[88.6834,22.0024],[88.7183,22.0018],[88.7011,21.9599],[88.6871,21.9454],[88.6418,21.9509],[88.647,22.0036],[88.6639,22.0153],[88.6834,22.0024]]],[[[88.6877,22.0147],[88.6742,22.014],[88.6743,22.0171],[88.6877,22.0147]]],[[[90.5512,22.0073],[90.558,22.0227],[90.5618,22.0205],[90.5627,22.0093],[90.5512,22.0073]]],[[[88.102,21.9713],[88.0954,21.9897],[88.1346,22.0231],[88.1304,21.9842],[88.102,21.9713]]],[[[90.5155,21.9906],[90.4996,21.9977],[90.5072,22.0115],[90.5409,22.027],[90.5155,21.9906]]],[[[90.4039,22.0148],[90.3995,22.0273],[90.4015,22.0338],[90.4074,22.0266],[90.4039,22.0148]]],[[[90.4543,22.0273],[90.4715,21.9969],[90.4579,21.9207],[90.4001,21.8996],[90.4216,22.016],[90.4129,22.0321],[90.4543,22.0273]]],[[[90.4401,22.0439],[90.4316,22.0338],[90.4136,22.0404],[90.4401,22.0439]]],[[[90.6684,22.028],[90.6566,22.0346],[90.6579,22.0479],[90.6684,22.028]]],[[[90.6221,21.9849],[90.6115,21.9988],[90.6455,22.0513],[90.6481,22.0182],[90.6221,21.9849]]],[[[90.6855,22.0187],[90.6742,22.0232],[90.6691,22.0671],[90.7015,22.0616],[90.6855,22.0187]]],[[[90.3447,21.9619],[90.341,21.9894],[90.3518,22.0194],[90.3958,22.0706],[90.4087,22.0466],[90.3447,21.9619]]],[[[90.6646,22.067],[90.6559,22.0635],[90.6674,22.0801],[90.6646,22.067]]],[[[91.0491,22.0834],[91.0363,22.0839],[91.0367,22.0863],[91.0491,22.0834]]],[[[90.7527,22.0551],[90.7607,22.0875],[90.7763,22.0943],[90.7704,22.0781],[90.7527,22.0551]]],[[[90.5496,22.0163],[90.5394,22.007],[90.5491,22.0314],[90.5201,22.0312],[90.4915,22.0106],[90.5574,22.0982],[90.5496,22.0163]]],[[[90.3502,22.0981],[90.3751,22.0964],[90.3757,22.0796],[90.329,22.0288],[90.3076,21.9737],[90.2821,21.985],[90.284,22.0554],[90.3145,22.0777],[90.3159,22.086],[90.3473,22.0893],[90.3372,22.1034],[90.3502,22.0981]]],[[[90.4844,22.0437],[90.4821,22.0755],[90.5167,22.1057],[90.523,22.0807],[90.4844,22.0437]]],[[[91.0757,22.1064],[91.0613,22.1034],[91.0744,22.1086],[91.0757,22.1064]]],[[[90.5522,22.1054],[90.5056,22.0443],[90.531,22.0858],[90.5252,22.1097],[90.542,22.1173],[90.5522,22.1054]]],[[[90.5935,22.1025],[90.593,22.1161],[90.5964,22.1176],[90.5935,22.1025]]],[[[91.0842,22.128],[91.0542,22.1017],[91.0344,22.1048],[91.0576,22.1273],[91.0842,22.128]]],[[[90.6614,22.0905],[90.6315,22.0708],[90.633,22.0481],[90.6158,22.0458],[90.6238,22.0883],[90.6057,22.0544],[90.6228,22.0354],[90.6062,22.0237],[90.5951,22.0693],[90.6162,22.1069],[90.6394,22.1289],[90.6644,22.1249],[90.6614,22.0905]]],[[[90.5848,22.117],[90.5773,22.128],[90.5933,22.1292],[90.5954,22.1267],[90.5848,22.117]]],[[[91.0838,22.1321],[91.0693,22.1388],[91.0842,22.1351],[91.0838,22.1321]]],[[[91.0936,22.1349],[91.0677,22.1422],[91.0397,22.1309],[91.0462,22.1754],[91.103,22.1569],[91.0936,22.1349]]],[[[90.5107,22.1361],[90.5097,22.1749],[90.5449,22.1737],[90.5386,22.1519],[90.5107,22.1361]]],[[[90.6168,22.1767],[90.6113,22.1743],[90.6161,22.1831],[90.6168,22.1767]]],[[[91.0396,22.1839],[91.0333,22.1946],[91.0382,22.2043],[91.0461,22.1954],[91.0396,22.1839]]],[[[90.9512,22.1168],[90.9211,22.1356],[90.9219,22.1646],[90.9521,22.213],[90.9512,22.1168]]],[[[90.9265,22.1974],[90.9272,22.2134],[90.9348,22.215],[90.9348,22.207],[90.9265,22.1974]]],[[[90.8322,22.1853],[90.8307,22.2096],[90.8394,22.2206],[90.8406,22.217],[90.8322,22.1853]]],[[[90.5462,22.1889],[90.5387,22.1974],[90.5654,22.2313],[90.5677,22.2145],[90.5462,22.1889]]],[[[90.9819,22.1761],[90.9751,22.2175],[90.9954,22.2463],[91.0004,22.2371],[90.9819,22.1761]]],[[[90.575,22.2311],[90.5686,22.2396],[90.5825,22.2508],[90.5841,22.2483],[90.575,22.2311]]],[[[89.8708,22.2377],[89.8616,22.2442],[89.8619,22.258],[89.8699,22.2497],[89.8708,22.2377]]],[[[90.9792,22.2365],[90.9827,22.251],[90.9913,22.2609],[90.989,22.2459],[90.9792,22.2365]]],[[[90.2892,22.3548],[90.2713,22.3515],[90.2864,22.3644],[90.2892,22.3548]]],[[[90.9519,22.218],[90.9299,22.2287],[90.9681,22.3788],[90.9911,22.3296],[90.9519,22.218]]],[[[90.6486,22.3674],[90.6295,22.4056],[90.632,22.4123],[90.6489,22.3871],[90.6486,22.3674]]],[[[90.6552,22.4054],[90.6487,22.4076],[90.6505,22.4138],[90.6552,22.4054]]],[[[90.6476,22.4201],[90.6393,22.4252],[90.6408,22.4303],[90.6476,22.4201]]],[[[91.167,22.4276],[91.2002,22.4298],[91.1957,22.4072],[91.167,22.4276]]],[[[91.0338,22.4077],[91.0155,22.4168],[91.0224,22.4471],[91.0381,22.4262],[91.0338,22.4077]]],[[[90.6322,22.3575],[90.5965,22.4487],[90.6059,22.463],[90.6258,22.4422],[90.6322,22.3575]]],[[[90.9897,22.476],[90.9955,22.4486],[90.9735,22.463],[90.9897,22.476]]],[[[91.022,22.4838],[91.0099,22.4991],[91.0285,22.5053],[91.0316,22.4949],[91.022,22.4838]]],[[[91.1757,22.3359],[91.1828,22.2711],[91.1556,22.1843],[91.1222,22.1649],[91.1191,22.1934],[91.1011,22.2106],[91.1115,22.1597],[91.0505,22.1794],[91.0519,22.4201],[91.0269,22.4766],[91.0408,22.508],[91.1223,22.492],[91.1369,22.3951],[91.1757,22.3359]]],[[[90.6512,22.5029],[90.6436,22.5073],[90.6452,22.5117],[90.6512,22.5029]]],[[[91.2106,22.4958],[91.1976,22.5092],[91.1975,22.5129],[91.2093,22.5065],[91.2106,22.4958]]],[[[91.192,22.4721],[91.1542,22.4888],[91.1388,22.5159],[91.1756,22.5187],[91.1942,22.4985],[91.192,22.4721]]],[[[90.6556,22.4599],[90.6239,22.5069],[90.6136,22.5392],[90.6334,22.5244],[90.6556,22.4599]]],[[[91.0309,22.5557],[91.0189,22.5533],[91.0318,22.5594],[91.0309,22.5557]]],[[[90.5632,22.6057],[90.5577,22.6218],[90.5575,22.628],[90.5686,22.6208],[90.5632,22.6057]]],[[[91.2507,22.6313],[91.2979,22.574],[91.3048,22.5574],[91.2913,22.5408],[91.2517,22.5395],[91.2314,22.5666],[91.215,22.6366],[91.2507,22.6313]]],[[[91.1199,22.5624],[91.0996,22.5702],[91.0918,22.5984],[91.141,22.6642],[91.1719,22.6049],[91.1574,22.5798],[91.1199,22.5624]]],[[[91.2964,22.6764],[91.2806,22.6642],[91.2851,22.6791],[91.2964,22.6764]]],[[[90.8217,22.6601],[90.7937,22.659],[90.7931,22.6879],[90.8157,22.6838],[90.8217,22.6601]]],[[[91.1284,22.6708],[91.0886,22.5983],[91.0853,22.553],[91.0658,22.569],[91.0582,22.6391],[91.0449,22.6359],[91.0554,22.6978],[91.1122,22.7],[91.1284,22.6708]]],[[[91.0417,22.6769],[91.0194,22.6926],[91.0181,22.7025],[91.0462,22.7046],[91.0417,22.6769]]],[[[90.8021,22.7146],[90.7921,22.7154],[90.7923,22.7182],[90.8021,22.7146]]],[[[90.4893,22.7199],[90.4786,22.7281],[90.4747,22.7461],[90.4833,22.7413],[90.4893,22.7199]]],[[[91.268,22.7307],[91.2995,22.7044],[91.2707,22.6674],[91.2165,22.7007],[91.2357,22.7099],[91.2122,22.7042],[91.1311,22.7361],[91.1898,22.7493],[91.268,22.7307]]],[[[91.3411,22.7184],[91.3104,22.7451],[91.3124,22.7514],[91.3474,22.7548],[91.3544,22.7304],[91.3411,22.7184]]],[[[90.5747,22.7445],[90.5676,22.7785],[90.6003,22.7771],[90.5747,22.7445]]],[[[90.7707,22.6464],[90.8678,22.5181],[90.8889,22.445],[90.8462,22.2419],[90.8319,22.2192],[90.8082,22.2193],[90.8254,22.1984],[90.8024,22.2081],[90.796,22.246],[90.7981,22.2038],[90.8209,22.1843],[90.7784,22.186],[90.8194,22.1776],[90.8219,22.1395],[90.7919,22.1083],[90.7958,22.1457],[90.783,22.1074],[90.7622,22.1112],[90.7168,22.0527],[90.7086,22.0646],[90.7371,22.132],[90.7058,22.0721],[90.6749,22.0707],[90.6781,22.1053],[90.6991,22.1114],[90.6703,22.1264],[90.6957,22.1379],[90.6597,22.1332],[90.6338,22.1481],[90.6334,22.1324],[90.6198,22.1325],[90.6111,22.1582],[90.6706,22.2784],[90.6689,22.4825],[90.6066,22.6012],[90.5888,22.6067],[90.6186,22.5467],[90.5729,22.5947],[90.5746,22.6194],[90.5634,22.6408],[90.5889,22.6338],[90.5796,22.6542],[90.5439,22.6283],[90.539,22.641],[90.5792,22.7219],[90.6594,22.7846],[90.7309,22.7736],[90.7707,22.6464]]],[[[90.4576,22.7485],[90.4348,22.7706],[90.4527,22.7883],[90.4796,22.7568],[90.4576,22.7485]]],[[[90.5473,22.7143],[90.5288,22.6841],[90.4885,22.7697],[90.5006,22.7921],[90.5482,22.768],[90.5473,22.7143]]],[[[90.9414,22.8032],[91.0171,22.7208],[91.0126,22.7056],[90.9757,22.7222],[90.9658,22.7155],[91.0357,22.6706],[91.0292,22.6419],[91.06,22.5964],[91.0553,22.5807],[91.0512,22.5934],[91.0248,22.5766],[91.0438,22.5696],[90.9943,22.5409],[90.955,22.5481],[90.9256,22.5787],[90.9401,22.5911],[90.9144,22.5899],[90.8618,22.6339],[90.8337,22.7293],[90.7969,22.7739],[90.8751,22.8055],[90.9414,22.8032]]],[[[90.6604,22.8159],[90.6197,22.783],[90.5955,22.7887],[90.6604,22.8159]]],[[[90.7021,22.8276],[90.6815,22.8128],[90.6665,22.8261],[90.7021,22.8276]]],[[[90.4706,22.8074],[90.4526,22.8264],[90.4843,22.8343],[90.4912,22.8191],[90.4706,22.8074]]],[[[90.6322,22.838],[90.639,22.8478],[90.6454,22.8492],[90.6453,22.8443],[90.6322,22.838]]],[[[90.6937,22.8538],[90.67,22.8458],[90.6796,22.8543],[90.6937,22.8538]]],[[[90.6521,22.8487],[90.6554,22.8821],[90.6724,22.8819],[90.6623,22.8542],[90.6521,22.8487]]],[[[90.6438,22.8594],[90.5568,22.7903],[90.4846,22.8396],[90.4608,22.8402],[90.4824,22.867],[90.5329,22.8745],[90.5502,22.8971],[90.5535,22.9442],[90.6496,22.8941],[90.6438,22.8594]]],[[[90.6388,22.9635],[90.6342,22.959],[90.6318,22.9651],[90.6388,22.9635]]],[[[90.3481,22.9398],[90.301,22.9519],[90.2948,22.9664],[90.3136,22.9686],[90.3481,22.9398]]],[[[90.368,22.9212],[90.3518,22.9514],[90.3227,22.9696],[90.3564,22.9623],[90.368,22.9212]]],[[[90.6884,22.9553],[90.6683,22.9639],[90.6485,22.9847],[90.6803,22.9808],[90.6884,22.9553]]],[[[90.4512,22.9721],[90.4551,23.0016],[90.5389,22.9578],[90.5453,22.9077],[90.5236,22.8788],[90.4671,22.8659],[90.4447,22.8264],[90.4491,22.8052],[90.4274,22.8167],[90.4278,22.8417],[90.3951,22.8281],[90.3898,22.839],[90.4218,22.8989],[90.4173,22.9163],[90.3845,22.856],[90.3951,22.7999],[90.4151,22.7819],[90.3844,22.7899],[90.42,22.7752],[90.3999,22.7644],[90.3323,22.8477],[90.3807,22.9076],[90.3533,22.9932],[90.4309,22.9917],[90.4512,22.9721]]],[[[90.4295,22.9979],[90.4198,23.0042],[90.4418,23.0056],[90.4295,22.9979]]],[[[90.4052,23.0052],[90.3919,23.0089],[90.4172,23.0099],[90.4052,23.0052]]],[[[90.5067,23.0154],[90.5003,23.0214],[90.5044,23.0251],[90.5067,23.0154]]],[[[90.496,23.0157],[90.4733,23.0279],[90.4772,23.042],[90.496,23.0157]]],[[[90.5628,22.9968],[90.5357,23.0213],[90.5551,23.048],[90.5669,23.0068],[90.5628,22.9968]]],[[[90.3079,23.0375],[90.2751,23.039],[90.2918,23.0496],[90.3079,23.0375]]],[[[90.5048,23.0334],[90.491,23.0532],[90.5057,23.0637],[90.5083,23.062],[90.5048,23.0334]]],[[[90.5266,23.0634],[90.5192,23.06],[90.5234,23.0689],[90.5266,23.0634]]],[[[90.5131,23.0812],[90.5003,23.1001],[90.5168,23.1384],[90.5241,23.0914],[90.5131,23.0812]]],[[[90.4691,23.1551],[90.4774,23.1301],[90.4571,23.1226],[90.4691,23.1551]]],[[[90.5338,23.169],[90.5449,23.1982],[90.5412,23.1433],[90.5221,23.1767],[90.5317,23.2004],[90.5338,23.169]]],[[[90.4922,23.0819],[90.4684,23.097],[90.4477,23.0556],[90.4435,23.1068],[90.4907,23.1312],[90.4643,23.1914],[90.4687,23.2012],[90.4724,23.1855],[90.5053,23.1688],[90.4922,23.0819]]],[[[90.5569,23.1601],[90.5541,23.1765],[90.5756,23.2083],[90.5761,23.1787],[90.5569,23.1601]]],[[[90.5566,23.1903],[90.5544,23.2059],[90.5569,23.2114],[90.5661,23.2048],[90.5566,23.1903]]],[[[90.5963,23.2287],[90.5835,23.218],[90.5954,23.2312],[90.5963,23.2287]]],[[[90.6188,23.2298],[90.6138,23.2315],[90.6161,23.2364],[90.6188,23.2298]]],[[[90.5578,23.2282],[90.5631,23.2392],[90.5731,23.2392],[90.5704,23.2357],[90.5578,23.2282]]],[[[90.5803,23.239],[90.5713,23.2467],[90.5838,23.26],[90.586,23.2534],[90.5803,23.239]]],[[[90.6232,23.2389],[90.6198,23.2581],[90.6207,23.2617],[90.6334,23.2534],[90.6232,23.2389]]],[[[90.5699,23.3181],[90.5699,23.308],[90.5656,23.3198],[90.5699,23.3181]]],[[[90.5526,23.3295],[90.5583,23.3138],[90.5449,23.3286],[90.5526,23.3295]]],[[[90.1766,23.3369],[90.2574,23.3069],[90.2334,23.2961],[90.2286,23.2652],[90.1662,23.2687],[90.1826,23.2415],[90.1276,23.2454],[90.1311,23.2632],[90.1245,23.2738],[90.0892,23.2811],[90.1766,23.3369]]],[[[90.4511,23.3395],[90.5188,23.3285],[90.552,23.2822],[90.5409,23.2371],[90.5004,23.1797],[90.4761,23.1948],[90.5004,23.2449],[90.4938,23.299],[90.4511,23.3395]]],[[[90.591,23.3393],[90.5829,23.3499],[90.5832,23.3552],[90.5857,23.3557],[90.591,23.3393]]],[[[90.6816,23.3461],[90.6734,23.3486],[90.6783,23.3582],[90.6816,23.3461]]],[[[90.542,23.3558],[90.5275,23.3583],[90.5293,23.3648],[90.542,23.3558]]],[[[90.3749,23.3544],[90.4122,23.3025],[90.4839,23.2994],[90.4857,23.2465],[90.4622,23.2026],[90.4646,23.2254],[90.4534,23.2116],[90.4659,23.1672],[90.4326,23.0911],[90.4477,23.028],[90.3609,23.0111],[90.3426,22.9819],[90.326,22.9816],[90.3087,23.0538],[90.3259,23.0679],[90.3326,23.1087],[90.3229,23.1024],[90.2729,23.1468],[90.267,23.1328],[90.2905,23.1207],[90.2538,23.1253],[90.2444,23.1379],[90.2657,23.1601],[90.2142,23.1915],[90.1842,23.1708],[90.1781,23.1892],[90.2071,23.2097],[90.2108,23.224],[90.1721,23.262],[90.233,23.2607],[90.2526,23.2882],[90.24,23.2931],[90.2866,23.3161],[90.2985,23.35],[90.327,23.366],[90.3749,23.3544]]],[[[90.4849,23.346],[90.4467,23.3667],[90.4464,23.3699],[90.4849,23.346]]],[[[90.3463,23.3767],[90.3214,23.3768],[90.2989,23.3679],[90.3205,23.3807],[90.3463,23.3767]]],[[[90.1966,23.3718],[90.1883,23.3811],[90.1896,23.386],[90.1966,23.3718]]],[[[90.5606,23.3717],[90.5464,23.3722],[90.5471,23.3864],[90.5529,23.3901],[90.5606,23.3717]]],[[[90.4864,23.3686],[90.4649,23.3665],[90.4238,23.3903],[90.443,23.395],[90.4864,23.3686]]],[[[90.4352,23.3119],[90.3716,23.3623],[90.349,23.3965],[90.4372,23.3544],[90.4539,23.3185],[90.4352,23.3119]]],[[[90.4506,23.3978],[90.4948,23.3982],[90.501,23.3839],[90.4506,23.3978]]],[[[90.4177,23.394],[90.3949,23.4],[90.3924,23.4059],[90.4093,23.4048],[90.4177,23.394]]],[[[90.184,23.3987],[90.1658,23.4199],[90.1682,23.4225],[90.184,23.3987]]],[[[90.5905,23.4175],[90.5798,23.4195],[90.5714,23.3878],[90.5818,23.3682],[90.5719,23.3743],[90.5656,23.4056],[90.5814,23.4285],[90.5905,23.4175]]],[[[90.1768,23.4246],[90.167,23.4337],[90.1686,23.4386],[90.1768,23.4246]]],[[[90.3316,23.3845],[90.286,23.3796],[90.2958,23.3708],[90.2708,23.3264],[90.2139,23.3613],[90.245,23.326],[90.2056,23.3503],[90.1836,23.4498],[90.3316,23.3845]]],[[[90.5754,23.4453],[90.5686,23.4417],[90.5742,23.4501],[90.5754,23.4453]]],[[[90.2377,23.4724],[90.2303,23.4706],[90.2255,23.4789],[90.2377,23.4724]]],[[[90.5591,23.449],[90.544,23.4543],[90.5431,23.4794],[90.5615,23.4807],[90.5591,23.449]]],[[[90.6257,23.4934],[90.6083,23.4922],[90.6263,23.4961],[90.6257,23.4934]]],[[[90.199,23.4973],[90.1865,23.4972],[90.1838,23.5031],[90.199,23.4973]]],[[[90.7068,23.5051],[90.6946,23.4979],[90.702,23.5148],[90.7068,23.5051]]],[[[90.6821,23.4877],[90.6611,23.49],[90.6436,23.5019],[90.6637,23.5167],[90.6888,23.5014],[90.6821,23.4877]]],[[[90.5756,23.5199],[90.5607,23.5261],[90.5573,23.5384],[90.5756,23.5199]]],[[[90.7019,23.5256],[90.6906,23.5452],[90.7032,23.5522],[90.7019,23.5256]]],[[[90.6949,23.5552],[90.6936,23.5641],[90.6992,23.5613],[90.6949,23.5552]]],[[[90.5668,23.5437],[90.5542,23.5553],[90.5521,23.5666],[90.5566,23.5649],[90.5668,23.5437]]],[[[90.4697,23.5534],[90.4532,23.549],[90.4394,23.5536],[90.4698,23.5718],[90.4697,23.5534]]],[[[90.6905,23.5679],[90.6789,23.5747],[90.6804,23.5794],[90.6905,23.5679]]],[[[90.4258,23.5723],[90.408,23.5882],[90.4039,23.6053],[90.4199,23.5975],[90.4258,23.5723]]],[[[90.4335,23.558],[90.4244,23.6027],[90.431,23.6061],[90.4432,23.5992],[90.4335,23.558]]],[[[90.4844,23.5823],[90.5024,23.5851],[90.4538,23.5754],[90.4477,23.6043],[90.4844,23.5823]]],[[[90.6371,23.6107],[90.6946,23.5158],[90.6576,23.5209],[90.5851,23.4883],[90.5658,23.5872],[90.5918,23.5834],[90.6371,23.6107]]],[[[90.405,23.6106],[90.3909,23.6159],[90.4177,23.611],[90.405,23.6106]]],[[[90.1143,23.5944],[90.0967,23.6051],[90.0878,23.6174],[90.1101,23.6069],[90.1143,23.5944]]],[[[90.6195,23.6099],[90.6019,23.6062],[90.6261,23.6259],[90.6195,23.6099]]],[[[90.6769,23.6476],[90.7322,23.6524],[90.7598,23.6309],[90.7358,23.6271],[90.7284,23.5956],[90.6956,23.5734],[90.6684,23.59],[90.6536,23.6235],[90.6585,23.6553],[90.6769,23.6476]]],[[[90.6474,23.6139],[90.6317,23.6169],[90.6428,23.6569],[90.6634,23.6642],[90.6503,23.6478],[90.6474,23.6139]]],[[[90.6841,23.6613],[90.6694,23.6628],[90.6724,23.669],[90.6841,23.6613]]],[[[90.6641,23.6736],[90.6529,23.6724],[90.6474,23.6798],[90.6641,23.6736]]],[[[90.7168,23.6597],[90.7013,23.6628],[90.6913,23.6714],[90.7264,23.6788],[90.7168,23.6597]]],[[[89.932,23.6851],[89.902,23.7014],[89.8987,23.7073],[89.9318,23.6995],[89.932,23.6851]]],[[[89.8689,23.7138],[89.8656,23.7068],[89.8625,23.712],[89.8689,23.7138]]],[[[90.7331,23.6942],[90.6946,23.6848],[90.7146,23.7266],[90.7331,23.6942]]],[[[89.8686,23.7271],[89.8652,23.7226],[89.8641,23.7265],[89.8686,23.7271]]],[[[89.8568,23.7306],[89.8515,23.7281],[89.8513,23.7308],[89.8568,23.7306]]],[[[90.3547,23.715],[90.3412,23.7247],[90.3291,23.7271],[90.3466,23.7315],[90.3547,23.715]]],[[[90.3778,23.6956],[90.4183,23.6844],[90.4643,23.628],[90.4239,23.6183],[90.4349,23.637],[90.429,23.6419],[90.415,23.624],[90.3878,23.6461],[90.3978,23.6253],[90.3645,23.63],[90.288,23.6726],[90.2617,23.7243],[90.2876,23.7327],[90.3085,23.7608],[90.313,23.7323],[90.3778,23.6956]]],[[[89.8001,23.7323],[89.786,23.7414],[89.7868,23.7639],[89.7904,23.7596],[89.8001,23.7323]]],[[[90.2259,23.725],[90.2118,23.7551],[90.2416,23.792],[90.2522,23.7467],[90.2259,23.725]]],[[[89.741,23.7775],[89.6852,23.7896],[89.6826,23.8011],[89.718,23.8016],[89.741,23.7775]]],[[[89.6648,23.8039],[89.6752,23.7892],[89.6375,23.7862],[89.6373,23.7995],[89.6648,23.8039]]],[[[89.7791,23.7421],[89.7587,23.7631],[89.7438,23.8037],[89.7758,23.7887],[89.7791,23.7421]]],[[[89.6167,23.8034],[89.5991,23.8055],[89.5465,23.7973],[89.595,23.8151],[89.6167,23.8034]]],[[[89.5236,23.8189],[89.5155,23.7856],[89.4879,23.8167],[89.4901,23.8208],[89.5236,23.8189]]],[[[90.1436,23.827],[90.176,23.8211],[90.2026,23.8355],[90.2338,23.8213],[90.2236,23.8068],[90.2054,23.8221],[90.1823,23.8071],[90.1342,23.812],[90.0872,23.8364],[90.1157,23.8541],[90.1171,23.8704],[90.1436,23.827]]],[[[89.3479,23.8867],[89.3177,23.8867],[89.3147,23.8929],[89.3479,23.8867]]],[[[89.4108,23.9196],[89.3791,23.9063],[89.3758,23.9121],[89.398,23.9267],[89.4108,23.9196]]],[[[89.7311,23.8789],[89.6953,23.9025],[89.6912,23.932],[89.7101,23.9194],[89.7311,23.8789]]],[[[89.6775,23.9107],[89.6611,23.9383],[89.6645,23.9423],[89.6726,23.9407],[89.6775,23.9107]]],[[[89.3709,23.9404],[89.3556,23.8929],[89.3149,23.8989],[89.2906,23.9388],[89.3709,23.9404]]],[[[89.2496,23.9423],[89.2298,23.9463],[89.2358,23.9322],[89.2241,23.9316],[89.1825,23.9548],[89.2246,23.9607],[89.2496,23.9423]]],[[[89.1722,23.9906],[89.1418,23.9903],[89.1391,23.9934],[89.1568,23.9991],[89.1722,23.9906]]],[[[89.1733,24.0],[89.0914,23.9991],[89.0608,23.9839],[89.0936,23.9665],[89.1225,23.9203],[89.1241,23.9541],[89.1671,23.9259],[89.2341,23.9194],[89.3047,23.8696],[89.4078,23.8978],[89.4594,23.8119],[89.5057,23.7768],[89.5362,23.7953],[89.5929,23.7975],[89.6397,23.7768],[89.7017,23.7769],[89.8567,23.6605],[89.9485,23.6357],[90.0246,23.5566],[90.0179,23.5823],[90.083,23.573],[90.1256,23.5454],[90.1578,23.4889],[90.1593,23.4206],[90.2067,23.3338],[90.17,23.3466],[90.1639,23.3639],[90.1862,23.3591],[90.1608,23.3676],[90.1665,23.3332],[90.1253,23.3055],[90.1205,23.3356],[90.1417,23.3597],[90.1445,23.3786],[90.1279,23.351],[90.0995,23.359],[90.1208,23.3473],[90.1189,23.3041],[90.093,23.3005],[90.0871,23.2728],[90.1245,23.2685],[90.1217,23.2487],[90.1287,23.2416],[90.2023,23.2256],[90.1987,23.2096],[90.1681,23.2041],[90.1774,23.1665],[90.219,23.1829],[90.2485,23.1621],[90.2336,23.1421],[90.2452,23.1232],[90.3091,23.1128],[90.3167,23.0671],[90.2678,23.0431],[90.2726,23.0254],[90.3072,23.0209],[90.3206,22.9865],[90.2739,22.9687],[90.2991,22.9434],[90.3537,22.9212],[90.3456,22.884],[90.3205,22.8726],[90.3213,22.8502],[90.3726,22.7652],[90.3682,22.7366],[90.4195,22.7331],[90.4167,22.7138],[90.3964,22.729],[90.3831,22.7054],[90.4003,22.7234],[90.4204,22.7086],[90.4297,22.7305],[90.4193,22.7453],[90.378,22.7401],[90.3825,22.7586],[90.4243,22.7652],[90.4692,22.7349],[90.485,22.6991],[90.4769,22.6561],[90.4961,22.6723],[90.5194,22.6294],[90.5042,22.5879],[90.5187,22.5991],[90.5798,22.5261],[90.6132,22.3275],[90.5912,22.2573],[90.5587,22.2382],[90.5212,22.184],[90.5066,22.1851],[90.4373,22.0668],[90.4221,22.1192],[90.4427,22.1513],[90.4269,22.1517],[90.4192,22.1262],[90.4192,22.0904],[90.3882,22.0901],[90.3847,22.1054],[90.4039,22.1682],[90.4261,22.1813],[90.3999,22.2179],[90.4165,22.2649],[90.4035,22.2838],[90.4191,22.2895],[90.3788,22.2931],[90.4149,22.3388],[90.3641,22.2952],[90.4059,22.2709],[90.395,22.204],[90.4179,22.1836],[90.3986,22.1722],[90.3831,22.1366],[90.3408,22.1621],[90.3872,22.1955],[90.3873,22.2114],[90.3562,22.1794],[90.3438,22.1957],[90.3498,22.1792],[90.3338,22.1633],[90.3784,22.1309],[90.3751,22.1053],[90.3331,22.1088],[90.2616,22.0404],[90.2751,22.0358],[90.278,21.9971],[90.2568,21.9557],[90.211,21.9826],[90.2135,22.0022],[90.1962,21.9784],[90.2287,21.9716],[90.2343,21.9583],[90.2176,21.9508],[90.2685,21.9463],[90.2409,21.8994],[90.2606,21.8846],[90.2549,21.8666],[90.2241,21.8543],[90.2042,21.8874],[90.2401,21.9344],[90.1969,21.8906],[90.2199,21.8528],[90.2631,21.8583],[90.2478,21.8376],[90.2163,21.8373],[90.2602,21.8346],[90.1756,21.7891],[90.1072,21.8011],[90.0816,21.8355],[90.0992,21.8517],[90.1222,21.8485],[90.1016,21.8534],[90.1021,21.8743],[90.1372,21.8899],[90.1543,21.8854],[90.1589,21.8603],[90.1728,21.8697],[90.1519,21.8956],[90.1886,21.9228],[90.144,21.8906],[90.1158,21.8993],[90.1162,21.9159],[90.15,21.9227],[90.1372,21.9485],[90.1685,21.9805],[90.1406,21.9702],[90.128,21.9914],[90.1418,21.9247],[90.1114,21.9219],[90.0988,21.8944],[90.0991,21.9412],[90.0733,22.0045],[90.1633,22.1145],[90.2134,22.1143],[90.2283,22.1641],[90.2542,22.1638],[90.2717,22.1772],[90.2864,22.2071],[90.2723,22.2089],[90.2588,22.1722],[90.229,22.1724],[90.2401,22.1932],[90.2206,22.219],[90.2077,22.3093],[90.2269,22.3379],[90.2896,22.3505],[90.2973,22.3714],[90.2696,22.3586],[90.2657,22.3711],[90.2809,22.4069],[90.3177,22.4676],[90.3413,22.4589],[90.3626,22.4846],[90.3405,22.4664],[90.3148,22.4741],[90.2586,22.3754],[90.2548,22.3443],[90.2223,22.3421],[90.1991,22.3026],[90.2097,22.2143],[90.2298,22.1915],[90.2032,22.1238],[90.1608,22.1241],[90.0879,22.0556],[90.0534,21.9715],[90.0298,21.9971],[90.0275,21.9782],[90.0039,21.9846],[89.993,22.0361],[90.0307,22.0628],[90.0362,22.1269],[90.0717,22.1533],[90.1399,22.1551],[90.0801,22.1586],[90.0257,22.189],[90.081,22.2209],[90.1116,22.2858],[90.1016,22.3424],[90.176,22.4215],[90.2018,22.4859],[90.206,22.5118],[90.1876,22.5224],[90.2028,22.5725],[90.1858,22.6255],[90.2519,22.6212],[90.2832,22.6302],[90.2952,22.6531],[90.2487,22.6279],[90.181,22.6276],[90.1975,22.5676],[90.1819,22.5223],[90.1989,22.509],[90.1936,22.4802],[90.1724,22.4297],[90.095,22.3491],[90.1048,22.3039],[90.0739,22.2271],[90.0211,22.1868],[90.0282,22.1691],[90.0632,22.1618],[90.0225,22.1322],[90.0183,22.0663],[89.9809,22.0416],[89.9896,21.991],[89.9579,21.9789],[89.9092,22.0731],[89.9175,22.136],[89.8787,22.2524],[89.9197,22.3718],[89.9847,22.4388],[90.0,22.4869],[90.025,22.4901],[90.033,22.5719],[90.065,22.6087],[90.0571,22.6225],[90.0268,22.599],[90.0327,22.6527],[90.0059,22.6801],[90.028,22.6463],[90.0132,22.5988],[90.0307,22.5814],[90.0179,22.4944],[89.9546,22.5055],[89.9855,22.4867],[89.9872,22.466],[89.9102,22.3882],[89.8834,22.4052],[89.8834,22.4302],[89.8779,22.4031],[89.8987,22.3721],[89.8448,22.2487],[89.8905,22.1211],[89.8528,22.0679],[89.8188,22.066],[89.8534,22.0483],[89.8854,21.9055],[89.8584,21.8784],[89.8456,21.8859],[89.8408,21.856],[89.7762,21.8305],[89.7896,21.879],[89.7542,21.8561],[89.7334,21.8909],[89.7516,21.8391],[89.7383,21.8313],[89.7067,21.8491],[89.6756,21.8377],[89.6586,21.8922],[89.6795,21.9049],[89.6554,21.9134],[89.6339,21.8679],[89.7121,21.7853],[89.7073,21.7608],[89.6067,21.7601],[89.6137,21.8111],[89.5634,21.8575],[89.5901,21.9386],[89.5607,21.9692],[89.5603,21.9911],[89.5152,21.9904],[89.5251,21.9563],[89.5123,21.8993],[89.4971,21.9081],[89.4607,21.8522],[89.4337,21.8477],[89.4627,21.8461],[89.4712,21.8204],[89.459,21.8111],[89.4707,21.8137],[89.4843,21.7864],[89.4162,21.7099],[89.3867,21.7099],[89.3559,21.8004],[89.3899,21.9021],[89.3671,21.9046],[89.3181,21.8611],[89.3072,21.8207],[89.2867,21.8053],[89.2927,21.7564],[89.2312,21.7683],[89.2193,21.7572],[89.197,21.8047],[89.1643,21.79],[89.1079,21.8105],[89.1121,21.8547],[89.0887,21.908],[89.0948,21.9381],[89.0836,21.9386],[89.0635,21.9277],[89.0648,21.899],[89.0904,21.8542],[89.0935,21.7971],[89.1521,21.755],[89.1374,21.7198],[89.1154,21.7204],[89.0518,21.7859],[89.0677,21.8585],[89.0397,21.9077],[89.001,21.9031],[88.9972,21.8895],[89.0372,21.8577],[89.0277,21.7769],[89.1014,21.6618],[89.0968,21.6249],[89.0595,21.6116],[89.0246,21.6637],[89.0039,21.6526],[89.0292,21.6541],[89.0423,21.6109],[89.0167,21.6008],[88.9943,21.6465],[88.9946,21.6095],[88.9519,21.6408],[88.9307,21.6299],[88.9037,21.6449],[88.8754,21.701],[88.8799,21.7675],[88.8496,21.7251],[88.8692,21.6433],[88.8402,21.6183],[88.8115,21.6347],[88.8229,21.6604],[88.7594,21.6566],[88.7243,21.6805],[88.6993,21.7411],[88.7229,21.8073],[88.6998,21.8403],[88.7311,21.9352],[88.7291,21.976],[88.7903,22.0183],[88.7667,22.0237],[88.7594,22.0502],[88.7747,22.0519],[88.7486,22.0659],[88.7157,22.0484],[88.7415,22.0282],[88.735,22.0071],[88.6685,22.0226],[88.6445,22.1181],[88.631,22.1198],[88.6214,22.105],[88.6438,22.0459],[88.6084,21.972],[88.6202,21.9377],[88.5852,21.9852],[88.5792,21.9633],[88.611,21.9322],[88.6096,21.9095],[88.5833,21.8856],[88.5618,21.814],[88.5031,21.8849],[88.5314,21.9303],[88.5095,21.9704],[88.5525,21.9851],[88.5652,22.0228],[88.5449,21.9865],[88.5049,21.973],[88.5103,21.9217],[88.485,21.8966],[88.4664,21.9001],[88.4688,21.9487],[88.4597,21.9382],[88.4534,21.9068],[88.4633,21.8964],[88.4841,21.8913],[88.5001,21.8489],[88.4583,21.8201],[88.469,21.7932],[88.4479,21.8015],[88.4292,21.7659],[88.4363,21.7042],[88.4196,21.6881],[88.4183,21.6661],[88.4412,21.6244],[88.4216,21.6097],[88.4177,21.5818],[88.3929,21.6083],[88.4045,21.6197],[88.3891,21.6672],[88.4121,21.717],[88.3795,21.7303],[88.3991,21.7368],[88.4075,21.7646],[88.3915,21.7795],[88.4082,21.7984],[88.4001,21.8346],[88.4213,21.8892],[88.3996,21.8993],[88.4164,21.9231],[88.4056,21.9516],[88.3903,21.9667],[88.4057,21.9738],[88.4124,21.9947],[88.3873,21.9675],[88.4114,21.9216],[88.396,21.9071],[88.3979,21.8949],[88.4077,21.8854],[88.3976,21.8749],[88.3953,21.7943],[88.3717,21.8007],[88.3643,21.8528],[88.3642,21.8014],[88.3296,21.7886],[88.3146,21.7988],[88.2816,21.7969],[88.2765,21.8073],[88.3154,21.8303],[88.3238,21.8496],[88.311,21.8646],[88.2686,21.865],[88.3175,21.8502],[88.2589,21.8013],[88.2892,21.7581],[88.2832,21.7309],[88.3067,21.6718],[88.3004,21.5917],[88.3254,21.5806],[88.2864,21.5576],[88.2559,21.563],[88.2457,21.6046],[88.2265,21.6188],[88.2493,21.6474],[88.2411,21.6786],[88.2116,21.6855],[88.2308,21.6996],[88.2186,21.7919],[88.2381,21.7646],[88.2396,21.7811],[88.2115,21.8029],[88.2035,21.8456],[88.166,21.888],[88.1748,21.9239],[88.1487,21.9596],[88.1863,21.9934],[88.2351,22.0789],[88.2142,22.1574],[88.1788,22.195],[88.0826,22.2206],[88.0342,22.2183],[88.0321,22.2018],[88.1438,22.1871],[88.1902,22.1329],[88.1961,22.1048],[88.1618,22.0645],[88.067,22.0155],[87.9805,21.8551],[87.9519,21.8236],[87.8866,21.803],[87.8924,21.7812],[87.8286,21.7222],[87.7551,21.7008],[87.7498,21.6855],[87.6786,21.6537],[87.6499,21.6646],[87.6369,21.6472],[87.3726,21.5781],[87.366,21.5609],[87.1955,21.5494],[87.0644,21.4708],[86.8946,21.3136],[86.8168,21.1382],[86.9296,20.9008],[86.9701,20.8491],[86.9758,20.768],[87.0013,20.7584],[87.0139,20.7253],[86.996,20.6992],[87.0246,20.6897],[87.052,20.7035],[86.7655,20.5046],[86.7358,20.4491],[86.7409,20.4177],[86.7226,20.3935],[86.7414,20.3757],[86.7284,20.3611],[86.7819,20.3969],[86.7672,20.3351],[86.8031,20.3666],[86.8045,20.3942],[86.8139,20.386],[86.8074,20.3638],[86.7676,20.3263],[86.7446,20.3153],[86.6219,20.3247],[86.0447,20.4422],[85.1865,20.5773],[84.1958,20.8831],[83.6066,21.1674],[82.4644,22.0621],[81.3769,22.8514],[80.2182,23.5469],[79.5925,24.3037],[78.0886,24.3136],[69.9283,25.2485],[68.4195,25.6908],[67.927,26.4771],[67.9062,27.0865],[68.2961,27.5747],[68.5064,27.778],[68.6599,27.8266],[69.0358,28.0425],[69.6405,28.3472],[69.7337,28.422],[69.8078,28.5668],[70.059,28.6144],[70.3755,28.9184],[70.635,29.4089],[70.7777,29.793],[70.7605,30.8225],[70.7028,31.3297],[70.8642,31.6916],[71.165,32.1715],[71.3077,32.6282],[71.3233,32.7496],[72.0892,33.7319],[72.706,34.085],[73.2405,33.8303],[73.5994,33.3151],[73.8205,33.147],[74.6524,32.5602],[76.6055,31.2654],[78.8214,30.3892],[79.8818,30.0186],[80.4169,29.6431],[80.7825,29.3391],[80.652,29.04],[81.2792,28.6872],[82.7225,28.2436],[82.9841,28.308],[83.0398,28.376],[83.7507,28.2849],[84.1719,28.2102],[85.3486,27.9622],[85.9131,27.731],[86.2706,27.739],[86.526,27.9241],[87.1783,27.8194],[88.0788,27.5918],[88.0561,27.3415],[88.4309,26.8779],[90.4789,26.7868],[90.5537,26.8139],[91.731,26.6209],[92.0343,26.3206],[92.0852,25.9128],[91.9361,24.8517],[91.6239,23.6589],[91.376,22.7953],[91.3301,22.8335],[91.3506,22.8515],[91.3427,22.8832],[91.3158,22.8394],[91.3525,22.7861],[91.3451,22.7758],[91.2963,22.8102],[91.1869,22.7977],[91.1164,22.8119],[91.1127,22.8262],[91.0958,22.82],[91.099,22.8052],[91.0404,22.797],[90.9375,22.8561],[90.8246,22.8647],[90.8016,22.9088],[90.7578,22.9387],[90.7958,22.898],[90.7954,22.8634],[90.782,22.8584],[90.7333,22.8875],[90.6819,22.9866],[90.6235,23.0044],[90.5673,23.1188],[90.6524,23.2423],[90.6389,23.3166],[90.6776,23.3183],[90.6754,23.3407],[90.6978,23.3457],[90.6795,23.3644],[90.6972,23.3775],[90.6701,23.3584],[90.6616,23.3375],[90.6738,23.3213],[90.5987,23.3393],[90.5796,23.3948],[90.6007,23.4314],[90.5856,23.4669],[90.6303,23.4903],[90.6817,23.4821],[90.7039,23.4901],[90.7178,23.5428],[90.7443,23.5443],[90.7254,23.5534],[90.7084,23.5386],[90.7057,23.5618],[90.732,23.5912],[90.7392,23.6216],[90.7646,23.629],[90.7414,23.6621],[90.7578,23.721],[90.7425,23.6938],[90.7403,23.7242],[90.7315,23.7102],[90.7156,23.7414],[90.6818,23.6867],[90.6429,23.6899],[90.6324,23.6392],[90.5628,23.5929],[90.5531,23.5715],[90.5147,23.5814],[90.505,23.6033],[90.4839,23.5866],[90.4539,23.6149],[90.4703,23.6298],[90.4427,23.6684],[90.368,23.7186],[90.3837,23.7022],[90.3658,23.7034],[90.3421,23.7401],[90.3176,23.735],[90.3128,23.7642],[90.2548,23.7303],[90.2571,23.7757],[90.2298,23.8877],[90.2396,23.827],[90.194,23.8405],[90.1518,23.8291],[90.1319,23.8674],[90.1117,23.8736],[90.1104,23.8573],[90.0572,23.8201],[90.047,23.8255],[90.0625,23.8769],[90.0468,23.8894],[90.0262,23.8817],[90.0227,23.9072],[89.9481,23.9709],[89.9523,23.9846],[89.9328,23.9846],[89.9487,23.9598],[89.9378,23.9554],[90.0192,23.8936],[90.0144,23.8769],[90.0547,23.8732],[90.0409,23.8278],[90.0466,23.8174],[90.0691,23.8163],[90.0887,23.83],[90.1247,23.8071],[90.1837,23.8023],[90.2068,23.8157],[90.2226,23.8004],[90.2415,23.8149],[90.2059,23.7537],[90.221,23.7216],[90.2524,23.721],[90.2746,23.6862],[90.2557,23.7074],[90.2383,23.7112],[90.2208,23.7081],[90.1813,23.7401],[90.1924,23.7203],[90.1626,23.7198],[90.1492,23.7107],[90.1219,23.7371],[90.0698,23.7579],[90.0232,23.7635],[90.0245,23.7952],[90.0021,23.816],[90.0195,23.7627],[90.1205,23.7334],[90.1497,23.7043],[90.1739,23.7165],[90.2205,23.7031],[90.2477,23.7076],[90.276,23.6548],[90.3797,23.6165],[90.4018,23.5883],[90.3789,23.5678],[90.4098,23.5802],[90.4377,23.5451],[90.4635,23.5452],[90.5054,23.5721],[90.5302,23.5669],[90.5701,23.4832],[90.538,23.4837],[90.5339,23.4659],[90.5539,23.4263],[90.5281,23.3907],[90.4858,23.4204],[90.4204,23.4161],[90.2542,23.4608],[90.1641,23.5242],[90.1103,23.6129],[89.97,23.6581],[89.9179,23.7216],[89.8638,23.7451],[89.7915,23.8077],[89.7742,23.8995],[89.7688,23.8876],[89.7046,23.9579],[89.7275,23.9776],[89.7208,24.0],[89.7153,23.9718],[89.6983,23.9645],[89.7051,23.9991],[89.6707,24.0],[89.6557,23.9361],[89.7033,23.8749],[89.7513,23.8659],[89.7708,23.8359],[89.7571,23.8473],[89.7242,23.8344],[89.6802,23.8626],[89.7179,23.8319],[89.6297,23.8456],[89.5468,23.8241],[89.4497,23.8706],[89.4256,23.9133],[89.3865,23.9431],[89.3288,23.9487],[89.2758,23.9881],[89.3167,23.9504],[89.2926,23.9454],[89.2414,23.9813],[89.1733,24.0]]]]}}