{"type":"Feature","properties":{"speciesId":62,"category":"LC","source":"IUCN Red List","simplifyTol":0.01,"clippedToSubcontinent":true},"geometry":{"type":"MultiPolygon","coordinates":[[[[95.0533,27.3481],[95.1423,27.3963],[95.0662,27.3392],[95.0533,27.3481]]],[[[92.9376,26.2006],[92.38,25.7446],[89.2508,25.7468],[88.2676,25.8098],[85.8662,26.5699],[84.8419,27.0144],[84.4363,27.6177],[85.4805,27.3138],[87.1598,26.9274],[87.9018,26.6475],[88.8686,26.6997],[90.3001,26.8542],[94.6276,27.641],[95.0533,27.3481],[92.9376,26.2006]]]]}}