{"type":"Feature","properties":{"speciesId":621,"category":"EN","source":"IUCN Red List","simplifyTol":0.01,"clippedToSubcontinent":true},"geometry":{"type":"MultiPolygon","coordinates":[[[[74.8238,14.2578],[74.8422,14.2651],[74.8381,14.2342],[74.8625,14.2042],[74.9157,14.2035],[74.9561,14.1422],[75.0604,14.0958],[75.0958,14.1],[75.117,14.0642],[75.1009,14.0298],[75.1341,14.0339],[75.1632,14.0161],[75.1941,14.0246],[75.2214,13.9799],[75.1958,13.9083],[75.1952,13.8052],[75.182,13.791],[75.1498,13.8068],[75.1333,13.7833],[75.1545,13.7303],[75.125,13.7208],[75.2083,13.6625],[75.1838,13.6229],[75.2162,13.5771],[75.2214,13.5103],[75.2422,13.4759],[75.2366,13.4466],[75.1994,13.4372],[75.2875,13.3625],[75.2884,13.2839],[75.375,13.2875],[75.4215,13.2296],[75.4124,13.203],[75.43,13.159],[75.5215,13.132],[75.5174,13.1008],[75.5381,13.0882],[75.5509,13.0257],[75.584,13.0242],[75.5708,12.975],[75.6083,12.9875],[75.6131,12.9592],[75.6314,12.9703],[75.6708,12.9458],[75.7066,12.9712],[75.7578,12.9564],[75.7704,12.8354],[75.7581,12.8239],[75.7922,12.7925],[75.7616,12.7425],[75.7375,12.7417],[75.7337,12.6976],[75.7712,12.6642],[75.7708,12.6375],[75.7007,12.595],[75.709,12.5372],[75.6674,12.5159],[75.6542,12.4792],[75.6989,12.4503],[75.6992,12.409],[75.6358,12.417],[75.54,12.4038],[75.5042,12.4167],[75.4917,12.3917],[75.4964,12.3677],[75.5246,12.3532],[75.5743,12.2866],[75.5958,12.2167],[75.6177,12.2296],[75.6917,12.1833],[75.7008,12.2074],[75.7451,12.2117],[75.7632,12.1549],[75.8074,12.1576],[75.8302,12.1245],[75.8942,12.1291],[75.9369,12.098],[75.9424,12.0718],[75.9701,12.07],[75.9661,11.9645],[75.925,11.9208],[75.9371,11.9108],[75.9328,11.8259],[75.8199,11.8535],[75.7958,11.8375],[75.8009,11.8134],[75.8283,11.8035],[75.8257,11.7259],[75.8509,11.7048],[75.9089,11.6946],[75.9042,11.6417],[75.9583,11.5833],[75.975,11.5417],[76.0476,11.5087],[76.1351,11.5538],[76.1696,11.5369],[76.2147,11.5506],[76.2254,11.5809],[76.2125,11.6292],[76.2316,11.633],[76.2673,11.5676],[76.3368,11.5284],[76.3417,11.4875],[76.3845,11.4703],[76.4275,11.4788],[76.4586,11.4616],[76.4549,11.4383],[76.4955,11.3975],[76.4559,11.3871],[76.4042,11.3125],[76.4216,11.284],[76.4492,11.2827],[76.4792,11.25],[76.4583,11.2333],[76.4714,11.2155],[76.4583,11.1917],[76.4833,11.1083],[76.4508,11.08],[76.4635,11.066],[76.5875,11.0667],[76.6131,10.9552],[76.7226,10.9004],[76.8405,10.8994],[76.9152,10.925],[76.9244,10.8978],[76.8542,10.825],[76.8566,10.7879],[76.8208,10.7792],[76.7542,10.7917],[76.7509,10.7799],[76.7911,10.7564],[76.772,10.7494],[76.5542,10.7958],[76.55,10.8375],[76.5616,10.8408],[76.5365,10.8577],[76.4384,10.8717],[76.4366,10.9158],[76.4175,10.93],[76.4033,10.9784],[76.2967,10.9798],[76.2259,11.0298],[76.2292,11.1104],[76.3083,11.1208],[76.2741,11.1783],[76.2258,11.166],[76.2228,11.1786],[76.1228,11.1381],[76.0758,11.1841],[76.0708,11.2083],[76.0218,11.2337],[76.0294,11.2697],[75.9979,11.2829],[75.9667,11.2792],[75.9417,11.2542],[75.8971,11.2668],[75.9006,11.2818],[75.884,11.28],[75.8792,11.3],[75.9244,11.3853],[75.9381,11.4841],[75.9283,11.5326],[75.8625,11.5167],[75.8408,11.5658],[75.7167,11.6875],[75.6465,11.7009],[75.6465,11.7198],[75.6635,11.7161],[75.7243,11.7592],[75.7203,11.7939],[75.6675,11.8091],[75.6495,11.8381],[75.6037,11.8244],[75.5703,11.8551],[75.625,11.9083],[75.7042,11.9083],[75.7031,11.9373],[75.6702,11.968],[75.677,11.9869],[75.6958,11.9875],[75.6786,12.0093],[75.7034,12.0384],[75.7,12.1],[75.6616,12.0257],[75.6021,12.0046],[75.5716,12.0217],[75.575,12.05],[75.525,12.0833],[75.5042,12.1375],[75.4083,12.1625],[75.375,12.2375],[75.4365,12.234],[75.45,12.2625],[75.4133,12.2673],[75.4125,12.2917],[75.3312,12.2625],[75.2667,12.275],[75.2672,12.3218],[75.2465,12.3426],[75.2417,12.3917],[75.2958,12.4083],[75.2506,12.4647],[75.2875,12.4917],[75.3333,12.5],[75.3548,12.5372],[75.3508,12.5617],[75.4128,12.5884],[75.3715,12.6092],[75.3842,12.6325],[75.4229,12.6454],[75.4542,12.6375],[75.4506,12.6946],[75.4078,12.7257],[75.4314,12.7393],[75.3956,12.7655],[75.4327,12.7967],[75.4375,12.8542],[75.3561,12.8797],[75.3583,12.9083],[75.3441,12.9163],[75.3213,12.8744],[75.2841,12.8966],[75.2417,13.0],[75.1591,13.0007],[75.1375,13.0542],[75.1076,13.0342],[75.0708,13.0333],[75.0491,13.0619],[75.0167,13.0625],[75.0117,13.0867],[74.9952,13.092],[74.9994,13.1313],[75.0319,13.1244],[75.0917,13.1583],[75.0741,13.2116],[75.0425,13.2341],[75.05,13.2542],[75.0226,13.2587],[74.9608,13.3163],[74.9167,13.3292],[74.9426,13.359],[74.9681,13.3452],[75.0,13.3667],[74.9865,13.3867],[74.9218,13.409],[74.8805,13.3869],[74.7867,13.3869],[74.7456,13.4053],[74.7468,13.4242],[74.7824,13.4339],[74.8076,13.4203],[74.8345,13.4337],[74.8855,13.4256],[74.9328,13.4647],[74.9199,13.4839],[74.9054,13.4744],[74.8824,13.5076],[74.859,13.5009],[74.85,13.5208],[74.8833,13.5625],[74.849,13.6535],[74.8093,13.6586],[74.7847,13.6327],[74.7591,13.6425],[74.7625,13.6667],[74.8083,13.6875],[74.7673,13.7134],[74.7583,13.7583],[74.7833,13.8],[74.7667,13.8083],[74.7575,13.8617],[74.7175,13.8716],[74.7163,13.9733],[74.6241,14.0327],[74.5875,14.0375],[74.6129,14.0865],[74.6661,14.1353],[74.6208,14.15],[74.6508,14.2326],[74.6907,14.2343],[74.6625,14.2375],[74.6792,14.2958],[74.7066,14.3038],[74.8238,14.2578]],[[74.9709,13.7836],[75.0029,13.7454],[75.032,13.7583],[74.9709,13.7836]],[[75.029,13.72],[75.0468,13.6768],[75.0428,13.6983],[75.0596,13.6995],[75.029,13.72]]],[[[76.7833,10.6458],[76.8037,10.6548],[76.87,10.6325],[76.8757,10.5968],[76.8978,10.5756],[76.9274,10.5788],[76.9343,10.5633],[76.9726,10.5545],[76.9917,10.6042],[77.0771,10.5797],[77.1417,10.5917],[77.1712,10.5767],[77.1547,10.5145],[77.2038,10.4309],[77.1833,10.3958],[77.1259,10.3825],[77.1202,10.3343],[77.0923,10.3199],[77.1172,10.2924],[77.0953,10.2551],[77.1047,10.2405],[77.075,10.225],[77.0441,10.2663],[77.0233,10.2712],[77.0024,10.2504],[76.9458,10.2375],[76.9282,10.1966],[76.8833,10.1625],[76.9075,10.145],[76.9091,10.08],[76.9521,10.0671],[77.0042,10.075],[77.0103,10.0547],[77.0411,10.048],[77.0547,10.0071],[77.0458,9.9932],[77.0667,9.975],[77.0507,9.9699],[77.0547,9.9384],[77.1535,9.9114],[77.1917,9.8708],[77.2381,9.8573],[77.225,9.8333],[77.2062,9.837],[77.1591,9.7992],[77.1413,9.7309],[77.1118,9.6926],[77.0119,9.6575],[77.0868,9.6033],[77.0917,9.5625],[77.0746,9.5387],[77.1048,9.5088],[77.0792,9.4583],[77.0757,9.4176],[77.0875,9.4083],[77.0708,9.4125],[77.0712,9.4017],[77.1246,9.3858],[77.125,9.3521],[77.1499,9.3147],[77.1308,9.3092],[77.1625,9.2917],[77.1212,9.2816],[77.1254,9.2517],[77.1583,9.2125],[77.1943,9.2167],[77.2619,9.1824],[77.2669,9.1511],[77.2083,9.1],[77.1958,9.0458],[77.1684,9.0455],[77.15,9.0208],[77.1923,8.955],[77.1879,8.9309],[77.2358,8.9038],[77.2621,8.8608],[77.2328,8.7887],[77.2009,8.766],[77.1917,8.7208],[77.2042,8.6833],[77.225,8.6708],[77.2212,8.6517],[77.277,8.5714],[77.3417,8.5542],[77.3674,8.5259],[77.45,8.4958],[77.4417,8.4792],[77.4714,8.4507],[77.4631,8.4311],[77.4925,8.3508],[77.5422,8.2757],[77.5325,8.2175],[77.5008,8.216],[77.4566,8.1629],[77.4215,8.1634],[77.3886,8.209],[77.3958,8.2542],[77.3542,8.2667],[77.3272,8.3036],[77.2934,8.2962],[77.2542,8.3458],[77.2297,8.3478],[77.2048,8.4479],[77.2167,8.4708],[77.1949,8.4991],[77.1555,8.5173],[77.1302,8.4994],[77.0979,8.5537],[77.075,8.5333],[77.0042,8.5708],[77.0504,8.6517],[76.9991,8.716],[76.9542,8.7458],[76.9536,8.7655],[76.9702,8.7759],[76.975,8.8167],[77.0327,8.8385],[77.0285,8.8824],[76.9962,8.9017],[76.9839,8.9354],[76.9827,8.962],[77.0086,8.9905],[76.9882,9.0009],[76.9958,9.0208],[76.9729,9.0125],[76.9208,9.0375],[76.9458,9.1042],[76.9125,9.1083],[76.899,9.1619],[76.8701,9.1578],[76.8246,9.1863],[76.8788,9.2267],[76.8833,9.2458],[76.8337,9.3017],[76.8161,9.401],[76.8375,9.425],[76.8574,9.4122],[76.875,9.4521],[76.8298,9.5229],[76.8534,9.5383],[76.8452,9.5979],[76.7798,9.6718],[76.725,9.8083],[76.7792,9.8083],[76.7868,9.8366],[76.7708,9.8485],[76.784,9.8783],[76.8458,9.8625],[76.8078,9.9676],[76.825,9.9833],[76.8634,9.9703],[76.8783,9.9866],[76.6853,10.0922],[76.6405,10.1337],[76.5965,10.1116],[76.5871,10.0885],[76.5375,10.0792],[76.5214,10.1104],[76.5284,10.1285],[76.4551,10.1632],[76.4167,10.2042],[76.4292,10.2521],[76.4199,10.2785],[76.3417,10.3333],[76.3575,10.3575],[76.3203,10.3841],[76.3119,10.4299],[76.3422,10.4593],[76.3258,10.5159],[76.3781,10.5118],[76.4243,10.4703],[76.475,10.4833],[76.4328,10.5468],[76.4441,10.5629],[76.4816,10.567],[76.5186,10.6119],[76.5524,10.6205],[76.6208,10.5875],[76.6119,10.6132],[76.626,10.645],[76.6921,10.641],[76.7167,10.6667],[76.7833,10.6458]],[[76.4611,10.4378],[76.491,10.4251],[76.4883,10.4397],[76.5006,10.4372],[76.4917,10.4472],[76.4695,10.4403],[76.4645,10.4581],[76.4611,10.4378]],[[76.636,10.3096],[76.652,10.3098],[76.6725,10.283],[76.6514,10.3276],[76.636,10.3096]]],[[[77.0921,9.9329],[77.0733,9.9396],[77.0575,9.957],[77.079,9.949],[77.0921,9.9329]]]]}}