{"type":"Feature","properties":{"speciesId":622,"category":"LC","source":"IUCN Red List","simplifyTol":0.01,"clippedToSubcontinent":true},"geometry":{"type":"Polygon","coordinates":[[[73.6434,22.2158],[73.6116,22.0107],[73.4136,21.7102],[73.2545,21.5334],[73.0211,21.4309],[72.6468,21.3611],[72.6972,21.459],[72.6501,21.4411],[72.6414,21.456],[72.7409,21.5657],[72.8165,21.6136],[72.8282,21.6563],[72.8455,21.6663],[72.9193,21.6478],[73.0375,21.7005],[73.0901,21.7051],[73.1077,21.7297],[73.064,21.7327],[72.9438,21.6753],[72.8728,21.6882],[72.7776,21.6604],[72.7389,21.6861],[72.6033,21.6764],[72.543,21.6564],[72.5317,21.7209],[72.5458,21.6943],[72.5756,21.7047],[72.5659,21.7328],[72.6,21.7159],[72.5857,21.7265],[72.6033,21.7563],[72.5992,21.7954],[72.6458,21.8329],[72.6544,21.8912],[72.675,21.8872],[72.6786,21.912],[72.6878,21.886],[72.7223,21.8841],[72.7187,21.9318],[72.7786,21.9518],[72.746,21.988],[72.7719,22.0014],[72.7754,22.0168],[72.735,21.9912],[72.7203,22.0212],[72.7074,21.9796],[72.6933,21.9852],[72.6999,21.9716],[72.6465,21.9619],[72.6488,21.9881],[72.6368,22.0028],[72.6401,21.9548],[72.6281,21.9705],[72.6332,21.9546],[72.5304,21.9024],[72.5042,21.9431],[72.5471,22.1572],[72.6099,22.2151],[72.6631,22.211],[72.7419,22.1758],[72.7668,22.1936],[72.7581,22.2163],[72.7121,22.2444],[72.6273,22.255],[72.6127,22.2672],[72.6495,22.2643],[72.6288,22.2759],[72.5679,22.2652],[72.6254,22.2802],[72.5931,22.2817],[72.479,22.2205],[72.4931,22.2641],[72.4597,22.2136],[72.4151,22.2149],[72.4247,22.2006],[72.4084,22.1524],[72.381,22.1539],[72.3885,22.1924],[72.3709,22.1814],[72.3689,22.1449],[72.367,22.1858],[72.3907,22.2002],[72.3697,22.1934],[72.3821,22.2262],[72.3704,22.2843],[72.4013,22.3249],[72.3667,22.3217],[72.342,22.2572],[72.3386,22.3066],[72.3287,22.2926],[72.3459,22.2239],[72.3116,22.1866],[72.2953,22.2249],[72.3209,22.1379],[72.242,22.0036],[72.2551,21.8193],[72.2391,21.7952],[72.2185,21.8162],[72.2081,21.8058],[72.3028,21.6256],[72.2135,21.4247],[72.112,21.3047],[72.0758,21.3224],[72.1088,21.2927],[72.097,21.2799],[72.0872,21.2893],[72.0985,21.2661],[71.3522,21.1126],[70.7263,21.1056],[70.0722,21.1551],[70.0171,21.1847],[69.737,21.4993],[69.5945,21.6333],[69.5993,21.6524],[69.5869,21.6382],[69.3827,22.0178],[69.4004,22.1274],[69.464,22.2052],[69.5454,22.2123],[69.8636,22.1168],[70.2525,21.9365],[70.5566,21.834],[70.9173,21.7809],[71.1895,21.841],[71.331,21.9506],[71.6952,22.5836],[71.7942,22.7992],[71.9993,22.9725],[72.2998,23.0963],[72.4625,23.1387],[73.1767,23.1352],[73.4384,23.1104],[73.5656,23.0821],[73.5939,23.0503],[73.6364,22.6826],[73.6434,22.2158]]]}}