{"type":"Feature","properties":{"speciesId":628,"category":"LC","source":"IUCN Red List","simplifyTol":0.01,"clippedToSubcontinent":true},"geometry":{"type":"MultiPolygon","coordinates":[[[[77.5093,10.1412],[77.4456,10.173],[77.4138,10.2527],[77.4854,10.3243],[77.589,10.3164],[77.6288,10.2128],[77.589,10.1412],[77.5093,10.1412]]],[[[77.0395,11.495],[76.92,11.3358],[76.7129,11.28],[76.689,11.2083],[76.6333,11.1526],[76.5138,11.1526],[76.4023,11.1844],[76.3944,11.2322],[76.2909,11.3198],[76.2829,11.4154],[76.4183,11.4313],[76.5218,11.5269],[76.6253,11.5667],[76.6731,11.5508],[76.9439,11.5667],[77.0395,11.495]]]]}}