{"type":"Feature","properties":{"speciesId":635,"category":"VU","source":"IUCN Red List","simplifyTol":0.01,"clippedToSubcontinent":true},"geometry":{"type":"MultiPolygon","coordinates":[[[[91.9828,26.2133],[92.0436,26.2008],[92.0461,26.2148],[92.0921,26.1893],[92.0816,26.1791],[92.1681,26.1649],[92.1804,26.0685],[92.3016,26.0765],[92.1563,25.9448],[92.1637,25.9118],[92.2255,25.907],[92.1799,25.8702],[92.1531,25.8127],[92.1655,25.7344],[92.1496,25.7145],[92.1698,25.6664],[92.229,25.7162],[92.4028,25.7346],[92.434,25.7148],[92.4236,25.6971],[92.4582,25.6834],[92.499,25.6207],[92.3421,25.48],[92.295,25.4729],[92.2235,25.4874],[91.809,25.6411],[91.8291,25.6895],[91.8092,25.7341],[91.7692,25.744],[91.7887,25.7915],[91.7504,25.8279],[91.708,25.8206],[91.6986,25.8054],[91.5875,25.8125],[91.4589,25.7889],[91.3478,25.8196],[91.554,25.9954],[91.6659,26.1365],[91.704,26.1415],[91.8296,26.1056],[91.8648,26.1634],[91.8201,26.1982],[91.9559,26.2397],[91.9828,26.2133]]],[[[93.066,26.4885],[93.0332,26.5047],[93.0195,26.539],[93.2529,26.6004],[93.066,26.4885]]]]}}