{"type":"Feature","properties":{"speciesId":637,"category":"LC","source":"IUCN Red List","simplifyTol":0.01,"clippedToSubcontinent":true},"geometry":{"type":"MultiPolygon","coordinates":[[[[93.8205,24.5386],[93.7956,24.5475],[93.806,24.57],[93.8241,24.5635],[93.8205,24.5386]]],[[[92.4596,27.4951],[92.5455,27.5541],[92.6529,27.5635],[92.7195,27.5522],[92.8615,27.4437],[92.9867,27.2767],[93.0201,27.1515],[93.0284,27.068],[92.9867,26.9678],[92.9199,26.9428],[92.778,26.9428],[92.586,27.0346],[92.4858,27.1181],[92.4097,27.3367],[92.4131,27.4018],[92.4596,27.4951]]],[[[93.6071,27.5027],[93.4984,27.5308],[93.4126,27.5954],[93.3573,27.6875],[93.3408,27.7984],[93.3688,27.9071],[93.4335,27.9928],[93.5302,28.0498],[93.6365,28.0647],[93.7451,28.0366],[93.8309,27.972],[93.8879,27.8753],[93.9028,27.769],[93.8768,27.6648],[93.8101,27.5746],[93.7134,27.5176],[93.6071,27.5027]]],[[[95.932,28.2977],[95.8315,28.3218],[95.7514,28.38],[95.699,28.4639],[95.6819,28.5659],[95.7061,28.6664],[95.7642,28.7465],[95.8482,28.7989],[95.9501,28.816],[96.0507,28.7918],[96.1307,28.7337],[96.1848,28.6455],[96.2002,28.5478],[96.178,28.4513],[96.1179,28.3672],[96.0298,28.3131],[95.932,28.2977]]],[[[94.0042,28.6755],[94.1146,28.8227],[94.2471,28.9037],[94.5818,29.0441],[94.6851,29.0414],[94.7755,29.0012],[94.8467,28.9262],[94.8822,28.8338],[94.8829,28.7482],[94.8506,28.6387],[94.7034,28.5136],[94.3722,28.3885],[94.2471,28.3811],[94.0778,28.4032],[94.0042,28.5504],[94.0042,28.6755]]],[[[81.5282,30.0927],[82.0075,30.1398],[82.1241,30.1317],[82.2185,30.103],[82.9381,29.619],[83.1005,29.4982],[83.2886,29.3261],[83.378,29.2685],[83.5806,29.2224],[83.7333,29.2129],[83.9842,29.2349],[84.0939,29.2022],[84.1666,29.1377],[84.2425,29.0374],[84.3421,28.7534],[84.4384,28.6533],[84.5586,28.571],[84.7359,28.5111],[85.1821,28.5186],[85.3105,28.4996],[85.3738,28.4578],[85.4874,28.3026],[85.6162,28.2028],[85.8221,28.098],[86.108,27.9964],[86.4571,27.9174],[86.8028,27.863],[87.1637,27.8283],[87.5134,27.8183],[88.0697,27.8588],[88.2961,27.9018],[88.509,27.9712],[88.6318,27.9805],[88.7868,28.0165],[88.8403,28.0122],[88.9019,27.9501],[88.9355,27.8183],[88.9442,27.5024],[88.9186,27.3489],[88.8642,27.2691],[88.6558,27.1184],[88.5827,26.9551],[88.4702,26.8972],[88.1239,26.7981],[87.8208,26.7512],[87.4139,26.7356],[86.9905,26.7568],[86.703,26.8046],[86.3672,26.8856],[85.1212,27.2329],[84.1544,27.5509],[83.3204,27.7394],[82.1883,28.1319],[81.748,28.2066],[81.5969,28.3041],[81.2913,28.6313],[81.0119,28.7801],[80.6976,28.8902],[80.3872,28.9514],[80.2214,29.0258],[79.9575,29.0333],[79.8564,29.0537],[79.7097,29.1201],[79.4047,29.325],[79.2615,29.3986],[79.1351,29.4304],[78.8134,29.4579],[78.6925,29.506],[78.6495,29.5593],[78.6007,29.7109],[78.5653,29.7677],[78.4993,29.8146],[78.3099,29.9032],[78.1187,30.0453],[77.9182,30.2447],[77.759,30.4588],[77.6279,30.722],[77.4435,31.2171],[77.4222,31.3552],[77.4469,31.5542],[77.5083,31.6372],[77.6433,31.6947],[77.8169,31.7166],[77.9585,31.6856],[78.4924,31.4761],[79.4086,31.0227],[80.4934,30.5495],[81.1549,30.1856],[81.359,30.1136],[81.5282,30.0927]]]]}}