{"type":"Feature","properties":{"speciesId":638,"category":"LC","source":"IUCN Red List","simplifyTol":0.01,"clippedToSubcontinent":true},"geometry":{"type":"MultiPolygon","coordinates":[[[[90.4131,27.0918],[90.3988,27.106],[90.4131,27.1203],[90.4274,27.106],[90.4131,27.0918]]],[[[95.3533,28.8057],[95.4595,28.7801],[95.6871,28.7976],[95.9023,28.7922],[96.1899,28.7444],[96.2562,28.7044],[96.2914,28.6413],[96.2938,28.5688],[96.2513,28.4351],[96.2822,28.3681],[96.3468,28.336],[96.4074,28.3318],[96.5897,28.4285],[96.7262,28.3099],[96.7782,28.1972],[96.7542,28.0732],[96.6082,27.8888],[96.4805,27.6586],[96.4009,27.5671],[96.3547,27.5323],[96.3455,27.8758],[96.2623,27.9752],[96.1694,28.0529],[95.8419,28.1823],[95.7587,28.3029],[95.6658,28.3244],[95.5289,28.2426],[95.3865,28.1245],[95.1039,27.9593],[94.8271,27.8328],[94.488,27.7054],[94.0968,27.518],[93.9781,27.4272],[93.7395,27.1838],[93.6445,27.1316],[93.4687,27.11],[93.1601,27.139],[93.0812,27.1813],[92.8262,27.3883],[92.8215,27.4144],[92.8405,27.4398],[92.7843,27.4693],[92.7742,27.559],[92.8748,27.7208],[93.3658,28.1219],[93.6594,28.2594],[93.7436,28.3163],[93.909,28.5403],[94.024,28.7611],[94.0956,28.8289],[94.1983,28.8676],[94.2954,28.8779],[94.4303,28.864],[94.5799,28.8071],[94.6598,28.8251],[94.7241,28.8668],[94.763,28.9204],[94.8785,29.2535],[94.9244,29.2891],[95.0152,29.3011],[95.1272,29.2808],[95.1786,29.2364],[95.2173,29.1509],[95.2891,28.8937],[95.3533,28.8057]]]]}}