{"type":"Feature","properties":{"speciesId":639,"category":"NT","source":"IUCN Red List","simplifyTol":0.01,"clippedToSubcontinent":true},"geometry":{"type":"MultiPolygon","coordinates":[[[[91.9722,27.158],[92.452,27.1682],[92.5583,27.143],[92.5728,27.1093],[92.563,27.0775],[92.1663,27.0371],[91.9103,27.0532],[91.7156,27.0974],[91.6078,27.1455],[91.5254,27.2101],[91.4879,27.291],[91.5252,27.3298],[91.6158,27.3161],[91.7901,27.1884],[91.9722,27.158]]],[[[88.6943,27.4225],[88.6461,27.4072],[88.4594,27.4208],[88.3864,27.3805],[88.3415,27.3081],[88.3172,27.2169],[88.3192,27.1659],[88.3647,27.069],[88.3499,27.0453],[88.2856,27.0395],[88.2388,27.0546],[88.1288,27.1449],[88.0874,27.2027],[88.0819,27.2829],[88.1107,27.3668],[88.3159,27.5669],[88.3975,27.7013],[88.439,27.8077],[88.4895,27.8451],[88.56,27.8548],[88.651,27.8312],[88.7017,27.7922],[88.7444,27.7271],[88.7764,27.6277],[88.7784,27.5332],[88.7524,27.4679],[88.6943,27.4225]]]]}}