{"type":"Feature","properties":{"speciesId":640,"category":"LC","source":"IUCN Red List","simplifyTol":0.01,"clippedToSubcontinent":true},"geometry":{"type":"MultiPolygon","coordinates":[[[[94.9417,17.9417],[94.9382,17.9325],[94.9325,17.9385],[94.9417,17.9417]]],[[[94.9417,17.9417],[94.9452,17.9508],[94.9508,17.9448],[94.9417,17.9417]]],[[[94.7116,17.9966],[94.7271,17.8747],[94.6854,17.8631],[94.6677,17.7759],[94.6386,17.7515],[94.6703,17.7182],[94.6526,17.6989],[94.6651,17.6797],[94.6511,17.6349],[94.6318,17.6516],[94.6387,17.6778],[94.5953,17.7171],[94.6177,17.7414],[94.5864,17.7715],[94.5759,17.821],[94.527,17.8069],[94.5066,17.8946],[94.5216,17.9062],[94.5547,17.8862],[94.5575,17.9074],[94.6027,17.9207],[94.6122,17.901],[94.639,17.9084],[94.6526,17.8821],[94.6903,17.8761],[94.6814,17.904],[94.7175,17.9185],[94.7116,17.9966]]],[[[94.7189,18.0085],[94.7271,18.0159],[94.734,18.0125],[94.7189,18.0085]]],[[[94.6161,18.0106],[94.6075,18.0114],[94.6138,18.0185],[94.6161,18.0106]]],[[[94.7165,18.0228],[94.7,18.0208],[94.7126,18.0334],[94.7165,18.0228]]],[[[94.9294,18.0091],[94.9178,18.019],[94.9167,18.0333],[94.9324,18.0222],[94.9294,18.0091]]],[[[94.6803,17.9968],[94.6627,17.9861],[94.645,17.9968],[94.6373,17.9782],[94.6273,17.9936],[94.6542,18.0523],[94.6803,17.9968]]],[[[94.8152,18.0499],[94.7935,18.0619],[94.8021,18.0729],[94.8142,18.0719],[94.8152,18.0499]]],[[[94.9758,18.0802],[94.9685,18.0765],[94.9667,18.0833],[94.9758,18.0802]]],[[[94.7042,18.1357],[94.7634,18.0705],[94.7624,18.036],[94.7309,18.0799],[94.7111,18.0709],[94.7042,18.1357]]],[[[94.7333,18.1667],[94.7425,18.1632],[94.7365,18.1575],[94.7333,18.1667]]],[[[94.7329,18.1741],[94.7253,18.1678],[94.726,18.1747],[94.7329,18.1741]]],[[[94.9675,18.1782],[94.9605,18.1829],[94.9618,18.1842],[94.9675,18.1782]]],[[[94.6254,18.2334],[94.6484,18.213],[94.6721,18.1219],[94.6622,18.086],[94.6448,18.1028],[94.6254,18.2334]]],[[[94.6998,18.2307],[94.6919,18.219],[94.6939,18.2332],[94.6998,18.2307]]],[[[94.9411,18.2273],[94.9325,18.2281],[94.9388,18.2352],[94.9411,18.2273]]],[[[94.6246,18.2408],[94.617,18.2344],[94.6177,18.2413],[94.6246,18.2408]]],[[[94.6895,18.2412],[94.6825,18.2365],[94.6882,18.2425],[94.6895,18.2412]]],[[[94.6144,18.2498],[94.6062,18.2425],[94.5994,18.2459],[94.6144,18.2498]]],[[[94.945,18.2679],[94.9328,18.2712],[94.9524,18.2708],[94.945,18.2679]]],[[[94.829,18.2668],[94.8261,18.282],[94.8417,18.2833],[94.8405,18.2772],[94.829,18.2668]]],[[[94.75,18.2917],[94.7592,18.2882],[94.7532,18.2825],[94.75,18.2917]]],[[[94.9425,18.3032],[94.9355,18.3079],[94.9368,18.3092],[94.9425,18.3032]]],[[[94.6327,18.3106],[94.6242,18.3114],[94.6305,18.3185],[94.6327,18.3106]]],[[[94.6001,18.2839],[94.5843,18.2966],[94.5866,18.3299],[94.6077,18.3022],[94.6001,18.2839]]],[[[94.8165,18.3311],[94.8089,18.3238],[94.8083,18.3333],[94.8165,18.3311]]],[[[94.7827,18.3356],[94.7742,18.3364],[94.7805,18.3435],[94.7827,18.3356]]],[[[94.8758,18.3448],[94.8689,18.3496],[94.8702,18.3508],[94.8758,18.3448]]],[[[94.6562,18.3829],[94.6492,18.3782],[94.6549,18.3842],[94.6562,18.3829]]],[[[94.7495,18.2919],[94.7432,18.259],[94.698,18.3139],[94.7054,18.2948],[94.6856,18.2887],[94.6588,18.3665],[94.6712,18.3803],[94.6856,18.3373],[94.7061,18.3282],[94.7041,18.4055],[94.7271,18.3207],[94.7495,18.2919]]],[[[94.6161,18.4274],[94.6099,18.4277],[94.6138,18.4352],[94.6161,18.4274]]],[[[94.7244,18.444],[94.7159,18.4447],[94.7222,18.4518],[94.7244,18.444]]],[[[94.8161,18.5106],[94.8075,18.5114],[94.8138,18.5185],[94.8161,18.5106]]],[[[94.8083,18.5417],[94.8006,18.5417],[94.8041,18.5508],[94.8083,18.5417]]],[[[94.7849,18.5638],[94.7678,18.5067],[94.797,18.4873],[94.7613,18.4887],[94.7527,18.4702],[94.7945,18.4358],[94.8291,18.4631],[94.8422,18.4508],[94.8727,18.4562],[94.8631,18.435],[94.803,18.4241],[94.8101,18.3792],[94.821,18.3888],[94.8382,18.3779],[94.8725,18.4042],[94.8518,18.3778],[94.8627,18.3617],[94.8448,18.3533],[94.8683,18.3195],[94.9029,18.3313],[94.9032,18.3011],[94.9306,18.2966],[94.9129,18.2694],[94.8943,18.2714],[94.8945,18.2377],[94.9134,18.2288],[94.9056,18.2094],[94.9558,18.2138],[94.9274,18.1709],[94.9639,18.1639],[94.8847,18.1277],[94.9657,18.0933],[94.9459,18.053],[94.9188,18.0795],[94.9054,18.0113],[94.8607,18.0046],[94.8972,17.9779],[94.8794,17.9692],[94.8346,17.9862],[94.8567,17.9628],[94.858,17.9261],[94.902,17.9051],[94.8851,17.8417],[94.835,17.8666],[94.8263,17.9154],[94.8417,17.9285],[94.8207,17.9648],[94.804,17.9364],[94.7338,17.9439],[94.7369,17.9969],[94.7607,17.9618],[94.7963,17.9605],[94.7693,18.0209],[94.8052,18.0027],[94.8026,18.0372],[94.8204,18.0268],[94.8188,18.0452],[94.8321,18.0476],[94.8279,18.0806],[94.8642,18.0707],[94.8553,18.1137],[94.8366,18.1219],[94.8379,18.1023],[94.8175,18.1008],[94.8145,18.1296],[94.8043,18.1203],[94.7947,18.1398],[94.7617,18.1367],[94.7822,18.1737],[94.7729,18.1965],[94.7195,18.1773],[94.7029,18.2126],[94.7211,18.2302],[94.7463,18.2275],[94.7637,18.2721],[94.8227,18.2226],[94.8189,18.1784],[94.8401,18.1903],[94.8663,18.1821],[94.8362,18.2288],[94.8739,18.2596],[94.8513,18.2721],[94.8387,18.3232],[94.7534,18.3772],[94.7824,18.3831],[94.7728,18.4124],[94.7531,18.4213],[94.7554,18.4469],[94.6779,18.4882],[94.6882,18.4972],[94.7303,18.4779],[94.7474,18.5233],[94.6946,18.5374],[94.7552,18.5523],[94.7289,18.5721],[94.7849,18.5638]],[[94.8171,18.1592],[94.8247,18.1656],[94.8167,18.1667],[94.8171,18.1592]]],[[[94.6925,18.5718],[94.6851,18.5682],[94.6833,18.575],[94.6925,18.5718]]],[[[94.7167,18.5833],[94.7132,18.5742],[94.7075,18.5802],[94.7167,18.5833]]],[[[94.8667,18.6333],[94.8758,18.6298],[94.8698,18.6242],[94.8667,18.6333]]],[[[94.8663,18.6408],[94.8586,18.6344],[94.8594,18.6413],[94.8663,18.6408]]],[[[94.5917,18.6583],[94.6008,18.6548],[94.5948,18.6492],[94.5917,18.6583]]],[[[94.5917,18.6583],[94.5825,18.6618],[94.5885,18.6675],[94.5917,18.6583]]],[[[94.7167,18.5833],[94.6874,18.6145],[94.6699,18.5777],[94.6445,18.6292],[94.6891,18.6381],[94.6448,18.6725],[94.7138,18.6553],[94.7113,18.62],[94.7334,18.5961],[94.7291,18.5858],[94.7232,18.5836],[94.718,18.5832],[94.7167,18.5833]]],[[[94.5583,18.675],[94.5512,18.6821],[94.5665,18.6798],[94.5583,18.675]]],[[[94.6417,18.675],[94.6258,18.6823],[94.6407,18.6823],[94.6417,18.675]]],[[[94.6246,18.6908],[94.617,18.6844],[94.6177,18.6913],[94.6246,18.6908]]],[[[94.6145,18.6996],[94.6075,18.6948],[94.6132,18.7008],[94.6145,18.6996]]],[[[94.5411,18.7106],[94.5325,18.7114],[94.5388,18.7185],[94.5411,18.7106]]],[[[94.6315,18.7265],[94.6242,18.7302],[94.6333,18.7333],[94.6315,18.7265]]],[[[94.5562,18.8246],[94.5492,18.8198],[94.5549,18.8258],[94.5562,18.8246]]],[[[94.5411,18.819],[94.5325,18.8197],[94.5388,18.8268],[94.5411,18.819]]],[[[94.7128,18.8387],[94.7474,18.8182],[94.7197,18.8136],[94.7095,18.7902],[94.747,18.7637],[94.7281,18.7547],[94.7284,18.7358],[94.7549,18.7466],[94.7715,18.7292],[94.7623,18.7192],[94.7812,18.7125],[94.7617,18.6842],[94.7988,18.659],[94.8723,18.6625],[94.8383,18.6201],[94.7878,18.6479],[94.7884,18.6116],[94.7609,18.6189],[94.7358,18.6442],[94.7386,18.6636],[94.7022,18.6859],[94.7228,18.7047],[94.6976,18.7381],[94.6617,18.7479],[94.6739,18.7094],[94.6628,18.7019],[94.561,18.8125],[94.5889,18.8388],[94.605,18.8027],[94.6197,18.8307],[94.636,18.8324],[94.6767,18.7676],[94.662,18.815],[94.6816,18.8115],[94.6869,18.8297],[94.7128,18.8387]]],[[[94.7333,18.8333],[94.7343,18.841],[94.7429,18.8375],[94.7333,18.8333]]],[[[94.5327,18.8356],[94.5242,18.8364],[94.5305,18.8435],[94.5327,18.8356]]],[[[94.5144,18.8369],[94.4781,18.8298],[94.5055,18.8475],[94.5144,18.8369]]],[[[94.8205,18.8761],[94.8091,18.8961],[94.8151,18.8994],[94.8247,18.8954],[94.8205,18.8761]]],[[[94.6228,18.8996],[94.6158,18.8948],[94.6215,18.9008],[94.6228,18.8996]]],[[[94.4744,18.894],[94.4659,18.8947],[94.4722,18.9018],[94.4744,18.894]]],[[[94.4988,18.9456],[94.4858,18.9274],[94.4689,18.9468],[94.4988,18.9456]]],[[[94.45,18.975],[94.4465,18.9659],[94.4408,18.9718],[94.45,18.975]]],[[[94.45,18.975],[94.4348,18.9963],[94.4384,19.0071],[94.4639,18.9958],[94.4631,18.9791],[94.4565,18.9758],[94.4514,18.975],[94.45,18.975]]],[[[94.4244,19.0023],[94.4159,19.0031],[94.4222,19.0102],[94.4244,19.0023]]],[[[94.6579,19.0324],[94.6503,19.0261],[94.651,19.033],[94.6579,19.0324]]],[[[94.3744,19.044],[94.3659,19.0447],[94.3722,19.0518],[94.3744,19.044]]],[[[94.7215,19.0668],[94.7154,19.0505],[94.6915,19.0588],[94.7215,19.0668]]],[[[94.7425,19.0698],[94.7355,19.0746],[94.7368,19.0758],[94.7425,19.0698]]],[[[94.5758,19.0802],[94.5685,19.0765],[94.5667,19.0833],[94.5758,19.0802]]],[[[94.3507,19.0799],[94.3738,19.0876],[94.3625,19.0679],[94.3507,19.0799]]],[[[94.4077,19.0856],[94.3992,19.0864],[94.4055,19.0935],[94.4077,19.0856]]],[[[94.7077,19.0856],[94.6992,19.0864],[94.7055,19.0935],[94.7077,19.0856]]],[[[94.3488,19.0978],[94.334,19.0938],[94.3368,19.108],[94.3488,19.0978]]],[[[94.4205,19.1106],[94.4103,19.1025],[94.4075,19.1036],[94.4205,19.1106]]],[[[94.4083,19.1417],[94.4049,19.1325],[94.3992,19.1385],[94.4083,19.1417]]],[[[94.3833,19.1333],[94.3756,19.1333],[94.3791,19.1424],[94.3833,19.1333]]],[[[94.4083,19.1417],[94.4092,19.1521],[94.4125,19.159],[94.4165,19.1439],[94.414,19.1419],[94.4119,19.1416],[94.4083,19.1417]]],[[[94.4802,19.1758],[94.4755,19.1688],[94.4742,19.1702],[94.4802,19.1758]]],[[[94.6411,19.2023],[94.6325,19.2031],[94.6388,19.2102],[94.6411,19.2023]]],[[[94.5327,19.2273],[94.5242,19.2281],[94.5305,19.2352],[94.5327,19.2273]]],[[[94.5925,19.2385],[94.5853,19.2343],[94.5833,19.2417],[94.5925,19.2385]]],[[[94.6127,19.2418],[94.6012,19.2522],[94.6,19.2583],[94.6156,19.257],[94.6127,19.2418]]],[[[94.4661,19.2718],[94.4434,19.2677],[94.4423,19.2729],[94.4661,19.2718]]],[[[94.4083,19.2833],[94.416,19.2824],[94.4125,19.2738],[94.4083,19.2833]]],[[[94.4413,19.2824],[94.4336,19.2761],[94.4344,19.283],[94.4413,19.2824]]],[[[94.4333,19.2833],[94.4175,19.2906],[94.4324,19.2906],[94.4333,19.2833]]],[[[94.4081,19.2834],[94.3793,19.2777],[94.3616,19.3053],[94.3891,19.3064],[94.4081,19.2834]]],[[[94.5925,19.3135],[94.5853,19.3093],[94.5833,19.3167],[94.5925,19.3135]]],[[[94.4494,19.3523],[94.4409,19.3531],[94.4472,19.3602],[94.4494,19.3523]]],[[[94.4654,19.4416],[94.5141,19.4709],[94.5111,19.4362],[94.5301,19.4208],[94.5028,19.4035],[94.5216,19.3969],[94.5375,19.3603],[94.5732,19.3627],[94.5525,19.3293],[94.5806,19.3203],[94.5523,19.2954],[94.599,19.268],[94.5751,19.2426],[94.5398,19.2721],[94.5031,19.2721],[94.4948,19.245],[94.5149,19.2296],[94.5197,19.1866],[94.5516,19.1592],[94.5518,19.1964],[94.5882,19.1881],[94.5949,19.1531],[94.613,19.1548],[94.6183,19.1296],[94.6691,19.0785],[94.6799,19.0965],[94.6948,19.0352],[94.7221,19.0218],[94.6953,18.9923],[94.7231,18.9962],[94.7293,18.9692],[94.7462,18.9887],[94.7719,18.9737],[94.7528,18.9603],[94.7968,18.9116],[94.7427,18.9322],[94.781,18.8809],[94.7777,18.8296],[94.796,18.811],[94.754,18.8269],[94.7478,18.8626],[94.722,18.8727],[94.7303,18.8444],[94.697,18.8643],[94.6788,18.8446],[94.655,18.8634],[94.629,18.8601],[94.6431,18.9077],[94.6027,18.9055],[94.5957,18.8697],[94.5796,18.8804],[94.5541,18.8685],[94.5637,18.9124],[94.5451,18.9217],[94.5891,18.9314],[94.5636,18.9475],[94.5101,18.9459],[94.5113,18.9634],[94.5307,18.9712],[94.5115,18.9878],[94.5126,19.0138],[94.5769,18.9611],[94.5961,18.9889],[94.6286,18.9614],[94.6741,18.9582],[94.5771,19.0443],[94.58,19.0555],[94.6523,19.0194],[94.6645,19.0278],[94.6562,19.0391],[94.62,19.0534],[94.6474,19.0649],[94.612,19.087],[94.5977,19.1216],[94.5802,19.1012],[94.5531,19.1306],[94.5448,19.1117],[94.5658,19.0914],[94.5548,19.0778],[94.5276,19.107],[94.528,19.077],[94.496,19.0939],[94.4775,19.1321],[94.4636,19.0943],[94.4432,19.1036],[94.4572,19.1335],[94.4346,19.1636],[94.4445,19.1891],[94.4721,19.1598],[94.496,19.1724],[94.5145,19.1627],[94.4816,19.2139],[94.4735,19.2012],[94.4196,19.221],[94.4277,19.2553],[94.4486,19.2261],[94.4717,19.2449],[94.4617,19.2553],[94.4806,19.2733],[94.4532,19.3134],[94.5032,19.2857],[94.5225,19.2957],[94.5052,19.3386],[94.4771,19.3458],[94.4822,19.3858],[94.4701,19.3787],[94.4607,19.3937],[94.4281,19.4808],[94.4463,19.4803],[94.4441,19.4609],[94.4654,19.4416]]],[[[94.3577,19.4773],[94.3492,19.4781],[94.3555,19.4852],[94.3577,19.4773]]],[[[94.4228,19.4912],[94.4158,19.4865],[94.4215,19.4925],[94.4228,19.4912]]],[[[94.3456,19.4937],[94.3347,19.5127],[94.3457,19.5239],[94.3501,19.5061],[94.3456,19.4937]]],[[[94.3667,19.5333],[94.3632,19.5242],[94.3575,19.5302],[94.3667,19.5333]]],[[[94.3665,19.5337],[94.3889,19.5472],[94.4052,19.5116],[94.3791,19.5182],[94.3665,19.5337]]],[[[94.4312,19.5496],[94.4242,19.5448],[94.4299,19.5508],[94.4312,19.5496]]],[[[94.3747,19.5511],[94.3671,19.5574],[94.374,19.558],[94.3747,19.5511]]],[[[94.3842,19.5615],[94.3772,19.5662],[94.3785,19.5675],[94.3842,19.5615]]],[[[94.5079,19.7105],[94.5032,19.7175],[94.5092,19.7118],[94.5079,19.7105]]],[[[94.3065,19.7182],[94.2992,19.7218],[94.3083,19.725],[94.3065,19.7182]]],[[[94.2744,19.7356],[94.2659,19.7364],[94.2722,19.7435],[94.2744,19.7356]]],[[[94.2911,19.7356],[94.2825,19.7364],[94.2888,19.7435],[94.2911,19.7356]]],[[[94.2533,19.7929],[94.2411,19.7962],[94.2607,19.7958],[94.2533,19.7929]]],[[[94.2168,19.8345],[94.225,19.8387],[94.2209,19.8244],[94.2168,19.8345]]],[[[94.2395,19.8412],[94.2325,19.8365],[94.2382,19.8425],[94.2395,19.8412]]],[[[94.2167,19.8417],[94.2075,19.8452],[94.2135,19.8508],[94.2167,19.8417]]],[[[94.2645,19.8579],[94.2575,19.8532],[94.2632,19.8592],[94.2645,19.8579]]],[[[94.4746,19.8688],[94.4698,19.8758],[94.4758,19.8702],[94.4746,19.8688]]],[[[94.3664,19.9011],[94.3588,19.9074],[94.3657,19.908],[94.3664,19.9011]]],[[[94.4583,19.9333],[94.4549,19.9242],[94.4492,19.9302],[94.4583,19.9333]]],[[[94.2494,19.9409],[94.242,19.9364],[94.2404,19.9375],[94.2494,19.9409]]],[[[94.4342,19.9385],[94.4268,19.9349],[94.425,19.9417],[94.4342,19.9385]]],[[[94.4583,19.9333],[94.4618,19.9425],[94.4675,19.9365],[94.4583,19.9333]]],[[[94.2189,19.9498],[94.2209,19.9333],[94.2083,19.9459],[94.2189,19.9498]]],[[[94.2324,19.9504],[94.2261,19.9581],[94.233,19.9573],[94.2324,19.9504]]],[[[94.1827,19.9606],[94.1742,19.9614],[94.1805,19.9685],[94.1827,19.9606]]],[[[94.3744,20.0273],[94.3659,20.0281],[94.3722,20.0352],[94.3744,20.0273]]],[[[94.3675,20.0802],[94.3601,20.0765],[94.3583,20.0833],[94.3675,20.0802]]],[[[94.3911,20.0773],[94.3825,20.0781],[94.3888,20.0852],[94.3911,20.0773]]],[[[94.3742,20.0919],[94.3633,20.1],[94.3834,20.0959],[94.3742,20.0919]]],[[[94.3585,20.0913],[94.3458,20.0768],[94.3352,20.0973],[94.3455,20.1066],[94.3585,20.0913]]],[[[94.3661,20.119],[94.3575,20.1197],[94.3638,20.1268],[94.3661,20.119]]],[[[94.3425,20.1282],[94.3355,20.1329],[94.3368,20.1342],[94.3425,20.1282]]],[[[94.3333,20.1447],[94.3252,20.1489],[94.3292,20.159],[94.3333,20.1447]]],[[[94.3092,20.1532],[94.3022,20.1579],[94.3035,20.1592],[94.3092,20.1532]]],[[[94.2758,20.1865],[94.2689,20.1912],[94.2702,20.1925],[94.2758,20.1865]]],[[[93.9911,20.2273],[93.9825,20.2281],[93.9888,20.2352],[93.9911,20.2273]]],[[[93.9744,20.2356],[93.9659,20.2364],[93.9722,20.2435],[93.9744,20.2356]]],[[[94.0494,20.244],[94.0409,20.2447],[94.0472,20.2518],[94.0494,20.244]]],[[[93.9595,20.2582],[93.9637,20.2501],[93.9494,20.2541],[93.9595,20.2582]]],[[[93.9411,20.2523],[93.9325,20.2531],[93.9388,20.2602],[93.9411,20.2523]]],[[[94.0327,20.2523],[94.0242,20.2531],[94.0305,20.2602],[94.0327,20.2523]]],[[[94.025,20.275],[94.0342,20.2715],[94.0282,20.2658],[94.025,20.275]]],[[[93.9748,20.2606],[93.9675,20.2688],[93.9709,20.2757],[93.9748,20.2606]]],[[[94.0248,20.289],[94.0169,20.2773],[94.0189,20.2915],[94.0248,20.289]]],[[[93.7161,20.319],[93.7075,20.3197],[93.7138,20.3268],[93.7161,20.319]]],[[[93.9417,20.3417],[93.9382,20.3325],[93.9325,20.3385],[93.9417,20.3417]]],[[[93.771,20.3018],[93.7601,20.3291],[93.7625,20.344],[93.7744,20.328],[93.771,20.3018]]],[[[93.7417,20.35],[93.7508,20.3465],[93.7448,20.3408],[93.7417,20.35]]],[[[93.9632,20.3031],[93.9388,20.3567],[93.9733,20.3544],[93.9632,20.3031]]],[[[93.6292,20.377],[93.6171,20.4002],[93.6289,20.4151],[93.6334,20.3948],[93.6292,20.377]]],[[[93.8667,20.4417],[93.8758,20.4382],[93.8698,20.4325],[93.8667,20.4417]]],[[[93.8665,20.4557],[93.8586,20.444],[93.8606,20.4582],[93.8665,20.4557]]],[[[93.8961,20.4677],[93.8846,20.4782],[93.8841,20.4799],[93.9069,20.4804],[93.8961,20.4677]]],[[[93.6311,20.4998],[93.6229,20.4925],[93.616,20.4959],[93.6311,20.4998]]],[[[93.5411,20.519],[93.5325,20.5197],[93.5388,20.5268],[93.5411,20.519]]],[[[93.5752,20.5274],[93.591,20.5207],[93.5791,20.5089],[93.5752,20.5274]]],[[[93.5833,20.5333],[93.5868,20.5425],[93.5925,20.5365],[93.5833,20.5333]]],[[[93.5077,20.5356],[93.4992,20.5364],[93.5055,20.5435],[93.5077,20.5356]]],[[[93.6399,20.5432],[93.6325,20.5468],[93.6417,20.55],[93.6399,20.5432]]],[[[93.7395,20.5496],[93.7325,20.5448],[93.7382,20.5508],[93.7395,20.5496]]],[[[93.5703,20.5427],[93.5673,20.5634],[93.5799,20.5649],[93.5826,20.5623],[93.5703,20.5427]]],[[[93.7413,20.3499],[93.7045,20.3726],[93.7054,20.3445],[93.6789,20.3275],[93.6685,20.3367],[93.6822,20.3599],[93.6605,20.4032],[93.6954,20.3848],[93.7141,20.4376],[93.6937,20.4288],[93.6614,20.453],[93.6799,20.4643],[93.6353,20.4805],[93.672,20.5281],[93.6363,20.5614],[93.6554,20.582],[93.6963,20.548],[93.7109,20.5035],[93.7401,20.5045],[93.7383,20.4871],[93.7193,20.4863],[93.7413,20.3499]]],[[[93.4911,20.5773],[93.4825,20.5781],[93.4888,20.5852],[93.4911,20.5773]]],[[[94.1092,20.5948],[94.1022,20.5996],[94.1035,20.6008],[94.1092,20.5948]]],[[[93.4918,20.6011],[93.5,20.6053],[93.4959,20.591],[93.4918,20.6011]]],[[[93.4894,20.6165],[93.4812,20.6091],[93.4744,20.6125],[93.4894,20.6165]]],[[[93.7533,20.6179],[93.7411,20.6212],[93.7607,20.6208],[93.7533,20.6179]]],[[[94.0994,20.619],[94.0909,20.6197],[94.0972,20.6268],[94.0994,20.619]]],[[[93.579,20.6334],[93.5761,20.6486],[93.5917,20.65],[93.5905,20.6438],[93.579,20.6334]]],[[[94.1077,20.644],[94.0992,20.6447],[94.1055,20.6518],[94.1077,20.644]]],[[[94.0758,20.6698],[94.0689,20.6746],[94.0702,20.6758],[94.0758,20.6698]]],[[[93.5149,20.6932],[93.5075,20.6968],[93.5167,20.7],[93.5149,20.6932]]],[[[93.4812,20.7496],[93.4742,20.7448],[93.4799,20.7508],[93.4812,20.7496]]],[[[94.1681,20.7918],[94.1815,20.788],[94.1881,20.7605],[94.1769,20.7615],[94.1681,20.7918]]],[[[94.2661,20.794],[94.2575,20.7947],[94.2638,20.8018],[94.2661,20.794]]],[[[94.1342,20.8052],[94.1268,20.8015],[94.125,20.8083],[94.1342,20.8052]]],[[[93.5667,20.8041],[93.5502,20.8041],[93.554,20.8167],[93.5667,20.8041]]],[[[93.5083,20.8083],[93.5006,20.8083],[93.5041,20.8174],[93.5083,20.8083]]],[[[94.0417,20.825],[94.0508,20.8215],[94.0448,20.8158],[94.0417,20.825]]],[[[93.5827,20.819],[93.5742,20.8197],[93.5805,20.8268],[93.5827,20.819]]],[[[93.642,20.7999],[93.6352,20.8129],[93.6531,20.8408],[93.6577,20.814],[93.642,20.7999]]],[[[94.0415,20.8322],[94.0334,20.828],[94.0375,20.8423],[94.0415,20.8322]]],[[[94.07,20.8513],[94.0578,20.8545],[94.0774,20.8542],[94.07,20.8513]]],[[[93.4453,20.8427],[93.4423,20.8634],[93.4549,20.8649],[93.4576,20.8623],[93.4453,20.8427]]],[[[93.8982,20.8599],[93.8908,20.8635],[93.9,20.8667],[93.8982,20.8599]]],[[[94.2543,20.811],[94.2421,20.8422],[94.2456,20.881],[94.2581,20.8408],[94.2543,20.811]]],[[[93.6008,20.8802],[93.5935,20.8765],[93.5917,20.8833],[93.6008,20.8802]]],[[[93.5417,20.8667],[93.5334,20.8715],[93.5374,20.8835],[93.5417,20.8667]]],[[[94.0994,20.8773],[94.0909,20.8781],[94.0972,20.8852],[94.0994,20.8773]]],[[[94.1832,20.8914],[94.1835,20.8757],[94.1595,20.8875],[94.1663,20.891],[94.1832,20.8914]]],[[[94.1833,20.8917],[94.1843,20.8993],[94.1929,20.8959],[94.1833,20.8917]]],[[[94.2333,20.9],[94.2425,20.8965],[94.2365,20.8908],[94.2333,20.9]]],[[[94.1662,20.7915],[94.1408,20.83],[94.1209,20.8108],[94.1099,20.8286],[94.131,20.8462],[94.121,20.9057],[94.156,20.8695],[94.1662,20.7915]]],[[[94.1832,20.914],[94.1753,20.9023],[94.1773,20.9165],[94.1832,20.914]]],[[[94.1746,20.9241],[94.167,20.9178],[94.1677,20.9247],[94.1746,20.9241]]],[[[93.3494,20.919],[93.3409,20.9197],[93.3472,20.9268],[93.3494,20.919]]],[[[94.1665,20.939],[94.1586,20.9273],[94.1606,20.9415],[94.1665,20.939]]],[[[94.2329,20.8999],[94.2104,20.9363],[94.2114,20.9476],[94.231,20.9228],[94.2329,20.8999]]],[[[94.1581,20.9576],[94.15,20.9467],[94.1542,20.9667],[94.1581,20.9576]]],[[[94.2082,20.9572],[94.2001,20.953],[94.2042,20.9673],[94.2082,20.9572]]],[[[93.3213,21.0418],[93.3388,21.0375],[93.3362,20.9684],[93.3636,20.9455],[93.345,20.9344],[93.3194,20.9792],[93.3213,21.0418]]],[[[94.3161,21.069],[94.3075,21.0697],[94.3138,21.0768],[94.3161,21.069]]],[[[94.1333,21.0797],[94.1142,21.076],[94.1082,21.0793],[94.1333,21.0797]]],[[[93.3163,21.0416],[93.2933,21.0621],[93.296,21.0972],[93.3222,21.0791],[93.3163,21.0416]]],[[[94.1917,21.1],[94.1882,21.0909],[94.1825,21.0968],[94.1917,21.1]]],[[[94.2833,21.1],[94.2925,21.0965],[94.2865,21.0908],[94.2833,21.1]]],[[[94.2829,21.1074],[94.2753,21.1011],[94.276,21.108],[94.2829,21.1074]]],[[[93.4833,21.0917],[93.475,21.0965],[93.4791,21.1085],[93.4833,21.0917]]],[[[94.1917,21.1],[94.1952,21.1092],[94.2008,21.1032],[94.1917,21.1]]],[[[94.2746,21.1158],[94.267,21.1094],[94.2677,21.1163],[94.2746,21.1158]]],[[[94.2665,21.1307],[94.2586,21.119],[94.2606,21.1332],[94.2665,21.1307]]],[[[93.5312,21.1412],[93.5242,21.1365],[93.5299,21.1425],[93.5312,21.1412]]],[[[94.1911,21.1356],[94.1825,21.1364],[94.1888,21.1435],[94.1911,21.1356]]],[[[93.3504,21.1501],[93.3637,21.1387],[93.3711,21.0696],[93.3441,21.1293],[93.3504,21.1501]]],[[[94.2582,21.1539],[94.2501,21.1384],[94.2537,21.1582],[94.2582,21.1539]]],[[[93.4732,21.1599],[93.4658,21.1635],[93.475,21.1667],[93.4732,21.1599]]],[[[94.2478,21.1662],[94.2408,21.1615],[94.2465,21.1675],[94.2478,21.1662]]],[[[93.3497,21.1499],[93.3346,21.1625],[93.3459,21.1822],[93.3498,21.1724],[93.3497,21.1499]]],[[[93.4372,21.0943],[93.411,21.1709],[93.4206,21.1914],[93.4384,21.1801],[93.4487,21.1364],[93.4372,21.0943]]],[[[94.2494,21.1856],[94.2409,21.1864],[94.2472,21.1935],[94.2494,21.1856]]],[[[94.1994,21.194],[94.1909,21.1947],[94.1972,21.2018],[94.1994,21.194]]],[[[93.3003,21.1175],[93.2845,21.1384],[93.2792,21.2023],[93.3071,21.1276],[93.3003,21.1175]]],[[[93.2793,21.2084],[93.2668,21.2205],[93.2672,21.2218],[93.2822,21.2232],[93.2793,21.2084]]],[[[93.3161,21.2273],[93.3075,21.2281],[93.3138,21.2352],[93.3161,21.2273]]],[[[93.2744,21.2356],[93.2659,21.2364],[93.2722,21.2435],[93.2744,21.2356]]],[[[93.3911,21.2606],[93.3825,21.2614],[93.3888,21.2685],[93.3911,21.2606]]],[[[93.8732,21.2682],[93.8658,21.2718],[93.875,21.275],[93.8732,21.2682]]],[[[93.27,21.2929],[93.2578,21.2962],[93.2774,21.2958],[93.27,21.2929]]],[[[93.2083,21.3],[93.2006,21.3],[93.2041,21.3091],[93.2083,21.3]]],[[[92.675,21.3085],[92.6748,21.3085],[92.6748,21.3092],[92.675,21.3085]]],[[[93.1911,21.3023],[93.1825,21.3031],[93.1888,21.3102],[93.1911,21.3023]]],[[[93.2661,21.3106],[93.2575,21.3114],[93.2638,21.3185],[93.2661,21.3106]]],[[[94.0684,21.3083],[94.0669,21.3216],[94.0721,21.3246],[94.0833,21.3124],[94.0684,21.3083]]],[[[92.7835,21.3261],[92.7916,21.3303],[92.7875,21.316],[92.7835,21.3261]]],[[[94.0645,21.3329],[94.0575,21.3282],[94.0632,21.3342],[94.0645,21.3329]]],[[[94.1642,21.3215],[94.1279,21.3345],[94.1272,21.3471],[94.1642,21.3215]]],[[[93.1994,21.3523],[93.1909,21.3531],[93.1972,21.3602],[93.1994,21.3523]]],[[[93.1667,21.3667],[93.1758,21.3632],[93.1698,21.3575],[93.1667,21.3667]]],[[[93.3237,21.3582],[93.3387,21.271],[93.3123,21.2524],[93.2859,21.3629],[93.3012,21.3742],[93.3237,21.3582]]],[[[93.8062,21.3746],[93.7992,21.3698],[93.8049,21.3758],[93.8062,21.3746]]],[[[92.783,21.3332],[92.769,21.344],[92.7541,21.381],[92.7725,21.3731],[92.783,21.3332]]],[[[93.1665,21.3739],[93.1584,21.3697],[93.1625,21.384],[93.1665,21.3739]]],[[[93.1827,21.3773],[93.1742,21.3781],[93.1805,21.3852],[93.1827,21.3773]]],[[[92.9649,21.3849],[92.9575,21.3885],[92.9667,21.3917],[92.9649,21.3849]]],[[[92.9754,21.3917],[93.0384,21.3632],[93.0471,21.3343],[93.0114,21.3277],[92.9754,21.3917]]],[[[93.2429,21.3583],[93.236,21.3795],[93.2459,21.3971],[93.2559,21.3796],[93.2429,21.3583]]],[[[93.1955,21.3761],[93.1841,21.3961],[93.1901,21.3994],[93.1997,21.3954],[93.1955,21.3761]]],[[[92.975,21.3917],[92.9674,21.3926],[92.9708,21.4012],[92.975,21.3917]]],[[[93.7425,21.4052],[93.7351,21.4015],[93.7333,21.4083],[93.7425,21.4052]]],[[[93.6244,21.4159],[93.617,21.4114],[93.6154,21.4125],[93.6244,21.4159]]],[[[92.7484,21.3926],[92.7339,21.4069],[92.74,21.441],[92.7489,21.4359],[92.7484,21.3926]]],[[[94.0758,21.4635],[94.0685,21.4599],[94.0667,21.4667],[94.0758,21.4635]]],[[[93.8899,21.4765],[93.8825,21.4802],[93.8917,21.4833],[93.8899,21.4765]]],[[[93.7661,21.4773],[93.7575,21.4781],[93.7638,21.4852],[93.7661,21.4773]]],[[[93.2253,21.4917],[93.2557,21.4791],[93.2426,21.4343],[93.226,21.4401],[93.2253,21.4917]]],[[[92.7244,21.4856],[92.7159,21.4864],[92.7222,21.4935],[92.7244,21.4856]]],[[[93.225,21.4917],[93.2159,21.4952],[93.2218,21.5008],[93.225,21.4917]]],[[[93.6899,21.5015],[93.6825,21.5052],[93.6917,21.5083],[93.6899,21.5015]]],[[[93.1083,21.4917],[93.1,21.4965],[93.1041,21.5085],[93.1083,21.4917]]],[[[92.9928,21.5248],[92.997,21.5167],[92.9827,21.5208],[92.9928,21.5248]]],[[[92.7156,21.5],[92.7013,21.504],[92.7125,21.5323],[92.7165,21.5225],[92.7156,21.5]]],[[[93.0,21.525],[93.0009,21.5327],[93.0096,21.5292],[93.0,21.525]]],[[[92.9978,21.5412],[92.9908,21.5365],[92.9965,21.5425],[92.9978,21.5412]]],[[[93.3228,21.5412],[93.3158,21.5365],[93.3215,21.5425],[93.3228,21.5412]]],[[[92.7077,21.544],[92.6992,21.5447],[92.7055,21.5518],[92.7077,21.544]]],[[[94.2347,21.55],[94.2476,21.5371],[94.2294,21.5193],[94.2177,21.5449],[94.2463,21.5553],[94.2347,21.55]]],[[[93.7331,21.5511],[93.7254,21.5574],[93.7323,21.558],[93.7331,21.5511]]],[[[93.0917,21.55],[93.084,21.55],[93.0874,21.5591],[93.0917,21.55]]],[[[92.8494,21.5523],[92.8409,21.5531],[92.8472,21.5602],[92.8494,21.5523]]],[[[92.9911,21.5523],[92.9825,21.5531],[92.9888,21.5602],[92.9911,21.5523]]],[[[93.7425,21.5615],[93.7355,21.5662],[93.7368,21.5675],[93.7425,21.5615]]],[[[94.3095,21.5731],[94.3159,21.5567],[94.3125,21.5499],[94.3095,21.5731]]],[[[93.0335,21.5678],[93.0416,21.572],[93.0375,21.5577],[93.0335,21.5678]]],[[[93.3015,21.5734],[93.3105,21.5643],[93.3035,21.5508],[93.3015,21.5734]]],[[[92.6968,21.5822],[92.6904,21.5734],[92.6757,21.5798],[92.6968,21.5822]]],[[[94.3167,21.575],[94.3202,21.5842],[94.3258,21.5782],[94.3167,21.575]]],[[[93.2827,21.5773],[93.2742,21.5781],[93.2805,21.5852],[93.2827,21.5773]]],[[[93.6426,21.5582],[93.6418,21.5852],[93.6459,21.5912],[93.6501,21.5669],[93.6426,21.5582]]],[[[93.0065,21.5849],[92.9992,21.5885],[93.0083,21.5917],[93.0065,21.5849]]],[[[92.9388,21.5442],[92.9736,21.5385],[92.9276,21.521],[92.9192,21.5793],[92.9413,21.5917],[92.9388,21.5442]]],[[[93.0833,21.575],[93.075,21.5799],[93.0791,21.5919],[93.0833,21.575]]],[[[94.2417,21.575],[94.2334,21.5799],[94.2374,21.5919],[94.2417,21.575]]],[[[93.0163,21.5991],[93.0086,21.5928],[93.0094,21.5997],[93.0163,21.5991]]],[[[93.6395,21.5996],[93.6325,21.5948],[93.6382,21.6008],[93.6395,21.5996]]],[[[92.8827,21.594],[92.8742,21.5947],[92.8805,21.6018],[92.8827,21.594]]],[[[93.0062,21.6079],[92.9992,21.6032],[93.0049,21.6092],[93.0062,21.6079]]],[[[92.838,21.569],[92.827,21.5965],[92.8292,21.6107],[92.8475,21.5797],[92.838,21.569]]],[[[93.0329,21.5749],[93.0184,21.5862],[93.0292,21.6149],[93.0331,21.6051],[93.0329,21.5749]]],[[[94.3179,21.6148],[94.3243,21.5984],[94.3208,21.5916],[94.3179,21.6148]]],[[[93.0744,21.6106],[93.0659,21.6114],[93.0722,21.6185],[93.0744,21.6106]]],[[[92.933,21.6],[92.9193,21.6209],[92.9374,21.6311],[92.9406,21.6225],[92.933,21.6]]],[[[94.3331,21.6189],[94.3258,21.6271],[94.3292,21.634],[94.3331,21.6189]]],[[[93.0327,21.6273],[93.0242,21.6281],[93.0305,21.6352],[93.0327,21.6273]]],[[[93.1337,21.6417],[93.1566,21.6295],[93.1626,21.5766],[93.1879,21.5772],[93.1888,21.5986],[93.206,21.5897],[93.2292,21.5193],[93.1957,21.5025],[93.1799,21.5303],[93.161,21.5209],[93.1443,21.5541],[93.1494,21.6179],[93.1337,21.6417]]],[[[94.0059,21.6301],[93.986,21.6204],[93.9833,21.65],[94.0059,21.6301]]],[[[93.1333,21.6417],[93.1242,21.6452],[93.1302,21.6508],[93.1333,21.6417]]],[[[93.3062,21.6496],[93.2992,21.6448],[93.3049,21.6508],[93.3062,21.6496]]],[[[93.1661,21.644],[93.1575,21.6447],[93.1638,21.6518],[93.1661,21.644]]],[[[93.1917,21.6583],[93.1882,21.6492],[93.1825,21.6552],[93.1917,21.6583]]],[[[93.0762,21.6522],[93.0911,21.6562],[93.0882,21.642],[93.0762,21.6522]]],[[[92.9038,21.6346],[92.8921,21.6454],[92.895,21.6579],[92.9077,21.6551],[92.9038,21.6346]]],[[[93.1917,21.6583],[93.1926,21.666],[93.2012,21.6625],[93.1917,21.6583]]],[[[93.1661,21.6606],[93.1575,21.6614],[93.1638,21.6685],[93.1661,21.6606]]],[[[93.1913,21.6741],[93.1836,21.6678],[93.1844,21.6747],[93.1913,21.6741]]],[[[94.2513,21.6249],[94.2359,21.6385],[94.2806,21.6805],[94.2885,21.6706],[94.2513,21.6249]]],[[[93.3161,21.6826],[93.3086,21.6781],[93.3071,21.6792],[93.3161,21.6826]]],[[[93.1812,21.6829],[93.1742,21.6782],[93.1799,21.6842],[93.1812,21.6829]]],[[[92.8254,21.6249],[92.8256,21.6833],[92.8373,21.6975],[92.839,21.6372],[92.8254,21.6249]]],[[[92.8911,21.694],[92.8825,21.6947],[92.8888,21.7018],[92.8911,21.694]]],[[[93.0161,21.694],[93.0075,21.6947],[93.0138,21.7018],[93.0161,21.694]]],[[[92.9121,21.6687],[92.9082,21.6886],[92.9124,21.7073],[92.9168,21.6853],[92.9121,21.6687]]],[[[92.679,21.6703],[92.6674,21.6851],[92.685,21.7077],[92.6908,21.6977],[92.679,21.6703]]],[[[93.199,21.6973],[93.1788,21.6933],[93.1757,21.704],[93.193,21.708],[93.199,21.6973]]],[[[94.275,21.7],[94.259,21.7042],[94.2708,21.7162],[94.275,21.7]]],[[[93.5033,21.7179],[93.4911,21.7212],[93.5107,21.7208],[93.5033,21.7179]]],[[[94.2911,21.7273],[94.2825,21.7281],[94.2888,21.7352],[94.2911,21.7273]]],[[[93.1707,21.718],[93.1669,21.7357],[93.1761,21.7501],[93.1829,21.7387],[93.1707,21.718]]],[[[93.078,21.6807],[93.062,21.6533],[93.0536,21.6686],[93.0635,21.6791],[93.052,21.6954],[93.0642,21.6973],[93.0448,21.722],[93.0717,21.7559],[93.0893,21.703],[93.1134,21.764],[93.1188,21.7291],[93.1465,21.7324],[93.1645,21.6803],[93.078,21.6807]]],[[[94.3915,21.7558],[94.3666,21.7504],[94.3877,21.7737],[94.3915,21.7558]]],[[[93.1082,21.7739],[93.1001,21.7697],[93.1042,21.784],[93.1082,21.7739]]],[[[93.0667,21.7583],[93.0523,21.7532],[93.0445,21.778],[93.0542,21.8138],[93.0667,21.7583]]],[[[94.3065,21.8182],[94.2992,21.8218],[94.3083,21.825],[94.3065,21.8182]]],[[[93.3145,21.8246],[93.3075,21.8198],[93.3132,21.8258],[93.3145,21.8246]]],[[[93.1244,21.819],[93.1159,21.8197],[93.1222,21.8268],[93.1244,21.819]]],[[[92.6627,21.711],[92.6722,21.7372],[92.6515,21.7485],[92.6638,21.7627],[92.6544,21.8293],[92.6834,21.737],[92.6627,21.711]]],[[[94.396,21.7958],[94.4033,21.8377],[94.4207,21.8393],[94.4148,21.8193],[94.396,21.7958]]],[[[93.3149,21.8349],[93.3075,21.8385],[93.3167,21.8417],[93.3149,21.8349]]],[[[93.8829,21.8658],[93.8753,21.8594],[93.876,21.8663],[93.8829,21.8658]]],[[[93.8746,21.8741],[93.867,21.8678],[93.8677,21.8747],[93.8746,21.8741]]],[[[93.8837,21.8582],[93.8955,21.861],[93.9142,21.8796],[93.9047,21.8518],[93.8837,21.8582]]],[[[93.8667,21.875],[93.859,21.8759],[93.8625,21.8846],[93.8667,21.875]]],[[[93.9,21.9083],[93.8923,21.9083],[93.8958,21.9174],[93.9,21.9083]]],[[[93.0577,21.919],[93.0492,21.9197],[93.0555,21.9268],[93.0577,21.919]]],[[[93.8667,21.9167],[93.8584,21.9215],[93.8624,21.9335],[93.8667,21.9167]]],[[[93.7996,21.9574],[93.792,21.9511],[93.7927,21.958],[93.7996,21.9574]]],[[[92.8333,21.9583],[92.8256,21.9583],[92.8291,21.9674],[92.8333,21.9583]]],[[[93.8092,21.9615],[93.8022,21.9662],[93.8035,21.9675],[93.8092,21.9615]]],[[[94.2822,21.9627],[94.2592,21.9627],[94.2709,21.9738],[94.2822,21.9627]]],[[[92.8833,21.975],[92.8756,21.975],[92.8791,21.9841],[92.8833,21.975]]],[[[92.8333,21.9917],[92.8256,21.9917],[92.8291,22.0008],[92.8333,21.9917]]],[[[92.8786,21.9926],[92.8749,22.0071],[92.8786,22.0244],[92.8834,22.0068],[92.8786,21.9926]]],[[[94.3533,22.0179],[94.3411,22.0212],[94.3607,22.0208],[94.3533,22.0179]]],[[[92.8333,22.0167],[92.825,22.0215],[92.8291,22.0335],[92.8333,22.0167]]],[[[93.925,22.025],[93.9173,22.025],[93.9208,22.0341],[93.925,22.025]]],[[[93.0792,22.0474],[93.0828,21.9671],[93.0709,21.9282],[93.0633,21.9464],[93.0519,21.9391],[93.0654,21.9667],[93.0516,21.9765],[93.0792,22.0474]]],[[[94.25,22.0417],[94.2423,22.0417],[94.2458,22.0508],[94.25,22.0417]]],[[[94.3,22.0417],[94.2923,22.0417],[94.2958,22.0508],[94.3,22.0417]]],[[[92.8333,22.0458],[92.8168,22.0457],[92.8207,22.0583],[92.8333,22.0458]]],[[[93.0495,21.8555],[93.0016,21.8382],[93.0142,21.9459],[92.9938,22.0504],[93.0195,22.1073],[93.05,22.1026],[93.0552,22.0719],[93.0366,22.0634],[93.0192,21.9625],[93.0495,21.8555]]],[[[94.25,22.1583],[94.2465,22.1492],[94.2408,22.1552],[94.25,22.1583]]],[[[94.2244,22.1523],[94.2159,22.1531],[94.2222,22.1602],[94.2244,22.1523]]],[[[94.25,22.1583],[94.2535,22.1675],[94.2592,22.1615],[94.25,22.1583]]],[[[94.2494,22.2023],[94.2409,22.2031],[94.2472,22.2102],[94.2494,22.2023]]],[[[93.8415,22.2144],[93.8339,22.2072],[93.8333,22.2167],[93.8415,22.2144]]],[[[93.5395,22.2162],[93.5325,22.2115],[93.5382,22.2175],[93.5395,22.2162]]],[[[94.4755,22.2502],[94.4834,22.2371],[94.4791,22.21],[94.4666,22.2268],[94.4755,22.2502]]],[[[94.475,22.25],[94.4659,22.2535],[94.4719,22.2592],[94.475,22.25]]],[[[93.5092,22.2718],[93.5018,22.2682],[93.5,22.275],[93.5092,22.2718]]],[[[94.3333,22.325],[94.3409,22.3228],[94.3375,22.3074],[94.3333,22.325]]],[[[94.3333,22.325],[94.3242,22.3285],[94.3302,22.3342],[94.3333,22.325]]],[[[93.8827,22.3523],[93.8742,22.3531],[93.8805,22.3602],[93.8827,22.3523]]],[[[93.8621,22.3429],[93.8504,22.3537],[93.8533,22.3662],[93.866,22.3634],[93.8621,22.3429]]],[[[94.3077,22.3856],[94.2992,22.3864],[94.3055,22.3935],[94.3077,22.3856]]],[[[93.9042,22.3704],[93.9002,22.3983],[93.9082,22.4074],[93.914,22.387],[93.9042,22.3704]]],[[[93.1823,22.4114],[93.1826,22.4089],[93.181,22.4147],[93.1823,22.4114]]],[[[94.2645,22.4496],[94.2575,22.4448],[94.2632,22.4508],[94.2645,22.4496]]],[[[94.3665,22.4728],[94.35,22.4708],[94.3626,22.4834],[94.3665,22.4728]]],[[[94.3583,22.5083],[94.3549,22.4992],[94.3492,22.5052],[94.3583,22.5083]]],[[[93.5315,22.5099],[93.5242,22.5135],[93.5333,22.5167],[93.5315,22.5099]]],[[[93.6008,22.5135],[93.5935,22.5099],[93.5917,22.5167],[93.6008,22.5135]]],[[[94.2994,22.4743],[94.2856,22.3446],[94.2987,22.3657],[94.3086,22.3502],[94.2926,22.3059],[94.3119,22.3083],[94.3232,22.2776],[94.356,22.3029],[94.3421,22.3376],[94.3647,22.3788],[94.3609,22.404],[94.3797,22.39],[94.3657,22.2905],[94.3428,22.2638],[94.3583,22.2734],[94.3727,22.2619],[94.4063,22.3383],[94.4243,22.2994],[94.436,22.1529],[94.4572,22.1082],[94.4359,22.0793],[94.4569,22.0763],[94.4573,22.022],[94.4262,21.9834],[94.4494,21.919],[94.4274,21.8979],[94.4206,21.8525],[94.4005,21.9091],[94.3888,22.073],[94.3396,22.1058],[94.3259,22.0949],[94.3489,22.0417],[94.3252,21.9975],[94.3418,21.8375],[94.326,21.7982],[94.3636,21.7721],[94.3613,21.753],[94.3722,21.7376],[94.3334,21.6425],[94.3028,21.6712],[94.3334,21.7121],[94.3147,21.7788],[94.2947,21.7869],[94.3167,21.8062],[94.3028,21.8709],[94.3142,21.9046],[94.3032,21.9621],[94.3169,21.9856],[94.3017,22.0084],[94.3162,22.0272],[94.3078,22.1078],[94.2684,22.1789],[94.2346,22.3068],[94.2485,22.3236],[94.2345,22.3434],[94.2553,22.3616],[94.2514,22.3942],[94.2748,22.4108],[94.2739,22.4612],[94.2501,22.4942],[94.2612,22.5312],[94.2798,22.5217],[94.2994,22.4743]],[[94.3402,22.2483],[94.3254,22.236],[94.3276,22.2259],[94.3402,22.2483]],[[94.35,22.2351],[94.3664,22.2286],[94.3547,22.2413],[94.35,22.2351]],[[94.3996,22.2824],[94.392,22.2761],[94.4,22.275],[94.3996,22.2824]]],[[[93.1403,22.5406],[93.1355,22.5262],[93.1253,22.5382],[93.1403,22.5406]]],[[[93.9243,22.5681],[93.9083,22.5586],[93.9211,22.5744],[93.9243,22.5681]]],[[[93.1494,22.569],[93.1409,22.5697],[93.1472,22.5768],[93.1494,22.569]]],[[[93.4815,22.5765],[93.4742,22.5802],[93.4833,22.5833],[93.4815,22.5765]]],[[[93.6008,22.5802],[93.5935,22.5765],[93.5917,22.5833],[93.6008,22.5802]]],[[[94.3482,22.5849],[94.3408,22.5885],[94.35,22.5917],[94.3482,22.5849]]],[[[94.2925,22.6302],[94.2851,22.6265],[94.2833,22.6333],[94.2925,22.6302]]],[[[92.7994,22.6273],[92.7909,22.6281],[92.7972,22.6352],[92.7994,22.6273]]],[[[94.3583,22.5083],[94.3725,22.5218],[94.3365,22.5379],[94.3631,22.5639],[94.3935,22.5596],[94.3986,22.5708],[94.3814,22.5971],[94.3264,22.6098],[94.3805,22.6364],[94.3793,22.6721],[94.4068,22.6446],[94.3923,22.6155],[94.4158,22.5929],[94.4409,22.4262],[94.4212,22.3681],[94.4031,22.3693],[94.3923,22.3987],[94.4059,22.4374],[94.3987,22.52],[94.3891,22.5241],[94.3789,22.5108],[94.3699,22.5086],[94.361,22.5082],[94.3583,22.5083]]],[[[92.8167,22.675],[92.8028,22.6687],[92.7995,22.6712],[92.8167,22.675]]],[[[92.833,22.6832],[92.822,22.6755],[92.8013,22.6877],[92.819,22.6914],[92.833,22.6832]]],[[[94.3661,22.6856],[94.3575,22.6864],[94.3638,22.6935],[94.3661,22.6856]]],[[[93.4833,22.6917],[93.4756,22.6917],[93.4791,22.7008],[93.4833,22.6917]]],[[[92.9061,22.7081],[92.8979,22.7008],[92.891,22.7042],[92.9061,22.7081]]],[[[92.9087,22.7],[92.9211,22.6962],[92.9333,22.6205],[92.9166,22.5676],[92.8609,22.6107],[92.8336,22.6944],[92.8553,22.714],[92.8888,22.6788],[92.8695,22.66],[92.8957,22.6439],[92.9087,22.7]]],[[[93.5581,22.7198],[93.5506,22.7242],[93.5596,22.7209],[93.5581,22.7198]]],[[[92.8666,22.7297],[92.8476,22.726],[92.8415,22.7293],[92.8666,22.7297]]],[[[92.6494,22.7273],[92.6409,22.7281],[92.6472,22.7352],[92.6494,22.7273]]],[[[92.825,22.725],[92.8096,22.7291],[92.8209,22.749],[92.825,22.725]]],[[[92.8849,22.7515],[92.894,22.7605],[92.9075,22.7535],[92.8849,22.7515]]],[[[93.5417,22.75],[93.5334,22.7549],[93.5374,22.7669],[93.5417,22.75]]],[[[92.8917,22.7667],[92.8952,22.7758],[92.9008,22.7698],[92.8917,22.7667]]],[[[94.2077,22.769],[94.1992,22.7697],[94.2055,22.7768],[94.2077,22.769]]],[[[93.9486,22.7823],[93.9438,22.7679],[93.9337,22.7798],[93.9486,22.7823]]],[[[94.3337,22.7176],[94.3004,22.7487],[94.3208,22.7857],[94.3386,22.771],[94.3282,22.7366],[94.3471,22.7286],[94.3337,22.7176]]],[[[93.1417,22.7667],[93.1097,22.7707],[93.1196,22.8059],[93.1394,22.7896],[93.1417,22.7667]]],[[[93.9606,22.8252],[93.9688,22.8325],[93.9757,22.8291],[93.9606,22.8252]]],[[[93.9579,22.8408],[93.9503,22.8344],[93.951,22.8413],[93.9579,22.8408]]],[[[92.9095,22.8648],[92.9159,22.8484],[92.9125,22.8416],[92.9095,22.8648]]],[[[93.7925,22.8615],[93.7855,22.8662],[93.7868,22.8675],[93.7925,22.8615]]],[[[92.9167,22.8667],[92.9202,22.8758],[92.9258,22.8698],[92.9167,22.8667]]],[[[93.0478,22.8746],[93.0408,22.8698],[93.0465,22.8758],[93.0478,22.8746]]],[[[93.0828,22.8826],[93.0753,22.8781],[93.0738,22.8792],[93.0828,22.8826]]],[[[92.8866,22.8763],[92.8744,22.8795],[92.894,22.8792],[92.8866,22.8763]]],[[[92.9494,22.8773],[92.9409,22.8781],[92.9472,22.8852],[92.9494,22.8773]]],[[[92.9,22.9],[92.8965,22.8909],[92.8908,22.8968],[92.9,22.9]]],[[[92.6661,22.894],[92.6575,22.8947],[92.6638,22.9018],[92.6661,22.894]]],[[[93.5151,22.8916],[93.5209,22.9076],[93.5328,22.8958],[93.5269,22.8925],[93.5151,22.8916]]],[[[93.9833,22.9],[93.9756,22.9],[93.9791,22.9091],[93.9833,22.9]]],[[[94.1911,22.9023],[94.1825,22.9031],[94.1888,22.9102],[94.1911,22.9023]]],[[[92.9789,22.914],[93.0214,22.905],[93.0358,22.8604],[93.056,22.863],[93.0719,22.8294],[93.0622,22.802],[93.0337,22.7986],[92.9899,22.7594],[92.9726,22.7964],[92.9459,22.7937],[92.9276,22.8208],[92.9457,22.8636],[92.9974,22.8278],[92.9683,22.8622],[92.9613,22.9042],[92.9789,22.914]]],[[[92.9133,22.8925],[92.9018,22.9155],[92.9151,22.9152],[92.9133,22.8925]]],[[[92.9,22.9167],[92.8796,22.9015],[92.8775,22.9025],[92.885,22.9232],[92.9,22.9167]]],[[[92.7246,22.8915],[92.7092,22.9139],[92.7123,22.9473],[92.7242,22.9183],[92.7246,22.8915]]],[[[92.9488,22.9294],[92.9333,22.9324],[92.9374,22.9495],[92.9488,22.9294]]],[[[93.0417,22.9333],[93.0334,22.9382],[93.0374,22.9502],[93.0417,22.9333]]],[[[94.2291,22.8691],[94.2456,22.9308],[94.2802,22.914],[94.261,22.878],[94.305,22.8543],[94.2862,22.8054],[94.2974,22.7778],[94.2525,22.8039],[94.2826,22.743],[94.2835,22.6579],[94.2691,22.637],[94.2804,22.6043],[94.2523,22.5947],[94.2913,22.5643],[94.2542,22.5355],[94.2035,22.5868],[94.1988,22.6446],[94.1762,22.6734],[94.1765,22.7215],[94.2028,22.7325],[94.211,22.6454],[94.2471,22.6192],[94.2332,22.717],[94.2489,22.7448],[94.2183,22.7704],[94.2055,22.838],[94.1863,22.8376],[94.2058,22.8694],[94.2041,22.9639],[94.2291,22.8691]],[[94.2588,22.6926],[94.2664,22.6989],[94.2583,22.7],[94.2588,22.6926]]],[[[93.9076,22.9661],[93.9031,22.9586],[93.9,22.9667],[93.9076,22.9661]]],[[[94.2596,22.9688],[94.2744,22.9729],[94.2715,22.9586],[94.2596,22.9688]]],[[[92.6494,22.969],[92.6409,22.9697],[92.6472,22.9768],[92.6494,22.969]]],[[[92.7414,22.9742],[92.7334,22.9633],[92.7375,22.9834],[92.7414,22.9742]]],[[[92.8827,22.9773],[92.8742,22.9781],[92.8805,22.9852],[92.8827,22.9773]]],[[[92.6494,22.9856],[92.6409,22.9864],[92.6472,22.9935],[92.6494,22.9856]]],[[[92.7161,22.9856],[92.7075,22.9864],[92.7138,22.9935],[92.7161,22.9856]]],[[[92.9667,23.0],[92.9632,22.9909],[92.9575,22.9968],[92.9667,23.0]]],[[[94.2,22.9833],[94.1917,22.9882],[94.1958,23.0002],[94.2,22.9833]]],[[[92.8744,22.994],[92.8659,22.9947],[92.8722,23.0018],[92.8744,22.994]]],[[[92.9264,23.0084],[92.9383,23.0035],[92.9326,22.965],[92.915,22.9508],[92.9264,23.0084]]],[[[92.9667,23.0],[92.9702,23.0092],[92.9758,23.0032],[92.9667,23.0]]],[[[92.6411,23.0273],[92.6325,23.0281],[92.6388,23.0352],[92.6411,23.0273]]],[[[92.9552,23.03],[92.9006,23.0034],[92.9021,23.0297],[92.9552,23.03]]],[[[92.9616,23.0429],[92.9494,23.0462],[92.969,23.0458],[92.9616,23.0429]]],[[[92.9088,23.0332],[92.8927,23.054],[92.8952,23.0654],[92.9153,23.0467],[92.9088,23.0332]]],[[[94.2642,22.9956],[94.2368,22.9726],[94.2363,22.9511],[94.2182,22.9617],[94.2374,23.0719],[94.2579,23.0559],[94.2334,23.0142],[94.2642,22.9956]]],[[[92.8001,23.0597],[92.8316,23.0629],[92.8297,23.0189],[92.8556,23.0487],[92.874,23.0352],[92.8715,23.0119],[92.8511,23.0108],[92.8634,22.9705],[92.8527,22.9544],[92.8806,22.9377],[92.8585,22.9263],[92.8438,22.938],[92.836,22.9128],[92.8566,22.8987],[92.8276,22.8779],[92.845,22.8176],[92.8564,22.8111],[92.8714,22.8305],[92.8823,22.8154],[92.846,22.7615],[92.781,22.8381],[92.7534,22.8427],[92.7276,22.8862],[92.7476,22.904],[92.7366,22.9493],[92.7473,22.9548],[92.7543,22.9362],[92.7782,22.9488],[92.7989,22.9251],[92.7774,22.8786],[92.7969,22.8887],[92.815,22.8624],[92.8323,22.9613],[92.8205,22.9361],[92.8042,22.9729],[92.777,22.9621],[92.7971,23.0223],[92.7635,22.9778],[92.7536,23.0125],[92.7723,23.0211],[92.7535,23.0375],[92.7613,23.0639],[92.7831,23.0739],[92.8001,23.0597]]],[[[92.5327,23.0773],[92.5242,23.0781],[92.5305,23.0852],[92.5327,23.0773]]],[[[94.2161,23.0773],[94.2075,23.0781],[94.2138,23.0852],[94.2161,23.0773]]],[[[93.7592,23.0865],[93.7522,23.0912],[93.7535,23.0925],[93.7592,23.0865]]],[[[92.9695,23.0959],[93.0417,23.0839],[93.0439,23.0525],[93.1229,23.0116],[93.111,22.9877],[93.1319,22.9776],[93.1303,22.9457],[93.1045,22.9644],[93.1026,22.9462],[93.1402,22.9169],[93.1029,22.8345],[93.0848,22.8635],[93.0883,22.8976],[93.0504,22.9003],[93.0507,22.968],[93.0716,22.9897],[93.0535,22.9974],[93.0385,22.9614],[93.0197,22.9636],[93.0182,22.9266],[92.9694,22.9612],[92.9828,22.9839],[92.9781,23.0207],[92.9977,23.0203],[93.0004,23.0373],[92.9695,23.0959]],[[93.0504,23.0259],[93.0581,23.0322],[93.05,23.0333],[93.0504,23.0259]],[[93.0181,23.0156],[93.0272,23.0013],[93.0322,23.0014],[93.0181,23.0156]]],[[[92.8856,23.0957],[92.9463,23.0889],[92.956,23.0792],[92.9222,23.0676],[92.8856,23.0957]]],[[[92.5244,23.094],[92.5159,23.0947],[92.5222,23.1018],[92.5244,23.094]]],[[[92.9167,23.1083],[92.9258,23.1048],[92.9198,23.0992],[92.9167,23.1083]]],[[[94.2167,23.1],[94.209,23.1],[94.2124,23.1091],[94.2167,23.1]]],[[[92.9867,23.1072],[92.9817,23.1087],[92.9787,23.1104],[92.9867,23.1072]]],[[[92.8338,23.1168],[92.8567,23.0974],[92.8549,23.0847],[92.8354,23.0933],[92.8338,23.1168]]],[[[92.8959,23.1084],[92.8835,23.1205],[92.8839,23.1218],[92.8988,23.1232],[92.8959,23.1084]]],[[[92.9165,23.1156],[92.9084,23.1114],[92.9125,23.1257],[92.9165,23.1156]]],[[[92.5167,23.125],[92.509,23.125],[92.5124,23.1341],[92.5167,23.125]]],[[[92.7411,23.1409],[92.7336,23.1364],[92.7321,23.1375],[92.7411,23.1409]]],[[[94.2244,23.1356],[94.2159,23.1364],[94.2222,23.1435],[94.2244,23.1356]]],[[[94.2661,23.1356],[94.2575,23.1364],[94.2638,23.1435],[94.2661,23.1356]]],[[[92.9431,23.1166],[92.9332,23.1381],[92.9456,23.1562],[92.9553,23.1217],[92.9431,23.1166]]],[[[92.5004,23.1667],[92.5159,23.1556],[92.514,23.1425],[92.5011,23.1439],[92.5004,23.1667]]],[[[92.6201,23.1282],[92.6083,23.1527],[92.6164,23.1747],[92.6249,23.1651],[92.6201,23.1282]]],[[[92.7583,23.175],[92.7675,23.1715],[92.7615,23.1658],[92.7583,23.175]]],[[[92.4996,23.1741],[92.492,23.1678],[92.4927,23.1747],[92.4996,23.1741]]],[[[92.9031,23.1799],[92.914,23.1538],[92.9039,23.1361],[92.8864,23.1458],[92.9031,23.1799]]],[[[92.725,23.1708],[92.7085,23.1707],[92.7124,23.1833],[92.725,23.1708]]],[[[92.4895,23.1829],[92.4825,23.1782],[92.4882,23.1842],[92.4895,23.1829]]],[[[92.7579,23.1752],[92.7651,23.1266],[92.7517,23.1192],[92.7539,23.0944],[92.736,23.1123],[92.7475,23.1374],[92.7354,23.1966],[92.7579,23.1752]]],[[[92.4911,23.194],[92.4825,23.1947],[92.4888,23.2018],[92.4911,23.194]]],[[[92.5753,23.2084],[92.591,23.1957],[92.5792,23.1839],[92.5753,23.1925],[92.5753,23.2084]]],[[[92.75,23.203],[92.7418,23.2072],[92.7459,23.2173],[92.75,23.203]]],[[[92.6417,23.2333],[92.6382,23.2242],[92.6325,23.2302],[92.6417,23.2333]]],[[[92.8329,23.1168],[92.8112,23.0926],[92.794,23.1021],[92.7906,23.2017],[92.7694,23.1961],[92.7615,23.2205],[92.7805,23.2292],[92.7702,23.2349],[92.8396,23.211],[92.8567,23.133],[92.8212,23.182],[92.8191,23.1295],[92.8329,23.1168]]],[[[92.6417,23.2333],[92.6426,23.241],[92.6512,23.2375],[92.6417,23.2333]]],[[[92.7378,23.2416],[92.737,23.2281],[92.7334,23.2422],[92.7378,23.2416]]],[[[93.9333,23.2333],[93.9256,23.2333],[93.9291,23.2424],[93.9333,23.2333]]],[[[92.6395,23.2496],[92.6325,23.2448],[92.6382,23.2508],[92.6395,23.2496]]],[[[92.4876,23.2193],[92.47,23.2618],[92.4768,23.266],[92.491,23.2513],[92.4876,23.2193]]],[[[93.7592,23.2865],[93.7522,23.2912],[93.7535,23.2925],[93.7592,23.2865]]],[[[92.6161,23.294],[92.6075,23.2947],[92.6138,23.3018],[92.6161,23.294]]],[[[93.3665,23.3001],[93.3657,23.3035],[93.3665,23.307],[93.3665,23.3001]]],[[[92.6504,23.3167],[92.6734,23.2861],[92.6972,23.1959],[92.6922,23.1506],[92.714,23.0789],[92.7042,23.0529],[92.6504,23.3167]]],[[[92.65,23.3167],[92.6406,23.3211],[92.6497,23.324],[92.65,23.3167]]],[[[92.6294,23.2941],[92.6112,23.3283],[92.616,23.332],[92.6324,23.3198],[92.6294,23.2941]]],[[[92.6592,23.3282],[92.6522,23.3329],[92.6535,23.3342],[92.6592,23.3282]]],[[[92.5747,23.2085],[92.5537,23.2021],[92.5537,23.2229],[92.5372,23.1946],[92.5112,23.2042],[92.5327,23.259],[92.5199,23.3138],[92.5389,23.3484],[92.5615,23.2771],[92.5825,23.2593],[92.5671,23.2413],[92.5747,23.2085]]],[[[92.65,23.3583],[92.6592,23.3548],[92.6532,23.3492],[92.65,23.3583]]],[[[92.5494,23.3606],[92.5409,23.3614],[92.5472,23.3685],[92.5494,23.3606]]],[[[94.2583,23.35],[94.2499,23.3599],[94.2541,23.3746],[94.2583,23.35]]],[[[92.5167,23.375],[92.5132,23.3659],[92.5075,23.3718],[92.5167,23.375]]],[[[92.6575,23.3716],[92.6346,23.3602],[92.6349,23.3734],[92.6575,23.3716]]],[[[92.6232,23.3633],[92.6019,23.355],[92.6127,23.3795],[92.6232,23.3633]]],[[[92.5222,23.3724],[92.5336,23.3798],[92.5301,23.3598],[92.5222,23.3724]]],[[[92.7,23.3833],[92.7092,23.3798],[92.7032,23.3742],[92.7,23.3833]]],[[[92.7,23.3833],[92.6909,23.3868],[92.6968,23.3925],[92.7,23.3833]]],[[[92.6895,23.4246],[92.6825,23.4198],[92.6882,23.4258],[92.6895,23.4246]]],[[[92.675,23.4333],[92.6715,23.4242],[92.6658,23.4302],[92.675,23.4333]]],[[[92.675,23.4333],[92.6757,23.4589],[92.6791,23.4655],[92.6912,23.4376],[92.6867,23.434],[92.6809,23.4332],[92.675,23.4333]]],[[[93.9794,23.4501],[93.9679,23.4605],[93.9667,23.4667],[93.9823,23.4653],[93.9794,23.4501]]],[[[94.0205,23.4189],[94.0008,23.4473],[94.0067,23.4663],[94.0237,23.4611],[94.0205,23.4189]]],[[[92.7794,23.5178],[92.7679,23.5306],[92.7872,23.5318],[92.7794,23.5178]]],[[[92.8833,23.578],[92.8752,23.5822],[92.8792,23.5923],[92.8833,23.578]]],[[[92.7486,23.5972],[92.7268,23.5955],[92.7389,23.5708],[92.7191,23.5528],[92.7556,23.5213],[92.7262,23.4887],[92.7559,23.5061],[92.7804,23.4537],[92.8264,23.4272],[92.8193,23.3631],[92.8364,23.3436],[92.8069,23.3205],[92.7796,23.3473],[92.7447,23.3529],[92.7296,23.3907],[92.694,23.4128],[92.7051,23.4317],[92.7391,23.4282],[92.7016,23.462],[92.7001,23.5353],[92.712,23.6067],[92.7486,23.5972]],[[92.7165,23.5167],[92.7251,23.5153],[92.7211,23.5251],[92.7165,23.5167]],[[92.8004,23.3759],[92.8081,23.3822],[92.8,23.3833],[92.8004,23.3759]]],[[[92.7,23.6167],[92.6923,23.6167],[92.6958,23.6258],[92.7,23.6167]]],[[[94.2421,23.5999],[94.2439,23.6312],[94.2723,23.6472],[94.2801,23.6358],[94.2421,23.5999]]],[[[92.7576,23.6419],[92.7467,23.65],[92.7668,23.6459],[92.7576,23.6419]]],[[[94.2911,23.6523],[94.2825,23.6531],[94.2888,23.6602],[94.2911,23.6523]]],[[[92.6912,23.6581],[92.6623,23.643],[92.6512,23.6468],[92.678,23.6808],[92.6912,23.6581]]],[[[92.8327,23.6773],[92.8242,23.6781],[92.8305,23.6852],[92.8327,23.6773]]],[[[93.8482,23.6932],[93.8408,23.6968],[93.85,23.7],[93.8482,23.6932]]],[[[94.2921,23.6666],[94.2776,23.6802],[94.3126,23.714],[94.3147,23.6945],[94.2921,23.6666]]],[[[94.2911,23.719],[94.2825,23.7197],[94.2888,23.7268],[94.2911,23.719]]],[[[94.2911,23.7356],[94.2825,23.7364],[94.2888,23.7435],[94.2911,23.7356]]],[[[92.8758,23.7448],[92.8689,23.7496],[92.8702,23.7508],[92.8758,23.7448]]],[[[93.8565,23.7599],[93.8492,23.7635],[93.8583,23.7667],[93.8565,23.7599]]],[[[92.8662,23.5102],[92.8379,23.5341],[92.8349,23.5567],[92.8472,23.5711],[92.8361,23.5957],[92.8577,23.6923],[92.8545,23.7724],[92.8737,23.71],[92.8595,23.6163],[92.8725,23.5708],[92.8662,23.5102]]],[[[92.875,23.7697],[92.8668,23.7739],[92.8709,23.784],[92.875,23.7697]]],[[[92.7077,23.7856],[92.6992,23.7864],[92.7055,23.7935],[92.7077,23.7856]]],[[[92.7077,23.8273],[92.6992,23.8281],[92.7055,23.8352],[92.7077,23.8273]]],[[[93.1008,23.8782],[93.0939,23.8829],[93.0952,23.8842],[93.1008,23.8782]]],[[[94.0736,23.8875],[94.0685,23.8867],[94.0648,23.8891],[94.0736,23.8875]]],[[[93.0065,23.8849],[92.9992,23.8885],[93.0083,23.8917],[93.0065,23.8849]]],[[[92.7395,23.9246],[92.7325,23.9198],[92.7382,23.9258],[92.7395,23.9246]]],[[[92.9911,23.9273],[92.9825,23.9281],[92.9888,23.9352],[92.9911,23.9273]]],[[[92.875,23.9417],[92.8715,23.9325],[92.8658,23.9385],[92.875,23.9417]]],[[[92.875,23.9417],[92.876,23.965],[92.8813,23.9661],[92.8801,23.9422],[92.8778,23.9417],[92.8767,23.9416],[92.875,23.9417]]],[[[92.7161,23.9606],[92.7075,23.9614],[92.7138,23.9685],[92.7161,23.9606]]],[[[92.7441,23.7218],[92.7287,23.6189],[92.7159,23.6463],[92.6952,23.6441],[92.6975,23.7052],[92.6679,23.7365],[92.679,23.7635],[92.7053,23.7428],[92.7229,23.7521],[92.7346,23.9029],[92.7934,23.974],[92.7896,23.921],[92.759,23.9095],[92.7736,23.8069],[92.7508,23.7832],[92.7803,23.7875],[92.7804,23.7613],[92.7594,23.7417],[92.7803,23.7219],[92.7821,23.6813],[92.7695,23.6705],[92.7441,23.7218]]],[[[92.7306,23.9764],[92.727,23.9781],[92.7319,23.9793],[92.7306,23.9764]]],[[[93.1145,24.0079],[93.1075,24.0032],[93.1132,24.0092],[93.1145,24.0079]]],[[[92.7994,24.0106],[92.7909,24.0114],[92.7972,24.0185],[92.7994,24.0106]]],[[[92.7727,24.0116],[92.7725,24.0144],[92.7807,24.0186],[92.7727,24.0116]]],[[[93.198,23.9554],[93.1757,23.9989],[93.1807,24.0399],[93.2101,23.9846],[93.198,23.9554]]],[[[93.3577,24.044],[93.3492,24.0447],[93.3555,24.0518],[93.3577,24.044]]],[[[93.1784,24.0541],[93.1779,24.053],[93.1772,24.0539],[93.1784,24.0541]]],[[[92.95,24.0583],[92.9429,24.0655],[92.9582,24.0631],[92.95,24.0583]]],[[[92.9378,24.0277],[92.9637,24.0291],[92.9636,23.9961],[92.9426,23.9916],[92.9632,23.9708],[92.9447,23.9625],[92.9715,23.9543],[92.9614,23.9458],[92.9722,23.9197],[92.9423,23.9179],[92.9718,23.8876],[92.9523,23.8619],[92.9993,23.868],[92.9864,23.8458],[93.0056,23.8197],[92.9774,23.8028],[93.0161,23.7765],[93.0218,23.7126],[93.003,23.7041],[93.0217,23.6957],[93.0243,23.6088],[93.0111,23.5877],[93.0317,23.5779],[93.0178,23.5501],[93.0335,23.5212],[92.9909,23.4948],[92.9606,23.524],[92.8891,23.4615],[92.8726,23.4926],[92.8972,23.5098],[92.8951,23.5465],[92.9231,23.5545],[92.9307,23.6044],[92.8946,23.6307],[92.9558,23.6374],[92.9029,23.67],[92.949,23.6648],[92.9261,23.6887],[92.9232,23.7708],[92.9125,23.7364],[92.903,23.7613],[92.9155,23.8065],[92.9052,23.8387],[92.8672,23.8334],[92.8792,23.8812],[92.9062,23.8621],[92.9161,23.9089],[92.9136,23.9888],[92.8961,23.9896],[92.8865,23.9695],[92.8754,24.0005],[92.8948,24.08],[92.9109,24.0611],[92.9302,24.0551],[92.9378,24.0277]],[[92.9381,23.8488],[92.934,23.8203],[92.939,23.8174],[92.9381,23.8488]],[[92.9547,23.784],[92.9487,23.806],[92.9438,23.8072],[92.9426,23.7945],[92.9547,23.784]],[[93.0083,23.7667],[92.9696,23.7653],[92.9687,23.745],[93.0083,23.7667]],[[92.942,23.7178],[92.9496,23.7241],[92.9427,23.7247],[92.942,23.7178]],[[93.0086,23.6678],[93.0163,23.6741],[93.0094,23.6747],[93.0086,23.6678]],[[92.992,23.6178],[92.9996,23.6241],[92.9927,23.6247],[92.992,23.6178]],[[92.9503,23.5594],[92.9579,23.5658],[92.951,23.5663],[92.9503,23.5594]],[[92.951,23.5497],[92.9583,23.5417],[92.9579,23.5491],[92.951,23.5497]]],[[[93.0458,24.0607],[93.0708,24.0806],[93.0802,24.0377],[93.0431,23.9114],[93.0514,23.8554],[93.0801,23.8445],[93.0898,23.8723],[93.1333,23.8215],[93.1,23.8085],[93.0933,23.8246],[93.0998,23.8083],[93.0738,23.7923],[93.0389,23.8017],[93.0478,23.8208],[93.0187,23.8292],[93.0232,23.863],[93.0141,23.8893],[92.9949,23.9042],[93.0308,23.9948],[93.0183,24.079],[93.0458,24.0607]]],[[[93.4059,24.0726],[93.4667,24.0],[93.4694,23.9696],[93.5003,23.9527],[93.5469,23.959],[93.5652,23.984],[93.594,23.9628],[93.6166,24.0],[93.7611,24.0],[93.8123,23.929],[93.8484,23.9275],[93.8277,23.9057],[93.8412,23.8858],[93.8233,23.8121],[93.7694,23.8136],[93.822,23.7888],[93.7863,23.7551],[93.8074,23.7429],[93.7981,23.7056],[93.7521,23.704],[93.8052,23.6798],[93.7862,23.6625],[93.8146,23.6543],[93.8058,23.6279],[93.7524,23.6293],[93.7905,23.6134],[93.8064,23.5803],[93.7629,23.5977],[93.7612,23.5764],[93.7123,23.5891],[93.7023,23.5723],[93.7714,23.555],[93.771,23.5271],[93.7284,23.5227],[93.7489,23.4969],[93.7193,23.4779],[93.7334,23.4425],[93.7801,23.4799],[93.7888,23.4183],[93.7798,23.3951],[93.7613,23.4057],[93.7362,23.3886],[93.7463,23.3521],[93.7033,23.3642],[93.7216,23.3451],[93.6832,23.3343],[93.6548,23.3639],[93.6504,23.3546],[93.6521,23.3206],[93.6702,23.3099],[93.7386,23.3211],[93.7201,23.3065],[93.7289,23.2944],[93.6774,23.2802],[93.6775,23.2612],[93.7466,23.2817],[93.7557,23.2699],[93.7349,23.2462],[93.757,23.2467],[93.7823,23.21],[93.7456,23.1698],[93.7142,23.1687],[93.7033,23.1903],[93.6691,23.1879],[93.6702,23.1694],[93.747,23.1544],[93.6778,23.1136],[93.6986,23.1014],[93.6868,23.0774],[93.7292,23.1059],[93.7476,23.0806],[93.685,23.004],[93.7357,23.0561],[93.7709,23.0648],[93.7786,23.0276],[93.8129,23.0132],[93.8115,22.9769],[93.8475,22.9391],[93.8475,22.9176],[93.8584,22.9454],[93.8364,23.0456],[93.8612,23.0725],[93.881,23.0533],[93.872,23.0885],[93.8279,23.0976],[93.7989,23.0671],[93.7887,23.1054],[93.7612,23.1213],[93.8225,23.1458],[93.7862,23.1611],[93.8059,23.1708],[93.8224,23.2196],[93.8017,23.2446],[93.8222,23.2542],[93.7949,23.2678],[93.7848,23.2966],[93.8475,23.3045],[93.8402,23.3303],[93.822,23.3181],[93.7861,23.3378],[93.8118,23.3821],[93.8311,23.3872],[93.7942,23.4126],[93.8113,23.4708],[93.8574,23.4819],[93.8086,23.5087],[93.8221,23.5296],[93.8116,23.5456],[93.8302,23.5541],[93.8182,23.5666],[93.8284,23.6029],[93.881,23.611],[93.8531,23.6197],[93.8638,23.6389],[93.8448,23.6556],[93.8876,23.6602],[93.8996,23.6823],[93.8971,23.697],[93.8525,23.7033],[93.9073,23.74],[93.8951,23.7544],[93.904,23.7649],[93.8618,23.7674],[93.8803,23.7791],[93.8591,23.7994],[93.9225,23.8042],[93.8541,23.8187],[93.8361,23.8467],[93.8722,23.8616],[93.8534,23.8966],[93.881,23.8953],[93.8786,23.9216],[93.93,23.9502],[94.0361,23.9137],[94.0446,23.8848],[94.0798,23.8647],[94.0888,23.8301],[93.996,23.8282],[93.9814,23.847],[93.9627,23.8365],[93.9441,23.855],[93.9542,23.8251],[93.9809,23.8224],[93.9949,23.8032],[94.0096,23.8152],[94.024,23.8012],[94.0806,23.7972],[94.0605,23.7378],[94.0886,23.7389],[94.0971,23.6946],[94.0796,23.6615],[94.0704,23.6811],[94.0439,23.6644],[94.057,23.6333],[94.038,23.6016],[94.0127,23.6139],[94.0039,23.5949],[93.9878,23.6053],[93.9779,23.5949],[93.9537,23.6036],[93.9542,23.6228],[93.9363,23.6115],[93.9108,23.6384],[93.9112,23.6104],[93.9556,23.5695],[93.8868,23.5722],[93.8775,23.5283],[93.9163,23.5497],[93.9197,23.5196],[93.9343,23.5171],[93.9643,23.5459],[93.9647,23.4708],[93.9109,23.4627],[93.9556,23.421],[93.9293,23.4118],[93.8524,23.4465],[93.8608,23.4119],[93.8908,23.4085],[93.8527,23.3612],[93.889,23.3704],[93.9052,23.3989],[93.9201,23.3782],[93.9479,23.3808],[93.9557,23.37],[93.9262,23.3223],[93.9822,23.2834],[93.9721,23.2427],[93.89,23.3158],[93.9139,23.2456],[93.8968,23.2634],[93.8528,23.2627],[93.9138,23.1959],[93.8689,23.1965],[93.8799,23.1701],[93.8513,23.1639],[93.889,23.153],[93.8525,23.128],[93.8967,23.1383],[93.912,23.0606],[93.9433,23.0824],[93.9886,23.0541],[93.9886,23.001],[93.9357,22.989],[93.9553,22.9284],[93.9226,22.9714],[93.8864,22.9819],[93.887,22.9592],[93.9153,22.9443],[93.9114,22.9116],[93.9299,22.9131],[93.9406,22.8947],[93.9112,22.8886],[93.9112,22.8686],[93.9476,22.8456],[93.9383,22.8205],[93.9284,22.8299],[93.9042,22.802],[93.8365,22.8699],[93.8386,22.8887],[93.8035,22.8868],[93.7968,22.9223],[93.7804,22.8859],[93.7595,22.8863],[93.7446,22.9037],[93.7646,22.9126],[93.764,22.9387],[93.7037,22.9814],[93.6708,22.9766],[93.6594,23.0054],[93.672,23.0542],[93.6592,23.0672],[93.6472,23.229],[93.6167,23.3436],[93.6363,23.439],[93.6541,23.4476],[93.6808,23.4283],[93.6717,23.5808],[93.6736,23.4703],[93.629,23.4478],[93.6214,23.428],[93.6024,23.4374],[93.6163,23.4109],[93.5946,23.3207],[93.6148,23.2964],[93.6306,23.2125],[93.6192,23.1959],[93.6301,23.1627],[93.6113,23.1543],[93.6317,23.1445],[93.6418,23.0709],[93.6404,23.0307],[93.6107,22.9951],[93.6467,23.0075],[93.6614,22.9363],[93.6792,22.9496],[93.6871,22.9361],[93.7394,22.9372],[93.7387,22.9182],[93.6949,22.8857],[93.7375,22.8807],[93.7305,22.8596],[93.7541,22.8723],[93.8048,22.8548],[93.8406,22.8178],[93.7952,22.822],[93.7194,22.7865],[93.7985,22.7876],[93.8053,22.7703],[93.7693,22.7469],[93.7677,22.7307],[93.7974,22.7015],[93.8392,22.7042],[93.8543,22.6275],[93.8664,22.6876],[93.8548,22.7143],[93.8122,22.7183],[93.7867,22.7383],[93.8328,22.7611],[93.8293,22.789],[93.8627,22.7973],[93.895,22.7193],[93.9107,22.7646],[93.9362,22.7443],[93.9579,22.7582],[93.956,22.6469],[93.9274,22.6633],[93.9302,22.6112],[93.9108,22.613],[93.894,22.5708],[93.911,22.537],[93.9395,22.5294],[93.9398,22.4951],[93.9238,22.4844],[93.9184,22.497],[93.9034,22.4784],[93.8859,22.5215],[93.8692,22.5046],[93.8769,22.4704],[93.9053,22.4541],[93.878,22.4302],[93.8882,22.4019],[93.845,22.3884],[93.8372,22.3698],[93.8106,22.369],[93.7971,22.3975],[93.7858,22.3807],[93.831,22.3475],[93.8188,22.3205],[93.8466,22.3216],[93.8345,22.2999],[93.8439,22.2783],[93.8809,22.3041],[93.8732,22.245],[93.8212,22.2112],[93.8071,22.2385],[93.7801,22.2485],[93.7879,22.2284],[93.761,22.2115],[93.8137,22.1952],[93.7356,22.187],[93.7369,22.1694],[93.7752,22.1598],[93.7876,22.1714],[93.795,22.1532],[93.8122,22.1634],[93.8463,22.1467],[93.8429,22.1265],[93.7775,22.1292],[93.7856,22.0953],[93.8003,22.1071],[93.8143,22.096],[93.8028,22.0764],[93.7777,22.0803],[93.7865,22.053],[93.8133,22.053],[93.8381,22.089],[93.8482,22.0801],[93.8261,22.035],[93.841,22.0005],[93.8141,22.0069],[93.7986,21.9843],[93.7617,22.006],[93.7902,21.9703],[93.7732,21.953],[93.7447,21.9535],[93.7634,21.9468],[93.7624,21.9024],[93.7773,21.9478],[93.7968,21.9366],[93.8266,21.9573],[93.8387,21.9388],[93.8472,21.9112],[93.8195,21.895],[93.8651,21.8571],[93.822,21.8113],[93.7867,21.8145],[93.8024,21.7871],[93.8302,21.778],[93.8703,21.8298],[93.8944,21.8331],[93.913,21.8301],[93.9115,21.803],[93.9305,21.8125],[93.9281,21.7782],[93.9374,21.7878],[93.9538,21.777],[93.963,21.7967],[93.9823,21.6598],[93.9596,21.6348],[93.9733,21.626],[93.9697,21.6015],[94.016,21.6075],[94.0203,21.5865],[94.0731,21.5793],[94.072,21.5111],[94.0439,21.5123],[94.0725,21.4789],[94.0442,21.4713],[94.0449,21.4451],[94.0636,21.4372],[94.0553,21.4125],[94.0031,21.422],[93.9855,21.3962],[94.0394,21.381],[94.0471,21.3629],[94.0261,21.3391],[94.0829,21.2827],[94.0611,21.2599],[94.1138,21.247],[94.1237,21.2016],[94.1124,21.1667],[94.0862,21.1635],[94.1163,21.134],[94.0968,21.0864],[94.0697,21.0801],[94.0886,21.0706],[94.0732,21.0372],[94.019,21.0296],[94.028,21.0114],[94.0633,21.0065],[94.0357,20.9861],[94.0549,20.988],[94.0611,20.9453],[94.0805,20.9456],[94.0362,20.9234],[94.0565,20.9046],[94.0518,20.8678],[94.0212,20.8842],[94.0017,20.9293],[93.9943,20.8709],[94.0239,20.8433],[94.0138,20.8028],[93.9779,20.8317],[93.9279,20.8364],[93.8879,20.9056],[93.8695,20.9045],[93.8556,20.9879],[93.8436,20.9879],[93.8014,21.0743],[93.8409,20.9269],[93.8074,20.9631],[93.7866,20.9641],[93.8227,20.928],[93.8042,20.9022],[93.7775,20.9043],[93.8144,20.8876],[93.8205,20.8354],[93.8334,20.8581],[93.8208,20.9056],[93.8723,20.8727],[93.8974,20.8291],[93.8838,20.8035],[93.9179,20.8161],[93.9635,20.7878],[93.9345,20.7777],[93.9567,20.7612],[93.9459,20.7349],[93.9719,20.7445],[93.9857,20.7726],[94.056,20.7872],[94.0551,20.7706],[94.0374,20.7726],[94.0274,20.7544],[94.0537,20.7492],[94.0446,20.7197],[94.0718,20.7297],[94.0792,20.7028],[94.0036,20.7055],[93.9698,20.6679],[93.9368,20.6809],[93.9469,20.6629],[93.929,20.6442],[93.894,20.6614],[93.9377,20.6112],[93.9369,20.6408],[93.9462,20.6465],[93.955,20.6281],[93.9715,20.6552],[93.9791,20.6029],[93.999,20.6058],[93.9845,20.6488],[93.9944,20.6638],[94.0152,20.6341],[94.0237,20.6744],[94.088,20.655],[94.0683,20.5877],[94.0953,20.59],[94.0942,20.5704],[94.1222,20.563],[94.0942,20.5387],[94.1133,20.538],[94.1144,20.5192],[94.0774,20.5027],[94.1301,20.4961],[94.1111,20.4873],[94.1304,20.4706],[94.1237,20.4538],[94.0944,20.4265],[94.1409,20.4202],[94.1629,20.4806],[94.1831,20.414],[94.1768,20.4011],[94.1541,20.4142],[94.1278,20.4053],[94.1573,20.3734],[94.1281,20.372],[94.1108,20.32],[94.1291,20.3382],[94.1544,20.3311],[94.1565,20.2942],[94.1699,20.3372],[94.1901,20.3473],[94.1944,20.3874],[94.2207,20.3888],[94.2179,20.3555],[94.2468,20.2971],[94.2364,20.285],[94.2541,20.2689],[94.278,20.2904],[94.2896,20.2729],[94.2795,20.2276],[94.2306,20.2263],[94.1861,20.264],[94.2071,20.2182],[94.1946,20.1514],[94.2058,20.1367],[94.2392,20.1996],[94.264,20.1791],[94.2523,20.1365],[94.2792,20.1549],[94.3236,20.1373],[94.3326,20.1071],[94.3101,20.1038],[94.3223,20.0792],[94.3054,20.0528],[94.2807,20.0652],[94.2652,20.0426],[94.2359,20.0618],[94.2524,19.995],[94.2729,20.0196],[94.2784,19.9608],[94.2952,20.0132],[94.3448,20.0387],[94.3556,20.0199],[94.3271,19.9786],[94.3623,19.9969],[94.3703,19.9781],[94.4056,19.9812],[94.4032,19.9618],[94.4224,19.9435],[94.4046,19.9183],[94.3544,19.9085],[94.359,19.8784],[94.3948,19.9054],[94.4133,19.8947],[94.4292,19.9141],[94.4646,19.896],[94.4504,19.8673],[94.4735,19.8546],[94.4718,19.8199],[94.4376,19.8308],[94.3855,19.8206],[94.4288,19.8149],[94.4282,19.7948],[94.4415,19.8069],[94.4803,19.7958],[94.4776,19.7278],[94.4972,19.7055],[94.485,19.6887],[94.5138,19.6789],[94.493,19.6557],[94.5295,19.6397],[94.5114,19.6292],[94.5311,19.6125],[94.5113,19.6041],[94.539,19.5878],[94.5011,19.564],[94.5387,19.554],[94.5376,19.4862],[94.4877,19.4943],[94.4801,19.5303],[94.4716,19.5124],[94.4453,19.5118],[94.4364,19.5399],[94.4639,19.5636],[94.4291,19.569],[94.4288,19.59],[94.4026,19.5709],[94.395,19.605],[94.4471,19.6197],[94.4475,19.6465],[94.387,19.6351],[94.4061,19.6537],[94.3861,19.6531],[94.3852,19.6706],[94.4143,19.689],[94.3959,19.714],[94.388,19.687],[94.3684,19.6802],[94.3584,19.7122],[94.3741,19.7443],[94.355,19.7347],[94.3425,19.7515],[94.3806,19.7802],[94.3512,19.7782],[94.329,19.8225],[94.3386,19.7712],[94.3257,19.7405],[94.3636,19.6621],[94.3722,19.5791],[94.3636,19.5445],[94.3514,19.5466],[94.3199,19.6531],[94.3308,19.68],[94.2901,19.7963],[94.2426,19.8237],[94.2964,19.8506],[94.2849,19.8666],[94.297,19.8816],[94.2523,19.9208],[94.2473,19.9556],[94.2023,19.9691],[94.2311,19.9862],[94.2015,20.0055],[94.2221,20.0201],[94.2153,20.0315],[94.1863,20.0477],[94.1603,20.0221],[94.1537,20.048],[94.206,20.0807],[94.1859,20.0912],[94.1695,20.0782],[94.1538,20.0972],[94.1362,20.0875],[94.1398,20.1112],[94.1199,20.1376],[94.1559,20.147],[94.1028,20.2114],[94.1137,20.2314],[94.0961,20.2726],[94.0785,20.2792],[94.0894,20.3133],[94.0541,20.3027],[94.0661,20.3329],[94.0464,20.3479],[94.047,20.3281],[94.0189,20.3309],[94.0137,20.2946],[94.0014,20.2967],[93.9862,20.3289],[94.0135,20.3448],[94.0107,20.3624],[94.0311,20.3806],[93.9858,20.3854],[93.9965,20.4311],[93.952,20.4039],[93.9447,20.4288],[93.974,20.4585],[93.9437,20.4623],[93.9555,20.4972],[93.9368,20.4968],[93.9284,20.4785],[93.9051,20.5224],[93.8891,20.5239],[93.8799,20.4955],[93.8606,20.5044],[93.8533,20.461],[93.8338,20.4922],[93.8482,20.5205],[93.8044,20.557],[93.8139,20.5208],[93.8029,20.496],[93.8149,20.4835],[93.8009,20.4761],[93.8081,20.427],[93.7946,20.4123],[93.7594,20.4907],[93.7719,20.5135],[93.744,20.5362],[93.7821,20.5528],[93.7621,20.5536],[93.7361,20.5876],[93.7804,20.5696],[93.7863,20.607],[93.8102,20.5781],[93.8222,20.5884],[93.8485,20.5709],[93.8182,20.6055],[93.8304,20.6316],[93.8101,20.6403],[93.83,20.6659],[93.7962,20.6734],[93.7984,20.6453],[93.7835,20.634],[93.7611,20.6697],[93.7707,20.698],[93.8139,20.703],[93.7976,20.7382],[93.7585,20.7093],[93.7279,20.7392],[93.7294,20.6612],[93.6773,20.7384],[93.681,20.7055],[93.6609,20.7031],[93.6968,20.6537],[93.6711,20.652],[93.6524,20.6803],[93.657,20.6096],[93.6302,20.6309],[93.6192,20.6104],[93.6032,20.6194],[93.5932,20.6614],[93.6228,20.6705],[93.6058,20.7131],[93.5709,20.7225],[93.5709,20.6946],[93.5237,20.7007],[93.486,20.7355],[93.5041,20.7402],[93.5395,20.7117],[93.5557,20.7468],[93.5117,20.7731],[93.5613,20.7818],[93.5881,20.7431],[93.5975,20.7705],[93.5864,20.7872],[93.6113,20.8139],[93.6207,20.7853],[93.6542,20.781],[93.6721,20.7594],[93.6794,20.7974],[93.7228,20.7952],[93.6686,20.8208],[93.6615,20.854],[93.6804,20.8634],[93.6541,20.8899],[93.6384,20.8527],[93.6203,20.853],[93.6242,20.8928],[93.6028,20.9154],[93.5709,20.853],[93.5541,20.9058],[93.4625,20.8775],[93.4733,20.9466],[93.4617,20.9557],[93.4444,20.9195],[93.4386,20.963],[93.4177,20.9739],[93.4193,21.046],[93.4552,20.9859],[93.4521,21.0461],[93.5044,21.0893],[93.5152,21.012],[93.4961,20.9941],[93.4799,21.0223],[93.475,21.0128],[93.4951,20.9424],[93.5065,20.9373],[93.502,20.9877],[93.5279,20.9972],[93.5637,20.9531],[93.5497,21.0407],[93.5685,21.0198],[93.5804,21.0301],[93.6221,21.0054],[93.6392,20.9448],[93.6439,20.9961],[93.6804,21.0033],[93.6825,21.0192],[93.639,21.0095],[93.6119,21.0371],[93.6142,21.0547],[93.5437,21.0791],[93.5355,21.1298],[93.5709,21.1414],[93.5979,21.1294],[93.581,21.1558],[93.5537,21.1603],[93.5632,21.1809],[93.5351,21.1792],[93.5557,21.2054],[93.5264,21.2533],[93.5473,21.2564],[93.5806,21.2267],[93.6311,21.2221],[93.5521,21.2692],[93.5549,21.2975],[93.5189,21.3107],[93.5236,21.4033],[93.4798,21.4806],[93.4782,21.4451],[93.4989,21.4333],[93.4861,21.4129],[93.4996,21.3607],[93.4861,21.3444],[93.5052,21.3039],[93.4929,21.2417],[93.5139,21.2127],[93.5066,21.1452],[93.4758,21.1738],[93.4828,21.241],[93.4636,21.3064],[93.4434,21.322],[93.431,21.4302],[93.4111,21.3944],[93.4318,21.3533],[93.4266,21.3122],[93.4487,21.2932],[93.4459,21.2019],[93.4019,21.2041],[93.3899,21.3134],[93.3785,21.3224],[93.3721,21.2959],[93.3616,21.3003],[93.3478,21.3458],[93.328,21.3603],[93.3385,21.3883],[93.3201,21.3947],[93.3096,21.4252],[93.3129,21.4474],[93.3395,21.4462],[93.3117,21.4708],[93.3303,21.4791],[93.3115,21.5028],[93.3322,21.5401],[93.3197,21.5803],[93.361,21.5594],[93.3845,21.6051],[93.4226,21.6137],[93.4143,21.6467],[93.3959,21.6283],[93.3677,21.6653],[93.3976,21.6861],[93.3696,21.7115],[93.3804,21.7288],[93.367,21.7476],[93.404,21.8229],[93.3502,21.7644],[93.3527,21.6464],[93.3806,21.6196],[93.3629,21.603],[93.3551,21.6217],[93.3457,21.6032],[93.303,21.6195],[93.3221,21.646],[93.3224,21.6804],[93.303,21.6961],[93.3088,21.7998],[93.3332,21.8207],[93.3009,21.8933],[93.33,21.9224],[93.3122,21.9204],[93.2934,21.946],[93.2666,21.6261],[93.2512,21.6383],[93.247,21.7063],[93.192,21.7841],[93.2056,21.8131],[93.2067,21.9126],[93.186,21.8717],[93.1886,21.8365],[93.161,21.7956],[93.1721,21.7528],[93.1448,21.778],[93.1277,21.8376],[93.1487,21.8643],[93.1366,21.9045],[93.1556,21.9306],[93.119,21.906],[93.1054,21.861],[93.0946,21.8861],[93.1058,21.9292],[93.0947,21.9708],[93.1143,21.9711],[93.1,21.9978],[93.1085,22.1025],[93.0877,22.1149],[93.079,22.0865],[93.0697,22.1027],[93.0808,22.1548],[93.0607,22.1452],[93.0531,22.1872],[93.074,22.2073],[93.1174,22.1975],[93.1261,22.147],[93.1359,22.1354],[93.123,22.1811],[93.1726,22.1725],[93.1887,22.1552],[93.1858,22.1286],[93.2303,22.1223],[93.2273,22.0785],[93.2875,22.0733],[93.3163,22.0251],[93.2883,22.0991],[93.2447,22.0943],[93.2219,22.1636],[93.1948,22.1696],[93.1514,22.2291],[93.1594,22.2407],[93.2157,22.2222],[93.2224,22.3119],[93.1998,22.3541],[93.2138,22.4045],[93.1935,22.4045],[93.2054,22.4279],[93.1949,22.4387],[93.2032,22.4654],[93.2388,22.4868],[93.2529,22.5455],[93.2627,22.5364],[93.2664,22.5473],[93.2434,22.589],[93.222,22.503],[93.1779,22.4514],[93.1446,22.4681],[93.1468,22.4817],[93.1724,22.479],[93.1416,22.5043],[93.1519,22.5454],[93.164,22.5454],[93.1663,22.5994],[93.1265,22.639],[93.1115,22.729],[93.1236,22.7482],[93.1722,22.7449],[93.143,22.7555],[93.1556,22.8039],[93.1345,22.86],[93.146,22.8973],[93.1978,22.911],[93.17,22.9261],[93.1524,22.9607],[93.1364,23.0045],[93.144,23.0374],[93.2061,23.0396],[93.2282,22.9779],[93.2377,22.9967],[93.2711,22.9981],[93.2622,22.9527],[93.289,22.9704],[93.2862,22.9969],[93.3074,22.9954],[93.343,23.0469],[93.3595,23.0495],[93.3716,22.9776],[93.3822,23.0432],[93.3603,23.0626],[93.3597,23.0878],[93.3865,23.1137],[93.4222,23.1115],[93.3947,23.1279],[93.3983,23.1526],[93.3843,23.1591],[93.3909,23.2265],[93.3667,23.275],[93.3748,23.3173],[93.3588,23.3476],[93.4026,23.3865],[93.3949,23.4775],[93.4183,23.5348],[93.4214,23.65],[93.4376,23.6805],[93.3999,23.7499],[93.405,23.8052],[93.3875,23.8856],[93.3915,23.9009],[93.3991,23.886],[93.3993,23.9135],[93.3693,23.9355],[93.3497,23.998],[93.3664,24.0359],[93.3623,24.0816],[93.4059,24.0726]],[[93.392,24.0428],[93.3996,24.0491],[93.3927,24.0497],[93.392,24.0428]],[[93.3917,23.9842],[93.4143,24.0127],[93.3952,24.0311],[93.3773,24.0125],[93.3917,23.9842]],[[93.7099,23.9499],[93.7053,23.9727],[93.6781,23.973],[93.6943,23.953],[93.7099,23.9499]],[[93.6102,23.9303],[93.6048,23.8938],[93.6214,23.9396],[93.6102,23.9303]],[[93.6394,23.9051],[93.5926,23.843],[93.6242,23.8327],[93.6192,23.7118],[93.6701,23.7014],[93.6807,23.7131],[93.6527,23.7295],[93.6442,23.7792],[93.664,23.7878],[93.6722,23.8469],[93.6352,23.8541],[93.6394,23.9051]],[[93.7088,23.8259],[93.7164,23.8322],[93.7083,23.8333],[93.7088,23.8259]],[[93.7141,23.8146],[93.6956,23.7692],[93.7234,23.7956],[93.7141,23.8146]],[[93.6921,23.7426],[93.6997,23.7489],[93.6917,23.75],[93.6921,23.7426]],[[93.7177,23.7075],[93.725,23.6917],[93.7239,23.7076],[93.7177,23.7075]],[[93.7491,23.6913],[93.7428,23.6836],[93.7497,23.6844],[93.7491,23.6913]],[[93.6739,23.6862],[93.6589,23.6877],[93.6618,23.668],[93.6739,23.6862]],[[93.5959,23.6893],[93.5761,23.6675],[93.5514,23.6778],[93.561,23.6435],[93.5863,23.6273],[93.6138,23.6448],[93.5935,23.6554],[93.5959,23.6893]],[[93.7052,23.6642],[93.6783,23.6482],[93.6776,23.6435],[93.6977,23.6434],[93.7052,23.6642]],[[93.6555,23.6433],[93.6363,23.6545],[93.6369,23.6271],[93.6555,23.6433]],[[93.5157,23.6837],[93.5083,23.6917],[93.5088,23.6842],[93.5157,23.6837]],[[93.5805,23.8065],[93.5678,23.7947],[93.5694,23.7763],[93.574,23.779],[93.5805,23.8065]],[[93.5517,23.562],[93.6167,23.525],[93.6312,23.4865],[93.6303,23.5214],[93.6093,23.5416],[93.6321,23.5705],[93.6056,23.5527],[93.5864,23.5614],[93.5697,23.578],[93.5725,23.6046],[93.5391,23.6243],[93.5517,23.562]],[[93.6262,23.6158],[93.6328,23.6015],[93.6319,23.6162],[93.6262,23.6158]],[[93.643,23.5932],[93.6571,23.5894],[93.6434,23.5991],[93.643,23.5932]],[[93.5169,23.4833],[93.5083,23.4848],[93.5123,23.4749],[93.5169,23.4833]],[[93.5671,23.4509],[93.5747,23.4572],[93.5667,23.4583],[93.5671,23.4509]],[[93.4973,23.3749],[93.467,23.3244],[93.4826,23.2488],[93.4525,23.2278],[93.4718,23.2038],[93.4612,23.178],[93.4991,23.1681],[93.47,23.144],[93.4865,23.1281],[93.5126,23.1314],[93.5236,23.1129],[93.5114,23.0876],[93.5334,23.0124],[93.521,22.994],[93.4946,23.0141],[93.4986,22.9739],[93.4777,22.9707],[93.4885,22.9462],[93.4775,22.9115],[93.5057,22.878],[93.4708,22.8772],[93.4464,22.9141],[93.4336,22.8997],[93.4364,22.8762],[93.4974,22.8294],[93.4905,22.8035],[93.4677,22.8016],[93.4833,22.7768],[93.4683,22.7555],[93.4889,22.7378],[93.4524,22.7223],[93.4655,22.6834],[93.4504,22.6275],[93.4655,22.6066],[93.4427,22.55],[93.4635,22.4711],[93.444,22.4129],[93.464,22.3706],[93.4357,22.3376],[93.5055,22.3221],[93.4946,22.2971],[93.5047,22.2852],[93.4607,22.2555],[93.4886,22.2388],[93.4696,22.2292],[93.4982,22.2047],[93.4938,22.1705],[93.5129,22.1686],[93.5178,22.1989],[93.5671,22.1593],[93.5729,22.1722],[93.5435,22.2044],[93.5879,22.2105],[93.5976,22.2303],[93.5785,22.2458],[93.5901,22.2598],[93.5652,22.3381],[93.5201,22.3625],[93.5304,22.372],[93.5113,22.3956],[93.5309,22.3972],[93.5113,22.4289],[93.5402,22.4388],[93.5183,22.4668],[93.541,22.5094],[93.5213,22.5657],[93.486,22.5875],[93.5126,22.6139],[93.5243,22.5867],[93.5196,22.6217],[93.5394,22.6203],[93.5416,22.639],[93.5194,22.6642],[93.495,22.6284],[93.4932,22.693],[93.5472,22.6694],[93.5333,22.7151],[93.5453,22.732],[93.569,22.6542],[93.5971,22.64],[93.5968,22.5925],[93.5526,22.5885],[93.5916,22.5539],[93.5692,22.5542],[93.5886,22.5194],[93.5608,22.5383],[93.5743,22.5024],[93.5511,22.4733],[93.5788,22.4802],[93.62,22.4442],[93.631,22.4533],[93.6177,22.456],[93.6193,22.4804],[93.6707,22.4768],[93.6808,22.52],[93.6555,22.51],[93.6267,22.537],[93.6472,22.5545],[93.6362,22.6139],[93.6544,22.6234],[93.6966,22.594],[93.6778,22.6292],[93.7144,22.62],[93.7141,22.6542],[93.6501,22.6417],[93.5932,22.6534],[93.612,22.7051],[93.646,22.7021],[93.6474,22.7287],[93.6287,22.7285],[93.6311,22.7545],[93.6128,22.7644],[93.5771,22.7288],[93.5617,22.8543],[93.6114,22.8657],[93.6378,22.836],[93.6473,22.8538],[93.6226,22.947],[93.6151,22.8953],[93.5901,22.8759],[93.5687,22.8806],[93.563,22.9327],[93.526,22.9556],[93.5576,23.0005],[93.5437,23.0712],[93.5876,23.0799],[93.6111,23.0594],[93.6141,23.0873],[93.5793,23.0945],[93.5881,23.1159],[93.5698,23.1319],[93.5534,23.1204],[93.5364,23.1461],[93.5558,23.1973],[93.526,23.2198],[93.5546,23.2358],[93.5527,23.2559],[93.572,23.2717],[93.5525,23.2794],[93.5464,23.3053],[93.4927,23.3232],[93.504,23.3577],[93.5325,23.3535],[93.5653,23.4033],[93.5295,23.3764],[93.5036,23.3763],[93.4951,23.4308],[93.4831,23.3899],[93.4973,23.3749]],[[93.5669,23.2277],[93.5748,23.2394],[93.5667,23.2417],[93.5669,23.2277]],[[93.6158,23.2246],[93.6095,23.2169],[93.6163,23.2177],[93.6158,23.2246]],[[93.5681,23.1989],[93.5772,23.1846],[93.5822,23.1847],[93.5681,23.1989]],[[93.6671,22.9009],[93.6747,22.9072],[93.6667,22.9083],[93.6671,22.9009]],[[93.6754,22.8509],[93.6831,22.8572],[93.675,22.8583],[93.6754,22.8509]],[[93.6835,22.8355],[93.6945,22.818],[93.7069,22.8275],[93.6962,22.8409],[93.6835,22.8355]],[[93.6588,22.8092],[93.6664,22.8156],[93.6583,22.8167],[93.6588,22.8092]],[[93.675,22.7917],[93.6908,22.7844],[93.6909,22.7905],[93.675,22.7917]],[[93.7167,22.7583],[93.6873,22.7559],[93.6855,22.7526],[93.7215,22.7442],[93.7167,22.7583]],[[93.7345,22.6583],[93.7541,22.6346],[93.7809,22.6364],[93.7701,22.6571],[93.7345,22.6583]],[[93.7171,22.5509],[93.7247,22.5572],[93.7167,22.5583],[93.7171,22.5509]],[[93.7838,22.5342],[93.7914,22.5406],[93.7833,22.5417],[93.7838,22.5342]],[[93.7171,22.5009],[93.7247,22.5072],[93.7167,22.5083],[93.7171,22.5009]],[[93.85,22.475],[93.8577,22.4673],[93.8574,22.4746],[93.85,22.475]],[[93.6831,22.4656],[93.6754,22.4592],[93.6823,22.4587],[93.6831,22.4656]],[[93.5791,22.4474],[93.5822,22.4301],[93.5505,22.415],[93.5889,22.3878],[93.5612,22.3783],[93.6219,22.3491],[93.6179,22.2891],[93.6634,22.2442],[93.6902,22.3041],[93.6436,22.2957],[93.6393,22.3393],[93.6083,22.3775],[93.6318,22.4291],[93.6057,22.4189],[93.5791,22.4474]],[[93.8421,22.4092],[93.8497,22.4156],[93.8417,22.4167],[93.8421,22.4092]],[[93.7503,22.3761],[93.7579,22.3824],[93.751,22.383],[93.7503,22.3761]],[[93.7669,22.3764],[93.7747,22.3822],[93.7667,22.3833],[93.7669,22.3764]],[[93.5829,22.6193],[93.5681,22.6317],[93.5808,22.6092],[93.5829,22.6193]],[[93.5579,22.6408],[93.5503,22.6344],[93.5583,22.6333],[93.5579,22.6408]],[[93.6752,22.2277],[93.6831,22.2394],[93.675,22.2417],[93.6752,22.2277]],[[93.673,22.2129],[93.6349,22.2027],[93.6278,22.1448],[93.6718,22.1221],[93.6364,22.0717],[93.6287,22.0108],[93.5866,22.0458],[93.6065,22.0621],[93.6151,22.1043],[93.5866,22.0784],[93.5802,22.1223],[93.5459,22.1146],[93.5462,22.0954],[93.5204,22.0824],[93.5111,22.027],[93.4697,22.046],[93.4735,22.1057],[93.4518,22.0711],[93.4446,22.0366],[93.4885,21.9958],[93.4709,21.9785],[93.4536,21.9894],[93.4526,21.9612],[93.4721,21.9539],[93.4687,21.9297],[93.5053,21.8703],[93.4792,21.8533],[93.4523,21.8832],[93.4358,21.8629],[93.4533,21.8364],[93.4906,21.8299],[93.5054,21.7878],[93.4778,21.7684],[93.4536,21.7724],[93.4443,21.7193],[93.4522,21.7036],[93.4637,21.7135],[93.5066,21.6858],[93.4836,21.6556],[93.487,21.6446],[93.5158,21.6514],[93.4967,21.6012],[93.5459,21.6022],[93.5611,21.654],[93.5812,21.6443],[93.5891,21.6125],[93.5729,21.5708],[93.5342,21.5597],[93.5648,21.5457],[93.553,21.5204],[93.5637,21.5042],[93.5271,21.5028],[93.556,21.4861],[93.5653,21.4583],[93.5524,21.4369],[93.5825,21.4373],[93.6032,21.3865],[93.6306,21.3705],[93.6026,21.3446],[93.6366,21.2527],[93.644,21.3313],[93.6609,21.3397],[93.6793,21.3167],[93.6914,21.3325],[93.6809,21.3632],[93.6531,21.3611],[93.6632,21.3896],[93.627,21.3951],[93.6304,21.4137],[93.6198,21.4304],[93.6406,21.4431],[93.6018,21.4625],[93.633,21.4841],[93.6099,21.5195],[93.6407,21.5547],[93.655,21.5211],[93.6448,21.5102],[93.6862,21.4261],[93.6996,21.471],[93.6862,21.5374],[93.722,21.5485],[93.7096,21.5251],[93.7301,21.4957],[93.7266,21.4542],[93.7467,21.4799],[93.7447,21.4519],[93.7739,21.4265],[93.739,21.4237],[93.718,21.4029],[93.7385,21.3787],[93.7356,21.3535],[93.7579,21.3645],[93.7358,21.3108],[93.7472,21.3034],[93.7623,21.3308],[93.7984,21.3208],[93.7754,21.274],[93.8063,21.2709],[93.8032,21.2366],[93.8219,21.2289],[93.811,21.1959],[93.8274,21.1782],[93.8463,21.2143],[93.872,21.2056],[93.8684,21.179],[93.8969,21.1457],[93.8452,21.1309],[93.8448,21.1033],[93.8647,21.0713],[93.8685,21.0212],[93.8897,21.0209],[93.9051,20.9971],[93.894,20.9792],[93.9459,20.919],[93.9335,20.9643],[93.9554,20.9802],[93.9266,20.9887],[93.9392,21.0121],[93.92,21.0195],[93.9309,21.0381],[93.9042,21.0363],[93.895,21.0518],[93.9135,21.0699],[93.9017,21.0881],[93.9125,21.1055],[93.9548,21.0857],[93.9637,21.1243],[93.9802,21.1222],[93.9916,21.0926],[94.0044,21.1142],[94.0305,21.1198],[94.0383,21.1476],[93.9864,21.1614],[93.9614,21.1878],[94.0442,21.1929],[94.0561,21.2205],[94.0126,21.2271],[93.9883,21.2636],[93.9796,21.2452],[93.9685,21.2516],[93.9611,21.2634],[93.9808,21.2956],[93.9625,21.3231],[93.9441,21.3144],[93.9382,21.2871],[93.9028,21.2973],[93.8776,21.2775],[93.8619,21.3125],[93.8799,21.3242],[93.8098,21.354],[93.8147,21.3654],[93.8801,21.3614],[93.9053,21.3783],[93.8867,21.3879],[93.8971,21.4052],[93.8264,21.4402],[93.846,21.4552],[93.865,21.443],[93.882,21.4569],[93.9137,21.4514],[93.904,21.4818],[93.8363,21.5127],[93.8368,21.5384],[93.8539,21.5475],[93.9201,21.5107],[93.9319,21.5202],[93.8283,21.5876],[93.8551,21.6117],[93.8591,21.6372],[93.8889,21.6382],[93.8377,21.665],[93.8045,21.6027],[93.7809,21.638],[93.7606,21.6376],[93.7486,21.6826],[93.7045,21.6108],[93.6929,21.6666],[93.7055,21.7142],[93.6554,21.6597],[93.6389,21.6963],[93.6199,21.703],[93.6218,21.7298],[93.6035,21.7375],[93.612,21.763],[93.6895,21.8382],[93.5976,21.7851],[93.5779,21.8204],[93.6213,21.8527],[93.6315,21.8962],[93.5625,21.8445],[93.5533,21.8889],[93.5721,21.9053],[93.5349,21.9052],[93.5473,21.9222],[93.5261,21.9684],[93.5436,21.9881],[93.5545,21.9694],[93.5716,21.988],[93.579,21.9612],[93.6122,21.9803],[93.625,21.9594],[93.6455,21.9889],[93.671,21.9584],[93.6899,21.9871],[93.6673,22.0261],[93.7053,22.0883],[93.6445,22.1698],[93.673,22.2129]],[[93.7171,22.1592],[93.7247,22.1656],[93.7167,22.1667],[93.7171,22.1592]],[[93.692,21.9428],[93.6996,21.9491],[93.6927,21.9497],[93.692,21.9428]],[[93.7085,21.943],[93.7164,21.9489],[93.7083,21.95],[93.7085,21.943]],[[93.6583,21.905],[93.6619,21.8924],[93.6827,21.9042],[93.6739,21.9085],[93.6583,21.905]],[[93.7681,21.8143],[93.7522,21.7936],[93.7735,21.8144],[93.7681,21.8143]],[[93.6616,21.797],[93.677,21.7772],[93.69,21.786],[93.687,21.7907],[93.6616,21.797]],[[93.7436,21.7764],[93.7523,21.7674],[93.7576,21.7686],[93.7566,21.7825],[93.7436,21.7764]],[[93.9083,21.7667],[93.9157,21.7587],[93.9164,21.7656],[93.9083,21.7667]],[[93.7664,21.7572],[93.7588,21.7509],[93.7657,21.7504],[93.7664,21.7572]],[[93.717,21.7178],[93.7246,21.7241],[93.7177,21.7247],[93.717,21.7178]],[[93.9585,21.718],[93.9664,21.7239],[93.9583,21.725],[93.9585,21.718]],[[93.8671,21.6926],[93.8747,21.6989],[93.8667,21.7],[93.8671,21.6926]],[[93.8408,21.6829],[93.8345,21.6753],[93.8413,21.676],[93.8408,21.6829]],[[93.9491,21.6663],[93.9428,21.6586],[93.9497,21.6594],[93.9491,21.6663]],[[93.9421,21.6092],[93.9497,21.6156],[93.9417,21.6167],[93.9421,21.6092]],[[93.9347,21.4322],[93.9439,21.4179],[93.9489,21.418],[93.9347,21.4322]],[[94.0068,21.3477],[93.9939,21.3355],[94.0152,21.3361],[94.0068,21.3477]],[[94.0088,21.2926],[94.0164,21.2989],[94.0083,21.3],[94.0088,21.2926]],[[94.0754,21.1092],[94.0831,21.1156],[94.075,21.1167],[94.0754,21.1092]],[[94.0171,21.0509],[94.0247,21.0572],[94.0167,21.0583],[94.0171,21.0509]],[[94.0004,21.0176],[94.0081,21.0239],[94.0,21.025],[94.0004,21.0176]],[[93.7454,21.0185],[93.7261,21.1751],[93.7477,21.2042],[93.7281,21.2288],[93.7406,21.2608],[93.7209,21.2723],[93.7039,21.2361],[93.6692,21.2533],[93.7151,21.213],[93.7014,21.1803],[93.7454,21.0185]],[[93.6456,21.1418],[93.6447,21.08],[93.6583,21.075],[93.6809,21.0957],[93.6456,21.1418]],[[93.6329,21.1658],[93.6253,21.1594],[93.6333,21.1583],[93.6329,21.1658]],[[93.6246,21.1824],[93.617,21.1761],[93.625,21.175],[93.6246,21.1824]],[[93.7921,21.1592],[93.7997,21.1656],[93.7917,21.1667],[93.7921,21.1592]],[[93.784,21.1476],[93.7904,21.1262],[93.7889,21.1497],[93.784,21.1476]],[[93.8056,21.1213],[93.7855,21.0964],[93.7944,21.0854],[93.8056,21.1213]],[[93.6842,21.3004],[93.6906,21.3081],[93.6837,21.3073],[93.6842,21.3004]],[[93.5829,21.3574],[93.5753,21.3511],[93.5833,21.35],[93.5829,21.3574]],[[93.5496,21.3991],[93.542,21.3928],[93.55,21.3917],[93.5496,21.3991]],[[93.4635,21.4856],[93.4479,21.5215],[93.4444,21.5225],[93.4635,21.4856]],[[93.4084,21.4987],[93.3962,21.5656],[93.3954,21.4935],[93.4084,21.4987]],[[93.4671,21.5592],[93.4747,21.5656],[93.4667,21.5667],[93.4671,21.5592]],[[93.4464,21.5337],[93.4571,21.5432],[93.4565,21.5492],[93.4429,21.5479],[93.4464,21.5337]],[[93.4762,21.5273],[93.4906,21.5319],[93.475,21.5333],[93.4762,21.5273]],[[93.5,21.525],[93.5077,21.5173],[93.5078,21.5243],[93.5,21.525]],[[93.3913,21.5908],[93.3836,21.5844],[93.3917,21.5833],[93.3913,21.5908]],[[93.4122,21.7273],[93.4322,21.7619],[93.4116,21.7807],[93.4028,21.7433],[93.4122,21.7273]],[[93.3641,21.8364],[93.408,21.9329],[93.3403,22.0409],[93.3365,21.9701],[93.3545,21.9629],[93.3533,21.9448],[93.3834,21.9395],[93.381,21.9111],[93.3526,21.9041],[93.3641,21.8364]],[[93.2164,21.9489],[93.2088,21.9426],[93.2157,21.942],[93.2164,21.9489]],[[93.2555,21.998],[93.2429,21.9612],[93.2478,21.9507],[93.2658,21.9821],[93.2555,21.998]],[[93.1572,21.9885],[93.1343,21.9945],[93.1583,21.9833],[93.1572,21.9885]],[[93.2724,22.0167],[93.271,22.0397],[93.2438,22.0125],[93.2523,22.0092],[93.2724,22.0167]],[[93.1667,22.0333],[93.159,22.041],[93.1589,22.034],[93.1667,22.0333]],[[93.1249,22.0421],[93.1399,22.0627],[93.1209,22.0734],[93.1165,22.0548],[93.1249,22.0421]],[[93.2171,22.0592],[93.2247,22.0656],[93.2167,22.0667],[93.2171,22.0592]],[[93.4171,21.9176],[93.4247,21.9239],[93.4167,21.925],[93.4171,21.9176]],[[93.3132,22.0947],[93.3469,22.1096],[93.348,22.1384],[93.3036,22.105],[93.3132,22.0947]],[[93.2746,22.1324],[93.267,22.1261],[93.275,22.125],[93.2746,22.1324]],[[93.4333,22.1417],[93.426,22.1649],[93.4294,22.1419],[93.4333,22.1417]],[[93.3533,22.1512],[93.3655,22.1722],[93.3639,22.182],[93.3508,22.1622],[93.3533,22.1512]],[[93.2869,22.1688],[93.3331,22.1993],[93.3024,22.2274],[93.2919,22.2828],[93.3306,22.2967],[93.302,22.3139],[93.2769,22.3538],[93.2736,22.3967],[93.2553,22.4071],[93.2451,22.3454],[93.2638,22.3472],[93.2887,22.3054],[93.2699,22.2967],[93.2592,22.2406],[93.2901,22.1942],[93.2869,22.1688]],[[93.3129,22.3686],[93.3447,22.4889],[93.3829,22.5323],[93.3795,22.5562],[93.3523,22.5542],[93.3527,22.5738],[93.3261,22.5485],[93.3637,22.5201],[93.3011,22.528],[93.3323,22.4929],[93.301,22.4849],[93.3157,22.4568],[93.2924,22.4235],[93.3129,22.3686]],[[93.2663,22.4324],[93.2586,22.4261],[93.2667,22.425],[93.2663,22.4324]],[[93.282,22.4511],[93.2728,22.4654],[93.2678,22.4653],[93.282,22.4511]],[[93.3,22.5583],[93.2842,22.5656],[93.2841,22.5595],[93.3,22.5583]],[[93.3856,22.4571],[93.3764,22.4428],[93.3906,22.457],[93.3856,22.4571]],[[93.3913,22.3999],[93.3898,22.4217],[93.3786,22.4239],[93.3766,22.411],[93.3913,22.3999]],[[93.4754,22.2842],[93.4831,22.2906],[93.475,22.2917],[93.4754,22.2842]],[[93.3834,22.2368],[93.3917,22.2288],[93.3881,22.2417],[93.3834,22.2368]],[[93.3607,22.2251],[93.3583,22.2009],[93.363,22.1927],[93.3737,22.2215],[93.3607,22.2251]],[[93.4029,22.1987],[93.4182,22.1774],[93.4232,22.1769],[93.4029,22.1987]],[[93.2913,22.6324],[93.2836,22.6261],[93.2917,22.625],[93.2913,22.6324]],[[93.2249,22.6338],[93.2486,22.6705],[93.2489,22.7029],[93.1968,22.7154],[93.1943,22.6949],[93.2234,22.6862],[93.2085,22.6443],[93.2249,22.6338]],[[93.3586,22.719],[93.3665,22.7307],[93.3606,22.7332],[93.3586,22.719]],[[93.3921,22.6749],[93.4096,22.6382],[93.4138,22.6359],[93.4067,22.6791],[93.3921,22.6749]],[[93.2917,22.6486],[93.2831,22.65],[93.2877,22.6416],[93.2917,22.6486]],[[93.2496,22.7501],[93.2471,22.7881],[93.2213,22.815],[93.2028,22.7703],[93.2303,22.7636],[93.2371,22.7445],[93.2496,22.7501]],[[93.3338,22.7676],[93.3414,22.7739],[93.3333,22.775],[93.3338,22.7676]],[[93.1778,22.8525],[93.1828,22.8832],[93.1591,22.8684],[93.1778,22.8525]],[[93.3421,22.8676],[93.3497,22.8739],[93.3417,22.875],[93.3421,22.8676]],[[93.3501,22.8989],[93.3352,22.923],[93.3384,22.8919],[93.3501,22.8989]],[[93.3666,22.9264],[93.3752,22.925],[93.3706,22.9334],[93.3666,22.9264]],[[93.1922,22.9507],[93.1993,22.9578],[93.1923,22.9577],[93.1922,22.9507]],[[93.367,22.9511],[93.3746,22.9574],[93.3677,22.958],[93.367,22.9511]],[[93.1905,22.9676],[93.1839,22.9819],[93.1848,22.9672],[93.1905,22.9676]],[[93.1417,22.1153],[93.1331,22.1167],[93.1377,22.1082],[93.1417,22.1153]],[[93.2356,21.9309],[93.2477,21.9137],[93.2474,21.8937],[93.2572,21.9193],[93.2356,21.9309]],[[93.2366,21.8478],[93.2372,21.8102],[93.2478,21.8206],[93.2366,21.8478]],[[93.379,21.4503],[93.3822,21.4652],[93.3667,21.4667],[93.3679,21.4606],[93.379,21.4503]],[[93.375,21.4417],[93.3827,21.434],[93.3824,21.4413],[93.375,21.4417]],[[93.3663,21.4293],[93.3502,21.431],[93.3635,21.4091],[93.3663,21.4293]],[[93.3588,21.3926],[93.3664,21.3989],[93.3583,21.4],[93.3588,21.3926]],[[93.3683,21.3526],[93.3819,21.3645],[93.3583,21.375],[93.3683,21.3526]],[[93.7,20.95],[93.7077,20.9423],[93.7078,20.9493],[93.7,20.95]],[[93.6754,20.8759],[93.6831,20.8822],[93.675,20.8833],[93.6754,20.8759]],[[93.7254,20.8592],[93.7331,20.8656],[93.725,20.8667],[93.7254,20.8592]],[[93.8588,20.8009],[93.8664,20.8072],[93.8583,20.8083],[93.8588,20.8009]],[[93.9,20.775],[93.9153,20.7673],[93.9163,20.7733],[93.9,20.775]],[[93.8914,20.7656],[93.8838,20.7592],[93.8907,20.7587],[93.8914,20.7656]],[[93.884,20.7077],[93.8917,20.7],[93.891,20.7078],[93.884,20.7077]],[[93.9333,20.7083],[93.9492,20.7011],[93.9493,20.7072],[93.9333,20.7083]],[[93.906,20.6136],[93.8765,20.6024],[93.8771,20.5863],[93.906,20.6136]],[[94.0504,20.5926],[94.0581,20.5989],[94.05,20.6],[94.0504,20.5926]],[[94.0071,20.5904],[94.0006,20.5691],[94.0056,20.567],[94.0071,20.5904]],[[94.0161,20.5568],[94.0095,20.5424],[94.0156,20.5425],[94.0161,20.5568]],[[94.1158,20.4663],[94.1095,20.4586],[94.1163,20.4594],[94.1158,20.4663]],[[94.0254,20.4342],[94.0331,20.4406],[94.025,20.4417],[94.0254,20.4342]],[[94.0828,20.4318],[94.0761,20.4174],[94.0823,20.4175],[94.0828,20.4318]],[[94.0664,20.4156],[94.0588,20.4092],[94.0657,20.4087],[94.0664,20.4156]],[[94.0834,20.3873],[94.0759,20.3713],[94.0803,20.3667],[94.0916,20.3721],[94.0834,20.3873]],[[94.192,20.2946],[94.2077,20.3052],[94.1944,20.3079],[94.192,20.2946]],[[94.1504,20.2676],[94.1581,20.2739],[94.15,20.275],[94.1504,20.2676]],[[94.3003,19.9094],[94.3079,19.9158],[94.301,19.9163],[94.3003,19.9094]],[[94.3335,19.9097],[94.3414,19.9156],[94.3333,19.9167],[94.3335,19.9097]],[[94.3029,19.7987],[94.3182,19.7774],[94.3232,19.7769],[94.3029,19.7987]],[[93.6586,23.3844],[93.6663,23.3908],[93.6594,23.3913],[93.6586,23.3844]],[[93.6596,23.2348],[93.6738,23.2311],[93.66,23.2408],[93.6596,23.2348]],[[93.7253,22.9678],[93.7329,22.9741],[93.726,22.9747],[93.7253,22.9678]],[[93.8666,22.9264],[93.8752,22.925],[93.8706,22.9334],[93.8666,22.9264]],[[93.8754,22.9009],[93.8831,22.9072],[93.875,22.9083],[93.8754,22.9009]],[[93.8997,23.0072],[93.8921,23.0009],[93.899,23.0004],[93.8997,23.0072]],[[93.9254,23.0254],[93.9564,23.0303],[93.9188,23.0298],[93.9254,23.0254]],[[93.8664,23.3322],[93.8588,23.3259],[93.8657,23.3254],[93.8664,23.3322]],[[93.8497,23.4239],[93.8421,23.4176],[93.849,23.417],[93.8497,23.4239]],[[93.8747,23.5822],[93.8671,23.5759],[93.874,23.5754],[93.8747,23.5822]],[[93.9977,23.6605],[93.9867,23.6949],[93.9523,23.7472],[93.9363,23.7199],[93.9566,23.7206],[93.9883,23.6633],[93.9796,23.6515],[93.9977,23.6605]],[[93.9413,23.6658],[93.9336,23.6594],[93.9417,23.6583],[93.9413,23.6658]],[[93.9914,23.7656],[93.9838,23.7592],[93.9907,23.7587],[93.9914,23.7656]],[[93.9415,23.7653],[93.9336,23.7594],[93.9417,23.7583],[93.9415,23.7653]],[[93.924,23.8504],[93.9167,23.8583],[93.9171,23.8509],[93.924,23.8504]],[[93.9414,23.8739],[93.9338,23.8676],[93.9407,23.867],[93.9414,23.8739]],[[93.9908,23.8844],[93.975,23.8917],[93.976,23.8844],[93.9908,23.8844]]],[[[93.0425,24.0782],[93.0355,24.0829],[93.0368,24.0842],[93.0425,24.0782]]],[[[93.1812,23.9472],[93.153,23.9385],[93.1641,23.879],[93.1469,23.8525],[93.1159,23.9049],[93.0852,23.8972],[93.0843,23.9278],[93.1069,23.9474],[93.103,23.972],[93.1503,24.0871],[93.1699,24.0748],[93.1441,23.9946],[93.1812,23.9472]]],[[[93.0145,24.0912],[93.0075,24.0865],[93.0132,24.0925],[93.0145,24.0912]]],[[[92.9082,24.1061],[92.8916,24.1041],[92.9042,24.1167],[92.9082,24.1061]]],[[[92.9577,24.1106],[92.9492,24.1114],[92.9555,24.1185],[92.9577,24.1106]]],[[[92.911,24.0665],[92.9175,24.1184],[92.9218,24.1225],[92.9305,24.1035],[92.911,24.0665]]],[[[92.9342,24.1282],[92.9272,24.1329],[92.9285,24.1342],[92.9342,24.1282]]],[[[92.9077,24.1356],[92.8992,24.1364],[92.9055,24.1435],[92.9077,24.1356]]],[[[92.9667,24.175],[92.9758,24.1715],[92.9698,24.1658],[92.9667,24.175]]],[[[92.9667,24.175],[92.9575,24.1785],[92.9635,24.1842],[92.9667,24.175]]],[[[92.9167,24.2833],[92.9132,24.2742],[92.9075,24.2802],[92.9167,24.2833]]],[[[92.9167,24.2833],[92.9202,24.2925],[92.9258,24.2865],[92.9167,24.2833]]],[[[92.9915,24.3245],[92.9979,24.2855],[92.9618,24.2536],[92.9366,24.3051],[92.9778,24.2928],[92.9915,24.3245]]],[[[92.9533,24.3263],[92.9411,24.3295],[92.9607,24.3292],[92.9533,24.3263]]]]}}