{"type":"Feature","properties":{"speciesId":641,"category":"LC","source":"IUCN Red List","simplifyTol":0.01,"clippedToSubcontinent":true},"geometry":{"type":"Polygon","coordinates":[[[80.7572,30.0348],[80.6715,29.9592],[80.5986,29.9569],[80.5522,29.8495],[80.4912,29.7964],[80.4135,29.796],[80.3941,29.7609],[80.3632,29.7455],[80.3799,29.6757],[80.4116,29.6501],[80.4055,29.5979],[80.375,29.5616],[80.3421,29.5508],[80.3529,29.5287],[80.3421,29.5126],[80.2832,29.4761],[80.2969,29.4515],[80.2464,29.447],[80.2355,29.4101],[80.2684,29.3926],[80.2775,29.3386],[80.3133,29.3126],[80.2879,29.1999],[80.2414,29.2183],[80.2684,29.1399],[80.2294,29.1173],[80.1764,29.1364],[80.1461,29.1027],[80.1217,28.9865],[79.9827,29.0192],[79.6136,29.1669],[79.2503,29.3992],[78.765,29.4843],[78.7391,29.505],[78.6934,29.5089],[78.6267,29.5514],[78.5677,29.7653],[78.2995,29.8756],[77.9894,30.1709],[77.7785,30.4641],[77.4432,31.042],[77.3989,31.544],[77.546,31.6343],[77.7237,31.6178],[78.7129,31.2044],[79.584,30.6581],[80.3075,30.2594],[80.7572,30.0348]]]}}