{"type":"Feature","properties":{"speciesId":643,"category":"LC","source":"IUCN Red List","simplifyTol":0.01,"clippedToSubcontinent":true},"geometry":{"type":"MultiPolygon","coordinates":[[[[97.9998,24.3034],[97.9479,24.3965],[97.9292,24.5307],[97.9479,24.6609],[98.0,24.743],[97.9998,24.3034]]],[[[97.8724,25.8041],[97.7347,25.8201],[97.6163,25.8619],[97.564,25.9058],[97.5399,25.9841],[97.5476,26.173],[97.6038,26.3944],[97.6852,26.5609],[97.7274,26.6065],[97.768,26.624],[97.8687,26.6094],[98.0,26.5512],[98.0,25.828],[97.8724,25.8041]]]]}}