{"type":"Feature","properties":{"speciesId":65,"category":"LC","source":"IUCN Red List","simplifyTol":0.01,"clippedToSubcontinent":true},"geometry":{"type":"MultiPolygon","coordinates":[[[[72.5285,21.6973],[72.5279,21.7079],[72.5351,21.7253],[72.5409,21.7122],[72.5285,21.6973]]],[[[72.3604,22.1838],[72.3515,22.1744],[72.3581,22.1888],[72.3604,22.1838]]],[[[72.4713,22.2145],[72.4656,22.2019],[72.4323,22.1795],[72.4442,22.2056],[72.4713,22.2145]]],[[[72.6626,22.2111],[72.6314,21.954],[72.5405,21.9002],[72.5218,21.9104],[72.5042,21.9431],[72.5163,21.9589],[72.508,22.0009],[72.5384,22.1322],[72.5709,22.1909],[72.6219,22.2164],[72.6626,22.2111]]],[[[72.5105,22.2179],[72.5039,22.2326],[72.5175,22.2305],[72.5105,22.2179]]],[[[72.6626,22.2423],[72.6615,22.2445],[72.6626,22.2467],[72.6626,22.2423]]],[[[70.0115,22.5588],[69.9917,22.5844],[69.9991,22.5897],[70.0256,22.5811],[70.0115,22.5588]]],[[[70.4425,22.9724],[70.4335,22.9737],[70.4491,22.9798],[70.4425,22.9724]]],[[[70.4415,22.9801],[70.4295,22.9817],[70.4484,22.994],[70.4415,22.9801]]],[[[70.3753,22.9592],[70.3896,22.9602],[70.3834,22.9427],[70.351,22.9316],[70.3011,22.9435],[70.385,22.9959],[70.3919,22.971],[70.3753,22.9592]]],[[[70.3744,23.0335],[70.3961,23.0206],[70.3753,23.0222],[70.3744,23.0335]]],[[[70.4574,23.0388],[70.4468,23.0314],[70.4561,23.0439],[70.4574,23.0388]]],[[[70.4133,22.9907],[70.4164,23.0236],[70.4424,23.0472],[70.4312,23.0099],[70.4133,22.9907]]],[[[70.4163,23.0281],[70.4187,23.0392],[70.4349,23.0499],[70.4345,23.0444],[70.4163,23.0281]]],[[[70.3915,23.0352],[70.3788,23.0361],[70.3679,23.0431],[70.3954,23.0582],[70.3915,23.0352]]],[[[70.4728,23.0546],[70.4599,23.0526],[70.4769,23.0622],[70.4728,23.0546]]],[[[72.6012,31.8728],[73.7068,31.8605],[74.0385,31.8237],[74.2228,31.5411],[74.1491,31.1726],[73.8543,30.8655],[73.5963,30.3004],[73.3997,29.809],[73.2277,29.0719],[73.2523,28.2365],[73.5471,27.8065],[73.9648,27.4503],[74.2719,27.2292],[74.5668,26.9343],[74.8862,26.6641],[75.009,26.3201],[74.8985,25.927],[74.6036,25.4847],[73.7437,24.8213],[73.2277,24.1457],[72.9697,23.6051],[72.7363,23.0523],[72.6626,22.4258],[72.6626,22.256],[72.6273,22.255],[72.6127,22.2672],[72.6495,22.2643],[72.6288,22.2759],[72.5679,22.2652],[72.6254,22.2802],[72.5931,22.2817],[72.479,22.2205],[72.4931,22.2641],[72.4597,22.2136],[72.4151,22.2149],[72.4247,22.2006],[72.4084,22.1524],[72.381,22.1539],[72.3885,22.1924],[72.3709,22.1814],[72.3689,22.1449],[72.367,22.1858],[72.3907,22.2002],[72.3697,22.1934],[72.3821,22.2262],[72.3704,22.2843],[72.4013,22.3249],[72.3925,22.3315],[72.3581,22.313],[72.342,22.2572],[72.3322,22.2999],[72.3459,22.2239],[72.3116,22.1866],[72.2953,22.2249],[72.3209,22.1379],[72.242,22.0036],[72.2551,21.8193],[72.2391,21.7952],[72.2185,21.8162],[72.2081,21.8058],[72.2493,21.7157],[72.2809,21.6868],[71.4587,21.9221],[70.0951,22.4504],[70.0222,22.5448],[70.1779,22.5604],[70.2419,22.683],[70.2655,22.6892],[70.2377,22.6953],[70.2559,22.7099],[70.2514,22.7324],[70.2887,22.7381],[70.3559,22.8761],[70.4429,22.9596],[70.4865,23.0526],[70.4856,23.0888],[70.4091,23.0363],[70.4029,23.0606],[70.3715,23.0588],[70.3624,23.0403],[70.3746,23.0183],[70.3943,23.0061],[70.2917,22.9434],[70.2374,22.973],[70.2032,22.9444],[70.1582,22.9416],[70.1211,22.9587],[70.1285,22.9863],[70.1029,22.964],[70.1328,22.9342],[70.0933,22.9022],[70.0647,22.9131],[69.9561,22.8889],[69.9121,22.8654],[69.8084,22.8463],[69.8013,22.8311],[69.7634,22.8803],[69.5668,23.1752],[69.4071,23.642],[69.3949,24.0228],[69.2843,24.3791],[69.1,24.7231],[68.5104,25.3004],[68.2155,25.9024],[68.0927,26.5166],[68.0558,27.18],[68.0681,27.4994],[68.1664,27.8311],[68.3261,28.04],[68.9403,28.6296],[69.2106,29.035],[69.5423,29.6861],[69.7511,30.3004],[69.9108,30.6566],[70.1074,31.1603],[70.2671,31.4429],[70.6602,31.8851],[70.8936,31.9957],[71.4464,32.008],[72.073,31.8974],[72.6012,31.8728]]],[[[69.5947,31.8542],[69.2278,31.8732],[68.8274,31.9494],[68.5656,32.0981],[68.4541,32.2883],[68.4601,32.6005],[68.623,32.9986],[68.8139,33.3434],[68.9479,33.4452],[69.0312,33.4452],[69.1633,33.3289],[69.1555,33.1317],[69.2319,32.9368],[69.3746,32.8476],[69.6602,32.7822],[69.8981,32.7703],[70.023,32.7167],[70.023,32.5978],[69.5947,31.8542]]]]}}