{"type":"Feature","properties":{"speciesId":652,"category":"EN","source":"IUCN Red List","simplifyTol":0.01,"clippedToSubcontinent":true},"geometry":{"type":"MultiPolygon","coordinates":[[[[73.8502,16.7406],[73.8324,16.7583],[73.8502,16.7763],[73.8681,16.7586],[73.8502,16.7406]]],[[[73.7781,17.0922],[73.7603,17.1099],[73.7781,17.1279],[73.7959,17.1102],[73.7781,17.0922]]],[[[73.8125,17.2167],[73.7947,17.2344],[73.8125,17.2524],[73.8304,17.2347],[73.8125,17.2167]]],[[[73.7206,17.2611],[73.7028,17.2787],[73.7206,17.2968],[73.7384,17.2791],[73.7206,17.2611]]],[[[73.7258,17.3912],[73.708,17.4088],[73.7258,17.4268],[73.7436,17.4092],[73.7258,17.3912]]],[[[73.7272,17.5064],[73.7094,17.5241],[73.7272,17.5421],[73.745,17.5245],[73.7272,17.5064]]]]}}