{"type":"Feature","properties":{"speciesId":656,"category":"LC","source":"IUCN Red List","simplifyTol":0.01,"clippedToSubcontinent":true},"geometry":{"type":"Polygon","coordinates":[[[75.2617,34.348],[75.1872,34.1894],[75.1699,34.0055],[75.2024,33.9176],[75.3174,33.8157],[76.1365,33.3714],[77.4732,32.5795],[78.2382,32.2069],[78.3429,32.1334],[78.4048,32.0652],[78.4238,32.0016],[78.4004,31.9421],[78.304,31.867],[78.199,31.8325],[78.0846,31.8398],[77.8547,31.8919],[77.6048,31.9857],[77.1011,32.2391],[76.6694,32.2815],[76.4631,32.3224],[76.1242,32.4816],[75.7941,32.686],[75.7047,32.7078],[75.483,32.7167],[75.3969,32.7496],[75.2728,32.876],[75.0314,33.1721],[74.9186,33.2824],[74.7636,33.3818],[74.3061,33.6054],[74.2003,33.6883],[74.1344,33.7791],[74.1011,33.8858],[74.0481,34.2401],[74.0033,34.3249],[73.8588,34.5188],[73.8281,34.6169],[73.8461,34.6737],[73.895,34.7352],[74.1588,34.9431],[74.2335,35.0232],[74.2522,35.1036],[74.2031,35.2044],[74.0962,35.3136],[73.6655,35.6718],[73.4014,35.8605],[73.2286,35.944],[72.8738,36.0163],[72.7737,36.0538],[72.7446,36.1007],[72.7769,36.1718],[73.1067,36.5322],[73.2894,36.6682],[73.4329,36.7313],[73.5987,36.7788],[73.9925,36.8266],[74.4109,36.8082],[74.6214,36.7732],[74.7586,36.7331],[75.0405,36.593],[75.5256,36.2658],[75.6067,36.1767],[75.7575,35.9008],[76.3017,35.2451],[76.361,35.1083],[76.3673,34.9415],[76.3279,34.8445],[76.2261,34.7653],[76.0614,34.6997],[75.5282,34.5476],[75.3743,34.4588],[75.2617,34.348]]]}}