{"type":"Feature","properties":{"speciesId":660,"category":"LC","source":"IUCN Red List","simplifyTol":0.01,"clippedToSubcontinent":true},"geometry":{"type":"MultiPolygon","coordinates":[[[[90.2805,25.5865],[90.2146,25.6037],[90.2151,25.6572],[90.2547,25.6333],[90.2805,25.5865]]],[[[90.3845,25.719],[90.3666,25.7367],[90.3845,25.7547],[90.4023,25.737],[90.3845,25.719]]],[[[91.8882,25.8659],[91.8704,25.8836],[91.8882,25.9016],[91.9061,25.8839],[91.8882,25.8659]]],[[[90.4956,26.0587],[90.4778,26.0764],[90.4956,26.0944],[90.5134,26.0767],[90.4956,26.0587]]],[[[91.7685,26.0697],[91.7507,26.0874],[91.7685,26.1054],[91.7864,26.0877],[91.7685,26.0697]]]]}}