{"type":"Feature","properties":{"speciesId":663,"category":"LC","source":"IUCN Red List","simplifyTol":0.01,"clippedToSubcontinent":true},"geometry":{"type":"MultiPolygon","coordinates":[[[[97.6863,24.3983],[97.7026,24.3665],[97.6627,24.3418],[97.6604,24.3146],[97.6842,24.2947],[97.7614,24.2788],[97.7636,24.2588],[97.7284,24.2039],[97.7578,24.17],[97.7304,24.1122],[97.6451,24.0399],[97.6324,24.0],[97.5852,23.9935],[97.535,23.9378],[97.6283,23.8912],[97.6496,23.8452],[97.6581,23.8673],[97.7159,23.8744],[97.7369,23.9094],[97.7654,23.9149],[97.7951,23.9477],[97.8534,23.9533],[97.8594,23.976],[97.888,23.9879],[97.8852,24.0103],[98.0,24.056],[98.0,20.4274],[97.955,20.4274],[97.9121,20.4702],[97.9264,20.5416],[97.8907,20.5916],[97.8336,20.5773],[97.8836,20.4988],[97.905,20.4202],[97.8764,20.3274],[97.8265,20.2775],[97.7337,20.306],[97.6908,20.2918],[97.598,20.1062],[97.5552,19.9705],[97.5267,19.7992],[97.5052,19.5565],[97.5124,19.4209],[97.4196,18.9783],[97.3411,18.9997],[97.391,19.171],[97.4196,19.378],[97.4267,19.6779],[97.4553,19.8063],[97.4339,19.9134],[97.2554,20.199],[97.184,20.2632],[97.0824,20.2025],[97.1769,20.0062],[97.184,19.9063],[97.284,19.7278],[97.3411,19.6707],[97.2911,19.5851],[97.3268,19.4994],[97.3339,19.4137],[97.2911,19.3566],[97.234,19.3209],[97.1769,19.2353],[97.1912,19.1568],[97.0912,19.1782],[97.0555,19.2281],[97.0769,19.1353],[97.1555,19.0497],[97.2054,18.9569],[97.1697,18.8855],[97.2054,18.7713],[97.2054,18.6713],[97.2483,18.5928],[97.3553,18.2573],[97.3482,18.1645],[97.2911,18.1431],[97.2197,18.1502],[97.2197,18.0432],[97.184,17.9432],[97.2054,17.8147],[97.1626,17.7862],[97.1269,17.8362],[97.0984,18.1645],[97.0198,18.2573],[96.9841,18.3358],[96.9769,18.4764],[96.9909,18.4795],[96.9757,18.4916],[96.9669,18.5947],[96.8342,18.6785],[96.7914,18.7356],[96.7914,18.7927],[96.8342,18.8213],[96.8342,18.8641],[96.8842,18.8998],[96.8842,18.9926],[96.8628,19.0854],[96.7129,19.4137],[96.5558,19.685],[96.5987,19.8849],[96.6058,20.0276],[96.4488,20.4488],[96.4416,20.9057],[96.3345,21.2269],[96.3631,21.3482],[96.5558,21.4268],[96.6701,21.5624],[96.6701,21.6338],[96.5059,21.5624],[96.4345,21.5624],[96.5487,21.6837],[96.6344,21.7266],[96.5844,21.8408],[96.513,21.8836],[96.3988,21.8408],[96.3345,21.905],[96.3631,22.0335],[96.3488,22.1406],[96.3845,22.2477],[96.4202,22.6046],[96.3417,22.6831],[96.3131,22.7688],[96.3488,22.8616],[96.3274,22.9401],[96.4557,23.0113],[96.4574,22.9778],[96.4388,22.9874],[96.4275,22.9636],[96.4373,22.9391],[96.4635,22.9525],[96.5145,22.9906],[96.4606,23.0139],[96.5487,23.0615],[96.6538,22.9594],[96.6664,22.9723],[96.6568,22.9833],[96.7343,23.0258],[96.9627,23.0258],[97.0056,23.1114],[96.977,23.1614],[96.9056,23.1685],[96.8342,23.1971],[96.8128,23.2685],[96.8628,23.3327],[96.9413,23.3042],[97.0473,23.3063],[97.0841,23.4541],[97.4361,23.7306],[97.4542,23.7624],[97.3971,23.7375],[97.4163,23.7326],[97.2629,23.7257],[97.2272,23.809],[97.3343,23.8923],[97.3224,24.0113],[97.5167,24.175],[97.5,24.2667],[97.5009,24.4158],[97.625,24.3583],[97.6863,24.3983]],[[97.0829,20.2035],[97.0817,20.2235],[97.0686,20.2238],[97.068,20.203],[97.0829,20.2035]],[[96.9711,18.608],[96.9714,18.5917],[96.9833,18.5917],[96.9711,18.608]],[[97.0457,23.3042],[97.0526,23.2866],[97.0796,23.2854],[97.2042,23.3479],[97.1163,23.3555],[97.0457,23.3042]],[[97.5314,24.1746],[97.519,24.1669],[97.5332,24.1689],[97.5314,24.1746]],[[97.6324,24.3579],[97.6261,24.3503],[97.633,24.351],[97.6324,24.3579]],[[97.5917,24.3167],[97.6075,24.3094],[97.6076,24.3155],[97.5917,24.3167]],[[97.6504,24.299],[97.6583,24.2917],[97.6572,24.2997],[97.6504,24.299]],[[97.6172,24.2919],[97.575,24.2833],[97.5216,24.2222],[97.5844,24.1697],[97.677,24.2359],[97.6613,24.28],[97.6172,24.2919]],[[97.626,24.1747],[97.6333,24.1667],[97.6329,24.1741],[97.626,24.1747]],[[97.55,24.275],[97.542,24.2823],[97.5426,24.2754],[97.55,24.275]],[[97.542,24.1511],[97.5496,24.1574],[97.5427,24.158],[97.542,24.1511]],[[97.5739,24.157],[97.5596,24.1478],[97.5597,24.1428],[97.5739,24.157]],[[97.7758,23.825],[97.7917,23.8333],[97.789,23.8485],[97.7678,23.8384],[97.7758,23.825]],[[97.975,23.6973],[97.9531,23.7099],[97.9631,23.6708],[97.979,23.6633],[97.975,23.6973]],[[97.6986,23.6564],[97.7358,23.6589],[97.7388,23.7085],[97.778,23.7535],[97.7473,23.7797],[97.7133,23.7367],[97.6521,23.7283],[97.6143,23.6832],[97.6314,23.6371],[97.6055,23.5861],[97.6195,23.5634],[97.6383,23.5566],[97.6413,23.5894],[97.7095,23.6282],[97.6986,23.6564]],[[97.3016,23.4839],[97.3154,23.491],[97.3,23.4917],[97.3016,23.4839]],[[97.3267,23.4986],[97.3447,23.4834],[97.3501,23.4947],[97.3267,23.4986]],[[97.5582,23.5171],[97.6068,23.5153],[97.6035,23.5385],[97.5582,23.5171]],[[97.4746,23.7741],[97.467,23.7678],[97.475,23.7667],[97.4746,23.7741]],[[97.7666,23.7857],[97.7752,23.7833],[97.7706,23.7918],[97.7666,23.7857]],[[97.4844,23.4416],[97.4946,23.4339],[97.5155,23.4465],[97.4977,23.4498],[97.4844,23.4416]],[[97.4167,23.4167],[97.4087,23.424],[97.4092,23.4171],[97.4167,23.4167]],[[97.3606,23.3941],[97.2806,23.4126],[97.2805,23.3827],[97.2527,23.3422],[97.2145,23.3331],[97.194,23.2879],[97.2024,23.2204],[97.2299,23.2523],[97.2606,23.2417],[97.255,23.2939],[97.2804,23.2717],[97.3031,23.2838],[97.2819,23.3127],[97.296,23.3666],[97.3606,23.3941]],[[97.3746,23.3074],[97.367,23.3011],[97.375,23.3],[97.3746,23.3074]],[[97.0842,23.3587],[97.0906,23.3664],[97.0837,23.3657],[97.0842,23.3587]],[[97.1996,23.3824],[97.192,23.3761],[97.2,23.375],[97.1996,23.3824]],[[97.3586,23.4094],[97.3663,23.4158],[97.3594,23.4163],[97.3586,23.4094]],[[97.2592,23.4254],[97.2656,23.4331],[97.2587,23.4323],[97.2592,23.4254]],[[97.4086,23.4344],[97.4163,23.4408],[97.4094,23.4413],[97.4086,23.4344]],[[97.4408,23.4329],[97.4345,23.4253],[97.4413,23.426],[97.4408,23.4329]],[[97.1311,23.0231],[97.0939,22.9881],[97.1283,22.8981],[97.1398,22.9251],[97.1299,22.9962],[97.1439,23.013],[97.2032,23.029],[97.2557,22.9654],[97.228,23.0291],[97.2056,23.0447],[97.1473,23.0639],[97.1311,23.0231]],[[97.9746,22.9241],[97.967,22.9178],[97.975,22.9167],[97.9746,22.9241]],[[97.2739,22.9176],[97.2673,22.9319],[97.2682,22.9172],[97.2739,22.9176]],[[96.9823,22.9228],[96.968,22.9102],[96.9917,22.9083],[96.9823,22.9228]],[[96.5444,22.9254],[96.5809,22.9387],[96.6366,22.9515],[96.6248,22.9638],[96.5694,22.9551],[96.5444,22.9254]],[[97.0754,22.9592],[97.0831,22.9656],[97.075,22.9667],[97.0754,22.9592]],[[97.0496,23.0241],[97.042,23.0178],[97.05,23.0167],[97.0496,23.0241]],[[97.1322,22.7556],[97.1232,22.7734],[97.1184,22.7736],[97.1186,22.7609],[97.1322,22.7556]],[[97.1957,22.7595],[97.2052,22.7697],[97.1663,22.7949],[97.1643,22.7854],[97.1957,22.7595]],[[97.1415,22.832],[97.1336,22.8261],[97.1417,22.825],[97.1415,22.832]],[[97.2342,22.8587],[97.2406,22.8664],[97.2337,22.8657],[97.2342,22.8587]],[[96.9176,22.8671],[96.9239,22.8747],[96.917,22.874],[96.9176,22.8671]],[[97.6833,22.125],[97.6675,22.1323],[97.6674,22.1261],[97.6833,22.125]],[[97.7041,22.2352],[97.6965,22.2658],[97.6853,22.2447],[97.7041,22.2352]],[[97.6583,22.2417],[97.6425,22.2489],[97.6424,22.2428],[97.6583,22.2417]],[[97.6754,21.9509],[97.6831,21.9572],[97.675,21.9583],[97.6754,21.9509]],[[97.4417,21.7967],[97.45,21.8111],[97.4454,21.8165],[97.4417,21.7967]],[[97.492,21.7928],[97.4996,21.7991],[97.4927,21.7997],[97.492,21.7928]],[[97.4272,21.7904],[97.4181,21.7761],[97.4322,21.7903],[97.4272,21.7904]],[[96.6344,20.9359],[96.6218,21.0622],[96.6377,21.0846],[96.6224,21.1031],[96.6486,21.1536],[96.6355,21.1485],[96.6268,21.1703],[96.6446,21.1934],[96.665,21.1918],[96.6681,21.2295],[96.6058,21.1945],[96.612,21.1545],[96.5723,21.1663],[96.5883,21.124],[96.5546,21.1276],[96.5982,21.0357],[96.5965,20.9525],[96.6233,20.9123],[96.6344,20.9359]],[[97.3732,20.7354],[97.3629,20.7863],[97.2683,20.6016],[97.2728,20.5793],[97.3051,20.58],[97.3291,20.5291],[97.3569,20.5847],[97.3516,20.6405],[97.3732,20.7354]],[[97.5005,20.6095],[97.4888,20.6311],[97.4693,20.6063],[97.4826,20.5583],[97.5005,20.6095]],[[97.75,20.6167],[97.742,20.624],[97.7426,20.6171],[97.75,20.6167]],[[97.0152,20.5791],[97.0081,20.5479],[97.016,20.5248],[97.0251,20.5505],[97.0152,20.5791]],[[97.2913,20.6908],[97.2836,20.6844],[97.2917,20.6833],[97.2913,20.6908]],[[97.2917,20.7342],[97.2832,20.7236],[97.2878,20.7168],[97.2917,20.7342]],[[97.4997,20.7333],[97.4981,20.7569],[97.4859,20.7652],[97.4849,20.7438],[97.4997,20.7333]],[[97.5167,20.825],[97.5087,20.8323],[97.5092,20.8254],[97.5167,20.825]],[[97.4624,21.0017],[97.4615,21.1945],[97.445,21.0851],[97.429,21.0715],[97.404,21.0774],[97.4012,21.049],[97.4054,21.0208],[97.4222,21.0512],[97.4624,21.0017]],[[97.6296,21.1159],[97.6181,21.1017],[97.6417,21.1],[97.6395,21.1065],[97.6296,21.1159]],[[97.6171,21.0538],[97.6478,21.0558],[97.6413,21.087],[97.6125,21.066],[97.6171,21.0538]],[[97.2904,21.001],[97.2534,20.9803],[97.2803,20.95],[97.2911,20.9765],[97.2904,21.001]],[[97.4163,20.9741],[97.4086,20.9678],[97.4167,20.9667],[97.4163,20.9741]],[[97.4171,20.9509],[97.4247,20.9572],[97.4167,20.9583],[97.4171,20.9509]],[[97.3029,21.0227],[97.3077,21.0537],[97.3038,21.0632],[97.2861,21.0369],[97.3029,21.0227]],[[97.3961,21.108],[97.3928,21.0931],[97.4083,21.0917],[97.4071,21.0977],[97.3961,21.108]],[[97.4753,21.1761],[97.4829,21.1824],[97.476,21.183],[97.4753,21.1761]],[[96.4746,21.2658],[96.467,21.2594],[96.475,21.2583],[96.4746,21.2658]],[[97.4274,21.2806],[97.4547,21.3281],[97.4484,21.3379],[97.4274,21.2806]],[[96.6746,21.3074],[96.667,21.3011],[96.675,21.3],[96.6746,21.3074]],[[96.6622,21.319],[96.6968,21.3446],[96.6976,21.3546],[96.6622,21.319]],[[97.4426,21.3592],[97.4489,21.3741],[97.4426,21.3741],[97.4426,21.3592]],[[97.5583,21.4167],[97.5504,21.424],[97.5509,21.4171],[97.5583,21.4167]],[[97.4839,21.4266],[97.4906,21.4409],[97.4844,21.4408],[97.4839,21.4266]],[[97.4405,21.4435],[97.4406,21.5028],[97.421,21.5457],[97.4386,21.5994],[97.4097,21.6709],[97.429,21.7529],[97.4175,21.7244],[97.3937,21.723],[97.3783,21.5506],[97.4055,21.5188],[97.4028,21.4778],[97.4405,21.4435]],[[97.5394,21.4491],[97.5595,21.4338],[97.573,21.4451],[97.5394,21.4491]],[[97.5907,21.4408],[97.5845,21.4259],[97.5907,21.4259],[97.5907,21.4408]],[[96.5503,20.4928],[96.5579,20.4991],[96.551,20.4997],[96.5503,20.4928]],[[96.5592,20.4823],[96.575,20.475],[96.574,20.4823],[96.5592,20.4823]],[[97.3777,20.3484],[97.3958,20.3575],[97.4238,20.4318],[97.4219,20.4555],[97.3984,20.4714],[97.3612,20.4449],[97.3777,20.3484]],[[96.8163,20.3491],[96.8086,20.3428],[96.8167,20.3417],[96.8163,20.3491]],[[96.8003,20.1273],[96.8079,20.1397],[96.8023,20.1415],[96.8003,20.1273]],[[96.8088,20.1137],[96.8247,20.1127],[96.8212,20.1246],[96.8088,20.1137]],[[96.817,20.0928],[96.8246,20.0991],[96.8177,20.0997],[96.817,20.0928]],[[96.8253,20.0678],[96.8329,20.0741],[96.826,20.0747],[96.8253,20.0678]],[[96.8836,19.8344],[96.8913,19.8408],[96.8844,19.8413],[96.8836,19.8344]],[[96.9006,19.8105],[96.916,19.8133],[96.9019,19.8242],[96.9006,19.8105]],[[96.8753,19.6094],[96.8829,19.6158],[96.876,19.6163],[96.8753,19.6094]],[[96.9086,19.4511],[96.9163,19.4574],[96.9094,19.458],[96.9086,19.4511]],[[96.9272,19.4487],[96.9181,19.4344],[96.9322,19.4486],[96.9272,19.4487]],[[96.9574,19.4166],[96.9623,19.3876],[97.0192,19.3696],[96.9967,19.4151],[96.9731,19.4276],[96.9574,19.4166]],[[96.9579,19.3741],[96.9503,19.3678],[96.9583,19.3667],[96.9579,19.3741]],[[96.9496,19.3908],[96.942,19.3844],[96.95,19.3833],[96.9496,19.3908]],[[96.9413,19.4158],[96.9336,19.4094],[96.9417,19.4083],[96.9413,19.4158]],[[97.0027,18.8857],[97.0205,18.833],[96.9894,18.8205],[97.011,18.7895],[96.9968,18.7852],[97.0016,18.7622],[96.9772,18.75],[96.978,18.7286],[97.0095,18.6961],[97.0337,18.6935],[97.0277,18.7551],[97.0686,18.7369],[97.0985,18.6964],[97.088,18.7891],[97.055,18.8594],[97.0027,18.8857]],[[97.0753,18.8178],[97.0829,18.8241],[97.076,18.8247],[97.0753,18.8178]],[[97.1003,18.7511],[97.1079,18.7574],[97.101,18.758],[97.1003,18.7511]],[[97.067,18.6844],[97.0746,18.6908],[97.0677,18.6913],[97.067,18.6844]],[[97.0833,18.65],[97.0992,18.6427],[97.0993,18.6489],[97.0833,18.65]],[[96.9991,18.6079],[96.9928,18.6003],[96.9997,18.601],[96.9991,18.6079]],[[96.9909,18.5416],[96.9902,18.5572],[96.9763,18.5571],[96.9762,18.5516],[96.9909,18.5416]]],[[[98.0,14.356],[97.9758,14.4167],[98.0,14.454],[98.0,14.356]]],[[[98.0,14.6103],[97.9788,14.4642],[97.9683,14.4601],[97.9534,14.5395],[97.9131,14.5903],[97.921,14.6024],[97.9447,14.5893],[98.0,14.6103]]],[[[97.9972,14.7759],[97.99,14.8479],[97.9514,14.8807],[97.93,14.9726],[97.904,14.977],[97.9234,14.9271],[97.9138,14.8948],[97.8638,14.8874],[97.8547,14.8651],[97.8734,14.8201],[97.8688,14.7601],[97.8864,14.7311],[97.8723,14.7141],[97.8298,14.752],[97.8298,14.8093],[97.7975,14.8717],[97.8274,14.8798],[97.7963,14.912],[97.8613,15.0371],[97.8523,15.0706],[97.8271,15.0778],[97.8203,15.1017],[97.8518,15.1212],[97.8547,15.1402],[97.9177,15.088],[97.9146,15.1199],[97.9517,15.1112],[97.9102,15.1477],[97.9011,15.2115],[97.9213,15.2456],[97.9804,15.2233],[97.9719,15.2628],[97.9858,15.273],[98.0,15.2712],[97.9972,14.7759]],[[97.9233,15.1847],[97.9153,15.2063],[97.9106,15.2073],[97.9092,15.1945],[97.9233,15.1847]],[[97.9072,14.9957],[97.9388,15.0034],[97.9234,15.0377],[97.9127,15.0322],[97.9072,14.9957]]],[[[98.0,15.6625],[97.9971,15.3841],[97.9714,15.3736],[97.9852,15.3422],[97.937,15.3212],[97.9138,15.387],[97.9195,15.5031],[97.9614,15.5788],[97.9319,15.588],[97.9363,15.6057],[97.9149,15.6134],[97.9057,15.6438],[97.8846,15.6112],[97.8704,15.6346],[97.8538,15.6238],[97.8271,15.6677],[97.8534,15.6937],[97.8612,15.745],[97.8119,15.7781],[97.8158,15.8095],[97.8528,15.788],[97.8547,15.812],[97.8069,15.888],[97.814,15.9339],[97.7731,15.9364],[97.7614,15.9965],[97.7859,15.9962],[97.7816,16.0224],[97.81,16.0288],[97.7989,16.0447],[97.8182,16.0541],[97.7805,16.0636],[97.7952,16.1032],[97.7571,16.0955],[97.7948,16.1431],[97.7803,16.2288],[97.8089,16.1707],[97.8527,16.1317],[97.8693,15.9803],[97.8948,15.9154],[97.8796,15.777],[98.0,15.6625]],[[97.8083,16.0667],[97.7925,16.0739],[97.7924,16.0678],[97.8083,16.0667]],[[97.95,15.35],[97.9658,15.3427],[97.9659,15.3489],[97.95,15.35]]],[[[97.9983,17.1548],[97.9467,17.2128],[97.9512,17.1809],[98.0,17.1275],[98.0,17.1085],[97.9289,17.1365],[97.9281,17.1039],[97.9566,17.068],[97.8975,17.1019],[97.9111,17.1583],[97.9368,17.174],[97.8814,17.1956],[97.8651,17.219],[97.8525,17.2073],[97.8468,17.25],[97.8303,17.2556],[97.8876,17.3356],[97.8469,17.3451],[97.8522,17.3278],[97.8329,17.3122],[97.7841,17.3399],[97.7633,17.3705],[97.7386,17.3721],[97.6972,17.4348],[97.6715,17.4063],[97.6898,17.4709],[97.6772,17.5148],[97.6952,17.5286],[97.6111,17.5944],[97.5959,17.6208],[97.5951,17.6814],[97.5783,17.6656],[97.5556,17.6943],[97.5617,17.7186],[97.5463,17.7235],[97.5442,17.758],[97.5264,17.7391],[97.4891,17.7781],[97.4954,17.8153],[97.4797,17.8446],[97.4825,17.7937],[97.459,17.7827],[97.45,17.8912],[97.4688,17.8682],[97.4801,17.8635],[97.45,17.9121],[97.45,18.0677],[97.4279,18.1256],[97.4404,18.1218],[97.425,18.1333],[97.4996,18.2795],[97.4184,18.6826],[97.4184,18.8016],[97.4898,19.0515],[97.4898,19.1466],[97.5374,19.2656],[97.6444,19.7058],[97.7277,19.8605],[97.7515,19.9557],[97.811,20.0627],[97.93,20.2412],[98.0,20.2609],[97.9983,17.1548]],[[97.8548,19.6352],[97.9228,19.6367],[97.8959,19.6579],[97.8548,19.6352]],[[97.899,19.5824],[97.8928,19.5676],[97.899,19.5676],[97.899,19.5824]],[[97.8604,19.5519],[97.8727,19.5732],[97.8606,19.5732],[97.8604,19.5519]],[[97.5583,18.325],[97.551,18.333],[97.5503,18.3261],[97.5583,18.325]],[[97.6163,18.2408],[97.6086,18.2344],[97.6167,18.2333],[97.6163,18.2408]],[[97.5163,18.2658],[97.5086,18.2594],[97.5167,18.2583],[97.5163,18.2658]],[[97.6347,18.1989],[97.6439,18.1846],[97.6489,18.1847],[97.6347,18.1989]],[[97.6914,18.1072],[97.6838,18.1009],[97.6907,18.1004],[97.6914,18.1072]],[[97.6829,18.1491],[97.6753,18.1428],[97.6833,18.1417],[97.6829,18.1491]],[[97.6843,18.0609],[97.7074,18.0639],[97.6833,18.075],[97.6843,18.0609]],[[97.7086,18.0428],[97.7163,18.0491],[97.7094,18.0497],[97.7086,18.0428]],[[97.7171,18.0259],[97.7247,18.0322],[97.7167,18.0333],[97.7171,18.0259]],[[97.7329,17.9491],[97.7253,17.9428],[97.7333,17.9417],[97.7329,17.9491]],[[97.7413,17.9908],[97.7336,17.9844],[97.7417,17.9833],[97.7413,17.9908]],[[97.7333,18.0],[97.726,18.008],[97.7253,18.0011],[97.7333,18.0]],[[97.6757,17.8839],[97.6828,17.891],[97.675,17.8917],[97.6757,17.8839]],[[97.6831,17.8653],[97.6753,17.8594],[97.6833,17.8583],[97.6831,17.8653]],[[97.7001,17.831],[97.6915,17.8333],[97.6961,17.8249],[97.7001,17.831]],[[97.6751,17.8258],[97.6666,17.8153],[97.6711,17.8085],[97.6751,17.8258]],[[97.7083,17.8167],[97.7163,17.8094],[97.7158,17.8163],[97.7083,17.8167]],[[97.7167,17.6833],[97.7087,17.6907],[97.7092,17.6837],[97.7167,17.6833]],[[97.5676,17.6921],[97.5739,17.6997],[97.567,17.699],[97.5676,17.6921]],[[97.7003,17.7011],[97.7079,17.7074],[97.701,17.708],[97.7003,17.7011]],[[97.7753,17.7011],[97.7829,17.7074],[97.776,17.708],[97.7753,17.7011]],[[97.6996,17.7324],[97.692,17.7261],[97.7,17.725],[97.6996,17.7324]],[[97.6839,17.7432],[97.6906,17.7576],[97.6844,17.7575],[97.6839,17.7432]],[[97.6838,17.7759],[97.6911,17.7826],[97.6833,17.7833],[97.6838,17.7759]],[[97.5165,17.782],[97.5086,17.7761],[97.5167,17.775],[97.5165,17.782]],[[97.7259,17.7921],[97.7322,17.7997],[97.7254,17.799],[97.7259,17.7921]],[[97.7,17.6607],[97.7086,17.6583],[97.704,17.6668],[97.7,17.6607]],[[97.8264,17.6489],[97.8356,17.6346],[97.8406,17.6347],[97.8264,17.6489]],[[97.7167,17.6342],[97.7082,17.6236],[97.7128,17.6168],[97.7167,17.6342]],[[97.85,17.625],[97.858,17.6177],[97.8575,17.6246],[97.85,17.625]],[[97.8903,17.5928],[97.8811,17.6071],[97.8761,17.607],[97.8903,17.5928]],[[97.7216,17.577],[97.7478,17.508],[97.7717,17.4808],[97.7216,17.577]],[[97.9089,17.5674],[97.916,17.5745],[97.909,17.5744],[97.9089,17.5674]],[[97.8923,17.4502],[97.8862,17.4132],[97.9012,17.4088],[97.9053,17.4142],[97.8923,17.4502]],[[97.8555,17.4108],[97.8499,17.394],[97.826,17.3963],[97.805,17.4443],[97.7777,17.4123],[97.7619,17.4625],[97.7307,17.48],[97.753,17.4452],[97.7554,17.3976],[97.7905,17.3688],[97.8109,17.3633],[97.816,17.3786],[97.8554,17.3867],[97.8707,17.4026],[97.8555,17.4108]],[[97.8838,17.3926],[97.8914,17.3989],[97.8833,17.4],[97.8838,17.3926]],[[97.867,17.4178],[97.8746,17.4241],[97.8677,17.4247],[97.867,17.4178]],[[97.925,17.2357],[97.9336,17.2333],[97.929,17.2418],[97.925,17.2357]],[[97.9666,17.2235],[97.97,17.211],[97.9898,17.2027],[97.9898,17.2223],[97.9666,17.2235]],[[97.9088,17.1176],[97.9164,17.1239],[97.9083,17.125],[97.9088,17.1176]]]]}}