{"type":"Feature","properties":{"speciesId":664,"category":"LC","source":"IUCN Red List","simplifyTol":0.01,"clippedToSubcontinent":true},"geometry":{"type":"MultiPolygon","coordinates":[[[[83.4669,17.9095],[83.4535,17.9115],[83.4631,17.9187],[83.4669,17.9095]]],[[[86.7002,20.2874],[86.6889,20.2951],[86.7088,20.2939],[86.7002,20.2874]]],[[[86.7981,20.3886],[86.7909,20.4204],[86.8043,20.4822],[86.8161,20.4409],[86.7981,20.3886]]],[[[88.108,21.9993],[88.0954,21.9897],[88.1199,22.017],[88.108,21.9993]]],[[[90.5356,22.8836],[90.5521,22.9054],[90.5483,22.9438],[90.6462,22.8973],[90.5356,22.8836]]],[[[90.6388,22.9635],[90.6342,22.959],[90.6318,22.9651],[90.6388,22.9635]]],[[[90.3481,22.9398],[90.301,22.9519],[90.2948,22.9664],[90.3136,22.9686],[90.3481,22.9398]]],[[[90.368,22.9212],[90.3518,22.9514],[90.3227,22.9696],[90.3564,22.9623],[90.368,22.9212]]],[[[90.6884,22.9553],[90.6683,22.9639],[90.6485,22.9847],[90.6803,22.9808],[90.6884,22.9553]]],[[[90.4512,22.9721],[90.4551,23.0016],[90.5389,22.9578],[90.5375,22.8912],[90.403,22.8749],[90.4248,22.9073],[90.4173,22.9163],[90.3911,22.874],[90.3384,22.8694],[90.3807,22.9076],[90.3533,22.9932],[90.4309,22.9917],[90.4512,22.9721]]],[[[90.4295,22.9979],[90.4198,23.0042],[90.4418,23.0056],[90.4295,22.9979]]],[[[90.4052,23.0052],[90.3919,23.0089],[90.4172,23.0099],[90.4052,23.0052]]],[[[90.5067,23.0154],[90.5003,23.0214],[90.5044,23.0251],[90.5067,23.0154]]],[[[90.496,23.0157],[90.4733,23.0279],[90.4772,23.042],[90.496,23.0157]]],[[[90.5628,22.9968],[90.5357,23.0213],[90.5551,23.048],[90.5669,23.0068],[90.5628,22.9968]]],[[[90.3079,23.0375],[90.2751,23.039],[90.2918,23.0496],[90.3079,23.0375]]],[[[90.5048,23.0334],[90.491,23.0532],[90.5057,23.0637],[90.5083,23.062],[90.5048,23.0334]]],[[[90.5266,23.0634],[90.5192,23.06],[90.5234,23.0689],[90.5266,23.0634]]],[[[90.5131,23.0812],[90.5003,23.1001],[90.5168,23.1384],[90.5241,23.0914],[90.5131,23.0812]]],[[[90.4691,23.1551],[90.4774,23.1301],[90.4571,23.1226],[90.4691,23.1551]]],[[[90.5338,23.169],[90.5449,23.1982],[90.5412,23.1433],[90.5221,23.1767],[90.5317,23.2004],[90.5338,23.169]]],[[[90.4922,23.0819],[90.4684,23.097],[90.4477,23.0556],[90.4435,23.1068],[90.4907,23.1312],[90.4643,23.1914],[90.4687,23.2012],[90.4724,23.1855],[90.5053,23.1688],[90.4922,23.0819]]],[[[90.5569,23.1601],[90.5541,23.1765],[90.5756,23.2083],[90.5761,23.1787],[90.5569,23.1601]]],[[[90.5566,23.1903],[90.5544,23.2059],[90.5569,23.2114],[90.5661,23.2048],[90.5566,23.1903]]],[[[90.5963,23.2287],[90.5835,23.218],[90.5954,23.2312],[90.5963,23.2287]]],[[[90.6188,23.2298],[90.6138,23.2315],[90.6161,23.2364],[90.6188,23.2298]]],[[[90.5578,23.2282],[90.5631,23.2392],[90.5731,23.2392],[90.5704,23.2357],[90.5578,23.2282]]],[[[90.5803,23.239],[90.5713,23.2467],[90.5838,23.26],[90.586,23.2534],[90.5803,23.239]]],[[[90.6232,23.2389],[90.6198,23.2581],[90.6207,23.2617],[90.6334,23.2534],[90.6232,23.2389]]],[[[90.5699,23.3181],[90.5699,23.308],[90.5656,23.3198],[90.5699,23.3181]]],[[[90.5526,23.3295],[90.5583,23.3138],[90.5449,23.3286],[90.5526,23.3295]]],[[[90.1766,23.3369],[90.2574,23.3069],[90.2334,23.2961],[90.2286,23.2652],[90.1662,23.2687],[90.1826,23.2415],[90.1276,23.2454],[90.1311,23.2632],[90.1245,23.2738],[90.0892,23.2811],[90.1766,23.3369]]],[[[90.4511,23.3395],[90.5188,23.3285],[90.552,23.2822],[90.5409,23.2371],[90.5004,23.1797],[90.4761,23.1948],[90.5004,23.2449],[90.4938,23.299],[90.4511,23.3395]]],[[[90.591,23.3393],[90.5829,23.3499],[90.5832,23.3552],[90.5857,23.3557],[90.591,23.3393]]],[[[90.6816,23.3461],[90.6734,23.3486],[90.6783,23.3582],[90.6816,23.3461]]],[[[90.542,23.3558],[90.5275,23.3583],[90.5293,23.3648],[90.542,23.3558]]],[[[90.3749,23.3544],[90.4122,23.3025],[90.4839,23.2994],[90.4857,23.2465],[90.4622,23.2026],[90.4646,23.2254],[90.4534,23.2116],[90.4659,23.1672],[90.4326,23.0911],[90.4477,23.028],[90.3609,23.0111],[90.3426,22.9819],[90.326,22.9816],[90.3087,23.0538],[90.3259,23.0679],[90.3326,23.1087],[90.3229,23.1024],[90.2729,23.1468],[90.267,23.1328],[90.2905,23.1207],[90.2538,23.1253],[90.2444,23.1379],[90.2657,23.1601],[90.2142,23.1915],[90.1842,23.1708],[90.1781,23.1892],[90.2071,23.2097],[90.2108,23.224],[90.1721,23.262],[90.233,23.2607],[90.2526,23.2882],[90.24,23.2931],[90.2866,23.3161],[90.2985,23.35],[90.327,23.366],[90.3749,23.3544]]],[[[90.4849,23.346],[90.4467,23.3667],[90.4464,23.3699],[90.4849,23.346]]],[[[90.3463,23.3767],[90.3214,23.3768],[90.2989,23.3679],[90.3205,23.3807],[90.3463,23.3767]]],[[[90.1966,23.3718],[90.1883,23.3811],[90.1896,23.386],[90.1966,23.3718]]],[[[90.5606,23.3717],[90.5464,23.3722],[90.5471,23.3864],[90.5529,23.3901],[90.5606,23.3717]]],[[[90.4864,23.3686],[90.4649,23.3665],[90.4238,23.3903],[90.443,23.395],[90.4864,23.3686]]],[[[90.4352,23.3119],[90.3716,23.3623],[90.349,23.3965],[90.4372,23.3544],[90.4539,23.3185],[90.4352,23.3119]]],[[[90.4506,23.3978],[90.4948,23.3982],[90.501,23.3839],[90.4506,23.3978]]],[[[90.4177,23.394],[90.3949,23.4],[90.3924,23.4059],[90.4093,23.4048],[90.4177,23.394]]],[[[90.184,23.3987],[90.1658,23.4199],[90.1682,23.4225],[90.184,23.3987]]],[[[90.5905,23.4175],[90.5798,23.4195],[90.5714,23.3878],[90.5818,23.3682],[90.5719,23.3743],[90.5656,23.4056],[90.5814,23.4285],[90.5905,23.4175]]],[[[90.1768,23.4246],[90.167,23.4337],[90.1686,23.4386],[90.1768,23.4246]]],[[[90.3316,23.3845],[90.286,23.3796],[90.2958,23.3708],[90.2708,23.3264],[90.2139,23.3613],[90.245,23.326],[90.2056,23.3503],[90.1836,23.4498],[90.3316,23.3845]]],[[[90.5754,23.4453],[90.5686,23.4417],[90.5742,23.4501],[90.5754,23.4453]]],[[[90.2377,23.4724],[90.2303,23.4706],[90.2255,23.4789],[90.2377,23.4724]]],[[[90.5591,23.449],[90.544,23.4543],[90.5431,23.4794],[90.5615,23.4807],[90.5591,23.449]]],[[[90.6257,23.4934],[90.6083,23.4922],[90.6263,23.4961],[90.6257,23.4934]]],[[[90.199,23.4973],[90.1865,23.4972],[90.1838,23.5031],[90.199,23.4973]]],[[[90.7068,23.5051],[90.6946,23.4979],[90.702,23.5148],[90.7068,23.5051]]],[[[90.6821,23.4877],[90.6611,23.49],[90.6436,23.5019],[90.6637,23.5167],[90.6888,23.5014],[90.6821,23.4877]]],[[[90.5756,23.5199],[90.5607,23.5261],[90.5573,23.5384],[90.5756,23.5199]]],[[[90.7019,23.5256],[90.6906,23.5452],[90.7032,23.5522],[90.7019,23.5256]]],[[[90.6949,23.5552],[90.6936,23.5641],[90.6992,23.5613],[90.6949,23.5552]]],[[[90.5668,23.5437],[90.5542,23.5553],[90.5521,23.5666],[90.5566,23.5649],[90.5668,23.5437]]],[[[90.4697,23.5534],[90.4532,23.549],[90.4394,23.5536],[90.4698,23.5718],[90.4697,23.5534]]],[[[90.6905,23.5679],[90.6789,23.5747],[90.6804,23.5794],[90.6905,23.5679]]],[[[90.4258,23.5723],[90.408,23.5882],[90.4039,23.6053],[90.4199,23.5975],[90.4258,23.5723]]],[[[90.4335,23.558],[90.4244,23.6027],[90.431,23.6061],[90.4432,23.5992],[90.4335,23.558]]],[[[90.4844,23.5823],[90.5024,23.5851],[90.4538,23.5754],[90.4477,23.6043],[90.4844,23.5823]]],[[[90.6371,23.6107],[90.6946,23.5158],[90.6576,23.5209],[90.5851,23.4883],[90.5658,23.5872],[90.5918,23.5834],[90.6371,23.6107]]],[[[90.405,23.6106],[90.3909,23.6159],[90.4177,23.611],[90.405,23.6106]]],[[[90.1143,23.5944],[90.0967,23.6051],[90.0878,23.6174],[90.1101,23.6069],[90.1143,23.5944]]],[[[90.6195,23.6099],[90.6019,23.6062],[90.6261,23.6259],[90.6195,23.6099]]],[[[90.6769,23.6476],[90.7322,23.6524],[90.7598,23.6309],[90.7358,23.6271],[90.7284,23.5956],[90.6956,23.5734],[90.6684,23.59],[90.6536,23.6235],[90.6585,23.6553],[90.6769,23.6476]]],[[[90.6474,23.6139],[90.6317,23.6169],[90.6428,23.6569],[90.6634,23.6642],[90.6503,23.6478],[90.6474,23.6139]]],[[[90.6841,23.6613],[90.6694,23.6628],[90.6724,23.669],[90.6841,23.6613]]],[[[90.6641,23.6736],[90.6529,23.6724],[90.6474,23.6798],[90.6641,23.6736]]],[[[90.7168,23.6597],[90.7013,23.6628],[90.6913,23.6714],[90.7264,23.6788],[90.7168,23.6597]]],[[[89.932,23.6851],[89.902,23.7014],[89.8987,23.7073],[89.9318,23.6995],[89.932,23.6851]]],[[[89.8689,23.7138],[89.8656,23.7068],[89.8625,23.712],[89.8689,23.7138]]],[[[90.7331,23.6942],[90.6946,23.6848],[90.7146,23.7266],[90.7331,23.6942]]],[[[89.8686,23.7271],[89.8652,23.7226],[89.8641,23.7265],[89.8686,23.7271]]],[[[89.8568,23.7306],[89.8515,23.7281],[89.8513,23.7308],[89.8568,23.7306]]],[[[90.3547,23.715],[90.3412,23.7247],[90.3291,23.7271],[90.3466,23.7315],[90.3547,23.715]]],[[[90.3778,23.6956],[90.4183,23.6844],[90.4643,23.628],[90.4239,23.6183],[90.4349,23.637],[90.429,23.6419],[90.415,23.624],[90.3878,23.6461],[90.3978,23.6253],[90.3645,23.63],[90.288,23.6726],[90.2617,23.7243],[90.2876,23.7327],[90.3085,23.7608],[90.313,23.7323],[90.3778,23.6956]]],[[[89.8001,23.7323],[89.786,23.7414],[89.7868,23.7639],[89.7904,23.7596],[89.8001,23.7323]]],[[[89.7308,23.7624],[89.8567,23.6605],[89.9485,23.6357],[90.0246,23.5566],[90.0179,23.5823],[90.083,23.573],[90.1256,23.5454],[90.1578,23.4889],[90.1593,23.4206],[90.2067,23.3338],[90.17,23.3466],[90.1639,23.3639],[90.1862,23.3591],[90.1608,23.3676],[90.1665,23.3332],[90.1253,23.3055],[90.1205,23.3356],[90.1417,23.3597],[90.1445,23.3786],[90.1279,23.351],[90.0995,23.359],[90.1208,23.3473],[90.1189,23.3041],[90.093,23.3005],[90.0871,23.2728],[90.1245,23.2685],[90.1217,23.2487],[90.1287,23.2416],[90.2023,23.2256],[90.1987,23.2096],[90.1681,23.2041],[90.1774,23.1665],[90.219,23.1829],[90.2485,23.1621],[90.2336,23.1421],[90.2452,23.1232],[90.3091,23.1128],[90.3167,23.0671],[90.2678,23.0431],[90.2726,23.0254],[90.3072,23.0209],[90.3206,22.9865],[90.2739,22.9687],[90.2991,22.9434],[90.3487,22.9291],[90.3456,22.884],[90.3207,22.8678],[89.5226,22.7693],[89.2276,22.6898],[88.9511,22.5749],[88.6083,22.4016],[88.3896,22.2653],[88.22,22.1275],[88.2122,22.1618],[88.1788,22.195],[88.0826,22.2206],[88.0342,22.2183],[88.0321,22.2018],[88.1438,22.1871],[88.1902,22.1329],[88.1961,22.1048],[88.1551,22.0606],[88.067,22.0155],[87.9805,21.8551],[87.9519,21.8236],[87.8866,21.803],[87.8924,21.7812],[87.8286,21.7222],[87.7551,21.7008],[87.7498,21.6855],[87.6786,21.6537],[87.6499,21.6646],[87.6369,21.6472],[87.5724,21.6398],[87.383,21.5739],[87.1955,21.5494],[87.0644,21.4708],[86.8946,21.3136],[86.8168,21.1382],[86.9296,20.9008],[86.9701,20.8491],[86.9758,20.768],[87.0013,20.7584],[87.0139,20.7253],[86.996,20.6992],[87.0246,20.6897],[87.052,20.7035],[86.7655,20.5046],[86.7358,20.4491],[86.7409,20.4177],[86.7226,20.3935],[86.7414,20.3757],[86.7284,20.3611],[86.7785,20.3974],[86.7709,20.3651],[86.7859,20.3717],[86.7636,20.3353],[86.8031,20.3666],[86.8079,20.3953],[86.8074,20.3638],[86.7191,20.2992],[86.6865,20.3181],[86.683,20.2911],[86.6943,20.2819],[86.7649,20.3146],[86.5418,20.1847],[86.4254,20.0257],[86.4299,20.0505],[86.4185,20.038],[86.4012,20.0047],[86.4288,19.9947],[86.4181,19.9776],[86.1519,19.8703],[86.0522,19.8561],[86.0654,19.8472],[85.688,19.7458],[85.3729,19.5944],[85.2341,19.5029],[85.1224,19.4198],[85.0869,19.3687],[85.0017,19.3233],[84.8699,19.2139],[84.8096,19.1478],[84.8041,19.1159],[84.6929,18.9579],[84.6006,18.8682],[84.5635,18.7904],[84.4572,18.6851],[84.4484,18.6543],[84.3818,18.5947],[84.3651,18.5534],[84.1666,18.3787],[84.1375,18.3434],[84.1411,18.3142],[83.9623,18.2157],[83.9344,18.2254],[83.9453,18.21],[83.8113,18.1604],[83.6734,18.085],[83.5755,18.0095],[83.5411,17.9497],[83.4723,17.8985],[83.4679,17.9212],[83.4438,17.934],[83.449,17.9081],[83.4672,17.8865],[83.4135,17.8402],[83.4172,17.8083],[83.2102,17.5871],[83.0586,17.5201],[82.9849,17.585],[82.8721,17.752],[82.8299,17.8988],[82.8694,18.0475],[82.99,18.2308],[83.3421,18.6435],[83.5672,18.8561],[84.3801,19.4724],[84.908,19.8475],[85.1389,20.0373],[85.3314,20.2405],[85.7604,20.7903],[86.2355,21.2074],[86.3204,21.3178],[86.3702,21.4271],[86.4268,21.8156],[86.4628,21.9403],[86.5559,22.0979],[86.693,22.248],[86.8412,22.3671],[87.0226,22.4827],[87.503,22.7147],[87.9478,22.8889],[88.6339,23.0589],[89.0863,23.2574],[89.2886,23.371],[89.4437,23.4887],[89.5507,23.6049],[89.6602,23.7764],[89.7308,23.7624]]],[[[90.2259,23.725],[90.2118,23.7551],[90.2416,23.792],[90.2522,23.7467],[90.2259,23.725]]],[[[89.6752,23.7892],[89.673,23.7972],[89.6752,23.8008],[89.6752,23.7892]]],[[[89.741,23.7775],[89.6852,23.7896],[89.6826,23.8011],[89.718,23.8016],[89.741,23.7775]]],[[[89.7791,23.7421],[89.7587,23.7631],[89.7438,23.8037],[89.7758,23.7887],[89.7791,23.7421]]],[[[89.7003,23.8408],[89.7051,23.8295],[89.6946,23.8319],[89.7003,23.8408]]],[[[90.1436,23.827],[90.176,23.8211],[90.2026,23.8355],[90.2338,23.8213],[90.2236,23.8068],[90.2054,23.8221],[90.1823,23.8071],[90.1342,23.812],[90.0872,23.8364],[90.1157,23.8541],[90.1171,23.8704],[90.1436,23.827]]],[[[89.7708,23.8359],[89.7571,23.8473],[89.7242,23.8344],[89.7071,23.8514],[89.72,23.8715],[89.7404,23.8697],[89.7708,23.8359]]],[[[89.7347,23.8824],[89.7249,23.8791],[89.7292,23.8858],[89.7347,23.8824]]],[[[90.8263,24.9415],[91.3253,24.9658],[91.6962,25.0389],[91.8918,25.1157],[92.117,25.2475],[92.2021,25.326],[92.3238,25.5168],[92.434,25.5873],[92.5578,25.6311],[92.6515,25.6365],[92.7034,25.607],[92.7473,25.5277],[92.761,25.4661],[92.7523,25.4024],[92.661,25.2233],[92.579,25.152],[92.3491,25.0164],[92.2738,24.9379],[92.2311,24.818],[92.2024,24.6036],[92.186,23.8617],[92.2172,23.7701],[92.2898,23.6952],[92.2732,23.6267],[92.2879,23.6229],[92.2829,23.5928],[92.3044,23.5744],[92.3268,23.4237],[92.3409,23.4245],[92.3762,23.3521],[92.3669,23.3236],[92.386,23.2661],[92.3482,23.2327],[92.3583,23.1028],[92.3886,23.047],[92.3733,22.932],[92.4439,22.8831],[92.4734,22.747],[92.5089,22.7299],[92.5282,22.6569],[92.5369,22.5714],[92.5252,22.5544],[92.5481,22.5084],[92.577,22.2694],[92.6119,22.1557],[92.6025,22.1249],[92.5817,22.1382],[92.5644,22.1291],[92.5956,22.062],[92.6266,21.8856],[92.603,21.7375],[92.6097,21.5828],[92.625,21.4613],[92.6744,21.2942],[92.614,21.242],[92.5949,21.2442],[92.5551,21.3759],[92.5114,21.3683],[92.4969,21.3495],[92.4382,21.3633],[92.4236,21.38],[92.4231,21.4259],[92.3835,21.4727],[92.3568,21.4672],[92.3106,21.413],[92.268,21.4215],[92.2556,21.3573],[92.1979,21.3211],[92.2186,21.2555],[92.1891,21.1745],[92.1975,21.1199],[92.255,21.0615],[92.2663,20.9077],[92.2131,20.9233],[92.1838,21.0153],[92.0474,21.1766],[92.0494,21.266],[92.0303,21.3362],[91.9529,21.4548],[91.9993,21.5054],[92.0224,21.4868],[91.9954,21.5518],[92.0389,21.6476],[92.0395,21.6758],[92.0251,21.6822],[92.0352,21.7004],[92.0176,21.7162],[92.0192,21.6685],[91.9818,21.656],[91.9829,21.7018],[91.9667,21.6781],[91.9481,21.7453],[91.972,21.7389],[91.9937,21.7668],[91.9716,21.7472],[91.9545,21.7539],[91.9706,21.7864],[91.9429,21.8044],[91.9308,21.7855],[91.8912,21.7773],[91.9197,21.8463],[91.9095,21.9079],[91.9274,21.9346],[91.8949,21.9689],[91.8554,22.1263],[91.8345,22.1221],[91.8118,22.1905],[91.8335,22.2109],[91.8421,22.2589],[91.8147,22.3049],[91.8677,22.3233],[91.9008,22.4007],[91.9451,22.4162],[92.0022,22.4047],[92.0227,22.4176],[92.0349,22.4459],[92.0804,22.4368],[92.1339,22.4559],[92.1441,22.4701],[92.0873,22.4443],[92.0331,22.4505],[92.0029,22.4124],[91.9538,22.421],[91.8982,22.4109],[91.8723,22.3498],[91.7959,22.2934],[91.7969,22.2753],[91.829,22.2566],[91.798,22.2196],[91.7693,22.2784],[91.7457,22.4041],[91.5967,22.6377],[91.5282,22.7094],[91.5471,22.8696],[91.529,22.9195],[91.4909,22.957],[91.4024,22.9879],[91.2696,22.9936],[90.7842,22.9206],[90.7578,22.9387],[90.7768,22.9193],[90.7247,22.9101],[90.7093,22.9226],[90.6896,22.9783],[90.6294,22.9981],[90.5663,23.1036],[90.598,23.1778],[90.6524,23.2423],[90.6389,23.3166],[90.6776,23.3183],[90.6754,23.3407],[90.6978,23.3457],[90.6795,23.3644],[90.6972,23.3775],[90.6701,23.3584],[90.6616,23.3375],[90.6738,23.3213],[90.6223,23.3242],[90.5987,23.3393],[90.5795,23.3975],[90.5997,23.419],[90.5889,23.4721],[90.6303,23.4903],[90.6817,23.4821],[90.7039,23.4901],[90.7178,23.5428],[90.7443,23.5443],[90.7254,23.5534],[90.7084,23.5386],[90.7057,23.5618],[90.732,23.5912],[90.7392,23.6216],[90.7646,23.629],[90.7414,23.6621],[90.7578,23.721],[90.7425,23.6938],[90.7403,23.7242],[90.7315,23.7102],[90.7156,23.7414],[90.6818,23.6867],[90.6429,23.6899],[90.6324,23.6392],[90.5628,23.5929],[90.5531,23.5715],[90.5147,23.5814],[90.505,23.6033],[90.4839,23.5866],[90.4539,23.6149],[90.4703,23.6298],[90.4427,23.6684],[90.368,23.7186],[90.3837,23.7022],[90.3658,23.7034],[90.3421,23.7401],[90.3176,23.735],[90.3128,23.7642],[90.2548,23.7303],[90.2571,23.7757],[90.2298,23.8877],[90.2396,23.827],[90.194,23.8405],[90.1518,23.8291],[90.1319,23.8674],[90.1117,23.8736],[90.1104,23.8573],[90.0572,23.8201],[90.047,23.8255],[90.0625,23.8769],[90.0468,23.8894],[90.0262,23.8817],[90.0227,23.9072],[89.9481,23.9709],[89.9523,23.9846],[89.9328,23.9846],[89.9487,23.9598],[89.9378,23.9554],[90.0192,23.8936],[90.0144,23.8769],[90.0547,23.8732],[90.0409,23.8278],[90.0466,23.8174],[90.0691,23.8163],[90.0887,23.83],[90.1247,23.8071],[90.1837,23.8023],[90.2068,23.8157],[90.2226,23.8004],[90.2415,23.8149],[90.2059,23.7537],[90.221,23.7216],[90.2524,23.721],[90.2746,23.6862],[90.2557,23.7074],[90.2383,23.7112],[90.2208,23.7081],[90.1813,23.7401],[90.1924,23.7203],[90.1626,23.7198],[90.1492,23.7107],[90.1219,23.7371],[90.0698,23.7579],[90.0232,23.7635],[90.0245,23.7952],[90.0021,23.816],[90.0195,23.7627],[90.1205,23.7334],[90.1497,23.7043],[90.1739,23.7165],[90.2205,23.7031],[90.2477,23.7076],[90.276,23.6548],[90.3797,23.6165],[90.4018,23.5883],[90.3789,23.5678],[90.4098,23.5802],[90.4377,23.5451],[90.4635,23.5452],[90.5054,23.5721],[90.5302,23.5669],[90.5701,23.4832],[90.538,23.4837],[90.5339,23.4659],[90.5539,23.4263],[90.5281,23.3907],[90.4858,23.4204],[90.4204,23.4161],[90.2542,23.4608],[90.1641,23.5242],[90.1103,23.6129],[89.97,23.6581],[89.9179,23.7216],[89.8058,23.7917],[89.7878,23.8166],[89.7758,23.8965],[89.7688,23.8876],[89.7468,23.9128],[89.9423,24.235],[90.0257,24.4638],[90.0303,24.6066],[89.9849,24.7434],[89.8512,24.9436],[89.6374,25.1712],[89.4882,25.2709],[89.1144,25.4678],[88.9654,25.5785],[88.7752,25.7754],[88.7557,25.8316],[88.7713,25.8925],[88.8295,25.9772],[88.8892,26.0128],[88.9759,26.0078],[89.1006,25.9613],[89.3262,25.8509],[89.4383,25.7699],[89.5512,25.6524],[89.8179,25.3197],[89.9929,25.1741],[90.2158,25.0606],[90.4178,24.9872],[90.6003,24.9523],[90.8263,24.9415]]],[[[90.2176,26.6426],[90.3444,26.6593],[90.4853,26.7098],[90.5955,26.7683],[90.732,26.8776],[90.8106,26.9134],[90.9603,26.952],[91.1323,26.9662],[91.3187,26.9461],[91.6757,26.8085],[91.8291,26.7754],[92.0595,26.7969],[92.4114,26.8685],[92.4977,26.8672],[92.556,26.8222],[92.5737,26.6967],[92.5559,26.6552],[92.5016,26.6177],[92.2925,26.5891],[92.0948,26.5107],[91.8533,26.3293],[91.7438,26.2754],[91.585,26.2366],[91.3858,26.2349],[90.7382,26.3038],[89.7415,26.4919],[89.5174,26.5742],[89.3844,26.6508],[89.0386,26.7995],[88.9761,26.8608],[88.9768,26.9493],[89.0018,27.0037],[89.0438,27.023],[89.2592,26.9904],[89.3898,26.9336],[89.6372,26.7521],[89.7529,26.6892],[89.9236,26.6586],[90.2176,26.6426]]],[[[95.3646,27.5908],[95.3077,27.6143],[95.2839,27.6711],[95.3077,27.7286],[95.3646,27.7521],[95.4215,27.7286],[95.4453,27.6718],[95.4215,27.6143],[95.3646,27.5908]]]]}}