{"type":"Feature","properties":{"speciesId":666,"category":"LC","source":"IUCN Red List","simplifyTol":0.01,"clippedToSubcontinent":true},"geometry":{"type":"MultiPolygon","coordinates":[[[[91.9397,21.752],[91.9391,21.7446],[91.935,21.7551],[91.9397,21.752]]],[[[91.9443,21.7715],[91.9334,21.7594],[91.9278,21.7755],[91.9443,21.7715]]],[[[91.8242,22.2191],[91.8166,22.2181],[91.8225,22.2236],[91.8242,22.2191]]],[[[91.816,22.2725],[91.8007,22.2802],[91.8038,22.2977],[91.819,22.2886],[91.816,22.2725]]],[[[91.2791,23.4032],[91.1967,23.5675],[91.1919,23.6475],[91.2807,23.9476],[91.4065,24.2053],[91.4359,24.2321],[91.5184,24.2641],[91.5399,24.3025],[91.5313,24.4358],[91.558,24.7763],[91.5592,25.1197],[91.5342,25.2223],[91.4961,25.2451],[91.1516,25.3081],[90.4197,25.2434],[90.18,25.1652],[89.9487,25.0573],[89.5185,24.7342],[89.3267,24.6346],[88.9901,24.5414],[88.7056,24.538],[88.6441,24.5522],[88.5637,24.6374],[88.5112,24.7257],[88.4991,24.8061],[88.5177,24.8848],[88.5904,24.9742],[88.6697,25.0413],[88.8498,25.1086],[88.962,25.1749],[89.0065,25.2269],[89.0167,25.2746],[88.9105,25.3198],[88.8101,25.4861],[88.6785,25.5029],[88.4665,25.5875],[88.3886,25.7199],[88.2728,25.8081],[88.2691,25.9347],[88.2247,25.9737],[88.2009,26.0361],[88.1877,26.2566],[88.236,26.6965],[88.2273,27.1211],[88.3051,27.1285],[88.3234,27.105],[88.4332,27.0815],[88.5307,27.1507],[88.5214,27.1787],[88.5914,27.1945],[88.6554,27.1626],[88.6813,27.1797],[88.7023,27.1738],[88.705,27.0548],[88.7271,26.9636],[89.0118,26.2984],[89.0881,26.211],[89.4381,25.917],[89.5682,25.7782],[89.6469,25.7399],[90.0815,25.7678],[90.4923,25.8627],[91.0059,25.9037],[91.5262,26.0629],[92.1914,26.1547],[92.4772,26.2396],[92.9034,26.3343],[93.3209,26.5252],[93.4505,26.6402],[93.6752,26.9614],[93.762,27.1057],[93.9102,27.4247],[94.3559,27.9805],[94.403,28.0717],[94.3842,28.1615],[94.3073,28.2697],[94.2373,28.306],[94.0222,28.3704],[93.9445,28.4409],[93.9034,28.5341],[93.8912,28.6385],[93.91,28.7102],[93.963,28.7805],[94.0271,28.8248],[94.1223,28.8533],[94.2394,28.8659],[94.3536,28.8562],[94.4565,28.8209],[94.5657,28.733],[94.7697,28.6227],[94.9097,28.5137],[95.0253,28.3787],[95.0211,28.2059],[95.0041,28.1266],[94.6351,27.6359],[94.253,27.2638],[94.2165,27.159],[94.104,26.9534],[93.9574,26.5202],[93.8774,26.3793],[93.7229,26.1679],[93.7089,26.0549],[93.7344,25.973],[93.7877,25.8886],[93.8236,25.8809],[93.8851,25.9106],[93.9172,25.9523],[93.9591,26.0717],[94.0596,26.2366],[94.3087,26.5322],[94.7607,26.9052],[94.8994,26.9777],[95.0221,27.0016],[95.1652,26.965],[95.1939,26.9343],[95.209,26.8869],[95.2012,26.7459],[95.1167,26.5949],[95.0994,26.5068],[95.1202,26.276],[95.1677,26.1184],[95.1684,26.058],[95.1415,26.0254],[95.0313,25.9871],[94.9981,25.9604],[94.9794,25.7372],[94.9089,25.6002],[94.8327,25.5244],[94.7923,25.5156],[94.7467,25.5354],[94.5811,25.6571],[94.5968,25.6885],[94.5736,25.6977],[94.5521,25.6646],[94.447,25.6652],[94.0005,25.6025],[93.7198,25.5395],[93.4957,25.4389],[93.2849,25.2985],[93.0395,25.0717],[92.8919,24.8795],[92.8457,24.7614],[92.8502,24.6605],[92.9037,24.5787],[93.039,24.4551],[93.0389,24.4106],[93.0005,24.403],[93.0242,24.3914],[93.0208,24.3476],[93.0452,24.3407],[93.0083,24.282],[93.0237,24.2131],[93.0031,24.1976],[93.0054,24.1605],[92.9744,24.1179],[93.0478,24.091],[93.0806,24.1027],[93.1023,24.0742],[93.1012,24.045],[93.1448,24.0877],[93.1697,24.0754],[93.17,24.0548],[93.2106,24.0487],[93.2258,24.086],[93.254,24.0822],[93.2838,23.9751],[93.3857,23.8689],[93.4173,23.7936],[93.4267,23.634],[93.3396,23.4587],[93.3615,23.2501],[93.3581,23.1311],[93.3318,23.059],[93.2823,23.0293],[93.0761,23.0867],[93.0282,23.0811],[93.0952,22.9151],[93.0754,22.6137],[93.1363,22.3672],[93.1318,22.2736],[92.9888,22.0847],[92.9457,22.0522],[92.8954,22.0775],[92.7654,22.2204],[92.7371,22.229],[92.7161,22.2093],[92.6321,22.0548],[92.5992,21.9251],[92.6361,21.4965],[92.6242,21.2531],[92.6065,21.2466],[92.5326,21.3625],[92.4284,21.4446],[92.3401,21.45],[92.255,21.4109],[92.197,21.3196],[92.1871,21.2552],[92.2071,21.1431],[92.1949,21.1542],[92.1952,21.1278],[92.2112,21.1029],[92.221,21.0971],[92.2566,20.9968],[92.27,20.9133],[92.1249,21.0808],[92.0474,21.2174],[92.0408,21.3019],[91.9929,21.4151],[91.9981,21.5043],[92.0224,21.4871],[91.9996,21.5223],[91.9964,21.5679],[92.0389,21.6475],[92.0395,21.6758],[92.025,21.6824],[92.0352,21.7004],[92.0176,21.7162],[92.0181,21.6656],[91.9808,21.6566],[91.9828,21.7023],[91.9664,21.6783],[91.9459,21.7392],[91.9532,21.7503],[91.9722,21.739],[91.9951,21.7643],[91.9557,21.7527],[91.954,21.774],[91.9706,21.7865],[91.9429,21.8044],[91.924,21.7836],[91.9095,21.9079],[91.9274,21.9346],[91.8932,21.9721],[91.8855,22.0319],[91.8442,22.1278],[91.8232,22.1982],[91.8418,22.262],[91.8138,22.3017],[91.8676,22.3231],[91.8938,22.3928],[91.914,22.4092],[92.0019,22.4046],[92.0224,22.4171],[92.0369,22.4469],[92.0804,22.4368],[92.1339,22.4559],[92.1443,22.4699],[92.0892,22.4446],[92.0331,22.4505],[92.0017,22.4121],[91.8985,22.4111],[91.8574,22.3311],[91.7956,22.2929],[91.7974,22.2748],[91.8285,22.2595],[91.8117,22.2305],[91.7002,22.4839],[91.5958,22.6389],[91.5353,22.6969],[91.5535,22.9674],[91.5254,23.081],[91.392,23.2913],[91.3983,23.0627],[91.3947,23.0458],[91.3846,23.0542],[91.319,23.1945],[91.2791,23.4032]]],[[[91.725,26.8524],[91.738,26.837],[91.7223,26.824],[91.7095,26.8395],[91.725,26.8524]]],[[[92.219,21.1037],[92.211,21.1073],[92.2159,21.1129],[92.219,21.1037]]],[[[92.21,21.1328],[92.2076,21.1308],[92.2094,21.1331],[92.21,21.1328]]],[[[92.0123,21.5991],[92.0042,21.6167],[92.0075,21.6243],[92.0146,21.6092],[92.0123,21.5991]]],[[[91.9872,21.6312],[91.9883,21.6086],[91.9777,21.6447],[91.9872,21.6312]]],[[[92.0121,21.629],[92.0018,21.6457],[92.0302,21.6684],[92.0346,21.6472],[92.0121,21.629]]]]}}