{"type":"Feature","properties":{"speciesId":667,"category":"LC","source":"IUCN Red List","simplifyTol":0.01,"clippedToSubcontinent":true},"geometry":{"type":"Polygon","coordinates":[[[77.5395,8.4201],[77.4984,8.3865],[77.4135,8.3823],[77.2753,8.4106],[77.1404,8.4592],[76.9807,8.568],[76.779,8.7954],[76.7257,8.9242],[76.6904,9.1154],[76.6097,9.3041],[76.5505,9.5243],[76.5262,9.5565],[76.4365,9.6138],[76.3796,9.7198],[76.3609,9.9524],[76.2995,10.3296],[76.2671,10.4172],[76.1565,10.5875],[76.1031,10.8397],[76.0196,10.9644],[75.841,11.1529],[75.8066,11.2513],[75.7636,11.5064],[75.6926,11.6735],[75.5661,11.8833],[75.3583,12.0965],[75.2865,12.1963],[75.1076,12.6512],[74.8577,13.1322],[74.8341,13.225],[74.7929,13.5775],[74.7047,13.9129],[74.6522,14.0233],[74.5097,14.238],[74.3539,14.6276],[74.2757,14.7746],[74.1273,14.9886],[74.0804,15.1235],[74.0225,15.8547],[74.0092,16.5418],[74.0437,16.9275],[74.0687,16.9888],[74.1209,17.0367],[74.1536,17.0329],[74.1785,16.9593],[74.2328,16.6229],[74.2809,16.4914],[74.4203,16.2966],[74.6644,16.0413],[74.7215,15.9064],[74.8091,15.5721],[74.9755,15.2474],[75.115,15.096],[75.2189,14.9319],[75.4056,14.7128],[75.609,14.3124],[75.896,13.9444],[76.1366,13.4251],[76.2255,13.1509],[76.264,13.0805],[76.3361,13.0331],[76.4358,13.0085],[77.0974,13.031],[77.596,13.023],[77.6964,12.9791],[77.7789,12.8516],[77.7973,12.7066],[77.7575,12.3168],[77.7155,12.1684],[77.5499,11.7434],[77.3619,11.4242],[77.2165,11.2585],[76.9019,10.9515],[76.8399,10.8582],[76.8158,10.7861],[76.829,10.7223],[76.8739,10.6514],[76.9466,10.5813],[77.0226,10.5358],[77.2214,10.5],[77.4655,10.5244],[77.7301,10.5001],[77.7822,10.4671],[77.8247,10.3887],[77.8265,10.3379],[77.788,10.29],[77.2712,9.9317],[77.2321,9.8671],[77.2069,9.7668],[77.2014,9.6476],[77.2194,9.6053],[77.2763,9.6451],[77.517,9.9068],[77.6249,9.9968],[77.662,10.0093],[77.688,10.0],[77.7344,9.8892],[77.7458,9.7975],[77.7272,9.7383],[77.4775,9.5075],[77.3438,9.1831],[77.2179,9.0291],[77.2502,8.9568],[77.4191,8.7817],[77.4963,8.6646],[77.5379,8.5503],[77.5395,8.4201]]]}}