{"type":"Feature","properties":{"speciesId":668,"category":"VU","source":"IUCN Red List","simplifyTol":0.01,"clippedToSubcontinent":true},"geometry":{"type":"MultiPolygon","coordinates":[[[[77.2,8.7134],[77.251,8.6403],[77.2522,8.6116],[77.2914,8.5755],[77.3867,8.5473],[77.392,8.4872],[77.3619,8.4836],[77.3388,8.5127],[77.3102,8.5204],[77.3277,8.5366],[77.3033,8.5477],[77.3073,8.5308],[77.283,8.5285],[77.2836,8.4886],[77.244,8.5088],[77.266,8.5463],[77.2076,8.6121],[77.2166,8.6376],[77.173,8.6864],[77.1572,8.6734],[77.1489,8.6946],[77.2,8.7134]]],[[[77.2107,8.7637],[77.2037,8.8037],[77.2406,8.8241],[77.2461,8.7785],[77.2107,8.7637]]]]}}