{"type":"Feature","properties":{"speciesId":669,"category":"VU","source":"IUCN Red List","simplifyTol":0.01,"clippedToSubcontinent":true},"geometry":{"type":"MultiPolygon","coordinates":[[[[75.8774,12.7971],[75.559,12.4262],[75.4526,12.3709],[75.3933,12.3811],[75.3674,12.415],[75.3659,12.4491],[75.4225,12.4601],[75.4145,12.4967],[75.3831,12.4927],[75.3721,12.4688],[75.3409,12.456],[75.3348,12.4902],[75.3049,12.4968],[75.3047,12.5173],[75.2769,12.5295],[75.2768,12.5641],[75.3285,12.5771],[75.2764,12.6115],[75.2855,12.6635],[75.275,12.6953],[75.1739,12.7537],[75.0205,12.9095],[74.8549,13.0124],[74.8008,13.0681],[74.7455,13.2479],[74.6978,13.341],[74.6823,13.5807],[74.7485,13.5956],[75.089,13.5616],[75.3393,13.5094],[75.5832,13.3853],[75.8483,13.1744],[76.0016,13.0106],[76.0167,12.9223],[76.0021,12.8955],[75.8774,12.7971]]],[[[75.2753,12.6111],[75.2753,12.6113],[75.2761,12.6114],[75.2753,12.6111]]]]}}