{"type":"Feature","properties":{"speciesId":67,"category":"LC","source":"IUCN Red List","simplifyTol":0.01,"clippedToSubcontinent":true},"geometry":{"type":"MultiPolygon","coordinates":[[[[74.6846,27.5406],[74.4667,27.2138],[74.1509,26.9252],[73.6662,26.5276],[73.176,26.239],[72.5715,25.9776],[71.4333,25.6998],[70.9594,25.6671],[70.3168,25.6998],[69.642,25.766],[66.6474,25.299],[66.5501,25.3652],[66.5553,25.3922],[66.5794,25.3729],[66.5783,25.4114],[66.5942,25.425],[66.56,25.4529],[66.5576,25.5381],[66.5289,25.5422],[66.5159,25.5634],[66.5429,25.6144],[66.5393,25.6442],[66.5028,25.5774],[66.4799,25.5877],[66.4672,25.5699],[66.4552,25.6194],[66.4454,25.5972],[66.3991,25.5835],[66.3676,25.6159],[66.3105,25.6101],[66.2969,25.6239],[66.2322,25.5904],[66.1901,25.5993],[66.1337,25.5443],[66.1328,25.5079],[66.0919,25.4796],[66.1956,25.4889],[66.2848,25.5421],[66.3141,25.5377],[66.3088,25.5465],[66.3349,25.5532],[66.358,25.5248],[66.3972,25.5216],[66.3943,25.5066],[66.4265,25.4826],[66.4752,25.4996],[66.5174,25.4921],[66.4928,25.4478],[66.5284,25.4158],[66.5133,25.4046],[66.36,25.4601],[66.2765,25.4678],[66.0391,25.4266],[66.0238,25.4437],[66.0092,25.4368],[66.0144,25.4209],[65.9549,25.4132],[65.8387,25.4194],[65.773,25.3835],[65.6357,25.3495],[65.5178,25.3704],[65.5435,25.4199],[65.5057,25.3761],[65.3711,25.3902],[65.3381,25.3805],[65.3189,25.3967],[65.2514,25.3791],[65.2263,25.3172],[65.1564,25.3061],[64.9953,25.3252],[64.8271,25.3189],[64.7806,25.3477],[64.7927,25.3239],[64.7262,25.3167],[64.6525,25.2732],[64.6402,25.2055],[64.7005,25.1866],[64.6623,25.16],[64.5846,25.1594],[64.5832,25.1813],[64.6045,25.1891],[64.611,25.2166],[64.5436,25.2705],[64.406,25.2383],[64.3405,25.2768],[64.24,25.307],[64.2462,25.3325],[64.2233,25.318],[64.0838,25.3294],[64.0918,25.3659],[64.1175,25.3649],[64.0809,25.3978],[64.1419,25.4112],[64.1381,25.4323],[64.1651,25.4533],[64.1243,25.439],[64.1174,25.4545],[64.0642,25.4452],[64.0473,25.4314],[64.0287,25.465],[64.0287,25.4441],[63.9915,25.4264],[64.0198,25.4249],[64.0058,25.4066],[63.9744,25.4234],[63.9678,25.4056],[63.9913,25.4099],[64.0042,25.3844],[64.0208,25.4095],[64.0361,25.4061],[64.072,25.3632],[64.0643,25.3283],[63.9296,25.3371],[63.758,25.3788],[63.6059,25.3706],[63.5356,25.3457],[63.4811,25.2844],[63.4561,25.2952],[63.5039,25.2262],[63.4927,25.1982],[63.1395,25.2577],[63.0071,25.2106],[62.8309,25.2462],[62.5951,25.2623],[62.4738,25.2454],[62.4599,25.2297],[62.4771,25.2159],[62.4118,25.2054],[62.3643,25.178],[62.3394,25.1132],[62.3895,25.1048],[62.3769,25.0962],[62.269,25.1003],[62.3202,25.1206],[62.3149,25.1687],[62.2651,25.2048],[62.2034,25.2151],[62.0735,25.1785],[62.0666,25.1548],[62.1054,25.1043],[62.0984,25.0962],[61.9847,25.1096],[61.8747,25.1027],[61.8594,25.0961],[61.864,25.0784],[61.8406,25.0408],[61.7488,25.0347],[61.7242,25.0541],[61.7575,25.0983],[61.7476,25.1321],[61.769,25.124],[61.7831,25.1419],[61.7813,25.1903],[61.7523,25.1687],[61.6982,25.2043],[61.6592,25.1869],[61.6337,25.2028],[61.6104,25.1949],[61.6643,25.3334],[61.6807,25.6544],[61.7067,25.6863],[61.6899,25.7179],[61.6892,25.7992],[61.7688,25.8018],[61.7804,25.8183],[61.8479,26.2281],[62.0611,26.3154],[62.1211,26.3167],[62.1324,26.39],[62.2825,26.3584],[62.2913,26.3868],[62.2564,26.446],[62.2826,26.4473],[62.3088,26.4767],[62.2959,26.4988],[62.306,26.5244],[62.4035,26.5393],[62.4345,26.5681],[62.6081,26.585],[62.7787,26.6523],[62.9859,26.6534],[63.0514,26.6376],[63.1692,26.6473],[63.1997,26.738],[63.1921,26.8435],[63.2814,26.8746],[63.2567,26.9287],[63.2559,27.0829],[63.3175,27.1387],[63.2993,27.1789],[63.1842,27.2414],[63.0586,27.2332],[62.9517,27.1921],[62.8783,27.2171],[62.8214,27.2123],[62.783,27.2343],[62.7815,27.2514],[62.8325,27.3049],[62.8074,27.3401],[62.8554,27.4651],[62.8198,27.805],[62.7682,28.0324],[62.7966,28.2089],[62.7919,28.2771],[62.5923,28.2551],[62.4319,28.4109],[62.2963,28.4634],[62.0433,28.5079],[61.8042,28.6402],[61.681,28.7706],[61.5043,29.0076],[61.5032,29.0564],[61.4705,29.1139],[61.4158,29.1356],[61.4287,29.1938],[61.3835,29.2215],[61.3577,29.2828],[61.3723,29.3484],[61.1926,29.5025],[60.9352,29.7958],[63.1787,29.2727],[63.6213,28.8301],[63.9165,28.2936],[64.4114,28.0375],[65.1774,28.0211],[66.1297,28.3475],[67.2777,28.4723],[67.4046,28.9729],[67.5902,29.9437],[67.9942,29.7832],[68.3612,29.4583],[68.5753,28.6731],[68.4924,28.0471],[68.6067,28.1723],[69.0588,28.2486],[69.7123,28.2976],[71.1936,28.6679],[71.662,28.8204],[72.3591,29.1908],[73.127,29.6864],[73.6934,30.073],[73.9657,30.1112],[74.336,29.8497],[74.9242,28.7224],[74.9787,28.5154],[74.9787,28.2976],[74.6846,27.5406]]],[[[66.3614,25.5854],[66.35,25.5891],[66.351,25.5923],[66.3614,25.5854]]],[[[66.3817,25.5807],[66.3694,25.5874],[66.3709,25.5899],[66.3817,25.5807]]],[[[66.1976,25.5373],[66.1624,25.5407],[66.2052,25.5732],[66.1938,25.5568],[66.1976,25.5373]]],[[[66.3873,25.5655],[66.3798,25.5631],[66.3842,25.5685],[66.3873,25.5655]]],[[[66.3516,25.5599],[66.3428,25.5618],[66.3439,25.5636],[66.3516,25.5599]]],[[[66.4226,25.522],[66.3967,25.5379],[66.3953,25.552],[66.4199,25.5522],[66.4226,25.522]]],[[[66.5279,25.4597],[66.5058,25.4565],[66.5285,25.467],[66.5279,25.4597]]],[[[64.1073,25.4172],[64.0651,25.4156],[64.1245,25.4227],[64.1073,25.4172]]],[[[63.8769,25.1192],[63.8418,25.121],[63.8788,25.1268],[63.8769,25.1192]]]]}}