{"type":"Feature","properties":{"speciesId":671,"category":"LC","source":"IUCN Red List","simplifyTol":0.01,"clippedToSubcontinent":true},"geometry":{"type":"Polygon","coordinates":[[[88.4796,27.0096],[87.2811,26.83],[86.9765,26.8367],[86.5511,26.8776],[85.8841,27.0308],[85.4611,27.2433],[84.9014,27.4495],[84.6282,27.5955],[84.5031,27.6413],[84.2925,27.674],[83.8371,27.6838],[83.4949,27.7133],[83.1255,27.7908],[81.8313,28.3123],[81.3843,28.6107],[81.231,28.6917],[80.9721,28.7919],[80.7694,28.94],[80.5673,29.0528],[79.3801,29.5282],[78.8079,29.81],[78.6073,29.9288],[78.4592,30.0433],[78.1698,30.4205],[78.035,30.5403],[77.8362,30.6196],[77.2978,30.7356],[77.1809,30.7873],[77.0982,30.8536],[76.9824,31.0395],[76.9162,31.256],[76.918,31.3614],[76.9753,31.6234],[76.9556,31.7688],[76.8592,31.9844],[76.7373,32.116],[76.5162,32.2422],[75.3383,32.7296],[75.0236,32.881],[73.9156,33.5986],[73.5701,33.8697],[73.3727,34.0585],[73.2112,34.2395],[72.8656,34.7366],[72.8053,34.8626],[72.7789,34.9737],[72.7851,35.0708],[72.825,35.1693],[72.9739,35.3989],[73.0787,35.5014],[73.2666,35.5877],[73.5142,35.6391],[73.9517,35.6229],[74.3321,35.5696],[74.7138,35.4703],[75.0095,35.3453],[75.2678,35.1767],[75.8503,34.7172],[76.8139,34.0878],[77.0332,33.9114],[77.295,33.6609],[77.4755,33.4478],[77.65,33.178],[78.0036,32.5524],[78.2812,31.97],[78.4246,31.7227],[78.623,31.4879],[78.9251,31.256],[79.3892,30.9599],[79.7816,30.7403],[80.1059,30.586],[80.5236,30.4292],[80.7282,30.3277],[80.9345,30.1912],[81.0663,30.0539],[81.1458,30.0176],[81.2097,30.0084],[81.2548,30.0282],[81.3247,30.1023],[81.4053,30.238],[81.5335,30.3251],[81.6317,30.3441],[81.7834,30.3451],[81.9739,30.3135],[82.0687,30.2347],[82.1084,30.1326],[82.1371,30.098],[82.4882,29.913],[82.7595,29.6563],[82.8348,29.6253],[83.0609,29.6015],[83.197,29.5355],[83.2507,29.4806],[83.3976,29.2642],[83.495,29.1853],[83.5568,29.1601],[83.6295,29.1581],[83.7896,29.1845],[83.9637,29.2429],[84.0363,29.2376],[84.1327,29.1385],[84.2001,28.98],[84.2658,28.8904],[84.3161,28.8461],[84.4386,28.7792],[84.5724,28.6468],[84.8986,28.5156],[85.0584,28.3756],[85.3297,28.2551],[85.4913,28.2356],[85.6386,28.2754],[85.7209,28.1865],[85.9971,27.9639],[86.1281,27.8884],[86.3131,27.8395],[86.5057,27.8456],[86.5892,27.8708],[86.7311,27.9865],[86.7977,28.0079],[86.9203,27.9638],[87.061,27.8846],[87.1609,27.8539],[87.6943,27.806],[87.8171,27.8222],[88.0466,27.9051],[88.3349,27.9638],[88.5423,28.0557],[89.0762,28.0605],[89.4145,27.9878],[89.7151,27.9478],[89.8136,27.9185],[89.8993,27.8715],[90.1458,27.8384],[90.4983,27.8102],[91.2492,27.7921],[91.4364,27.7628],[91.5101,27.7335],[91.5506,27.6945],[91.5768,27.5035],[91.6052,27.4484],[91.6705,27.4142],[91.8855,27.3598],[91.9229,27.3299],[91.9373,27.2846],[91.9249,27.1304],[91.9435,27.0243],[91.9365,26.9641],[91.9005,26.8844],[91.842,26.8585],[91.1478,26.8532],[90.384,26.905],[89.209,27.0926],[88.9267,27.1183],[88.7995,27.1053],[88.4796,27.0096]]]}}