{"type":"Feature","properties":{"speciesId":679,"category":"LC","source":"IUCN Red List","simplifyTol":0.01,"clippedToSubcontinent":true},"geometry":{"type":"MultiPolygon","coordinates":[[[[77.3853,10.394],[77.5902,10.3946],[77.6207,10.3642],[77.6356,10.2878],[77.6111,10.1847],[77.3532,9.958],[77.3235,9.9114],[77.3104,9.8468],[77.3304,9.7452],[77.551,9.7008],[77.5864,9.6521],[77.6087,9.5721],[77.6069,9.5335],[77.5877,9.5093],[77.3927,9.4428],[77.3618,9.4182],[77.3509,9.3855],[77.3687,8.8852],[77.4771,8.5619],[77.5702,8.3598],[77.5539,8.3118],[77.4759,8.2719],[77.4314,8.29],[77.2404,8.4474],[77.162,8.5425],[77.1075,8.6461],[77.0755,8.7884],[77.1021,9.0629],[77.0934,9.1462],[76.9727,9.4415],[76.864,9.5691],[76.8178,9.6597],[76.7802,9.8116],[76.8479,9.9157],[76.8512,9.9579],[76.7844,10.0811],[76.6845,10.2088],[76.6635,10.2764],[76.6728,10.355],[76.7048,10.3968],[76.851,10.5001],[76.9867,10.5487],[77.1485,10.5319],[77.2237,10.4869],[77.2962,10.4118],[77.3853,10.394]]],[[[76.6175,11.0303],[76.5106,11.0621],[76.3905,11.1882],[76.3693,11.2521],[76.4088,11.3692],[76.3917,11.4173],[76.2165,11.5307],[76.0479,11.7678],[75.9122,11.909],[75.622,12.1041],[75.5482,12.1777],[75.5042,12.2567],[75.4881,12.3332],[75.4952,12.3906],[75.5323,12.4411],[75.6105,12.4645],[75.6934,12.4637],[75.8686,12.3971],[76.2731,12.1335],[76.5108,11.9425],[76.6492,11.793],[76.7114,11.6936],[76.7604,11.5647],[76.8014,11.3985],[76.8145,11.2479],[76.7582,11.0776],[76.701,11.044],[76.6175,11.0303]]]]}}