{"type":"Feature","properties":{"speciesId":680,"category":"LC","source":"IUCN Red List","simplifyTol":0.01,"clippedToSubcontinent":true},"geometry":{"type":"MultiPolygon","coordinates":[[[[80.2148,9.8314],[80.2509,9.8223],[80.3731,9.6534],[80.8098,9.2985],[80.8842,9.1211],[80.9996,8.9407],[80.9929,8.9181],[81.0119,8.9282],[81.0132,8.8909],[81.0214,8.9047],[81.0578,8.8602],[81.0878,8.8581],[81.1073,8.8033],[81.226,8.6498],[81.2196,8.6104],[81.2485,8.5519],[81.2263,8.5319],[81.2282,8.568],[81.193,8.5684],[81.2119,8.5078],[81.1895,8.5035],[81.1984,8.4603],[81.2675,8.4567],[81.3038,8.4325],[81.3039,8.4584],[81.2829,8.4493],[81.2833,8.5034],[81.3228,8.5224],[81.3224,8.5084],[81.352,8.4927],[81.3939,8.3574],[81.4078,8.2417],[81.4731,8.0424],[81.556,7.9355],[81.5875,7.9209],[81.5671,7.8957],[81.5928,7.8302],[81.6268,7.8247],[81.6545,7.7727],[81.7011,7.7533],[81.7738,7.6405],[81.8722,7.3121],[81.8586,7.0908],[81.8813,7.0265],[81.8729,6.9806],[81.8489,6.989],[81.8592,6.9657],[81.8729,6.9665],[81.8366,6.8873],[81.8513,6.8893],[81.8485,6.8679],[81.8397,6.8542],[81.8201,6.8601],[81.8444,6.8354],[81.8237,6.8118],[81.8253,6.7658],[81.8084,6.7651],[81.828,6.7571],[81.7761,6.6644],[81.7657,6.5904],[81.7316,6.5661],[81.6987,6.48],[81.6517,6.4366],[81.5981,6.425],[81.6176,6.4135],[81.6054,6.3975],[81.5105,6.3453],[81.4861,6.3048],[81.4386,6.2842],[81.4046,6.2419],[81.3479,6.2199],[81.3272,6.1936],[81.2192,6.1582],[81.1946,6.1575],[81.1966,6.1775],[81.1779,6.144],[81.1361,6.1302],[81.1281,6.1132],[81.0167,6.1071],[80.8744,6.0558],[80.8654,6.0406],[80.8227,6.0405],[80.7199,5.9606],[80.6631,5.9571],[80.5884,5.9165],[80.5462,5.9428],[80.449,5.9431],[80.4516,5.9606],[80.432,5.97],[80.4161,5.9543],[80.382,5.9597],[80.2439,6.0071],[80.2298,6.0349],[80.2183,6.0221],[80.0987,6.1287],[80.0312,6.2661],[80.0251,6.3369],[79.9748,6.4621],[79.9867,6.4775],[79.9794,6.5155],[79.8677,6.8085],[79.8434,6.9264],[79.8697,6.9965],[79.8188,7.1918],[79.8397,7.223],[79.844,7.2687],[79.8592,7.2755],[79.8422,7.2788],[79.803,7.4804],[79.7912,7.5886],[79.8062,7.6519],[79.7823,7.8094],[79.7065,8.0443],[79.6981,8.1222],[79.7039,8.1385],[79.7087,8.1141],[79.6989,8.2159],[79.7227,8.2228],[79.7376,8.2792],[79.7574,8.3166],[79.781,8.3498],[79.7565,8.3096],[79.7507,8.2625],[79.7651,8.2743],[79.7574,8.2569],[79.7768,8.2515],[79.7684,8.215],[79.7558,8.22],[79.7405,8.2014],[79.7492,8.1832],[79.7299,8.1345],[79.7316,8.0834],[79.7541,8.0588],[79.7441,7.9979],[79.8182,7.9731],[79.8104,7.8837],[79.8339,8.0085],[79.7887,8.0672],[79.8086,8.061],[79.7944,8.0785],[79.8339,8.1386],[79.8133,8.1777],[79.8198,8.1965],[79.7945,8.2192],[79.8097,8.2203],[79.7897,8.23],[79.811,8.2386],[79.8342,8.2919],[79.8472,8.2743],[79.8584,8.2846],[79.8347,8.3079],[79.8487,8.3572],[79.8442,8.4279],[79.8647,8.4533],[79.8697,8.5341],[79.9263,8.5587],[79.9195,8.5866],[79.9429,8.6194],[79.956,8.7187],[79.9235,8.7849],[79.9398,8.808],[79.9185,8.8079],[79.9307,8.8147],[79.9189,8.8193],[79.9358,8.8916],[79.9121,8.9295],[80.0403,9.0133],[80.0667,9.0573],[80.0859,9.0993],[80.0766,9.1229],[80.095,9.1372],[80.1178,9.2094],[80.1118,9.2775],[80.128,9.2917],[80.0654,9.3311],[80.0546,9.3907],[80.147,9.435],[80.1861,9.483],[80.1544,9.5294],[80.0543,9.5974],[80.0864,9.6277],[80.0193,9.6496],[79.9709,9.7078],[79.9467,9.6878],[79.9101,9.7601],[79.9821,9.8046],[80.106,9.806],[80.2148,9.8314]],[[80.5635,8.1819],[80.4656,8.0471],[80.3613,7.9913],[80.2885,7.8592],[80.2738,7.6363],[80.2819,7.385],[80.2556,7.2751],[80.1914,7.2025],[80.1593,7.1332],[80.1383,6.7932],[80.1603,6.6689],[80.2275,6.5048],[80.2581,6.3554],[80.3039,6.2582],[80.4193,6.164],[80.5829,6.117],[80.6538,6.135],[80.8085,6.2239],[80.9571,6.4181],[81.039,6.4957],[81.2734,6.5725],[81.3247,6.606],[81.345,6.6718],[81.3456,6.8884],[81.3903,6.9605],[81.4802,7.0507],[81.553,7.166],[81.5744,7.3156],[81.5583,7.4053],[81.5738,7.4333],[81.605,7.4482],[81.5146,7.5336],[81.3897,7.5626],[81.2752,7.5266],[81.1548,7.417],[81.116,7.4164],[81.0621,7.4412],[81.0119,7.4944],[80.9758,7.5646],[80.9272,7.898],[80.8939,7.9748],[80.6803,8.2094],[80.6198,8.2124],[80.5635,8.1819]]],[[[84.7341,22.6217],[86.9579,23.1412],[87.2955,23.1812],[87.6893,23.1854],[87.8167,23.1604],[87.9589,23.109],[88.0917,23.0402],[88.2055,22.9589],[88.2878,22.876],[88.3425,22.7901],[88.3679,22.707],[88.3684,22.61],[88.3508,22.5199],[88.3092,22.4393],[88.2403,22.3607],[88.1415,22.282],[87.6289,21.9741],[87.0956,21.7433],[86.9931,21.6759],[86.9165,21.6022],[86.7761,21.3955],[86.7017,21.2007],[86.6965,21.0903],[86.7526,20.8336],[86.7268,20.6988],[86.5796,20.4448],[86.4187,20.2784],[85.9911,19.9864],[85.4531,19.6987],[84.9852,19.3122],[84.5933,19.1254],[84.5152,19.0448],[84.4453,18.8611],[84.3833,18.7825],[83.9968,18.4593],[83.6331,18.1864],[83.2976,17.8991],[82.7161,17.5474],[82.1338,17.1551],[81.6726,16.8999],[81.317,16.6503],[80.9267,16.4083],[80.4723,16.0655],[80.2086,15.8501],[80.122,15.7546],[79.9895,15.5342],[79.8878,15.0613],[79.8782,14.9527],[79.8998,14.5193],[79.923,14.3573],[80.0148,14.0651],[80.0404,13.908],[80.3195,13.1952],[80.2956,13.1252],[80.3046,13.0914],[80.2759,13.0183],[80.2609,13.0128],[80.2741,13.0055],[80.2429,12.8171],[80.2528,12.7706],[80.1942,12.5915],[80.1758,12.5813],[80.1872,12.5744],[80.1636,12.4913],[80.1357,12.4599],[80.1431,12.4397],[80.0468,12.3102],[80.0668,12.3455],[80.0577,12.3516],[79.8844,12.0559],[79.8346,11.91],[79.8187,11.9073],[79.8347,11.8997],[79.8075,11.8438],[79.8032,11.7931],[79.7759,11.7701],[79.7937,11.7702],[79.7932,11.749],[79.7662,11.6507],[79.7585,11.5466],[79.7714,11.492],[79.8188,11.4257],[79.8495,11.2596],[79.8464,11.2372],[79.8252,11.2304],[79.8515,11.2262],[79.8597,11.1807],[79.8496,10.8815],[79.8731,10.2861],[79.7624,10.2707],[79.5302,10.3132],[79.4007,10.3203],[79.304,10.2643],[79.2732,10.2345],[79.2717,10.1963],[79.246,10.1832],[79.2302,10.1427],[79.2331,10.0807],[79.2673,10.0346],[79.1552,9.9214],[79.1179,9.8642],[79.121,9.8452],[79.0202,9.7326],[78.9347,9.594],[78.9193,9.492],[78.9026,9.4741],[78.9889,9.3538],[79.0719,9.2935],[79.1775,9.2798],[79.2658,9.2889],[79.2942,9.3173],[79.3259,9.3205],[79.3367,9.3077],[79.3204,9.2691],[79.4424,9.1539],[79.3131,9.2389],[79.2719,9.2541],[79.2262,9.2496],[79.2074,9.2764],[79.0932,9.2568],[78.975,9.2697],[78.9264,9.2632],[78.9107,9.2449],[78.8751,9.2527],[78.8278,9.238],[78.7334,9.2031],[78.7198,9.1818],[78.6506,9.1915],[78.6449,9.1654],[78.6615,9.1514],[78.5836,9.1273],[78.4947,9.124],[78.4913,9.1361],[78.4178,9.1088],[78.2837,9.003],[78.2658,9.0125],[78.2681,8.9925],[78.1939,8.9253],[78.171,8.8711],[78.1541,8.7465],[78.1777,8.7594],[78.1959,8.7503],[78.2008,8.7784],[78.2064,8.7644],[78.1968,8.7412],[78.1645,8.7318],[78.1319,8.6686],[78.1332,8.4868],[78.0664,8.4095],[78.0695,8.3656],[77.8066,8.2352],[77.744,8.171],[77.5889,8.1376],[77.559,8.1123],[77.552,8.0686],[77.3133,8.1192],[77.2963,8.1466],[77.2394,8.1731],[76.9828,8.3803],[76.7903,8.6239],[76.75,8.8419],[76.6603,8.9643],[76.6188,9.0604],[76.462,9.6878],[76.4082,9.9707],[76.3971,10.3148],[76.4387,10.7019],[76.4255,10.8412],[76.388,10.9531],[76.3141,11.0765],[76.2053,11.2056],[75.9107,11.4112],[75.7114,11.6135],[75.6157,11.7631],[75.4276,12.1582],[75.3504,12.4753],[75.3441,12.608],[75.3603,12.7079],[75.2931,12.68],[75.259,12.7493],[75.2537,13.3474],[75.1721,13.678],[75.038,14.0462],[74.1009,16.3379],[73.9387,16.8075],[73.8257,17.2361],[73.7056,17.8466],[73.6284,18.4167],[73.5934,18.9522],[73.6005,19.4554],[73.6594,19.9601],[73.8965,21.0291],[73.9683,21.9424],[74.0235,22.1511],[74.1208,22.3551],[74.2377,22.5347],[74.3825,22.7132],[74.553,22.8879],[74.7443,23.0541],[74.9606,23.2146],[75.1899,23.3592],[75.4316,23.4863],[75.6328,23.5687],[75.928,23.6472],[76.2832,23.7002],[77.2394,23.765],[78.5884,23.8818],[79.0433,23.887],[79.9038,23.8497],[80.3635,23.795],[80.7564,23.708],[81.0132,23.6204],[81.2287,23.5184],[81.8856,23.1094],[82.4871,22.7717],[82.8905,22.6241],[83.3031,22.5334],[83.7211,22.5088],[84.3213,22.5476],[84.7341,22.6217]]]]}}