{"type":"Feature","properties":{"speciesId":682,"category":"LC","source":"IUCN Red List","simplifyTol":0.01,"clippedToSubcontinent":true},"geometry":{"type":"MultiPolygon","coordinates":[[[[91.3645,25.4349],[91.3377,25.4659],[91.3688,25.4926],[91.3954,25.4613],[91.3645,25.4349]]],[[[97.7544,25.5968],[97.7768,25.5691],[97.7018,25.48],[97.6721,25.4668],[97.6282,25.4819],[97.6221,25.5513],[97.6036,25.5772],[97.6062,25.648],[97.6606,25.6774],[97.7018,25.6513],[97.7203,25.6007],[97.7544,25.5968]]],[[[97.4625,25.7583],[97.4935,25.6594],[97.4661,25.5624],[97.4369,25.5533],[97.3787,25.5828],[97.3584,25.6195],[97.3877,25.7288],[97.4625,25.7583]],[[97.4299,25.7255],[97.437,25.7326],[97.4292,25.7333],[97.4299,25.7255]],[[97.3968,25.6377],[97.4129,25.6253],[97.4277,25.6375],[97.413,25.6497],[97.3968,25.6377]]],[[[97.9948,25.7539],[98.0,25.5947],[97.9675,25.5909],[97.9539,25.5708],[98.0,25.5334],[98.0,25.4144],[97.9568,25.4437],[97.9184,25.4306],[97.8986,25.4083],[97.8881,25.3545],[97.7474,25.2952],[97.7241,25.2387],[97.6952,25.2117],[97.6382,25.2098],[97.5939,25.2292],[97.5808,25.2499],[97.593,25.3006],[97.6064,25.3159],[97.6492,25.316],[97.6625,25.3812],[97.7519,25.4343],[97.7643,25.4097],[97.7571,25.36],[97.7709,25.3556],[97.8072,25.4349],[97.8101,25.5026],[97.8365,25.4837],[97.8692,25.5071],[97.9075,25.5065],[97.8667,25.538],[97.8648,25.5596],[97.9091,25.6222],[97.923,25.6824],[97.9948,25.7539]]],[[[97.9999,25.7868],[97.9173,25.7303],[97.8473,25.7349],[97.8263,25.6879],[97.8052,25.6781],[97.7368,25.683],[97.6773,25.7293],[97.5969,25.7276],[97.5364,25.7599],[97.5111,25.7925],[97.5256,25.917],[97.5849,25.957],[97.6109,26.0591],[97.6589,26.1224],[97.735,26.1636],[97.7944,26.1335],[97.8426,26.1421],[97.7652,26.1897],[97.7381,26.2715],[97.8283,26.3832],[97.8707,26.3784],[97.8378,26.4425],[97.8471,26.4747],[97.8696,26.4876],[97.9305,26.4828],[97.9676,26.5437],[97.96,26.567],[97.9165,26.5068],[97.8766,26.5123],[97.8167,26.4933],[97.7797,26.5105],[97.7578,26.5693],[97.7693,26.7725],[97.7242,26.8298],[97.7301,26.7863],[97.7601,26.7684],[97.7459,26.6568],[97.7142,26.6213],[97.6472,26.5948],[97.6521,26.4987],[97.6014,26.4315],[97.663,26.4419],[97.6946,26.4063],[97.697,26.3765],[97.682,26.3639],[97.6203,26.3693],[97.5637,26.3242],[97.6267,26.2681],[97.6673,26.2956],[97.7072,26.2859],[97.7345,26.1903],[97.6542,26.1451],[97.5772,26.0183],[97.5101,26.0054],[97.4843,25.8774],[97.4446,25.8924],[97.4327,25.9755],[97.3993,25.9924],[97.3473,26.0662],[97.3176,26.0686],[97.3109,26.0338],[97.2714,26.047],[97.2376,25.9881],[97.2183,25.8703],[97.2493,25.7714],[97.2343,25.7363],[97.2783,25.7264],[97.2847,25.7094],[97.2317,25.6948],[97.1997,25.6382],[97.1581,25.6169],[97.1206,25.5532],[96.9836,25.4229],[96.9319,25.4123],[96.8867,25.4372],[96.8555,25.5217],[96.8386,25.7621],[96.7872,25.7438],[96.7478,25.7582],[96.7528,25.817],[96.7218,25.8824],[96.793,25.9356],[96.8412,26.0065],[96.8322,26.0744],[96.8848,26.0712],[96.884,26.1537],[96.9213,26.1965],[96.9437,26.1939],[96.9482,26.1435],[96.9935,26.1854],[97.0283,26.1501],[96.9972,25.9944],[96.9386,25.8925],[97.0113,25.9665],[97.0706,26.0929],[97.0961,26.1763],[97.0773,26.258],[97.1181,26.3749],[97.0641,26.379],[97.0137,26.4038],[96.9469,26.473],[97.0004,26.5041],[97.0185,26.6091],[97.0583,26.6375],[97.0393,26.6578],[97.0194,26.6547],[96.988,26.5697],[96.9551,26.5467],[96.9322,26.5864],[96.9835,26.7161],[96.9639,26.7523],[96.8,26.7664],[96.4901,26.76],[96.3519,26.7927],[96.2476,26.8903],[96.2668,27.0311],[96.4165,27.1657],[96.4706,27.1534],[96.508,27.1805],[96.5932,27.1909],[96.5964,27.1308],[96.6895,27.1763],[96.7089,27.2084],[96.6681,27.2543],[96.6693,27.2779],[96.6863,27.2919],[96.7321,27.29],[96.7492,27.3246],[96.7716,27.3288],[96.8026,27.2832],[96.8713,27.2472],[96.8406,27.2302],[96.8214,27.1858],[96.7909,27.1645],[96.9287,27.1378],[96.9735,27.1014],[96.8583,27.1084],[96.8384,27.0959],[96.8139,27.1202],[96.7962,27.0867],[96.7744,27.1194],[96.739,27.1293],[96.7271,27.0775],[96.6725,27.0944],[96.7001,27.0331],[96.6653,27.0357],[96.627,27.0851],[96.6204,27.0384],[96.5793,27.0115],[96.5579,27.0236],[96.5407,27.0082],[96.5139,27.0158],[96.4013,26.9926],[96.5917,26.9538],[96.6497,26.971],[96.6968,26.9439],[96.7494,26.9672],[96.7917,26.9477],[96.823,26.9665],[96.8472,26.9391],[96.9408,26.9337],[96.9409,26.8972],[96.9223,26.8809],[96.813,26.896],[96.523,26.894],[96.6293,26.8607],[96.8102,26.8336],[96.8401,26.8513],[96.8808,26.8379],[96.9185,26.85],[97.0226,26.8151],[96.9985,26.8871],[97.0709,26.9001],[97.09,26.9298],[97.1176,26.9286],[97.1153,27.0226],[97.1291,27.03],[97.1734,26.9444],[97.1475,26.8685],[97.1866,26.8829],[97.2312,26.8361],[97.2009,26.7679],[97.1656,26.7592],[97.1534,26.7329],[97.1625,26.6591],[97.1906,26.5942],[97.1788,26.5548],[97.1475,26.5466],[97.1792,26.5026],[97.1913,26.4509],[97.1902,26.3493],[97.1637,26.2444],[97.1708,26.1858],[97.104,26.0763],[97.1187,25.9973],[97.0627,25.9739],[97.0772,25.9044],[97.0374,25.8651],[97.0197,25.7694],[96.9979,25.7638],[96.9601,25.7939],[96.9394,25.7622],[97.0122,25.6665],[97.0091,25.6299],[96.984,25.6035],[97.0027,25.5537],[96.9646,25.517],[96.9818,25.4972],[97.0987,25.6256],[97.11,25.6644],[97.154,25.6896],[97.1533,25.7545],[97.1052,25.7785],[97.1713,25.9927],[97.1467,26.0562],[97.1866,26.072],[97.2198,26.1357],[97.2465,26.284],[97.2774,26.3369],[97.2869,26.397],[97.2566,26.4596],[97.2793,26.5315],[97.2382,26.564],[97.2225,26.5987],[97.2502,26.6038],[97.2986,26.5787],[97.3299,26.6025],[97.3563,26.7299],[97.3487,26.7931],[97.3807,26.8355],[97.3541,26.8928],[97.3529,26.9496],[97.4158,26.9656],[97.4436,27.0309],[97.4096,27.0858],[97.3433,27.1126],[97.3309,27.1521],[97.2202,27.1863],[97.205,27.2276],[97.1671,27.2568],[97.1701,27.3006],[97.1451,27.329],[96.8799,27.4422],[96.6661,27.5976],[96.2914,27.9889],[96.1838,28.0516],[96.0548,28.086],[95.8905,28.0975],[95.6726,28.0467],[95.5222,28.0381],[95.3248,28.047],[95.024,28.1021],[94.8891,28.0897],[94.7555,28.0221],[94.5207,27.837],[94.0705,27.5292],[93.7683,27.3618],[93.5059,27.2541],[93.2303,27.1661],[92.8751,27.0812],[92.6175,27.0441],[92.318,27.0455],[92.1302,27.0749],[92.0356,27.1197],[91.8853,27.265],[91.7766,27.3262],[91.4028,27.4554],[91.1442,27.4879],[90.0732,27.4683],[89.9336,27.4258],[89.6839,27.2786],[89.4826,27.2011],[89.2414,27.1568],[89.0041,27.1621],[88.7802,27.2109],[88.5978,27.3088],[88.5078,27.3966],[88.4963,27.5043],[88.5365,27.5746],[88.6204,27.6169],[88.6523,27.5904],[88.7208,27.4469],[88.7642,27.4],[88.8889,27.3725],[89.0587,27.386],[89.2308,27.4746],[89.5993,27.7977],[89.6922,27.8585],[89.9798,27.919],[90.2495,27.934],[90.6228,27.9006],[91.115,27.8024],[91.7652,27.579],[92.1692,27.4825],[92.4495,27.4397],[92.6777,27.4389],[92.8595,27.4734],[93.0593,27.5446],[93.798,27.9033],[94.3331,28.1835],[94.53,28.2613],[94.7537,28.3207],[94.9422,28.3519],[95.1358,28.3547],[95.4053,28.3281],[95.7582,28.2599],[96.2649,28.2487],[96.7558,28.1046],[97.141,28.0776],[97.4316,28.0115],[97.7576,27.871],[97.8358,27.8116],[97.9074,27.7275],[98.0,27.5307],[98.0,27.1802],[97.9406,27.1479],[98.0,27.1487],[98.0,27.0929],[97.9164,27.0623],[97.9157,27.0426],[97.9604,26.9898],[97.9367,26.9782],[97.855,26.9862],[97.8405,26.9144],[97.8537,26.8762],[97.9168,26.8629],[97.9386,26.8067],[97.9847,26.8311],[98.0,26.8126],[98.0,26.3088],[97.9534,26.2665],[97.9772,26.2225],[98.0,26.2674],[98.0,26.0579],[97.9813,26.0896],[97.9557,26.0909],[97.9531,26.0485],[97.9899,25.9657],[97.9822,25.9489],[97.9397,25.9356],[97.9374,25.8641],[97.9592,25.8384],[98.0,25.8404],[97.9999,25.7868]]],[[[97.44,25.8445],[97.388,25.7609],[97.3407,25.7318],[97.3727,25.8346],[97.3524,25.8841],[97.4208,25.8917],[97.44,25.8445]]],[[[97.9977,25.9365],[98.0,25.9499],[97.9998,25.9333],[97.9977,25.9365]]],[[[97.9977,25.9698],[98.0,25.9832],[97.9998,25.9666],[97.9977,25.9698]]],[[[97.7403,26.4105],[97.7313,26.4382],[97.7542,26.4583],[97.7752,26.4118],[97.7403,26.4105]]],[[[97.7259,26.4794],[97.7019,26.4897],[97.7333,26.5357],[97.7681,26.4908],[97.7259,26.4794]]],[[[89.1317,26.8192],[89.1156,26.8463],[89.1625,26.85],[89.1658,26.8265],[89.1317,26.8192]]],[[[98.0,26.8406],[97.9978,26.8343],[97.9958,26.8417],[98.0,26.8406]]],[[[91.7534,26.834],[91.746,26.8383],[91.7513,26.8435],[91.7534,26.834]]],[[[97.9958,26.8417],[97.9891,26.8569],[98.0,26.8584],[97.9958,26.8417]]],[[[98.0,26.9849],[97.9961,26.9885],[98.0,26.9901],[98.0,26.9849]]]]}}