{"type":"Feature","properties":{"speciesId":684,"category":"LC","source":"IUCN Red List","simplifyTol":0.01,"clippedToSubcontinent":true},"geometry":{"type":"MultiPolygon","coordinates":[[[[92.0012,21.5062],[92.0069,21.4966],[91.9976,21.5029],[92.0012,21.5062]]],[[[92.1064,22.4455],[92.1969,22.3529],[92.261,21.7847],[92.0221,21.4864],[91.9954,21.5518],[92.0389,21.6476],[92.0405,21.6722],[92.0251,21.6822],[92.0352,21.7006],[92.0181,21.7165],[92.0192,21.6685],[91.9818,21.656],[91.9796,21.7042],[91.9667,21.6781],[91.9481,21.7453],[91.9764,21.7418],[91.9924,21.7678],[91.9716,21.7472],[91.9545,21.7539],[91.9706,21.7862],[91.9424,21.8042],[91.9308,21.7855],[91.8912,21.7773],[91.9199,21.8473],[91.9095,21.9079],[91.9274,21.9345],[91.8949,21.9689],[91.8548,22.1276],[91.8345,22.1221],[91.8141,22.1798],[91.842,22.2605],[91.8138,22.3017],[91.8666,22.3221],[91.9129,22.4086],[92.0019,22.4046],[92.0349,22.4459],[92.1064,22.4455]]],[[[92.6878,23.0548],[92.8272,23.0725],[92.9767,23.0421],[93.0496,22.9712],[93.0887,22.8549],[93.0698,22.7678],[92.8545,22.6673],[92.0539,22.4993],[91.8923,22.4049],[91.8723,22.3498],[91.7955,22.2927],[91.7952,22.2778],[91.829,22.2566],[91.798,22.2196],[91.7693,22.2784],[91.7519,22.3866],[91.7001,22.4841],[91.5811,22.6536],[91.4576,22.7511],[91.4859,22.7668],[91.4692,22.7787],[91.4778,22.7633],[91.4547,22.7602],[91.4369,22.7772],[91.4746,22.8241],[91.4356,22.8048],[91.4836,22.8741],[91.4566,22.8989],[91.488,22.8981],[91.6835,22.8099],[91.8862,22.7971],[92.1187,22.9114],[92.6878,23.0548]]],[[[89.9485,23.6357],[90.0246,23.5566],[90.0179,23.5823],[90.0954,23.567],[90.1529,23.4988],[90.1557,23.431],[90.2067,23.3338],[90.17,23.3466],[90.1639,23.3639],[90.1862,23.3591],[90.1608,23.3676],[90.1665,23.3332],[90.1253,23.3055],[90.1205,23.3356],[90.1417,23.3597],[90.1445,23.3786],[90.1279,23.351],[90.0995,23.359],[90.1208,23.3473],[90.1189,23.3041],[90.093,23.3005],[90.0871,23.2728],[90.1245,23.2685],[90.1287,23.2416],[90.2023,23.2256],[90.1987,23.2096],[90.1681,23.2041],[90.1774,23.1665],[90.219,23.1829],[90.2485,23.1621],[90.2336,23.1421],[90.2452,23.1232],[90.3091,23.1128],[90.3167,23.0671],[90.2678,23.0431],[90.2726,23.0254],[90.3072,23.0209],[90.3206,22.9865],[90.2739,22.9687],[90.3537,22.9212],[90.3456,22.884],[90.3205,22.8726],[90.3213,22.8502],[90.3726,22.7652],[90.3682,22.7366],[90.4195,22.7331],[90.4167,22.7138],[90.3964,22.729],[90.3831,22.7054],[90.4003,22.7234],[90.4204,22.7086],[90.4297,22.7305],[90.4193,22.7453],[90.378,22.7401],[90.3825,22.7586],[90.4243,22.7652],[90.4692,22.7349],[90.485,22.6991],[90.4769,22.6561],[90.4961,22.6723],[90.5194,22.6294],[90.5042,22.5879],[90.5187,22.5991],[90.5723,22.541],[90.5888,22.4557],[90.1717,22.7378],[89.7401,23.7537],[89.8657,23.6554],[89.9485,23.6357]]],[[[89.7163,23.8365],[89.7079,23.8295],[89.7038,23.8393],[89.7163,23.8365]]],[[[89.7645,23.8389],[89.7149,23.8395],[89.6727,23.9124],[89.7033,23.8749],[89.7561,23.8621],[89.7645,23.8389]]],[[[92.2306,24.8086],[91.3996,24.204],[91.0881,23.8649],[91.1339,23.2601],[91.4663,22.9079],[91.4452,22.9007],[91.441,22.8836],[91.4666,22.8776],[91.4204,22.8087],[91.4177,22.7641],[91.3877,22.7668],[91.3794,22.7964],[91.3572,22.8005],[91.3301,22.8335],[91.3506,22.8515],[91.3427,22.8832],[91.3158,22.8394],[91.3525,22.7861],[91.3451,22.7758],[91.2963,22.8102],[91.1869,22.7977],[91.1164,22.8119],[91.1127,22.8262],[91.0831,22.8],[91.0287,22.7996],[90.9375,22.8561],[90.8246,22.8647],[90.8016,22.9088],[90.7578,22.9387],[90.7958,22.898],[90.7954,22.8634],[90.782,22.8584],[90.7333,22.8875],[90.6819,22.9866],[90.6235,23.0044],[90.5663,23.1036],[90.598,23.1778],[90.6524,23.2423],[90.6389,23.3166],[90.6776,23.3183],[90.6754,23.3407],[90.6978,23.3457],[90.6796,23.3628],[90.695,23.3777],[90.6733,23.3642],[90.6616,23.3375],[90.6738,23.3213],[90.5987,23.3393],[90.5796,23.3948],[90.6007,23.4314],[90.5856,23.4669],[90.6303,23.4903],[90.7039,23.4901],[90.7178,23.5428],[90.7443,23.5443],[90.7254,23.5534],[90.7084,23.5386],[90.7057,23.5618],[90.7392,23.6216],[90.7646,23.629],[90.7414,23.6621],[90.7578,23.721],[90.7425,23.6938],[90.7403,23.7242],[90.7315,23.7102],[90.7156,23.7414],[90.6818,23.6867],[90.6429,23.6899],[90.6324,23.6392],[90.5531,23.5715],[90.5147,23.5814],[90.505,23.6033],[90.4839,23.5866],[90.4539,23.6149],[90.4703,23.6298],[90.4427,23.6684],[90.368,23.7186],[90.3837,23.7022],[90.3658,23.7034],[90.3421,23.7401],[90.3176,23.735],[90.3128,23.7642],[90.2548,23.7303],[90.2571,23.7757],[90.2298,23.8877],[90.2396,23.827],[90.194,23.8405],[90.1518,23.8291],[90.1319,23.8674],[90.1117,23.8736],[90.1104,23.8573],[90.0572,23.8201],[90.047,23.8255],[90.0625,23.8769],[90.0468,23.8894],[90.0262,23.8817],[90.0227,23.9072],[89.9481,23.9709],[89.9523,23.9846],[89.9328,23.9846],[89.9487,23.9598],[89.9378,23.9554],[90.0192,23.8936],[90.0144,23.8769],[90.0547,23.8732],[90.0409,23.8278],[90.0466,23.8174],[90.0691,23.8163],[90.0887,23.83],[90.1247,23.8071],[90.1837,23.8023],[90.2068,23.8157],[90.2226,23.8004],[90.2415,23.8149],[90.2059,23.7537],[90.221,23.7216],[90.2524,23.721],[90.2746,23.6862],[90.2557,23.7074],[90.2383,23.7112],[90.2208,23.7081],[90.1813,23.7401],[90.1924,23.7203],[90.1626,23.7198],[90.1492,23.7107],[90.1219,23.7371],[90.0698,23.7579],[90.0232,23.7635],[90.0245,23.7952],[90.0021,23.816],[90.0195,23.7627],[90.1205,23.7334],[90.1497,23.7043],[90.1739,23.7165],[90.2205,23.7031],[90.2477,23.7076],[90.276,23.6548],[90.3797,23.6165],[90.4018,23.5883],[90.3789,23.5678],[90.4098,23.5802],[90.4377,23.5451],[90.5054,23.5721],[90.5302,23.5669],[90.5701,23.4832],[90.538,23.4837],[90.5539,23.4263],[90.5248,23.3913],[90.4858,23.4204],[90.4204,23.4161],[90.2542,23.4608],[90.1641,23.5242],[90.1103,23.6129],[89.97,23.6581],[89.9179,23.7216],[89.8058,23.7917],[89.7878,23.8166],[89.7742,23.8995],[89.7688,23.8876],[89.7046,23.9579],[89.7275,23.9776],[89.7208,24.0],[89.7153,23.9718],[89.6983,23.9645],[89.7051,23.9991],[89.6707,24.0],[89.6605,23.9412],[89.001,25.4936],[89.0037,25.5799],[89.0631,25.6771],[89.1419,25.6747],[89.8319,25.3087],[89.8449,25.2891],[89.8771,25.2847],[90.1684,25.1303],[90.5174,25.0597],[92.1045,25.0205],[92.1515,25.0043],[92.2468,24.8518],[92.2306,24.8086]]],[[[81.2141,29.6565],[81.2755,29.5914],[81.3546,29.4311],[81.4051,29.4006],[81.4862,29.4342],[81.7211,29.6518],[81.8351,29.7166],[81.8993,29.7192],[82.0042,29.6962],[82.2073,29.6071],[82.23,29.5793],[82.2135,29.5598],[81.9384,29.4887],[81.8542,29.4291],[81.8186,29.3509],[81.7998,29.2487],[81.8006,29.1366],[81.8214,29.0421],[81.8647,28.9818],[81.9474,28.9677],[82.3632,29.0657],[82.5103,29.0797],[82.8155,29.0348],[82.9891,28.9773],[82.9829,28.9597],[82.9306,28.9402],[82.4709,28.8476],[82.3472,28.8002],[82.3458,28.7653],[82.3871,28.7208],[82.5849,28.6131],[82.9378,28.4918],[83.2524,28.4345],[83.4036,28.4458],[83.7499,28.5323],[83.8984,28.5345],[84.0313,28.4962],[84.3675,28.3466],[84.6707,28.2935],[84.8294,28.3112],[84.9921,28.439],[85.0517,28.4518],[85.1034,28.4062],[85.2139,28.2157],[85.2902,28.1573],[85.4186,28.1102],[86.0108,27.9598],[86.2326,27.8558],[86.3599,27.7771],[86.4197,27.7148],[86.4368,27.6543],[86.3327,27.4757],[86.3321,27.4497],[86.6346,27.6301],[86.7429,27.6582],[86.7987,27.6014],[86.8908,27.3382],[86.9345,27.2955],[86.9983,27.3686],[87.2016,27.7949],[87.2599,27.8552],[87.3789,27.8689],[87.4572,27.8385],[87.4798,27.7619],[87.4835,27.5517],[87.512,27.5082],[87.5853,27.5421],[87.7942,27.726],[87.8569,27.7456],[87.883,27.7008],[87.9152,27.517],[88.0119,27.3378],[88.0304,27.2692],[88.0108,27.215],[87.8819,27.118],[87.8645,27.0819],[87.9008,27.0549],[88.112,26.9836],[88.1486,26.9204],[88.1389,26.8984],[88.1761,26.8652],[88.189,26.7382],[88.163,26.6363],[88.1325,26.601],[88.1327,26.5733],[88.108,26.5606],[88.1141,26.5448],[88.0929,26.5067],[88.1083,26.4891],[88.099,26.4434],[87.9948,26.3757],[87.9942,26.3922],[87.9512,26.4076],[87.9246,26.5022],[87.8816,26.5165],[87.7062,26.4276],[87.6802,26.4351],[87.6809,26.4155],[87.6534,26.4013],[87.5902,26.3844],[87.5106,26.4324],[87.4659,26.5142],[87.4341,26.5321],[87.3893,26.5021],[87.2919,26.3734],[87.2748,26.3723],[87.2686,26.4053],[87.2504,26.4136],[87.1497,26.4109],[87.0884,26.4836],[87.0743,26.5855],[87.0473,26.587],[87.0195,26.5347],[86.9351,26.5165],[86.8396,26.4425],[86.7716,26.4591],[86.7466,26.4341],[86.6342,26.4777],[86.537,26.5715],[86.3891,26.6696],[86.3159,26.6765],[86.1989,26.6007],[86.1945,26.6144],[86.162,26.6133],[86.082,26.6959],[86.0443,26.7139],[85.9886,26.6932],[85.8565,26.5847],[85.8533,26.6095],[85.8198,26.6025],[85.8022,26.6244],[85.7492,26.6396],[85.7258,26.6739],[85.731,26.8068],[85.7471,26.8476],[85.7279,26.8732],[85.6503,26.8925],[85.5426,26.8923],[85.4864,26.8643],[85.3771,26.7606],[85.3363,26.7414],[85.2247,26.7599],[85.1892,26.8253],[85.1977,26.8666],[85.1543,26.8704],[85.0274,26.9557],[84.8248,27.021],[84.7897,27.0036],[84.7748,27.0175],[84.7589,27.0027],[84.6449,27.0472],[84.6485,27.0754],[84.6764,27.0955],[84.6931,27.2148],[84.622,27.3382],[84.2934,27.385],[84.2562,27.4519],[84.2106,27.4423],[84.1816,27.5098],[84.152,27.531],[84.093,27.5159],[83.9796,27.4393],[83.9333,27.4494],[83.8745,27.4309],[83.8847,27.391],[83.838,27.388],[83.7589,27.4038],[83.3437,27.5845],[83.3418,27.5568],[83.4041,27.479],[83.3909,27.4795],[83.404,27.4575],[83.3863,27.4369],[83.4117,27.4125],[83.3612,27.343],[83.2965,27.334],[83.2677,27.3654],[83.2742,27.3834],[83.1902,27.454],[82.9531,27.4708],[82.9316,27.5009],[82.7656,27.5009],[82.7474,27.5617],[82.7579,27.5866],[82.7459,27.6021],[82.7494,27.7623],[82.7278,27.8053],[82.6635,27.7885],[82.5279,27.6877],[82.4507,27.6786],[82.3478,27.7509],[82.3277,27.841],[82.2588,27.8921],[81.9931,27.9291],[81.9701,27.9288],[81.9505,27.9052],[81.8002,27.9085],[81.704,27.9865],[81.6259,28.0015],[81.5136,28.0667],[81.4488,28.1602],[81.4117,28.1745],[81.221,28.3605],[80.8955,28.5392],[80.6158,28.7454],[80.5625,28.7657],[80.5225,28.7615],[80.4977,28.7369],[80.4553,28.6263],[80.4164,28.6391],[80.3733,28.629],[80.3276,28.6663],[80.3185,28.7001],[80.2579,28.7293],[80.2636,28.7489],[80.2261,28.757],[80.1992,28.8161],[80.0767,28.8244],[80.0663,28.8373],[80.0601,28.9163],[80.1019,28.9864],[80.1196,28.9817],[80.1373,29.0073],[80.1263,29.013],[80.1376,29.0591],[80.3051,29.1533],[80.3524,29.2032],[80.3549,29.2731],[80.2884,29.4772],[80.3513,29.5189],[80.3598,29.5319],[80.3444,29.5529],[80.3805,29.5613],[80.4095,29.5949],[80.4219,29.6391],[80.3912,29.6682],[80.4578,29.7223],[80.6208,29.8059],[80.7894,29.8177],[81.0205,29.7633],[81.2141,29.6565]],[[87.2672,27.8501],[87.2629,27.8507],[87.2663,27.8495],[87.2672,27.8501]],[[87.2513,27.8431],[87.2525,27.8429],[87.2629,27.8507],[87.2513,27.8431]]],[[[72.551,31.3747],[73.2925,30.9967],[73.5565,30.9022],[73.7251,30.8219],[73.9767,30.7534],[74.1489,30.7298],[74.1884,30.7002],[74.1999,30.6672],[74.0223,30.5997],[73.7208,30.5871],[73.4265,30.6425],[73.137,30.7327],[72.8567,30.8612],[72.6948,30.9664],[72.4744,31.2106],[72.4099,31.3513],[72.4524,31.3875],[72.551,31.3747]]]]}}