{"type":"Feature","properties":{"speciesId":685,"category":"LC","source":"IUCN Red List","simplifyTol":0.01,"clippedToSubcontinent":true},"geometry":{"type":"Polygon","coordinates":[[[73.5375,16.2902],[73.6117,16.1846],[73.6663,16.0048],[73.7723,15.8225],[73.796,15.8118],[73.8865,15.8192],[73.9761,15.6836],[74.0323,15.6326],[74.1895,15.6728],[74.2382,15.6526],[74.2693,15.6183],[74.2933,15.5292],[74.297,15.3211],[74.2834,15.1527],[74.2459,14.9893],[74.2565,14.9113],[74.3262,14.7967],[74.5118,14.6118],[74.6221,14.4536],[74.992,13.7074],[75.1986,13.3727],[75.3122,13.2557],[75.3868,13.2195],[75.743,13.3282],[75.7885,13.3168],[75.5534,13.1387],[75.4309,12.9469],[75.3428,12.6625],[75.3043,12.4622],[75.2888,12.2133],[75.2378,12.0763],[75.1583,12.0925],[75.0642,12.3432],[75.0296,12.3922],[75.0386,12.4111],[75.0229,12.3997],[75.0063,12.4371],[75.0153,12.4446],[74.9979,12.4456],[74.953,12.5389],[74.9118,12.7031],[74.8661,12.7421],[74.8249,12.8316],[74.689,13.5619],[74.6428,13.6709],[74.6058,13.8523],[74.617,13.8574],[74.5675,13.9451],[74.5278,13.9626],[74.505,14.0011],[74.4657,14.1827],[74.4092,14.308],[74.3952,14.419],[74.3765,14.4165],[74.3515,14.5157],[74.3052,14.5196],[74.2911,14.5934],[74.2635,14.6245],[74.2946,14.6402],[74.2751,14.6467],[74.2647,14.7201],[74.1216,14.8196],[74.1249,14.8405],[74.1079,14.8451],[74.0912,14.8945],[74.0369,14.9199],[74.0487,14.9568],[74.0298,14.9815],[74.0461,14.9869],[73.9857,15.0225],[73.9786,15.0504],[73.95,15.0729],[73.9051,15.0871],[73.9458,15.1408],[73.8821,15.3452],[73.834,15.4103],[73.8757,15.3984],[73.8899,15.4192],[73.8764,15.4337],[73.8584,15.4258],[73.845,15.4491],[73.809,15.4528],[73.8001,15.4762],[73.8177,15.5046],[73.7817,15.4969],[73.7301,15.5838],[73.731,15.6146],[73.6872,15.7154],[73.6509,15.7384],[73.655,15.7734],[73.5838,15.9077],[73.4981,15.9512],[73.5097,15.9913],[73.4955,15.985],[73.4563,16.0581],[73.4839,16.0698],[73.4595,16.0759],[73.4705,16.113],[73.4608,16.0941],[73.4377,16.1936],[73.4522,16.2253],[73.428,16.2044],[73.4118,16.2564],[73.4119,16.2734],[73.4392,16.2897],[73.4041,16.2867],[73.4207,16.3455],[73.4415,16.3596],[73.5375,16.2902]]]}}