{"type":"Feature","properties":{"speciesId":686,"category":"LC","source":"IUCN Red List","simplifyTol":0.01,"clippedToSubcontinent":true},"geometry":{"type":"MultiPolygon","coordinates":[[[[76.4747,9.1053],[76.4849,9.1162],[76.4924,9.1665],[76.4746,9.1619],[76.4702,9.1417],[76.4292,9.2481],[76.4206,9.2333],[76.4529,9.1457],[76.3263,9.4527],[76.2452,9.9573],[76.2153,10.0065],[76.1682,10.179],[76.1523,10.1795],[76.1234,10.3191],[76.0403,10.5157],[76.0463,10.5321],[76.0227,10.5382],[75.9318,10.7398],[75.9253,10.7887],[75.9109,10.7992],[75.9101,10.7838],[75.8323,11.1256],[75.7943,11.1648],[75.7296,11.3317],[75.7339,11.3533],[75.6882,11.4328],[75.6157,11.477],[75.5837,11.5601],[75.5963,11.5356],[75.5913,11.5624],[75.6038,11.5628],[75.5809,11.5728],[75.5294,11.6964],[75.5384,11.7052],[75.5174,11.7092],[75.4718,11.7679],[75.4536,11.7669],[75.3826,11.8528],[75.3557,11.8559],[75.2459,12.0074],[75.2268,12.0212],[75.2,12.0033],[75.1874,12.0481],[75.1756,12.0465],[75.0642,12.3432],[75.0299,12.391],[75.0381,12.4117],[75.0236,12.3988],[75.0065,12.4316],[75.0147,12.4454],[74.996,12.4475],[74.9675,12.5003],[74.8909,12.7066],[74.8256,12.8276],[74.7779,13.0293],[74.7774,13.0933],[74.7698,13.0781],[74.6895,13.3543],[74.665,13.6414],[74.6426,13.6716],[74.6049,13.8409],[74.617,13.8574],[74.5963,13.8732],[74.5675,13.9452],[74.5265,13.9629],[74.5075,13.9931],[74.4658,14.1823],[74.4411,14.2072],[74.4034,14.3296],[74.3951,14.4191],[74.3762,14.417],[74.3511,14.5159],[74.3052,14.5195],[74.2911,14.5934],[74.2635,14.6242],[74.2946,14.64],[74.2742,14.6487],[74.2766,14.6756],[74.2539,14.706],[74.2638,14.7101],[74.2648,14.7199],[74.2211,14.7463],[74.1962,14.7184],[74.1712,14.7483],[74.1476,14.7465],[74.1385,14.7759],[74.1045,14.7835],[74.0914,14.8036],[74.1179,14.804],[74.1251,14.84],[74.1072,14.8461],[74.0909,14.8949],[74.0376,14.9183],[74.0487,14.9568],[74.0299,14.9806],[74.0475,14.985],[73.9851,15.023],[73.9808,15.048],[73.9501,15.0728],[73.9052,15.087],[73.946,15.1421],[73.8868,15.3346],[73.8652,15.3684],[73.8344,15.3615],[73.7794,15.4082],[73.8738,15.398],[73.8896,15.4204],[73.8749,15.4341],[73.8576,15.4268],[73.8455,15.4489],[73.7826,15.4561],[73.8193,15.502],[73.7577,15.4933],[73.7307,15.6177],[73.6848,15.7195],[73.6498,15.74],[73.6549,15.7738],[73.6204,15.8507],[73.5847,15.907],[73.5001,15.9459],[73.5096,15.9917],[73.4953,15.9853],[73.4819,16.034],[73.4563,16.0581],[73.4835,16.0689],[73.459,16.0793],[73.4716,16.1099],[73.4618,16.1155],[73.4578,16.0962],[73.4375,16.1914],[73.4523,16.225],[73.4279,16.2045],[73.411,16.2607],[73.4388,16.2898],[73.4065,16.2804],[73.3864,16.3627],[73.3701,16.3623],[73.3707,16.3888],[73.3965,16.3907],[73.4084,16.4087],[73.3682,16.4005],[73.3578,16.4335],[73.3816,16.448],[73.352,16.4476],[73.3153,16.5183],[73.3156,16.5515],[73.3376,16.56],[73.3584,16.52],[73.3491,16.5085],[73.3716,16.5147],[73.352,16.5369],[73.3563,16.5659],[73.3168,16.5976],[73.3486,16.5979],[73.3594,16.6258],[73.3365,16.621],[73.3215,16.6383],[73.3427,16.6913],[73.3167,16.6952],[73.3003,16.7517],[73.318,16.8011],[73.2944,16.8138],[73.2847,16.8773],[73.3048,16.8852],[73.2761,16.8895],[73.2818,16.9472],[73.3058,16.973],[73.268,16.9875],[73.2785,17.0047],[73.2539,17.0381],[73.2687,17.0408],[73.2918,17.0067],[73.2815,17.0367],[73.3264,17.029],[73.2795,17.0449],[73.2914,17.0701],[73.2683,17.1478],[73.2316,17.1964],[73.244,17.2156],[73.1899,17.303],[73.2207,17.308],[73.2574,17.2597],[73.2632,17.288],[73.2972,17.2841],[73.2892,17.2951],[73.2369,17.2909],[73.2076,17.3815],[73.1713,17.4022],[73.198,17.4391],[73.184,17.4968],[73.141,17.5508],[73.1706,17.5857],[73.1468,17.6054],[73.1207,17.6803],[73.1356,17.7145],[73.1276,17.7484],[73.0559,17.925],[73.0343,17.9437],[73.0412,17.9777],[73.0067,18.0162],[73.0315,18.0229],[73.0447,18.0396],[73.025,18.03],[73.0288,18.0462],[73.0147,18.0259],[72.9932,18.0562],[72.9977,18.0778],[72.9722,18.123],[72.9884,18.1524],[72.9802,18.1951],[72.9313,18.2185],[72.943,18.2319],[72.9378,18.2773],[72.9667,18.2715],[72.9787,18.2407],[73.0526,18.2259],[73.0698,18.1969],[73.0782,18.2298],[73.0525,18.2857],[73.0461,18.2674],[73.025,18.2652],[72.9117,18.3524],[72.9274,18.3815],[72.8896,18.4598],[72.9068,18.4943],[72.9045,18.5381],[72.9214,18.5286],[72.962,18.5413],[72.9164,18.552],[72.8853,18.6211],[72.8847,18.6347],[72.8981,18.6313],[72.8689,18.6404],[72.8569,18.6741],[72.8686,18.802],[72.9152,18.7926],[72.9368,18.8237],[72.9913,18.776],[72.9865,18.8055],[73.0574,18.8018],[72.9879,18.8124],[72.983,18.8622],[72.9386,18.8468],[72.907,18.8927],[72.925,18.9098],[72.9394,18.8913],[72.9543,18.9158],[72.9457,18.9421],[72.9775,18.9464],[72.9533,18.9698],[73.091,18.9988],[73.0667,19.0145],[73.0846,19.0315],[73.0648,19.0302],[73.0907,19.0443],[73.0054,19.0057],[72.9844,19.0706],[72.995,19.0879],[72.9753,19.111],[72.9765,19.1707],[72.9666,19.1367],[72.9527,19.1394],[72.9572,19.1081],[72.9308,19.0908],[72.9483,19.0694],[72.9137,19.0747],[72.9518,19.0434],[72.904,18.9941],[72.8785,19.0226],[72.8563,19.0086],[72.8297,18.917],[72.8027,18.8985],[72.8211,18.9287],[72.8142,18.9502],[72.7919,18.9449],[72.811,19.0177],[72.8593,19.0609],[72.8163,19.0495],[72.8248,19.087],[72.8097,19.1415],[72.7856,19.1404],[72.7807,19.1653],[72.8011,19.1971],[72.778,19.1928],[72.786,19.3038],[72.851,19.3161],[72.9155,19.2925],[72.8532,19.3426],[72.8019,19.3316],[72.7584,19.3755],[72.7663,19.3959],[72.7441,19.46],[72.7575,19.4797],[72.7167,19.5831],[72.7451,19.6032],[72.7286,19.6103],[72.7084,19.6707],[72.7003,19.728],[72.715,19.7465],[72.6906,19.7526],[72.6907,19.7949],[72.7058,19.8095],[72.6858,19.8044],[72.6593,19.8398],[72.6859,19.8732],[72.6717,19.9371],[72.6999,19.9625],[72.7256,19.9667],[72.7606,19.9239],[72.7449,19.9686],[72.7216,19.9802],[72.7064,20.0656],[72.7328,20.0998],[72.7451,20.1954],[72.7795,20.2081],[72.7396,20.2075],[72.7489,20.2815],[72.7819,20.342],[72.8173,20.3634],[72.825,20.4406],[72.8872,20.5054],[72.8755,20.5207],[72.8947,20.5298],[72.8826,20.546],[72.8926,20.5845],[72.8747,20.6443],[72.9029,20.5966],[72.8872,20.6372],[72.9016,20.6432],[72.897,20.7015],[72.9084,20.7113],[72.891,20.7209],[72.9225,20.755],[72.953,20.7589],[72.9397,20.7769],[72.918,20.7695],[72.9189,20.7891],[72.886,20.7873],[72.8746,20.8012],[72.8953,20.8143],[72.8742,20.828],[72.8945,20.8667],[72.8259,20.83],[72.8549,20.8594],[72.8242,20.8833],[72.8353,20.9066],[72.8492,20.9042],[72.8242,20.9204],[72.8826,20.955],[72.8773,20.9723],[72.893,20.9853],[72.8327,20.9728],[72.8374,20.9867],[72.8052,20.987],[72.827,21.014],[72.765,21.0038],[72.7424,20.9787],[72.7676,20.9283],[72.7395,20.9708],[72.7216,21.0567],[72.7457,21.0279],[72.7864,21.0463],[72.807,21.0247],[72.8569,21.0389],[72.8425,21.0534],[72.8556,21.0665],[72.8322,21.0546],[72.8386,21.0696],[72.8226,21.0884],[72.8436,21.1114],[72.8195,21.0979],[72.8304,21.1147],[72.8083,21.1302],[72.8313,21.1674],[72.8078,21.1527],[72.8019,21.1243],[72.7907,21.1449],[72.7877,21.11],[72.7637,21.1228],[72.7573,21.1045],[72.7455,21.1274],[72.7188,21.1025],[72.7294,21.0775],[72.702,21.0932],[72.7041,21.1343],[72.7278,21.1438],[72.7055,21.1614],[72.6691,21.1556],[72.6471,21.0848],[72.6251,21.0907],[72.6174,21.1381],[72.6304,21.1282],[72.6467,21.1489],[72.63,21.1334],[72.6221,21.1445],[72.6194,21.2074],[72.6819,21.2196],[72.6435,21.2496],[72.6299,21.2411],[72.6502,21.2826],[72.6207,21.293],[72.6196,21.3109],[72.656,21.3191],[72.6707,21.3426],[72.7367,21.3242],[72.6965,21.3547],[72.7001,21.3725],[72.675,21.3486],[72.6646,21.3689],[72.6531,21.3495],[72.6463,21.3615],[72.6943,21.4656],[72.6696,21.4456],[72.6379,21.45],[72.7386,21.564],[72.8134,21.61],[72.8363,21.6642],[72.919,21.6477],[73.0366,21.7003],[73.0948,21.7064],[73.1094,21.7245],[73.0685,21.7343],[72.9402,21.6747],[72.8736,21.6883],[72.7814,21.66],[72.738,21.6861],[72.5389,21.6601],[72.5303,21.7188],[72.5459,21.6942],[72.5765,21.7062],[72.5619,21.7192],[72.5657,21.7327],[72.5993,21.715],[72.5853,21.7281],[72.6034,21.7569],[72.5986,21.794],[72.6403,21.8189],[72.6554,21.8922],[72.6754,21.8881],[72.6775,21.9115],[72.6873,21.8861],[72.7223,21.884],[72.7193,21.9327],[72.7787,21.9521],[72.7461,21.9878],[72.7712,22.0011],[72.7753,22.017],[72.736,21.9915],[72.7188,22.0211],[72.7089,21.9811],[72.6931,21.9849],[72.6999,21.9716],[72.648,21.9606],[72.6492,21.987],[72.6371,22.0028],[72.6401,21.9549],[72.6277,21.9694],[72.6326,21.9536],[72.5483,21.9024],[72.5269,21.9049],[72.5043,21.9417],[72.5165,21.9602],[72.5079,21.9995],[72.5471,22.1571],[72.6085,22.2147],[72.6597,22.2121],[72.742,22.1758],[72.7655,22.1909],[72.7585,22.2146],[72.7118,22.2444],[72.6128,22.2669],[72.6486,22.2634],[72.6346,22.2751],[72.5685,22.2645],[72.6172,22.2847],[72.5739,22.2755],[72.5413,22.2408],[72.4988,22.2385],[72.4792,22.2204],[72.4927,22.2643],[72.4591,22.2132],[72.4149,22.2147],[72.4247,22.2006],[72.4099,22.1529],[72.3809,22.1541],[72.3883,22.1926],[72.369,22.1812],[72.3686,22.1448],[72.364,22.1817],[72.3915,22.1988],[72.3706,22.1933],[72.3822,22.2303],[72.3705,22.2847],[72.4012,22.3255],[72.3609,22.3166],[72.3419,22.2572],[72.3386,22.3066],[72.3309,22.2979],[72.3458,22.2229],[72.3197,22.2093],[72.3132,22.1867],[72.2992,22.1981],[72.3028,22.2313],[72.2922,22.2127],[72.3202,22.1333],[72.2782,22.0847],[72.2937,22.0757],[72.2419,22.0032],[72.2554,21.8204],[72.2384,21.7957],[72.2193,21.8161],[72.2079,21.8069],[72.3026,21.6244],[72.2136,21.4249],[72.114,21.3046],[72.0758,21.3229],[72.1088,21.2929],[72.0986,21.2799],[72.0885,21.289],[72.0981,21.2638],[72.0773,21.253],[72.1068,21.2035],[72.0018,21.1392],[71.8965,21.1145],[71.8777,21.0922],[71.8091,21.0699],[71.7914,21.0517],[71.8046,21.0393],[71.6478,20.9979],[71.6318,20.9885],[71.6363,20.974],[71.5649,20.9506],[71.5217,20.9511],[71.4681,20.8818],[71.3946,20.8617],[71.3827,20.8716],[71.3795,20.8514],[71.2134,20.8039],[71.1421,20.7544],[71.0915,20.7529],[71.0521,20.7314],[71.0017,20.7356],[70.985,20.7222],[70.9926,20.705],[70.8528,20.7056],[70.8289,20.6876],[70.6936,20.7416],[70.6755,20.7558],[70.6821,20.7773],[70.6588,20.7575],[70.6447,20.7736],[70.6116,20.7677],[70.4401,20.8516],[70.4112,20.8724],[70.4255,20.8806],[70.3416,20.9119],[70.1411,21.0595],[70.1483,21.08],[70.1301,21.0818],[70.0126,21.189],[69.7325,21.5041],[69.5946,21.6332],[69.5995,21.6523],[69.5761,21.6375],[69.4094,21.7838],[69.3692,21.8245],[69.388,21.8526],[69.3525,21.8344],[69.2328,21.9396],[69.2011,21.977],[69.204,21.9978],[69.1876,21.9874],[68.9552,22.2403],[68.9351,22.3021],[68.9614,22.3814],[69.0077,22.4352],[69.0699,22.474],[69.0821,22.4641],[69.0443,22.4324],[69.058,22.3959],[69.0898,22.3898],[69.1105,22.4075],[69.1375,22.3988],[69.1917,22.4169],[69.2014,22.3983],[69.1785,22.3749],[69.1599,22.3107],[69.1855,22.2773],[69.231,22.2597],[69.3155,22.2895],[69.3324,22.3265],[69.4119,22.3175],[69.4475,22.3335],[69.4542,22.3156],[69.4955,22.3659],[69.5197,22.3726],[69.5138,22.4256],[69.5504,22.3983],[69.5548,22.3777],[69.5383,22.3776],[69.5903,22.3593],[69.5761,22.341],[69.5866,22.3334],[69.6006,22.3544],[69.6184,22.3465],[69.6215,22.365],[69.643,22.3555],[69.6694,22.3966],[69.694,22.3964],[69.7225,22.4761],[69.7319,22.4396],[69.7491,22.4297],[69.7532,22.4416],[69.7951,22.3998],[69.82,22.4559],[69.8666,22.4509],[69.9032,22.4692],[69.9275,22.5092],[69.9582,22.4968],[69.9445,22.5223],[69.9659,22.5364],[70.0382,22.5543],[70.1157,22.5457],[70.1746,22.5577],[70.2425,22.6832],[70.2654,22.6887],[70.2379,22.6948],[70.2558,22.7096],[70.2503,22.7313],[70.2959,22.7437],[70.3114,22.8055],[70.361,22.8838],[70.4428,22.9594],[70.4881,23.0866],[70.4069,23.0357],[70.4021,23.0612],[70.3724,23.0596],[70.3624,23.0402],[70.3945,23.0064],[70.2961,22.9445],[70.231,22.9733],[70.21,22.9468],[70.1563,22.942],[70.121,22.9588],[70.1318,22.9824],[70.121,22.9852],[70.1031,22.9611],[70.1328,22.9343],[70.0938,22.9023],[70.0646,22.913],[69.8092,22.8468],[69.7917,22.821],[69.7346,22.7994],[69.7167,22.7538],[69.6943,22.7644],[69.7061,22.7366],[69.6483,22.7603],[69.6287,22.8024],[69.6363,22.7686],[69.6022,22.7735],[69.6036,22.7558],[69.5643,22.7664],[69.554,22.7988],[69.5038,22.7837],[69.4543,22.8003],[69.4928,22.776],[69.4675,22.7707],[69.3634,22.8159],[69.361,22.8321],[69.279,22.8226],[69.1969,22.8336],[68.9337,22.9834],[68.8538,23.0371],[68.8517,23.0542],[68.8375,23.0444],[68.81,23.0734],[68.8007,23.0647],[68.749,23.0855],[68.7742,23.1216],[68.7664,23.1303],[68.7321,23.1037],[68.6425,23.1574],[68.6333,23.1772],[68.6804,23.1421],[68.7255,23.1477],[68.6558,23.1671],[68.6515,23.1936],[68.6235,23.1864],[68.5834,23.2232],[68.5848,23.2402],[68.6457,23.2582],[68.6213,23.2879],[68.6508,23.2988],[68.6151,23.2989],[68.6114,23.2717],[68.5867,23.2509],[68.5406,23.2656],[68.5428,23.2868],[68.5588,23.2883],[68.5518,23.3114],[68.5858,23.3059],[68.5855,23.3205],[68.6147,23.3231],[68.6216,23.334],[68.6178,23.351],[68.6132,23.3273],[68.5591,23.345],[68.5178,23.318],[68.5017,23.3482],[68.4781,23.349],[68.5052,23.396],[68.4945,23.4009],[68.5192,23.4176],[68.4891,23.4187],[68.4737,23.3863],[68.4302,23.4226],[68.4368,23.3885],[68.389,23.429],[68.3916,23.4574],[68.4474,23.4757],[68.4182,23.5332],[68.4551,23.5714],[68.4396,23.5681],[68.4675,23.6017],[68.4739,23.6409],[68.5463,23.7134],[68.6228,23.7512],[68.6575,23.7988],[68.68,23.7917],[68.7201,23.8277],[68.7665,23.8426],[68.7822,23.8589],[68.7697,23.8759],[68.7704,23.8563],[68.7284,23.8371],[68.6557,23.8399],[68.5267,23.7462],[68.5188,23.7733],[68.4908,23.733],[68.4285,23.7317],[68.3771,23.6227],[68.3831,23.6082],[68.2983,23.5662],[68.2649,23.5688],[68.2712,23.6206],[68.2589,23.6396],[68.2259,23.6472],[68.2673,23.6594],[68.3252,23.7286],[68.2916,23.7254],[68.2882,23.7038],[68.2396,23.6712],[68.1867,23.7227],[68.2116,23.7719],[68.2067,23.8365],[68.2229,23.8316],[68.2402,23.8494],[68.2547,23.8354],[68.2669,23.8364],[68.2569,23.8787],[68.275,23.9184],[68.3197,23.918],[68.2887,23.9376],[68.2286,23.8951],[68.1856,23.8864],[68.1903,23.8512],[68.1364,23.8697],[68.1397,23.8395],[68.104,23.8557],[68.1033,23.8425],[68.0733,23.8345],[68.0486,23.863],[68.0553,23.903],[68.0362,23.9103],[68.0277,23.8684],[68.0445,23.7941],[68.0112,23.7847],[67.9494,23.8135],[67.9204,23.8517],[67.93,23.8291],[67.8695,23.8618],[67.8665,23.9091],[67.9024,23.9621],[67.8952,23.9754],[67.8444,23.9068],[67.8361,23.8248],[67.8216,23.8115],[67.7075,23.8563],[67.7501,23.8013],[67.6509,23.7947],[67.6269,23.8088],[67.6278,23.8415],[67.5825,23.8403],[67.5765,23.8888],[67.5629,23.8684],[67.5389,23.8922],[67.5316,23.8747],[67.4697,23.9031],[67.4629,23.9208],[67.491,23.9145],[67.4859,23.9369],[67.4661,23.9453],[67.5041,23.9669],[67.4843,23.9737],[67.4234,23.9444],[67.4364,23.9908],[67.4082,24.0004],[67.4235,24.0051],[67.4111,24.045],[67.4388,24.0657],[67.4184,24.0877],[67.4485,24.1181],[67.4093,24.0847],[67.4048,24.0493],[67.3926,24.0475],[67.3613,24.1307],[67.4169,24.1231],[67.4245,24.1299],[67.3698,24.1373],[67.3344,24.1723],[67.3545,24.183],[67.3346,24.2095],[67.3412,24.2346],[67.3993,24.2343],[67.4223,24.2099],[67.4301,24.2161],[67.4324,24.2464],[67.4227,24.2169],[67.4146,24.2339],[67.3517,24.2517],[67.3572,24.2731],[67.3905,24.2755],[67.3933,24.2874],[67.3581,24.2835],[67.3245,24.2453],[67.2952,24.3021],[67.3296,24.334],[67.3601,24.291],[67.3385,24.3327],[67.3474,24.343],[67.4099,24.3113],[67.4424,24.3162],[67.4505,24.3326],[67.4894,24.3217],[67.513,24.3423],[67.529,24.3339],[67.5124,24.3525],[67.4865,24.326],[67.4551,24.3421],[67.4355,24.3224],[67.3667,24.3505],[67.3728,24.3886],[67.4164,24.3872],[67.4249,24.3602],[67.4291,24.3903],[67.4154,24.4015],[67.3571,24.3872],[67.3489,24.4004],[67.4163,24.4366],[67.4622,24.4236],[67.4728,24.427],[67.3926,24.4498],[67.3709,24.4363],[67.3836,24.454],[67.3604,24.4604],[67.3943,24.4832],[67.4219,24.4644],[67.4544,24.4628],[67.435,24.4799],[67.4197,24.472],[67.4041,24.5021],[67.4118,24.5217],[67.3912,24.5148],[67.4024,24.4936],[67.3722,24.4706],[67.3092,24.4595],[67.3293,24.4856],[67.351,24.4776],[67.3679,24.5289],[67.3993,24.5271],[67.3981,24.547],[67.359,24.5408],[67.3646,24.5597],[67.4138,24.5857],[67.4396,24.5746],[67.4088,24.5899],[67.326,24.5487],[67.3048,24.5523],[67.3156,24.5594],[67.2997,24.5822],[67.32,24.5756],[67.3233,24.5908],[67.3714,24.6083],[67.3839,24.6378],[67.4151,24.6494],[67.4407,24.6405],[67.4531,24.6533],[67.4208,24.6708],[67.4343,24.6968],[67.3943,24.7035],[67.3509,24.743],[67.3494,24.7631],[67.376,24.7763],[67.4252,24.7688],[67.4501,24.7768],[67.4671,24.7542],[67.463,24.7775],[67.3756,24.7834],[67.3302,24.7711],[67.2777,24.7899],[67.2462,24.7846],[67.2173,24.8144],[67.1716,24.7805],[67.156,24.7938],[67.1219,24.7789],[67.1056,24.7978],[67.1023,24.7781],[67.0906,24.7921],[67.0917,24.7571],[67.0181,24.8102],[66.9753,24.8112],[66.974,24.8303],[66.9607,24.8306],[66.9829,24.8572],[66.9558,24.861],[66.912,24.8455],[66.9574,24.8262],[66.9817,24.7975],[66.9744,24.7887],[66.8624,24.8568],[66.8177,24.8341],[66.7543,24.8438],[66.6847,24.8216],[66.6522,24.828],[66.6708,24.8674],[66.7224,24.8913],[66.6869,24.8927],[66.6755,24.9255],[66.702,24.9529],[66.6939,24.9947],[66.7137,25.0413],[66.7045,25.0857],[66.7435,25.1756],[66.678,25.2714],[66.5508,25.3631],[66.5539,25.3923],[66.5797,25.3733],[66.5773,25.4091],[66.5943,25.4261],[66.5598,25.4535],[66.5569,25.5395],[66.5303,25.5412],[66.5158,25.5637],[66.5426,25.6122],[66.5395,25.6441],[66.5017,25.5759],[66.4788,25.5878],[66.4685,25.5699],[66.4553,25.6194],[66.4441,25.5963],[66.3986,25.5835],[66.3675,25.616],[66.3148,25.6088],[66.2986,25.6239],[66.2303,25.5901],[66.1923,25.6002],[66.134,25.5447],[66.1324,25.5072],[66.0918,25.4806],[66.1979,25.4892],[66.284,25.5418],[66.3395,25.5526],[66.3586,25.5245],[66.3962,25.5225],[66.3948,25.5056],[66.4265,25.4826],[66.4705,25.4991],[66.5163,25.4935],[66.4928,25.4468],[66.5278,25.4188],[66.5152,25.4049],[66.362,25.4596],[66.2758,25.4678],[66.0444,25.4266],[66.0237,25.4437],[66.0095,25.4383],[66.0166,25.4218],[65.9618,25.4134],[65.8304,25.4183],[65.7713,25.3828],[65.6357,25.3494],[65.5174,25.3712],[65.5427,25.42],[65.5001,25.3748],[65.3703,25.3903],[65.3385,25.3805],[65.3187,25.3968],[65.2531,25.3807],[65.2262,25.3172],[65.1547,25.3058],[64.992,25.3259],[64.831,25.3184],[64.7806,25.3477],[64.7922,25.3236],[64.7137,25.3127],[64.6505,25.2704],[64.6396,25.2065],[64.7005,25.1863],[64.6501,25.1577],[64.5839,25.1603],[64.5822,25.1795],[64.61,25.1978],[64.6091,25.2237],[64.5436,25.2704],[64.5014,25.2706],[64.4642,25.2432],[64.4118,25.2373],[64.3173,25.2863],[64.2412,25.3049],[64.2461,25.3325],[64.2222,25.318],[64.0845,25.3289],[64.0926,25.3663],[64.1175,25.3652],[64.0817,25.3983],[64.1413,25.4106],[64.138,25.432],[64.1664,25.4511],[64.1244,25.439],[64.1094,25.456],[64.0463,25.4315],[64.0294,25.4652],[64.0282,25.4434],[63.9919,25.4271],[64.0201,25.4239],[64.0072,25.4071],[63.9773,25.4239],[63.9673,25.4077],[63.9891,25.4118],[64.0027,25.3843],[64.0203,25.4092],[64.0383,25.4046],[64.072,25.3632],[64.0652,25.3287],[63.9303,25.337],[63.7529,25.3799],[63.6115,25.3722],[63.5186,25.3359],[63.4822,25.2849],[63.4539,25.2925],[63.5046,25.2248],[63.4922,25.198],[63.1443,25.2576],[63.1079,25.256],[63.0033,25.2101],[62.8256,25.2469],[62.5363,25.2609],[62.4768,25.2471],[62.4599,25.2303],[62.4751,25.215],[62.4092,25.2045],[62.3587,25.1727],[62.3384,25.1156],[62.3838,25.1078],[62.3822,25.0976],[62.2701,25.0999],[62.3204,25.1208],[62.3121,25.1735],[62.2639,25.2053],[62.1926,25.2142],[62.0741,25.1793],[62.0668,25.154],[62.1019,25.0972],[61.8776,25.1034],[61.8594,25.0961],[61.8432,25.0421],[61.7664,25.0328],[61.7242,25.054],[61.7577,25.0989],[61.7477,25.1323],[61.7698,25.1242],[61.7823,25.1394],[61.7779,25.1932],[61.7528,25.1687],[61.6933,25.2059],[61.6626,25.1873],[61.6327,25.2028],[61.5736,25.1821],[61.5701,25.1938],[61.6029,25.2045],[61.5829,25.2196],[61.5653,25.2132],[61.5709,25.2398],[61.5372,25.2385],[61.5556,25.2186],[61.5282,25.2062],[61.5554,25.1923],[61.5001,25.1953],[61.528,25.1894],[61.4895,25.1778],[61.489,25.1922],[61.4544,25.1868],[61.4927,25.1685],[61.4779,25.1161],[61.406,25.0886],[61.4102,25.0633],[61.1895,25.1202],[61.1749,25.1622],[61.1064,25.1908],[60.725,25.2799],[60.6072,25.2872],[60.6205,25.308],[60.5909,25.3507],[60.6039,25.3775],[60.5932,25.4163],[60.5334,25.4461],[60.4465,25.4301],[60.403,25.3856],[60.3965,25.3498],[60.4459,25.3332],[60.4392,25.319],[60.4634,25.3013],[60.4574,25.2921],[60.4124,25.3192],[60.306,25.3397],[60.293,25.3886],[60.3258,25.3716],[60.3026,25.4041],[60.2021,25.3788],[60.1848,25.356],[60.2072,25.3343],[60.1975,25.3286],[60.1137,25.3498],[60.0973,25.3802],[60.0,25.3822],[60.0,30.5978],[60.3158,30.9621],[60.405,31.0178],[60.6581,31.1269],[60.7689,31.2227],[60.9331,31.4748],[62.4382,33.6005],[62.5656,33.7117],[62.7431,33.7819],[62.9956,33.8317],[63.2935,33.8623],[63.4761,33.8416],[63.6093,33.7552],[63.894,33.4245],[64.1543,33.0225],[64.2372,32.9499],[64.3471,32.8825],[64.6028,32.7845],[64.9094,32.7282],[65.241,32.7187],[65.559,32.7576],[71.1479,34.5154],[71.2798,34.5864],[71.4027,34.6916],[71.7249,35.1034],[71.8457,35.232],[72.2955,35.5893],[72.4482,35.6924],[73.0423,35.9558],[73.2062,36.0094],[73.5493,36.0678],[73.846,36.0561],[74.0422,35.9922],[74.9166,35.4829],[75.2901,35.3083],[75.841,35.1225],[76.5077,35.0057],[76.6008,34.9792],[76.6327,34.952],[76.5583,34.9038],[76.1558,34.7796],[75.7791,34.5971],[75.6177,34.5382],[75.3778,34.5524],[75.2619,34.6109],[75.2596,34.6441],[75.1423,34.6624],[75.0694,34.6509],[74.762,34.7983],[74.5618,34.8506],[74.4615,34.8492],[74.3556,34.823],[74.0529,34.685],[74.0129,34.7099],[73.9602,34.6967],[73.9273,34.6459],[73.9325,34.6262],[73.7526,34.5267],[73.7164,34.49],[73.7121,34.4584],[73.7761,34.4131],[73.7632,34.3596],[73.7734,34.3498],[73.8074,34.3567],[73.8418,34.3383],[73.8994,34.3598],[73.9762,34.2648],[73.9766,34.2118],[73.9171,34.1421],[73.8857,34.0751],[73.8982,34.0328],[74.0061,34.0224],[74.1237,34.0552],[74.2256,34.0334],[74.2627,33.9743],[74.2556,33.9143],[74.1097,33.8518],[73.9563,33.7203],[74.0136,33.5635],[74.1687,33.4187],[74.1851,33.3835],[74.1698,33.3465],[73.9999,33.2986],[73.9553,33.2673],[73.9525,33.2101],[74.0113,33.1343],[74.5059,32.7577],[74.6456,32.6182],[74.6524,32.5602],[74.6805,32.5382],[74.6814,32.5038],[74.6984,32.4849],[74.8353,32.4962],[74.9731,32.4479],[74.9992,32.4585],[75.2689,32.3727],[75.3223,32.3373],[75.4873,32.3031],[75.4989,32.2753],[75.6991,32.3993],[75.8628,32.4768],[75.9924,32.5085],[76.1404,32.5087],[76.1459,32.4656],[76.0748,32.3125],[76.0662,32.1661],[76.1051,31.9885],[76.1958,31.794],[76.358,31.5493],[76.7113,31.0924],[76.927,30.8757],[77.1966,30.6567],[77.7108,30.3147],[78.7925,29.6798],[80.5427,28.7952],[81.7631,28.1326],[82.1141,27.9654],[82.4367,27.8345],[82.8515,27.6994],[83.8228,27.4363],[85.4464,26.9547],[85.9575,26.8392],[86.5812,26.7781],[88.0872,26.7595],[89.7345,26.6619],[90.3567,26.6851],[92.1572,26.8658],[92.3239,26.8686],[92.3918,26.8857],[92.6858,27.0411],[92.7871,27.1264],[92.9694,27.4447],[93.1278,27.8562],[93.3602,28.2973],[93.412,28.3631],[93.5051,28.4418],[93.5818,28.4848],[93.6565,28.5048],[93.9968,28.5177],[94.1928,28.473],[94.7081,28.2386],[94.9574,28.0203],[95.0669,27.9628],[95.4351,27.9273],[95.8145,27.9383],[96.1174,27.9119],[96.4314,27.8154],[96.6734,27.6564],[96.6751,27.6293],[96.6376,27.594],[96.6509,27.5871],[96.621,27.5695],[96.3912,27.5135],[96.2333,27.4301],[96.0227,27.1758],[95.8691,27.022],[95.8079,27.0205],[95.7609,26.964],[95.7581,26.9152],[95.7263,26.8857],[95.6682,26.9083],[95.6368,26.8793],[95.6115,26.8212],[95.5548,26.8396],[95.5328,26.8312],[95.4891,26.7617],[95.4233,26.6967],[95.3026,26.656],[95.272,26.6628],[95.244,26.6939],[95.2149,26.6557],[95.1547,26.6195],[95.1545,26.5808],[95.1148,26.548],[95.1208,26.5298],[95.0664,26.4504],[95.087,26.452],[95.1087,26.4237],[95.1048,26.4013],[95.1357,26.3878],[95.1212,26.2387],[95.1425,26.2142],[95.1181,26.1689],[95.1206,26.1097],[95.1851,26.0849],[95.1626,26.0314],[95.1065,25.9682],[95.0367,25.9351],[95.0219,25.91],[95.0154,25.872],[95.0518,25.8052],[95.0525,25.7627],[94.9376,25.669],[94.9197,25.6111],[94.889,25.5931],[94.905,25.5671],[94.8494,25.5607],[94.8125,25.4954],[94.6886,25.4655],[94.6738,25.4162],[94.6312,25.3873],[94.595,25.2982],[94.5854,25.2157],[94.7454,25.1087],[94.7422,25.0252],[94.7031,24.9783],[94.7191,24.9425],[94.6378,24.8424],[94.6248,24.7958],[94.6333,24.765],[94.6108,24.7221],[94.591,24.7109],[94.5817,24.7313],[94.5766,24.7121],[94.551,24.7165],[94.5315,24.6324],[94.4655,24.5756],[94.4296,24.4933],[94.4034,24.4878],[94.4039,24.4211],[94.3653,24.3997],[94.3834,24.3794],[94.3518,24.342],[94.3263,24.3389],[94.328,24.2924],[94.2951,24.2399],[94.2837,24.1799],[94.2627,24.1677],[94.2597,24.0896],[94.2472,24.0626],[94.2331,24.0669],[94.2453,24.0442],[94.1945,23.965],[94.196,23.9377],[94.1708,23.9351],[94.1615,23.8528],[94.1226,23.8427],[94.0961,23.8936],[94.0566,23.8976],[94.0177,23.934],[93.9694,23.9339],[93.9538,23.9502],[93.907,23.9571],[93.816,23.9298],[93.7569,24.0095],[93.74,23.9992],[93.6207,24.0142],[93.6159,23.9815],[93.5839,23.9685],[93.3741,24.1153],[93.3328,24.1333],[93.3117,24.1267],[93.3344,23.9869],[93.3972,23.9058],[93.4053,23.7616],[93.4169,23.7121],[93.4447,23.6824],[93.4283,23.6535],[93.4276,23.5344],[93.4076,23.5085],[93.3972,23.4333],[93.4142,23.388],[93.3988,23.3643],[93.3658,23.3545],[93.3948,23.2196],[93.3677,23.1425],[93.2732,23.0105],[93.2477,23.0096],[93.1945,23.0603],[93.1678,23.049],[93.1419,23.0606],[93.1329,23.0475],[93.1292,23.0008],[93.1684,22.9191],[93.1388,22.9132],[93.1162,22.8163],[93.0993,22.8104],[93.1127,22.7442],[93.0918,22.7093],[93.1444,22.5989],[93.1117,22.5318],[93.1337,22.5199],[93.1421,22.4633],[93.1754,22.4513],[93.1908,22.4273],[93.2086,22.2611],[93.1471,22.2465],[93.1698,22.2001],[93.1544,22.1782],[93.077,22.2101],[93.0467,22.1976],[93.0469,22.1387],[93.0656,22.1021],[93.0133,22.1022],[93.0,22.0504],[93.0066,21.9799],[92.988,21.9829],[92.9558,22.0299],[92.9316,22.0175],[92.9109,21.9462],[92.8677,22.0654],[92.8446,22.0634],[92.7328,22.1496],[92.7034,22.1538],[92.6936,22.0772],[92.6838,22.1053],[92.6844,22.0179],[92.6118,21.9817],[92.6263,21.8699],[92.6012,21.6992],[92.6281,21.4487],[92.6702,21.2863],[92.7983,21.1354],[92.6764,20.929],[92.5438,20.8187],[92.3728,20.7738],[92.3674,20.7962],[92.3901,20.8148],[92.3817,20.826],[92.3559,20.786],[92.3342,20.839],[92.3609,20.8635],[92.3317,20.8529],[92.3132,20.8915],[92.3612,20.9397],[92.3499,20.9848],[92.3299,20.998],[92.2973,20.9871],[92.2895,21.0037],[92.2927,20.9783],[92.2778,20.9711],[92.2685,21.0163],[92.2878,21.0232],[92.2654,21.0392],[92.2839,21.0384],[92.3124,21.0701],[92.2742,21.0453],[92.2311,21.1017],[92.225,21.1357],[92.1959,21.1549],[92.1975,21.1199],[92.2545,21.0632],[92.2638,20.9268],[92.2973,20.882],[92.3338,20.7858],[92.298,20.7738],[92.2121,20.9243],[92.1841,21.0148],[92.0531,21.1636],[92.0302,21.3366],[91.9529,21.4525],[91.9979,21.5058],[92.0224,21.4868],[91.9955,21.5601],[92.0245,21.6022],[92.018,21.6236],[92.0407,21.6711],[92.0264,21.6772],[92.0353,21.7003],[92.0215,21.7181],[92.0124,21.6602],[91.9768,21.6608],[91.9813,21.7041],[91.9727,21.6792],[91.9585,21.6876],[91.9475,21.7442],[91.9708,21.7385],[91.997,21.7567],[91.992,21.7679],[91.9725,21.7474],[91.9548,21.7536],[91.9693,21.7879],[91.9414,21.8031],[91.9195,21.7785],[91.8906,21.7782],[91.9197,21.8464],[91.9095,21.9085],[91.9274,21.9346],[91.8934,21.9718],[91.8554,22.1263],[91.8488,22.1348],[91.8381,22.1158],[91.8122,22.185],[91.8342,22.2125],[91.8421,22.2591],[91.8139,22.3026],[91.8675,22.323],[91.8882,22.3825],[91.914,22.4091],[92.0019,22.4045],[92.0224,22.4171],[92.0373,22.4471],[92.0874,22.4383],[92.1352,22.4564],[92.1441,22.4702],[92.0892,22.4446],[92.0331,22.4505],[92.0015,22.4121],[91.8983,22.4109],[91.8573,22.3311],[91.7957,22.2932],[91.7968,22.2755],[91.8291,22.255],[91.7979,22.2196],[91.7795,22.2396],[91.7477,22.3996],[91.6873,22.5043],[91.628,22.571],[91.5927,22.6425],[91.4587,22.7449],[91.4854,22.7606],[91.484,22.7698],[91.4694,22.7789],[91.4777,22.763],[91.4574,22.7598],[91.4381,22.7739],[91.4412,22.7979],[91.4745,22.8242],[91.4372,22.8075],[91.4836,22.8735],[91.4565,22.8987],[91.4913,22.9016],[91.4609,22.9077],[91.4424,22.8969],[91.441,22.8835],[91.4664,22.8739],[91.421,22.81],[91.4073,22.7608],[91.3308,22.8314],[91.3505,22.8501],[91.3426,22.8833],[91.3158,22.8392],[91.3518,22.7902],[91.345,22.7758],[91.296,22.8102],[91.1896,22.7974],[91.1195,22.8098],[91.1104,22.8273],[91.0953,22.8036],[91.0265,22.7999],[90.9416,22.8551],[90.824,22.8655],[90.7662,22.9404],[90.754,22.9323],[90.7923,22.9048],[90.7971,22.8656],[90.7805,22.8588],[90.7371,22.8836],[90.6896,22.9783],[90.6264,23.0009],[90.5658,23.1087],[90.5939,23.1715],[90.6525,23.2426],[90.6389,23.3166],[90.675,23.3165],[90.6742,23.3394],[90.6978,23.3457],[90.6795,23.3639],[90.6959,23.3777],[90.6735,23.3644],[90.6614,23.3372],[90.6741,23.3222],[90.6148,23.3246],[90.5791,23.3969],[90.6001,23.4211],[90.5917,23.4749],[90.6264,23.4899],[90.7004,23.488],[90.7174,23.5424],[90.7446,23.5446],[90.7244,23.5532],[90.7083,23.5387],[90.7071,23.5725],[90.7323,23.5916],[90.7398,23.6223],[90.7649,23.6298],[90.7628,23.6453],[90.7412,23.6637],[90.76,23.7165],[90.7423,23.6938],[90.7408,23.7237],[90.7311,23.7103],[90.7184,23.7407],[90.6817,23.6866],[90.6399,23.6872],[90.6307,23.6365],[90.5635,23.5936],[90.5529,23.5715],[90.5147,23.5813],[90.5061,23.6027],[90.4842,23.5865],[90.4539,23.6148],[90.4701,23.6316],[90.4386,23.6735],[90.3688,23.7187],[90.384,23.7025],[90.3662,23.7032],[90.3447,23.739],[90.3178,23.7348],[90.3119,23.7651],[90.2941,23.7614],[90.2796,23.7352],[90.2549,23.7303],[90.2572,23.7754],[90.2305,23.8875],[90.2405,23.8279],[90.2022,23.8413],[90.1548,23.8278],[90.1332,23.8661],[90.1126,23.8737],[90.1105,23.8575],[90.0547,23.8206],[90.0631,23.8762],[90.0457,23.8897],[90.026,23.8818],[90.0228,23.9071],[89.9531,23.9623],[89.9518,23.9857],[89.9329,23.985],[89.9495,23.9615],[89.9379,23.9551],[90.0001,23.916],[90.0192,23.8935],[90.0147,23.8767],[90.054,23.8744],[90.0475,23.8169],[90.0904,23.8299],[90.124,23.8074],[90.1815,23.8021],[90.2074,23.8153],[90.2205,23.8002],[90.2428,23.814],[90.2061,23.7517],[90.2185,23.7236],[90.254,23.7201],[90.2747,23.6864],[90.2535,23.7087],[90.2208,23.7081],[90.182,23.7389],[90.1928,23.7213],[90.1664,23.7211],[90.1473,23.7107],[90.1235,23.7365],[90.0701,23.7579],[90.0229,23.7636],[90.0241,23.798],[90.002,23.8154],[90.0193,23.7628],[90.1205,23.7333],[90.145,23.7045],[90.1722,23.7165],[90.2211,23.7029],[90.2485,23.7071],[90.2761,23.6548],[90.2919,23.6589],[90.3975,23.6022],[90.3994,23.5775],[90.3802,23.5672],[90.41,23.5802],[90.4486,23.5418],[90.5031,23.5716],[90.5343,23.5633],[90.5701,23.4836],[90.537,23.482],[90.5542,23.4281],[90.5269,23.3908],[90.4863,23.4206],[90.4204,23.4161],[90.2819,23.4471],[90.1575,23.5302],[90.1083,23.6144],[89.9668,23.6604],[89.9213,23.7191],[89.8549,23.7506],[89.7915,23.8077],[89.7763,23.8958],[89.7679,23.8875],[89.7053,23.9564],[89.7271,23.9756],[89.7216,24.0],[89.714,23.9695],[89.6978,23.9653],[89.7056,23.9984],[89.667,23.9971],[89.6556,23.934],[89.6992,23.8777],[89.751,23.8659],[89.7705,23.836],[89.7575,23.8477],[89.7232,23.8347],[89.6825,23.8639],[89.6828,23.8495],[89.7174,23.8311],[89.627,23.8456],[89.5493,23.8241],[89.4497,23.8706],[89.3921,23.94],[89.3282,23.949],[89.2813,23.9873],[89.3156,23.9473],[89.2894,23.9465],[89.2357,23.9841],[89.1851,23.9866],[89.1608,24.0059],[89.0627,23.9894],[89.1223,23.9203],[89.1251,23.9539],[89.1658,23.9263],[89.2296,23.9216],[89.3005,23.8704],[89.4091,23.8972],[89.4459,23.8246],[89.5025,23.7776],[89.5358,23.7953],[89.5976,23.7975],[89.6397,23.7767],[89.7141,23.7725],[89.8616,23.6574],[89.9469,23.6369],[90.026,23.5557],[90.018,23.5824],[90.0976,23.5656],[90.1551,23.4952],[90.1561,23.428],[90.2069,23.3343],[90.1684,23.3476],[90.1639,23.3638],[90.1866,23.3599],[90.1614,23.3675],[90.1686,23.3357],[90.141,23.3231],[90.1249,23.3055],[90.1204,23.3352],[90.1447,23.3644],[90.145,23.3778],[90.1264,23.3504],[90.0998,23.3596],[90.1209,23.3472],[90.1142,23.3259],[90.1195,23.306],[90.0941,23.3016],[90.0855,23.2755],[90.1232,23.2698],[90.1268,23.2423],[90.2019,23.2261],[90.1985,23.2095],[90.1668,23.2018],[90.1746,23.1683],[90.186,23.1645],[90.2211,23.1823],[90.2484,23.1625],[90.2336,23.1422],[90.2422,23.1255],[90.3165,23.1072],[90.318,23.0688],[90.2678,23.0428],[90.2732,23.0247],[90.3107,23.0176],[90.3204,22.9865],[90.2739,22.9683],[90.3547,22.9189],[90.3485,22.8876],[90.3183,22.8619],[90.3641,22.7893],[90.3683,22.737],[90.4201,22.732],[90.4155,22.7137],[90.4035,22.7277],[90.3939,22.7278],[90.3833,22.705],[90.4,22.7233],[90.4201,22.7084],[90.4298,22.7284],[90.4187,22.7455],[90.3777,22.7404],[90.3845,22.7596],[90.4285,22.7647],[90.4695,22.7345],[90.485,22.699],[90.4768,22.6561],[90.4979,22.6717],[90.5193,22.6318],[90.5043,22.5877],[90.5223,22.5978],[90.5793,22.5275],[90.6127,22.3491],[90.5922,22.2584],[90.564,22.2445],[90.5262,22.1864],[90.5046,22.1845],[90.5039,22.1615],[90.4386,22.067],[90.4243,22.0779],[90.4221,22.1191],[90.4424,22.1509],[90.4267,22.1511],[90.4171,22.1218],[90.4183,22.0896],[90.3886,22.0899],[90.3839,22.1123],[90.4057,22.1439],[90.4037,22.1667],[90.4258,22.1787],[90.3997,22.22],[90.4167,22.2613],[90.4036,22.2843],[90.4191,22.2895],[90.3788,22.2928],[90.415,22.3386],[90.3642,22.2945],[90.4079,22.2681],[90.3938,22.2086],[90.4178,22.1832],[90.3984,22.1719],[90.3966,22.1447],[90.3812,22.1367],[90.3408,22.162],[90.3877,22.1959],[90.388,22.2107],[90.3569,22.1796],[90.3436,22.1957],[90.3497,22.1787],[90.334,22.1623],[90.3783,22.1311],[90.3752,22.1055],[90.3318,22.1085],[90.3266,22.0884],[90.263,22.0403],[90.2752,22.0357],[90.278,21.9953],[90.2572,21.956],[90.2111,21.9824],[90.2139,22.002],[90.1973,21.9784],[90.2312,21.9689],[90.2181,21.9505],[90.2687,21.9458],[90.241,21.9017],[90.261,21.8838],[90.2561,21.8674],[90.2241,21.8543],[90.2042,21.8874],[90.2397,21.9347],[90.1974,21.8919],[90.2207,21.8523],[90.2626,21.8594],[90.2486,21.838],[90.2159,21.8366],[90.255,21.8265],[90.2146,21.8198],[90.1679,21.7877],[90.0966,21.8092],[90.0823,21.8409],[90.1216,21.8475],[90.1011,21.8542],[90.102,21.8741],[90.1362,21.8902],[90.1625,21.873],[90.1531,21.8596],[90.1668,21.8633],[90.1727,21.8701],[90.152,21.8964],[90.1886,21.9227],[90.1548,21.9088],[90.1441,21.8906],[90.1159,21.8991],[90.1184,21.9172],[90.15,21.9227],[90.1377,21.9517],[90.1685,21.9803],[90.1405,21.9702],[90.1279,21.9913],[90.1418,21.9249],[90.1119,21.9223],[90.1084,21.8936],[90.0967,21.8957],[90.0999,21.9391],[90.0725,22.0019],[90.1582,22.1118],[90.213,22.114],[90.2284,22.1643],[90.2539,22.1636],[90.2729,22.179],[90.2772,22.2099],[90.259,22.1724],[90.2289,22.1726],[90.2398,22.1974],[90.2199,22.2208],[90.2071,22.3078],[90.228,22.3386],[90.2732,22.3375],[90.2907,22.3515],[90.2968,22.3721],[90.2658,22.3665],[90.2814,22.408],[90.316,22.4663],[90.3429,22.4601],[90.3622,22.4904],[90.3405,22.4664],[90.3114,22.4708],[90.2589,22.3761],[90.2553,22.345],[90.2232,22.3427],[90.2032,22.3166],[90.2095,22.2151],[90.2298,22.1917],[90.201,22.1207],[90.1588,22.1232],[90.0911,22.0598],[90.0535,21.971],[90.0307,21.9969],[90.0256,21.9781],[90.0011,21.9867],[89.9926,22.0345],[90.03,22.0611],[90.0398,22.1308],[90.071,22.1532],[90.1404,22.1564],[90.0812,22.1583],[90.0257,22.1888],[90.0791,22.2174],[90.1125,22.2894],[90.1019,22.3432],[90.177,22.4227],[90.2021,22.4865],[90.2065,22.5106],[90.1868,22.5271],[90.2029,22.5717],[90.1853,22.6247],[90.2531,22.6213],[90.2847,22.6312],[90.2949,22.6543],[90.2503,22.6282],[90.1811,22.6269],[90.1974,22.5693],[90.1817,22.5257],[90.1996,22.5074],[90.1948,22.4825],[90.1727,22.4563],[90.1706,22.4245],[90.0935,22.3464],[90.1044,22.3002],[90.0697,22.2184],[90.0245,22.1956],[90.024,22.1718],[90.0631,22.1611],[90.0172,22.1243],[90.0208,22.0714],[89.983,22.0463],[89.9908,21.995],[89.9691,21.9762],[89.9339,22.0082],[89.9098,22.0711],[89.9174,22.1367],[89.8784,22.2651],[89.9244,22.38],[89.9828,22.4359],[89.9996,22.4872],[90.0253,22.4905],[90.0297,22.5645],[90.0657,22.6095],[90.0564,22.6225],[90.0256,22.6001],[90.0334,22.6506],[90.0238,22.6675],[90.0043,22.6784],[90.0278,22.6511],[90.0132,22.5991],[90.0307,22.5811],[90.0183,22.4952],[89.9547,22.5059],[89.9855,22.4868],[89.9867,22.4645],[89.9079,22.387],[89.886,22.3998],[89.8817,22.4296],[89.8783,22.4015],[89.8982,22.3673],[89.8461,22.2605],[89.8906,22.1227],[89.8535,22.0684],[89.8187,22.0659],[89.8569,22.0428],[89.8854,21.9077],[89.862,21.8796],[89.844,21.8853],[89.842,21.857],[89.7722,21.8307],[89.7888,21.8642],[89.7886,21.8787],[89.7537,21.8561],[89.7339,21.8911],[89.7491,21.8344],[89.7157,21.8336],[89.7039,21.8497],[89.6776,21.8369],[89.6582,21.8916],[89.6795,21.905],[89.6551,21.9135],[89.6351,21.8637],[89.712,21.7854],[89.7132,21.7681],[89.6629,21.7514],[89.6542,21.7654],[89.6086,21.7587],[89.6135,21.8116],[89.5629,21.8602],[89.5893,21.9408],[89.5641,21.9631],[89.5591,21.9926],[89.5226,21.9948],[89.5141,21.902],[89.4965,21.9078],[89.4631,21.8538],[89.4336,21.8481],[89.4627,21.8461],[89.4712,21.8206],[89.4584,21.8124],[89.4711,21.8133],[89.4825,21.7795],[89.4387,21.7228],[89.3934,21.7079],[89.3798,21.7437],[89.366,21.7445],[89.3554,21.8043],[89.3896,21.9024],[89.3681,21.9053],[89.3218,21.8669],[89.3074,21.8211],[89.2868,21.8065],[89.2932,21.7568],[89.23,21.7681],[89.2188,21.7572],[89.1956,21.8051],[89.1629,21.7898],[89.1068,21.8117],[89.1112,21.8618],[89.0877,21.9122],[89.0959,21.937],[89.0842,21.9388],[89.0634,21.9269],[89.091,21.8518],[89.0872,21.8115],[89.1383,21.7715],[89.1521,21.7397],[89.1372,21.7197],[89.1165,21.7199],[89.0539,21.7823],[89.0656,21.8667],[89.0398,21.9077],[88.9995,21.9025],[88.9971,21.8896],[89.037,21.859],[89.0321,21.761],[89.0813,21.7067],[89.1033,21.6537],[89.0977,21.6255],[89.0614,21.6112],[89.033,21.638],[89.0301,21.6623],[89.0055,21.6543],[89.0286,21.6547],[89.029,21.6352],[89.042,21.6215],[89.0259,21.6014],[89.0057,21.6056],[88.9949,21.6469],[88.9941,21.6094],[88.9506,21.641],[88.9297,21.63],[88.9005,21.6476],[88.8766,21.6995],[88.8799,21.7674],[88.8504,21.7306],[88.8492,21.6803],[88.8692,21.6437],[88.8493,21.6303],[88.8529,21.6161],[88.8122,21.6331],[88.8225,21.6607],[88.759,21.6566],[88.7216,21.6828],[88.6993,21.7412],[88.7251,21.8019],[88.6989,21.8379],[88.7311,21.9353],[88.7293,21.9764],[88.749,21.9775],[88.769,22.015],[88.7903,22.0193],[88.7662,22.0241],[88.7594,22.0503],[88.7746,22.0531],[88.7489,22.066],[88.7159,22.0504],[88.7406,22.0307],[88.7344,22.0071],[88.669,22.0228],[88.6346,22.1207],[88.6212,22.1091],[88.6433,22.0454],[88.609,21.9766],[88.6199,21.9359],[88.5853,21.9853],[88.5786,21.9648],[88.6107,21.9328],[88.6096,21.9098],[88.5833,21.8853],[88.5602,21.8124],[88.5394,21.8535],[88.5029,21.8819],[88.5314,21.9299],[88.5098,21.9713],[88.5527,21.9853],[88.5652,22.0228],[88.5484,21.9886],[88.5054,21.9739],[88.5111,21.9241],[88.4851,21.8967],[88.4662,21.9004],[88.4688,21.9487],[88.4599,21.9388],[88.4526,21.9079],[88.4648,21.8953],[88.4851,21.8902],[88.5004,21.8508],[88.4562,21.8172],[88.4693,21.7935],[88.448,21.8016],[88.4295,21.7673],[88.4363,21.7039],[88.4173,21.6563],[88.4414,21.6211],[88.4193,21.6068],[88.4185,21.5819],[88.3934,21.6057],[88.4046,21.6193],[88.3877,21.6738],[88.4116,21.7197],[88.3794,21.7298],[88.3974,21.7345],[88.4075,21.7637],[88.3915,21.7796],[88.4084,21.7989],[88.4005,21.8371],[88.4217,21.8888],[88.3997,21.899],[88.4164,21.9238],[88.405,21.9527],[88.3908,21.9673],[88.4103,21.9782],[88.413,21.9942],[88.3871,21.9665],[88.4115,21.9225],[88.3959,21.9061],[88.398,21.8947],[88.4077,21.8859],[88.3975,21.8742],[88.397,21.7955],[88.3717,21.8006],[88.3648,21.8528],[88.3645,21.8016],[88.3298,21.7885],[88.2817,21.7968],[88.2777,21.8096],[88.3148,21.8297],[88.3236,21.851],[88.3061,21.8664],[88.2686,21.8651],[88.3174,21.8506],[88.2584,21.7989],[88.2887,21.7598],[88.285,21.7156],[88.3066,21.6763],[88.2955,21.6068],[88.3255,21.5794],[88.3052,21.5609],[88.2605,21.5583],[88.2451,21.606],[88.2265,21.6181],[88.2492,21.6486],[88.2431,21.6751],[88.2102,21.6905],[88.2311,21.7008],[88.2165,21.7908],[88.2376,21.7644],[88.2401,21.7795],[88.2121,21.8016],[88.2011,21.8506],[88.1647,21.8904],[88.1736,21.9307],[88.1487,21.9594],[88.233,22.0686],[88.2144,22.1569],[88.1737,22.1971],[88.0857,22.209],[88.0782,22.2229],[88.0352,22.2186],[88.0318,22.2019],[88.1444,22.1866],[88.1932,22.1282],[88.1957,22.1038],[88.1612,22.0641],[88.062,22.0133],[88.0491,21.9633],[87.9766,21.8497],[87.9353,21.8114],[87.8867,21.8031],[87.8911,21.779],[87.831,21.7239],[87.7876,21.6997],[87.7555,21.7012],[87.7033,21.6602],[87.664,21.6496],[87.6494,21.6641],[87.6366,21.6471],[87.3715,21.5779],[87.3706,21.5618],[87.1956,21.5494],[87.1966,21.5383],[87.1246,21.5145],[87.0645,21.4705],[86.8943,21.3132],[86.8167,21.1383],[86.9295,20.9011],[86.9723,20.8445],[86.9742,20.7699],[86.9971,20.7642],[87.0138,20.7261],[86.9957,20.6995],[87.0254,20.6897],[87.0528,20.7031],[86.7655,20.5053],[86.7365,20.452],[86.7404,20.4122],[86.7226,20.3936],[86.7418,20.3775],[86.7282,20.3617],[86.7787,20.3973],[86.7702,20.3666],[86.7872,20.369],[86.7633,20.3356],[86.8021,20.3652],[86.808,20.3952],[86.8055,20.3607],[86.7206,20.2997],[86.685,20.3172],[86.6955,20.2818],[86.765,20.3143],[86.5374,20.1807],[86.4261,20.0256],[86.423,20.0496],[86.4009,20.0053],[86.4289,19.9945],[86.4173,19.9768],[86.1581,19.8715],[86.0525,19.8562],[86.0655,19.8433],[85.9294,19.8207],[85.684,19.7445],[85.4343,19.6256],[85.2435,19.5097],[85.1188,19.4165],[85.0826,19.3641],[85.0183,19.3346],[84.9109,19.2518],[84.8232,19.147],[84.8083,19.1466],[84.8009,19.1102],[84.6933,18.9585],[84.5984,18.8652],[84.5627,18.7892],[84.4576,18.6873],[84.447,18.6521],[84.386,18.6002],[84.3627,18.5502],[84.1702,18.383],[84.1375,18.3437],[84.1368,18.3084],[83.9642,18.2164],[83.9344,18.2254],[83.9434,18.208],[83.8113,18.1604],[83.6741,18.0857],[83.5756,18.0095],[83.5467,17.9549],[83.472,17.8983],[83.4687,17.9203],[83.4438,17.934],[83.4671,17.8862],[83.4161,17.8492],[83.4168,17.8078],[83.3575,17.7574],[83.3504,17.7277],[83.2944,17.6912],[83.3017,17.6784],[83.2422,17.6337],[83.2144,17.5896],[83.0269,17.5112],[82.9878,17.4692],[82.8938,17.4254],[82.883,17.4381],[82.8637,17.4142],[82.6483,17.3117],[82.4943,17.2127],[82.3007,17.0409],[82.2792,17.0006],[82.2771,16.9425],[82.2526,16.9201],[82.2667,16.888],[82.2558,16.8667],[82.2721,16.8873],[82.2772,16.8549],[82.2931,16.8747],[82.3041,16.8566],[82.3159,16.8699],[82.3223,16.8369],[82.3388,16.8595],[82.3694,16.8561],[82.3674,16.8111],[82.3745,16.9242],[82.3498,16.9703],[82.3696,16.9576],[82.3799,16.9066],[82.3558,16.7122],[82.3202,16.6427],[82.3203,16.6125],[82.302,16.6078],[82.3163,16.5829],[81.9545,16.3965],[81.86,16.3764],[81.7319,16.3134],[81.5113,16.3597],[81.327,16.3134],[81.2559,16.262],[81.2016,16.1783],[81.1881,16.1455],[81.2113,16.1756],[81.206,16.124],[81.1488,16.0028],[81.155,15.9706],[81.048,15.9042],[80.9933,15.8327],[80.9982,15.7823],[81.0176,15.7534],[80.9384,15.7077],[80.8975,15.716],[80.8147,15.6997],[80.7818,15.8478],[80.8088,15.7779],[80.8098,15.8394],[80.7694,15.8686],[80.7016,15.8811],[80.6198,15.8787],[80.5325,15.8541],[80.3984,15.7889],[80.3075,15.7194],[80.2463,15.6267],[80.2056,15.4722],[80.0954,15.329],[80.0826,15.2589],[80.0924,15.209],[80.0774,15.1873],[80.065,15.1919],[80.0735,15.1694],[80.0438,15.0829],[80.089,14.8629],[80.0872,14.8059],[80.148,14.6911],[80.1542,14.6373],[80.1963,14.5713],[80.1702,14.3524],[80.1262,14.206],[80.1287,14.1398],[80.1543,14.0184],[80.2552,13.7872],[80.2331,13.7143],[80.2333,13.6431],[80.3263,13.4378],[80.3458,13.2926],[80.2957,13.1259],[80.3047,13.0916],[80.276,13.0185],[80.2609,13.0129],[80.2744,13.0022],[80.2429,12.8161],[80.2528,12.7704],[80.1941,12.589],[80.1758,12.5814],[80.1872,12.5744],[80.1636,12.4915],[80.1416,12.4736],[80.1365,12.4294],[80.0454,12.3111],[80.0666,12.3451],[80.0577,12.3516],[79.8843,12.0559],[79.8346,11.9101],[79.8187,11.9073],[79.8347,11.9],[79.8031,11.7934],[79.7759,11.7701],[79.7947,11.7636],[79.7585,11.5466],[79.7715,11.492],[79.8188,11.4257],[79.8495,11.2595],[79.8467,11.2382],[79.8252,11.2304],[79.853,11.2273],[79.8596,11.1809],[79.8528,10.6787],[79.8762,10.2962],[79.8597,10.2765],[79.7633,10.2706],[79.5301,10.3132],[79.4001,10.3202],[79.3038,10.264],[79.273,10.2341],[79.2716,10.1962],[79.246,10.1833],[79.2301,10.142],[79.2333,10.0802],[79.2676,10.035],[79.1582,9.9265],[79.1179,9.8643],[79.1207,9.8449],[78.9896,9.6908],[78.9356,9.5963],[78.9192,9.4918],[78.9021,9.4823],[78.962,9.3798],[79.0724,9.2933],[79.201,9.28],[79.266,9.289],[79.2953,9.3178],[79.3293,9.3188],[79.3204,9.269],[79.4426,9.1541],[79.3132,9.2389],[79.2714,9.2541],[79.2262,9.2496],[79.2076,9.2763],[79.0889,9.2566],[78.975,9.2697],[78.9263,9.2632],[78.9107,9.2449],[78.8751,9.2527],[78.8277,9.238],[78.7333,9.2031],[78.7198,9.1819],[78.6502,9.1915],[78.6449,9.1652],[78.661,9.1517],[78.5836,9.1272],[78.4947,9.1241],[78.4912,9.136],[78.477,9.1191],[78.4125,9.106],[78.2833,9.0018],[78.2667,9.0128],[78.2673,8.9922],[78.1939,8.9253],[78.1709,8.871],[78.1543,8.7465],[78.1776,8.7594],[78.1947,8.7503],[78.2016,8.7786],[78.2066,8.765],[78.1968,8.7412],[78.1645,8.7318],[78.1318,8.6685],[78.1329,8.4877],[78.0665,8.4096],[78.0693,8.3672],[77.8066,8.2352],[77.7439,8.1709],[77.5889,8.1376],[77.559,8.1123],[77.5517,8.0686],[77.3134,8.1191],[77.2963,8.1466],[77.2394,8.1732],[76.9829,8.3803],[76.6253,8.8383],[76.55,8.8925],[76.5168,9.0108],[76.4746,9.0987],[76.4716,9.1066],[76.4747,9.1053]],[[76.4747,9.1053],[76.4748,9.1052],[76.4748,9.1052],[76.4747,9.1053]],[[76.4808,9.0978],[76.478,9.0988],[76.4827,9.0915],[76.4808,9.0978]],[[76.4827,9.0915],[76.4885,9.0749],[76.4993,9.0673],[76.4976,9.0711],[76.4827,9.0915]]],[[[81.2839,8.4468],[81.2828,8.5022],[81.3229,8.5217],[81.3534,8.49],[81.3939,8.3574],[81.4078,8.2417],[81.4741,8.0401],[81.556,7.9355],[81.5875,7.9208],[81.5672,7.8958],[81.5929,7.8301],[81.6261,7.8249],[81.6546,7.7728],[81.701,7.7533],[81.7739,7.6403],[81.8255,7.4355],[81.8705,7.3226],[81.8586,7.0908],[81.8813,7.0266],[81.8711,6.9792],[81.8489,6.989],[81.8728,6.9645],[81.8366,6.8873],[81.8522,6.8879],[81.8485,6.8679],[81.8396,6.8542],[81.8202,6.8606],[81.844,6.8341],[81.8237,6.8119],[81.8249,6.7658],[81.8084,6.7651],[81.828,6.757],[81.7759,6.6641],[81.7661,6.5911],[81.7319,6.5665],[81.6975,6.4788],[81.6517,6.4366],[81.5974,6.4242],[81.6174,6.4139],[81.6081,6.3999],[81.5589,6.3606],[81.5099,6.3449],[81.4869,6.3055],[81.4381,6.2838],[81.4047,6.2421],[81.3479,6.2199],[81.3269,6.1934],[81.2218,6.1587],[81.1946,6.1575],[81.2044,6.1737],[81.1918,6.1763],[81.178,6.1441],[81.1357,6.1299],[81.1282,6.1133],[81.0184,6.1072],[80.8747,6.0559],[80.8656,6.0407],[80.8232,6.0407],[80.7197,5.9605],[80.663,5.9571],[80.587,5.9174],[80.5651,5.9387],[80.4709,5.936],[80.4491,5.9443],[80.4409,5.9675],[80.3832,5.9595],[80.2427,6.0079],[80.2341,6.0328],[80.2184,6.022],[80.1307,6.0935],[80.0617,6.1926],[80.0305,6.268],[80.0358,6.2978],[79.9997,6.4241],[79.9749,6.4616],[79.979,6.517],[79.8657,6.8162],[79.843,6.9318],[79.8719,6.9872],[79.8189,7.1911],[79.844,7.2687],[79.8592,7.2754],[79.8421,7.2789],[79.7983,7.5093],[79.791,7.5895],[79.8062,7.6517],[79.7823,7.8094],[79.7065,8.0442],[79.6981,8.1227],[79.7038,8.1385],[79.7082,8.1128],[79.6989,8.2159],[79.7227,8.2229],[79.7376,8.279],[79.7571,8.3162],[79.7811,8.3498],[79.7565,8.3094],[79.7507,8.2625],[79.7652,8.2743],[79.7574,8.2568],[79.7769,8.2514],[79.7683,8.2148],[79.7557,8.2199],[79.7406,8.2015],[79.7492,8.1832],[79.73,8.1345],[79.7316,8.0834],[79.7541,8.0587],[79.7443,7.9977],[79.8177,7.975],[79.8103,7.8837],[79.8339,8.0085],[79.7887,8.0672],[79.8086,8.061],[79.7944,8.0784],[79.834,8.1386],[79.8132,8.1777],[79.82,8.1959],[79.7906,8.2316],[79.811,8.2386],[79.8343,8.292],[79.8472,8.2743],[79.8584,8.2845],[79.8349,8.3072],[79.8442,8.4279],[79.8647,8.4534],[79.8697,8.5341],[79.9262,8.5595],[79.9196,8.5866],[79.9429,8.6197],[79.956,8.7187],[79.9235,8.7849],[79.9395,8.8081],[79.9184,8.808],[79.9307,8.8147],[79.9196,8.8184],[79.9354,8.8927],[79.9117,8.9275],[80.0405,9.0134],[80.0667,9.0573],[80.0859,9.0996],[80.0766,9.1228],[80.095,9.1372],[80.1178,9.2094],[80.1118,9.2775],[80.1282,9.292],[80.0653,9.331],[80.0546,9.3906],[80.147,9.435],[80.1861,9.4827],[80.1543,9.5292],[80.0543,9.5974],[80.0858,9.6283],[80.0201,9.6491],[79.9697,9.7078],[79.9456,9.6889],[79.9157,9.768],[80.0204,9.8124],[80.1054,9.8059],[80.2121,9.8311],[80.2492,9.8236],[80.3689,9.6573],[80.8074,9.3009],[80.8845,9.1207],[80.9997,8.9407],[80.9929,8.9182],[81.0119,8.9282],[81.0131,8.891],[81.0228,8.9045],[81.0574,8.8605],[81.0878,8.8571],[81.1074,8.8032],[81.226,8.6499],[81.2195,8.6107],[81.2319,8.5785],[81.2456,8.5781],[81.2474,8.5473],[81.2262,8.532],[81.2282,8.568],[81.1931,8.5686],[81.2118,8.5071],[81.1901,8.5034],[81.1978,8.4613],[81.2673,8.4567],[81.2734,8.4486],[81.3048,8.4343],[81.3045,8.4573],[81.2839,8.4468]],[[80.8467,7.301],[80.8601,7.3279],[80.8278,7.3986],[80.7455,7.4878],[80.726,7.4879],[80.7311,7.4464],[80.785,7.4082],[80.8035,7.3506],[80.8467,7.301]],[[80.7977,6.959],[80.8285,6.9817],[80.8303,7.022],[80.7944,7.0413],[80.7544,7.0369],[80.7323,7.0131],[80.7365,6.9803],[80.7555,6.9627],[80.7977,6.959]],[[80.774,6.757],[80.8472,6.7775],[80.8567,6.8145],[80.8437,6.8405],[80.8034,6.8476],[80.7417,6.8118],[80.7412,6.7743],[80.774,6.757]],[[80.6554,6.3669],[80.6769,6.3869],[80.6456,6.4432],[80.5652,6.4408],[80.5588,6.4108],[80.5829,6.3809],[80.6554,6.3669]]],[[[79.8478,8.2869],[79.8478,8.287],[79.8478,8.287],[79.8478,8.2869]]],[[[81.2838,8.4463],[81.2837,8.4465],[81.2839,8.4468],[81.2838,8.4463]]],[[[76.4726,9.1129],[76.4672,9.1144],[76.4623,9.1306],[76.4726,9.1129]]],[[[67.4058,24.3931],[67.4057,24.3931],[67.4059,24.3932],[67.4058,24.3931]]],[[[90.5795,23.0754],[90.5825,23.076],[90.5834,23.0725],[90.5795,23.0754]]],[[[81.0267,15.7566],[81.0267,15.7619],[81.0318,15.7593],[81.0267,15.7566]]],[[[91.9744,21.5099],[91.9483,21.4895],[91.9021,21.5095],[91.9117,21.477],[91.8959,21.4671],[91.8665,21.4911],[91.8587,21.5208],[91.8814,21.5495],[91.8848,21.6801],[91.9392,21.735],[91.9532,21.6809],[91.9884,21.6268],[91.9744,21.5099]]],[[[91.5538,22.3987],[91.5158,22.3467],[91.4885,22.3417],[91.456,22.3981],[91.3989,22.4381],[91.3798,22.4924],[91.3916,22.5669],[91.3555,22.6591],[91.381,22.6624],[91.4452,22.6322],[91.542,22.4777],[91.5538,22.3987]]],[[[90.6473,22.867],[90.5586,22.7904],[90.5335,22.7951],[90.4869,22.8386],[90.4607,22.8408],[90.481,22.8666],[90.5326,22.8737],[90.5512,22.8999],[90.5501,22.9443],[90.6448,22.8996],[90.6473,22.867]]],[[[90.1767,23.337],[90.2573,23.3065],[90.2329,23.2954],[90.2368,23.2748],[90.2221,23.2617],[90.1664,23.2689],[90.1687,23.2547],[90.1828,23.2436],[90.1794,23.2406],[90.1283,23.245],[90.1257,23.2729],[90.0898,23.2791],[90.099,23.2984],[90.1259,23.2938],[90.1767,23.337]]],[[[90.1831,23.449],[90.3329,23.3855],[90.2856,23.3807],[90.2962,23.3663],[90.271,23.3265],[90.2139,23.3613],[90.2495,23.3272],[90.2347,23.3277],[90.2035,23.3543],[90.1831,23.449]]],[[[90.316,23.7292],[90.3682,23.6965],[90.4172,23.6853],[90.4641,23.6277],[90.4308,23.6153],[90.4319,23.6401],[90.4142,23.6241],[90.3868,23.646],[90.3983,23.632],[90.3886,23.6241],[90.2952,23.6661],[90.2616,23.724],[90.2871,23.7322],[90.3038,23.7611],[90.316,23.7292]]],[[[90.6367,23.6107],[90.6754,23.5799],[90.683,23.5585],[90.6672,23.5654],[90.6951,23.5163],[90.6618,23.5223],[90.586,23.4869],[90.5887,23.5232],[90.565,23.5863],[90.5919,23.5834],[90.6367,23.6107]]],[[[90.6605,23.6573],[90.7323,23.6523],[90.7613,23.6339],[90.7359,23.6272],[90.7276,23.5943],[90.6962,23.5732],[90.6683,23.5902],[90.6535,23.6239],[90.6605,23.6573]]],[[[90.3759,23.3538],[90.4126,23.3022],[90.4839,23.2996],[90.4846,23.2424],[90.4514,23.2035],[90.4657,23.166],[90.433,23.0965],[90.4472,23.0252],[90.3644,23.0126],[90.3278,22.9804],[90.3079,23.0506],[90.3263,23.0687],[90.3315,23.1089],[90.2727,23.146],[90.2672,23.1323],[90.2902,23.1203],[90.2518,23.1267],[90.2451,23.1402],[90.2661,23.1597],[90.2184,23.1902],[90.18,23.1729],[90.1768,23.1874],[90.2026,23.2033],[90.2107,23.2248],[90.1695,23.2604],[90.233,23.2607],[90.2518,23.2865],[90.2406,23.2941],[90.2886,23.317],[90.2996,23.3516],[90.3288,23.3665],[90.3759,23.3538]]],[[[90.7861,22.1279],[90.7861,22.1278],[90.786,22.1279],[90.7861,22.1279]]],[[[90.786,22.1278],[90.7839,22.1081],[90.7621,22.111],[90.7168,22.0528],[90.7089,22.0679],[90.7366,22.1319],[90.7043,22.0704],[90.6754,22.0706],[90.678,22.1051],[90.6991,22.1117],[90.6702,22.1261],[90.6954,22.137],[90.6591,22.1332],[90.6343,22.1482],[90.6266,22.1309],[90.6113,22.1467],[90.6699,22.2731],[90.6721,22.4703],[90.6085,22.5993],[90.5888,22.6067],[90.6188,22.5476],[90.5731,22.5942],[90.5634,22.6405],[90.5734,22.6482],[90.5887,22.6335],[90.5797,22.654],[90.5649,22.6562],[90.5432,22.6285],[90.5389,22.6555],[90.5894,22.7344],[90.6667,22.7867],[90.732,22.7722],[90.7807,22.6213],[90.8674,22.5187],[90.8888,22.4569],[90.846,22.2411],[90.8303,22.2181],[90.8073,22.2179],[90.8253,22.1984],[90.8025,22.2078],[90.7957,22.246],[90.7986,22.2025],[90.8212,22.1851],[90.7789,22.1841],[90.8209,22.1768],[90.8251,22.1481],[90.8012,22.1077],[90.7862,22.1278],[90.7993,22.1448],[90.786,22.1278]]],[[[91.1335,22.4031],[91.1827,22.2703],[91.157,22.1854],[91.1183,22.1663],[91.1181,22.1969],[91.1013,22.2107],[91.1101,22.1592],[91.0519,22.1774],[91.0405,22.2426],[91.0519,22.4201],[91.0264,22.4722],[91.0413,22.5084],[91.1009,22.5057],[91.1234,22.4906],[91.1335,22.4031]]],[[[90.9389,22.805],[91.0195,22.7177],[91.0099,22.7051],[90.9752,22.7224],[90.9657,22.7161],[91.0361,22.6701],[91.0293,22.6411],[91.0596,22.5994],[91.0544,22.5807],[91.0506,22.5934],[91.0248,22.5767],[91.0439,22.5696],[90.9909,22.5402],[90.9498,22.5511],[90.9258,22.5774],[90.9398,22.5914],[90.9177,22.588],[90.8629,22.6325],[90.8335,22.7296],[90.7971,22.766],[90.8017,22.7834],[90.8725,22.8049],[90.9389,22.805]]],[[[91.1635,22.5844],[91.1054,22.563],[91.0913,22.5962],[91.1412,22.6637],[91.1721,22.6062],[91.1635,22.5844]]],[[[91.1282,22.6726],[91.0896,22.6018],[91.0848,22.5531],[91.0654,22.57],[91.0583,22.6389],[91.0449,22.636],[91.055,22.6965],[91.1095,22.7012],[91.1282,22.6726]]],[[[90.4222,22.9927],[90.4514,22.9722],[90.4567,23.0014],[90.5379,22.9586],[90.5452,22.9069],[90.52,22.8768],[90.4666,22.8654],[90.4467,22.8043],[90.4268,22.8178],[90.4274,22.842],[90.3956,22.8281],[90.3901,22.8376],[90.4243,22.9042],[90.4168,22.9159],[90.3844,22.8553],[90.3951,22.7999],[90.4157,22.7826],[90.3844,22.7884],[90.42,22.7751],[90.3999,22.7644],[90.3323,22.848],[90.3808,22.9079],[90.3538,22.9944],[90.4222,22.9927]]]]}}