{"type":"Feature","properties":{"speciesId":687,"category":"LC","source":"IUCN Red List","simplifyTol":0.01,"clippedToSubcontinent":true},"geometry":{"type":"MultiPolygon","coordinates":[[[[80.2398,9.8235],[80.3705,9.6558],[80.8099,9.2983],[80.8842,9.1211],[80.9998,8.9403],[80.9929,8.9181],[81.0119,8.9282],[81.0132,8.8909],[81.0214,8.9047],[81.0578,8.8602],[81.0878,8.8581],[81.1073,8.8033],[81.226,8.6498],[81.2196,8.6104],[81.2485,8.5519],[81.2263,8.5319],[81.2282,8.568],[81.193,8.5684],[81.2119,8.5078],[81.1895,8.5035],[81.1984,8.4603],[81.2675,8.4567],[81.3038,8.4325],[81.3039,8.4584],[81.2829,8.4493],[81.2833,8.5034],[81.3228,8.5224],[81.3224,8.5084],[81.352,8.4927],[81.3939,8.3574],[81.4078,8.2417],[81.4731,8.0424],[81.556,7.9355],[81.5875,7.9209],[81.5671,7.8957],[81.5928,7.8302],[81.6268,7.8247],[81.6545,7.7727],[81.7011,7.7533],[81.7738,7.6405],[81.8723,7.3116],[81.8586,7.0908],[81.8813,7.0265],[81.8729,6.9806],[81.8489,6.989],[81.8592,6.9657],[81.8729,6.9665],[81.8366,6.8873],[81.8513,6.8893],[81.8485,6.8679],[81.8397,6.8542],[81.8201,6.8601],[81.8444,6.8354],[81.8237,6.8118],[81.8253,6.7658],[81.8084,6.7651],[81.828,6.7571],[81.7761,6.6644],[81.7657,6.5904],[81.7316,6.5661],[81.6987,6.48],[81.6517,6.4366],[81.5981,6.425],[81.6176,6.4135],[81.6054,6.3975],[81.5105,6.3453],[81.4861,6.3048],[81.4386,6.2842],[81.4046,6.2419],[81.3479,6.2199],[81.3272,6.1936],[81.2177,6.1579],[81.1946,6.1575],[81.2043,6.1721],[81.194,6.177],[81.178,6.1441],[81.1361,6.1302],[81.1281,6.1132],[81.0167,6.1071],[80.8744,6.0558],[80.8654,6.0406],[80.8227,6.0405],[80.7199,5.9606],[80.6631,5.9571],[80.5883,5.9165],[80.5462,5.9428],[80.449,5.9431],[80.4516,5.9606],[80.432,5.97],[80.4162,5.9543],[80.3823,5.9596],[80.244,6.007],[80.2334,6.0332],[80.2194,6.0217],[80.1892,6.0433],[80.099,6.1284],[80.0619,6.1921],[79.9968,6.4135],[80.1252,6.3825],[80.3873,6.4242],[80.5331,6.428],[80.5861,6.4066],[80.6868,6.3108],[80.8113,6.2821],[80.8906,6.2948],[80.9849,6.3677],[81.0816,6.3991],[81.1678,6.4071],[81.3082,6.3783],[81.369,6.3832],[81.4916,6.4512],[81.5923,6.5675],[81.6364,6.7019],[81.6414,6.8671],[81.6091,7.0179],[81.585,7.0555],[81.5531,7.0704],[81.4605,7.0503],[81.2289,6.9257],[81.1126,6.8808],[80.7392,6.8698],[80.5626,6.8851],[80.4129,6.9173],[80.1165,7.0543],[79.9009,7.0862],[79.8356,7.1351],[79.8196,7.199],[79.8393,7.2219],[79.8441,7.2688],[79.8592,7.2755],[79.8422,7.2788],[79.8036,7.4771],[79.7912,7.5871],[79.8062,7.6506],[79.7988,7.722],[79.7472,7.9473],[79.7062,8.0455],[79.6984,8.2141],[79.7227,8.2228],[79.7376,8.2792],[79.7699,8.3369],[79.7817,8.3495],[79.7565,8.3096],[79.7507,8.2625],[79.7651,8.2743],[79.7574,8.2569],[79.7768,8.2515],[79.7684,8.215],[79.7558,8.22],[79.7405,8.2014],[79.7492,8.1832],[79.7299,8.1345],[79.7316,8.0834],[79.7541,8.0588],[79.7441,7.9979],[79.8182,7.9731],[79.8099,7.8835],[79.8339,8.0085],[79.7887,8.0672],[79.8086,8.061],[79.7944,8.0785],[79.8339,8.1386],[79.8133,8.1777],[79.8198,8.1965],[79.7945,8.2192],[79.8097,8.2203],[79.7897,8.23],[79.811,8.2386],[79.8342,8.2919],[79.8472,8.2743],[79.8584,8.2846],[79.8347,8.3079],[79.8487,8.3572],[79.8442,8.4279],[79.8647,8.4533],[79.8697,8.5341],[79.9263,8.5587],[79.9195,8.5866],[79.9429,8.6194],[79.956,8.7187],[79.9235,8.7849],[79.9398,8.808],[79.9185,8.8079],[79.9307,8.8147],[79.9189,8.8193],[79.9358,8.8916],[79.9121,8.9295],[80.0403,9.0133],[80.0667,9.0573],[80.0859,9.0993],[80.0766,9.1229],[80.095,9.1372],[80.1178,9.2094],[80.1118,9.2775],[80.128,9.2917],[80.0654,9.3311],[80.0546,9.3907],[80.1473,9.4353],[80.1862,9.4839],[80.1539,9.5298],[80.0543,9.5974],[80.0862,9.6279],[80.0193,9.6496],[79.9709,9.7078],[79.9467,9.6878],[79.9099,9.7592],[79.9633,9.7979],[80.0204,9.8125],[80.1053,9.8059],[80.2121,9.8311],[80.2398,9.8235]]],[[[79.7912,9.0969],[79.8586,9.0731],[79.9283,9.0085],[79.8576,9.0564],[79.9232,8.9722],[79.889,8.9579],[79.8163,9.0326],[79.7063,9.0763],[79.6953,9.0992],[79.7912,9.0969]]],[[[80.1571,12.4779],[80.1423,12.4749],[80.1435,12.4403],[80.0468,12.3102],[80.0668,12.3455],[80.0577,12.3516],[79.8844,12.0559],[79.8346,11.91],[79.8187,11.9073],[79.8347,11.8997],[79.8075,11.8438],[79.8032,11.7931],[79.7759,11.7701],[79.7937,11.7702],[79.7932,11.749],[79.7662,11.6507],[79.7585,11.5466],[79.7714,11.492],[79.8188,11.4257],[79.8495,11.2596],[79.8464,11.2372],[79.8252,11.2304],[79.8515,11.2262],[79.8597,11.1807],[79.8496,10.8815],[79.8729,10.2855],[79.7624,10.2707],[79.5302,10.3132],[79.4007,10.3203],[79.3038,10.2641],[79.273,10.2341],[79.2718,10.1966],[79.246,10.1832],[79.2302,10.1424],[79.2331,10.0807],[79.2675,10.0349],[79.1657,9.9348],[79.1254,9.8805],[79.1208,9.845],[78.9899,9.6909],[78.934,9.592],[78.9189,9.4907],[78.9022,9.4856],[78.9598,9.3824],[79.0719,9.2935],[79.2002,9.2799],[79.266,9.2889],[79.2952,9.3178],[79.3292,9.3188],[79.3204,9.2691],[79.4425,9.1541],[79.3131,9.2389],[79.2719,9.2541],[79.2262,9.2496],[79.2074,9.2764],[79.0932,9.2568],[78.975,9.2697],[78.9264,9.2632],[78.9107,9.2449],[78.8751,9.2527],[78.8278,9.238],[78.7334,9.2031],[78.7198,9.1818],[78.6506,9.1915],[78.6449,9.1654],[78.6615,9.1514],[78.5836,9.1273],[78.4947,9.124],[78.4913,9.1361],[78.4178,9.1088],[78.2837,9.003],[78.2658,9.0125],[78.2681,8.9925],[78.1939,8.9253],[78.171,8.8711],[78.1541,8.7465],[78.1777,8.7594],[78.1959,8.7503],[78.2008,8.7784],[78.2064,8.7644],[78.1968,8.7412],[78.1645,8.7318],[78.1319,8.6686],[78.1332,8.4868],[78.0664,8.4095],[78.0695,8.3656],[77.8066,8.2352],[77.744,8.171],[77.5889,8.1376],[77.559,8.1123],[77.552,8.0686],[77.3164,8.1182],[77.2327,8.2569],[77.1673,8.4109],[77.1179,8.5856],[77.0871,8.7736],[77.0864,9.0993],[77.1211,9.2197],[77.1847,9.34],[77.2827,9.4662],[77.4179,9.5983],[78.192,10.1825],[78.359,10.3347],[78.4846,10.4815],[78.6258,10.7085],[78.7758,10.9988],[79.0842,11.6673],[79.2527,12.1374],[79.3688,12.3203],[79.4751,12.4045],[79.6552,12.5044],[79.8547,12.5903],[80.0247,12.6406],[80.1225,12.6489],[80.1763,12.6262],[80.1858,12.584],[80.1571,12.4779]]],[[[89.8666,25.2814],[89.9006,25.3057],[89.9531,25.3018],[90.1021,25.228],[90.3125,25.1894],[90.3612,25.1589],[90.4371,25.1447],[90.5125,25.173],[90.6182,25.1667],[90.6482,25.186],[90.6786,25.16],[90.7254,25.1569],[90.7708,25.1804],[90.8513,25.1525],[90.951,25.1576],[90.9849,25.1796],[91.0772,25.196],[91.2596,25.2025],[91.4831,25.134],[91.5977,25.1668],[91.6001,25.1391],[91.6353,25.1221],[91.6858,25.128],[91.7017,25.1558],[91.7418,25.1454],[91.7621,25.1694],[91.9407,25.181],[91.9808,25.1647],[92.0443,25.1871],[92.1239,25.1655],[92.1385,25.1371],[92.1567,25.1458],[92.1735,25.1208],[92.2036,25.1284],[92.2194,25.1001],[92.2713,25.0774],[92.3344,25.0783],[92.3375,25.0479],[92.3963,25.0359],[92.4226,24.9722],[92.4629,24.9607],[92.4503,24.9405],[92.4862,24.9368],[92.4913,24.8752],[92.4298,24.8525],[92.2822,24.8559],[92.2636,24.8377],[92.2745,24.787],[92.194,24.5737],[92.1289,24.5134],[92.1386,24.4006],[92.1015,24.3737],[91.964,24.3752],[91.9939,24.3196],[91.9608,24.3523],[91.9227,24.3305],[91.9329,24.2632],[91.905,24.1443],[91.8814,24.1439],[91.8393,24.1928],[91.8434,24.2248],[91.8096,24.2114],[91.7517,24.2364],[91.7541,24.1383],[91.694,24.1583],[91.6672,24.2235],[91.6529,24.2273],[91.638,24.1057],[91.5943,24.0774],[91.534,24.0712],[91.4799,24.0952],[91.3817,24.1046],[91.3956,24.044],[91.3686,24.0082],[91.3703,23.9777],[91.3023,23.9875],[91.2623,23.9604],[91.2672,23.9262],[91.2428,23.9209],[91.2293,23.8924],[91.246,23.8334],[91.2136,23.7393],[91.1737,23.7464],[90.859,23.6723],[90.7979,23.6846],[90.7578,23.721],[90.7424,23.6938],[90.7407,23.7238],[90.7311,23.7103],[90.7153,23.7414],[90.6819,23.6868],[90.6401,23.6875],[90.6306,23.6363],[90.5501,23.571],[90.5139,23.582],[90.5049,23.6033],[90.4824,23.5876],[90.4537,23.6152],[90.4701,23.6316],[90.4386,23.6735],[90.3689,23.7187],[90.384,23.7026],[90.366,23.7033],[90.3447,23.7391],[90.3179,23.7348],[90.3116,23.7652],[90.2557,23.7291],[90.2572,23.7754],[90.2305,23.8875],[90.2388,23.8266],[90.2032,23.8413],[90.1543,23.828],[90.1128,23.8738],[90.1103,23.8573],[90.0548,23.8207],[90.046,23.8296],[90.0629,23.8764],[90.0457,23.8897],[90.026,23.8818],[90.0228,23.9071],[89.9531,23.9623],[89.9518,23.9857],[89.9332,23.9853],[89.9496,23.9615],[89.9381,23.9549],[90.0186,23.8947],[90.0127,23.8784],[90.0538,23.8747],[90.0409,23.8277],[90.0475,23.8169],[90.0905,23.8299],[90.1248,23.8071],[90.1818,23.8021],[90.2059,23.8158],[90.2207,23.8002],[90.2414,23.8151],[90.2061,23.7517],[90.2185,23.7236],[90.2541,23.72],[90.2747,23.6864],[90.2539,23.7084],[90.2206,23.7082],[90.1825,23.7401],[90.1918,23.7194],[90.1681,23.7215],[90.1475,23.7108],[90.1235,23.7365],[90.0698,23.7579],[90.023,23.7636],[90.0241,23.7979],[90.0022,23.8161],[90.0193,23.7628],[90.1205,23.7334],[90.1451,23.7046],[90.1722,23.7165],[90.2211,23.703],[90.2483,23.7073],[90.2761,23.6547],[90.2919,23.659],[90.3975,23.6023],[90.3994,23.5775],[90.38,23.5673],[90.41,23.5802],[90.4486,23.5418],[90.504,23.5719],[90.5372,23.5618],[90.5701,23.4826],[90.5369,23.4818],[90.5543,23.4283],[90.5284,23.3908],[90.4863,23.4206],[90.4209,23.416],[90.2819,23.4471],[90.1575,23.5302],[90.1084,23.6143],[89.9669,23.6604],[89.9208,23.7195],[89.8549,23.7507],[89.7914,23.8079],[89.7749,23.899],[89.768,23.8875],[89.7045,23.956],[89.7271,23.9754],[89.7215,23.9999],[89.7142,23.9698],[89.6986,23.9645],[89.7055,23.9987],[89.6717,24.0012],[89.6556,23.934],[89.6994,23.8776],[89.7522,23.8654],[89.7719,23.8366],[89.7574,23.8477],[89.7233,23.8346],[89.6825,23.8639],[89.6828,23.8495],[89.7174,23.8311],[89.6269,23.8456],[89.5493,23.8241],[89.4497,23.8706],[89.3922,23.9399],[89.3282,23.9489],[89.2813,23.9873],[89.3156,23.9473],[89.2898,23.9463],[89.2363,23.9838],[89.1851,23.9866],[89.1608,24.0058],[89.0636,23.9904],[89.1228,23.9201],[89.126,23.9543],[89.1658,23.9263],[89.2308,23.921],[89.3005,23.8704],[89.4091,23.8972],[89.4459,23.8246],[89.5025,23.7776],[89.5359,23.7952],[89.5971,23.7975],[89.6398,23.7767],[89.7134,23.7737],[89.8616,23.6574],[89.9475,23.6365],[90.026,23.5558],[90.0179,23.5823],[90.0977,23.5656],[90.155,23.4953],[90.156,23.4285],[90.2069,23.3343],[90.1681,23.3478],[90.1639,23.3639],[90.1866,23.3599],[90.1615,23.368],[90.1684,23.3354],[90.125,23.3055],[90.1203,23.3352],[90.1446,23.3643],[90.1449,23.3779],[90.1267,23.3505],[90.0998,23.3596],[90.1209,23.3472],[90.1142,23.3259],[90.1195,23.306],[90.0939,23.3014],[90.0855,23.2752],[90.123,23.27],[90.1268,23.2424],[90.2019,23.2261],[90.1984,23.2094],[90.1668,23.2018],[90.1744,23.1684],[90.2213,23.1822],[90.2484,23.1625],[90.2337,23.1423],[90.2416,23.1261],[90.3157,23.1044],[90.3175,23.0681],[90.2677,23.0426],[90.2728,23.0252],[90.3101,23.0183],[90.3208,22.9871],[90.2739,22.9683],[90.3545,22.9193],[90.3487,22.8879],[90.3183,22.8619],[90.3641,22.7893],[90.3684,22.7364],[90.4201,22.7321],[90.4175,22.714],[90.396,22.7289],[90.3834,22.7049],[90.4002,22.7233],[90.4204,22.7086],[90.4295,22.7322],[90.4179,22.7456],[90.3775,22.7402],[90.3764,22.7528],[90.4243,22.7652],[90.4828,22.7127],[90.4768,22.6561],[90.4981,22.6715],[90.5193,22.6313],[90.5048,22.586],[90.5234,22.5967],[90.5795,22.5268],[90.6127,22.3492],[90.5924,22.2587],[90.5637,22.2441],[90.5262,22.1864],[90.5046,22.1844],[90.5039,22.1614],[90.4385,22.0669],[90.4217,22.1092],[90.4417,22.1527],[90.4267,22.1512],[90.4184,22.0897],[90.3886,22.0898],[90.3839,22.1122],[90.4058,22.1442],[90.4029,22.1674],[90.4258,22.1787],[90.3997,22.22],[90.4167,22.2617],[90.4037,22.2844],[90.4191,22.2895],[90.3788,22.293],[90.4151,22.3386],[90.3642,22.2954],[90.4081,22.2679],[90.395,22.2041],[90.4177,22.1832],[90.3983,22.1719],[90.3965,22.1447],[90.3812,22.1367],[90.3408,22.162],[90.3877,22.196],[90.388,22.2108],[90.3568,22.1796],[90.3435,22.1957],[90.3497,22.1787],[90.334,22.1623],[90.3783,22.1311],[90.3752,22.1055],[90.3318,22.1085],[90.3266,22.0884],[90.2617,22.041],[90.2751,22.0357],[90.278,21.9953],[90.2572,21.956],[90.2111,21.9824],[90.214,22.002],[90.1956,21.9792],[90.2323,21.9679],[90.218,21.9505],[90.2687,21.9458],[90.241,21.9017],[90.2611,21.8838],[90.2561,21.8674],[90.2241,21.8543],[90.2042,21.8874],[90.2396,21.9347],[90.1967,21.892],[90.221,21.8522],[90.2626,21.8593],[90.2486,21.838],[90.2159,21.8366],[90.2581,21.8364],[90.2543,21.8259],[90.2148,21.8198],[90.1679,21.7877],[90.0964,21.8094],[90.0823,21.8409],[90.1223,21.8489],[90.1013,21.8537],[90.1019,21.8741],[90.1361,21.8902],[90.1625,21.8731],[90.1532,21.8596],[90.1669,21.8634],[90.1521,21.8964],[90.1886,21.9227],[90.1548,21.9088],[90.1442,21.8906],[90.116,21.8991],[90.1164,21.916],[90.15,21.9227],[90.1377,21.9517],[90.1686,21.9802],[90.1406,21.9702],[90.1279,21.9913],[90.1418,21.9247],[90.1118,21.9223],[90.1084,21.8936],[90.0968,21.8956],[90.0998,21.9391],[90.0726,22.0019],[90.1582,22.1118],[90.213,22.114],[90.2284,22.1642],[90.2539,22.1637],[90.273,22.1789],[90.2772,22.2099],[90.259,22.1723],[90.2289,22.1726],[90.2398,22.1973],[90.22,22.2208],[90.2072,22.3078],[90.228,22.3386],[90.2736,22.3376],[90.2908,22.3515],[90.2967,22.3721],[90.2658,22.3665],[90.2814,22.408],[90.3161,22.4663],[90.3412,22.4588],[90.3622,22.4903],[90.3405,22.4664],[90.3115,22.4708],[90.2587,22.3756],[90.2551,22.3447],[90.2232,22.3427],[90.2031,22.3166],[90.2095,22.2151],[90.2298,22.1916],[90.201,22.1207],[90.1588,22.1233],[90.0911,22.0598],[90.0514,21.9702],[90.0312,21.9967],[90.0277,21.9782],[90.001,21.9869],[89.9926,22.0345],[90.03,22.0611],[90.0401,22.131],[90.0711,22.1532],[90.14,22.1553],[90.0819,22.1581],[90.0257,22.1888],[90.0791,22.2174],[90.1125,22.2894],[90.1019,22.3432],[90.177,22.4226],[90.2021,22.4865],[90.2065,22.5107],[90.1867,22.5273],[90.2029,22.5717],[90.1853,22.6248],[90.2533,22.6214],[90.2849,22.6314],[90.294,22.6556],[90.2505,22.6282],[90.1799,22.6261],[90.1974,22.5693],[90.1817,22.5257],[90.1995,22.5074],[90.1947,22.4825],[90.1725,22.4559],[90.1706,22.4245],[90.0934,22.3465],[90.1044,22.3003],[90.0698,22.2183],[90.0246,22.1958],[90.024,22.1718],[90.0632,22.1612],[90.0171,22.1243],[90.0208,22.0714],[89.983,22.0463],[89.9907,21.9948],[89.9688,21.9762],[89.934,22.0081],[89.9097,22.0713],[89.9174,22.1367],[89.8784,22.2646],[89.9244,22.38],[89.9825,22.4356],[89.9994,22.4864],[90.0253,22.4905],[90.0297,22.5646],[90.0657,22.6095],[90.0563,22.6225],[90.0255,22.6001],[90.0333,22.6506],[90.0238,22.6675],[90.0043,22.6785],[90.0278,22.6511],[90.0132,22.5992],[90.0307,22.5811],[90.0183,22.4952],[89.9547,22.5058],[89.9855,22.4868],[89.9866,22.4645],[89.9078,22.387],[89.886,22.3999],[89.8817,22.4295],[89.8785,22.4008],[89.8982,22.3673],[89.846,22.2606],[89.8906,22.1227],[89.8536,22.0684],[89.8187,22.0659],[89.857,22.0425],[89.8854,21.9064],[89.8617,21.8794],[89.844,21.8853],[89.8417,21.8567],[89.7722,21.8307],[89.7907,21.8785],[89.7531,21.8562],[89.7339,21.8911],[89.749,21.8344],[89.7157,21.8336],[89.7041,21.8497],[89.6776,21.8369],[89.6581,21.8903],[89.6795,21.9051],[89.6551,21.9136],[89.6351,21.8637],[89.712,21.7854],[89.7131,21.7681],[89.6594,21.7511],[89.6544,21.7653],[89.6101,21.7564],[89.6135,21.8117],[89.5629,21.8603],[89.59,21.9402],[89.5646,21.9623],[89.5591,21.9926],[89.5226,21.9948],[89.5139,21.9018],[89.4937,21.9067],[89.4633,21.8539],[89.4336,21.848],[89.4627,21.8461],[89.4712,21.8205],[89.4584,21.8124],[89.4711,21.8133],[89.4823,21.7792],[89.4386,21.7227],[89.3933,21.7079],[89.3798,21.7437],[89.3662,21.7429],[89.3554,21.8046],[89.3896,21.9024],[89.368,21.9052],[89.3215,21.8666],[89.3074,21.8211],[89.2868,21.8064],[89.2933,21.7568],[89.2304,21.7684],[89.2188,21.7572],[89.1973,21.8046],[89.163,21.7898],[89.1067,21.8119],[89.1111,21.8621],[89.0878,21.9118],[89.0959,21.937],[89.0842,21.9388],[89.0634,21.9273],[89.0677,21.8864],[89.0911,21.8518],[89.089,21.8032],[89.1382,21.7716],[89.1521,21.7398],[89.1373,21.7197],[89.1165,21.7199],[89.054,21.7822],[89.0656,21.8667],[89.0397,21.9077],[88.9995,21.9024],[88.9971,21.8896],[89.037,21.859],[89.0321,21.7609],[89.0807,21.7074],[89.1034,21.6534],[89.0977,21.6255],[89.0614,21.6113],[89.033,21.6379],[89.0301,21.6623],[89.0062,21.6549],[89.0288,21.6545],[89.029,21.6352],[89.0422,21.6211],[89.0259,21.6013],[89.0057,21.6056],[88.9949,21.6468],[88.9941,21.6094],[88.9523,21.6406],[88.929,21.6299],[88.9006,21.6476],[88.8754,21.7011],[88.893,21.7372],[88.8799,21.7675],[88.8504,21.7306],[88.8492,21.6804],[88.8693,21.6437],[88.8493,21.6302],[88.8529,21.6161],[88.8124,21.6329],[88.8225,21.6607],[88.7588,21.6567],[88.7216,21.6828],[88.6993,21.7413],[88.7251,21.8019],[88.6989,21.8378],[88.7311,21.9353],[88.7299,21.9781],[88.749,21.9774],[88.7691,22.015],[88.7903,22.0193],[88.7661,22.0243],[88.7594,22.0503],[88.7746,22.0531],[88.7488,22.066],[88.7158,22.0499],[88.7402,22.0315],[88.7364,22.0076],[88.6683,22.0227],[88.6343,22.1207],[88.6205,22.1069],[88.6439,22.0464],[88.6091,21.9766],[88.6199,21.9361],[88.5853,21.9853],[88.5785,21.9648],[88.6107,21.9327],[88.6096,21.9098],[88.5834,21.8858],[88.5603,21.8124],[88.5405,21.8535],[88.5029,21.8819],[88.5314,21.9299],[88.5098,21.9712],[88.5527,21.9853],[88.5652,22.0228],[88.5483,21.9885],[88.5054,21.9739],[88.5111,21.9241],[88.4851,21.8967],[88.4662,21.9004],[88.4688,21.9487],[88.46,21.9388],[88.4526,21.9079],[88.4648,21.8953],[88.485,21.8903],[88.5004,21.851],[88.4562,21.8171],[88.4696,21.7938],[88.448,21.8016],[88.4294,21.7671],[88.4363,21.7039],[88.4164,21.6527],[88.4414,21.6211],[88.4192,21.6065],[88.4184,21.5819],[88.3934,21.6057],[88.4046,21.6193],[88.3877,21.6738],[88.4116,21.7198],[88.3794,21.7298],[88.3975,21.7347],[88.4075,21.7637],[88.3915,21.7796],[88.4084,21.7989],[88.4001,21.8346],[88.4217,21.8888],[88.3999,21.8986],[88.4163,21.9239],[88.4048,21.9531],[88.3902,21.9662],[88.4104,21.9785],[88.413,21.9941],[88.3871,21.9663],[88.4116,21.9225],[88.3958,21.906],[88.398,21.8946],[88.4077,21.8859],[88.3974,21.8741],[88.397,21.7955],[88.3717,21.8006],[88.3648,21.8529],[88.3645,21.8016],[88.3297,21.7886],[88.2816,21.7969],[88.2777,21.8096],[88.3148,21.8297],[88.3237,21.8508],[88.3061,21.8664],[88.2686,21.8651],[88.3174,21.8506],[88.2584,21.7991],[88.2887,21.7598],[88.285,21.7154],[88.3063,21.6759],[88.2955,21.6068],[88.3255,21.5795],[88.3052,21.5609],[88.2606,21.5582],[88.2451,21.606],[88.2265,21.6181],[88.2493,21.6474],[88.2433,21.6758],[88.2102,21.6904],[88.2311,21.7008],[88.2165,21.7908],[88.2376,21.7644],[88.2402,21.7795],[88.212,21.8018],[88.2011,21.8507],[88.1645,21.8907],[88.1736,21.9305],[88.1487,21.9594],[88.2329,22.0686],[88.2144,22.1569],[88.1731,22.1973],[88.086,22.2092],[88.0779,22.223],[88.0338,22.218],[88.0319,22.2018],[88.1442,22.1868],[88.1932,22.1282],[88.1957,22.1037],[88.1618,22.0645],[88.062,22.0134],[88.0491,21.9632],[87.9766,21.8497],[87.9352,21.8113],[87.8866,21.8031],[87.891,21.779],[87.831,21.7238],[87.7876,21.6997],[87.7555,21.7011],[87.7032,21.6602],[87.6638,21.6495],[87.6514,21.6656],[87.6367,21.6471],[87.3716,21.578],[87.3705,21.5618],[87.1956,21.5494],[87.1966,21.5382],[87.1237,21.5148],[87.066,21.473],[86.8943,21.3133],[86.8167,21.1383],[86.9295,20.9011],[86.9724,20.8446],[86.9742,20.7699],[86.9993,20.761],[87.0138,20.7259],[86.9957,20.6995],[87.0253,20.6897],[87.0517,20.7024],[86.7661,20.5057],[86.7365,20.452],[86.7403,20.4123],[86.7226,20.3935],[86.7418,20.3778],[86.7282,20.3617],[86.7785,20.3974],[86.77,20.3672],[86.7856,20.366],[86.7633,20.3356],[86.8019,20.3649],[86.8077,20.3953],[86.8055,20.3607],[86.7207,20.2997],[86.6841,20.3174],[86.6954,20.2818],[86.765,20.3143],[86.5374,20.1809],[86.4261,20.0256],[86.423,20.0496],[86.4009,20.0053],[86.4289,19.9945],[86.4172,19.9767],[86.1578,19.8714],[86.0759,19.8488],[86.0873,19.8592],[86.0496,19.8556],[86.0658,19.8436],[85.9328,19.8215],[85.6853,19.7449],[85.4344,19.6256],[85.2434,19.5097],[85.1224,19.4198],[85.0879,19.3694],[84.9108,19.2519],[84.8232,19.147],[84.8083,19.1466],[84.801,19.1103],[84.6915,18.956],[84.5984,18.8653],[84.5625,18.7891],[84.4576,18.6872],[84.447,18.6521],[84.386,18.6003],[84.3628,18.5504],[84.1702,18.383],[84.1375,18.3437],[84.1368,18.3084],[83.9642,18.2164],[83.9344,18.2254],[83.9427,18.2055],[83.8113,18.1604],[83.6741,18.0857],[83.5753,18.0094],[83.5468,17.9549],[83.4721,17.8984],[83.4688,17.9202],[83.4438,17.934],[83.4671,17.8857],[83.4137,17.8405],[83.4169,17.8078],[83.3574,17.7571],[83.3505,17.7277],[83.2944,17.6912],[83.3015,17.6781],[83.2427,17.6342],[83.2144,17.5896],[83.0272,17.5114],[82.9881,17.4695],[82.8943,17.4244],[82.8831,17.4381],[82.8635,17.413],[82.647,17.3109],[82.4943,17.2126],[82.3006,17.0409],[82.2792,17.0006],[82.277,16.9425],[82.2526,16.9201],[82.2667,16.8882],[82.2567,16.8644],[82.2723,16.8873],[82.2758,16.8549],[82.2921,16.8749],[82.304,16.8567],[82.3199,16.8672],[82.3209,16.8372],[82.3391,16.8596],[82.3694,16.8561],[82.3673,16.8111],[82.3745,16.9256],[82.35,16.9704],[82.3719,16.9526],[82.3799,16.9022],[82.3781,16.8245],[82.3464,16.7162],[82.3559,16.7112],[82.3202,16.6427],[82.3214,16.6135],[82.302,16.6078],[82.3163,16.5829],[81.9545,16.3964],[81.8681,16.3791],[81.7319,16.3134],[81.5109,16.3597],[81.327,16.3135],[81.2581,16.2645],[81.2018,16.1791],[81.1881,16.1455],[81.2138,16.1756],[81.206,16.124],[81.1488,16.0028],[81.155,15.9705],[81.048,15.9041],[80.9932,15.8326],[81.0017,15.7717],[81.0317,15.7589],[80.9384,15.7078],[80.8987,15.7161],[80.8139,15.7002],[80.7818,15.8479],[80.8089,15.7778],[80.8098,15.8394],[80.7694,15.8686],[80.701,15.8811],[80.6199,15.8787],[80.5324,15.8541],[80.3977,15.7885],[80.3053,15.7173],[80.246,15.6259],[80.2057,15.4724],[80.0955,15.329],[80.0826,15.2589],[80.0924,15.2091],[80.0775,15.1873],[80.065,15.1919],[80.0735,15.1694],[80.0438,15.084],[80.089,14.863],[80.0872,14.8059],[80.148,14.691],[80.1543,14.6372],[80.1961,14.5708],[80.1708,14.3544],[80.1253,14.1984],[80.1591,13.9909],[80.1136,13.9894],[80.0132,14.0379],[79.7513,14.2281],[79.6535,14.3554],[79.5913,14.552],[79.533,14.9431],[79.5328,15.2977],[79.5812,15.6806],[79.6592,15.9991],[79.7672,16.2564],[79.9069,16.4568],[80.0148,16.555],[80.1617,16.6534],[82.0727,17.7504],[82.4912,18.0387],[82.9317,18.3824],[83.593,18.9608],[84.6201,19.9329],[84.9633,20.29],[85.9115,21.3451],[86.2291,21.6524],[86.533,21.9044],[86.7991,22.0898],[87.1155,22.2803],[88.1017,22.8067],[88.5319,23.0614],[88.7583,23.1649],[88.7833,23.1998],[88.7847,23.2408],[88.7295,23.2557],[88.7017,23.3039],[88.7148,23.3154],[88.7284,23.305],[88.7328,23.3231],[88.7491,23.3155],[88.737,23.3531],[88.7723,23.3707],[88.7706,23.4373],[88.7971,23.449],[88.8028,23.491],[88.7855,23.5014],[88.7777,23.4796],[88.7531,23.4757],[88.738,23.5063],[88.6638,23.5518],[88.6524,23.6051],[88.5959,23.6023],[88.6045,23.6371],[88.5702,23.6481],[88.5859,23.6748],[88.5912,23.7607],[88.5747,23.786],[88.6135,23.8069],[88.5963,23.8606],[88.6202,23.8747],[88.6687,23.8641],[88.7172,23.9069],[88.7384,23.9063],[88.746,23.9755],[88.7759,23.9847],[88.7592,24.0055],[88.7379,23.9973],[88.7344,24.0134],[88.7568,24.0294],[88.7261,24.0421],[88.746,24.0544],[88.697,24.1069],[88.6979,24.1672],[88.715,24.2002],[88.7324,24.2015],[88.7318,24.2765],[88.6299,24.4057],[88.5944,24.5342],[88.6147,24.7258],[88.6998,24.9413],[88.8083,25.1112],[88.9334,25.2448],[89.0385,25.3124],[89.2171,25.3773],[89.4745,25.4313],[89.6772,25.4335],[89.7889,25.3916],[89.8208,25.3522],[89.8347,25.2965],[89.8666,25.2814]]]]}}