{"type":"Feature","properties":{"speciesId":689,"category":"NT","source":"IUCN Red List","simplifyTol":0.01,"clippedToSubcontinent":true},"geometry":{"type":"Polygon","coordinates":[[[76.688,9.4203],[76.7651,9.1411],[76.9571,8.8504],[77.0153,8.7009],[77.0502,8.4861],[77.0251,8.4396],[76.9757,8.4106],[76.6206,8.8431],[76.5474,8.8966],[76.5143,9.0175],[76.4563,9.1273],[76.4843,9.1152],[76.4927,9.1659],[76.4747,9.162],[76.4702,9.1417],[76.4299,9.2483],[76.4207,9.2326],[76.4567,9.1415],[76.4452,9.1618],[76.3372,9.4191],[76.3034,9.5645],[76.2861,9.7485],[76.2456,9.9205],[76.2601,9.9836],[76.3094,10.0443],[76.3752,10.0896],[76.6486,10.1909],[76.7234,10.169],[76.7634,10.0853],[76.7429,10.0004],[76.6387,9.8919],[76.6118,9.7938],[76.6043,9.5746],[76.688,9.4203]],[[76.4732,9.1114],[76.4726,9.1117],[76.4732,9.1099],[76.4732,9.1114]],[[76.4732,9.1099],[76.487,9.0777],[76.4967,9.0666],[76.495,9.0805],[76.4732,9.1099]]]}}