{"type":"Feature","properties":{"speciesId":69,"category":"DD","source":"IUCN Red List","simplifyTol":0.01,"clippedToSubcontinent":true},"geometry":{"type":"MultiPolygon","coordinates":[[[[77.0557,8.7008],[77.0232,8.7337],[77.0565,8.7663],[77.0887,8.7332],[77.0557,8.7008]]],[[[78.3077,11.1244],[78.2661,11.1416],[78.2486,11.1832],[78.2661,11.2253],[78.3077,11.2425],[78.3493,11.2253],[78.3667,11.1838],[78.3493,11.1416],[78.3077,11.1244]]],[[[76.3065,11.398],[76.2672,11.4142],[76.2507,11.4535],[76.2672,11.4934],[76.3065,11.5096],[76.3459,11.4934],[76.3623,11.4541],[76.3463,11.4147],[76.3065,11.398]]],[[[78.3179,11.9674],[78.2883,11.9797],[78.276,12.0093],[78.2883,12.0389],[78.3179,12.0511],[78.3475,12.0389],[78.3597,12.0093],[78.3475,11.9797],[78.3179,11.9674]]],[[[74.9797,13.7254],[74.9483,13.7571],[74.9799,13.7886],[75.0116,13.7571],[74.9797,13.7254]]]]}}