{"type":"Feature","properties":{"speciesId":691,"category":"LC","source":"IUCN Red List","simplifyTol":0.01,"clippedToSubcontinent":true},"geometry":{"type":"MultiPolygon","coordinates":[[[[95.5221,5.5944],[95.5265,5.6109],[95.6132,5.6266],[95.6729,5.5857],[95.8291,5.5321],[95.879,5.5068],[95.8887,5.4537],[95.9291,5.4023],[96.049,5.327],[96.0735,5.2928],[96.1823,5.2636],[96.2587,5.2634],[96.3883,5.2149],[96.465,5.2376],[96.4908,5.2046],[96.5318,5.2027],[96.6139,5.2144],[96.7202,5.2559],[96.8273,5.2776],[96.8552,5.2774],[96.8303,5.2714],[96.8998,5.2516],[96.9753,5.2665],[97.0818,5.2327],[97.1448,5.2004],[97.1432,5.1623],[97.1981,5.1461],[97.4967,5.2537],[97.5137,5.2464],[97.5468,5.2151],[97.5273,5.2057],[97.57,5.1904],[97.5722,5.1386],[97.6018,5.1419],[97.611,5.1139],[97.6525,5.1197],[97.648,5.0751],[97.806,4.9341],[97.9015,4.8871],[97.934,4.808],[97.9619,4.7262],[97.9615,4.668],[97.9946,4.6349],[98.0,4.6047],[97.9604,4.5316],[97.9823,4.5447],[98.0,4.5268],[98.0,4.0],[97.8571,4.0],[97.8358,4.0237],[97.8477,4.0445],[97.8287,4.0622],[97.832,4.0869],[97.8138,4.0834],[97.8045,4.1075],[97.8017,4.0879],[97.784,4.0929],[97.7677,4.1417],[97.7501,4.1197],[97.7772,4.0774],[97.7547,4.0629],[97.7841,4.063],[97.7803,4.0297],[97.8094,4.0391],[97.8159,4.0],[97.6716,4.0],[97.6852,4.0543],[97.6653,4.07],[97.6655,4.1065],[97.6456,4.0747],[97.6199,4.0832],[97.6208,4.009],[97.5664,4.0345],[97.5513,4.0677],[97.5035,4.0335],[97.472,4.0309],[97.4324,4.0531],[97.4226,4.0703],[97.4612,4.1131],[97.4833,4.0673],[97.5129,4.087],[97.5178,4.1175],[97.5413,4.1183],[97.5354,4.1573],[97.4948,4.1444],[97.5009,4.1755],[97.4889,4.1829],[97.491,4.2048],[97.5116,4.2118],[97.5018,4.2319],[97.5361,4.2246],[97.5384,4.2361],[97.4998,4.2675],[97.4973,4.3141],[97.4747,4.2627],[97.447,4.3091],[97.4629,4.3242],[97.4451,4.3281],[97.4428,4.3459],[97.4176,4.3434],[97.4081,4.3094],[97.3717,4.3689],[97.3311,4.36],[97.371,4.3862],[97.394,4.3656],[97.4099,4.3801],[97.3661,4.4385],[97.3872,4.4467],[97.3746,4.461],[97.3998,4.4542],[97.4031,4.4663],[97.3113,4.518],[97.3489,4.5436],[97.3206,4.5854],[97.306,4.5433],[97.2692,4.5689],[97.2322,4.5335],[97.2869,4.4816],[97.2819,4.4545],[97.323,4.4652],[97.337,4.4308],[97.2822,4.4108],[97.3009,4.3368],[97.2757,4.3504],[97.2591,4.3422],[97.2742,4.3113],[97.3276,4.2743],[97.326,4.2599],[97.303,4.2695],[97.2951,4.258],[97.2875,4.2746],[97.2607,4.2629],[97.2623,4.2859],[97.2255,4.3178],[97.2153,4.3074],[97.2275,4.2701],[97.1776,4.287],[97.1853,4.2497],[97.1125,4.2802],[97.0215,4.2806],[97.055,4.3136],[97.0841,4.3027],[97.0802,4.319],[97.1116,4.3273],[97.0943,4.3462],[97.0703,4.3362],[97.0656,4.362],[97.024,4.3358],[96.9942,4.3385],[97.0279,4.3543],[97.0209,4.3784],[96.9333,4.3834],[96.948,4.4146],[96.9851,4.4316],[96.9815,4.4499],[96.9547,4.4382],[96.9455,4.4508],[96.9094,4.4488],[96.9073,4.4269],[96.8969,4.4441],[96.8614,4.4461],[96.8502,4.4886],[96.8818,4.4727],[96.9143,4.4937],[96.9207,4.4679],[96.9539,4.4699],[96.9532,4.4871],[97.0369,4.4693],[97.0271,4.4882],[97.0019,4.4846],[96.9709,4.5062],[97.011,4.4962],[97.0401,4.5102],[97.0786,4.4835],[97.0599,4.546],[97.1157,4.5027],[97.1539,4.5134],[97.1124,4.5688],[97.0924,4.5635],[97.1026,4.5843],[97.0819,4.587],[97.0847,4.6123],[97.0658,4.6133],[97.0443,4.6505],[97.0295,4.6453],[97.0208,4.663],[97.0048,4.6525],[97.0132,4.6952],[96.9966,4.6956],[96.9841,4.6673],[96.9657,4.6908],[96.9607,4.6706],[96.8878,4.689],[96.9437,4.7073],[96.9619,4.7448],[96.9538,4.7631],[96.9968,4.7474],[97.0138,4.7693],[97.0482,4.7627],[97.0744,4.7957],[97.1493,4.806],[97.1565,4.8371],[97.1313,4.8415],[97.1157,4.8638],[97.0991,4.8672],[97.0924,4.8487],[97.0614,4.8554],[97.0615,4.8353],[97.0437,4.8489],[97.029,4.8201],[97.0128,4.8458],[96.9831,4.8398],[96.9881,4.8583],[96.9646,4.8604],[96.9873,4.8893],[96.9679,4.8903],[96.9406,4.8498],[96.9054,4.9036],[96.8824,4.9138],[96.7921,4.8901],[96.7698,4.795],[96.8202,4.704],[96.7706,4.6823],[96.7424,4.6148],[96.7814,4.595],[96.8088,4.605],[96.8217,4.5562],[96.8034,4.5584],[96.7998,4.5836],[96.7133,4.5939],[96.7438,4.5717],[96.7736,4.5725],[96.7771,4.557],[96.7456,4.5539],[96.7372,4.5354],[96.6883,4.5661],[96.7,4.5259],[96.6748,4.5274],[96.673,4.5452],[96.6456,4.545],[96.6654,4.5664],[96.6567,4.5831],[96.6869,4.6092],[96.6422,4.6174],[96.6401,4.5818],[96.6243,4.6426],[96.6603,4.6412],[96.6825,4.6661],[96.6236,4.738],[96.5243,4.7803],[96.4948,4.8341],[96.5405,4.8455],[96.5219,4.8804],[96.5581,4.8652],[96.5412,4.903],[96.5126,4.9079],[96.5176,4.9292],[96.5468,4.9283],[96.5167,4.9672],[96.4986,4.9469],[96.4618,4.9701],[96.4288,4.9388],[96.4325,4.9808],[96.4101,4.9847],[96.4219,5.0146],[96.4013,5.0225],[96.3889,4.9845],[96.3727,5.0119],[96.3344,5.0076],[96.3456,5.0353],[96.3242,5.0713],[96.2928,5.0618],[96.2627,5.1013],[96.2318,5.0895],[96.2574,5.0454],[96.2478,5.0264],[96.2715,4.9973],[96.2572,4.9897],[96.2745,4.9674],[96.2613,4.9702],[96.2529,4.9471],[96.2389,4.9809],[96.2194,4.983],[96.2133,5.0359],[96.1641,5.0377],[96.153,5.0624],[96.1284,5.0598],[96.1453,5.0997],[96.11,5.0781],[96.0961,5.0964],[96.0697,5.0944],[96.0854,5.0744],[96.0769,5.0548],[96.0436,5.0671],[96.0311,5.0567],[96.0097,5.0829],[95.9772,5.0916],[95.9928,5.0504],[96.0227,5.0319],[96.0292,5.002],[96.0081,4.9886],[96.0312,4.9618],[96.0668,4.9472],[96.0487,4.9942],[96.0914,4.9589],[96.0945,4.9951],[96.123,4.9344],[96.1303,4.9581],[96.1653,4.9423],[96.1732,4.9613],[96.1985,4.9443],[96.1774,4.932],[96.1925,4.9138],[96.1587,4.9123],[96.2281,4.8945],[96.2169,4.8622],[96.2353,4.8434],[96.216,4.8203],[96.1829,4.8177],[96.1985,4.7948],[96.2081,4.8116],[96.2351,4.8038],[96.2506,4.7907],[96.2462,4.7705],[96.2731,4.765],[96.2925,4.7761],[96.2676,4.8155],[96.2933,4.8319],[96.3449,4.8082],[96.3253,4.8304],[96.335,4.8391],[96.3717,4.8216],[96.3848,4.8447],[96.3777,4.8711],[96.4007,4.8523],[96.4212,4.8669],[96.4267,4.8203],[96.482,4.7794],[96.496,4.7387],[96.5288,4.7166],[96.5268,4.751],[96.5411,4.7546],[96.5659,4.7312],[96.553,4.6943],[96.5987,4.6964],[96.6367,4.6674],[96.6047,4.6626],[96.6003,4.632],[96.5727,4.6531],[96.5746,4.6284],[96.5579,4.6466],[96.5264,4.6401],[96.5214,4.6176],[96.4997,4.6111],[96.5143,4.5715],[96.4815,4.596],[96.4652,4.6321],[96.4227,4.657],[96.4494,4.682],[96.4465,4.6917],[96.4249,4.672],[96.4082,4.681],[96.426,4.6835],[96.4161,4.7047],[96.3515,4.6897],[96.3773,4.6808],[96.3643,4.6657],[96.3918,4.6579],[96.3822,4.6383],[96.4061,4.6546],[96.4314,4.6427],[96.4281,4.6231],[96.4665,4.6079],[96.4569,4.5917],[96.4766,4.5637],[96.4469,4.556],[96.4956,4.5461],[96.474,4.524],[96.4982,4.5018],[96.5113,4.5071],[96.5516,4.4683],[96.5372,4.4895],[96.5502,4.5137],[96.5664,4.48],[96.6,4.5032],[96.5825,4.4703],[96.6106,4.4705],[96.6161,4.4924],[96.6568,4.4905],[96.608,4.4222],[96.6724,4.3767],[96.5543,4.4085],[96.5384,4.3975],[96.4854,4.454],[96.4948,4.4184],[96.456,4.4043],[96.4888,4.3643],[96.5318,4.3566],[96.5429,4.3274],[96.5658,4.3264],[96.5413,4.3084],[96.5419,4.2849],[96.5665,4.2994],[96.5929,4.2927],[96.5939,4.3146],[96.6219,4.324],[96.6324,4.2919],[96.6729,4.31],[96.6849,4.3009],[96.6785,4.3256],[96.7015,4.3051],[96.714,4.3178],[96.7392,4.3123],[96.7022,4.2855],[96.7184,4.2679],[96.6805,4.275],[96.6481,4.2506],[96.6246,4.2596],[96.6339,4.2349],[96.6201,4.2191],[96.6486,4.1993],[96.6534,4.2236],[96.6712,4.2192],[96.6663,4.1743],[96.7035,4.1786],[96.7123,4.2258],[96.7412,4.1921],[96.7772,4.189],[96.7733,4.1734],[96.7888,4.1724],[96.7649,4.1498],[96.8185,4.1732],[96.8033,4.1374],[96.8234,4.1249],[96.8075,4.1018],[96.8506,4.0837],[96.8558,4.0614],[96.8769,4.0753],[96.9039,4.0646],[96.9088,4.0974],[96.8676,4.096],[96.8587,4.1505],[96.8783,4.1219],[96.8958,4.1589],[96.9386,4.1718],[96.8794,4.2168],[96.8788,4.2352],[96.9413,4.2018],[96.9779,4.2072],[96.9889,4.1786],[97.0129,4.1943],[97.0171,4.1638],[97.0399,4.1663],[97.0492,4.1474],[97.0732,4.1551],[97.059,4.1285],[97.1049,4.1241],[97.0964,4.0943],[97.1296,4.0968],[97.1337,4.0739],[97.1701,4.103],[97.1543,4.1781],[97.2868,4.109],[97.3347,4.1455],[97.3133,4.0884],[97.3419,4.0812],[97.3449,4.0605],[97.3758,4.0504],[97.3765,4.0257],[97.4145,4.0],[97.2231,4.0],[97.0882,4.0384],[97.0609,4.0158],[97.0619,4.0365],[97.0201,4.0373],[97.0152,4.0068],[96.9915,4.0463],[96.9749,4.0416],[96.9881,4.0],[96.9487,4.0287],[96.9584,4.0],[96.8523,4.0],[96.8236,4.003],[96.7501,4.0576],[96.7767,4.0118],[96.8121,4.0],[96.2775,4.0],[96.1485,4.1406],[96.1249,4.128],[96.0536,4.206],[96.0229,4.196],[95.7128,4.5268],[95.6081,4.6162],[95.5654,4.6262],[95.5834,4.6462],[95.5723,4.6567],[95.5387,4.6473],[95.4818,4.7609],[95.4119,4.8179],[95.4252,4.8339],[95.3756,4.9197],[95.3694,4.9459],[95.3817,4.9568],[95.3555,4.9992],[95.3623,5.0193],[95.3045,5.0793],[95.3152,5.0834],[95.3041,5.1067],[95.2825,5.1073],[95.3067,5.1271],[95.3055,5.1652],[95.2367,5.2204],[95.2503,5.2266],[95.2336,5.2472],[95.2385,5.2724],[95.2113,5.2699],[95.2156,5.3179],[95.2336,5.3195],[95.2223,5.3417],[95.2331,5.3582],[95.2389,5.3385],[95.2483,5.3663],[95.2286,5.4272],[95.2409,5.4467],[95.2295,5.4922],[95.1897,5.5228],[95.2202,5.5705],[95.2424,5.5512],[95.2806,5.5506],[95.3247,5.5899],[95.3527,5.5887],[95.4314,5.6564],[95.4651,5.6437],[95.4974,5.5988],[95.5221,5.5944]],[[95.6586,5.4302],[95.672,5.4451],[95.6453,5.4502],[95.6456,5.4405],[95.6586,5.4302]],[[95.3783,5.2906],[95.3756,5.2735],[95.3544,5.291],[95.328,5.2855],[95.3512,5.2793],[95.409,5.1934],[95.4213,5.2242],[95.3983,5.2247],[95.3971,5.2777],[95.3783,5.2906]],[[95.4821,5.2427],[95.4984,5.1941],[95.565,5.2033],[95.6056,5.1871],[95.6322,5.1484],[95.5957,5.1383],[95.632,5.1067],[95.6044,5.0846],[95.6049,5.0501],[95.5859,5.0434],[95.593,4.9872],[95.6207,5.0134],[95.6439,4.9929],[95.6858,5.0018],[95.6809,4.9793],[95.7045,4.9747],[95.7086,5.0157],[95.7259,4.992],[95.7442,4.9957],[95.7433,4.9793],[95.7632,4.9779],[95.7346,5.0415],[95.6852,5.042],[95.6855,5.0581],[95.7137,5.0634],[95.7621,5.0403],[95.7662,5.0157],[95.789,5.0217],[95.8034,4.9839],[95.8186,4.9915],[95.8128,5.0083],[95.8404,4.9793],[95.873,4.9814],[95.8636,5.0246],[95.8502,5.0069],[95.8289,5.05],[95.7839,5.0486],[95.8028,5.08],[95.7585,5.0781],[95.6756,5.1284],[95.645,5.1263],[95.6708,5.136],[95.6547,5.159],[95.626,5.1604],[95.6198,5.1894],[95.5773,5.2139],[95.5119,5.2247],[95.506,5.2417],[95.4821,5.2427]],[[95.7693,5.1641],[95.7858,5.127],[95.8115,5.127],[95.8165,5.0954],[95.8498,5.0781],[95.8296,5.0995],[95.8296,5.1269],[95.7842,5.1694],[95.7693,5.1641]],[[96.3798,5.0683],[96.3903,5.0403],[96.4107,5.064],[96.3906,5.0782],[96.3798,5.0683]],[[96.6135,4.7995],[96.6276,4.7507],[96.6657,4.7769],[96.6135,4.7995]],[[97.3946,4.6629],[97.4167,4.5999],[97.3973,4.5871],[97.4123,4.5711],[97.4271,4.5867],[97.4947,4.5607],[97.4583,4.6266],[97.4326,4.6184],[97.425,4.6522],[97.3946,4.6629]],[[97.2104,4.5529],[97.2112,4.607],[97.1953,4.5821],[97.2104,4.5529]],[[97.4131,4.5176],[97.4247,4.4958],[97.4493,4.4885],[97.4131,4.5176]],[[97.4243,4.478],[97.4141,4.4475],[97.4353,4.4453],[97.4518,4.4661],[97.4243,4.478]],[[97.5591,4.3139],[97.5642,4.3163],[97.5632,4.3244],[97.5591,4.3139]],[[97.6211,4.2793],[97.6221,4.2896],[97.5969,4.2998],[97.6021,4.293],[97.6211,4.2793]],[[97.6062,4.1699],[97.6191,4.1223],[97.6094,4.2079],[97.6062,4.1699]],[[97.7363,4.1306],[97.7466,4.1278],[97.7357,4.1369],[97.7363,4.1306]],[[97.6203,4.101],[97.634,4.1046],[97.6248,4.1125],[97.6203,4.101]],[[97.7098,4.0793],[97.7181,4.0815],[97.7107,4.0933],[97.7098,4.0793]],[[97.7198,4.0062],[97.7294,4.0305],[97.7167,4.0493],[97.7095,4.0154],[97.7198,4.0062]],[[97.2054,4.0411],[97.2323,4.0412],[97.2416,4.0172],[97.2918,4.0463],[97.3239,4.023],[97.31,4.0602],[97.2825,4.0715],[97.2631,4.0599],[97.2486,4.0862],[97.2241,4.078],[97.2149,4.09],[97.1864,4.072],[97.2054,4.0411]],[[97.1882,4.1097],[97.2238,4.1315],[97.1819,4.153],[97.1882,4.1097]],[[96.9813,4.1222],[96.9768,4.1152],[96.9957,4.1123],[96.9813,4.1222]],[[96.663,4.1552],[96.6492,4.1735],[96.6326,4.1751],[96.6511,4.15],[96.663,4.1552]],[[96.4412,4.4691],[96.4277,4.5127],[96.4122,4.5241],[96.4164,4.4913],[96.4412,4.4691]],[[96.5091,4.6658],[96.5177,4.6594],[96.5177,4.663],[96.5091,4.6658]],[[96.4788,4.6517],[96.4617,4.6493],[96.4744,4.6339],[96.4788,4.6517]],[[96.0699,4.7603],[96.0598,4.7545],[96.0705,4.7563],[96.0699,4.7603]],[[95.6669,4.8625],[95.738,4.9208],[95.7091,4.9079],[95.6955,4.9192],[95.6742,4.9005],[95.6669,4.8625]],[[95.7444,4.9134],[95.7621,4.9224],[95.7717,4.939],[95.7646,4.9367],[95.7444,4.9134]],[[95.9149,4.9329],[95.9186,4.944],[95.9473,4.9375],[95.9443,4.9541],[95.8993,4.9612],[95.9149,4.9329]],[[95.8931,4.9728],[95.8858,4.9878],[95.878,4.9802],[95.8931,4.9728]],[[95.9595,5.0485],[95.9733,5.0582],[95.9414,5.0672],[95.9595,5.0485]],[[95.526,5.0367],[95.5165,5.0395],[95.5165,5.0309],[95.526,5.0367]]],[[[97.998,4.6246],[98.0,4.6279],[98.0,4.6171],[97.998,4.6246]]],[[[93.7185,7.2117],[93.7113,7.2013],[93.7057,7.2258],[93.7185,7.2117]]],[[[93.8348,7.2369],[93.8821,7.197],[93.897,7.0791],[93.9251,7.0201],[93.9547,6.9984],[93.9206,6.9981],[93.95,6.9523],[93.9282,6.9466],[93.924,6.9097],[93.9074,6.8998],[93.9004,6.8466],[93.9191,6.8288],[93.9137,6.8025],[93.8934,6.7908],[93.8853,6.8064],[93.8663,6.8033],[93.8398,6.7471],[93.8175,6.7601],[93.8268,6.8034],[93.7974,6.8258],[93.8052,6.8429],[93.7851,6.8659],[93.7998,6.8743],[93.773,6.9125],[93.7606,6.9036],[93.7512,6.9152],[93.7477,6.9585],[93.6882,7.0176],[93.6598,7.0112],[93.6711,7.0319],[93.6573,7.0934],[93.6718,7.1099],[93.6536,7.12],[93.678,7.1442],[93.6724,7.1738],[93.6879,7.1854],[93.7329,7.1823],[93.7622,7.2069],[93.8033,7.1959],[93.8043,7.2255],[93.8348,7.2369]]],[[[93.7108,7.3892],[93.746,7.3621],[93.7339,7.3215],[93.6705,7.2797],[93.6453,7.2407],[93.6147,7.3039],[93.6295,7.3143],[93.6236,7.3688],[93.6613,7.3675],[93.702,7.3899],[93.6946,7.4414],[93.7108,7.3892]]],[[[93.4042,8.0017],[93.4055,7.9631],[93.4593,7.9299],[93.4641,7.8666],[93.4193,7.899],[93.382,7.8756],[93.3568,7.8827],[93.3456,7.9033],[93.3617,7.9295],[93.3457,7.943],[93.3299,7.9121],[93.3151,7.9387],[93.3343,8.0054],[93.3713,8.0189],[93.4042,8.0017]]],[[[93.5263,8.0229],[93.5448,7.9988],[93.5413,8.0197],[93.5585,8.0212],[93.5755,7.9936],[93.5728,7.9256],[93.5072,7.98],[93.5263,8.0229]]],[[[93.5817,8.1185],[93.5964,8.0474],[93.5871,8.0374],[93.5698,8.0591],[93.5712,8.0722],[93.5845,8.0634],[93.5689,8.0914],[93.5767,8.112],[93.559,8.1088],[93.5605,8.1196],[93.5817,8.1185]]],[[[93.5349,8.1763],[93.513,8.1811],[93.4996,8.1446],[93.5464,8.0824],[93.5445,8.0392],[93.5269,8.0471],[93.5052,8.0296],[93.4994,7.9924],[93.484,8.0109],[93.4839,8.0886],[93.4623,8.1053],[93.4713,8.1206],[93.4564,8.1165],[93.4513,8.1697],[93.4878,8.1987],[93.4908,8.2198],[93.5188,8.2298],[93.5382,8.2269],[93.5435,8.2092],[93.5349,8.1763]]],[[[93.221,8.2279],[93.1996,8.2409],[93.2058,8.2633],[93.2216,8.2491],[93.221,8.2279]]],[[[93.1143,8.3577],[93.1148,8.275],[93.1821,8.2281],[93.1834,8.201],[93.1097,8.2255],[93.0744,8.2767],[93.0827,8.3384],[93.1143,8.3577]]],[[[93.6379,8.391],[93.6287,8.3867],[93.6256,8.3915],[93.6379,8.391]]],[[[93.0391,8.441],[93.0237,8.4516],[93.0301,8.471],[93.0422,8.4652],[93.0391,8.441]]],[[[93.6249,8.4658],[93.6118,8.4665],[93.6052,8.4193],[93.5951,8.5693],[93.6249,8.4658]]],[[[92.8519,8.8165],[92.8485,8.8282],[92.8608,8.8389],[92.8607,8.8302],[92.8519,8.8165]]],[[[79.6883,9.071],[79.689,9.075],[79.6993,9.0734],[79.6883,9.071]]],[[[79.6983,9.1014],[79.8586,9.0731],[79.9283,9.0085],[79.8576,9.0564],[79.9232,8.9722],[79.889,8.9579],[79.8163,9.0326],[79.7004,9.0805],[79.6983,9.1014]]],[[[92.8047,9.2164],[92.8203,9.1354],[92.7964,9.1204],[92.768,9.1213],[92.7825,9.1266],[92.7737,9.1384],[92.7236,9.1216],[92.7166,9.216],[92.7605,9.2171],[92.7668,9.2593],[92.8047,9.2164]]],[[[79.6916,9.5207],[79.7251,9.5226],[79.7271,9.4799],[79.6604,9.5007],[79.653,9.5535],[79.6746,9.5498],[79.6916,9.5207]]],[[[79.7995,9.5898],[79.794,9.5846],[79.7955,9.5892],[79.7995,9.5898]]],[[[79.8336,9.6055],[79.8273,9.6121],[79.8372,9.6099],[79.8336,9.6055]]],[[[79.7733,9.5849],[79.7619,9.5986],[79.7722,9.6206],[79.7757,9.6141],[79.7733,9.5849]]],[[[79.8325,9.5865],[79.8639,9.6054],[79.8582,9.568],[79.8082,9.5772],[79.8102,9.6223],[79.8325,9.5865]]],[[[79.8648,9.6259],[79.8559,9.6243],[79.8543,9.6348],[79.8648,9.6259]]],[[[79.8512,9.6993],[79.8868,9.6968],[79.9108,9.6559],[79.9084,9.6712],[79.9334,9.6776],[79.9271,9.6624],[79.9831,9.6203],[79.9701,9.6115],[79.9249,9.6329],[79.9068,9.6135],[79.8743,9.6348],[79.8766,9.6666],[79.8611,9.6581],[79.8512,9.6993]]],[[[79.8964,9.7559],[79.8922,9.7076],[79.8562,9.7099],[79.8644,9.7594],[79.8964,9.7559]]],[[[80.2386,9.8235],[80.3657,9.6603],[80.8117,9.2909],[80.8841,9.1219],[81.0005,8.9388],[80.993,8.918],[81.0102,8.929],[81.013,8.8911],[81.021,8.9048],[81.0589,8.8595],[81.0875,8.8584],[81.1048,8.8126],[81.2267,8.6475],[81.2208,8.6062],[81.2298,8.581],[81.2451,8.5793],[81.2471,8.5458],[81.2257,8.5323],[81.2261,8.5695],[81.1927,8.5665],[81.2119,8.5077],[81.1896,8.5018],[81.1977,8.4615],[81.2624,8.4569],[81.304,8.4326],[81.304,8.4583],[81.2958,8.4465],[81.2809,8.4568],[81.2831,8.5032],[81.3222,8.5224],[81.353,8.4909],[81.3937,8.3567],[81.4078,8.2419],[81.4769,8.0343],[81.5686,7.9227],[81.5874,7.921],[81.5671,7.8981],[81.593,7.83],[81.6268,7.8247],[81.6544,7.7729],[81.6999,7.7536],[81.7713,7.6448],[81.8718,7.3159],[81.8586,7.0907],[81.8813,7.0267],[81.8704,6.9789],[81.8489,6.9896],[81.8578,6.9672],[81.8729,6.9669],[81.8364,6.8853],[81.8518,6.8884],[81.8483,6.8675],[81.8397,6.8542],[81.8211,6.8621],[81.8444,6.8344],[81.8233,6.8088],[81.8249,6.7653],[81.8084,6.7647],[81.8279,6.7586],[81.7759,6.6639],[81.7664,6.592],[81.7324,6.5669],[81.7003,6.482],[81.6518,6.4367],[81.5973,6.4241],[81.6135,6.4056],[81.56,6.3612],[81.522,6.3525],[81.4869,6.3055],[81.3285,6.1945],[81.2222,6.1589],[81.1946,6.1576],[81.197,6.1776],[81.178,6.1441],[81.1336,6.1174],[81.0167,6.1071],[80.8659,6.0408],[80.8255,6.0415],[80.7202,5.9607],[80.6641,5.9575],[80.5868,5.9168],[80.5532,5.9411],[80.4489,5.9431],[80.4522,5.9588],[80.4357,5.969],[80.4179,5.955],[80.3828,5.9595],[80.2442,6.0069],[80.2285,6.0351],[80.2186,6.022],[80.0986,6.1289],[80.0314,6.2656],[80.0252,6.3364],[79.9746,6.464],[79.9866,6.4771],[79.9796,6.5149],[79.8687,6.8057],[79.8431,6.9333],[79.8712,6.9756],[79.869,7.0027],[79.819,7.1934],[79.8592,7.2756],[79.8445,7.2761],[79.8027,7.4826],[79.7977,7.7275],[79.7513,7.9316],[79.7064,8.0445],[79.699,8.1154],[79.7095,8.1343],[79.6984,8.2138],[79.7179,8.2167],[79.7381,8.28],[79.7812,8.3497],[79.7563,8.3071],[79.7511,8.2617],[79.7655,8.2739],[79.7573,8.2571],[79.7766,8.2541],[79.7688,8.2156],[79.7404,8.2008],[79.7492,8.1829],[79.7316,8.0868],[79.7541,8.0582],[79.7426,8.0],[79.8186,7.9719],[79.8082,7.8839],[79.8265,7.9206],[79.834,8.0071],[79.7896,8.0682],[79.8086,8.0611],[79.7948,8.0793],[79.8338,8.1396],[79.8154,8.2037],[79.7946,8.2203],[79.8095,8.2174],[79.7897,8.2301],[79.8101,8.2374],[79.8342,8.2919],[79.8476,8.2742],[79.8584,8.2846],[79.8362,8.3011],[79.8445,8.4289],[79.8632,8.4496],[79.8709,8.5352],[79.9263,8.559],[79.9193,8.5846],[79.9414,8.6155],[79.9558,8.7174],[79.9248,8.7907],[79.9401,8.8068],[79.9184,8.8083],[79.9307,8.8147],[79.919,8.8188],[79.9358,8.8913],[79.9122,8.9299],[80.0403,9.0133],[80.0661,9.0562],[80.0857,9.0999],[80.0761,9.1203],[80.1173,9.2072],[80.1116,9.2768],[80.1278,9.2906],[80.0676,9.3287],[80.0549,9.3914],[80.1466,9.4347],[80.1861,9.4827],[80.1461,9.5361],[80.054,9.5979],[80.0876,9.6249],[80.0176,9.6509],[79.971,9.7077],[79.948,9.6871],[79.9099,9.7587],[79.9528,9.7921],[80.0224,9.8126],[80.1056,9.8059],[80.2147,9.8314],[80.2386,9.8235]],[[80.7752,6.7579],[80.8264,6.7644],[80.8469,6.7849],[80.833,6.8986],[80.8423,6.9974],[80.8348,7.0197],[80.7892,7.0356],[80.737,7.0197],[80.7211,6.9582],[80.7631,6.9228],[80.7687,6.8641],[80.7472,6.7877],[80.7752,6.7579]]],[[[97.9945,12.2796],[97.9813,12.3091],[97.9566,12.3158],[97.9546,12.3292],[97.9786,12.3388],[97.9686,12.3623],[97.9528,12.3422],[97.9505,12.3581],[97.9746,12.3869],[97.9765,12.3649],[98.0,12.3864],[97.9945,12.2796]]],[[[94.8108,15.7875],[94.7375,15.7916],[94.7306,15.814],[94.8087,15.9425],[94.8402,15.869],[94.8108,15.7875]]],[[[95.3142,15.9296],[95.3209,15.9478],[95.3327,15.9568],[95.3321,15.9424],[95.3142,15.9296]]],[[[95.3453,15.9583],[95.3384,15.9631],[95.3453,15.9714],[95.3453,15.9583]]],[[[95.241,15.9118],[95.2378,15.9276],[95.2678,15.9852],[95.2682,15.9572],[95.241,15.9118]]],[[[94.8099,15.9774],[94.8423,16.0604],[94.8599,16.0582],[94.8491,16.0],[94.8099,15.9774]]],[[[95.3453,16.0479],[95.3256,15.9681],[95.2736,15.8683],[95.2366,15.8652],[95.273,15.9563],[95.2799,16.022],[95.3198,16.079],[95.3453,16.0479]]],[[[95.1806,16.075],[95.1811,16.025],[95.1377,16.0363],[95.0987,15.9801],[95.1121,16.0688],[95.1719,16.1117],[95.2106,16.1027],[95.1806,16.075]]],[[[95.3263,16.1146],[95.3112,16.1458],[95.3183,16.1719],[95.3666,16.2017],[95.3641,16.1565],[95.3263,16.1146]]],[[[94.6315,16.0796],[94.5953,16.038],[94.5825,16.0406],[94.5903,16.0994],[94.5718,16.0745],[94.573,16.0451],[94.5966,16.0307],[94.5938,16.0155],[94.5131,15.9889],[94.4469,15.9199],[94.3974,15.8322],[94.4109,15.8631],[94.3929,15.9017],[94.3863,16.0],[94.4535,16.0189],[94.5847,16.1991],[94.6492,16.2476],[94.6728,16.2033],[94.6315,16.0796]]],[[[94.5347,16.2006],[94.5185,16.2316],[94.5266,16.2838],[94.5602,16.2407],[94.5347,16.2006]]],[[[95.9615,16.2951],[95.9577,16.3129],[95.9577,16.3487],[95.9672,16.3175],[95.9615,16.2951]]],[[[95.8751,16.2001],[95.9178,16.273],[95.913,16.3313],[95.9399,16.3786],[95.9563,16.3263],[95.9441,16.2474],[95.8751,16.2001]]],[[[94.5831,16.2227],[94.5746,16.2472],[94.6086,16.2773],[94.6139,16.3189],[94.6499,16.3302],[94.6864,16.3779],[94.6279,16.2577],[94.5831,16.2227]]],[[[96.021,16.2485],[95.927,16.2097],[95.9519,16.2379],[95.9703,16.3017],[95.971,16.3446],[95.9938,16.382],[96.0736,16.3414],[96.0835,16.3147],[96.021,16.2485]]],[[[95.9658,16.3464],[95.9522,16.3705],[95.9586,16.4063],[95.9924,16.3898],[95.9658,16.3464]]],[[[97.5793,16.4835],[97.6081,16.4883],[97.6162,16.4666],[97.5794,16.3995],[97.5904,16.3597],[97.5642,16.2884],[97.5721,16.2436],[97.5543,16.2238],[97.5084,16.2396],[97.4639,16.3021],[97.4565,16.3187],[97.482,16.3525],[97.478,16.3796],[97.4418,16.4469],[97.472,16.4712],[97.4489,16.4675],[97.4547,16.4823],[97.5023,16.5124],[97.5793,16.4835]]],[[[97.5467,16.5019],[97.5285,16.5115],[97.5532,16.5085],[97.5467,16.5019]]],[[[97.5148,16.5236],[97.4991,16.5271],[97.5211,16.5336],[97.5148,16.5236]]],[[[96.8399,17.4047],[96.7884,17.3795],[96.7385,17.4383],[96.792,17.4828],[96.8078,17.4389],[96.8399,17.4047]]],[[[93.9661,18.7794],[93.9393,18.8167],[93.9726,18.8367],[93.975,18.8024],[93.9923,18.7854],[93.9661,18.7794]]],[[[94.1131,18.8492],[94.1386,18.8543],[94.1191,18.8079],[94.0678,18.8476],[94.0864,18.8476],[94.1155,18.8697],[94.1131,18.8492]]],[[[93.6532,18.873],[93.7415,18.8723],[93.7474,18.7242],[93.7201,18.6758],[93.6913,18.6669],[93.6373,18.6853],[93.5448,18.7668],[93.4825,18.8677],[93.5766,18.8837],[93.6152,18.9146],[93.6532,18.873]]],[[[93.8326,19.2758],[93.7868,19.2761],[93.7766,19.2976],[93.8275,19.295],[93.8326,19.2758]]],[[[93.7689,19.5315],[93.8592,19.5001],[93.8301,19.4819],[93.7689,19.5315]]],[[[93.5022,19.7176],[93.4829,19.7251],[93.4726,19.7381],[93.4967,19.7301],[93.5022,19.7176]]],[[[93.4078,19.7406],[93.4406,19.7464],[93.495,19.7145],[93.5017,19.6741],[93.457,19.6908],[93.4078,19.7406]]],[[[93.5891,19.7461],[93.572,19.7093],[93.5452,19.7002],[93.5539,19.687],[93.5246,19.6804],[93.5162,19.7214],[93.5825,19.7697],[93.5891,19.7461]]],[[[93.704,19.7568],[93.69,19.7132],[93.6318,19.7184],[93.6559,19.7784],[93.6663,19.76],[93.6911,19.7895],[93.704,19.7568]]],[[[93.5518,19.7607],[93.5456,19.7889],[93.5806,19.7961],[93.5772,19.782],[93.5518,19.7607]]],[[[93.7368,19.7887],[93.6991,19.7962],[93.7435,19.8326],[93.7452,19.8097],[93.7368,19.7887]]],[[[93.5822,19.8034],[93.5507,19.8014],[93.5446,19.8059],[93.583,19.8359],[93.5964,19.8282],[93.5822,19.8034]]],[[[93.7265,19.8506],[93.7326,19.8242],[93.6781,19.7891],[93.6827,19.8216],[93.7265,19.8506]]],[[[93.6423,19.8601],[93.7012,19.8521],[93.5996,19.7099],[93.593,19.7818],[93.6301,19.8135],[93.6423,19.8601]]],[[[93.7634,19.8635],[93.7925,19.8314],[93.7771,19.7662],[93.7124,19.7645],[93.7041,19.7837],[93.7335,19.7817],[93.7469,19.7906],[93.7545,19.8254],[93.7409,19.8452],[93.7634,19.8635]]],[[[93.6945,19.8948],[93.7357,19.8838],[93.7369,19.8696],[93.6902,19.8775],[93.6633,19.8581],[93.6547,19.8793],[93.6945,19.8948]]],[[[93.5751,19.8794],[93.5936,19.9044],[93.6058,19.9024],[93.5855,19.8796],[93.5751,19.8794]]],[[[93.6607,19.9012],[93.5996,19.843],[93.5459,19.8272],[93.5471,19.8669],[93.5941,19.8746],[93.6184,19.9037],[93.6607,19.9012]]],[[[93.5187,19.8667],[93.5011,19.9039],[93.5199,19.9157],[93.531,19.9023],[93.5187,19.8667]]],[[[93.3958,19.9583],[93.4274,19.9541],[93.4602,19.9091],[93.4978,19.8995],[93.5081,19.8392],[93.4692,19.8297],[93.499,19.8213],[93.5212,19.7592],[93.5112,19.7345],[93.4446,19.7876],[93.4313,19.8676],[93.3966,19.9247],[93.3958,19.9583]]],[[[93.4609,19.9581],[93.4445,19.9836],[93.4499,19.9931],[93.4636,19.9765],[93.4609,19.9581]]],[[[93.235,19.8134],[93.1633,19.9447],[93.1267,20.0519],[93.1639,20.0113],[93.1809,19.9394],[93.2492,19.8221],[93.235,19.8134]]],[[[93.1585,20.0669],[93.1752,20.0428],[93.1373,20.0718],[93.1585,20.0669]]],[[[93.0291,19.8189],[93.0134,19.8954],[92.9159,20.0553],[92.926,20.0833],[92.9602,20.0616],[93.02,19.9194],[93.0358,19.8746],[93.0291,19.8189]]],[[[92.9967,20.1116],[93.0682,20.116],[93.0872,20.0864],[93.074,20.0766],[93.1218,20.0396],[93.14,19.9983],[93.1133,19.9816],[93.1051,19.9366],[93.175,19.7877],[93.0568,19.9513],[93.0421,20.0089],[92.9792,20.0713],[92.9746,20.1264],[92.9967,20.1116]]],[[[93.328,20.1069],[93.3118,20.1313],[93.3129,20.1366],[93.3256,20.1211],[93.328,20.1069]]],[[[93.1267,20.079],[93.1119,20.0615],[93.0987,20.0779],[93.0949,20.0879],[93.1195,20.0869],[93.0855,20.1002],[93.0736,20.1239],[93.0877,20.1388],[93.1092,20.1359],[93.1267,20.079]]],[[[93.2991,20.0481],[93.2862,20.0946],[93.3034,20.1704],[93.3109,20.1152],[93.3309,20.0821],[93.2991,20.0481]]],[[[93.2119,20.1599],[93.2312,20.113],[93.2035,20.0935],[93.1892,20.0627],[93.1329,20.0846],[93.1113,20.1403],[93.0981,20.1542],[93.123,20.1798],[93.1717,20.1884],[93.1898,20.168],[93.2119,20.1599]]],[[[92.9286,20.1897],[92.9164,20.2045],[92.927,20.2262],[92.9252,20.2444],[92.9426,20.2506],[92.9504,20.2119],[92.9286,20.1897]]],[[[93.2528,20.1437],[93.2845,20.1445],[93.2744,20.0854],[93.2911,20.0604],[93.275,20.0333],[93.2057,20.0497],[93.2079,20.0922],[93.2467,20.116],[93.2317,20.1537],[93.1829,20.1916],[93.2081,20.2124],[93.2167,20.2346],[93.2528,20.2428],[93.2513,20.2636],[93.2766,20.2438],[93.3004,20.1904],[93.2837,20.1579],[93.2528,20.1437]]],[[[93.2728,20.2683],[93.2347,20.2758],[93.2548,20.3126],[93.2708,20.3147],[93.2636,20.2969],[93.2728,20.2683]]],[[[93.3231,20.3224],[93.3364,20.2789],[93.3577,20.27],[93.3906,20.2092],[93.4112,20.1214],[93.4012,20.1103],[93.3839,20.1859],[93.3959,20.1024],[93.3666,20.084],[93.3799,20.0275],[93.3672,20.0156],[93.3556,20.0728],[93.3143,20.1414],[93.3067,20.2079],[93.2713,20.2575],[93.2776,20.2882],[93.2677,20.2972],[93.2839,20.3204],[93.3231,20.3224]]],[[[93.1334,20.3059],[93.1755,20.3243],[93.2152,20.3051],[93.143,20.2188],[93.1272,20.2428],[93.1284,20.2167],[93.0046,20.1324],[92.9958,20.1906],[93.0221,20.2687],[93.0399,20.2773],[93.04,20.3263],[93.0911,20.3689],[93.12,20.3744],[93.1322,20.3447],[93.1199,20.3296],[93.1288,20.321],[93.1403,20.3166],[93.1334,20.3059]]],[[[92.7623,20.4322],[92.8214,20.4216],[92.8122,20.4063],[92.8664,20.3114],[92.8411,20.2875],[92.7948,20.2773],[92.8025,20.3036],[92.8357,20.3129],[92.8128,20.3389],[92.8143,20.3141],[92.8056,20.3113],[92.7807,20.2786],[92.7647,20.3199],[92.7623,20.4322]]],[[[92.8048,20.4859],[92.7789,20.4549],[92.7891,20.4417],[92.7636,20.4417],[92.7559,20.4701],[92.7683,20.4705],[92.7972,20.4995],[92.8048,20.4859]]],[[[93.1093,20.4186],[93.0785,20.4073],[93.0778,20.3641],[93.0435,20.3504],[93.038,20.423],[93.0851,20.5053],[93.1093,20.4186]]],[[[92.6335,20.6965],[92.6086,20.6838],[92.5844,20.7087],[92.6185,20.7141],[92.6353,20.7243],[92.6335,20.6965]]],[[[92.2969,20.9277],[92.2813,20.9476],[92.3007,20.9774],[92.3098,20.9528],[92.2969,20.9277]]],[[[92.3326,20.9939],[92.3552,20.9436],[92.3145,20.9072],[92.3036,20.9269],[92.3159,20.9543],[92.3067,20.9822],[92.3326,20.9939]]],[[[88.5488,21.5337],[88.5304,21.5249],[88.4864,21.5467],[88.4997,21.5997],[88.5382,21.5822],[88.5488,21.5337]]],[[[88.8767,21.5333],[88.8353,21.5592],[88.8438,21.6063],[88.9085,21.5719],[88.9119,21.5463],[88.8767,21.5333]]],[[[88.5654,21.556],[88.5161,21.6059],[88.5266,21.6569],[88.5929,21.607],[88.5955,21.5862],[88.5654,21.556]]],[[[92.0072,21.6281],[92.0021,21.6463],[92.0303,21.6683],[92.0347,21.6491],[92.0072,21.6281]]],[[[88.3518,21.6872],[88.3508,21.6151],[88.3264,21.6021],[88.316,21.615],[88.3233,21.7035],[88.3518,21.6872]]],[[[88.5229,21.7156],[88.572,21.6819],[88.5599,21.6377],[88.5332,21.6558],[88.5229,21.7156]]],[[[88.2186,21.6736],[88.2331,21.6742],[88.2393,21.647],[88.2218,21.6272],[88.2219,21.6019],[88.1876,21.6808],[88.2151,21.7158],[88.2211,21.7034],[88.2026,21.6903],[88.2186,21.6736]]],[[[88.762,21.6462],[88.7787,21.6526],[88.782,21.6162],[88.8062,21.5887],[88.7996,21.5749],[88.7391,21.5609],[88.7126,21.5765],[88.7252,21.6306],[88.6902,21.6844],[88.6971,21.7184],[88.7103,21.6829],[88.762,21.6462]]],[[[91.9741,21.509],[91.9479,21.4896],[91.9017,21.5093],[91.9114,21.4757],[91.8969,21.4671],[91.8684,21.4885],[91.8587,21.5221],[91.8821,21.557],[91.8742,21.6069],[91.8913,21.6376],[91.8851,21.6807],[91.9399,21.735],[91.9586,21.6702],[91.9876,21.6301],[91.9741,21.509]]],[[[89.2843,21.7036],[89.2613,21.6969],[89.2926,21.6939],[89.2953,21.6711],[89.2631,21.65],[89.1998,21.6592],[89.2319,21.7014],[89.2199,21.7399],[89.2401,21.7552],[89.2917,21.7472],[89.2843,21.7036]]],[[[91.9416,21.7483],[91.9207,21.7299],[91.9145,21.7585],[91.9416,21.7483]]],[[[91.8806,21.6342],[91.8524,21.6604],[91.8884,21.7621],[91.9121,21.7467],[91.9045,21.7087],[91.8799,21.6822],[91.8806,21.6342]]],[[[88.3724,21.7312],[88.4033,21.7103],[88.3778,21.6847],[88.3606,21.6916],[88.3486,21.7126],[88.3573,21.7176],[88.36,21.7617],[88.4005,21.7602],[88.3724,21.7312]]],[[[91.9443,21.7597],[91.9078,21.7618],[91.8934,21.7677],[91.9417,21.7736],[91.9443,21.7597]]],[[[88.6158,21.7249],[88.5867,21.7213],[88.5905,21.7451],[88.5729,21.7718],[88.587,21.7766],[88.5909,21.7566],[88.6224,21.7421],[88.6158,21.7249]]],[[[88.6178,21.7021],[88.6055,21.7109],[88.6277,21.7412],[88.5968,21.7582],[88.5942,21.7781],[88.6169,21.788],[88.6377,21.7533],[88.6178,21.7021]]],[[[88.1075,21.7943],[88.1454,21.7562],[88.1315,21.7347],[88.1449,21.7002],[88.1361,21.6857],[88.1507,21.6709],[88.1466,21.6232],[88.0993,21.639],[88.0858,21.6304],[88.0496,21.6523],[88.0901,21.7851],[88.1075,21.7943]]],[[[88.4865,21.7932],[88.4591,21.7264],[88.4841,21.675],[88.4526,21.6002],[88.4295,21.6003],[88.4483,21.6233],[88.427,21.6599],[88.4273,21.6899],[88.4436,21.7026],[88.4366,21.7671],[88.4564,21.7929],[88.4679,21.7863],[88.4865,21.7932]]],[[[88.3873,21.7702],[88.3684,21.7709],[88.3493,21.7566],[88.3528,21.7212],[88.3365,21.7285],[88.3345,21.7054],[88.3143,21.7168],[88.3144,21.7844],[88.3309,21.7846],[88.3603,21.7984],[88.3864,21.7918],[88.3873,21.7702]]],[[[88.58,21.7201],[88.6154,21.679],[88.6017,21.6541],[88.6125,21.6055],[88.5642,21.6419],[88.5808,21.6629],[88.5699,21.7091],[88.5233,21.7224],[88.5069,21.7573],[88.5331,21.7746],[88.5469,21.8165],[88.5779,21.7923],[88.5666,21.7684],[88.58,21.7201]]],[[[88.5096,21.8101],[88.4734,21.8011],[88.4606,21.8159],[88.4925,21.8357],[88.5096,21.8101]]],[[[89.6231,21.7109],[89.5581,21.7187],[89.5646,21.7513],[89.5313,21.8231],[89.5459,21.8493],[89.6102,21.7968],[89.5922,21.7519],[89.6231,21.7109]]],[[[88.6137,21.7971],[88.5834,21.8142],[88.6003,21.8509],[88.622,21.8302],[88.6137,21.7971]]],[[[88.1791,21.8239],[88.1801,21.7304],[88.1542,21.6821],[88.1386,21.7341],[88.1523,21.7597],[88.1138,21.7999],[88.0944,21.7905],[88.1462,21.8823],[88.1791,21.8239]]],[[[89.3747,21.8824],[89.347,21.8143],[89.3432,21.7813],[89.3406,21.8292],[89.3284,21.8442],[89.329,21.8185],[89.3202,21.8415],[89.3747,21.8824]]],[[[88.642,21.8673],[88.6618,21.87],[88.6451,21.7857],[88.6272,21.7976],[88.627,21.8319],[88.601,21.8612],[88.6242,21.8974],[88.642,21.8673]]],[[[88.0934,21.8569],[88.0821,21.8751],[88.0922,21.8982],[88.1093,21.8728],[88.0934,21.8569]]],[[[91.894,21.8587],[91.8783,21.8216],[91.8714,21.8878],[91.8567,21.8746],[91.8745,21.8059],[91.8311,21.7169],[91.8467,21.8128],[91.8409,21.8963],[91.868,21.9222],[91.894,21.8587]]],[[[88.657,21.8745],[88.6408,21.8761],[88.6271,21.9038],[88.6414,21.9224],[88.6735,21.917],[88.657,21.8745]]],[[[88.1162,21.8816],[88.0922,21.9134],[88.0937,21.9267],[88.1279,21.8976],[88.1162,21.8816]]],[[[90.6378,21.8985],[90.6209,21.9111],[90.6282,21.9359],[90.6555,21.9128],[90.6378,21.8985]]],[[[90.3972,21.9326],[90.3869,21.9302],[90.3941,21.9377],[90.3972,21.9326]]],[[[90.654,21.9222],[90.6288,21.9403],[90.6301,21.944],[90.6494,21.9476],[90.654,21.9222]]],[[[90.5431,21.8757],[90.5061,21.8778],[90.5093,21.9068],[90.5244,21.9406],[90.5607,21.9596],[90.5707,21.9475],[90.5456,21.9173],[90.5563,21.8993],[90.5431,21.8757]]],[[[88.1422,21.8976],[88.099,21.9318],[88.1176,21.9629],[88.1543,21.928],[88.1422,21.8976]]],[[[89.5431,21.868],[89.5446,21.9589],[89.5495,21.9638],[89.565,21.9289],[89.5431,21.868]]],[[[90.3961,21.958],[90.3883,21.9603],[90.3958,21.9656],[90.3961,21.958]]],[[[90.0787,21.9526],[90.0953,21.9352],[90.0873,21.9],[90.1036,21.8865],[90.0644,21.8363],[90.0426,21.8319],[90.0194,21.8484],[90.0414,21.8442],[90.0217,21.8907],[90.0245,21.9466],[90.077,21.972],[90.0787,21.9526]]],[[[90.3077,21.9587],[90.2712,21.8834],[90.2458,21.8987],[90.2753,21.9426],[90.2679,21.9696],[90.2862,21.9815],[90.3077,21.9587]]],[[[90.3303,21.9661],[90.3234,21.9739],[90.3317,21.9815],[90.3303,21.9661]]],[[[90.3851,21.9977],[90.355,21.8667],[90.3128,21.8557],[90.3036,21.8658],[90.3366,21.9548],[90.3496,21.9564],[90.3716,21.9963],[90.3851,21.9977]]],[[[90.6835,21.9899],[90.6699,21.9968],[90.6687,22.0055],[90.6793,22.0038],[90.6835,21.9899]]],[[[88.6639,22.0153],[88.7183,22.0018],[88.7011,21.9599],[88.6871,21.9454],[88.6418,21.9509],[88.647,22.0036],[88.6639,22.0153]]],[[[88.102,21.9713],[88.0954,21.9897],[88.1346,22.0231],[88.1304,21.9842],[88.102,21.9713]]],[[[90.5155,21.9906],[90.4996,21.9977],[90.5072,22.0115],[90.5409,22.027],[90.5155,21.9906]]],[[[90.4039,22.0148],[90.3995,22.0273],[90.4015,22.0338],[90.4074,22.0266],[90.4039,22.0148]]],[[[90.4543,22.0273],[90.4715,21.9969],[90.4579,21.9207],[90.4001,21.8996],[90.4216,22.016],[90.4129,22.0321],[90.4543,22.0273]]],[[[90.6684,22.028],[90.6566,22.0346],[90.6579,22.0479],[90.6684,22.028]]],[[[90.6221,21.9849],[90.6115,21.9988],[90.6455,22.0513],[90.6481,22.0182],[90.6221,21.9849]]],[[[90.6855,22.0187],[90.6742,22.0232],[90.6691,22.0671],[90.7015,22.0616],[90.6855,22.0187]]],[[[90.3447,21.9619],[90.341,21.9894],[90.3518,22.0194],[90.3958,22.0706],[90.4087,22.0466],[90.3447,21.9619]]],[[[90.5496,22.0163],[90.5394,22.007],[90.5491,22.0314],[90.5201,22.0312],[90.4915,22.0106],[90.5574,22.0982],[90.5496,22.0163]]],[[[90.3502,22.0981],[90.3751,22.0964],[90.3757,22.0796],[90.329,22.0288],[90.3076,21.9737],[90.2821,21.985],[90.284,22.0554],[90.3145,22.0777],[90.3159,22.086],[90.3473,22.0893],[90.3372,22.1034],[90.3502,22.0981]]],[[[90.4844,22.0437],[90.4821,22.0755],[90.5167,22.1057],[90.523,22.0807],[90.4844,22.0437]]],[[[91.0757,22.1064],[91.0613,22.1034],[91.0744,22.1086],[91.0757,22.1064]]],[[[90.5522,22.1054],[90.5056,22.0443],[90.531,22.0858],[90.5252,22.1097],[90.542,22.1173],[90.5522,22.1054]]],[[[91.0842,22.128],[91.0542,22.1017],[91.0344,22.1048],[91.0576,22.1273],[91.0842,22.128]]],[[[90.6614,22.0905],[90.6315,22.0708],[90.633,22.0481],[90.6158,22.0458],[90.6238,22.0883],[90.6057,22.0544],[90.6228,22.0354],[90.6062,22.0237],[90.5951,22.0693],[90.6162,22.1069],[90.6394,22.1289],[90.6644,22.1249],[90.6614,22.0905]]],[[[91.0838,22.1321],[91.0693,22.1388],[91.0842,22.1351],[91.0838,22.1321]]],[[[91.0936,22.1349],[91.0677,22.1422],[91.0397,22.1309],[91.0462,22.1754],[91.103,22.1569],[91.0936,22.1349]]],[[[90.5107,22.1361],[90.5097,22.1749],[90.5449,22.1737],[90.5386,22.1519],[90.5107,22.1361]]],[[[90.9512,22.1168],[90.9211,22.1356],[90.9219,22.1646],[90.9521,22.213],[90.9512,22.1168]]],[[[90.5462,22.1889],[90.5387,22.1974],[90.5654,22.2313],[90.5677,22.2145],[90.5462,22.1889]]],[[[90.9519,22.218],[90.9299,22.2287],[90.9681,22.3788],[90.9911,22.3296],[90.9519,22.218]]],[[[91.167,22.4276],[91.2002,22.4298],[91.1957,22.4072],[91.167,22.4276]]],[[[90.6322,22.3575],[90.5965,22.4487],[90.6059,22.463],[90.6258,22.4422],[90.6322,22.3575]]],[[[91.1757,22.3359],[91.1828,22.2711],[91.1556,22.1843],[91.1222,22.1649],[91.1191,22.1934],[91.1011,22.2106],[91.1115,22.1597],[91.0505,22.1794],[91.0519,22.4201],[91.0269,22.4766],[91.0408,22.508],[91.1223,22.492],[91.1369,22.3951],[91.1757,22.3359]]],[[[91.2106,22.4958],[91.1976,22.5092],[91.1975,22.5129],[91.2093,22.5065],[91.2106,22.4958]]],[[[91.192,22.4721],[91.1542,22.4888],[91.1388,22.5159],[91.1756,22.5187],[91.1942,22.4985],[91.192,22.4721]]],[[[91.2507,22.6313],[91.2979,22.574],[91.3048,22.5574],[91.2913,22.5408],[91.2517,22.5395],[91.2314,22.5666],[91.215,22.6366],[91.2507,22.6313]]],[[[91.5582,22.4111],[91.5161,22.3469],[91.4849,22.3429],[91.4551,22.3987],[91.4007,22.4361],[91.3798,22.4944],[91.3921,22.564],[91.3567,22.66],[91.3808,22.6624],[91.4506,22.6247],[91.5454,22.4693],[91.5582,22.4111]]],[[[91.1199,22.5624],[91.0996,22.5702],[91.0918,22.5984],[91.141,22.6642],[91.1719,22.6049],[91.1574,22.5798],[91.1199,22.5624]]],[[[91.2964,22.6764],[91.2806,22.6642],[91.2851,22.6791],[91.2964,22.6764]]],[[[91.1284,22.6708],[91.0886,22.5983],[91.0853,22.553],[91.0658,22.569],[91.0582,22.6391],[91.0449,22.6359],[91.0554,22.6978],[91.1122,22.7],[91.1284,22.6708]]],[[[91.0417,22.6769],[91.0194,22.6926],[91.0181,22.7025],[91.0462,22.7046],[91.0417,22.6769]]],[[[91.268,22.7307],[91.2995,22.7044],[91.2707,22.6674],[91.2165,22.7007],[91.2357,22.7099],[91.2122,22.7042],[91.1311,22.7361],[91.1898,22.7493],[91.268,22.7307]]],[[[91.3411,22.7184],[91.3104,22.7451],[91.3124,22.7514],[91.3474,22.7548],[91.3544,22.7304],[91.3411,22.7184]]],[[[90.7707,22.6464],[90.8678,22.5181],[90.8889,22.445],[90.8462,22.2419],[90.8319,22.2192],[90.8082,22.2193],[90.8254,22.1984],[90.8024,22.2081],[90.796,22.246],[90.7981,22.2038],[90.8209,22.1843],[90.7784,22.186],[90.8194,22.1776],[90.8219,22.1395],[90.7919,22.1083],[90.7958,22.1457],[90.783,22.1074],[90.7622,22.1112],[90.7168,22.0527],[90.7086,22.0646],[90.7371,22.132],[90.7058,22.0721],[90.6749,22.0707],[90.6781,22.1053],[90.6991,22.1114],[90.6703,22.1264],[90.6957,22.1379],[90.6597,22.1332],[90.6338,22.1481],[90.6334,22.1324],[90.6198,22.1325],[90.6111,22.1582],[90.6706,22.2784],[90.6689,22.4825],[90.6066,22.6012],[90.5888,22.6067],[90.6186,22.5467],[90.5729,22.5947],[90.5634,22.6408],[90.5889,22.6338],[90.5796,22.6542],[90.5439,22.6283],[90.539,22.641],[90.5792,22.7219],[90.6594,22.7846],[90.7309,22.7736],[90.7707,22.6464]]],[[[90.4576,22.7485],[90.4348,22.7706],[90.4527,22.7883],[90.4796,22.7568],[90.4576,22.7485]]],[[[90.5473,22.7143],[90.5288,22.6841],[90.4885,22.7697],[90.5006,22.7921],[90.5482,22.768],[90.5473,22.7143]]],[[[90.9414,22.8032],[91.0171,22.7208],[91.0126,22.7056],[90.9757,22.7222],[90.9658,22.7155],[91.0357,22.6706],[91.0292,22.6419],[91.06,22.5964],[91.0553,22.5807],[91.0512,22.5934],[91.0248,22.5766],[91.0438,22.5696],[90.9943,22.5409],[90.955,22.5481],[90.9256,22.5787],[90.9401,22.5911],[90.9144,22.5899],[90.8618,22.6339],[90.8337,22.7293],[90.7969,22.7739],[90.8751,22.8055],[90.9414,22.8032]]],[[[90.4706,22.8074],[90.4526,22.8264],[90.4843,22.8343],[90.4912,22.8191],[90.4706,22.8074]]],[[[90.6438,22.8594],[90.5568,22.7903],[90.4846,22.8396],[90.4608,22.8402],[90.4824,22.867],[90.5329,22.8745],[90.5502,22.8971],[90.5535,22.9442],[90.6496,22.8941],[90.6438,22.8594]]],[[[90.3481,22.9398],[90.301,22.9519],[90.2948,22.9664],[90.3136,22.9686],[90.3481,22.9398]]],[[[90.368,22.9212],[90.3518,22.9514],[90.3227,22.9696],[90.3564,22.9623],[90.368,22.9212]]],[[[90.6884,22.9553],[90.6683,22.9639],[90.6485,22.9847],[90.6803,22.9808],[90.6884,22.9553]]],[[[90.4512,22.9721],[90.4551,23.0016],[90.5389,22.9578],[90.5453,22.9077],[90.5236,22.8788],[90.4671,22.8659],[90.4447,22.8264],[90.4491,22.8052],[90.4274,22.8167],[90.4278,22.8417],[90.3951,22.8281],[90.3898,22.839],[90.4218,22.8989],[90.4173,22.9163],[90.3845,22.856],[90.3951,22.7999],[90.4151,22.7819],[90.3844,22.7899],[90.42,22.7752],[90.3999,22.7644],[90.3323,22.8477],[90.3807,22.9076],[90.3533,22.9932],[90.4309,22.9917],[90.4512,22.9721]]],[[[90.5628,22.9968],[90.5357,23.0213],[90.5551,23.048],[90.5669,23.0068],[90.5628,22.9968]]],[[[90.5131,23.0812],[90.5003,23.1001],[90.5168,23.1384],[90.5241,23.0914],[90.5131,23.0812]]],[[[90.4922,23.0819],[90.4684,23.097],[90.4477,23.0556],[90.4435,23.1068],[90.4907,23.1312],[90.4643,23.1914],[90.4687,23.2012],[90.4724,23.1855],[90.5053,23.1688],[90.4922,23.0819]]],[[[90.5569,23.1601],[90.5541,23.1765],[90.5756,23.2083],[90.5761,23.1787],[90.5569,23.1601]]],[[[90.1766,23.3369],[90.2574,23.3069],[90.2334,23.2961],[90.2286,23.2652],[90.1662,23.2687],[90.1826,23.2415],[90.1276,23.2454],[90.1311,23.2632],[90.1245,23.2738],[90.0892,23.2811],[90.1766,23.3369]]],[[[90.4511,23.3395],[90.5188,23.3285],[90.552,23.2822],[90.5409,23.2371],[90.5004,23.1797],[90.4761,23.1948],[90.5004,23.2449],[90.4938,23.299],[90.4511,23.3395]]],[[[90.3749,23.3544],[90.4122,23.3025],[90.4839,23.2994],[90.4857,23.2465],[90.4622,23.2026],[90.4646,23.2254],[90.4534,23.2116],[90.4659,23.1672],[90.4326,23.0911],[90.4477,23.028],[90.3609,23.0111],[90.3426,22.9819],[90.326,22.9816],[90.3087,23.0538],[90.3259,23.0679],[90.3326,23.1087],[90.3229,23.1024],[90.2729,23.1468],[90.267,23.1328],[90.2905,23.1207],[90.2538,23.1253],[90.2444,23.1379],[90.2657,23.1601],[90.2142,23.1915],[90.1842,23.1708],[90.1781,23.1892],[90.2071,23.2097],[90.2108,23.224],[90.1721,23.262],[90.233,23.2607],[90.2526,23.2882],[90.24,23.2931],[90.2866,23.3161],[90.2985,23.35],[90.327,23.366],[90.3749,23.3544]]],[[[90.4864,23.3686],[90.4649,23.3665],[90.4238,23.3903],[90.443,23.395],[90.4864,23.3686]]],[[[90.4352,23.3119],[90.3716,23.3623],[90.349,23.3965],[90.4372,23.3544],[90.4539,23.3185],[90.4352,23.3119]]],[[[90.3316,23.3845],[90.286,23.3796],[90.2958,23.3708],[90.2708,23.3264],[90.2139,23.3613],[90.245,23.326],[90.2056,23.3503],[90.1836,23.4498],[90.3316,23.3845]]],[[[90.5591,23.449],[90.544,23.4543],[90.5431,23.4794],[90.5615,23.4807],[90.5591,23.449]]],[[[90.6821,23.4877],[90.6611,23.49],[90.6436,23.5019],[90.6637,23.5167],[90.6888,23.5014],[90.6821,23.4877]]],[[[90.4697,23.5534],[90.4532,23.549],[90.4394,23.5536],[90.4698,23.5718],[90.4697,23.5534]]],[[[90.4335,23.558],[90.4244,23.6027],[90.431,23.6061],[90.4432,23.5992],[90.4335,23.558]]],[[[90.4844,23.5823],[90.5024,23.5851],[90.4538,23.5754],[90.4477,23.6043],[90.4844,23.5823]]],[[[90.6371,23.6107],[90.6946,23.5158],[90.6576,23.5209],[90.5851,23.4883],[90.5658,23.5872],[90.5918,23.5834],[90.6371,23.6107]]],[[[90.6585,23.6553],[90.7322,23.6524],[90.7598,23.6309],[90.7358,23.6271],[90.7284,23.5956],[90.6956,23.5734],[90.6684,23.59],[90.6536,23.6235],[90.6585,23.6553]]],[[[90.7168,23.6597],[90.7013,23.6628],[90.6913,23.6714],[90.7264,23.6788],[90.7168,23.6597]]],[[[90.7331,23.6942],[90.6946,23.6848],[90.7146,23.7266],[90.7331,23.6942]]],[[[90.3778,23.6956],[90.4183,23.6844],[90.4643,23.628],[90.4239,23.6183],[90.4349,23.637],[90.429,23.6419],[90.415,23.624],[90.3878,23.6461],[90.3978,23.6253],[90.3645,23.63],[90.288,23.6726],[90.2617,23.7243],[90.2876,23.7327],[90.3085,23.7608],[90.313,23.7323],[90.3778,23.6956]]],[[[90.2259,23.725],[90.2118,23.7551],[90.2416,23.792],[90.2522,23.7467],[90.2259,23.725]]],[[[89.741,23.7775],[89.6852,23.7896],[89.6826,23.8011],[89.718,23.8016],[89.741,23.7775]]],[[[89.6648,23.8039],[89.6752,23.7892],[89.6375,23.7862],[89.6373,23.7995],[89.6648,23.8039]]],[[[89.7791,23.7421],[89.7587,23.7631],[89.7438,23.8037],[89.7758,23.7887],[89.7791,23.7421]]],[[[89.6167,23.8034],[89.5991,23.8055],[89.5465,23.7973],[89.595,23.8151],[89.6167,23.8034]]],[[[89.5236,23.8189],[89.5155,23.7856],[89.4879,23.8167],[89.4901,23.8208],[89.5236,23.8189]]],[[[90.1436,23.827],[90.176,23.8211],[90.2026,23.8355],[90.2338,23.8213],[90.2236,23.8068],[90.2054,23.8221],[90.1823,23.8071],[90.1342,23.812],[90.0872,23.8364],[90.1157,23.8541],[90.1171,23.8704],[90.1436,23.827]]],[[[89.7311,23.8789],[89.6953,23.9025],[89.6912,23.932],[89.7101,23.9194],[89.7311,23.8789]]],[[[89.3709,23.9404],[89.3556,23.8929],[89.3149,23.8989],[89.2906,23.9388],[89.3709,23.9404]]],[[[89.2496,23.9423],[89.2298,23.9463],[89.2358,23.9322],[89.2241,23.9316],[89.1825,23.9548],[89.2246,23.9607],[89.2496,23.9423]]],[[[86.4317,26.6505],[86.6755,26.6637],[86.9699,26.7047],[87.433,26.7937],[87.7426,26.8737],[88.0504,26.997],[88.4826,27.2898],[88.7164,27.3606],[88.8129,27.3741],[88.8632,27.3454],[88.8956,27.3052],[88.9719,27.2745],[88.9981,27.3077],[88.9618,27.3873],[89.886,27.425],[90.7816,27.4855],[91.2017,27.4689],[91.3758,27.4892],[91.4647,27.5263],[91.5529,27.5946],[91.6292,27.6771],[91.6714,27.7629],[91.7858,27.7559],[91.8254,27.7671],[91.8946,27.7209],[91.9205,27.7382],[91.9831,27.7239],[92.0394,27.7429],[92.1076,27.8024],[92.2609,27.8731],[92.2813,27.8723],[92.3216,27.7975],[92.3456,27.8057],[92.3687,27.8477],[92.393,27.8038],[92.4221,27.8528],[92.4521,27.8265],[92.545,27.8561],[92.591,27.9057],[92.6259,27.9051],[92.7187,27.9599],[92.7193,28.0322],[92.6734,28.0526],[92.6689,28.0709],[92.6899,28.1216],[92.7453,28.1585],[92.9904,28.2112],[93.2017,28.2986],[93.4027,28.4163],[93.8725,28.7338],[94.1329,28.8664],[94.4586,28.9662],[95.1111,29.1115],[95.1033,29.0979],[95.1232,29.0903],[95.2155,29.1082],[95.2614,29.0729],[95.3016,29.1405],[95.4064,29.1277],[95.427,29.1857],[95.4579,29.1835],[95.4583,29.1413],[95.5031,29.1316],[95.5074,29.1908],[95.567,29.1765],[95.6058,29.1976],[95.5972,29.2189],[95.6874,29.2277],[95.7085,29.2071],[95.7439,29.2209],[95.7291,29.2383],[95.8062,29.2462],[96.0749,29.2468],[96.3629,29.195],[96.3459,29.174],[96.2576,29.166],[96.2231,29.1469],[96.1994,29.0943],[96.1245,29.0766],[96.1546,29.0578],[96.1926,28.9876],[96.1551,28.954],[96.1541,28.9313],[96.1785,28.9003],[96.2318,28.9266],[96.3539,29.0371],[96.4435,29.0388],[96.5195,29.0698],[96.4811,28.9821],[96.4969,28.9601],[96.5179,28.9654],[96.5423,28.8788],[96.6183,28.7894],[96.6166,28.7483],[96.589,28.7163],[96.5317,28.7141],[96.4728,28.6792],[96.4879,28.6278],[96.4336,28.5825],[96.4084,28.5819],[96.4157,28.5662],[96.3335,28.5299],[96.3663,28.4756],[96.2711,28.4075],[96.3017,28.4044],[96.3276,28.3807],[96.3718,28.3883],[96.3928,28.3465],[96.4143,28.3432],[96.4626,28.4145],[96.5179,28.4166],[96.5914,28.46],[96.6708,28.4521],[96.7441,28.4143],[96.7708,28.3639],[96.8495,28.3556],[96.8945,28.3736],[96.9274,28.3421],[97.0033,28.3186],[97.0904,28.3684],[97.1362,28.3697],[97.2857,28.1748],[97.3521,28.0403],[97.362,27.9534],[97.3282,27.7457],[97.3464,27.6882],[97.3924,27.6749],[97.5494,27.6943],[97.6971,27.686],[98.0,27.6144],[98.0,25.2754],[97.9491,25.2237],[97.9183,25.2148],[97.8841,25.2551],[97.845,25.2679],[97.7821,25.1233],[97.7313,25.07],[97.7174,24.9808],[97.7387,24.9069],[97.7835,24.8692],[97.7879,24.8467],[97.7677,24.8235],[97.7115,24.8371],[97.6422,24.7768],[97.5759,24.7633],[97.5545,24.7413],[97.574,24.7065],[97.5725,24.626],[97.5647,24.5307],[97.5366,24.4359],[97.6736,24.4532],[97.6848,24.4004],[97.7174,24.3547],[97.6627,24.3417],[97.6694,24.3072],[97.7534,24.2863],[97.7654,24.2659],[97.7285,24.2038],[97.7579,24.1699],[97.7343,24.117],[97.6619,24.0604],[97.6326,24.0],[97.5852,23.9935],[97.5341,23.9426],[97.6408,23.8809],[97.6496,23.8445],[97.6582,23.8673],[97.7159,23.8744],[97.7369,23.9094],[97.7654,23.9149],[97.7951,23.9476],[97.8545,23.9535],[97.8595,23.9759],[97.8881,23.9879],[97.8852,24.0102],[98.0,24.056],[98.0,14.4824],[97.9841,14.4699],[97.965,14.4262],[97.948,14.5132],[97.9062,14.5766],[97.9137,14.6189],[97.8977,14.612],[97.8731,14.6693],[97.8957,14.7027],[97.8855,14.7229],[97.8678,14.7078],[97.8384,14.7195],[97.7907,14.8707],[97.8084,14.9483],[97.7969,14.9974],[97.8188,15.0101],[97.8248,15.0226],[97.7909,14.9984],[97.7709,15.0175],[97.7971,15.0308],[97.8063,15.1507],[97.787,15.1796],[97.7959,15.1892],[97.7649,15.1975],[97.7341,15.2503],[97.7417,15.2952],[97.7215,15.3328],[97.727,15.3547],[97.7475,15.3573],[97.7467,15.384],[97.7832,15.399],[97.7407,15.4874],[97.7621,15.529],[97.7314,15.5962],[97.7374,15.6504],[97.6994,15.7537],[97.7224,15.7734],[97.7182,15.8422],[97.6752,15.9147],[97.61,15.9494],[97.6052,15.9782],[97.5722,16.0081],[97.5582,16.0722],[97.5972,16.0849],[97.623,16.0528],[97.6456,16.0443],[97.665,16.0488],[97.6761,16.0291],[97.6969,16.0274],[97.6672,16.0521],[97.6209,16.0582],[97.6072,16.1036],[97.5963,16.0994],[97.644,16.2715],[97.6155,16.3556],[97.6295,16.3882],[97.6141,16.4256],[97.6283,16.4521],[97.6256,16.5002],[97.6657,16.5106],[97.6712,16.4996],[97.6595,16.4868],[97.6636,16.4749],[97.6828,16.4654],[97.7025,16.4706],[97.7038,16.4507],[97.7238,16.4495],[97.721,16.4251],[97.7538,16.4144],[97.7343,16.4006],[97.7345,16.3818],[97.7735,16.378],[97.7969,16.3566],[97.7859,16.3398],[97.7889,16.3312],[97.8376,16.3223],[97.8552,16.2946],[97.8886,16.2867],[97.854,16.3007],[97.8404,16.326],[97.7901,16.3344],[97.8031,16.353],[97.793,16.368],[97.7655,16.3849],[97.7372,16.3859],[97.7587,16.4151],[97.7248,16.4281],[97.7266,16.4534],[97.7071,16.4533],[97.7023,16.474],[97.6656,16.4767],[97.6755,16.5013],[97.6683,16.5454],[97.7465,16.5624],[97.712,16.5711],[97.6664,16.5546],[97.6238,16.6432],[97.6074,16.5832],[97.6265,16.5584],[97.6211,16.5184],[97.5269,16.538],[97.488,16.5386],[97.472,16.5196],[97.3912,16.5251],[97.3613,16.4795],[97.3284,16.6589],[97.3462,16.6472],[97.3975,16.6399],[97.4233,16.6506],[97.424,16.6585],[97.3951,16.6434],[97.3455,16.6545],[97.3424,16.67],[97.3578,16.6678],[97.3476,16.6786],[97.3278,16.6671],[97.3288,16.6952],[97.344,16.6954],[97.3415,16.7344],[97.3409,16.7102],[97.3207,16.7101],[97.3201,16.6689],[97.2786,16.6847],[97.2393,16.7699],[97.2499,16.8223],[97.234,16.8093],[97.2223,16.8471],[97.2276,16.8574],[97.2638,16.8444],[97.2778,16.8516],[97.2662,16.8701],[97.2661,16.8481],[97.2262,16.8698],[97.209,16.813],[97.1998,16.8837],[97.2195,16.9045],[97.2191,16.9379],[97.2087,16.9025],[97.1878,16.8901],[97.1696,16.8983],[97.2072,17.0098],[97.1547,17.0679],[97.1526,17.0939],[97.1876,17.1168],[97.2144,17.0868],[97.2646,17.1034],[97.228,17.1028],[97.205,17.134],[97.1458,17.1231],[97.1337,17.0797],[97.1133,17.0784],[97.0883,17.1623],[97.1068,17.1875],[97.0823,17.183],[97.0602,17.2531],[97.0013,17.2659],[97.0103,17.2988],[96.9122,17.3561],[96.8886,17.394],[96.8829,17.4545],[96.8636,17.3934],[96.842,17.3902],[96.8488,17.4139],[96.8176,17.4372],[96.7917,17.4904],[96.7346,17.4372],[96.7713,17.3735],[96.7248,17.3476],[96.6897,17.3658],[96.6488,17.3295],[96.6688,17.2683],[96.6957,17.2479],[96.7084,17.2561],[96.6769,17.2668],[96.6854,17.3453],[96.7298,17.339],[96.8348,17.3812],[96.8598,17.3613],[96.8555,17.3434],[96.8644,17.3526],[96.9117,17.3197],[96.8907,17.3119],[96.9129,17.305],[96.9021,17.2712],[96.8625,17.2405],[96.8477,17.2066],[96.8325,17.2092],[96.8514,17.1981],[96.877,17.1124],[96.9,17.0892],[96.9118,17.0164],[96.8729,16.9102],[96.8366,16.9302],[96.8509,16.959],[96.8314,16.947],[96.83,16.923],[96.8515,16.9103],[96.8552,16.8876],[96.8332,16.906],[96.829,16.8933],[96.8074,16.9106],[96.7967,16.9065],[96.835,16.8771],[96.853,16.837],[96.8234,16.8058],[96.8085,16.756],[96.7935,16.7568],[96.7889,16.7776],[96.7747,16.7735],[96.8014,16.7404],[96.7753,16.6951],[96.5943,16.5352],[96.4998,16.5055],[96.3846,16.4964],[96.2853,16.5532],[96.2865,16.5916],[96.3355,16.6237],[96.4288,16.6071],[96.4707,16.612],[96.3306,16.6286],[96.2845,16.5977],[96.2779,16.5774],[96.2644,16.6459],[96.2293,16.6953],[96.2223,16.7528],[96.3147,16.8332],[96.3476,16.8338],[96.3943,16.8594],[96.4109,16.8553],[96.4851,16.8696],[96.5124,16.8879],[96.4829,16.8728],[96.3943,16.8639],[96.3247,16.8384],[96.3182,16.8648],[96.3477,16.9058],[96.3006,16.8636],[96.2989,16.841],[96.2773,16.8691],[96.3038,16.8262],[96.2029,16.7631],[96.1847,16.7773],[96.1946,16.788],[96.1917,16.8001],[96.2132,16.7984],[96.2248,16.8115],[96.2185,16.8407],[96.2089,16.8458],[96.22,16.8099],[96.1909,16.8053],[96.1802,16.7773],[96.1962,16.7578],[96.1293,16.7706],[96.1228,16.8117],[96.1159,16.8125],[96.132,16.7594],[96.1202,16.7542],[96.146,16.7606],[96.1911,16.7419],[96.2143,16.6729],[96.2454,16.6449],[96.2371,16.6082],[96.2094,16.6032],[96.1735,16.5832],[96.1735,16.5169],[96.1926,16.4884],[96.1778,16.4812],[96.1874,16.4725],[96.1831,16.4835],[96.1985,16.4841],[96.1788,16.5142],[96.1782,16.581],[96.2356,16.5983],[96.2628,16.5187],[96.3026,16.4722],[96.2944,16.4457],[96.3266,16.4653],[96.3322,16.4318],[96.281,16.3911],[96.1241,16.314],[96.0992,16.3264],[96.0914,16.3535],[96.109,16.3796],[96.1432,16.3846],[96.1689,16.4176],[96.1488,16.4548],[96.1585,16.453],[96.1804,16.4603],[96.1871,16.4718],[96.1435,16.4562],[96.1626,16.4174],[96.1363,16.3882],[96.1059,16.3838],[96.0822,16.3578],[96.0199,16.3827],[95.994,16.4116],[95.9122,16.411],[95.9277,16.3828],[95.906,16.3305],[95.9104,16.2657],[95.7793,16.1293],[95.7438,16.1363],[95.7273,16.2626],[95.7088,16.2726],[95.7227,16.2585],[95.7381,16.1111],[95.6972,16.0479],[95.6934,16.0],[95.6503,15.928],[95.5064,15.7782],[95.4584,15.7508],[95.4654,15.74],[95.3827,15.706],[95.3149,15.7069],[95.2826,15.7216],[95.2706,15.7961],[95.2779,15.8446],[95.304,15.852],[95.2974,15.8627],[95.3172,15.8799],[95.3391,15.879],[95.3377,15.901],[95.3477,15.8806],[95.3832,15.8719],[95.4002,15.8779],[95.4128,15.9046],[95.3851,15.8767],[95.3367,15.9049],[95.3353,15.8826],[95.3215,15.8866],[95.2979,15.8707],[95.3483,15.9487],[95.3636,16.0496],[95.3962,16.0618],[95.3608,16.0593],[95.3368,16.0997],[95.3702,16.1472],[95.3884,16.2404],[95.309,16.1693],[95.3067,16.1342],[95.327,16.0885],[95.2751,16.0348],[95.234,15.9294],[95.21,15.856],[95.2218,15.7893],[95.1752,15.7679],[95.1174,15.7968],[95.1085,15.9114],[95.1217,15.9188],[95.1343,16.021],[95.1869,16.0216],[95.1928,16.0801],[95.2677,16.1477],[95.1878,16.115],[95.207,16.1784],[95.1803,16.1377],[95.1532,16.1399],[95.1633,16.124],[95.1332,16.1235],[95.1401,16.2318],[95.1232,16.2049],[95.1325,16.17],[95.1186,16.1123],[95.0869,16.0928],[95.0561,16.0353],[95.0701,15.9426],[95.0371,15.804],[95.0072,15.7794],[94.9869,15.7848],[94.9845,15.8487],[94.9826,15.7612],[94.945,15.7408],[94.8346,15.7802],[94.8386,15.8052],[94.89,15.8258],[94.871,15.8951],[94.9514,15.9418],[94.9443,15.9536],[94.8641,15.8974],[94.873,15.8249],[94.8451,15.8298],[94.8375,15.8459],[94.85,15.8791],[94.8385,15.938],[94.822,15.9345],[94.8283,15.9601],[94.8644,16.0021],[94.9146,16.0001],[94.9216,16.0335],[94.9051,16.074],[94.9343,16.0873],[94.9579,16.1334],[95.0236,16.136],[95.0222,16.1597],[95.046,16.1771],[95.0567,16.2034],[95.0549,16.2251],[95.0468,16.2397],[95.0705,16.247],[95.1009,16.3004],[95.0714,16.2745],[95.066,16.2483],[95.0415,16.2432],[95.047,16.1931],[95.0143,16.1628],[95.0157,16.143],[94.9563,16.1411],[94.9299,16.0936],[94.9024,16.0823],[94.9153,16.0289],[94.8912,16.006],[94.8775,16.0137],[94.876,16.0898],[94.8584,16.1105],[94.8734,16.1573],[94.9017,16.1906],[94.9585,16.1969],[95.0198,16.2555],[95.039,16.307],[95.0648,16.3113],[95.0508,16.3129],[95.0498,16.3336],[95.0167,16.2672],[94.9566,16.2141],[94.8728,16.1874],[94.8385,16.1096],[94.8499,16.0728],[94.7995,15.9913],[94.7999,15.9683],[94.7178,15.849],[94.6851,15.8371],[94.6427,15.8538],[94.6003,15.9197],[94.6694,15.9555],[94.7245,16.007],[94.7377,16.0659],[94.7846,16.0961],[94.7633,16.1246],[94.788,16.1318],[94.8057,16.1978],[94.84,16.2137],[94.8519,16.2428],[94.7986,16.2003],[94.7793,16.1479],[94.7551,16.131],[94.7524,16.095],[94.7231,16.0722],[94.6812,15.9951],[94.5752,15.9299],[94.5498,15.9484],[94.5488,15.9653],[94.5611,15.9568],[94.5822,16.0002],[94.6174,16.0193],[94.6846,16.1147],[94.681,16.2032],[94.7202,16.2026],[94.7305,16.2248],[94.7585,16.2353],[94.7395,16.2574],[94.7579,16.2812],[94.7337,16.2581],[94.7495,16.2374],[94.726,16.2303],[94.7196,16.2093],[94.6672,16.2251],[94.6649,16.2486],[94.6985,16.2454],[94.7086,16.2545],[94.7058,16.2669],[94.6996,16.2495],[94.6627,16.2565],[94.6989,16.3555],[94.7383,16.3545],[94.7525,16.3841],[94.7932,16.3541],[94.8136,16.3559],[94.8254,16.37],[94.7901,16.3612],[94.756,16.3907],[94.7361,16.361],[94.7117,16.3754],[94.7447,16.4037],[94.7495,16.4195],[94.7574,16.4103],[94.7683,16.4086],[94.7838,16.4272],[94.761,16.4136],[94.7475,16.4264],[94.7124,16.3943],[94.6962,16.4839],[94.7358,16.5109],[94.7465,16.5692],[94.7874,16.5767],[94.8004,16.5905],[94.7469,16.5772],[94.7283,16.5147],[94.6872,16.4943],[94.6784,16.5168],[94.7013,16.5519],[94.7077,16.609],[94.7422,16.6326],[94.7216,16.6862],[94.7451,16.697],[94.744,16.7259],[94.731,16.7346],[94.7359,16.6997],[94.7177,16.692],[94.7097,16.6546],[94.7317,16.6274],[94.678,16.6441],[94.6993,16.6779],[94.6878,16.7404],[94.6929,16.6747],[94.6749,16.6932],[94.6824,16.672],[94.6688,16.6524],[94.6513,16.6718],[94.6588,16.6542],[94.6755,16.6473],[94.6584,16.6267],[94.6914,16.639],[94.7013,16.624],[94.6935,16.5577],[94.6644,16.5186],[94.6861,16.4184],[94.6563,16.3444],[94.623,16.3385],[94.6381,16.3862],[94.6024,16.3349],[94.6018,16.2838],[94.5664,16.2585],[94.5315,16.2901],[94.5463,16.3091],[94.5242,16.2967],[94.5101,16.2772],[94.5207,16.2142],[94.5103,16.1785],[94.4346,16.0709],[94.4094,16.0539],[94.3666,16.0538],[94.3439,16.0176],[94.2814,15.9994],[94.2641,15.9634],[94.2423,15.9552],[94.1975,16.036],[94.2288,16.2533],[94.2434,16.2575],[94.231,16.3224],[94.2645,16.3974],[94.277,16.4925],[94.2609,16.5293],[94.2892,16.539],[94.2901,16.5187],[94.3168,16.5207],[94.3508,16.5731],[94.3216,16.5978],[94.3512,16.6208],[94.3681,16.615],[94.3564,16.6911],[94.3758,16.757],[94.4043,16.7913],[94.379,16.8733],[94.3884,16.9067],[94.4125,16.89],[94.444,16.9312],[94.4846,16.9439],[94.4782,16.9576],[94.4625,16.9417],[94.443,16.9479],[94.458,16.9759],[94.4543,17.0641],[94.4896,17.1169],[94.4529,17.1444],[94.4445,17.1783],[94.4635,17.1887],[94.4995,17.1567],[94.52,17.1672],[94.5363,17.1869],[94.5011,17.217],[94.5069,17.2986],[94.5272,17.2768],[94.5464,17.2902],[94.5411,17.319],[94.5813,17.2886],[94.591,17.2985],[94.5704,17.3203],[94.5656,17.4974],[94.5416,17.5488],[94.5632,17.5931],[94.5907,17.5498],[94.6094,17.5364],[94.612,17.5471],[94.5769,17.5914],[94.5879,17.6233],[94.5696,17.6452],[94.5584,17.6365],[94.5422,17.6791],[94.5445,17.7354],[94.4888,17.785],[94.4844,17.8943],[94.4372,17.9941],[94.4787,18.0074],[94.486,18.0481],[94.4475,18.1687],[94.4201,18.1925],[94.4266,18.2201],[94.4065,18.2466],[94.3373,18.2416],[94.3239,18.2557],[94.3275,18.3017],[94.393,18.2852],[94.4077,18.3116],[94.4023,18.3463],[94.3822,18.3655],[94.3391,18.3633],[94.3223,18.4362],[94.2493,18.5239],[94.2624,18.536],[94.2472,18.597],[94.2583,18.6072],[94.2388,18.6489],[94.1409,18.7356],[94.1735,18.7139],[94.1783,18.731],[94.2184,18.718],[94.2796,18.7365],[94.2528,18.7342],[94.2485,18.7553],[94.239,18.7348],[94.2161,18.7314],[94.2063,18.7428],[94.2241,18.7815],[94.2034,18.7528],[94.1989,18.794],[94.1829,18.7797],[94.1501,18.8085],[94.1461,18.823],[94.1763,18.8349],[94.145,18.8381],[94.1511,18.8776],[94.1693,18.8902],[94.1467,18.8848],[94.1245,18.8557],[94.1284,18.8786],[94.052,18.8454],[94.0311,18.8604],[94.0454,18.8851],[94.074,18.8677],[94.0864,18.8761],[94.1054,18.8996],[94.1353,18.8916],[94.1087,18.9292],[94.113,18.9662],[94.0844,18.8779],[94.0309,18.8983],[94.0552,18.9355],[94.0364,18.9912],[94.063,19.0349],[94.0524,19.0515],[94.102,19.0765],[94.0897,19.0848],[94.0969,19.0985],[94.1254,19.086],[94.1109,19.1088],[94.1466,19.1188],[94.1154,19.1201],[94.0545,19.0754],[94.0267,19.0802],[94.0417,19.1101],[94.1409,19.1571],[94.1356,19.1796],[94.1285,19.1553],[94.0951,19.1606],[94.0648,19.1263],[94.0735,19.1656],[94.0626,19.1882],[94.057,19.1258],[94.0335,19.1271],[94.0499,19.2232],[94.0711,19.234],[94.0485,19.2431],[94.0419,19.3021],[94.0737,19.3812],[94.0322,19.3313],[94.0359,19.2209],[94.0191,19.183],[94.0027,19.1855],[93.9904,19.2205],[94.0028,19.1527],[93.9649,19.1401],[93.9416,19.1608],[93.9425,19.1983],[93.9093,19.1997],[93.9679,19.1234],[93.9534,19.0883],[93.9547,19.018],[93.9859,18.9633],[93.9559,18.9192],[93.9602,18.8989],[93.9392,18.8843],[93.9355,18.847],[93.8992,18.8887],[93.7725,18.9666],[93.7444,18.9692],[93.7188,19.006],[93.6764,19.0073],[93.6664,19.0675],[93.6911,19.0858],[93.6974,19.1145],[93.7476,19.1212],[93.6942,19.1196],[93.686,19.0897],[93.6614,19.0772],[93.6415,19.1348],[93.599,19.1516],[93.5695,19.2263],[93.4737,19.3596],[93.4806,19.4034],[93.5132,19.434],[93.5478,19.4344],[93.5639,19.4046],[93.6047,19.4142],[93.6374,19.3492],[93.6172,19.3482],[93.6,19.3229],[93.6241,19.3415],[93.6672,19.3027],[93.642,19.2415],[93.6444,19.2239],[93.6647,19.2882],[93.6876,19.301],[93.7219,19.2921],[93.6948,19.2817],[93.7263,19.2762],[93.7213,19.2441],[93.74,19.2566],[93.8085,19.2263],[93.8732,19.2466],[93.9345,19.303],[93.9564,19.3055],[93.947,19.3309],[93.9722,19.3514],[93.9815,19.3847],[94.0113,19.3815],[93.9835,19.4056],[93.9677,19.3601],[93.8923,19.2916],[93.8818,19.3078],[93.9183,19.3327],[93.9219,19.3769],[93.9116,19.336],[93.884,19.3196],[93.8887,19.3541],[93.8595,19.3881],[93.8824,19.3528],[93.8688,19.3064],[93.7748,19.3011],[93.739,19.3436],[93.7469,19.3542],[93.7747,19.3401],[93.7802,19.354],[93.7324,19.3565],[93.7318,19.3833],[93.7123,19.3988],[93.7375,19.4116],[93.6507,19.4463],[93.6372,19.4892],[93.6545,19.4912],[93.6467,19.512],[93.6855,19.5656],[93.744,19.5447],[93.7685,19.4854],[93.788,19.5028],[93.8194,19.4641],[93.8217,19.4777],[93.8567,19.4843],[93.859,19.4401],[93.8622,19.4642],[93.8812,19.4726],[93.9766,19.4188],[93.9971,19.4526],[93.9789,19.4633],[93.9522,19.448],[93.905,19.4669],[93.951,19.515],[93.9379,19.5643],[93.9386,19.5078],[93.9005,19.489],[93.7773,19.5882],[93.8159,19.605],[93.793,19.6141],[93.7633,19.5983],[93.7227,19.6246],[93.7371,19.6486],[93.7934,19.6589],[93.7878,19.6809],[93.8197,19.7125],[93.8061,19.7391],[93.7967,19.6995],[93.729,19.6709],[93.7057,19.7037],[93.7205,19.748],[93.7907,19.7671],[93.7976,19.8322],[93.7856,19.8591],[93.7991,19.8685],[93.8013,19.8919],[93.7933,19.916],[93.7922,19.872],[93.7362,19.8856],[93.7147,19.9088],[93.7455,19.9165],[93.71,19.9346],[93.7074,19.9675],[93.7018,19.9143],[93.6258,19.9185],[93.5507,19.889],[93.5432,19.9061],[93.5739,19.9182],[93.5873,19.9373],[93.5679,19.921],[93.5423,19.9232],[93.5447,19.9368],[93.5155,19.924],[93.5143,19.9482],[93.5365,19.9557],[93.5063,19.9734],[93.54,19.9912],[93.483,19.9899],[93.4747,20.0333],[93.4585,20.0532],[93.471,20.0642],[93.4548,20.0545],[93.4756,20.0005],[93.4661,19.9825],[93.4544,19.9958],[93.4391,19.9917],[93.4564,19.9495],[93.4148,19.9719],[93.3806,20.0706],[93.4175,20.0801],[93.4138,20.1118],[93.4334,20.1056],[93.4112,20.1803],[93.3671,20.2681],[93.3396,20.2805],[93.3246,20.3286],[93.2953,20.3332],[93.3306,20.3947],[93.3269,20.4035],[93.2806,20.3484],[93.2792,20.327],[93.2388,20.3042],[93.2305,20.2747],[93.2471,20.2461],[93.2121,20.2377],[93.1827,20.197],[93.1153,20.1872],[93.225,20.2961],[93.2131,20.3364],[93.2517,20.425],[93.2253,20.3918],[93.1974,20.3863],[93.2238,20.3811],[93.2032,20.3228],[93.1914,20.3328],[93.1255,20.3259],[93.1371,20.3403],[93.1321,20.3694],[93.1569,20.3592],[93.1748,20.374],[93.1562,20.3657],[93.1294,20.3824],[93.1705,20.3949],[93.1738,20.4039],[93.1644,20.422],[93.1678,20.4001],[93.1478,20.4044],[93.1188,20.3783],[93.0911,20.3829],[93.0886,20.4016],[93.1103,20.413],[93.1166,20.4264],[93.107,20.5041],[93.087,20.5182],[93.1049,20.532],[93.0906,20.5314],[93.0866,20.5753],[93.0702,20.602],[93.0514,20.5965],[93.0244,20.6171],[93.026,20.6449],[93.0054,20.6396],[93.0161,20.6144],[93.0757,20.5791],[93.0814,20.5459],[93.0592,20.4783],[93.0262,20.4274],[93.0179,20.4564],[93.0431,20.4637],[93.0413,20.4968],[93.0636,20.5234],[93.0391,20.5411],[93.0553,20.5192],[93.0184,20.4764],[93.0343,20.4854],[93.0386,20.4686],[93.0129,20.4594],[93.0243,20.3875],[93.013,20.2965],[92.9631,20.2258],[92.945,20.2675],[92.9154,20.2428],[92.9159,20.2134],[92.8868,20.211],[92.9202,20.1816],[92.8976,20.1102],[92.8503,20.125],[92.7651,20.2015],[92.7877,20.2402],[92.7998,20.2067],[92.8298,20.1808],[92.8457,20.182],[92.7984,20.2149],[92.7983,20.2576],[92.9443,20.314],[92.8969,20.3084],[92.8796,20.3468],[92.8675,20.3547],[92.8807,20.3354],[92.8682,20.3347],[92.8391,20.3821],[92.9106,20.3716],[92.9318,20.3862],[92.9419,20.3523],[92.9507,20.3751],[92.9127,20.4119],[92.9324,20.4242],[92.9316,20.4347],[92.8984,20.4823],[92.9006,20.4573],[92.9285,20.4301],[92.9062,20.4191],[92.9093,20.3777],[92.8878,20.4218],[92.8863,20.4037],[92.8575,20.4196],[92.8636,20.405],[92.8511,20.3989],[92.8309,20.4171],[92.8167,20.4453],[92.834,20.4408],[92.8358,20.4683],[92.8488,20.4593],[92.8275,20.4968],[92.7919,20.5096],[92.7655,20.474],[92.7511,20.4806],[92.7321,20.5676],[92.7486,20.5782],[92.7505,20.5934],[92.7268,20.617],[92.7482,20.5887],[92.7308,20.5794],[92.6833,20.6292],[92.6439,20.6924],[92.647,20.727],[92.5834,20.7194],[92.5911,20.7316],[92.57,20.7811],[92.5993,20.7953],[92.6027,20.806],[92.5647,20.7866],[92.5476,20.8494],[92.5445,20.8128],[92.5717,20.7536],[92.5481,20.764],[92.5458,20.74],[92.5995,20.6787],[92.6401,20.6878],[92.6964,20.5806],[92.7294,20.5491],[92.7193,20.4711],[92.7477,20.4192],[92.7299,20.2967],[92.747,20.2558],[92.7222,20.2657],[92.6328,20.4414],[92.5341,20.5327],[92.5147,20.5968],[92.4601,20.6475],[92.4679,20.658],[92.3785,20.6934],[92.3878,20.7054],[92.3343,20.8367],[92.362,20.862],[92.3324,20.8525],[92.3134,20.8898],[92.3611,20.9397],[92.3499,20.9846],[92.3299,20.998],[92.297,20.9872],[92.2911,21.0044],[92.293,20.9778],[92.2779,20.9711],[92.2686,21.0165],[92.2891,21.0219],[92.2657,21.0396],[92.2839,21.0384],[92.3122,21.0703],[92.2734,21.0458],[92.231,21.1017],[92.225,21.1358],[92.196,21.1549],[92.1976,21.1197],[92.2544,21.0631],[92.2606,20.9378],[92.3121,20.8494],[92.3409,20.7534],[92.3309,20.7429],[92.3041,20.753],[92.2627,20.852],[92.2119,20.9248],[92.1843,21.0146],[92.0523,21.1652],[92.0492,21.2682],[92.0302,21.3366],[91.9544,21.447],[91.9976,21.5046],[92.0224,21.4868],[91.9953,21.5584],[92.0389,21.6475],[92.0395,21.6758],[92.025,21.6824],[92.0352,21.7003],[92.0175,21.7161],[92.0183,21.6659],[91.9832,21.6551],[91.9827,21.7025],[91.9654,21.6788],[91.9452,21.7368],[91.9528,21.7503],[91.9731,21.7395],[91.9937,21.7668],[91.9725,21.7474],[91.9558,21.7526],[91.954,21.774],[91.9706,21.7865],[91.9429,21.8044],[91.92,21.7787],[91.8907,21.778],[91.9198,21.847],[91.9124,21.9271],[91.9274,21.9346],[91.8934,21.9718],[91.8554,22.1263],[91.8488,22.1348],[91.8378,22.1162],[91.8116,22.1878],[91.8337,22.2113],[91.8421,22.2589],[91.8144,22.3042],[91.8677,22.3233],[91.9013,22.4012],[91.9397,22.4163],[92.0022,22.4047],[92.0224,22.4171],[92.0369,22.4469],[92.0804,22.4368],[92.1339,22.4559],[92.1442,22.47],[92.0892,22.4446],[92.0331,22.4505],[92.0015,22.412],[91.9541,22.421],[91.8982,22.4109],[91.8574,22.3311],[91.7959,22.2934],[91.7967,22.2755],[91.8291,22.2551],[91.7979,22.2196],[91.7795,22.2396],[91.7479,22.3992],[91.7,22.4842],[91.6276,22.5716],[91.5931,22.6421],[91.5289,22.7038],[91.4587,22.7449],[91.4851,22.7611],[91.4841,22.7692],[91.4695,22.7789],[91.4777,22.763],[91.4571,22.7598],[91.438,22.7739],[91.4409,22.7973],[91.4742,22.8258],[91.4352,22.8083],[91.4703,22.8388],[91.4836,22.8738],[91.4565,22.8986],[91.4913,22.9015],[91.461,22.9078],[91.4424,22.8968],[91.4412,22.8834],[91.4666,22.8742],[91.4209,22.81],[91.4076,22.7608],[91.3307,22.8314],[91.3504,22.8501],[91.3424,22.8833],[91.3158,22.839],[91.3518,22.7903],[91.345,22.7758],[91.296,22.8102],[91.1895,22.7974],[91.1195,22.8098],[91.1102,22.8273],[91.0952,22.8035],[91.0265,22.7999],[90.9416,22.8551],[90.8253,22.8642],[90.7667,22.9411],[90.7539,22.9322],[90.7921,22.905],[90.797,22.8655],[90.7806,22.8587],[90.7369,22.8836],[90.689,22.9791],[90.6266,23.0007],[90.5662,23.1069],[90.5921,23.1688],[90.6525,23.2426],[90.6389,23.3166],[90.6753,23.3166],[90.6743,23.3395],[90.6979,23.3459],[90.6795,23.3632],[90.695,23.3777],[90.6734,23.3643],[90.6614,23.3372],[90.6734,23.3211],[90.6038,23.3331],[90.5795,23.3953],[90.6006,23.4256],[90.5853,23.4661],[90.6219,23.4892],[90.6774,23.4817],[90.7009,23.4882],[90.7174,23.5424],[90.7446,23.5445],[90.7246,23.5533],[90.7084,23.5387],[90.7055,23.5621],[90.7329,23.5925],[90.7396,23.6221],[90.7651,23.6302],[90.7412,23.6632],[90.758,23.7209],[90.7424,23.6938],[90.7407,23.7238],[90.7311,23.7103],[90.7153,23.7414],[90.6818,23.6867],[90.6441,23.6909],[90.6307,23.6365],[90.5636,23.5935],[90.5536,23.5717],[90.5147,23.5814],[90.5049,23.6034],[90.4843,23.5865],[90.4537,23.6151],[90.4701,23.6316],[90.4386,23.6735],[90.3689,23.7187],[90.384,23.7026],[90.366,23.7033],[90.3447,23.7391],[90.3179,23.7348],[90.3119,23.7651],[90.2554,23.7294],[90.2572,23.7754],[90.2306,23.8875],[90.2388,23.8266],[90.2032,23.8413],[90.1543,23.828],[90.1334,23.8659],[90.1128,23.8738],[90.1103,23.8573],[90.0547,23.8207],[90.0629,23.8764],[90.0457,23.8897],[90.026,23.8818],[90.0228,23.9071],[89.9531,23.9623],[89.9518,23.9857],[89.933,23.9851],[89.9496,23.9615],[89.9381,23.9549],[90.0186,23.8947],[90.0127,23.8784],[90.0538,23.8747],[90.0475,23.8169],[90.0905,23.8299],[90.1248,23.8071],[90.1818,23.8021],[90.2059,23.8158],[90.2207,23.8002],[90.2414,23.8151],[90.2061,23.7517],[90.2185,23.7236],[90.2541,23.72],[90.2747,23.6864],[90.2539,23.7084],[90.2206,23.7082],[90.1825,23.7401],[90.1918,23.7194],[90.1681,23.7215],[90.1475,23.7108],[90.1235,23.7365],[90.0698,23.7579],[90.023,23.7636],[90.0241,23.7979],[90.0022,23.8161],[90.0193,23.7628],[90.1205,23.7334],[90.1451,23.7046],[90.1722,23.7165],[90.2211,23.703],[90.2483,23.7073],[90.2761,23.6547],[90.2919,23.659],[90.3975,23.6023],[90.3994,23.5775],[90.38,23.5673],[90.41,23.5802],[90.4486,23.5418],[90.504,23.5719],[90.5372,23.5618],[90.5701,23.4823],[90.537,23.482],[90.5347,23.4627],[90.5543,23.4281],[90.5271,23.3907],[90.4863,23.4206],[90.4209,23.416],[90.2819,23.4471],[90.1575,23.5302],[90.1084,23.6143],[89.9669,23.6604],[89.9208,23.7195],[89.8549,23.7507],[89.7914,23.8079],[89.7749,23.899],[89.768,23.8875],[89.7045,23.956],[89.7271,23.9754],[89.7215,23.9999],[89.7142,23.9698],[89.6986,23.9645],[89.7055,23.9987],[89.6717,24.0012],[89.6556,23.934],[89.6994,23.8776],[89.7522,23.8654],[89.7719,23.8366],[89.7574,23.8477],[89.7233,23.8346],[89.6825,23.8639],[89.6828,23.8495],[89.7174,23.8311],[89.6269,23.8456],[89.5488,23.8241],[89.4497,23.8706],[89.3922,23.9399],[89.3282,23.9489],[89.2815,23.9872],[89.3156,23.9473],[89.2898,23.9463],[89.2363,23.9838],[89.1851,23.9866],[89.1618,24.0056],[89.0765,23.9966],[89.0617,23.9821],[89.096,23.9644],[89.1235,23.9198],[89.1259,23.9544],[89.1658,23.9263],[89.2303,23.9212],[89.3047,23.8696],[89.408,23.8977],[89.4455,23.825],[89.4993,23.7789],[89.5971,23.7975],[89.6398,23.7767],[89.7105,23.7749],[89.8616,23.6574],[89.9469,23.6368],[90.0257,23.5559],[90.0181,23.5824],[90.0821,23.5733],[90.127,23.5439],[90.1588,23.4856],[90.1562,23.428],[90.2071,23.3348],[90.1684,23.3476],[90.1638,23.3638],[90.1866,23.3599],[90.1614,23.368],[90.1684,23.3354],[90.125,23.3055],[90.1203,23.3352],[90.1446,23.3643],[90.1449,23.3779],[90.1267,23.3505],[90.0998,23.3596],[90.1209,23.3472],[90.1142,23.3259],[90.1195,23.306],[90.0941,23.3016],[90.0854,23.2757],[90.123,23.27],[90.1268,23.2424],[90.2019,23.2261],[90.1984,23.2094],[90.1668,23.2018],[90.1744,23.1684],[90.1859,23.1644],[90.2214,23.1822],[90.2484,23.1625],[90.2337,23.1423],[90.2413,23.1263],[90.3167,23.1025],[90.3165,23.0669],[90.2677,23.0426],[90.2728,23.0252],[90.3101,23.0183],[90.3208,22.9871],[90.2739,22.9684],[90.3545,22.9193],[90.3487,22.8879],[90.3183,22.8619],[90.3641,22.7893],[90.3684,22.7364],[90.4201,22.7321],[90.4175,22.714],[90.396,22.7289],[90.3833,22.705],[90.4002,22.7233],[90.4201,22.7084],[90.4298,22.7284],[90.4187,22.7455],[90.3769,22.7405],[90.3841,22.7595],[90.4284,22.7647],[90.4673,22.737],[90.4851,22.6987],[90.4768,22.6561],[90.4979,22.6716],[90.5192,22.6318],[90.5048,22.586],[90.5233,22.5968],[90.5781,22.5302],[90.6127,22.3478],[90.5921,22.2583],[90.564,22.2445],[90.5262,22.1864],[90.5046,22.1844],[90.5038,22.1613],[90.4346,22.0674],[90.4222,22.12],[90.441,22.1532],[90.4266,22.1509],[90.4172,22.1207],[90.4198,22.0909],[90.3854,22.0968],[90.4027,22.1671],[90.4265,22.185],[90.3997,22.22],[90.4167,22.2617],[90.4037,22.2844],[90.4191,22.2895],[90.3788,22.2925],[90.4151,22.3385],[90.4039,22.3321],[90.364,22.2937],[90.408,22.2681],[90.395,22.2041],[90.418,22.1837],[90.3978,22.1711],[90.3864,22.137],[90.3408,22.1619],[90.3877,22.196],[90.3875,22.2113],[90.357,22.1796],[90.3436,22.1957],[90.3497,22.1786],[90.3339,22.1654],[90.3783,22.131],[90.3753,22.1055],[90.3318,22.1085],[90.3266,22.0884],[90.3136,22.0884],[90.2617,22.041],[90.2751,22.0357],[90.278,21.9953],[90.2572,21.956],[90.2111,21.9824],[90.214,22.002],[90.1956,21.9792],[90.2323,21.9679],[90.218,21.9505],[90.2686,21.946],[90.241,21.9017],[90.2611,21.8838],[90.2561,21.8674],[90.2241,21.8543],[90.2042,21.8874],[90.2396,21.9347],[90.1967,21.8919],[90.2208,21.8523],[90.263,21.8586],[90.2488,21.8381],[90.2164,21.8353],[90.26,21.8322],[90.1715,21.7882],[90.1023,21.8045],[90.0816,21.8353],[90.0991,21.8516],[90.1221,21.8483],[90.1012,21.8538],[90.1018,21.874],[90.1361,21.8902],[90.1625,21.8731],[90.1532,21.8596],[90.1669,21.8634],[90.1521,21.8964],[90.1886,21.9227],[90.1548,21.9088],[90.1442,21.8906],[90.116,21.8991],[90.1164,21.916],[90.15,21.9227],[90.1377,21.9517],[90.1686,21.9802],[90.1406,21.9702],[90.1279,21.9913],[90.1418,21.9247],[90.1118,21.9223],[90.1084,21.8936],[90.0966,21.8957],[90.0998,21.9391],[90.0732,22.0042],[90.1582,22.1118],[90.213,22.114],[90.2284,22.1642],[90.2539,22.1637],[90.273,22.1789],[90.2772,22.2099],[90.259,22.1723],[90.2289,22.1726],[90.2398,22.1973],[90.22,22.2208],[90.2072,22.3078],[90.228,22.3386],[90.2736,22.3376],[90.2908,22.3515],[90.2968,22.372],[90.2657,22.3668],[90.2816,22.4082],[90.3161,22.4663],[90.3412,22.4588],[90.3628,22.4889],[90.3405,22.4664],[90.3119,22.4712],[90.2587,22.3756],[90.2551,22.3447],[90.2232,22.3427],[90.2031,22.3166],[90.2095,22.2151],[90.2298,22.1917],[90.2017,22.1217],[90.1588,22.1233],[90.0911,22.0598],[90.0527,21.971],[90.0307,21.9969],[90.0278,21.9783],[90.0031,21.9851],[89.9927,22.0353],[90.03,22.0611],[90.037,22.1279],[90.0708,22.1531],[90.1401,22.1555],[90.0819,22.1581],[90.0257,22.1888],[90.0791,22.2174],[90.1125,22.2894],[90.1019,22.3432],[90.177,22.4226],[90.2021,22.4865],[90.2065,22.5107],[90.1867,22.5273],[90.2029,22.5717],[90.1852,22.6246],[90.2531,22.6214],[90.2843,22.6309],[90.2954,22.6527],[90.2502,22.6281],[90.1805,22.6272],[90.1974,22.5693],[90.1817,22.5257],[90.1995,22.5074],[90.1947,22.4824],[90.1725,22.4559],[90.1706,22.4245],[90.0934,22.3465],[90.1045,22.3006],[90.0717,22.2222],[90.021,22.186],[90.0262,22.1703],[90.0631,22.1609],[90.0176,22.1253],[90.0201,22.0696],[89.9798,22.0376],[89.9895,21.9907],[89.958,21.9789],[89.9095,22.0721],[89.9174,22.1364],[89.8785,22.2662],[89.9244,22.38],[89.9825,22.4356],[89.9994,22.4864],[90.0253,22.4905],[90.0297,22.5646],[90.0657,22.6095],[90.0563,22.6225],[90.0254,22.6002],[90.0334,22.6501],[90.0057,22.6801],[90.0278,22.6508],[90.0132,22.5992],[90.0307,22.5811],[90.0183,22.4952],[89.9547,22.5058],[89.9855,22.4868],[89.9866,22.4645],[89.9078,22.387],[89.886,22.3999],[89.8817,22.4295],[89.8785,22.4008],[89.8982,22.3673],[89.8455,22.2576],[89.8901,22.1169],[89.8533,22.0682],[89.8187,22.0657],[89.857,22.0425],[89.885,21.9031],[89.861,21.8791],[89.8441,21.8854],[89.8405,21.8558],[89.7837,21.8305],[89.7712,21.8351],[89.7906,21.8787],[89.7531,21.8562],[89.7335,21.891],[89.7516,21.839],[89.7313,21.831],[89.7051,21.8496],[89.6725,21.8399],[89.6581,21.8907],[89.6795,21.905],[89.6549,21.9134],[89.6346,21.8651],[89.7124,21.7849],[89.7059,21.7599],[89.6074,21.7586],[89.6135,21.8117],[89.5629,21.8606],[89.5902,21.9397],[89.5539,21.995],[89.5149,21.9898],[89.5251,21.9555],[89.5109,21.8972],[89.4939,21.9068],[89.4633,21.8539],[89.4337,21.8481],[89.4625,21.8463],[89.4712,21.8206],[89.4585,21.812],[89.4709,21.8136],[89.4841,21.7851],[89.4155,21.7098],[89.384,21.7126],[89.3555,21.8023],[89.3894,21.9025],[89.368,21.9052],[89.3215,21.8666],[89.3074,21.8211],[89.2868,21.8064],[89.2933,21.7568],[89.2304,21.7684],[89.2188,21.7572],[89.1973,21.8046],[89.163,21.7898],[89.1067,21.8119],[89.1112,21.8613],[89.0856,21.9391],[89.0635,21.9277],[89.0659,21.8925],[89.0909,21.8526],[89.0903,21.8002],[89.152,21.7553],[89.1371,21.7196],[89.1126,21.7222],[89.0525,21.7843],[89.0679,21.8564],[89.0403,21.9073],[88.9962,21.8925],[89.0366,21.8603],[89.0296,21.7685],[89.0813,21.7062],[89.1028,21.6572],[89.0979,21.6257],[89.0588,21.6119],[89.0237,21.6636],[89.0039,21.6525],[89.029,21.6544],[89.043,21.6131],[89.0144,21.601],[88.9949,21.6468],[88.9941,21.6094],[88.9523,21.6406],[88.9294,21.6299],[88.9033,21.6451],[88.8754,21.7011],[88.893,21.7378],[88.878,21.7677],[88.8471,21.7073],[88.869,21.6422],[88.8493,21.6302],[88.8529,21.6161],[88.8287,21.6219],[88.8115,21.6348],[88.8225,21.6607],[88.759,21.6567],[88.7228,21.6815],[88.6993,21.7397],[88.7251,21.7979],[88.6987,21.836],[88.7311,21.9353],[88.7295,21.9772],[88.749,21.9774],[88.769,22.0149],[88.7901,22.02],[88.7662,22.0242],[88.7594,22.0503],[88.7746,22.0531],[88.7488,22.066],[88.7158,22.0499],[88.7402,22.0315],[88.7364,22.0076],[88.6683,22.0227],[88.6334,22.1206],[88.6205,22.1067],[88.6439,22.0464],[88.6091,21.9766],[88.6199,21.9361],[88.5853,21.9853],[88.5785,21.9648],[88.6107,21.9327],[88.6096,21.9098],[88.5834,21.8858],[88.5603,21.8124],[88.5405,21.8535],[88.5029,21.8819],[88.5314,21.9299],[88.5098,21.9712],[88.5527,21.9853],[88.5652,22.0228],[88.5483,21.9885],[88.5054,21.9739],[88.5111,21.9241],[88.4851,21.8967],[88.4662,21.9004],[88.4688,21.9487],[88.4599,21.9387],[88.4526,21.9079],[88.4648,21.8953],[88.485,21.8903],[88.5004,21.851],[88.4562,21.8171],[88.4696,21.7938],[88.448,21.8016],[88.4294,21.7671],[88.4363,21.7039],[88.4198,21.6886],[88.4164,21.6527],[88.4414,21.6211],[88.4192,21.6065],[88.4184,21.5819],[88.3934,21.6057],[88.4046,21.6193],[88.3877,21.6738],[88.4116,21.7198],[88.3794,21.7298],[88.3975,21.7347],[88.4075,21.7637],[88.3915,21.7796],[88.4084,21.7989],[88.4001,21.8346],[88.4217,21.8888],[88.3999,21.8986],[88.4163,21.9239],[88.4048,21.9531],[88.3902,21.9662],[88.4104,21.9785],[88.413,21.9941],[88.3871,21.9663],[88.4116,21.9225],[88.3958,21.906],[88.398,21.8946],[88.4077,21.8859],[88.3974,21.8741],[88.397,21.7955],[88.3717,21.8006],[88.3648,21.8529],[88.3645,21.8016],[88.3297,21.7886],[88.2816,21.7969],[88.2777,21.8096],[88.3148,21.8297],[88.3237,21.8508],[88.3061,21.8664],[88.2686,21.8651],[88.3175,21.8498],[88.2584,21.8],[88.2887,21.7598],[88.285,21.7154],[88.3063,21.6759],[88.2955,21.6068],[88.3255,21.5801],[88.2856,21.5574],[88.2585,21.56],[88.2452,21.6059],[88.2267,21.6173],[88.2494,21.6481],[88.2421,21.6778],[88.2105,21.6888],[88.2311,21.7008],[88.2165,21.7909],[88.2376,21.7644],[88.2404,21.7784],[88.212,21.8018],[88.2011,21.8507],[88.1645,21.8907],[88.1736,21.9305],[88.1487,21.9592],[88.2329,22.0686],[88.2142,22.1574],[88.1731,22.1973],[88.086,22.2092],[88.0779,22.223],[88.034,22.2181],[88.0319,22.2018],[88.1442,22.1868],[88.1932,22.1282],[88.1957,22.1037],[88.1618,22.0645],[88.062,22.0134],[88.0491,21.9632],[87.9766,21.8497],[87.9352,21.8113],[87.8866,21.8031],[87.891,21.779],[87.831,21.7238],[87.7876,21.6997],[87.7555,21.7011],[87.7032,21.6602],[87.6638,21.6495],[87.6514,21.6656],[87.6367,21.6471],[87.3716,21.578],[87.3705,21.5618],[87.1956,21.5494],[87.1966,21.5382],[87.1237,21.5148],[87.066,21.473],[86.8943,21.3133],[86.8167,21.1383],[86.9295,20.9011],[86.9724,20.8446],[86.9742,20.7699],[86.9993,20.761],[87.0138,20.7259],[86.9957,20.6995],[87.0253,20.6897],[87.0517,20.7024],[86.7661,20.5057],[86.7365,20.452],[86.7403,20.4123],[86.7226,20.3935],[86.7418,20.3778],[86.7282,20.3617],[86.7785,20.3974],[86.77,20.3672],[86.7856,20.366],[86.7633,20.3356],[86.8019,20.3649],[86.8077,20.3953],[86.8055,20.3607],[86.7207,20.2997],[86.6841,20.3174],[86.6954,20.2818],[86.765,20.3143],[86.5374,20.1809],[86.4261,20.0256],[86.423,20.0496],[86.4009,20.0053],[86.4289,19.9945],[86.4172,19.9767],[86.1578,19.8714],[86.0759,19.8488],[86.0873,19.8592],[86.0496,19.8556],[86.0658,19.8436],[85.9328,19.8215],[85.6853,19.7449],[85.4344,19.6256],[85.2434,19.5097],[85.1224,19.4198],[85.0879,19.3694],[84.9108,19.2519],[84.8232,19.147],[84.8083,19.1466],[84.801,19.1103],[84.6915,18.956],[84.5984,18.8653],[84.5625,18.7891],[84.4576,18.6872],[84.447,18.6521],[84.386,18.6003],[84.3628,18.5504],[84.1702,18.383],[84.1375,18.3437],[84.1368,18.3084],[83.9642,18.2164],[83.9344,18.2254],[83.9427,18.2055],[83.8113,18.1604],[83.6741,18.0857],[83.5753,18.0094],[83.5468,17.9549],[83.4721,17.8984],[83.4688,17.9202],[83.4438,17.934],[83.4671,17.8857],[83.4137,17.8405],[83.4169,17.8078],[83.3574,17.7571],[83.3505,17.7277],[83.2944,17.6912],[83.3015,17.6781],[83.2427,17.6342],[83.2144,17.5896],[83.0272,17.5114],[82.9881,17.4695],[82.8943,17.4244],[82.8831,17.4381],[82.8635,17.413],[82.647,17.3109],[82.4943,17.2126],[82.3006,17.0409],[82.2792,17.0006],[82.277,16.9425],[82.2526,16.9201],[82.2667,16.8882],[82.2567,16.8644],[82.2723,16.8873],[82.2758,16.8549],[82.2921,16.8749],[82.304,16.8567],[82.3199,16.8672],[82.3209,16.8372],[82.3391,16.8596],[82.3694,16.8561],[82.3673,16.8111],[82.3745,16.9256],[82.35,16.9704],[82.3719,16.9526],[82.3799,16.9022],[82.3781,16.8245],[82.3464,16.7162],[82.3559,16.7112],[82.3202,16.6427],[82.3214,16.6135],[82.302,16.6078],[82.3163,16.5829],[81.9545,16.3964],[81.8681,16.3791],[81.7319,16.3134],[81.5109,16.3597],[81.327,16.3135],[81.2581,16.2645],[81.2018,16.1791],[81.1881,16.1455],[81.2138,16.1756],[81.206,16.124],[81.1488,16.0028],[81.155,15.9705],[81.048,15.9041],[80.9932,15.8326],[81.0017,15.7717],[81.0317,15.7589],[80.9384,15.7078],[80.8987,15.7161],[80.8139,15.7002],[80.7818,15.8479],[80.8089,15.7778],[80.8098,15.8394],[80.7694,15.8686],[80.6998,15.8811],[80.6199,15.8787],[80.5324,15.8541],[80.3959,15.7874],[80.3002,15.7121],[80.2454,15.6243],[80.206,15.4729],[80.0955,15.329],[80.0826,15.2589],[80.0924,15.2091],[80.0775,15.1873],[80.065,15.1919],[80.0735,15.1694],[80.0438,15.0829],[80.089,14.863],[80.0872,14.8059],[80.148,14.691],[80.1543,14.6372],[80.1961,14.5708],[80.1708,14.3544],[80.1262,14.206],[80.1288,14.1398],[80.1543,14.0184],[80.2552,13.7868],[80.2333,13.7151],[80.2334,13.6431],[80.3263,13.438],[80.3459,13.2935],[80.2957,13.1259],[80.3046,13.0916],[80.2759,13.0183],[80.261,13.0129],[80.2741,13.0055],[80.2429,12.8171],[80.2527,12.7702],[80.1942,12.5915],[80.1758,12.5813],[80.1872,12.5744],[80.1636,12.4915],[80.1357,12.4599],[80.1431,12.4397],[80.0468,12.3102],[80.0668,12.3455],[80.0577,12.3516],[79.8844,12.0559],[79.8346,11.91],[79.8187,11.9073],[79.8347,11.8997],[79.8075,11.8438],[79.8032,11.7931],[79.7759,11.7701],[79.7937,11.7702],[79.7932,11.749],[79.7662,11.6507],[79.7585,11.5466],[79.7714,11.492],[79.8188,11.4257],[79.8495,11.2596],[79.8464,11.2372],[79.8252,11.2304],[79.8515,11.2262],[79.8597,11.1807],[79.8528,10.6787],[79.8762,10.2962],[79.8597,10.2765],[79.7632,10.2706],[79.5302,10.3132],[79.4001,10.3202],[79.3038,10.2641],[79.273,10.2341],[79.2718,10.1966],[79.246,10.1832],[79.2302,10.1424],[79.2331,10.0807],[79.2675,10.0349],[79.1657,9.9348],[79.1254,9.8805],[79.1208,9.845],[78.9899,9.6909],[78.934,9.592],[78.9189,9.4907],[78.9021,9.4851],[78.9603,9.3817],[79.0724,9.2933],[79.201,9.28],[79.266,9.2889],[79.2952,9.3178],[79.3292,9.3188],[79.3204,9.2691],[79.4426,9.1543],[79.3131,9.2389],[79.2719,9.2541],[79.2262,9.2496],[79.2074,9.2764],[79.0932,9.2568],[78.975,9.2697],[78.9264,9.2632],[78.9107,9.2449],[78.8751,9.2527],[78.8278,9.238],[78.7334,9.2031],[78.7198,9.1818],[78.6506,9.1915],[78.6449,9.1654],[78.6615,9.1514],[78.5836,9.1273],[78.4947,9.124],[78.4913,9.1361],[78.4178,9.1088],[78.2837,9.003],[78.2658,9.0125],[78.2681,8.9925],[78.1939,8.9253],[78.171,8.8711],[78.1541,8.7465],[78.1777,8.7594],[78.1959,8.7503],[78.2008,8.7784],[78.2064,8.7644],[78.1968,8.7412],[78.1645,8.7318],[78.1319,8.6686],[78.1332,8.4868],[78.0664,8.4095],[78.0695,8.3656],[77.8066,8.2352],[77.744,8.171],[77.5889,8.1376],[77.559,8.1123],[77.552,8.0686],[77.3143,8.1187],[77.2963,8.1466],[77.2394,8.1731],[76.9823,8.3809],[76.6207,8.843],[76.5459,8.8994],[76.5147,9.0165],[76.4562,9.1275],[76.4843,9.1152],[76.4926,9.1661],[76.4746,9.1619],[76.4702,9.1417],[76.4369,9.241],[76.4198,9.2436],[76.4549,9.1424],[76.3296,9.4415],[76.2451,9.9564],[76.221,9.9906],[76.1682,10.1789],[76.1536,10.1858],[76.0932,10.4027],[76.0454,10.4859],[76.0643,10.4737],[76.0399,10.5169],[76.0463,10.5323],[76.0227,10.5382],[75.932,10.7393],[75.9252,10.7889],[75.9109,10.7992],[75.9101,10.7839],[75.8323,11.1256],[75.7918,11.17],[75.7805,11.2272],[75.7295,11.3317],[75.7338,11.3533],[75.688,11.4332],[75.6157,11.477],[75.5826,11.5491],[75.5873,11.5605],[75.5965,11.5357],[75.5912,11.5624],[75.6041,11.5611],[75.5816,11.572],[75.5293,11.697],[75.5384,11.7052],[75.5174,11.7092],[75.4716,11.769],[75.4524,11.7669],[75.457,11.7774],[75.3888,11.8471],[75.3557,11.856],[75.246,12.0073],[75.2252,12.0211],[75.2,12.0033],[75.1874,12.0482],[75.1758,12.0461],[75.0643,12.343],[75.0299,12.3911],[75.0386,12.4111],[75.0231,12.3994],[75.0061,12.4324],[75.0153,12.4447],[74.996,12.4475],[74.9675,12.5003],[74.891,12.7065],[74.8253,12.8272],[74.7736,13.0537],[74.7774,13.0933],[74.7699,13.0782],[74.6895,13.3543],[74.6657,13.6379],[74.6425,13.6719],[74.6048,13.8409],[74.6171,13.8573],[74.5965,13.8728],[74.5675,13.9452],[74.5265,13.963],[74.5075,13.9931],[74.4659,14.1823],[74.4407,14.2092],[74.4034,14.3294],[74.3952,14.4191],[74.3762,14.417],[74.3515,14.5157],[74.3052,14.5196],[74.2912,14.5934],[74.2635,14.6242],[74.2946,14.64],[74.2743,14.6485],[74.2767,14.6754],[74.2537,14.7068],[74.2633,14.7093],[74.2648,14.7199],[74.2582,14.7122],[74.2217,14.7473],[74.1961,14.7185],[74.1708,14.7485],[74.1476,14.7464],[74.1385,14.7759],[74.1045,14.7835],[74.0914,14.8037],[74.118,14.8041],[74.1251,14.84],[74.1076,14.8454],[74.0754,14.9084],[74.0377,14.9167],[74.0487,14.9568],[74.0297,14.9813],[74.0471,14.9859],[73.9852,15.023],[73.9808,15.0479],[73.9501,15.0728],[73.9052,15.0869],[73.946,15.1422],[73.8868,15.3344],[73.865,15.3686],[73.8344,15.3615],[73.7794,15.4082],[73.874,15.398],[73.8894,15.4207],[73.8745,15.4342],[73.8584,15.4258],[73.8456,15.4489],[73.7827,15.456],[73.8202,15.5012],[73.7577,15.4933],[73.731,15.618],[73.6866,15.7177],[73.6499,15.7398],[73.6549,15.7739],[73.6204,15.8507],[73.5847,15.907],[73.4992,15.9476],[73.5095,15.9918],[73.4953,15.9853],[73.4818,16.0342],[73.4563,16.0581],[73.4839,16.0695],[73.4591,16.0769],[73.4724,16.1102],[73.4617,16.1155],[73.4576,16.0962],[73.4374,16.1916],[73.4522,16.2251],[73.4279,16.2045],[73.411,16.2607],[73.4396,16.289],[73.4057,16.2811],[73.3868,16.362],[73.3701,16.3623],[73.3708,16.3888],[73.3965,16.3907],[73.4085,16.4087],[73.3679,16.4008],[73.3578,16.4336],[73.3817,16.448],[73.3479,16.4526],[73.3116,16.5392],[73.3392,16.5597],[73.3591,16.5171],[73.349,16.5086],[73.3714,16.5137],[73.352,16.537],[73.3562,16.5663],[73.3168,16.5976],[73.3479,16.5967],[73.3593,16.6254],[73.3365,16.621],[73.3215,16.6383],[73.327,16.6786],[73.343,16.6907],[73.3167,16.6952],[73.3004,16.7516],[73.3179,16.8011],[73.2946,16.8134],[73.2847,16.8773],[73.3047,16.8852],[73.2761,16.8895],[73.2818,16.9474],[73.3058,16.973],[73.2682,16.9867],[73.2784,17.0048],[73.2531,17.0391],[73.2701,17.0396],[73.2896,17.0061],[73.2815,17.0367],[73.3264,17.0304],[73.2796,17.0447],[73.2914,17.0702],[73.2682,17.148],[73.2315,17.1953],[73.244,17.2156],[73.1893,17.3025],[73.2207,17.3081],[73.2573,17.2598],[73.2631,17.2879],[73.2972,17.2844],[73.2369,17.291],[73.2076,17.3815],[73.1715,17.4019],[73.1979,17.4384],[73.1903,17.4813],[73.1405,17.5551],[73.1716,17.5844],[73.135,17.6294],[73.1193,17.6889],[73.1355,17.7136],[73.1276,17.7483],[73.0559,17.925],[73.0342,17.9437],[73.0415,17.9769],[73.0062,18.0163],[73.0312,18.0228],[73.0447,18.0395],[73.025,18.0294],[73.0279,18.0458],[73.0162,18.0249],[72.9934,18.0556],[72.9978,18.0775],[72.9722,18.123],[72.9884,18.1524],[72.9805,18.1943],[72.9314,18.2183],[72.943,18.2318],[72.9378,18.2773],[72.9666,18.2716],[72.9803,18.2399],[73.0525,18.2258],[73.0698,18.1969],[73.0782,18.2298],[73.0525,18.2857],[73.0463,18.2676],[73.025,18.2652],[72.9103,18.3543],[72.9275,18.3803],[72.8896,18.4594],[72.9069,18.4942],[72.9046,18.5381],[72.9214,18.5286],[72.962,18.5413],[72.9164,18.552],[72.8839,18.6308],[72.8976,18.6325],[72.869,18.6403],[72.8574,18.6703],[72.8686,18.8021],[72.9152,18.7926],[72.9364,18.8239],[72.9895,18.7753],[72.9863,18.8054],[73.0575,18.8019],[72.9878,18.8125],[72.983,18.8621],[72.9406,18.8459],[72.907,18.8927],[72.9249,18.9098],[72.9393,18.8912],[72.9543,18.9158],[72.9458,18.9422],[72.9776,18.9464],[72.9533,18.9698],[73.091,18.9989],[73.0667,19.0145],[73.0846,19.0316],[73.0644,19.0294],[73.0906,19.0451],[73.0055,19.0055],[72.9845,19.0706],[72.995,19.0879],[72.9753,19.1115],[72.9767,19.1708],[72.9666,19.1368],[72.9526,19.1392],[72.9572,19.1082],[72.9308,19.0909],[72.9483,19.0693],[72.9137,19.0748],[72.9515,19.0523],[72.9412,19.0277],[72.9001,18.9928],[72.8785,19.0226],[72.8561,19.0084],[72.8156,18.8992],[72.8015,18.9092],[72.8194,18.9212],[72.8192,18.9453],[72.792,18.9444],[72.8116,19.0189],[72.8597,19.06],[72.8162,19.0495],[72.8248,19.087],[72.8097,19.1416],[72.7856,19.1404],[72.7807,19.1655],[72.8011,19.1971],[72.778,19.1928],[72.7863,19.3046],[72.8502,19.3163],[72.9155,19.2924],[72.8533,19.3425],[72.8019,19.3316],[72.7581,19.3762],[72.7663,19.3959],[72.7441,19.4601],[72.7576,19.4797],[72.7167,19.5831],[72.745,19.6032],[72.7284,19.6105],[72.7085,19.6706],[72.7003,19.728],[72.715,19.7465],[72.6906,19.7529],[72.706,19.809],[72.6855,19.8047],[72.6243,19.9115],[72.6266,19.9614],[72.6506,20.0123],[72.7297,20.0917],[72.8647,20.1775],[73.4947,20.4706],[73.7154,20.5963],[74.0092,20.8546],[74.3677,21.2091],[74.8249,21.7111],[75.5266,22.5721],[75.5906,22.6899],[75.6341,22.8223],[75.658,22.971],[75.6625,23.1368],[75.6328,23.4385],[75.5305,23.9954],[75.4621,24.2623],[75.3695,24.5315],[75.228,24.8559],[75.0566,25.1763],[74.8554,25.4924],[74.6415,25.7774],[74.3833,26.0633],[74.0899,26.3383],[73.7615,26.6028],[73.4024,26.8533],[72.8258,27.1888],[72.1397,27.4286],[71.9979,27.4951],[71.8849,27.5688],[71.733,27.7181],[71.5814,27.9199],[71.4946,28.0829],[71.4266,28.2751],[71.2078,29.3065],[71.1174,29.9304],[71.0912,30.5573],[71.1426,31.153],[71.2487,31.699],[71.4021,32.2431],[71.5367,32.5835],[71.9294,33.4613],[72.206,34.3014],[72.3647,34.64],[72.6228,35.0432],[72.8861,35.3421],[73.2886,35.6561],[73.4747,35.7656],[73.6544,35.8459],[73.831,35.8985],[74.037,35.9309],[74.406,35.9593],[74.7104,35.9623],[74.9298,35.9456],[75.1179,35.9118],[75.2757,35.8616],[75.4308,35.7865],[75.6499,35.6379],[75.8933,35.4243],[76.2435,35.0747],[76.4377,34.8249],[76.5605,34.6217],[76.6789,34.3841],[77.0472,33.4777],[77.2182,33.1182],[77.5877,32.5312],[77.9688,31.9905],[78.2606,31.6275],[78.822,30.9989],[79.2262,30.5919],[79.6113,30.2488],[79.939,29.9942],[80.2612,29.7781],[80.5867,29.5945],[80.9142,29.4445],[81.1482,29.3738],[81.8435,29.3169],[81.9853,29.2883],[82.085,29.2464],[82.1632,29.1637],[82.1818,28.993],[82.2409,28.9116],[82.6303,28.7063],[84.0022,27.6031],[84.2067,27.4561],[84.3956,27.344],[84.6761,27.2162],[85.2748,26.9964],[85.9008,26.741],[86.1684,26.6709],[86.4317,26.6505]],[[76.4964,9.0665],[76.4951,9.0803],[76.4732,9.11],[76.4867,9.078],[76.4964,9.0665]],[[92.3628,20.7897],[92.3897,20.8134],[92.3831,20.826],[92.3656,20.8031],[92.3628,20.7897]],[[94.0926,19.1816],[94.0929,19.1815],[94.0927,19.1822],[94.0926,19.1816]]],[[[98.0,14.2853],[97.9673,14.3915],[98.0,14.4787],[98.0,14.2853]]]]}}