{"type":"Feature","properties":{"speciesId":694,"category":"LC","source":"IUCN Red List","simplifyTol":0.01,"clippedToSubcontinent":true},"geometry":{"type":"MultiPolygon","coordinates":[[[[79.6401,12.8403],[79.5866,12.6048],[79.484,12.3492],[79.3095,12.066],[79.1898,11.9315],[79.1147,11.8886],[79.0168,11.8597],[78.7957,11.8542],[78.648,11.8998],[78.5087,12.0244],[78.4353,12.0617],[78.3005,12.0921],[78.1967,12.0759],[78.0931,11.9996],[78.0315,11.9147],[78.0088,11.8185],[77.9857,11.5017],[77.9268,11.3579],[77.8599,11.2576],[77.7528,11.1509],[77.6444,11.0956],[77.5361,11.0871],[77.4585,11.1494],[77.4321,11.2025],[77.4418,11.2672],[77.5759,11.4931],[77.6631,11.696],[77.6743,11.8157],[77.6555,11.958],[77.6135,12.1105],[77.5808,12.1672],[77.3528,12.2411],[77.261,12.3139],[77.1407,12.444],[77.099,12.5368],[77.1267,12.6506],[77.1662,12.7061],[77.2334,12.7521],[77.5144,12.8502],[77.6771,12.8626],[78.0712,12.8443],[78.1784,12.8727],[78.1796,12.9287],[78.0695,13.0601],[78.0418,13.1224],[78.0538,13.2064],[78.122,13.3758],[78.3488,13.739],[78.4585,13.8669],[78.6456,14.0058],[78.7962,14.0925],[78.9718,14.165],[79.0414,14.2294],[79.0934,14.3483],[79.1288,14.5411],[79.0999,14.8327],[79.155,14.9227],[79.2176,14.965],[79.3264,14.9515],[79.42,14.9088],[79.7529,14.6028],[79.8386,14.5521],[80.012,14.4997],[80.0678,14.4251],[80.0501,14.3725],[79.9213,14.2668],[79.8117,14.1251],[79.7432,14.0121],[79.7044,13.9079],[79.6775,13.7493],[79.6526,13.3571],[79.6401,12.8403]]],[[[76.6249,14.7615],[76.5671,14.7789],[76.5157,14.8407],[76.3742,15.1372],[76.3399,15.2437],[76.3408,15.3054],[76.3658,15.3506],[76.4403,15.4031],[76.5196,15.43],[76.666,15.4234],[76.8583,15.3631],[76.9463,15.3081],[76.9789,15.2353],[76.9658,15.0562],[76.8925,14.8993],[76.7769,14.8055],[76.6249,14.7615]]],[[[79.2164,16.4076],[79.1714,16.442],[79.1726,16.4943],[79.3566,16.7082],[79.4036,16.7006],[79.4129,16.5931],[79.2164,16.4076]]],[[[78.4501,17.5135],[78.421,17.5456],[78.4529,17.5745],[78.482,17.5428],[78.4501,17.5135]]],[[[83.2638,17.6676],[83.2348,17.6998],[83.2666,17.7286],[83.2957,17.6965],[83.2638,17.6676]]]]}}