{"type":"Feature","properties":{"speciesId":695,"category":"LC","source":"IUCN Red List","simplifyTol":0.01,"clippedToSubcontinent":true},"geometry":{"type":"MultiPolygon","coordinates":[[[[77.9786,13.9477],[77.978,13.8933],[77.9425,13.8802],[77.9446,13.82],[77.9658,13.8202],[77.9852,13.8617],[78.0378,13.8528],[78.0412,13.8867],[78.1135,13.8409],[78.1182,13.7769],[78.0849,13.7335],[78.1094,13.7102],[78.1054,13.6844],[78.0641,13.6882],[78.0583,13.667],[78.0807,13.6353],[78.1558,13.6487],[78.1605,13.6234],[78.1939,13.6162],[78.1833,13.5564],[78.2277,13.5872],[78.2497,13.5743],[78.3908,13.5781],[78.3626,13.4521],[78.3713,13.391],[78.3552,13.3551],[78.3974,13.3323],[78.367,13.32],[78.3913,13.3037],[78.4245,13.3191],[78.436,13.2984],[78.4717,13.3079],[78.4726,13.2911],[78.5208,13.2556],[78.5288,13.2759],[78.5506,13.276],[78.5557,13.2994],[78.5761,13.2671],[78.5589,13.2271],[78.5687,13.2043],[78.5409,13.1873],[78.5691,13.1565],[78.5388,13.1516],[78.5354,13.1307],[78.5088,13.1196],[78.528,13.0974],[78.5019,13.0817],[78.5046,13.0528],[78.4516,13.0315],[78.4579,12.9632],[78.4227,12.9686],[78.4214,12.9235],[78.4561,12.8928],[78.4542,12.8532],[78.4358,12.9007],[78.3783,12.8952],[78.3454,12.9281],[78.3272,12.8892],[78.3135,12.8886],[78.3109,12.8738],[78.3275,12.874],[78.3041,12.8658],[78.3031,12.8472],[78.2411,12.8474],[78.2193,12.747],[78.2289,12.7202],[78.1898,12.6813],[78.2281,12.6739],[78.2327,12.6938],[78.2644,12.6918],[78.2905,12.6529],[78.3683,12.6118],[78.4548,12.612],[78.4577,12.6622],[78.4886,12.6633],[78.4934,12.7035],[78.5098,12.6988],[78.4844,12.7348],[78.5264,12.7012],[78.5244,12.6797],[78.5477,12.6856],[78.5455,12.7439],[78.5819,12.7708],[78.6257,12.9192],[78.6467,12.919],[78.6137,12.9789],[78.6511,13.0179],[78.6938,13.0044],[78.7024,13.0562],[78.746,13.0454],[78.8081,13.0779],[78.8584,13.0711],[78.876,13.0862],[78.8819,13.0198],[78.9246,13.0186],[78.8935,13.0351],[78.9144,13.0678],[78.9796,13.0765],[79.0533,13.038],[79.0691,13.0142],[79.1044,13.0242],[79.1527,13.0073],[79.1731,13.0193],[79.1694,13.053],[79.1889,13.0846],[79.2183,13.1039],[79.2183,13.1356],[79.2367,13.1268],[79.2472,13.1481],[79.2674,13.1412],[79.3079,13.0969],[79.3167,13.1194],[79.3546,13.1298],[79.3478,13.163],[79.3612,13.156],[79.3784,13.1824],[79.4238,13.1875],[79.4216,13.2085],[79.4455,13.2168],[79.4361,13.2298],[79.4108,13.2122],[79.425,13.2813],[79.3746,13.303],[79.4289,13.3236],[79.5358,13.3111],[79.5487,13.2671],[79.5803,13.2454],[79.6011,13.2677],[79.6208,13.259],[79.6685,13.2819],[79.6843,13.2567],[79.6733,13.2295],[79.696,13.2339],[79.6888,13.2074],[79.7228,13.2219],[79.7444,13.1949],[79.7849,13.2235],[79.7213,13.2722],[79.7461,13.28],[79.7541,13.3028],[79.7798,13.2821],[79.8003,13.3043],[79.8512,13.3034],[79.9107,13.3437],[79.9255,13.3359],[79.9536,13.3741],[79.9325,13.4044],[79.9632,13.4179],[79.9619,13.4513],[79.9954,13.4595],[80.0059,13.4878],[80.036,13.4845],[80.0328,13.5018],[79.9902,13.5101],[79.9897,13.5268],[80.0539,13.5312],[80.0326,13.3562],[79.9763,13.1473],[79.764,12.5126],[79.5051,11.8131],[79.328,11.2194],[79.1153,10.6156],[79.0002,10.3582],[78.8812,10.1436],[78.5146,9.6839],[78.4018,9.5101],[78.3491,9.3439],[78.3205,9.0344],[78.2767,8.9996],[78.2658,9.0126],[78.2681,8.9925],[78.2176,8.9572],[78.174,8.8792],[78.1539,8.7474],[78.1786,8.7594],[78.1952,8.7499],[78.2031,8.7785],[78.1959,8.7407],[78.1629,8.7296],[78.1396,8.6818],[78.0899,8.6782],[77.9644,8.6957],[77.8392,8.7673],[77.6938,8.9123],[77.5833,9.0728],[77.5537,9.1711],[77.541,9.2914],[77.5661,9.7674],[77.5535,9.9555],[77.4723,10.1884],[77.3306,10.4435],[77.0614,10.7897],[76.6876,11.1616],[76.7212,11.1845],[76.7256,11.2089],[76.697,11.2313],[76.6458,11.1992],[76.529,11.3016],[76.5382,11.3516],[76.5095,11.3466],[76.5101,11.3612],[76.4484,11.3814],[76.4082,11.4148],[76.4104,11.4336],[76.3906,11.428],[76.3337,11.4587],[76.3209,11.4447],[76.289,11.4563],[76.2514,11.4951],[76.2439,11.5396],[76.2746,11.5908],[76.2979,11.5643],[76.3286,11.5886],[76.3356,11.5783],[76.3707,11.5935],[76.3801,11.6224],[76.4342,11.6335],[76.3964,11.7011],[76.419,11.7215],[76.3962,11.7856],[76.3155,11.841],[76.1084,11.9155],[76.1079,11.9706],[76.0419,11.9433],[75.7986,12.0394],[75.7953,12.0742],[75.7296,12.065],[75.7007,12.0835],[75.7016,12.1003],[75.6601,12.0929],[75.6351,12.1424],[75.5914,12.143],[75.5704,12.1655],[75.6558,12.2021],[76.1968,12.7715],[77.014,13.4019],[77.4182,13.7901],[77.4575,13.7971],[77.4498,13.6758],[77.4829,13.6797],[77.4873,13.7068],[77.5215,13.6879],[77.5197,13.7438],[77.5395,13.7437],[77.5561,13.7165],[77.5956,13.7436],[77.6285,13.7299],[77.6338,13.7413],[77.6105,13.7554],[77.6491,13.7758],[77.6702,13.7775],[77.6637,13.7523],[77.6955,13.7614],[77.7022,13.731],[77.7129,13.7905],[77.7785,13.8129],[77.776,13.8359],[77.8277,13.8606],[77.8064,13.9086],[77.8183,13.9349],[77.887,13.9312],[77.9116,13.8972],[77.9613,13.95],[77.9786,13.9477]]],[[[75.4828,18.0529],[75.4035,18.0271],[75.249,18.0176],[74.701,18.0533],[74.0085,18.0063],[73.7318,18.0147],[73.5105,18.0686],[73.2811,18.1915],[73.2314,18.2427],[73.2205,18.3345],[73.2605,18.45],[73.3337,18.5345],[73.6707,18.6923],[74.9121,19.5396],[75.4267,19.8372],[76.0901,20.1594],[76.661,20.3991],[77.7112,20.7658],[78.259,21.0002],[78.4902,21.0808],[78.6834,21.1214],[78.9193,21.1376],[79.1981,21.1194],[79.2693,21.0991],[79.3128,21.0676],[79.3284,20.9995],[79.2917,20.7559],[79.2526,20.6395],[79.1877,20.5657],[78.9124,20.4143],[78.726,20.2807],[77.2904,19.1578],[76.7058,18.7334],[76.1256,18.3738],[75.4828,18.0529]]]]}}