{"type":"Feature","properties":{"speciesId":696,"category":"LC","source":"IUCN Red List","simplifyTol":0.01,"clippedToSubcontinent":true},"geometry":{"type":"Polygon","coordinates":[[[90.5663,23.1036],[90.598,23.1777],[90.6524,23.2422],[90.6389,23.3166],[90.6776,23.3182],[90.6754,23.3406],[90.6978,23.3456],[90.6796,23.3636],[90.6961,23.3776],[90.6733,23.3642],[90.6616,23.3375],[90.6743,23.3223],[90.5987,23.3393],[90.5796,23.3961],[90.5997,23.4189],[90.5856,23.4669],[90.6303,23.4902],[90.7039,23.4901],[90.7178,23.5428],[90.7443,23.5442],[90.7254,23.5533],[90.7084,23.5386],[90.7073,23.5732],[90.732,23.5911],[90.7392,23.6216],[90.7646,23.629],[90.7414,23.662],[90.7578,23.721],[90.7425,23.6937],[90.7403,23.7241],[90.7315,23.7101],[90.7156,23.7414],[90.6818,23.6867],[90.6429,23.6899],[90.6324,23.6392],[90.5519,23.5712],[90.5147,23.5813],[90.5058,23.6026],[90.4839,23.5866],[90.4539,23.6148],[90.4703,23.6298],[90.4427,23.6684],[90.368,23.7186],[90.3837,23.7021],[90.3658,23.7034],[90.3421,23.74],[90.3176,23.7349],[90.3128,23.7642],[90.2544,23.7313],[90.2571,23.7757],[90.2298,23.8877],[90.2403,23.8278],[90.194,23.8405],[90.1518,23.829],[90.1319,23.8674],[90.1117,23.8736],[90.1112,23.8584],[90.0572,23.82],[90.047,23.8254],[90.0625,23.8769],[90.0468,23.8894],[90.0262,23.8816],[90.0227,23.9072],[89.9481,23.9708],[89.9523,23.9846],[89.9328,23.9846],[89.9487,23.9598],[89.9378,23.9553],[90.0192,23.8935],[90.0144,23.8769],[90.0547,23.8732],[90.0413,23.8291],[90.0466,23.8174],[90.0691,23.8163],[90.0887,23.83],[90.124,23.8074],[90.1837,23.8023],[90.2081,23.8151],[90.2226,23.8003],[90.2416,23.8144],[90.2059,23.7537],[90.221,23.7216],[90.2524,23.721],[90.2746,23.6861],[90.2557,23.7073],[90.2383,23.7112],[90.2208,23.7081],[90.1803,23.7393],[90.1928,23.7213],[90.1492,23.7106],[90.1219,23.737],[90.0698,23.7579],[90.0232,23.7634],[90.0245,23.7951],[90.0016,23.8152],[90.0195,23.7626],[90.1205,23.7333],[90.1497,23.7042],[90.1739,23.7165],[90.2205,23.703],[90.2477,23.7075],[90.276,23.6548],[90.3797,23.6165],[90.4018,23.5882],[90.3789,23.5678],[90.4098,23.5802],[90.4389,23.5446],[90.5054,23.5721],[90.5302,23.5669],[90.5701,23.4832],[90.538,23.4836],[90.5539,23.4263],[90.5248,23.3912],[90.4858,23.4204],[90.4204,23.4161],[90.2542,23.4607],[90.1641,23.5242],[90.1103,23.6128],[89.97,23.6581],[89.9179,23.7215],[89.8638,23.745],[89.7915,23.8077],[89.7758,23.8965],[89.7688,23.8875],[89.7053,23.9587],[89.7275,23.9775],[89.7208,24.0],[89.7153,23.9717],[89.6976,23.9653],[89.7056,23.9984],[89.6702,23.999],[89.6557,23.936],[89.7033,23.8749],[89.751,23.8659],[89.7696,23.8357],[89.7571,23.8473],[89.7242,23.8344],[89.6802,23.8626],[89.7179,23.8318],[89.6297,23.8456],[89.5468,23.8241],[89.4497,23.8706],[89.3865,23.9431],[89.3288,23.9487],[89.2808,23.9874],[89.3161,23.9479],[89.2889,23.9466],[89.2414,23.9812],[89.1733,24.0],[89.092,23.9991],[89.0608,23.9839],[89.0979,23.962],[89.1225,23.9202],[89.1231,23.9536],[89.1671,23.9259],[89.2341,23.9193],[89.3047,23.8696],[89.4078,23.8977],[89.4594,23.8118],[89.5057,23.7767],[89.5362,23.7953],[89.5929,23.7974],[89.6397,23.7767],[89.7004,23.7769],[89.8567,23.6604],[89.9485,23.6357],[90.0246,23.5566],[90.0179,23.5823],[90.0954,23.5669],[90.1529,23.4988],[90.1557,23.431],[90.2067,23.3337],[90.17,23.3466],[90.1639,23.3638],[90.1862,23.359],[90.1599,23.3667],[90.1665,23.3332],[90.1253,23.3054],[90.1205,23.3356],[90.1417,23.3597],[90.1445,23.3786],[90.1279,23.351],[90.0995,23.359],[90.1208,23.3473],[90.1197,23.3096],[90.093,23.3005],[90.0871,23.2728],[90.1245,23.2685],[90.1287,23.2415],[90.2023,23.2255],[90.1987,23.2096],[90.1681,23.204],[90.1774,23.1665],[90.219,23.1829],[90.2485,23.162],[90.2336,23.1421],[90.2452,23.1232],[90.3082,23.1136],[90.3167,23.0671],[90.2678,23.0431],[90.2719,23.0259],[90.3072,23.0209],[90.32,22.9854],[90.2739,22.9687],[90.3537,22.9211],[90.3456,22.8839],[90.3205,22.8726],[90.3213,22.8501],[90.3726,22.7652],[90.3679,22.7376],[90.4195,22.7331],[90.4159,22.7138],[90.3964,22.7289],[90.3831,22.7054],[90.4003,22.7233],[90.4204,22.7085],[90.4297,22.7304],[90.4193,22.7453],[90.3781,22.7401],[90.3825,22.7586],[90.4366,22.7609],[90.4829,22.7089],[90.4769,22.6561],[90.4961,22.6723],[90.5133,22.6528],[90.5042,22.5878],[90.5176,22.5992],[90.5798,22.526],[90.6132,22.3275],[90.5912,22.2572],[90.5587,22.2381],[90.5212,22.1839],[90.5066,22.1851],[90.4373,22.0668],[90.4221,22.1191],[90.4429,22.1501],[90.4267,22.1511],[90.4199,22.127],[90.4192,22.0903],[90.3882,22.0901],[90.3847,22.1054],[90.4048,22.1682],[90.4261,22.1813],[90.3999,22.2179],[90.4165,22.2648],[90.4035,22.2837],[90.4191,22.2895],[90.3788,22.293],[90.4149,22.3387],[90.3641,22.2943],[90.4059,22.2709],[90.395,22.2046],[90.4179,22.1835],[90.3986,22.1722],[90.3831,22.1365],[90.3408,22.1621],[90.3872,22.1955],[90.3873,22.2113],[90.3562,22.1794],[90.3438,22.1957],[90.3498,22.1792],[90.3338,22.1633],[90.3784,22.1309],[90.3751,22.1053],[90.3331,22.1088],[90.2627,22.0397],[90.2751,22.0358],[90.278,21.997],[90.2568,21.9557],[90.211,21.9825],[90.2135,22.0021],[90.1973,21.9782],[90.2287,21.9716],[90.2347,21.9594],[90.2176,21.9508],[90.2685,21.9462],[90.2409,21.8994],[90.2606,21.8846],[90.2549,21.8665],[90.2241,21.8543],[90.2042,21.8874],[90.2401,21.9344],[90.1974,21.8898],[90.2199,21.8528],[90.2631,21.8583],[90.2478,21.8376],[90.2163,21.8373],[90.2556,21.8272],[90.2116,21.8183],[90.1756,21.7891],[90.1319,21.7907],[90.092,21.8146],[90.0824,21.841],[90.1216,21.8477],[90.101,21.8544],[90.1103,21.8839],[90.1543,21.8854],[90.1589,21.8602],[90.1728,21.8696],[90.1519,21.8956],[90.1886,21.9227],[90.144,21.8905],[90.1158,21.8992],[90.1175,21.9164],[90.15,21.9227],[90.1372,21.9484],[90.1685,21.9805],[90.1406,21.9701],[90.128,21.9913],[90.1418,21.9247],[90.1114,21.9219],[90.0988,21.8944],[90.0991,21.9412],[90.0725,22.0003],[90.0992,22.0506],[90.1633,22.1144],[90.2134,22.1142],[90.2283,22.1641],[90.2542,22.1637],[90.2717,22.1772],[90.2864,22.207],[90.2723,22.2089],[90.2588,22.1722],[90.229,22.1724],[90.2401,22.1932],[90.2206,22.219],[90.2077,22.3093],[90.2269,22.3379],[90.2896,22.3504],[90.2973,22.3714],[90.2696,22.3585],[90.2657,22.371],[90.2809,22.4069],[90.3137,22.4635],[90.3421,22.4597],[90.3619,22.4905],[90.3405,22.4664],[90.3148,22.4741],[90.2586,22.3754],[90.2548,22.3443],[90.2223,22.3421],[90.1991,22.3025],[90.2097,22.2142],[90.2298,22.1915],[90.2032,22.1238],[90.1608,22.124],[90.0879,22.0555],[90.0525,21.9708],[90.0298,21.9971],[90.0264,21.9784],[90.0,21.9881],[89.993,22.0361],[90.0307,22.0628],[90.0436,22.1335],[90.0717,22.1533],[90.1401,22.156],[90.0801,22.1586],[90.0257,22.189],[90.081,22.2209],[90.1116,22.2857],[90.1016,22.3424],[90.176,22.4215],[90.2018,22.4859],[90.206,22.5117],[90.1876,22.5224],[90.2028,22.5725],[90.1858,22.6255],[90.2519,22.6211],[90.2832,22.6302],[90.2947,22.6543],[90.2487,22.6279],[90.182,22.6283],[90.1975,22.5675],[90.1819,22.5222],[90.1989,22.509],[90.1936,22.4801],[90.1724,22.4296],[90.095,22.349],[90.1048,22.3039],[90.0669,22.2145],[90.025,22.1965],[90.0234,22.1724],[90.0632,22.1617],[90.0153,22.1188],[90.0183,22.0663],[89.9809,22.0415],[89.9896,21.9909],[89.9644,21.9769],[89.9092,22.0731],[89.9175,22.136],[89.8787,22.2523],[89.9197,22.3718],[89.9847,22.4387],[90.0012,22.4877],[90.025,22.49],[90.033,22.5718],[90.065,22.6087],[90.0571,22.6225],[90.0268,22.599],[90.0327,22.6527],[90.0038,22.6772],[90.028,22.6463],[90.0132,22.5987],[90.0307,22.5814],[90.0179,22.4944],[89.9546,22.5055],[89.9855,22.4867],[89.9782,22.452],[89.9057,22.3863],[89.8834,22.4051],[89.8834,22.4302],[89.8774,22.4139],[89.8987,22.372],[89.8448,22.2486],[89.8905,22.121],[89.8528,22.0678],[89.8188,22.066],[89.8534,22.0483],[89.8854,21.9055],[89.8584,21.8784],[89.8456,21.8859],[89.8408,21.856],[89.7715,21.8311],[89.7885,21.8788],[89.782,21.8627],[89.7531,21.8563],[89.7334,21.8909],[89.7493,21.8346],[89.7143,21.8341],[89.7023,21.8494],[89.6756,21.8376],[89.6594,21.8933],[89.6795,21.9048],[89.6554,21.9134],[89.6339,21.8679],[89.7121,21.7852],[89.7124,21.7662],[89.6605,21.7513],[89.6548,21.765],[89.6064,21.7613],[89.6137,21.8111],[89.5627,21.8637],[89.5897,21.9379],[89.5607,21.9692],[89.5603,21.991],[89.5152,21.9904],[89.5251,21.9563],[89.5123,21.8993],[89.4971,21.9081],[89.4607,21.8522],[89.4337,21.8477],[89.4627,21.8461],[89.4712,21.8204],[89.4581,21.8139],[89.4796,21.8006],[89.4783,21.7724],[89.4257,21.7147],[89.3906,21.7084],[89.3653,21.7473],[89.3557,21.8089],[89.3899,21.9021],[89.3671,21.9046],[89.3181,21.861],[89.3072,21.8207],[89.2867,21.8052],[89.2927,21.7564],[89.2323,21.7677],[89.2193,21.7571],[89.196,21.8048],[89.1643,21.79],[89.1079,21.8104],[89.1121,21.8547],[89.0887,21.9079],[89.0948,21.9381],[89.0836,21.9385],[89.0635,21.9272],[89.0904,21.8541],[89.0866,21.8134],[89.1522,21.7414],[89.1374,21.7198],[89.1154,21.7204],[89.0518,21.7859],[89.0648,21.8682],[89.0397,21.9077],[89.001,21.9031],[88.9972,21.8895],[89.0372,21.8577],[89.0246,21.8013],[89.0356,21.7544],[89.0801,21.7081],[89.1033,21.6449],[89.0968,21.6249],[89.0595,21.6115],[89.028,21.6634],[89.0057,21.6544],[89.0286,21.6546],[89.043,21.6175],[89.0167,21.6008],[88.9943,21.6465],[88.9946,21.6094],[88.951,21.6408],[88.9294,21.63],[88.8989,21.6495],[88.8765,21.7006],[88.8799,21.7674],[88.8496,21.7251],[88.8692,21.6432],[88.8529,21.6161],[88.8139,21.631],[88.8229,21.6604],[88.7594,21.6565],[88.7243,21.6804],[88.6993,21.741],[88.7229,21.8073],[88.6998,21.8403],[88.7311,21.9352],[88.7291,21.9759],[88.7903,22.0183],[88.7667,22.0236],[88.7594,22.0502],[88.7747,22.0519],[88.7486,22.0659],[88.7157,22.0484],[88.7415,22.0282],[88.7341,22.0069],[88.6698,22.0223],[88.6445,22.118],[88.631,22.1197],[88.6227,22.1047],[88.6432,22.0449],[88.6084,21.972],[88.6202,21.9377],[88.5852,21.9852],[88.5792,21.9633],[88.611,21.9322],[88.6096,21.9095],[88.5829,21.8845],[88.5618,21.814],[88.5031,21.8849],[88.5314,21.9303],[88.5095,21.9704],[88.5525,21.9851],[88.5652,22.0227],[88.5449,21.9865],[88.5049,21.973],[88.5103,21.9217],[88.485,21.8966],[88.4664,21.9],[88.4688,21.9487],[88.4597,21.9381],[88.4534,21.9068],[88.4633,21.8964],[88.4841,21.8913],[88.5001,21.8489],[88.4583,21.8201],[88.469,21.7932],[88.4479,21.8015],[88.4292,21.7659],[88.4363,21.7042],[88.4183,21.666],[88.4412,21.6243],[88.4216,21.6097],[88.4177,21.5817],[88.3951,21.6016],[88.4045,21.6197],[88.3891,21.6672],[88.4121,21.7169],[88.3795,21.7302],[88.3991,21.7368],[88.4075,21.7646],[88.3915,21.7795],[88.4082,21.7983],[88.4003,21.8354],[88.4213,21.8892],[88.3996,21.8992],[88.4164,21.9231],[88.4056,21.9516],[88.3909,21.9677],[88.4057,21.9737],[88.4124,21.9947],[88.3873,21.9674],[88.4114,21.9216],[88.396,21.907],[88.3979,21.8948],[88.4077,21.8854],[88.3976,21.8749],[88.3953,21.7943],[88.3717,21.8006],[88.3643,21.8527],[88.3642,21.8014],[88.3296,21.7885],[88.2816,21.7968],[88.2765,21.8073],[88.3154,21.8302],[88.3238,21.8495],[88.311,21.8646],[88.2686,21.865],[88.3175,21.8502],[88.2587,21.7955],[88.2892,21.7581],[88.2832,21.7309],[88.3067,21.6717],[88.2954,21.6098],[88.3254,21.5805],[88.3064,21.5615],[88.2626,21.5575],[88.2265,21.6188],[88.2492,21.6486],[88.2404,21.6789],[88.2116,21.6855],[88.2308,21.6995],[88.2186,21.7919],[88.2381,21.7646],[88.2396,21.7811],[88.2115,21.8029],[88.2035,21.8455],[88.166,21.888],[88.1748,21.9239],[88.1487,21.9596],[88.1863,21.9934],[88.2351,22.0788],[88.2142,22.1574],[88.1788,22.195],[88.0352,22.2186],[88.0321,22.2018],[88.1438,22.187],[88.1902,22.1329],[88.1961,22.1048],[88.1618,22.0645],[88.067,22.0154],[87.9805,21.855],[87.9519,21.8235],[87.8866,21.803],[87.8924,21.7812],[87.8286,21.7222],[87.7551,21.7008],[87.7498,21.6855],[87.6786,21.6537],[87.6496,21.6641],[87.6369,21.6472],[87.3726,21.578],[87.366,21.5609],[87.1955,21.5493],[87.0644,21.4704],[86.8946,21.3135],[86.8168,21.1381],[86.9296,20.9008],[86.9701,20.849],[86.9758,20.7679],[87.0013,20.7583],[87.0139,20.7253],[86.996,20.6991],[87.0246,20.6897],[87.0522,20.7045],[86.7653,20.5036],[86.7358,20.449],[86.7409,20.4177],[86.7226,20.3935],[86.7414,20.3756],[86.7284,20.3611],[86.7785,20.3973],[86.7709,20.365],[86.7858,20.3722],[86.7636,20.3353],[86.8031,20.3666],[86.8079,20.3952],[86.8074,20.3638],[86.7191,20.2992],[86.6875,20.3179],[86.6797,20.3091],[86.6943,20.2819],[86.7629,20.3107],[86.5418,20.1847],[86.4254,20.0257],[86.4299,20.0505],[86.4185,20.038],[86.4012,20.0047],[86.4288,19.9946],[86.4181,19.9775],[86.1519,19.8703],[86.0522,19.8561],[86.0654,19.8472],[85.688,19.7458],[85.3729,19.5944],[85.1214,19.4187],[85.0869,19.3687],[84.9609,19.2915],[84.8096,19.1478],[84.8041,19.1159],[84.6931,18.9582],[84.6006,18.8681],[84.5635,18.7904],[84.4572,18.6851],[84.4484,18.6543],[84.3818,18.5947],[84.3651,18.5534],[84.1666,18.3787],[84.1226,18.2995],[83.9623,18.2157],[83.9545,18.2193],[84.1246,18.3093],[84.1257,18.3515],[84.3562,18.5568],[84.339,18.5507],[84.4407,18.664],[84.4657,18.7129],[84.5535,18.7918],[84.5826,18.8763],[84.6693,18.9515],[84.6832,18.9676],[84.6679,18.9571],[84.6646,18.9657],[84.6876,18.9724],[84.761,19.071],[84.6975,19.1088],[84.7052,19.149],[84.665,19.1567],[84.6612,19.1219],[84.5918,19.1238],[84.6198,19.0765],[84.6487,19.0842],[84.6646,19.0663],[84.6545,19.0523],[84.6127,19.0548],[84.5901,19.0134],[84.5661,19.065],[84.4894,19.021],[84.4717,18.9812],[84.4151,19.0139],[84.4406,18.9669],[84.4156,18.938],[84.4294,18.9137],[84.3978,18.8861],[84.3653,18.8963],[84.3876,18.8777],[84.3514,18.8832],[84.3716,18.8672],[84.3624,18.8511],[84.336,18.8667],[84.3441,18.8119],[84.3125,18.7792],[84.2839,18.7908],[84.2522,18.7725],[84.2167,18.7873],[84.0818,18.7446],[84.0271,18.8022],[83.9398,18.7966],[83.8702,18.8184],[83.8371,18.8647],[83.8377,18.9086],[83.8169,18.9094],[83.8148,18.9532],[83.7883,19.0078],[83.7396,18.9784],[83.7801,18.9077],[83.7458,18.9182],[83.7263,18.9756],[83.7057,18.9852],[83.7233,19.0119],[83.697,19.0165],[83.6233,19.1536],[83.5943,19.1203],[83.6044,19.0882],[83.5844,19.0797],[83.5788,19.0498],[83.5577,19.0514],[83.5464,19.0738],[83.5523,19.0472],[83.5314,19.0054],[83.4954,19.0111],[83.4936,19.0268],[83.5137,19.0248],[83.5054,19.0648],[83.4936,19.0531],[83.4732,19.0778],[83.4594,19.0697],[83.478,19.0212],[83.4746,19.0003],[83.4485,18.9996],[83.4555,18.9456],[83.4088,18.9799],[83.4089,18.9962],[83.3623,18.9947],[83.3463,19.0099],[83.3292,18.9882],[83.3053,18.9897],[83.3325,18.9434],[83.3185,18.9336],[83.329,18.9169],[83.3414,18.9184],[83.3458,18.9571],[83.3802,18.9233],[83.3466,18.9269],[83.4113,18.8593],[83.3963,18.8307],[83.3728,18.8212],[83.3589,18.832],[83.3563,18.8001],[83.2795,18.7896],[83.2661,18.757],[83.2194,18.7658],[83.2051,18.7159],[83.2017,18.7422],[83.133,18.7724],[83.051,18.6542],[83.0097,18.6365],[83.0213,18.6105],[83.008,18.5884],[83.0539,18.5865],[83.0269,18.568],[83.0325,18.5479],[83.0893,18.5379],[83.0154,18.4444],[83.0373,18.4348],[83.0374,18.4189],[83.0598,18.4286],[83.0665,18.3923],[83.0534,18.3753],[83.0172,18.3845],[82.9764,18.3549],[82.9027,18.3559],[82.8849,18.3786],[82.8846,18.4128],[82.8449,18.4098],[82.7992,18.4394],[82.7762,18.4197],[82.7933,18.395],[82.7671,18.3311],[82.6588,18.2866],[82.6453,18.2404],[82.6269,18.2287],[82.5807,18.2701],[82.591,18.292],[82.5764,18.3068],[82.6021,18.3173],[82.5965,18.3409],[82.6113,18.3465],[82.6005,18.3687],[82.5352,18.3896],[82.5538,18.4377],[82.5302,18.4343],[82.5161,18.4559],[82.5231,18.5039],[82.4992,18.5018],[82.474,18.5368],[82.3613,18.4099],[82.3844,18.3691],[82.3344,18.3171],[82.3487,18.3062],[82.3844,18.3187],[82.393,18.3064],[82.3719,18.2741],[82.3369,18.2662],[82.3213,18.2225],[82.3328,18.2158],[82.3061,18.1957],[82.3103,18.1746],[82.3487,18.1618],[82.3643,18.1349],[82.3576,18.1251],[82.3334,18.1424],[82.3436,18.075],[82.3298,18.0404],[82.3218,18.0502],[82.3055,18.0378],[82.2979,18.062],[82.2582,18.0349],[82.2673,17.9864],[82.2417,17.9798],[82.1774,18.0106],[82.1637,18.0416],[82.1324,18.0356],[82.1133,18.0578],[82.0722,18.0656],[82.0509,18.0445],[82.0247,18.0579],[82.0016,18.0448],[82.0017,18.0237],[81.9518,17.9921],[81.801,17.9361],[81.7032,17.8611],[81.6883,17.8848],[81.6631,17.8769],[81.6112,17.8154],[81.5687,17.8279],[81.4858,17.8026],[81.4668,17.8249],[81.4194,17.8206],[81.4093,17.8048],[81.2634,17.8105],[81.1596,17.8526],[81.0736,17.7863],[81.0324,17.7897],[81.0043,17.8383],[80.966,18.0435],[80.944,18.081],[80.9737,18.1681],[80.862,18.1327],[80.8482,18.1977],[80.8675,18.2073],[80.8591,18.226],[80.8296,18.2341],[80.7979,18.1663],[80.7346,18.1717],[80.7333,18.2188],[80.7881,18.254],[80.7446,18.3022],[80.7163,18.3829],[80.7265,18.409],[80.691,18.4193],[80.6989,18.436],[80.6508,18.4723],[80.6327,18.5188],[80.4835,18.6281],[80.3388,18.5882],[80.2963,18.6856],[80.2408,18.7487],[80.3478,18.8159],[80.3357,18.8561],[80.2676,18.9288],[80.2677,18.9873],[80.2934,19.0216],[80.2888,19.0463],[80.3221,19.0749],[80.3249,19.1415],[80.3867,19.189],[80.3833,19.2391],[80.437,19.2611],[80.4756,19.335],[80.5138,19.3482],[80.5678,19.4009],[80.6102,19.3071],[80.6719,19.3264],[80.6886,19.2835],[80.7492,19.2867],[80.845,19.3609],[80.8127,19.3827],[80.7879,19.4267],[80.8675,19.4435],[80.8921,19.4657],[80.8791,19.519],[80.8454,19.5292],[80.8276,19.5627],[80.7664,19.5683],[80.7643,19.5848],[80.721,19.6084],[80.6569,19.6123],[80.6658,19.6922],[80.5397,19.7746],[80.5424,19.8193],[80.4692,19.8247],[80.4595,19.8113],[80.4802,19.7954],[80.4781,19.7724],[80.4524,19.7929],[80.3947,19.7946],[80.3975,19.8162],[80.4317,19.8103],[80.4975,19.8687],[80.4827,19.8989],[80.4077,19.9059],[80.4063,19.9325],[80.4437,19.9527],[80.4805,19.9278],[80.5204,19.9309],[80.5455,19.9872],[80.5325,20.0039],[80.5462,20.0657],[80.5404,20.1098],[80.498,20.1389],[80.4513,20.1449],[80.4396,20.1291],[80.3938,20.144],[80.386,20.1628],[80.414,20.1902],[80.383,20.2417],[80.4654,20.2716],[80.5108,20.2696],[80.542,20.3068],[80.6178,20.3337],[80.586,20.3956],[80.6034,20.4333],[80.5947,20.4464],[80.6223,20.6039],[80.5673,20.6124],[80.5119,20.5851],[80.4816,20.6171],[80.5076,20.6546],[80.5801,20.6836],[80.5455,20.7654],[80.5559,20.8197],[80.5418,20.9339],[80.4556,20.9321],[80.4238,21.0096],[80.4473,21.0366],[80.4333,21.0972],[80.4492,21.1119],[80.4387,21.1214],[80.4573,21.1728],[80.6034,21.2274],[80.6738,21.3091],[80.6565,21.3308],[80.5932,21.3248],[80.5114,21.3919],[80.4483,21.4023],[80.4404,21.3721],[80.4034,21.3765],[80.3891,21.4074],[80.4113,21.4382],[80.3706,21.521],[80.3244,21.5487],[80.3202,21.5736],[80.2919,21.578],[80.2602,21.6201],[80.1882,21.6342],[80.1479,21.6063],[80.1149,21.607],[80.0636,21.5546],[80.0282,21.5573],[79.9936,21.5347],[79.9662,21.5573],[79.9364,21.5568],[79.9158,21.5245],[79.8571,21.5309],[79.7918,21.5814],[79.7326,21.6025],[79.6581,21.5773],[79.6475,21.5572],[79.5366,21.5442],[79.5376,21.569],[79.5058,21.5903],[79.4982,21.6124],[79.5116,21.6311],[79.4886,21.6741],[79.4158,21.6914],[79.3947,21.6746],[79.349,21.6789],[79.2287,21.7239],[79.2199,21.6508],[79.1478,21.6605],[79.0881,21.5992],[79.0096,21.6015],[78.9944,21.6187],[78.9132,21.5924],[78.9116,21.5709],[78.9278,21.5603],[78.9044,21.5548],[78.9406,21.5137],[78.9318,21.4874],[78.8958,21.5006],[78.8799,21.485],[78.7846,21.4891],[78.7722,21.4671],[78.7465,21.4939],[78.7242,21.4644],[78.6841,21.482],[78.5849,21.4869],[78.5665,21.5157],[78.5086,21.5284],[78.4804,21.5061],[78.4301,21.5018],[78.4135,21.5777],[78.4226,21.6019],[78.3795,21.6187],[78.361,21.5783],[78.3368,21.5905],[78.3041,21.5714],[78.2661,21.5943],[78.2554,21.5852],[78.2693,21.5707],[78.1809,21.5587],[78.1693,21.4985],[77.9388,21.3869],[77.8819,21.3777],[77.7994,21.4123],[77.7934,21.3907],[77.7465,21.3842],[77.7339,21.3647],[77.7052,21.3591],[77.6911,21.3971],[77.6672,21.3715],[77.651,21.3934],[77.6015,21.3936],[77.6048,21.367],[77.5844,21.3645],[77.5484,21.3812],[77.487,21.3778],[77.4693,21.4569],[77.4383,21.4729],[77.417,21.5331],[77.4575,21.5566],[77.567,21.5298],[77.6071,21.5428],[77.571,21.5626],[77.5713,21.627],[77.5422,21.701],[77.4755,21.7714],[77.4011,21.7562],[77.2862,21.7628],[77.2831,21.7242],[77.2246,21.7179],[77.2074,21.694],[77.1714,21.7273],[77.1578,21.7134],[77.0723,21.7229],[76.9011,21.6008],[76.8521,21.615],[76.8335,21.5931],[76.7953,21.5975],[76.7802,21.5625],[76.7878,21.5401],[76.7629,21.5226],[76.7918,21.4899],[76.7842,21.4665],[76.7434,21.4431],[76.7321,21.4088],[76.6245,21.3351],[76.6611,21.2824],[76.6585,21.2478],[76.6426,21.2477],[76.6234,21.1927],[76.5594,21.2058],[76.5292,21.1893],[76.4912,21.1978],[76.4527,21.1149],[76.4118,21.1073],[76.3764,21.0773],[76.2818,21.0753],[76.2621,21.0947],[76.1686,21.0858],[76.1685,21.1054],[76.1357,21.1262],[76.1143,21.1705],[76.1668,21.1707],[76.1727,21.1883],[76.164,21.2242],[76.1444,21.2381],[76.1592,21.2591],[76.0987,21.3739],[76.0524,21.3527],[75.9594,21.3962],[75.6734,21.3804],[75.6089,21.395],[75.5481,21.3725],[75.4684,21.3942],[75.3984,21.383],[75.3614,21.4032],[75.3019,21.3892],[75.2996,21.4157],[75.2199,21.4109],[75.123,21.4533],[75.0577,21.5649],[74.9019,21.6302],[74.8649,21.634],[74.8325,21.6109],[74.7931,21.6103],[74.5906,21.6642],[74.5842,21.6847],[74.5573,21.6835],[74.5517,21.7189],[74.5114,21.7259],[74.5179,21.7637],[74.5036,21.8072],[74.5275,21.9035],[74.5156,21.9339],[74.4486,21.9711],[74.4363,21.9995],[74.4539,22.0023],[74.446,22.0265],[74.3964,22.0237],[74.3546,21.9792],[74.302,21.9674],[74.2906,21.9361],[74.2016,21.9255],[74.1382,21.9534],[73.8796,21.8386],[73.8105,21.8233],[73.845,21.7907],[73.8312,21.7629],[73.8964,21.7003],[73.8856,21.6451],[73.7876,21.625],[73.8232,21.6007],[73.8608,21.4958],[73.9105,21.5202],[73.9573,21.5165],[73.9663,21.5391],[73.9857,21.5214],[73.9835,21.542],[74.0256,21.5526],[74.1818,21.5618],[74.2052,21.5292],[74.2392,21.5503],[74.2701,21.5356],[74.31,21.5673],[74.3158,21.5432],[74.3355,21.5402],[74.3277,21.4958],[74.2576,21.4638],[74.231,21.4798],[74.2226,21.459],[74.1289,21.4635],[74.111,21.4481],[74.0781,21.4578],[74.0672,21.4819],[74.0485,21.4194],[73.9687,21.3921],[73.9528,21.4024],[73.9485,21.2976],[73.892,21.2624],[73.8321,21.2675],[73.8188,21.2039],[73.8359,21.1952],[73.8225,21.1719],[73.7963,21.1817],[73.7837,21.1651],[73.7416,21.1671],[73.7367,21.1383],[73.6813,21.1521],[73.6364,21.1327],[73.6375,21.1531],[73.6132,21.1761],[73.5883,21.1679],[73.5888,21.1542],[73.6291,21.1417],[73.6287,21.1201],[73.6577,21.121],[73.6599,21.1084],[73.6934,21.101],[73.7106,21.119],[73.7389,21.1013],[73.7526,21.1141],[73.7422,21.0555],[73.7756,21.0276],[73.7749,21.0105],[73.8077,21.0226],[73.8164,20.9961],[73.8501,21.0014],[73.9064,20.9832],[73.9154,20.9648],[73.895,20.9401],[73.9273,20.8991],[73.9311,20.8484],[73.9451,20.8401],[73.9383,20.7608],[73.9495,20.7423],[73.9209,20.7235],[73.8856,20.7296],[73.8636,20.6943],[73.8226,20.6938],[73.8254,20.6736],[73.8454,20.6671],[73.8383,20.6158],[73.7871,20.6023],[73.7482,20.5674],[73.701,20.5784],[73.6707,20.5623],[73.6368,20.5793],[73.6073,20.6363],[73.5629,20.6474],[73.5384,20.6739],[73.4984,20.6534],[73.4826,20.7172],[73.4537,20.7105],[73.4399,20.6648],[73.4027,20.6426],[73.4404,20.5951],[73.4808,20.5836],[73.4818,20.5434],[73.5007,20.5402],[73.4723,20.514],[73.4759,20.495],[73.4297,20.4144],[73.3913,20.3902],[73.3916,20.3729],[73.4148,20.3816],[73.4234,20.3521],[73.4369,20.2821],[73.4204,20.257],[73.4299,20.2062],[73.4028,20.195],[73.3953,20.2092],[73.3763,20.2053],[73.3743,20.1927],[73.3676,20.2134],[73.3529,20.1985],[73.3111,20.2072],[73.2941,20.1939],[73.2936,20.1539],[73.2595,20.1246],[73.2326,20.1406],[73.1814,20.0516],[73.1633,20.0731],[73.0984,20.0937],[73.0606,20.0991],[73.0592,20.0679],[73.0453,20.0718],[73.0102,20.1104],[73.0175,20.135],[72.9892,20.1132],[72.9732,20.1308],[72.9867,20.1713],[72.9704,20.2123],[72.9109,20.2261],[72.8745,20.2258],[72.872,20.2082],[72.8503,20.2079],[72.8497,20.1893],[72.8336,20.1836],[72.8353,20.1446],[72.8021,20.1485],[72.8018,20.125],[72.7376,20.1365],[72.7382,20.1146],[72.7316,20.0971],[72.7453,20.1957],[72.7795,20.2082],[72.7456,20.203],[72.749,20.2818],[72.778,20.3364],[72.8183,20.3656],[72.8232,20.4368],[72.8869,20.5046],[72.8793,20.5306],[72.8946,20.5296],[72.8748,20.6446],[72.9023,20.5963],[72.8872,20.6368],[72.9015,20.6428],[72.8971,20.7011],[72.9083,20.7105],[72.8907,20.7199],[72.9241,20.7558],[72.9519,20.7549],[72.9425,20.7754],[72.9188,20.769],[72.9188,20.7891],[72.8861,20.7872],[72.8745,20.8015],[72.8953,20.8143],[72.8756,20.8245],[72.8948,20.8664],[72.8268,20.8291],[72.8547,20.8599],[72.8245,20.8829],[72.8351,20.9064],[72.8491,20.9043],[72.8241,20.9201],[72.8822,20.9546],[72.8913,20.9864],[72.8308,20.9733],[72.8387,20.9855],[72.8052,20.9872],[72.827,21.014],[72.7661,21.0041],[72.7425,20.9769],[72.768,20.9284],[72.7473,20.9498],[72.7229,21.0266],[72.7221,21.0568],[72.7417,21.0288],[72.7856,21.0461],[72.8068,21.0247],[72.857,21.0391],[72.8426,21.0543],[72.8554,21.0667],[72.8326,21.0544],[72.8385,21.0697],[72.8227,21.0878],[72.8419,21.1136],[72.8204,21.0976],[72.8304,21.1146],[72.8107,21.1257],[72.8314,21.167],[72.8059,21.1496],[72.8016,21.1242],[72.791,21.1452],[72.7878,21.11],[72.7636,21.1227],[72.7569,21.1046],[72.7443,21.1262],[72.7187,21.102],[72.7302,21.078],[72.7016,21.0949],[72.7059,21.1358],[72.7275,21.1475],[72.6707,21.1568],[72.6369,21.0816],[72.6178,21.1386],[72.6295,21.128],[72.6467,21.1489],[72.6293,21.1337],[72.6145,21.1954],[72.6555,21.2225],[72.6817,21.2183],[72.6431,21.2497],[72.6304,21.2405],[72.6501,21.2798],[72.621,21.2927],[72.621,21.3125],[72.6554,21.319],[72.6684,21.342],[72.7365,21.3238],[72.6971,21.3541],[72.698,21.3731],[72.6746,21.3486],[72.6646,21.3689],[72.6528,21.3494],[72.6459,21.3627],[72.6972,21.459],[72.6379,21.4484],[72.6719,21.4929],[72.7409,21.5657],[72.8165,21.6136],[72.8406,21.6659],[72.9193,21.6478],[73.0375,21.7005],[73.0901,21.705],[73.1077,21.7297],[73.064,21.7327],[72.9438,21.6752],[72.8728,21.6882],[72.7776,21.6604],[72.7389,21.686],[72.6033,21.6764],[72.543,21.6563],[72.5317,21.7209],[72.5458,21.6942],[72.5746,21.7039],[72.5659,21.7327],[72.5994,21.7152],[72.5857,21.7265],[72.6033,21.7563],[72.5992,21.7954],[72.6458,21.8329],[72.6542,21.8906],[72.6753,21.888],[72.6775,21.9115],[72.6878,21.886],[72.7223,21.884],[72.7187,21.9318],[72.7511,21.953],[72.7781,21.9507],[72.7461,21.9881],[72.7722,22.0022],[72.7754,22.0168],[72.7355,21.9915],[72.7195,22.0208],[72.7074,21.9796],[72.6933,21.9852],[72.6999,21.9716],[72.6465,21.9619],[72.6488,21.9881],[72.6369,22.0026],[72.6401,21.9548],[72.6277,21.9694],[72.6332,21.9546],[72.5304,21.9023],[72.5042,21.943],[72.5471,22.1571],[72.6099,22.215],[72.6631,22.211],[72.7419,22.1758],[72.7657,22.1941],[72.7121,22.2443],[72.6273,22.2549],[72.6127,22.2671],[72.6487,22.2635],[72.6288,22.2758],[72.5685,22.2648],[72.6252,22.2814],[72.5931,22.2816],[72.479,22.2204],[72.4931,22.264],[72.4597,22.2136],[72.4151,22.2148],[72.4247,22.2006],[72.4084,22.1524],[72.381,22.1538],[72.3885,22.1924],[72.3716,22.182],[72.3689,22.1449],[72.367,22.1858],[72.3907,22.2002],[72.3707,22.193],[72.3821,22.2262],[72.3704,22.2842],[72.4013,22.3249],[72.3925,22.3315],[72.3581,22.313],[72.342,22.2572],[72.3322,22.2999],[72.3449,22.2248],[72.3116,22.1865],[72.2953,22.2249],[72.3209,22.1379],[72.242,22.0035],[72.2551,21.8192],[72.2379,21.7956],[72.2185,21.8162],[72.2081,21.8058],[72.3028,21.6256],[72.2135,21.4247],[72.112,21.3046],[72.0758,21.3224],[72.1088,21.2927],[72.097,21.2798],[72.0886,21.289],[72.0985,21.266],[72.0777,21.2534],[72.1071,21.2038],[72.003,21.1399],[71.8968,21.1146],[71.8756,21.0914],[71.8063,21.0683],[71.7917,21.0504],[71.8047,21.0393],[71.6397,20.994],[71.6229,20.9689],[71.5168,20.9482],[71.4596,20.8795],[71.3942,20.8618],[71.3824,20.8714],[71.382,20.8537],[71.2142,20.8041],[71.1424,20.7545],[71.0869,20.7508],[71.0512,20.7313],[71.0014,20.7354],[70.9853,20.7226],[70.9914,20.7047],[70.8524,20.7055],[70.8269,20.6883],[70.6904,20.7436],[70.6749,20.7589],[70.6817,20.7773],[70.6564,20.7576],[70.6483,20.7718],[70.6113,20.7678],[70.4429,20.8502],[70.4116,20.8754],[70.4257,20.8804],[70.3381,20.9142],[70.0863,21.1186],[69.737,21.4992],[69.5945,21.6333],[69.5993,21.6524],[69.5782,21.6363],[69.4081,21.785],[69.3688,21.8275],[69.387,21.8533],[69.3546,21.8335],[69.2286,21.9439],[69.2007,21.9788],[69.204,21.9977],[69.1897,21.9855],[68.9574,22.2382],[68.9348,22.3057],[68.9871,22.4139],[69.0672,22.4733],[69.0826,22.4704],[69.0443,22.4325],[69.0531,22.3989],[69.0907,22.3899],[69.1102,22.4074],[69.1346,22.3986],[69.1912,22.4174],[69.2014,22.3985],[69.1735,22.3637],[69.1622,22.304],[69.1994,22.2686],[69.2346,22.2602],[69.3081,22.2868],[69.3313,22.326],[69.4151,22.3178],[69.4425,22.3331],[69.4534,22.3156],[69.4962,22.3665],[69.5196,22.3724],[69.5059,22.4204],[69.5168,22.4262],[69.5546,22.39],[69.5543,22.377],[69.5382,22.3779],[69.5909,22.3584],[69.5761,22.3399],[69.5856,22.3333],[69.6023,22.3542],[69.6181,22.3463],[69.6216,22.365],[69.643,22.3555],[69.6634,22.3925],[69.6937,22.3961],[69.7228,22.4761],[69.7325,22.439],[69.7509,22.4301],[69.751,22.4416],[69.7944,22.3997],[69.8214,22.4565],[69.8654,22.4504],[69.9041,22.4706],[69.9283,22.5092],[69.9579,22.4967],[69.9446,22.5225],[69.9672,22.5367],[70.1779,22.5604],[70.2426,22.6833],[70.2655,22.6891],[70.2377,22.6953],[70.2559,22.7099],[70.2514,22.7324],[70.2887,22.738],[70.3559,22.8761],[70.4429,22.9596],[70.4865,23.0526],[70.4856,23.0887],[70.4091,23.0363],[70.4029,23.0605],[70.3715,23.0587],[70.3624,23.0402],[70.3943,23.0061],[70.2917,22.9434],[70.2364,22.9726],[70.2032,22.9444],[70.1582,22.9416],[70.1211,22.9586],[70.1318,22.9827],[70.1208,22.9851],[70.104,22.9584],[70.1328,22.9342],[70.0933,22.9021],[70.0647,22.913],[69.8084,22.8462],[69.7905,22.8205],[69.7341,22.7987],[69.7163,22.7535],[69.6951,22.7645],[69.7062,22.7366],[69.6524,22.7579],[69.6279,22.8021],[69.6366,22.7697],[69.6022,22.7735],[69.6118,22.7581],[69.596,22.7569],[69.5709,22.7617],[69.5553,22.7984],[69.5052,22.7837],[69.4542,22.8002],[69.493,22.775],[69.4671,22.7707],[69.3616,22.8195],[69.3614,22.8319],[69.2808,22.8226],[69.1975,22.8334],[68.933,22.9839],[68.8553,23.0358],[68.8515,23.0543],[68.839,23.0442],[68.8097,23.0733],[68.7461,23.0885],[68.7673,23.1297],[68.7339,23.1034],[68.6376,23.1626],[68.636,23.1777],[68.6922,23.1393],[68.7255,23.1477],[68.6553,23.1675],[68.6515,23.1936],[68.6239,23.1862],[68.5846,23.221],[68.584,23.2396],[68.6458,23.2582],[68.622,23.2903],[68.6509,23.2984],[68.6146,23.2984],[68.611,23.2713],[68.5884,23.2516],[68.5406,23.2667],[68.5446,23.2881],[68.559,23.2898],[68.5525,23.3121],[68.5859,23.3059],[68.5844,23.3196],[68.6165,23.3244],[68.6182,23.3506],[68.6142,23.3278],[68.561,23.3445],[68.5141,23.3201],[68.4999,23.3492],[68.4781,23.349],[68.5051,23.3965],[68.4955,23.4023],[68.5195,23.4172],[68.4855,23.4156],[68.4738,23.3863],[68.436,23.4214],[68.4403,23.3894],[68.3937,23.4216],[68.3886,23.4545],[68.4475,23.4758],[68.4187,23.5359],[68.4552,23.5719],[68.4399,23.5677],[68.4662,23.5997],[68.4708,23.6367],[68.5457,23.7129],[68.6186,23.7489],[68.6581,23.7992],[68.6794,23.7915],[68.7146,23.824],[68.766,23.8422],[68.7823,23.8606],[68.7697,23.8759],[68.7628,23.851],[68.726,23.8369],[68.6554,23.8397],[68.5235,23.7464],[68.5192,23.7731],[68.4902,23.7327],[68.4329,23.7337],[68.3763,23.619],[68.3827,23.6079],[68.2986,23.5662],[68.2657,23.5683],[68.2784,23.6004],[68.2649,23.6325],[68.2261,23.6465],[68.2611,23.6546],[68.3259,23.7259],[68.291,23.7243],[68.2403,23.6712],[68.1867,23.723],[68.2112,23.7698],[68.2074,23.8372],[68.2221,23.8313],[68.2408,23.8493],[68.2556,23.835],[68.2675,23.8377],[68.2573,23.876],[68.2747,23.9179],[68.3199,23.9187],[68.2862,23.9383],[68.2377,23.9001],[68.1856,23.8863],[68.1897,23.851],[68.1361,23.8695],[68.1427,23.8406],[68.1035,23.8555],[68.1044,23.8432],[68.076,23.8332],[68.053,23.8537],[68.0553,23.903],[68.042,23.9118],[68.0282,23.8796],[68.0446,23.7949],[68.0344,23.7882],[67.9962,23.7867],[67.9202,23.8517],[67.9298,23.829],[67.872,23.8586],[67.8653,23.9015],[67.9027,23.9647],[67.8939,23.975],[67.8456,23.9091],[67.836,23.8245],[67.8209,23.8114],[67.709,23.8562],[67.7502,23.8014],[67.652,23.7945],[67.6269,23.8088],[67.6261,23.8423],[67.5841,23.8388],[67.5762,23.8889],[67.5651,23.8682],[67.5355,23.893],[67.5343,23.8753],[67.4696,23.9032],[67.4626,23.9205],[67.491,23.9139],[67.4855,23.9373],[67.4661,23.9453],[67.5044,23.966],[67.4864,23.974],[67.4224,23.9449],[67.4361,23.9916],[67.4083,24.0],[67.4218,24.0024],[67.41,24.0421],[67.438,24.0636],[67.4183,24.0872],[67.4489,24.1168],[67.4088,24.084],[67.3921,24.0477],[67.3626,24.1323],[67.4118,24.1233],[67.4248,24.1292],[67.3695,24.1374],[67.3344,24.1725],[67.3545,24.1828],[67.3351,24.2077],[67.342,24.2351],[67.4016,24.2334],[67.4208,24.2098],[67.4312,24.2214],[67.4317,24.2472],[67.4205,24.2173],[67.4143,24.234],[67.3501,24.2542],[67.3613,24.2756],[67.3814,24.2732],[67.3946,24.287],[67.3585,24.2837],[67.3259,24.2448],[67.2954,24.301],[67.3299,24.3339],[67.3596,24.2907],[67.3386,24.3323],[67.3466,24.3428],[67.4109,24.3113],[67.4421,24.316],[67.449,24.3321],[67.4906,24.3218],[67.5146,24.3424],[67.5291,24.3345],[67.5124,24.3525],[67.4873,24.3263],[67.4573,24.3417],[67.4343,24.3227],[67.3665,24.3509],[67.369,24.3857],[67.4059,24.3932],[67.3605,24.3877],[67.3491,24.4005],[67.4169,24.4367],[67.4646,24.4234],[67.4727,24.4268],[67.3932,24.4497],[67.3707,24.4367],[67.3834,24.4544],[67.3608,24.4601],[67.3951,24.4834],[67.4218,24.4644],[67.454,24.4621],[67.4366,24.4788],[67.4213,24.4707],[67.4039,24.5064],[67.412,24.5215],[67.3915,24.5151],[67.4022,24.493],[67.3743,24.472],[67.3094,24.4589],[67.3294,24.4856],[67.3523,24.4797],[67.3702,24.5304],[67.3975,24.5246],[67.3987,24.5467],[67.3684,24.5359],[67.3571,24.5504],[67.4136,24.5856],[67.4396,24.5746],[67.4071,24.5894],[67.3234,24.5491],[67.3048,24.5523],[67.3149,24.5579],[67.2998,24.5822],[67.3203,24.5757],[67.3231,24.5906],[67.371,24.608],[67.3838,24.6377],[67.4069,24.6357],[67.4143,24.6493],[67.4405,24.6404],[67.4532,24.6537],[67.4428,24.6478],[67.4203,24.6727],[67.4325,24.6982],[67.3932,24.7046],[67.3515,24.7423],[67.3493,24.7629],[67.4528,24.776],[67.467,24.7542],[67.4634,24.7761],[67.3755,24.7834],[67.3296,24.7712],[67.2456,24.7849],[67.2199,24.8141],[67.1748,24.7814],[67.1547,24.7937],[67.1224,24.7788],[67.1049,24.7976],[67.1023,24.7781],[67.0908,24.7921],[67.0931,24.7569],[67.0217,24.8083],[66.9758,24.8108],[66.9654,24.8414],[66.9825,24.8578],[66.9538,24.861],[66.9122,24.8447],[66.9578,24.8258],[66.9792,24.7917],[66.862,24.8568],[66.8191,24.8344],[66.7562,24.8437],[66.6833,24.8214],[66.6514,24.8293],[66.6843,24.8757],[66.7217,24.893],[66.6869,24.8927],[66.6754,24.9236],[66.7004,24.9496],[66.7041,25.0826],[66.7386,25.1422],[66.742,25.1832],[66.6783,25.2711],[66.5501,25.3652],[66.5553,25.3922],[66.5794,25.3728],[66.5783,25.4114],[66.5942,25.425],[66.56,25.4529],[66.5576,25.5381],[66.5289,25.5422],[66.5159,25.5634],[66.5428,25.6148],[66.5393,25.6442],[66.5028,25.5773],[66.4799,25.5877],[66.4672,25.5699],[66.4552,25.6194],[66.4454,25.5972],[66.3991,25.5835],[66.3676,25.6159],[66.3105,25.61],[66.2969,25.6239],[66.2276,25.5899],[66.1901,25.5992],[66.1337,25.5442],[66.1328,25.5078],[66.0919,25.4796],[66.1956,25.4889],[66.2848,25.5421],[66.3141,25.5377],[66.3349,25.5531],[66.358,25.5248],[66.3972,25.5215],[66.3943,25.5066],[66.4265,25.4826],[66.4752,25.4995],[66.5174,25.492],[66.4928,25.4478],[66.5284,25.4158],[66.5133,25.4045],[66.36,25.4601],[66.2765,25.4678],[66.0391,25.4266],[66.0238,25.4437],[66.0092,25.4368],[66.0144,25.4209],[65.9549,25.4131],[65.8387,25.4194],[65.773,25.3834],[65.6357,25.3494],[65.5174,25.3712],[65.5435,25.4198],[65.5057,25.3761],[65.3711,25.3902],[65.3381,25.3805],[65.3189,25.3967],[65.2551,25.3822],[65.2263,25.3172],[65.1564,25.306],[64.9953,25.3252],[64.8271,25.3189],[64.7806,25.3477],[64.7927,25.3239],[64.7262,25.3167],[64.6525,25.2732],[64.6402,25.2055],[64.7005,25.1866],[64.6623,25.16],[64.5838,25.1604],[64.611,25.2166],[64.5436,25.2704],[64.406,25.2382],[64.3405,25.2767],[64.2392,25.308],[64.2462,25.3324],[64.2233,25.318],[64.0838,25.3294],[64.0927,25.3664],[64.1175,25.3648],[64.081,25.3965],[64.1419,25.4112],[64.1381,25.4322],[64.1651,25.4533],[64.1243,25.439],[64.1174,25.4544],[64.0642,25.4452],[64.0473,25.4314],[64.0287,25.465],[64.0287,25.444],[63.9934,25.4298],[64.02,25.424],[64.0058,25.4065],[63.9744,25.4234],[63.9674,25.4073],[63.9913,25.4099],[64.0042,25.3843],[64.0208,25.4094],[64.0361,25.4061],[64.072,25.3631],[64.0643,25.3283],[63.9296,25.3371],[63.758,25.3787],[63.6059,25.3706],[63.5356,25.3457],[63.4811,25.2844],[63.4561,25.2951],[63.5039,25.2262],[63.4927,25.1981],[63.1395,25.2577],[63.0071,25.2106],[62.6949,25.2595],[62.4945,25.2528],[62.4637,25.2364],[62.4707,25.2126],[62.4118,25.2054],[62.3562,25.1699],[62.3394,25.1132],[62.3897,25.1037],[62.3769,25.0961],[62.2734,25.098],[62.3202,25.1205],[62.3149,25.1687],[62.2651,25.2048],[62.2034,25.215],[62.0735,25.1784],[62.0666,25.1547],[62.1054,25.1042],[62.0984,25.0961],[61.9847,25.1096],[61.8747,25.1027],[61.8594,25.0961],[61.8449,25.0434],[61.7644,25.0327],[61.7242,25.054],[61.7575,25.0983],[61.7476,25.132],[61.769,25.124],[61.7831,25.1418],[61.7791,25.1926],[61.7523,25.1687],[61.6899,25.2053],[61.6592,25.1869],[61.6337,25.2028],[61.5687,25.1846],[61.603,25.2043],[61.5627,25.2175],[61.5702,25.2398],[61.5354,25.2375],[61.5557,25.2192],[61.5284,25.2069],[61.5556,25.1929],[61.4999,25.1944],[61.5279,25.1896],[61.4889,25.1778],[61.4893,25.192],[61.4541,25.1854],[61.4906,25.1719],[61.4918,25.1583],[61.4742,25.1072],[61.4048,25.0874],[61.4146,25.064],[61.1805,25.1258],[61.1673,25.1667],[61.0614,25.2019],[60.7418,25.273],[60.6056,25.2883],[60.6205,25.3072],[60.591,25.352],[60.6039,25.3785],[60.5932,25.4162],[60.5315,25.4464],[60.4296,25.4201],[60.4004,25.38],[60.3961,25.3504],[60.4466,25.3324],[60.4393,25.3188],[60.4586,25.2924],[60.4146,25.3183],[60.3057,25.3399],[60.2946,25.3894],[60.3257,25.3705],[60.3042,25.4029],[60.2014,25.3782],[60.1852,25.3524],[60.2072,25.3343],[60.1971,25.3286],[60.1103,25.3519],[60.108,25.3733],[60.0875,25.3822],[60.0,25.3822],[60.0,26.2239],[60.3924,26.3412],[60.4756,26.8299],[60.6628,26.8923],[60.6316,27.4331],[60.694,28.9825],[60.5905,29.5473],[60.1772,29.8267],[60.077,30.428],[60.0,31.7192],[60.0,35.4176],[61.8354,35.1859],[63.0165,35.1465],[64.2369,34.8512],[64.4338,34.6937],[65.477,33.119],[66.2054,32.3316],[66.8943,32.1544],[67.5833,32.2528],[68.2329,32.7843],[68.7715,33.3267],[69.9848,34.1623],[70.8313,34.9496],[71.5793,35.1465],[72.2485,35.4811],[72.7279,35.6287],[73.2958,35.6075],[74.1275,35.1247],[74.4985,34.1633],[75.7887,33.1535],[77.3477,31.8675],[78.4219,30.7074],[79.5391,29.8481],[80.0547,29.3754],[81.6874,28.645],[82.8475,28.1724],[84.0936,27.7857],[87.1013,27.1412],[88.0466,27.1841],[88.807,27.1841],[88.7597,27.1143],[88.8785,27.0683],[88.8891,27.0252],[88.8794,26.9472],[88.9165,26.9899],[88.9468,26.9685],[88.9477,26.9351],[88.9786,26.9207],[89.0216,26.9379],[89.0886,26.8945],[89.1116,26.8272],[89.1371,26.8104],[89.2651,26.8216],[89.371,26.8606],[89.3962,26.8382],[89.4454,26.8385],[89.4658,26.8127],[89.561,26.8095],[89.6411,26.7788],[89.6169,26.7291],[89.6475,26.7206],[89.6663,26.74],[89.6968,26.7384],[89.7808,26.7096],[89.8592,26.7076],[89.8559,26.7468],[89.9171,26.7286],[90.1091,26.7503],[90.1891,26.7763],[90.1849,26.8147],[90.2224,26.8567],[90.3001,26.8542],[90.3483,26.896],[90.4111,26.9038],[90.5373,26.821],[90.6969,26.7717],[91.0452,26.7869],[91.088,26.8159],[91.2627,26.8072],[91.3345,26.7774],[91.3811,26.8027],[91.4179,26.8608],[91.4452,26.8739],[91.5112,26.8684],[91.5409,26.8091],[91.5739,26.7994],[91.6352,26.8132],[91.7153,26.7956],[91.8514,26.8636],[91.8833,26.8579],[91.892,26.8126],[91.9129,26.8043],[91.904,26.8503],[91.934,26.8606],[91.9332,26.8989],[91.9837,26.8593],[92.0357,26.8491],[92.0905,26.8665],[92.1196,26.9215],[92.0873,27.0249],[92.0256,27.0894],[92.029,27.1579],[92.0568,27.2043],[93.5893,27.2701],[94.1049,27.1841],[94.1909,26.9693],[94.1909,26.6685],[94.062,26.4107],[93.7612,26.2388],[93.2456,26.024],[92.8159,26.024],[92.2144,25.9381],[91.2691,25.8521],[90.5387,25.8092],[90.152,25.6803],[90.152,25.3795],[90.2379,25.2506],[90.7105,25.1647],[91.1832,25.2076],[91.4065,25.163],[91.6128,25.1217],[91.7417,24.9498],[91.7847,24.692],[91.6988,24.4342],[91.5269,24.2194],[91.355,24.0905],[91.2691,23.9616],[91.2261,23.8756],[91.2261,23.5749],[91.398,23.403],[91.6128,23.3171],[91.9136,23.3171],[92.0425,23.36],[92.1714,23.0593],[92.1714,22.6296],[92.2144,22.2429],[92.1284,21.8132],[92.0135,21.497],[91.9963,21.5655],[92.0389,21.6475],[92.0405,21.6722],[92.0251,21.6822],[92.0352,21.7005],[92.0181,21.7165],[92.0192,21.6685],[91.9818,21.6559],[91.9796,21.7041],[91.9667,21.6781],[91.9481,21.7452],[91.9764,21.7417],[91.9924,21.7678],[91.9716,21.7471],[91.9545,21.7539],[91.9706,21.7862],[91.9418,21.803],[91.9308,21.7855],[91.8912,21.7773],[91.9199,21.8473],[91.9095,21.9079],[91.9274,21.9345],[91.8949,21.9689],[91.8548,22.1276],[91.8416,22.114],[91.8342,22.1228],[91.8141,22.1797],[91.842,22.2605],[91.8138,22.3016],[91.8666,22.3221],[91.9129,22.4085],[92.0019,22.4045],[92.0221,22.4167],[92.0349,22.4459],[92.0825,22.4374],[92.1417,22.4615],[92.1439,22.4703],[92.0873,22.4443],[92.0331,22.4505],[92.0029,22.4124],[91.9541,22.421],[91.8964,22.4093],[91.8723,22.3498],[91.7955,22.2927],[91.7952,22.2778],[91.829,22.2565],[91.798,22.2195],[91.7818,22.2343],[91.7519,22.3865],[91.7001,22.484],[91.5811,22.6536],[91.4576,22.7511],[91.4859,22.7667],[91.4692,22.7787],[91.4778,22.7633],[91.4547,22.7602],[91.4369,22.7772],[91.4746,22.824],[91.4366,22.8038],[91.4836,22.874],[91.4566,22.8989],[91.4922,22.9007],[91.4452,22.9007],[91.441,22.8835],[91.464,22.8832],[91.4647,22.869],[91.4204,22.8087],[91.4086,22.7609],[91.3301,22.8335],[91.3506,22.8514],[91.3427,22.8832],[91.3158,22.8393],[91.3525,22.7861],[91.3451,22.7758],[91.2963,22.8101],[91.1869,22.7976],[91.1164,22.8118],[91.1127,22.8262],[91.0958,22.8197],[91.099,22.8052],[91.0404,22.7969],[90.9375,22.8561],[90.8239,22.8655],[90.8016,22.9087],[90.7574,22.9383],[90.7958,22.898],[90.7954,22.8633],[90.7333,22.8875],[90.6896,22.9783],[90.6294,22.9981],[90.5663,23.1036]],[[67.4059,24.3932],[67.4181,24.3645],[67.4283,24.3609],[67.4158,24.4014],[67.4059,24.3932]]]}}