{"type":"Feature","properties":{"speciesId":70,"category":"LC","source":"IUCN Red List","simplifyTol":0.01,"clippedToSubcontinent":true},"geometry":{"type":"Polygon","coordinates":[[[76.556,12.0189],[76.823,11.4847],[76.8579,11.3686],[76.8927,10.9853],[76.9682,10.6253],[77.3979,9.5511],[77.4095,8.8021],[77.514,8.5757],[77.5256,8.4653],[77.5082,8.4073],[77.4559,8.3492],[77.2818,8.355],[77.2063,8.3724],[77.0901,8.4653],[76.8521,8.9182],[76.1926,10.4148],[75.7333,11.354],[75.5799,11.5812],[75.5294,11.6966],[75.5386,11.7048],[75.4917,11.7339],[75.4716,11.769],[75.451,11.7697],[75.3715,11.8565],[75.3394,11.9927],[75.2845,12.4378],[75.1284,12.9468],[75.1009,13.3046],[75.1101,13.5156],[75.211,13.6348],[75.5045,13.6532],[75.6513,13.5248],[75.9265,12.9927],[76.0808,12.7318],[76.1843,12.5995],[76.2656,12.4486],[76.556,12.0189]]]}}