{"type":"Feature","properties":{"speciesId":707,"category":"LC","source":"IUCN Red List","simplifyTol":0.01,"clippedToSubcontinent":true},"geometry":{"type":"Polygon","coordinates":[[[74.2552,16.7228],[74.2646,16.6567],[74.2252,16.564],[73.908,16.2423],[73.6239,16.0471],[73.5146,16.0229],[73.4563,16.0581],[73.4839,16.0698],[73.4595,16.0759],[73.4705,16.113],[73.4608,16.0941],[73.4377,16.1936],[73.4522,16.2253],[73.428,16.2044],[73.4118,16.2564],[73.4119,16.2734],[73.4392,16.2897],[73.4061,16.2808],[73.3862,16.363],[73.3699,16.3641],[73.3717,16.3896],[73.3948,16.3901],[73.4084,16.4088],[73.3688,16.3999],[73.3586,16.4351],[73.3812,16.4487],[73.3485,16.4519],[73.3189,16.5142],[73.317,16.5528],[73.3372,16.5601],[73.3585,16.5193],[73.3494,16.5081],[73.3708,16.5129],[73.352,16.5379],[73.356,16.5666],[73.3167,16.5992],[73.3479,16.5967],[73.3593,16.6253],[73.3362,16.6211],[73.3218,16.6378],[73.3276,16.6797],[73.3429,16.6911],[73.3158,16.6968],[73.3005,16.7511],[73.3179,16.8014],[73.2954,16.8117],[73.2847,16.8776],[73.3048,16.8844],[73.2767,16.8941],[73.2826,16.9486],[73.3057,16.9717],[73.2787,16.9869],[73.2887,17.0351],[73.3264,17.0286],[73.2905,17.0415],[73.3065,17.0908],[73.4348,17.4049],[73.519,17.553],[73.5688,17.5743],[73.6128,17.5694],[73.7145,17.5157],[73.7853,17.4525],[73.8576,17.3505],[74.001,17.0889],[74.1944,16.8445],[74.2552,16.7228]]]}}