{"type":"Feature","properties":{"speciesId":709,"category":"NT","source":"IUCN Red List","simplifyTol":0.01,"clippedToSubcontinent":true},"geometry":{"type":"MultiPolygon","coordinates":[[[[77.5195,9.5841],[77.5122,9.5336],[77.4196,9.5156],[77.3521,9.4076],[77.3361,9.336],[77.3116,9.3008],[77.3271,9.2567],[77.2834,9.2386],[77.2648,9.2663],[77.2664,9.3055],[77.326,9.4965],[77.211,9.5413],[77.1689,9.5788],[77.1672,9.6006],[77.2307,9.6323],[77.2492,9.5796],[77.3078,9.6308],[77.3874,9.6546],[77.3833,9.5857],[77.3975,9.5517],[77.4397,9.5805],[77.5069,9.6744],[77.5597,9.6888],[77.5708,9.6448],[77.5195,9.5841]]],[[[77.2646,10.2492],[77.3025,10.2757],[77.3011,10.3226],[77.4099,10.3025],[77.5319,10.333],[77.5618,10.3219],[77.5816,10.2912],[77.5651,10.2461],[77.4941,10.1582],[77.3478,10.1048],[77.2456,10.0895],[77.2814,10.0137],[77.2512,9.9291],[77.249,9.8537],[77.1714,9.8105],[77.1314,9.7653],[77.1243,9.8523],[77.0586,9.9199],[77.0874,9.9655],[77.0847,9.9991],[77.0229,10.0323],[77.0208,10.0688],[77.0447,10.1178],[77.0989,10.1599],[77.1321,10.2162],[77.1869,10.2502],[77.1756,10.3011],[77.1344,10.3387],[77.226,10.3035],[77.2646,10.2492]]]]}}