{"type":"Feature","properties":{"speciesId":710,"category":"VU","source":"IUCN Red List","simplifyTol":0.01,"clippedToSubcontinent":true},"geometry":{"type":"Polygon","coordinates":[[[77.2102,10.433],[77.2065,10.4064],[77.157,10.3507],[77.2002,10.3294],[77.1558,10.2824],[77.1355,10.2051],[77.1477,10.2287],[77.1732,10.222],[77.197,10.2384],[77.2098,10.2897],[77.263,10.2659],[77.2475,10.2388],[77.3157,10.258],[77.3166,10.2878],[77.2941,10.3194],[77.3378,10.3408],[77.3635,10.3067],[77.3662,10.1414],[77.3572,10.1223],[77.2767,10.0815],[77.2418,10.1005],[77.2493,10.0657],[77.2806,10.0468],[77.2651,10.0318],[77.2752,9.9602],[77.2177,9.8971],[77.2505,9.84],[77.2363,9.8199],[77.1718,9.827],[77.1943,9.7914],[77.22,9.7997],[77.2329,9.782],[77.2042,9.675],[77.2112,9.6403],[77.2703,9.5635],[77.2848,9.6134],[77.3321,9.6482],[77.3464,9.6829],[77.3811,9.6968],[77.3862,9.7309],[77.4065,9.7474],[77.4033,9.7257],[77.4207,9.7228],[77.4117,9.683],[77.3866,9.6625],[77.4006,9.6244],[77.3801,9.5696],[77.3892,9.5483],[77.4444,9.5602],[77.4439,9.5883],[77.4848,9.6219],[77.4965,9.6208],[77.5017,9.5845],[77.5669,9.5944],[77.5173,9.5494],[77.4295,9.537],[77.4034,9.4553],[77.3559,9.4376],[77.3439,9.3505],[77.2972,9.2979],[77.3281,9.2547],[77.2883,9.2536],[77.2834,9.1984],[77.295,9.1827],[77.2716,9.1742],[77.2638,9.1039],[77.2103,9.0935],[77.1915,9.1129],[77.2225,9.1178],[77.244,9.1628],[77.141,9.2003],[77.1338,9.2319],[77.0551,9.2808],[77.1148,9.2987],[77.1001,9.325],[77.1368,9.3585],[77.1193,9.424],[77.1404,9.4478],[77.094,9.4584],[77.0743,9.4825],[77.0942,9.5207],[77.0322,9.5391],[77.0148,9.5661],[76.9822,9.5666],[76.9681,9.5887],[76.9297,9.5998],[76.9234,9.6341],[76.8766,9.6771],[76.9369,9.7364],[76.9641,9.7987],[76.9841,9.8035],[77.0023,9.7009],[76.9599,9.6702],[77.002,9.6454],[77.0354,9.6498],[77.0766,9.6922],[77.069,9.7244],[77.1064,9.7196],[77.1293,9.759],[77.0682,9.7648],[76.9998,9.8261],[77.0192,9.8324],[77.0951,9.7758],[77.1244,9.7761],[77.1403,9.8362],[77.1269,9.9012],[77.1023,9.9243],[77.183,9.9072],[77.1966,9.9195],[77.1443,9.9457],[77.1669,9.9956],[77.1074,9.9753],[77.0976,9.9842],[77.1614,10.0179],[77.0924,10.016],[77.0581,10.0407],[76.9718,10.026],[76.9142,10.0417],[76.889,10.0937],[76.9507,10.0799],[76.9355,10.1189],[76.9717,10.1121],[76.9927,10.1245],[76.8824,10.2317],[76.9305,10.2249],[76.9598,10.1965],[76.9571,10.2329],[76.9817,10.2209],[77.0184,10.2469],[76.9845,10.2341],[76.9469,10.2605],[76.9187,10.2417],[76.8731,10.2693],[76.9678,10.3562],[77.1329,10.4257],[77.2102,10.433]],[[76.9688,10.2574],[76.9835,10.2667],[77.0028,10.2852],[76.9805,10.2689],[76.9688,10.2574]],[[77.0058,10.2882],[77.0062,10.2877],[77.0069,10.2887],[77.0058,10.2882]],[[77.057,9.6497],[77.0359,9.6224],[77.0738,9.579],[77.1581,9.5985],[77.1636,9.5651],[77.1367,9.5011],[77.1803,9.4915],[77.2455,9.5213],[77.2589,9.4733],[77.3285,9.4662],[77.2727,9.4863],[77.265,9.5105],[77.2963,9.5306],[77.3276,9.5106],[77.3428,9.5266],[77.2536,9.5385],[77.2278,9.5529],[77.2254,9.5751],[77.203,9.5678],[77.1787,9.6361],[77.1483,9.6338],[77.1409,9.6105],[77.1202,9.6037],[77.057,9.6497]]]}}