{"type":"Feature","properties":{"speciesId":711,"category":"EN","source":"IUCN Red List","simplifyTol":0.01,"clippedToSubcontinent":true},"geometry":{"type":"MultiPolygon","coordinates":[[[[76.5125,11.6201],[76.6314,11.5721],[76.752,11.5941],[76.8295,11.5534],[76.9516,11.5434],[76.9666,11.5318],[76.9557,11.4976],[77.0079,11.4835],[77.0183,11.4548],[76.9412,11.3777],[76.9672,11.3661],[76.9039,11.3394],[76.8821,11.3641],[76.8563,11.3317],[76.8202,11.3171],[76.7924,11.2635],[76.6145,11.1647],[76.5572,11.116],[76.5199,11.1095],[76.4689,11.1444],[76.4573,11.2002],[76.5421,11.2945],[76.5522,11.3423],[76.5348,11.3745],[76.4331,11.4631],[76.3975,11.5387],[76.4391,11.6005],[76.5125,11.6201]]],[[[76.0742,11.52],[76.1178,11.5204],[76.1221,11.4905],[76.0828,11.4749],[76.0742,11.52]]]]}}