{"type":"Feature","properties":{"speciesId":712,"category":"VU","source":"IUCN Red List","simplifyTol":0.01,"clippedToSubcontinent":true},"geometry":{"type":"Polygon","coordinates":[[[75.2646,13.2721],[75.4275,13.2573],[75.5087,13.2135],[75.7211,12.9242],[75.8044,12.5962],[75.9785,12.3143],[76.002,12.0056],[76.0691,11.965],[76.0733,11.8967],[76.0942,11.8573],[76.2455,11.7508],[76.312,11.6513],[76.3433,11.5383],[76.3416,11.4652],[76.322,11.4544],[76.2566,11.4763],[76.2219,11.5282],[76.1794,11.5217],[76.2143,11.4962],[76.1979,11.4565],[76.2012,11.3817],[76.1431,11.3442],[76.1531,11.3119],[76.1282,11.2887],[76.0917,11.2948],[76.057,11.4666],[76.0314,11.4975],[75.9788,11.5123],[75.9481,11.494],[75.8537,11.4813],[75.8031,11.5034],[75.9061,11.5438],[75.8827,11.6129],[75.8045,11.7149],[75.7598,11.7188],[75.7601,11.7405],[75.8074,11.7762],[75.6965,11.7866],[75.6685,11.8096],[75.7411,11.8085],[75.7994,11.8699],[75.9056,11.8547],[75.9083,11.8832],[75.8387,11.9135],[75.8751,11.9354],[75.8301,11.9614],[75.8491,11.9796],[75.7649,12.0278],[75.7656,12.0748],[75.8186,12.0796],[75.7307,12.1236],[75.6913,12.0898],[75.6802,12.1326],[75.6687,12.1375],[75.6624,12.1143],[75.63,12.1532],[75.62,12.148],[75.6396,12.1009],[75.6315,12.063],[75.6104,12.135],[75.5944,12.1168],[75.5559,12.1481],[75.5468,12.1336],[75.4912,12.134],[75.5101,12.1756],[75.4929,12.1873],[75.5185,12.1866],[75.4717,12.2075],[75.4958,12.2162],[75.552,12.1918],[75.513,12.22],[75.5344,12.2447],[75.4962,12.2408],[75.486,12.2625],[75.4328,12.2268],[75.4064,12.234],[75.4378,12.2519],[75.4184,12.2661],[75.4981,12.2864],[75.4931,12.3044],[75.4502,12.3043],[75.4879,12.3313],[75.4591,12.3274],[75.4417,12.3554],[75.4209,12.3419],[75.4263,12.3197],[75.3797,12.3382],[75.3734,12.3543],[75.4211,12.3799],[75.3625,12.3767],[75.3602,12.4015],[75.318,12.3988],[75.3004,12.3786],[75.2844,12.4041],[75.2279,12.3883],[75.3065,12.4135],[75.3258,12.4461],[75.4655,12.4271],[75.3872,12.475],[75.3985,12.4791],[75.4701,12.4735],[75.5638,12.4274],[75.5701,12.444],[75.5324,12.473],[75.6052,12.4641],[75.6159,12.475],[75.577,12.4942],[75.5661,12.5254],[75.5176,12.5258],[75.5392,12.5352],[75.5233,12.5459],[75.5689,12.5444],[75.5547,12.5643],[75.5848,12.5785],[75.6272,12.5053],[75.6427,12.5055],[75.6463,12.5427],[75.675,12.53],[75.6801,12.5452],[75.6627,12.56],[75.6704,12.5932],[75.6459,12.6227],[75.6628,12.6339],[75.6366,12.6457],[75.632,12.6679],[75.7013,12.6949],[75.6637,12.7],[75.6574,12.7171],[75.6261,12.7003],[75.6382,12.7221],[75.616,12.7174],[75.61,12.7387],[75.6427,12.7503],[75.6434,12.766],[75.6058,12.7584],[75.6015,12.7701],[75.6246,12.7771],[75.5954,12.7897],[75.6074,12.8021],[75.583,12.8053],[75.5868,12.8196],[75.6712,12.8352],[75.5757,12.8452],[75.5766,12.8799],[75.5975,12.8884],[75.6309,12.9421],[75.5794,12.9062],[75.5652,12.9318],[75.5502,12.931],[75.5519,12.8753],[75.5083,12.8863],[75.5013,12.9239],[75.5418,12.9525],[75.553,12.9833],[75.54,13.0196],[75.5313,12.9777],[75.4826,12.9049],[75.4615,12.911],[75.478,12.9364],[75.4713,12.9816],[75.5008,13.0128],[75.4746,13.019],[75.4909,13.0423],[75.4731,13.0584],[75.4938,13.089],[75.4391,13.0321],[75.454,13.0944],[75.4379,13.1089],[75.426,13.0713],[75.3929,13.0613],[75.4112,13.0946],[75.4025,13.1569],[75.3842,13.1726],[75.3498,13.1683],[75.3474,13.1327],[75.3209,13.1138],[75.3345,13.0922],[75.3247,13.0816],[75.3128,13.102],[75.2975,13.0887],[75.2953,13.1107],[75.2683,13.0762],[75.2363,13.1162],[75.2198,13.1131],[75.1804,13.1456],[75.2011,13.2392],[75.2646,13.2721]]]}}