{"type":"Feature","properties":{"speciesId":715,"category":"LC","source":"IUCN Red List","simplifyTol":0.01,"clippedToSubcontinent":true},"geometry":{"type":"MultiPolygon","coordinates":[[[[80.2386,9.8235],[80.3657,9.6603],[80.8117,9.2909],[80.8841,9.1219],[81.0005,8.9388],[80.993,8.918],[81.0102,8.929],[81.013,8.8911],[81.021,8.9048],[81.0589,8.8595],[81.0875,8.8584],[81.1048,8.8126],[81.2267,8.6475],[81.2208,8.6062],[81.2298,8.581],[81.2451,8.5793],[81.2471,8.5458],[81.2257,8.5323],[81.2261,8.5695],[81.1927,8.5665],[81.2119,8.5077],[81.1896,8.5018],[81.1977,8.4615],[81.2624,8.4569],[81.304,8.4326],[81.304,8.4583],[81.2958,8.4465],[81.2809,8.4568],[81.2831,8.5032],[81.3222,8.5224],[81.353,8.4909],[81.3937,8.3567],[81.4078,8.2419],[81.4769,8.0343],[81.5686,7.9227],[81.5874,7.921],[81.5671,7.8981],[81.593,7.83],[81.6268,7.8247],[81.6544,7.7729],[81.6999,7.7536],[81.7713,7.6448],[81.8718,7.3159],[81.8586,7.0907],[81.8813,7.0267],[81.8704,6.9789],[81.8489,6.9896],[81.8578,6.9672],[81.8729,6.9669],[81.8364,6.8853],[81.8518,6.8884],[81.8483,6.8675],[81.8397,6.8542],[81.8211,6.8621],[81.8444,6.8344],[81.8233,6.8088],[81.8249,6.7653],[81.8084,6.7647],[81.8279,6.7586],[81.7759,6.6639],[81.7664,6.592],[81.7324,6.5669],[81.7003,6.482],[81.6518,6.4367],[81.5973,6.4241],[81.6135,6.4056],[81.56,6.3612],[81.522,6.3525],[81.4869,6.3055],[81.3285,6.1945],[81.2222,6.1589],[81.1946,6.1576],[81.197,6.1776],[81.178,6.1441],[81.1336,6.1174],[81.0167,6.1071],[80.8659,6.0408],[80.8255,6.0415],[80.7202,5.9607],[80.6641,5.9575],[80.5868,5.9168],[80.5532,5.9411],[80.4489,5.9431],[80.4522,5.9588],[80.4357,5.969],[80.4179,5.955],[80.3828,5.9595],[80.2442,6.0069],[80.2285,6.0351],[80.2186,6.022],[80.0986,6.1289],[80.0314,6.2656],[80.0252,6.3364],[79.9746,6.464],[79.9866,6.4771],[79.9796,6.5149],[79.8687,6.8057],[79.8431,6.9333],[79.8712,6.9756],[79.869,7.0027],[79.819,7.1934],[79.8592,7.2756],[79.8445,7.2761],[79.8027,7.4826],[79.7977,7.7275],[79.7513,7.9316],[79.7064,8.0445],[79.699,8.1154],[79.7095,8.1343],[79.6984,8.2138],[79.7179,8.2167],[79.7381,8.28],[79.7812,8.3497],[79.7563,8.3071],[79.7511,8.2617],[79.7655,8.2739],[79.7573,8.2571],[79.7766,8.2541],[79.7688,8.2156],[79.7404,8.2008],[79.7492,8.1829],[79.7316,8.0868],[79.7541,8.0582],[79.7426,8.0],[79.8186,7.9719],[79.8082,7.8839],[79.8265,7.9206],[79.834,8.0071],[79.7896,8.0682],[79.8086,8.0611],[79.7948,8.0793],[79.8338,8.1396],[79.8154,8.2037],[79.7946,8.2203],[79.8095,8.2174],[79.7897,8.2301],[79.8101,8.2374],[79.8342,8.2919],[79.8476,8.2742],[79.8584,8.2846],[79.8362,8.3011],[79.8445,8.4289],[79.8632,8.4496],[79.8709,8.5352],[79.9263,8.559],[79.9193,8.5846],[79.9414,8.6155],[79.9558,8.7174],[79.9248,8.7907],[79.9401,8.8068],[79.9184,8.8083],[79.9307,8.8147],[79.919,8.8188],[79.9358,8.8913],[79.9122,8.9299],[80.0403,9.0133],[80.0661,9.0562],[80.0857,9.0999],[80.0761,9.1203],[80.1173,9.2072],[80.1116,9.2768],[80.1278,9.2906],[80.0676,9.3287],[80.0549,9.3914],[80.1466,9.4347],[80.1861,9.4827],[80.1461,9.5361],[80.054,9.5979],[80.0876,9.6249],[80.0176,9.6509],[79.971,9.7077],[79.948,9.6871],[79.9099,9.7587],[79.9528,9.7921],[80.0224,9.8126],[80.1056,9.8059],[80.2147,9.8314],[80.2386,9.8235]],[[80.5258,7.534],[80.5158,7.3248],[80.4859,7.2318],[80.4096,7.1056],[80.3996,6.9263],[80.4228,6.7902],[80.4859,6.6673],[80.466,6.6075],[80.4062,6.5743],[80.3531,6.4814],[80.3531,6.3884],[80.3764,6.3054],[80.4328,6.239],[80.4859,6.2024],[80.5822,6.1991],[80.6387,6.2224],[80.7416,6.3353],[80.7582,6.5245],[80.9973,6.6075],[81.1334,6.6906],[81.2198,6.7603],[81.2895,6.9031],[81.2895,6.9529],[81.2696,7.0757],[81.1799,7.172],[81.1069,7.172],[81.0637,7.1421],[81.0039,7.1687],[80.9873,7.3513],[80.835,7.5525],[80.7848,7.7199],[80.7815,7.8561],[80.7615,7.8693],[80.6885,7.8561],[80.6055,7.6526],[80.5656,7.6269],[80.5258,7.534]]],[[[91.9741,21.509],[91.9479,21.4896],[91.9017,21.5093],[91.9114,21.4757],[91.8969,21.4671],[91.8684,21.4885],[91.8587,21.5221],[91.8821,21.557],[91.8742,21.6069],[91.8913,21.6376],[91.8851,21.6807],[91.9399,21.735],[91.9484,21.6934],[91.9876,21.6301],[91.9741,21.509]]],[[[91.9416,21.7483],[91.9207,21.7299],[91.9145,21.7585],[91.9416,21.7483]]],[[[91.8806,21.6342],[91.8524,21.6604],[91.8884,21.7621],[91.9121,21.7467],[91.9045,21.7087],[91.8799,21.6822],[91.8806,21.6342]]],[[[90.3502,22.0981],[90.3751,22.0964],[90.3757,22.0796],[90.329,22.0288],[90.3076,21.9737],[90.2821,21.985],[90.284,22.0554],[90.3145,22.0777],[90.3159,22.086],[90.3473,22.0893],[90.3372,22.1034],[90.3502,22.0981]]],[[[91.1757,22.3359],[91.1828,22.2711],[91.1556,22.1843],[91.1222,22.1649],[91.1191,22.1934],[91.1011,22.2106],[91.1115,22.1597],[91.0505,22.1794],[91.0519,22.4201],[91.0269,22.4766],[91.0408,22.508],[91.1223,22.492],[91.1369,22.3951],[91.1757,22.3359]]],[[[91.5582,22.4111],[91.5161,22.3469],[91.4849,22.3429],[91.4551,22.3987],[91.4007,22.4361],[91.3798,22.4944],[91.3921,22.564],[91.3567,22.66],[91.3808,22.6624],[91.4506,22.6247],[91.5454,22.4693],[91.5582,22.4111]]],[[[91.1199,22.5624],[91.0996,22.5702],[91.0918,22.5984],[91.141,22.6642],[91.1719,22.6049],[91.1574,22.5798],[91.1199,22.5624]]],[[[91.1284,22.6708],[91.0886,22.5983],[91.0853,22.553],[91.0658,22.569],[91.0582,22.6391],[91.0449,22.6359],[91.0554,22.6978],[91.1122,22.7],[91.1284,22.6708]]],[[[91.268,22.7307],[91.2995,22.7044],[91.2707,22.6674],[91.2165,22.7007],[91.2357,22.7099],[91.2122,22.7042],[91.1311,22.7361],[91.1898,22.7493],[91.268,22.7307]]],[[[90.7707,22.6464],[90.8678,22.5181],[90.8889,22.445],[90.8462,22.2419],[90.8319,22.2192],[90.8082,22.2193],[90.8254,22.1984],[90.8024,22.2081],[90.796,22.246],[90.7981,22.2038],[90.8209,22.1843],[90.7784,22.186],[90.8194,22.1776],[90.8219,22.1395],[90.7919,22.1083],[90.7958,22.1457],[90.783,22.1074],[90.7622,22.1112],[90.7168,22.0527],[90.7086,22.0646],[90.7371,22.132],[90.7058,22.0721],[90.6749,22.0707],[90.6781,22.1053],[90.6991,22.1114],[90.6703,22.1264],[90.6957,22.1379],[90.6597,22.1332],[90.6338,22.1481],[90.6334,22.1324],[90.6198,22.1325],[90.6111,22.1582],[90.6706,22.2784],[90.6689,22.4825],[90.6066,22.6012],[90.5888,22.6067],[90.6186,22.5467],[90.5729,22.5947],[90.5634,22.6408],[90.5889,22.6338],[90.5796,22.6542],[90.5439,22.6283],[90.539,22.641],[90.5792,22.7219],[90.6594,22.7846],[90.7309,22.7736],[90.7707,22.6464]]],[[[90.9414,22.8032],[91.0171,22.7208],[91.0126,22.7056],[90.9757,22.7222],[90.9658,22.7155],[91.0357,22.6706],[91.0292,22.6419],[91.06,22.5964],[91.0553,22.5807],[91.0512,22.5934],[91.0248,22.5766],[91.0438,22.5696],[90.9943,22.5409],[90.955,22.5481],[90.9256,22.5787],[90.9401,22.5911],[90.9144,22.5899],[90.8618,22.6339],[90.8337,22.7293],[90.7969,22.7739],[90.8751,22.8055],[90.9414,22.8032]]],[[[90.6438,22.8594],[90.5568,22.7903],[90.4846,22.8396],[90.4608,22.8402],[90.4824,22.867],[90.5329,22.8745],[90.5502,22.8971],[90.5535,22.9442],[90.6496,22.8941],[90.6438,22.8594]]],[[[90.4512,22.9721],[90.4551,23.0016],[90.5389,22.9578],[90.5453,22.9077],[90.5236,22.8788],[90.4671,22.8659],[90.4447,22.8264],[90.4491,22.8052],[90.4274,22.8167],[90.4278,22.8417],[90.3951,22.8281],[90.3898,22.839],[90.4218,22.8989],[90.4173,22.9163],[90.3845,22.856],[90.3951,22.7999],[90.4151,22.7819],[90.3844,22.7899],[90.42,22.7752],[90.3999,22.7644],[90.3323,22.8477],[90.3807,22.9076],[90.3533,22.9932],[90.4309,22.9917],[90.4512,22.9721]]],[[[90.1766,23.3369],[90.2574,23.3069],[90.2334,23.2961],[90.2286,23.2652],[90.1662,23.2687],[90.1826,23.2415],[90.1276,23.2454],[90.1311,23.2632],[90.1245,23.2738],[90.0892,23.2811],[90.1766,23.3369]]],[[[90.4511,23.3395],[90.5188,23.3285],[90.552,23.2822],[90.5409,23.2371],[90.5004,23.1797],[90.4761,23.1948],[90.5004,23.2449],[90.4938,23.299],[90.4511,23.3395]]],[[[90.3749,23.3544],[90.4122,23.3025],[90.4839,23.2994],[90.4857,23.2465],[90.4622,23.2026],[90.4646,23.2254],[90.4534,23.2116],[90.4659,23.1672],[90.4326,23.0911],[90.4477,23.028],[90.3609,23.0111],[90.3426,22.9819],[90.326,22.9816],[90.3087,23.0538],[90.3259,23.0679],[90.3326,23.1087],[90.3229,23.1024],[90.2729,23.1468],[90.267,23.1328],[90.2905,23.1207],[90.2538,23.1253],[90.2444,23.1379],[90.2657,23.1601],[90.2142,23.1915],[90.1842,23.1708],[90.1781,23.1892],[90.2071,23.2097],[90.2108,23.224],[90.1721,23.262],[90.233,23.2607],[90.2526,23.2882],[90.24,23.2931],[90.2866,23.3161],[90.2985,23.35],[90.327,23.366],[90.3749,23.3544]]],[[[90.1966,23.3718],[90.1883,23.3811],[90.1896,23.386],[90.1966,23.3718]]],[[[90.3316,23.3845],[90.286,23.3796],[90.2958,23.3708],[90.2708,23.3264],[90.2139,23.3613],[90.245,23.326],[90.2056,23.3503],[90.1836,23.4498],[90.3316,23.3845]]],[[[90.6371,23.6107],[90.6946,23.5158],[90.6576,23.5209],[90.5851,23.4883],[90.5658,23.5872],[90.5918,23.5834],[90.6371,23.6107]]],[[[90.6585,23.6553],[90.7322,23.6524],[90.7598,23.6309],[90.7358,23.6271],[90.7284,23.5956],[90.6956,23.5734],[90.6684,23.59],[90.6536,23.6235],[90.6585,23.6553]]],[[[90.3778,23.6956],[90.4183,23.6844],[90.4643,23.628],[90.4239,23.6183],[90.4349,23.637],[90.429,23.6419],[90.415,23.624],[90.3878,23.6461],[90.3978,23.6253],[90.3645,23.63],[90.288,23.6726],[90.2617,23.7243],[90.2876,23.7327],[90.3085,23.7608],[90.313,23.7323],[90.3778,23.6956]]],[[[89.3709,23.9404],[89.3556,23.8929],[89.3149,23.8989],[89.2906,23.9388],[89.3709,23.9404]]],[[[91.3693,26.8353],[91.4172,26.7879],[91.5152,26.7653],[91.8099,26.8185],[91.839,26.851],[91.8498,26.9071],[92.1203,26.9475],[93.0269,26.9587],[94.0696,27.2628],[95.1716,27.8948],[95.8398,28.4197],[95.942,28.4531],[96.236,28.4139],[96.4203,28.2358],[96.3722,27.7841],[96.1116,27.4366],[95.2426,26.9152],[94.5475,26.4373],[93.6786,26.1766],[92.5924,26.0028],[91.4194,26.1766],[90.3295,25.9924],[90.0789,25.2768],[90.2152,25.1431],[91.2824,25.1961],[92.3343,25.0519],[92.1724,24.547],[91.4628,23.9174],[92.3752,23.5699],[92.6807,22.8746],[92.7247,22.4348],[92.8126,22.039],[92.6367,21.4673],[92.3288,21.2034],[92.198,21.1546],[92.1972,21.1211],[92.1282,21.078],[92.0533,21.1632],[92.0496,21.2642],[92.0289,21.3402],[91.9529,21.4548],[91.9993,21.5054],[92.0221,21.4864],[91.9954,21.5518],[92.0389,21.6476],[92.0405,21.6722],[92.0251,21.6822],[92.0352,21.7006],[92.0181,21.7165],[92.0192,21.6685],[91.9818,21.656],[91.9796,21.7042],[91.9667,21.6781],[91.9481,21.7453],[91.9764,21.7418],[91.9924,21.7678],[91.9716,21.7472],[91.9545,21.7539],[91.9589,21.7804],[91.9424,21.8042],[91.9308,21.7855],[91.8912,21.7773],[91.9199,21.8473],[91.9095,21.9079],[91.9193,21.9399],[91.8949,21.9689],[91.8497,22.1351],[91.8416,22.114],[91.8118,22.1905],[91.8351,22.2151],[91.842,22.2605],[91.8147,22.3049],[91.8666,22.3221],[91.9008,22.4007],[91.9451,22.4162],[92.0019,22.4046],[92.0221,22.4167],[92.0349,22.4459],[92.0815,22.4371],[92.1417,22.4616],[92.1439,22.4703],[92.0873,22.4443],[92.0331,22.4505],[92.0029,22.4124],[91.9541,22.421],[91.8964,22.4094],[91.8723,22.3498],[91.7955,22.2927],[91.7952,22.2778],[91.829,22.2566],[91.798,22.2196],[91.7693,22.2784],[91.7519,22.3866],[91.7001,22.4841],[91.5811,22.6536],[91.4576,22.7511],[91.4859,22.7668],[91.4692,22.7787],[91.4778,22.7633],[91.4547,22.7602],[91.4369,22.7772],[91.4746,22.8241],[91.4356,22.8048],[91.4836,22.8741],[91.4566,22.8989],[91.4922,22.9007],[91.4452,22.9007],[91.441,22.8836],[91.464,22.8832],[91.4647,22.869],[91.4204,22.8087],[91.4086,22.7609],[91.3301,22.8335],[91.3506,22.8515],[91.3427,22.8832],[91.3158,22.8394],[91.3525,22.7861],[91.3451,22.7758],[91.2963,22.8102],[91.1869,22.7977],[91.1164,22.8119],[91.1127,22.8262],[91.0831,22.8],[91.0287,22.7996],[90.9375,22.8561],[90.8246,22.8647],[90.8016,22.9088],[90.7578,22.9387],[90.7958,22.898],[90.7954,22.8634],[90.7333,22.8875],[90.6896,22.9783],[90.6294,22.9981],[90.5663,23.1036],[90.598,23.1778],[90.6524,23.2423],[90.6389,23.3166],[90.6776,23.3183],[90.6754,23.3407],[90.6978,23.3457],[90.6796,23.3628],[90.695,23.3777],[90.6733,23.3642],[90.6616,23.3375],[90.6738,23.3213],[90.5987,23.3393],[90.5796,23.3948],[90.6007,23.4314],[90.5856,23.4669],[90.6303,23.4903],[90.7039,23.4901],[90.7178,23.5428],[90.7443,23.5443],[90.7254,23.5534],[90.7084,23.5386],[90.7057,23.5618],[90.732,23.5912],[90.7392,23.6216],[90.7646,23.629],[90.7414,23.6621],[90.7578,23.721],[90.7425,23.6938],[90.7403,23.7242],[90.7315,23.7102],[90.7156,23.7414],[90.6818,23.6867],[90.6429,23.6899],[90.6324,23.6392],[90.5628,23.5929],[90.5531,23.5715],[90.5147,23.5814],[90.505,23.6033],[90.4839,23.5866],[90.4539,23.6149],[90.4703,23.6298],[90.4427,23.6684],[90.368,23.7186],[90.3837,23.7022],[90.3658,23.7034],[90.3421,23.7401],[90.3176,23.735],[90.3128,23.7642],[90.2548,23.7303],[90.2571,23.7757],[90.2298,23.8877],[90.2396,23.827],[90.194,23.8405],[90.1518,23.8291],[90.1319,23.8674],[90.1117,23.8736],[90.1104,23.8573],[90.0572,23.8201],[90.047,23.8255],[90.0625,23.8769],[90.0468,23.8894],[90.0262,23.8817],[90.0227,23.9072],[89.9481,23.9709],[89.9523,23.9846],[89.9328,23.9846],[89.9487,23.9598],[89.9378,23.9554],[90.0192,23.8936],[90.0144,23.8769],[90.0547,23.8732],[90.0409,23.8278],[90.0466,23.8174],[90.0691,23.8163],[90.0887,23.83],[90.1247,23.8071],[90.1837,23.8023],[90.2068,23.8157],[90.2226,23.8004],[90.2415,23.8149],[90.2059,23.7537],[90.221,23.7216],[90.2524,23.721],[90.2746,23.6862],[90.2557,23.7074],[90.2383,23.7112],[90.2208,23.7081],[90.1813,23.7401],[90.1924,23.7203],[90.1626,23.7198],[90.1492,23.7107],[90.1219,23.7371],[90.0698,23.7579],[90.0232,23.7635],[90.0245,23.7952],[90.0021,23.816],[90.0195,23.7627],[90.1205,23.7334],[90.1497,23.7043],[90.1739,23.7165],[90.2205,23.7031],[90.2477,23.7076],[90.276,23.6548],[90.3797,23.6165],[90.4018,23.5883],[90.3789,23.5678],[90.4098,23.5802],[90.4377,23.5451],[90.5054,23.5721],[90.5302,23.5669],[90.5701,23.4832],[90.538,23.4837],[90.5539,23.4263],[90.5281,23.3907],[90.4858,23.4204],[90.4204,23.4161],[90.2542,23.4608],[90.1641,23.5242],[90.1103,23.6129],[89.97,23.6581],[89.9179,23.7216],[89.8638,23.7451],[89.7915,23.8077],[89.7742,23.8995],[89.7688,23.8876],[89.7046,23.9579],[89.7275,23.9776],[89.7208,24.0],[89.7153,23.9718],[89.6983,23.9645],[89.7051,23.9991],[89.6707,24.0],[89.6557,23.9361],[89.7033,23.8749],[89.7513,23.8659],[89.7708,23.8359],[89.7571,23.8473],[89.7242,23.8344],[89.6802,23.8626],[89.7179,23.8319],[89.6297,23.8456],[89.5468,23.8241],[89.4497,23.8706],[89.3865,23.9431],[89.3288,23.9487],[89.2808,23.9875],[89.3161,23.9479],[89.2889,23.9467],[89.2414,23.9813],[89.1733,24.0],[89.0914,23.9991],[89.0608,23.9839],[89.0936,23.9665],[89.1272,23.9183],[89.1241,23.9541],[89.1671,23.9259],[89.2341,23.9194],[89.3047,23.8696],[89.4078,23.8978],[89.4384,23.8386],[89.4996,23.7788],[89.5929,23.7975],[89.6397,23.7768],[89.7017,23.7769],[89.8567,23.6605],[89.9485,23.6357],[90.0246,23.5566],[90.0179,23.5823],[90.0954,23.567],[90.1529,23.4988],[90.1557,23.431],[90.2067,23.3338],[90.17,23.3466],[90.1639,23.3639],[90.1862,23.3591],[90.1608,23.3676],[90.1665,23.3332],[90.1253,23.3055],[90.1205,23.3356],[90.1417,23.3597],[90.1445,23.3786],[90.1279,23.351],[90.0995,23.359],[90.1208,23.3473],[90.1189,23.3041],[90.093,23.3005],[90.0871,23.2728],[90.1245,23.2685],[90.1217,23.2487],[90.1287,23.2416],[90.2023,23.2256],[90.1987,23.2096],[90.1681,23.2041],[90.1774,23.1665],[90.219,23.1829],[90.2485,23.1621],[90.2336,23.1421],[90.2452,23.1232],[90.3091,23.1128],[90.3167,23.0671],[90.2678,23.0431],[90.2726,23.0254],[90.3072,23.0209],[90.3206,22.9865],[90.2739,22.9687],[90.3537,22.9212],[90.3456,22.884],[90.3205,22.8726],[90.3213,22.8502],[90.3726,22.7652],[90.3682,22.7366],[90.4195,22.7331],[90.4167,22.7138],[90.3964,22.729],[90.3831,22.7054],[90.4003,22.7234],[90.4204,22.7086],[90.4297,22.7305],[90.4193,22.7453],[90.378,22.7401],[90.3825,22.7586],[90.4366,22.761],[90.4832,22.7098],[90.4769,22.6561],[90.4961,22.6723],[90.5133,22.6529],[90.5042,22.5879],[90.5187,22.5991],[90.5798,22.5261],[90.6132,22.3275],[90.5912,22.2573],[90.5587,22.2382],[90.5212,22.184],[90.5066,22.1851],[90.4373,22.0668],[90.4221,22.1192],[90.4427,22.1513],[90.4269,22.1517],[90.4192,22.1262],[90.4192,22.0904],[90.3882,22.0901],[90.3847,22.1054],[90.4039,22.1682],[90.4261,22.1813],[90.3999,22.2179],[90.4165,22.2649],[90.4035,22.2838],[90.4191,22.2895],[90.3788,22.2931],[90.4149,22.3388],[90.3641,22.2952],[90.4059,22.2709],[90.395,22.204],[90.4179,22.1836],[90.3986,22.1722],[90.3831,22.1366],[90.3408,22.1621],[90.3872,22.1955],[90.3873,22.2114],[90.3562,22.1794],[90.3438,22.1957],[90.3498,22.1792],[90.3338,22.1633],[90.3784,22.1309],[90.3751,22.1053],[90.3331,22.1088],[90.2616,22.0404],[90.2751,22.0358],[90.278,21.9971],[90.2568,21.9557],[90.211,21.9826],[90.2135,22.0022],[90.1962,21.9784],[90.2287,21.9716],[90.2343,21.9583],[90.2176,21.9508],[90.2685,21.9463],[90.2409,21.8994],[90.2606,21.8846],[90.2549,21.8666],[90.2241,21.8543],[90.2042,21.8874],[90.2401,21.9344],[90.1969,21.8906],[90.2199,21.8528],[90.2631,21.8583],[90.2478,21.8376],[90.2163,21.8373],[90.2556,21.8273],[90.2116,21.8183],[90.1756,21.7891],[90.1319,21.7907],[90.092,21.8147],[90.0824,21.841],[90.1222,21.8485],[90.1003,21.8554],[90.1103,21.884],[90.1543,21.8854],[90.1589,21.8603],[90.1728,21.8697],[90.1519,21.8956],[90.1886,21.9228],[90.144,21.8906],[90.1158,21.8993],[90.1162,21.9159],[90.15,21.9227],[90.1372,21.9485],[90.1685,21.9805],[90.1406,21.9702],[90.128,21.9914],[90.1418,21.9247],[90.1114,21.9219],[90.0988,21.8944],[90.0991,21.9412],[90.0725,22.0004],[90.0992,22.0506],[90.1633,22.1145],[90.2134,22.1143],[90.2283,22.1641],[90.2542,22.1638],[90.2717,22.1772],[90.2864,22.2071],[90.2723,22.2089],[90.2588,22.1722],[90.229,22.1724],[90.2401,22.1932],[90.2206,22.219],[90.2077,22.3093],[90.2269,22.3379],[90.2896,22.3505],[90.2973,22.3714],[90.2696,22.3586],[90.2657,22.3711],[90.2809,22.4069],[90.3137,22.4635],[90.3413,22.4589],[90.3619,22.4905],[90.3405,22.4664],[90.3148,22.4741],[90.2586,22.3754],[90.2548,22.3443],[90.2223,22.3421],[90.1991,22.3026],[90.2097,22.2143],[90.2298,22.1915],[90.2032,22.1238],[90.1608,22.1241],[90.0879,22.0556],[90.0515,21.9702],[90.0298,21.9971],[90.0275,21.9782],[90.0,21.9882],[89.993,22.0361],[90.0307,22.0628],[90.0436,22.1336],[90.0717,22.1533],[90.1399,22.1551],[90.0801,22.1586],[90.0257,22.189],[90.081,22.2209],[90.1116,22.2858],[90.1016,22.3424],[90.176,22.4215],[90.2018,22.4859],[90.206,22.5118],[90.1876,22.5224],[90.2028,22.5725],[90.1858,22.6255],[90.2519,22.6212],[90.2832,22.6302],[90.2942,22.6556],[90.2487,22.6279],[90.181,22.6276],[90.1975,22.5676],[90.1819,22.5223],[90.1989,22.509],[90.1936,22.4802],[90.1724,22.4297],[90.095,22.3491],[90.1048,22.3039],[90.0669,22.2145],[90.025,22.1966],[90.0234,22.1724],[90.0632,22.1618],[90.0153,22.1191],[90.0183,22.0663],[89.9809,22.0416],[89.9896,21.991],[89.9644,21.9769],[89.9092,22.0731],[89.9175,22.136],[89.8787,22.2524],[89.9197,22.3718],[89.9847,22.4388],[90.0,22.4869],[90.025,22.4901],[90.033,22.5719],[90.065,22.6087],[90.0571,22.6225],[90.0268,22.599],[90.0327,22.6527],[90.0038,22.6772],[90.028,22.6463],[90.0132,22.5988],[90.0307,22.5814],[90.0179,22.4944],[89.9546,22.5055],[89.9855,22.4867],[89.9782,22.4521],[89.9057,22.3863],[89.8834,22.4052],[89.8834,22.4302],[89.8774,22.4139],[89.8987,22.3721],[89.8448,22.2487],[89.8905,22.1211],[89.8528,22.0679],[89.8188,22.066],[89.8534,22.0483],[89.8854,21.9055],[89.8584,21.8784],[89.8456,21.8859],[89.8408,21.856],[89.7715,21.8311],[89.7896,21.879],[89.7542,21.8561],[89.7334,21.8909],[89.7493,21.8346],[89.7143,21.8341],[89.7023,21.8494],[89.6756,21.8377],[89.6586,21.8922],[89.6795,21.9049],[89.6554,21.9134],[89.6339,21.8679],[89.7121,21.7853],[89.7124,21.7662],[89.6592,21.7511],[89.6548,21.765],[89.6067,21.7601],[89.6137,21.8111],[89.5627,21.8637],[89.5901,21.9386],[89.5607,21.9692],[89.5603,21.9911],[89.5152,21.9904],[89.5251,21.9563],[89.5123,21.8993],[89.4971,21.9081],[89.4607,21.8522],[89.4337,21.8477],[89.4627,21.8461],[89.4712,21.8204],[89.4581,21.8139],[89.4796,21.8006],[89.4783,21.7724],[89.4257,21.7147],[89.3906,21.7084],[89.3654,21.7459],[89.3557,21.8089],[89.3899,21.9021],[89.3671,21.9046],[89.3181,21.8611],[89.3072,21.8207],[89.2867,21.8053],[89.2927,21.7564],[89.2312,21.7683],[89.2193,21.7572],[89.197,21.8047],[89.1643,21.79],[89.1079,21.8105],[89.1121,21.8547],[89.0887,21.908],[89.0948,21.9381],[89.0836,21.9386],[89.0634,21.9272],[89.0904,21.8542],[89.0866,21.8134],[89.1522,21.7414],[89.1374,21.7198],[89.1154,21.7204],[89.0518,21.7859],[89.0648,21.8682],[89.0397,21.9077],[89.001,21.9031],[88.9972,21.8895],[89.0372,21.8577],[89.0246,21.8014],[89.0356,21.7544],[89.0801,21.7081],[89.1033,21.645],[89.0968,21.6249],[89.0595,21.6116],[89.028,21.6634],[89.0061,21.6549],[89.0292,21.6541],[89.043,21.6175],[89.0167,21.6008],[88.9943,21.6465],[88.9946,21.6095],[88.9519,21.6408],[88.928,21.6302],[88.8989,21.6496],[88.8754,21.701],[88.8799,21.7675],[88.8496,21.7251],[88.8692,21.6433],[88.8529,21.6161],[88.8139,21.631],[88.8229,21.6604],[88.7594,21.6566],[88.7243,21.6805],[88.6993,21.7411],[88.7229,21.8073],[88.6998,21.8403],[88.7311,21.9352],[88.7291,21.976],[88.7903,22.0183],[88.7667,22.0237],[88.7594,22.0502],[88.7747,22.0519],[88.7486,22.0659],[88.7157,22.0484],[88.7415,22.0282],[88.735,22.0071],[88.6685,22.0226],[88.6445,22.1181],[88.631,22.1198],[88.6214,22.105],[88.6438,22.0459],[88.6084,21.972],[88.6202,21.9377],[88.5852,21.9852],[88.5792,21.9633],[88.611,21.9322],[88.6096,21.9095],[88.5833,21.8856],[88.5618,21.814],[88.5031,21.8849],[88.5314,21.9303],[88.5095,21.9704],[88.5525,21.9851],[88.5652,22.0228],[88.5449,21.9865],[88.5049,21.973],[88.5103,21.9217],[88.485,21.8966],[88.4664,21.9001],[88.4688,21.9487],[88.4597,21.9382],[88.4534,21.9068],[88.4633,21.8964],[88.4841,21.8913],[88.5001,21.8489],[88.4583,21.8201],[88.469,21.7932],[88.4479,21.8015],[88.4292,21.7659],[88.4363,21.7042],[88.4183,21.6661],[88.4412,21.6244],[88.4216,21.6097],[88.4177,21.5818],[88.3929,21.6083],[88.4045,21.6197],[88.3891,21.6672],[88.4121,21.717],[88.3795,21.7303],[88.3991,21.7368],[88.4075,21.7646],[88.3915,21.7795],[88.4082,21.7984],[88.4001,21.8346],[88.4213,21.8892],[88.3996,21.8993],[88.4164,21.9231],[88.4056,21.9516],[88.3903,21.9667],[88.4057,21.9738],[88.4124,21.9947],[88.3873,21.9675],[88.4114,21.9216],[88.396,21.9071],[88.3979,21.8949],[88.4077,21.8854],[88.3976,21.8749],[88.3953,21.7943],[88.3717,21.8007],[88.3643,21.8528],[88.3642,21.8014],[88.3296,21.7886],[88.2816,21.7969],[88.2765,21.8073],[88.3154,21.8303],[88.3238,21.8496],[88.311,21.8646],[88.2686,21.865],[88.3175,21.8502],[88.2587,21.7956],[88.2892,21.7581],[88.2832,21.7309],[88.3067,21.6718],[88.3004,21.5917],[88.3254,21.5806],[88.3064,21.5615],[88.2626,21.5575],[88.2265,21.6188],[88.2493,21.6474],[88.2411,21.6786],[88.2116,21.6855],[88.2308,21.6996],[88.2186,21.7919],[88.2381,21.7646],[88.2396,21.7811],[88.2115,21.8029],[88.2035,21.8456],[88.166,21.888],[88.1748,21.9239],[88.1487,21.9596],[88.1863,21.9934],[88.2351,22.0789],[88.2142,22.1574],[88.1788,22.195],[88.0826,22.2206],[88.0342,22.2183],[88.0321,22.2018],[88.1438,22.1871],[88.1902,22.1329],[88.1961,22.1048],[88.1618,22.0645],[88.067,22.0155],[87.9805,21.8551],[87.9519,21.8236],[87.8866,21.803],[87.8924,21.7812],[87.8286,21.7222],[87.7551,21.7008],[87.7498,21.6855],[87.6786,21.6537],[87.6499,21.6646],[87.6369,21.6472],[87.3726,21.5781],[87.366,21.5609],[87.1955,21.5494],[87.0644,21.4708],[86.8946,21.3136],[86.8168,21.1382],[86.9296,20.9008],[86.9701,20.8491],[86.9758,20.768],[87.0013,20.7584],[87.0139,20.7253],[86.996,20.6992],[87.0246,20.6897],[87.052,20.7035],[86.7655,20.5046],[86.7358,20.4491],[86.7409,20.4177],[86.7226,20.3935],[86.7414,20.3757],[86.7284,20.3611],[86.7785,20.3974],[86.7709,20.3651],[86.7859,20.3717],[86.7636,20.3353],[86.8031,20.3666],[86.8079,20.3953],[86.8074,20.3638],[86.7191,20.2992],[86.6865,20.3181],[86.6943,20.2819],[86.7649,20.3146],[86.5418,20.1847],[86.4254,20.0257],[86.4299,20.0505],[86.4185,20.038],[86.4012,20.0047],[86.4288,19.9947],[86.4181,19.9776],[86.2504,19.9029],[85.8202,19.7902],[85.6052,19.7074],[85.3281,19.5669],[85.1224,19.4198],[85.0869,19.3687],[84.9609,19.2916],[84.8096,19.1478],[84.8041,19.1159],[84.6929,18.9579],[84.6006,18.8682],[84.5635,18.7904],[84.4572,18.6851],[84.4484,18.6543],[84.3818,18.5947],[84.3651,18.5534],[84.1666,18.3787],[84.1375,18.3434],[84.1411,18.3142],[83.9623,18.2157],[83.9344,18.2254],[83.9453,18.21],[83.8113,18.1604],[83.6734,18.085],[83.5755,18.0095],[83.5411,17.9497],[83.4723,17.8985],[83.4679,17.9212],[83.4438,17.934],[83.4672,17.8865],[83.4135,17.8402],[83.4172,17.8083],[83.3542,17.7525],[83.3507,17.7279],[83.2944,17.6912],[83.3009,17.6774],[83.2456,17.6371],[83.2152,17.5903],[83.0229,17.5088],[82.9939,17.4732],[82.8843,17.4241],[82.8832,17.4381],[82.8655,17.4155],[82.6197,17.2943],[82.4936,17.2121],[82.3045,17.0442],[82.2794,17.0015],[82.2777,16.9443],[82.2529,16.9186],[82.2666,16.8866],[82.2571,16.864],[82.2721,16.8873],[82.276,16.8548],[82.2921,16.8749],[82.3044,16.8567],[82.3193,16.8678],[82.3205,16.8373],[82.3419,16.8605],[82.3691,16.8561],[82.3656,16.8116],[82.3749,16.9175],[82.3489,16.9698],[82.3717,16.953],[82.3799,16.9037],[82.3559,16.7128],[82.3226,16.6489],[82.3214,16.6135],[82.3019,16.6042],[82.3175,16.5846],[81.9554,16.3972],[81.842,16.3691],[81.7322,16.3135],[81.5325,16.359],[81.4535,16.3547],[81.3307,16.3152],[81.2538,16.2596],[81.2018,16.179],[81.1881,16.1455],[81.2125,16.1759],[81.2069,16.1316],[81.1483,16.0],[81.1551,15.9707],[81.0499,15.9049],[80.9927,15.8316],[81.0029,15.7705],[81.0318,15.7592],[80.9388,15.7079],[80.8948,15.7157],[80.8151,15.6995],[80.7824,15.8485],[80.8093,15.7779],[80.8111,15.837],[80.7695,15.8685],[80.6936,15.8811],[80.5329,15.8542],[80.3757,15.774],[80.2936,15.7047],[80.2494,15.6334],[80.1996,15.4623],[80.0957,15.329],[80.0826,15.2577],[80.091,15.2043],[80.0646,15.1906],[80.0736,15.1742],[80.0452,15.0673],[80.0872,14.8059],[80.1961,14.5712],[80.1695,14.3491],[80.1263,14.2069],[80.1383,14.0834],[80.2558,13.78],[80.2339,13.7186],[80.2329,13.6455],[80.3233,13.4439],[80.3464,13.304],[80.2956,13.1211],[80.3049,13.0927],[80.2609,13.0127],[80.2741,13.0056],[80.2429,12.8158],[80.2476,12.7533],[80.1758,12.5813],[80.1868,12.5753],[80.1569,12.4775],[80.1353,12.4587],[80.1454,12.4454],[80.0463,12.3104],[80.067,12.3502],[80.0576,12.351],[79.8819,12.0511],[79.8342,11.9097],[79.8187,11.9071],[79.8333,11.902],[79.7982,11.7882],[79.7762,11.7694],[79.794,11.7694],[79.7932,11.7502],[79.7589,11.6076],[79.7601,11.5391],[79.7719,11.4914],[79.8186,11.4263],[79.8483,11.2505],[79.8252,11.2306],[79.8497,11.2282],[79.8597,11.1777],[79.8529,10.6781],[79.8761,10.2956],[79.8349,10.2732],[79.7673,10.2707],[79.5304,10.3131],[79.3983,10.3201],[79.3055,10.2651],[79.271,10.2303],[79.2771,10.2105],[79.2308,10.1448],[79.2319,10.0843],[79.2669,10.0338],[79.165,9.934],[79.1247,9.8787],[79.1204,9.8444],[78.9816,9.6768],[78.9382,9.6016],[78.9195,9.4929],[78.9019,9.4806],[78.9653,9.3763],[79.0751,9.2923],[79.2096,9.2811],[79.2686,9.29],[79.2922,9.3161],[79.3255,9.3206],[79.3367,9.3084],[79.3223,9.2665],[79.4423,9.1539],[79.3151,9.2377],[79.2237,9.2513],[79.2086,9.2757],[79.0889,9.2567],[78.9626,9.2688],[78.9115,9.2451],[78.8733,9.2526],[78.8104,9.2313],[78.7299,9.2009],[78.7216,9.183],[78.6512,9.1917],[78.6449,9.1654],[78.6619,9.1519],[78.5829,9.1271],[78.492,9.1252],[78.4912,9.1361],[78.4198,9.1097],[78.2767,8.9996],[78.2658,9.0126],[78.2681,8.9925],[78.1937,8.9249],[78.1703,8.8671],[78.1539,8.7474],[78.1786,8.7594],[78.1952,8.7499],[78.2012,8.7785],[78.2055,8.7605],[78.1959,8.7407],[78.1629,8.7296],[78.1322,8.6694],[78.133,8.4883],[78.0647,8.4057],[78.0697,8.3666],[77.8041,8.2336],[77.7838,8.1982],[77.7383,8.1691],[77.5938,8.1399],[77.5609,8.1154],[77.5526,8.069],[77.3183,8.1173],[77.2807,8.1564],[77.239,8.1734],[76.9771,8.3876],[76.6206,8.8431],[76.5464,8.8985],[76.5204,8.9993],[76.4617,9.1312],[76.497,9.067],[76.4753,9.1197],[76.4848,9.1159],[76.4921,9.1672],[76.4748,9.1621],[76.4709,9.1412],[76.4405,9.2326],[76.4196,9.2432],[76.4551,9.1423],[76.3263,9.4527],[76.2446,9.9545],[76.2184,9.9982],[76.1029,10.3754],[76.0478,10.4918],[76.0639,10.4735],[76.0463,10.5317],[76.0266,10.5323],[75.9113,10.799],[75.9104,10.7838],[75.8326,11.1235],[75.8054,11.1508],[75.7296,11.3316],[75.7333,11.354],[75.6782,11.4458],[75.6174,11.4744],[75.5851,11.5587],[75.597,11.5363],[75.5912,11.562],[75.6041,11.561],[75.5822,11.5708],[75.5294,11.6966],[75.5386,11.7048],[75.4917,11.7339],[75.4716,11.769],[75.451,11.7697],[75.3893,11.8467],[75.3522,11.8601],[75.3004,11.9467],[75.2377,12.0138],[75.2249,12.0211],[75.2004,12.0032],[75.1677,12.067],[75.0648,12.3407],[75.0296,12.3922],[75.0386,12.4111],[75.0229,12.3997],[75.0063,12.4371],[75.0154,12.4444],[74.9979,12.4456],[74.983,12.475],[74.8249,12.8316],[74.776,13.0949],[74.7699,13.0782],[74.6921,13.3488],[74.6657,13.6381],[74.6428,13.6709],[74.6058,13.8523],[74.6169,13.8576],[74.565,13.9466],[74.5278,13.9626],[74.505,14.0011],[74.464,14.1872],[74.4092,14.308],[74.3953,14.4186],[74.3765,14.4165],[74.3538,14.5117],[74.3052,14.5196],[74.2912,14.5931],[74.2635,14.6245],[74.2946,14.6402],[74.2751,14.6467],[74.2756,14.6779],[74.2537,14.7068],[74.2633,14.7094],[74.2647,14.7201],[74.2582,14.7122],[74.2215,14.7472],[74.1993,14.7176],[74.1765,14.7446],[74.1477,14.7464],[74.1341,14.7778],[74.1039,14.7843],[74.0911,14.8021],[74.1171,14.8034],[74.1249,14.8405],[74.1079,14.8451],[74.0912,14.8945],[74.0388,14.9156],[74.0487,14.9568],[74.0298,14.9815],[74.0476,14.9848],[73.9857,15.0225],[73.9786,15.0504],[73.95,15.0729],[73.9051,15.0871],[73.9458,15.1408],[73.8821,15.3452],[73.862,15.3694],[73.8357,15.361],[73.8032,15.377],[73.7794,15.4089],[73.8757,15.3984],[73.8899,15.4192],[73.8764,15.4337],[73.8584,15.4258],[73.845,15.4491],[73.7822,15.4597],[73.8153,15.5064],[73.7574,15.4939],[73.731,15.6146],[73.6841,15.7202],[73.6509,15.7384],[73.655,15.7734],[73.6238,15.8436],[73.5838,15.9077],[73.5041,15.94],[73.5097,15.9913],[73.4955,15.985],[73.4563,16.0581],[73.4839,16.0698],[73.4595,16.0759],[73.4705,16.113],[73.4608,16.0941],[73.4377,16.1936],[73.4522,16.2253],[73.428,16.2044],[73.4118,16.2564],[73.4119,16.2734],[73.4392,16.2897],[73.4061,16.2808],[73.3862,16.363],[73.3699,16.3641],[73.3717,16.3896],[73.3948,16.3901],[73.4084,16.4088],[73.3688,16.3999],[73.3586,16.4351],[73.3812,16.4487],[73.3485,16.4519],[73.3116,16.5403],[73.3372,16.5601],[73.3585,16.5193],[73.3494,16.5081],[73.3708,16.5129],[73.352,16.5379],[73.356,16.5666],[73.3167,16.5992],[73.3479,16.5967],[73.3593,16.6253],[73.3362,16.6211],[73.3218,16.6378],[73.3276,16.6797],[73.3429,16.6911],[73.3158,16.6968],[73.3005,16.7511],[73.3179,16.8014],[73.2954,16.8117],[73.2847,16.8776],[73.3048,16.8844],[73.276,16.8926],[73.2826,16.9486],[73.3057,16.9717],[73.2683,16.9866],[73.2792,17.0002],[73.2564,17.0211],[73.2575,17.0443],[73.2902,17.0061],[73.2813,17.0365],[73.3264,17.0286],[73.2797,17.0446],[73.2914,17.0704],[73.2688,17.1461],[73.2314,17.1954],[73.2439,17.2159],[73.1893,17.3016],[73.2207,17.3081],[73.2569,17.2599],[73.2657,17.2889],[73.297,17.2812],[73.2909,17.2948],[73.238,17.2903],[73.2066,17.3828],[73.1711,17.4039],[73.1979,17.4394],[73.1845,17.4957],[73.1424,17.5465],[73.1696,17.5888],[73.1475,17.6041],[73.1202,17.6824],[73.135,17.7114],[73.1285,17.7446],[73.056,17.9248],[73.0362,17.9399],[73.0418,17.9741],[73.0061,18.017],[73.0225,18.0197],[73.0444,18.04],[73.0247,18.0295],[73.0296,18.0465],[73.016,18.025],[72.9955,18.0527],[72.9721,18.1247],[72.9884,18.1524],[72.9804,18.1945],[72.9313,18.2186],[72.9422,18.2792],[72.9667,18.2715],[72.9802,18.24],[73.063,18.2177],[73.0702,18.1968],[73.0672,18.2708],[73.0525,18.2857],[73.0458,18.2672],[73.0234,18.2662],[72.9142,18.349],[72.9106,18.3676],[72.9275,18.3799],[72.8901,18.458],[72.9047,18.5384],[72.9213,18.5286],[72.9616,18.5423],[72.9202,18.5479],[72.884,18.6304],[72.898,18.631],[72.8664,18.644],[72.8563,18.6884],[72.8622,18.751],[72.8929,18.8014],[72.9142,18.7924],[72.9356,18.8241],[72.9886,18.7759],[72.999,18.7794],[72.9859,18.8052],[73.0578,18.8027],[72.9864,18.8137],[72.9821,18.8626],[72.9434,18.8454],[72.9245,18.8536],[72.9963,18.9719],[73.0258,18.9883],[73.0349,18.9775],[73.0357,18.9936],[73.0701,19.0037],[73.0908,18.9988],[73.0667,19.0143],[73.0847,19.0314],[73.0644,19.0292],[73.0908,19.0429],[73.0237,19.017],[72.3571,23.0694],[72.41,23.2484],[72.4658,23.267],[80.0736,28.8728],[80.1345,29.1014],[80.4696,29.0252],[81.993,27.974],[83.0594,27.6541],[83.3572,27.7123],[84.5886,27.6243],[85.1163,27.4924],[85.864,27.3604],[86.3038,27.1845],[86.8755,26.9207],[87.6671,26.8327],[89.0559,26.9073],[89.0935,26.889],[89.1116,26.8272],[89.1371,26.8104],[89.2651,26.8216],[89.3759,26.8601],[89.3962,26.8382],[89.4454,26.8385],[89.4658,26.8127],[89.5395,26.8151],[89.6364,26.7823],[89.6433,26.7607],[89.6251,26.7242],[89.6968,26.7384],[89.7808,26.7096],[89.8592,26.7076],[89.8559,26.7468],[89.9171,26.7286],[90.1702,26.7653],[90.1891,26.7763],[90.1904,26.825],[90.2224,26.8567],[90.3001,26.8542],[90.3678,26.9019],[90.4167,26.9035],[90.5373,26.821],[90.6969,26.7717],[91.0452,26.7869],[91.3693,26.8353]]]]}}