{"type":"Feature","properties":{"speciesId":716,"category":"LC","source":"IUCN Red List","simplifyTol":0.01,"clippedToSubcontinent":true},"geometry":{"type":"Polygon","coordinates":[[[88.7266,24.7919],[89.8419,25.0048],[90.035,25.0603],[90.3749,25.1875],[90.5583,25.2791],[90.6976,25.3773],[91.0146,25.7369],[91.3091,26.0231],[91.4697,26.1476],[91.6115,26.2172],[91.785,26.2573],[91.8733,26.2398],[91.9557,26.1863],[91.9989,26.1023],[92.0093,25.9824],[91.955,25.5887],[91.9449,25.1738],[91.8598,24.4079],[91.8549,24.1712],[91.8746,23.965],[91.9139,23.7978],[91.9768,23.6347],[92.3528,22.9583],[92.5639,22.4513],[92.6469,22.1633],[92.6811,21.8012],[92.679,21.6],[92.6344,21.4893],[92.5693,21.4598],[92.3966,21.4931],[92.3294,21.481],[92.2324,21.3939],[92.1581,21.2547],[92.1607,21.1747],[92.2508,21.0331],[92.2607,20.9374],[92.3124,20.8487],[92.3378,20.7454],[92.3029,20.7546],[92.2632,20.8512],[92.2119,20.9248],[92.1843,21.0146],[92.0479,21.1751],[92.0494,21.2666],[92.0303,21.3362],[91.9527,21.4537],[91.9985,21.5051],[92.0224,21.4868],[91.9953,21.5584],[92.0389,21.6475],[92.0395,21.6758],[92.025,21.6824],[92.0352,21.7004],[92.0175,21.7161],[92.0183,21.6659],[91.9832,21.6551],[91.9827,21.7025],[91.9654,21.6788],[91.9452,21.7368],[91.9528,21.7503],[91.9731,21.7395],[91.9937,21.7668],[91.9725,21.7474],[91.9558,21.7526],[91.954,21.774],[91.9706,21.7865],[91.9429,21.8044],[91.92,21.7787],[91.8907,21.778],[91.9198,21.847],[91.9124,21.9271],[91.9274,21.9346],[91.8934,21.9718],[91.8554,22.1263],[91.8488,22.1348],[91.8378,22.1162],[91.8116,22.1875],[91.8337,22.2113],[91.8421,22.2589],[91.8144,22.3042],[91.8677,22.3233],[91.9011,22.401],[91.9397,22.4163],[92.0022,22.4047],[92.0224,22.4171],[92.0369,22.4469],[92.0804,22.4368],[92.1339,22.4559],[92.1442,22.47],[92.0892,22.4446],[92.0331,22.4505],[92.0017,22.4121],[91.9456,22.4214],[91.8982,22.4109],[91.8574,22.3311],[91.7959,22.2934],[91.7967,22.2755],[91.8291,22.2551],[91.7979,22.2196],[91.7795,22.2396],[91.7479,22.3992],[91.7,22.4842],[91.6276,22.5716],[91.5931,22.6421],[91.5289,22.7038],[91.4587,22.7449],[91.4851,22.7611],[91.4841,22.7692],[91.4695,22.7789],[91.4777,22.763],[91.4571,22.7598],[91.438,22.7739],[91.4409,22.7973],[91.4742,22.8258],[91.4354,22.8084],[91.4705,22.8391],[91.4836,22.8738],[91.4565,22.8986],[91.4913,22.9015],[91.461,22.9078],[91.4424,22.8968],[91.4412,22.8834],[91.4666,22.8742],[91.4209,22.81],[91.4076,22.7608],[91.3324,22.8254],[91.3505,22.8505],[91.3424,22.8833],[91.3158,22.8392],[91.3518,22.7903],[91.345,22.7758],[91.296,22.8102],[91.1877,22.7976],[91.1193,22.8099],[91.1102,22.8273],[91.0943,22.8031],[91.0265,22.7999],[90.9416,22.8551],[90.8253,22.8642],[90.7667,22.9411],[90.7539,22.9322],[90.7923,22.9048],[90.7968,22.8653],[90.7805,22.8587],[90.7373,22.8833],[90.6904,22.9772],[90.6266,23.0007],[90.5662,23.1057],[90.5915,23.1679],[90.6526,23.243],[90.6389,23.3166],[90.6753,23.3166],[90.6743,23.3395],[90.6978,23.3458],[90.6795,23.3632],[90.695,23.3777],[90.6734,23.3643],[90.6614,23.3372],[90.6737,23.3213],[90.6147,23.3246],[90.5794,23.3965],[90.6001,23.4216],[90.5915,23.4747],[90.6264,23.4899],[90.7003,23.4879],[90.7174,23.5424],[90.7446,23.5446],[90.7068,23.5433],[90.7079,23.5745],[90.7323,23.5916],[90.7397,23.6223],[90.7655,23.6328],[90.7412,23.6632],[90.7596,23.7181],[90.7424,23.6938],[90.7408,23.7237],[90.7311,23.7103],[90.7203,23.7406],[90.6817,23.6866],[90.6401,23.6875],[90.6307,23.6365],[90.5636,23.5935],[90.554,23.5719],[90.515,23.5812],[90.5049,23.6034],[90.4843,23.5865],[90.4537,23.6151],[90.4701,23.6316],[90.4386,23.6735],[90.3689,23.7187],[90.384,23.7026],[90.366,23.7033],[90.3447,23.7391],[90.3179,23.7348],[90.3119,23.7651],[90.2554,23.7294],[90.2572,23.7754],[90.2306,23.8875],[90.2388,23.8266],[90.2032,23.8413],[90.1543,23.828],[90.1128,23.8738],[90.1103,23.8573],[90.0548,23.8207],[90.046,23.8296],[90.0629,23.8764],[90.0457,23.8897],[90.026,23.8818],[90.0228,23.9071],[89.9531,23.9623],[89.9518,23.9857],[89.9329,23.985],[89.9496,23.9615],[89.9381,23.9549],[90.0186,23.8947],[90.013,23.8782],[90.0538,23.8747],[90.0409,23.8277],[90.0475,23.8169],[90.0905,23.8299],[90.1248,23.8071],[90.1818,23.8021],[90.2059,23.8158],[90.2207,23.8002],[90.2414,23.8151],[90.2061,23.7517],[90.2185,23.7236],[90.2541,23.72],[90.2747,23.6864],[90.2539,23.7084],[90.2206,23.7082],[90.1825,23.7401],[90.1918,23.7194],[90.1681,23.7215],[90.1475,23.7108],[90.1235,23.7365],[90.0698,23.7579],[90.023,23.7636],[90.0241,23.7979],[90.0022,23.8161],[90.0193,23.7628],[90.1205,23.7334],[90.1451,23.7046],[90.1722,23.7165],[90.2211,23.703],[90.2483,23.7073],[90.2761,23.6547],[90.2919,23.659],[90.3975,23.6023],[90.3994,23.5775],[90.38,23.5673],[90.41,23.5802],[90.4486,23.5418],[90.504,23.5719],[90.5372,23.5618],[90.5701,23.4823],[90.537,23.482],[90.5543,23.4281],[90.5271,23.3907],[90.4863,23.4206],[90.4209,23.416],[90.2819,23.4471],[90.1575,23.5302],[90.1084,23.6143],[89.9669,23.6604],[89.9208,23.7195],[89.8549,23.7507],[89.7914,23.8079],[89.7749,23.899],[89.768,23.8875],[89.7045,23.956],[89.7271,23.9755],[89.7215,23.9999],[89.7142,23.9698],[89.6986,23.9645],[89.7055,23.9987],[89.6717,24.0012],[89.6556,23.934],[89.6994,23.8776],[89.7508,23.8661],[89.7719,23.8366],[89.7573,23.8474],[89.7233,23.8346],[89.6825,23.8639],[89.6828,23.8495],[89.7174,23.8311],[89.6269,23.8456],[89.5503,23.8241],[89.4497,23.8706],[89.3922,23.9399],[89.3282,23.9489],[89.2812,23.9874],[89.3156,23.9473],[89.1601,24.0059],[89.0605,23.9858],[89.0961,23.9642],[89.1254,23.9184],[89.1255,23.9544],[89.1658,23.9263],[89.2308,23.921],[89.3009,23.8703],[89.4091,23.8972],[89.4459,23.8246],[89.5025,23.7776],[89.5359,23.7952],[89.5971,23.7975],[89.6397,23.7768],[89.7118,23.7737],[89.8616,23.6574],[89.9469,23.6368],[90.0257,23.5559],[90.0181,23.5824],[90.0821,23.5733],[90.1274,23.5434],[90.1588,23.4856],[90.1563,23.4269],[90.2071,23.3348],[90.1684,23.3476],[90.1638,23.3638],[90.1866,23.3599],[90.1614,23.368],[90.1684,23.3354],[90.125,23.3055],[90.1203,23.3352],[90.1446,23.3643],[90.1449,23.3779],[90.1267,23.3505],[90.0998,23.3596],[90.1209,23.3472],[90.1142,23.3259],[90.1195,23.306],[90.0943,23.3017],[90.0853,23.2759],[90.1232,23.2698],[90.1265,23.2425],[90.2019,23.2261],[90.1984,23.2094],[90.1668,23.2018],[90.1744,23.1684],[90.2213,23.1822],[90.2484,23.1625],[90.2337,23.1422],[90.242,23.1257],[90.3144,23.1065],[90.3187,23.0697],[90.2677,23.0426],[90.2728,23.0252],[90.3101,23.0183],[90.3209,22.9872],[90.2739,22.9684],[90.3547,22.9189],[90.3485,22.8877],[90.3181,22.8633],[90.3641,22.7893],[90.3681,22.7368],[90.42,22.7323],[90.4175,22.714],[90.396,22.7289],[90.3837,22.7048],[90.4002,22.7233],[90.4201,22.7084],[90.4298,22.7284],[90.4187,22.7455],[90.3769,22.7405],[90.3841,22.7595],[90.4284,22.7647],[90.4677,22.7366],[90.4851,22.6987],[90.4768,22.6561],[90.4979,22.6716],[90.5192,22.6318],[90.5048,22.586],[90.5233,22.5968],[90.5783,22.5298],[90.6129,22.3093],[90.5921,22.2582],[90.549,22.2232],[90.4069,22.2451],[90.4165,22.2647],[90.4036,22.2843],[90.4191,22.2895],[90.3788,22.2938],[90.4148,22.3388],[90.364,22.2945],[90.4057,22.2713],[90.4019,22.2462],[90.2104,22.2956],[90.2271,22.338],[90.2736,22.3376],[90.2911,22.3519],[90.2967,22.3721],[90.2658,22.3665],[90.2813,22.4078],[90.3159,22.4662],[90.3413,22.4589],[90.3617,22.4906],[90.3405,22.4664],[90.3219,22.4784],[90.31,22.469],[90.2587,22.3756],[90.2556,22.3454],[90.2209,22.341],[90.1989,22.2964],[90.1064,22.3196],[90.1022,22.3438],[90.1772,22.4229],[90.207,22.5038],[90.1869,22.5248],[90.203,22.5698],[90.1854,22.625],[90.2533,22.6214],[90.2849,22.6314],[90.2941,22.6556],[90.2505,22.6282],[90.1801,22.6265],[90.1974,22.5693],[90.1817,22.5257],[90.1995,22.5075],[90.1949,22.483],[90.1725,22.4559],[90.1706,22.4245],[90.0939,22.3475],[90.0997,22.3208],[89.9106,22.3492],[89.9852,22.4396],[89.9992,22.4862],[90.0252,22.4904],[90.0297,22.5646],[90.0657,22.6096],[90.0563,22.6225],[90.0254,22.6002],[90.0335,22.6497],[90.0058,22.6801],[90.0278,22.6503],[90.013,22.6005],[90.0307,22.5813],[90.0183,22.4953],[89.9547,22.5058],[89.9855,22.4868],[89.9866,22.4645],[89.9078,22.387],[89.886,22.3999],[89.8818,22.4297],[89.8789,22.3993],[89.8985,22.376],[89.8916,22.3496],[89.6426,22.3431],[88.841,22.2765],[88.3289,22.1366],[88.2177,22.135],[88.2055,22.1743],[88.1773,22.1956],[88.0856,22.2093],[88.0776,22.223],[88.0324,22.2151],[87.9335,22.2978],[87.8688,22.3944],[87.7405,22.7579],[87.7,23.034],[87.735,23.8893],[87.7196,24.1132],[87.6773,24.3017],[87.6941,24.475],[87.6851,24.7806],[87.6954,24.8991],[87.7349,25.0697],[87.8442,25.3897],[87.9709,25.6603],[88.1344,25.941],[88.4331,26.3989],[88.6572,26.8057],[88.7411,26.8967],[88.8336,26.9536],[89.0345,27.0156],[89.1796,27.0241],[89.2326,26.9922],[89.2557,26.914],[89.2287,26.5158],[89.1712,26.3187],[88.9801,25.8331],[88.8128,25.1933],[88.7408,25.0277],[88.6567,24.906],[88.6758,24.8321],[88.7266,24.7919]]]}}