{"type":"Feature","properties":{"speciesId":718,"category":"LC","source":"IUCN Red List","simplifyTol":0.01,"clippedToSubcontinent":true},"geometry":{"type":"MultiPolygon","coordinates":[[[[90.6762,25.1606],[90.7708,25.1804],[90.8389,25.1533],[90.9661,25.1653],[90.9798,25.1001],[90.961,24.9827],[90.9801,24.9101],[91.0621,24.8957],[91.148,24.8286],[91.1681,24.7949],[91.1424,24.7214],[91.2172,24.7149],[91.2704,24.6412],[91.3364,24.5883],[91.4664,24.5343],[91.8117,24.4644],[91.9814,24.4055],[92.0242,24.3409],[92.0536,24.239],[92.1158,23.6939],[92.144,23.7265],[92.1777,23.7321],[92.2114,23.6963],[92.2129,23.6503],[92.2464,23.7211],[92.2899,23.6943],[92.2732,23.6265],[92.3021,23.5803],[92.3274,23.4231],[92.3405,23.4249],[92.3766,23.3484],[92.3669,23.3232],[92.3859,23.2763],[92.3484,23.2343],[92.3583,23.1037],[92.3886,23.0458],[92.3722,22.9404],[92.4438,22.8833],[92.4746,22.7451],[92.5163,22.7162],[92.5364,22.5844],[92.5253,22.5539],[92.5456,22.5169],[92.5768,22.2712],[92.609,22.1641],[92.6039,22.1259],[92.5644,22.1293],[92.5963,22.0583],[92.6267,21.8846],[92.6026,21.6593],[92.6281,21.4487],[92.6737,21.2913],[92.6142,21.2421],[92.5936,21.2452],[92.5546,21.3763],[92.4946,21.3496],[92.4384,21.3632],[92.4238,21.3792],[92.4222,21.4276],[92.3804,21.4734],[92.3416,21.4544],[92.3105,21.4129],[92.27,21.4231],[92.2559,21.358],[92.1986,21.323],[92.2184,21.2543],[92.1893,21.1765],[92.1976,21.1198],[92.255,21.0615],[92.2695,20.9134],[92.2123,20.9243],[92.1847,21.0139],[92.0533,21.1632],[92.0496,21.2642],[92.0289,21.3402],[91.9535,21.4502],[91.9993,21.5054],[92.0221,21.4864],[91.9954,21.5518],[92.0389,21.6476],[92.0405,21.6722],[92.0251,21.6822],[92.0352,21.7006],[92.0181,21.7165],[92.0192,21.6685],[91.9818,21.656],[91.9796,21.7042],[91.9667,21.6781],[91.9481,21.7453],[91.9764,21.7418],[91.9924,21.7678],[91.9716,21.7472],[91.9545,21.7539],[91.9706,21.7862],[91.9424,21.8042],[91.9308,21.7855],[91.8912,21.7773],[91.9199,21.8473],[91.9095,21.9079],[91.9274,21.9345],[91.8949,21.9689],[91.8548,22.1276],[91.8345,22.1221],[91.8118,22.1905],[91.8351,22.2151],[91.842,22.2605],[91.8147,22.3049],[91.8666,22.3221],[91.9008,22.4007],[91.952,22.4152],[91.8923,22.4049],[91.8723,22.3498],[91.7955,22.2927],[91.8276,22.2469],[91.798,22.2196],[91.7856,22.2294],[91.7421,22.4091],[91.5993,22.6328],[91.5351,22.6975],[91.4931,22.7938],[91.4959,22.8404],[91.5486,22.8829],[91.5518,22.9919],[91.5753,22.9632],[91.6045,22.9674],[91.6158,22.9347],[91.6226,22.9626],[91.6035,23.0279],[91.4416,23.308],[91.4056,23.4162],[91.421,23.5096],[91.5289,23.7349],[91.535,23.792],[91.52,23.8475],[91.3978,24.0419],[91.3692,24.1887],[91.3232,24.264],[91.2193,24.3431],[90.9294,24.4841],[90.8176,24.5567],[90.6069,24.7711],[90.4895,24.9651],[90.4937,25.0187],[90.5835,25.025],[90.6075,25.0399],[90.6208,25.1674],[90.649,25.1859],[90.6762,25.1606]]],[[[97.6265,24.7713],[97.5545,24.7413],[97.574,24.7065],[97.571,24.6104],[97.4158,24.1605],[97.1186,24.7279],[97.4158,25.552],[97.8211,25.3358],[97.6265,24.7713]]],[[[93.4461,25.9987],[92.3226,26.1859],[91.7816,26.1651],[91.636,26.394],[91.74,26.6437],[91.9273,26.7685],[93.2589,27.3303],[94.0911,27.7464],[94.3824,27.7048],[94.4864,27.6008],[94.6529,27.2263],[94.7409,26.8036],[94.7467,26.7177],[94.7285,26.6136],[94.6686,26.5407],[94.3303,26.4315],[94.1612,26.3586],[93.9088,26.1374],[93.6237,25.9987],[93.4461,25.9987]]],[[[85.6785,27.3167],[85.9946,27.2535],[86.3361,27.0828],[86.5953,26.9943],[86.8672,26.9373],[87.1328,26.8931],[87.5122,26.8741],[87.9612,26.8868],[88.0434,26.8488],[88.1066,26.7856],[88.1256,26.6971],[88.1256,26.5959],[88.1066,26.5263],[88.0497,26.4568],[88.0054,26.4441],[87.8284,26.4568],[87.4869,26.4252],[87.3604,26.4252],[87.1518,26.4947],[87.1012,26.539],[86.9747,26.5453],[86.7977,26.501],[86.5953,26.4947],[86.4372,26.5453],[85.8934,26.6591],[85.6229,26.7581],[85.3856,26.8268],[85.2526,26.8449],[85.035,26.9182],[84.8976,27.0006],[84.6937,27.0739],[84.6914,27.2778],[84.6709,27.3234],[84.3121,27.4759],[84.0417,27.5592],[83.896,27.684],[83.9168,27.8088],[84.1873,27.8712],[84.7075,27.684],[85.6466,27.3083],[85.6785,27.3167]]]]}}