{"type":"Feature","properties":{"speciesId":719,"category":"LC","source":"IUCN Red List","simplifyTol":0.01,"clippedToSubcontinent":true},"geometry":{"type":"MultiPolygon","coordinates":[[[[97.62,18.1858],[97.4951,18.219],[97.3843,18.3195],[97.311,18.4714],[97.2867,18.6425],[97.311,18.8136],[97.3843,18.9655],[97.4951,19.066],[97.62,19.0993],[97.7448,19.066],[97.8556,18.9655],[97.9267,18.821],[97.9532,18.6425],[97.929,18.4714],[97.8556,18.3195],[97.7448,18.219],[97.62,18.1858]]],[[[97.9995,24.1048],[97.7309,23.9249],[97.6802,23.9029],[97.6513,23.9072],[97.6508,23.9616],[97.7705,24.225],[97.7917,24.3351],[97.7566,24.3804],[97.5895,24.4255],[97.5665,24.4579],[97.5589,24.5071],[97.5833,24.6375],[97.6735,24.8883],[97.9413,25.2835],[98.0,25.4321],[97.9995,24.1048]]],[[[97.9999,25.5487],[97.9681,25.6241],[97.9093,25.6897],[97.8236,25.7454],[97.7122,25.7906],[97.4094,25.8506],[97.0063,25.868],[96.4611,25.8367],[95.8442,25.7543],[95.235,25.6322],[94.6753,25.4784],[94.6121,25.4887],[94.4987,25.5513],[94.3083,25.5956],[94.1419,25.5134],[93.9155,25.5217],[93.8447,25.5089],[93.7774,25.4639],[93.7144,25.3864],[93.5317,25.0267],[93.1806,24.4884],[93.0901,24.293],[92.9049,23.7861],[92.8381,23.6448],[92.5895,23.3026],[92.5346,23.2714],[92.4427,23.3057],[92.3755,23.3757],[92.324,23.7282],[92.323,23.9765],[92.3499,24.2776],[92.4309,24.6888],[92.4858,24.8815],[92.4736,24.9463],[92.4213,25.0103],[92.1872,25.1578],[91.929,25.2188],[91.5856,25.2457],[91.1472,25.2223],[90.6231,25.2199],[90.1532,25.2815],[90.0765,25.3111],[90.0233,25.3663],[89.9766,25.4595],[89.9621,25.5541],[89.9767,25.6346],[90.0321,25.7163],[90.1276,25.8059],[90.2344,25.858],[90.637,25.9432],[91.2921,25.9881],[91.6129,26.0535],[91.9442,26.1553],[92.7136,26.4536],[92.9862,26.5038],[93.2333,26.6523],[93.3872,26.7109],[93.9421,26.8017],[94.6442,26.9794],[95.0291,27.034],[95.5238,27.0687],[96.196,27.192],[97.1707,27.4437],[97.6257,27.5873],[98.0,27.7248],[97.9999,25.5487]]]]}}