{"type":"Feature","properties":{"speciesId":72,"category":"LC","source":"IUCN Red List","simplifyTol":0.01,"clippedToSubcontinent":true},"geometry":{"type":"MultiPolygon","coordinates":[[[[72.7286,19.4696],[72.7383,19.4681],[72.7327,19.4608],[72.7286,19.4696]]],[[[72.8415,20.8054],[72.8256,20.811],[72.8256,20.8206],[72.8415,20.8054]]],[[[72.7849,20.9214],[72.8007,20.881],[72.7824,20.9205],[72.7849,20.9214]]],[[[72.8144,20.9178],[72.817,20.91],[72.807,20.9073],[72.8144,20.9178]]],[[[72.7751,20.9933],[72.7723,20.9793],[72.7658,20.9849],[72.7751,20.9933]]],[[[72.6836,21.0665],[72.6852,21.0536],[72.6751,21.0652],[72.6836,21.0665]]],[[[72.67,21.0788],[72.6506,21.0508],[72.6465,21.0546],[72.67,21.0788]]],[[[72.6814,21.1409],[72.6983,21.1384],[72.6831,21.1081],[72.6731,21.1247],[72.6814,21.1409]]],[[[72.6278,21.2829],[72.6391,21.2741],[72.6346,21.2663],[72.6202,21.2709],[72.6278,21.2829]]],[[[72.6284,21.3343],[72.6204,21.3316],[72.6267,21.3382],[72.6284,21.3343]]],[[[72.6387,21.6287],[72.807,21.6431],[72.7991,21.6238],[72.6902,21.5999],[72.6692,21.5706],[72.6228,21.5682],[72.6295,21.5877],[72.6119,21.6056],[72.6372,21.6122],[72.6387,21.6287]]],[[[72.5892,21.7521],[72.5944,21.7488],[72.5898,21.7446],[72.5892,21.7521]]],[[[72.3604,22.1838],[72.3515,22.1744],[72.3581,22.1888],[72.3604,22.1838]]],[[[72.4321,22.1981],[72.4713,22.2145],[72.4785,22.2097],[72.4323,22.1795],[72.4321,22.1981]]],[[[72.4992,22.2229],[72.5175,22.2305],[72.5105,22.2179],[72.4992,22.2229]]],[[[72.7238,22.2189],[72.6691,22.2351],[72.6615,22.2445],[72.7191,22.2376],[72.7238,22.2189]]],[[[74.2488,14.7011],[74.2465,14.6994],[74.246,14.702],[74.2488,14.7011]]],[[[74.2345,14.7079],[74.2316,14.7096],[74.2353,14.7098],[74.2345,14.7079]]],[[[73.779,15.4919],[73.78,15.49],[73.7797,15.49],[73.779,15.4919]]],[[[72.8519,18.7925],[72.8448,18.7934],[72.8501,18.7971],[72.8519,18.7925]]],[[[72.9389,18.9654],[72.9321,18.9527],[72.9234,18.9567],[72.9276,18.967],[72.9389,18.9654]]],[[[73.0493,19.0066],[73.0594,19.0065],[73.0544,19.0031],[73.0493,19.0066]]],[[[72.8387,19.3333],[72.8516,19.3378],[72.8684,19.3295],[72.8387,19.3333]]],[[[72.8807,20.6811],[72.89,20.6884],[72.8912,20.6843],[72.8807,20.6811]]],[[[72.877,20.7253],[72.8737,20.6908],[72.8667,20.7131],[72.8576,20.706],[72.8726,20.6676],[72.8785,20.6761],[72.8779,20.6457],[72.8474,20.7183],[72.8454,20.7442],[72.855,20.7205],[72.877,20.7253]]],[[[72.8752,20.7521],[72.8613,20.7556],[72.8767,20.754],[72.8752,20.7521]]],[[[72.8711,20.7696],[72.8696,20.7604],[72.8648,20.7678],[72.8711,20.7696]]],[[[72.9366,20.7718],[72.9309,20.7624],[72.9297,20.7693],[72.9366,20.7718]]],[[[72.856,20.7635],[72.8404,20.7752],[72.8406,20.7799],[72.856,20.7635]]],[[[72.8436,20.7883],[72.8407,20.7969],[72.8444,20.7987],[72.8436,20.7883]]],[[[72.8453,21.0424],[72.8379,21.0374],[72.8357,21.0425],[72.8453,21.0424]]],[[[72.8784,21.6802],[72.8759,21.6719],[72.8578,21.6764],[72.8784,21.6802]]],[[[81.2004,8.6826],[81.2267,8.6475],[81.2208,8.6062],[81.2298,8.581],[81.2451,8.5793],[81.2471,8.5458],[81.2257,8.5323],[81.2261,8.5695],[81.1927,8.5665],[81.2119,8.5077],[81.1896,8.5018],[81.1977,8.4615],[81.2624,8.4569],[81.304,8.4326],[81.304,8.4583],[81.2958,8.4465],[81.2809,8.4568],[81.2831,8.5032],[81.3222,8.5224],[81.353,8.4909],[81.3937,8.3567],[81.4078,8.2419],[81.4769,8.0343],[81.5686,7.9227],[81.5874,7.921],[81.5671,7.8981],[81.593,7.83],[81.6268,7.8247],[81.6544,7.7729],[81.7131,7.7397],[81.7932,7.5985],[81.8252,7.4366],[81.8722,7.3074],[81.8586,7.0907],[81.8813,7.0267],[81.8704,6.9789],[81.8489,6.9896],[81.8578,6.9672],[81.8729,6.9669],[81.8364,6.8853],[81.8518,6.8884],[81.8483,6.8675],[81.8397,6.8542],[81.8211,6.8621],[81.8444,6.8344],[81.8233,6.8088],[81.8249,6.7653],[81.8084,6.7647],[81.8279,6.7586],[81.7759,6.6639],[81.7664,6.592],[81.7324,6.5669],[81.7003,6.482],[81.6518,6.4367],[81.5973,6.4241],[81.6135,6.4056],[81.56,6.3612],[81.522,6.3525],[81.4869,6.3055],[81.3285,6.1945],[81.2222,6.1589],[81.1946,6.1576],[81.197,6.1776],[81.178,6.1441],[81.1336,6.1174],[81.0167,6.1071],[80.8659,6.0408],[80.8255,6.0415],[80.7202,5.9607],[80.6641,5.9575],[80.5868,5.9168],[80.5532,5.9411],[80.4489,5.9431],[80.4522,5.9588],[80.4357,5.969],[80.4179,5.955],[80.3828,5.9595],[80.2442,6.0069],[80.2322,6.0339],[80.2186,6.022],[80.1941,6.0407],[80.3307,6.1501],[80.3878,6.2858],[80.5769,6.3903],[80.5805,6.5856],[80.4594,6.9875],[80.4514,7.2389],[80.5167,7.4181],[80.3508,7.6242],[80.2311,7.7344],[79.9414,7.6778],[79.7917,7.591],[79.8062,7.6517],[79.7977,7.7275],[79.7513,7.9316],[79.7064,8.0445],[79.6984,8.2138],[79.7179,8.2167],[79.7381,8.28],[79.7812,8.3497],[79.7563,8.3071],[79.7511,8.2617],[79.7655,8.2739],[79.7573,8.2571],[79.7766,8.2541],[79.7688,8.2156],[79.7404,8.2008],[79.7492,8.1829],[79.7316,8.0868],[79.7541,8.0582],[79.7426,8.0],[79.8186,7.9719],[79.8082,7.8839],[79.8265,7.9206],[79.834,8.0071],[79.7896,8.0682],[79.8086,8.0611],[79.7948,8.0793],[79.8338,8.1396],[79.8154,8.2037],[79.7946,8.2203],[79.8095,8.2174],[79.7897,8.2301],[79.8101,8.2374],[79.8342,8.2919],[79.8476,8.2742],[79.8584,8.2846],[79.8351,8.317],[79.8656,8.5037],[80.1594,8.4737],[80.4592,8.5022],[80.9522,8.5203],[81.2004,8.6826]]],[[[75.5954,11.5406],[75.5856,11.5592],[75.5867,11.5604],[75.5905,11.5539],[75.5954,11.5406]]],[[[74.7213,13.222],[74.7182,13.2214],[74.7188,13.2231],[74.7213,13.222]]],[[[74.7261,13.2235],[74.7246,13.2251],[74.7253,13.2255],[74.7261,13.2235]]],[[[74.7132,13.2372],[74.7113,13.2353],[74.7113,13.2373],[74.7132,13.2372]]],[[[74.6953,13.2789],[74.6924,13.2757],[74.6928,13.2788],[74.6953,13.2789]]],[[[74.6916,13.281],[74.693,13.2828],[74.6929,13.2805],[74.6916,13.281]]],[[[74.6866,13.3263],[74.685,13.3266],[74.6858,13.3272],[74.6866,13.3263]]],[[[74.6771,13.3389],[74.6783,13.3402],[74.6796,13.3374],[74.6771,13.3389]]],[[[74.6725,13.3593],[74.6735,13.361],[74.6735,13.3595],[74.6725,13.3593]]],[[[74.6668,13.3763],[74.6665,13.373],[74.6647,13.3747],[74.6668,13.3763]]],[[[74.4786,14.0948],[74.4782,14.0956],[74.4786,14.0953],[74.4786,14.0948]]],[[[74.394,14.3131],[74.3981,14.3085],[74.392,14.3103],[74.394,14.3131]]],[[[85.3532,19.5813],[85.1224,19.4198],[85.0869,19.3687],[85.0017,19.3233],[84.8699,19.2139],[84.8096,19.1478],[84.8041,19.1159],[84.7228,19.0008],[84.1666,18.3787],[84.1341,18.325],[83.9479,18.2171],[83.9344,18.2254],[83.9426,18.2141],[83.8771,18.1769],[83.8113,18.1604],[83.6734,18.085],[83.5755,18.0095],[83.5411,17.9497],[83.4723,17.8985],[83.4679,17.9212],[83.4438,17.934],[83.449,17.9081],[83.4672,17.8865],[83.4135,17.8402],[83.4172,17.8083],[83.3542,17.7525],[83.3507,17.7279],[83.2944,17.6912],[83.3009,17.6774],[83.2456,17.6371],[83.2152,17.5903],[83.0229,17.5088],[82.9939,17.4732],[82.8843,17.4241],[82.8832,17.4381],[82.8655,17.4155],[82.6724,17.3253],[82.4936,17.2121],[82.3943,17.1188],[82.2584,17.0473],[82.2041,16.9114],[82.3657,16.7767],[82.1584,16.4972],[81.9554,16.3972],[81.8801,16.3831],[81.7078,16.311],[81.7028,16.3267],[81.5724,16.3552],[81.4751,16.3564],[81.3885,16.3949],[81.2798,16.3405],[81.2018,16.179],[81.1439,16.0143],[80.9536,15.7969],[80.995,15.7969],[81.0098,15.7715],[80.9388,15.7079],[80.9025,15.7161],[80.7633,15.8784],[80.3556,15.8512],[80.0022,15.1716],[80.1753,14.4543],[80.1702,14.3555],[80.0837,14.2474],[80.2465,13.7592],[80.2315,13.6859],[80.2578,13.5795],[80.2468,13.5134],[80.3451,13.2922],[80.2956,13.1211],[80.3049,13.0927],[80.2609,13.0127],[80.2741,13.0056],[80.2429,12.8158],[80.2476,12.7533],[80.1758,12.5813],[80.1868,12.5753],[80.1569,12.4775],[80.1353,12.4587],[80.1454,12.4454],[80.0463,12.3104],[80.067,12.3502],[80.0576,12.351],[79.941,12.1438],[79.8391,12.0183],[79.7303,11.7193],[79.7847,11.4203],[79.8641,10.2822],[79.7578,10.2712],[79.3498,10.3329],[79.2138,10.1426],[79.241,10.0611],[78.9692,9.7077],[78.9195,9.4929],[78.9033,9.4879],[78.9148,9.4086],[79.0507,9.2999],[78.8061,9.2727],[78.5886,9.164],[78.4198,9.1097],[78.3168,9.0553],[78.1937,8.9249],[78.0993,8.5931],[77.98,8.3307],[77.8752,8.2592],[77.8041,8.2336],[77.7843,8.1993],[77.721,8.1658],[77.5938,8.1399],[77.5609,8.1154],[77.5635,8.0834],[77.5446,8.0724],[77.4898,8.0786],[77.3183,8.1173],[77.0133,8.3543],[76.6206,8.8431],[76.5609,8.8809],[76.4617,9.1312],[76.497,9.067],[76.4753,9.1197],[76.4848,9.1159],[76.4921,9.1672],[76.4748,9.1621],[76.4709,9.1412],[76.4405,9.2326],[76.4196,9.2432],[76.4551,9.1423],[76.3794,9.3091],[76.2446,9.9545],[76.2184,9.9982],[76.1029,10.3754],[76.0478,10.4918],[76.0639,10.4735],[76.0463,10.5317],[76.0266,10.5323],[75.9113,10.799],[75.9104,10.7838],[75.8326,11.1235],[75.8054,11.1508],[75.7296,11.3316],[75.7333,11.354],[75.6782,11.4458],[75.6379,11.4604],[75.5973,11.537],[75.5912,11.562],[75.6041,11.561],[75.5822,11.5708],[75.5294,11.6966],[75.5386,11.7048],[75.4917,11.7339],[75.4716,11.769],[75.451,11.7697],[75.1523,12.1087],[75.0648,12.3407],[75.0296,12.3922],[75.0386,12.4111],[75.0229,12.3997],[75.0063,12.4371],[75.0154,12.4444],[74.9979,12.4456],[74.983,12.475],[74.8249,12.8316],[74.776,13.0949],[74.7699,13.0782],[74.6921,13.3488],[74.6657,13.6381],[74.6428,13.6709],[74.6058,13.8523],[74.6169,13.8576],[74.4868,14.0784],[74.464,14.1872],[74.4147,14.2874],[74.3953,14.4186],[74.3765,14.4165],[74.3538,14.5117],[74.3052,14.5196],[74.2912,14.5931],[74.2635,14.6245],[74.2946,14.6402],[74.2751,14.6467],[74.2756,14.6779],[74.2537,14.7068],[74.2633,14.7094],[74.2647,14.7201],[74.2582,14.7122],[74.2215,14.7472],[74.1985,14.7308],[74.2036,14.7172],[74.1902,14.7233],[74.0301,14.9816],[74.0476,14.9848],[74.009,15.015],[73.9341,15.1336],[73.9458,15.1408],[73.8821,15.3452],[73.862,15.3694],[73.8404,15.3604],[73.8191,15.3716],[73.8075,15.4066],[73.8757,15.3984],[73.8899,15.4192],[73.8764,15.4337],[73.8584,15.4258],[73.845,15.4491],[73.7921,15.4527],[73.8177,15.5046],[73.7786,15.4933],[73.6955,15.7425],[73.4576,16.1186],[73.4377,16.1936],[73.4522,16.2253],[73.428,16.2044],[73.4118,16.2564],[73.4119,16.2734],[73.4392,16.2897],[73.4061,16.2808],[73.3862,16.363],[73.3699,16.3641],[73.3717,16.3896],[73.3948,16.3901],[73.4084,16.4088],[73.3688,16.3999],[73.3586,16.4351],[73.3812,16.4487],[73.3546,16.4454],[73.3161,16.5164],[73.3147,16.5501],[73.3372,16.5601],[73.3585,16.5193],[73.3494,16.5081],[73.3708,16.5129],[73.352,16.5379],[73.356,16.5666],[73.3167,16.5992],[73.3479,16.5967],[73.3593,16.6253],[73.3362,16.6211],[73.3218,16.6378],[73.3276,16.6797],[73.3429,16.6911],[73.3158,16.6968],[73.3005,16.7511],[73.3179,16.8014],[73.2954,16.8117],[73.2847,16.8776],[73.3048,16.8844],[73.276,16.8926],[73.2826,16.9486],[73.3057,16.9717],[73.2683,16.9866],[73.2792,17.0002],[73.2564,17.0211],[73.2575,17.0443],[73.2902,17.0061],[73.2813,17.0365],[73.3264,17.0286],[73.2797,17.0446],[73.2914,17.0704],[73.2688,17.1461],[73.2314,17.1954],[73.2439,17.2159],[73.1893,17.3016],[73.2207,17.3081],[73.2569,17.2599],[73.2657,17.2889],[73.297,17.2812],[73.2909,17.2948],[73.238,17.2903],[73.2066,17.3828],[73.1711,17.4039],[73.1979,17.4394],[73.1845,17.4957],[73.1424,17.5465],[73.1696,17.5888],[73.1475,17.6041],[73.1202,17.6824],[73.135,17.7114],[73.1285,17.7446],[73.056,17.9248],[73.0362,17.9399],[73.0418,17.9741],[73.0061,18.017],[73.0225,18.0197],[73.0444,18.04],[73.0247,18.0295],[73.0296,18.0465],[73.016,18.025],[72.9955,18.0527],[72.9721,18.1247],[72.9884,18.1524],[72.9804,18.1945],[72.9328,18.2209],[72.9422,18.2792],[72.9667,18.2715],[72.9802,18.24],[73.063,18.2177],[73.0702,18.1968],[73.0672,18.2708],[73.0525,18.2857],[73.0458,18.2672],[73.0234,18.2662],[72.9142,18.349],[72.9106,18.3676],[72.9275,18.3799],[72.8901,18.458],[72.9047,18.5384],[72.9213,18.5286],[72.9616,18.5423],[72.9202,18.5479],[72.884,18.6304],[72.898,18.631],[72.8664,18.644],[72.8563,18.6884],[72.8701,18.8028],[72.9142,18.7924],[72.9356,18.8241],[72.9886,18.7759],[72.999,18.7794],[72.9859,18.8052],[73.0578,18.8027],[72.9898,18.8116],[72.9821,18.8626],[72.9381,18.847],[72.9069,18.8865],[72.9247,18.9098],[72.942,18.8943],[72.9495,18.9458],[72.9772,18.9461],[72.9539,18.9701],[73.0908,18.9988],[73.0667,19.0143],[73.0847,19.0314],[73.0644,19.0292],[73.0904,19.0457],[73.0061,19.005],[72.9844,19.0708],[72.9952,19.0869],[72.9764,19.1069],[72.9764,19.1707],[72.9642,19.1353],[72.9522,19.1374],[72.9569,19.1077],[72.9307,19.0904],[72.9472,19.068],[72.9137,19.0744],[72.9517,19.0432],[72.9034,18.9938],[72.8784,19.0226],[72.8573,19.0094],[72.8174,18.9086],[72.8033,18.968],[72.8126,19.0202],[72.8597,19.0602],[72.8179,19.0482],[72.8248,19.087],[72.808,19.1435],[72.7926,19.1315],[72.7804,19.1626],[72.8011,19.1976],[72.7783,19.1922],[72.7799,19.2804],[72.7907,19.3107],[72.8107,19.2999],[72.8444,19.316],[72.9155,19.2908],[72.869,19.3343],[72.8509,19.3431],[72.8024,19.3314],[72.7583,19.3757],[72.7663,19.3956],[72.7441,19.4603],[72.7564,19.4738],[72.7169,19.5799],[72.7187,19.5967],[72.7449,19.6026],[72.7289,19.6097],[72.7078,19.6822],[72.7005,19.7289],[72.7146,19.747],[72.701,19.742],[72.6902,19.7581],[72.7061,19.8084],[72.6859,19.8043],[72.6705,19.8253],[72.6935,19.9559],[72.7249,19.9671],[72.76,19.9233],[72.7451,19.9679],[72.7216,19.9802],[72.7068,20.0701],[72.731,20.0951],[72.7448,20.1954],[72.7794,20.207],[72.7456,20.203],[72.7403,20.2421],[72.778,20.3364],[72.8183,20.3657],[72.8262,20.4424],[72.8869,20.5046],[72.8771,20.5274],[72.8946,20.5296],[72.8828,20.5439],[72.8927,20.5834],[72.8736,20.6444],[72.9035,20.5969],[72.8864,20.6374],[72.9015,20.6429],[72.8967,20.7022],[72.9087,20.7111],[72.8907,20.7199],[72.9241,20.7558],[72.9519,20.755],[72.9501,20.7674],[72.9276,20.7763],[72.9197,20.7682],[72.9199,20.7893],[72.91,20.7807],[72.8745,20.8015],[72.896,20.8134],[72.8756,20.8245],[72.8948,20.8665],[72.8268,20.8292],[72.8547,20.86],[72.8245,20.8829],[72.8351,20.9065],[72.8491,20.9044],[72.8239,20.9212],[72.8822,20.9546],[72.8765,20.9718],[72.8913,20.9864],[72.8308,20.9734],[72.8387,20.9855],[72.8052,20.9872],[72.827,21.014],[72.7661,21.0042],[72.7425,20.9769],[72.767,20.9279],[72.7473,20.9498],[72.7229,21.0266],[72.7218,21.0569],[72.7417,21.0289],[72.7856,21.0461],[72.8068,21.0247],[72.857,21.0392],[72.8419,21.0537],[72.8549,21.0677],[72.8326,21.0544],[72.8227,21.0878],[72.8419,21.1137],[72.8215,21.0977],[72.8145,21.1053],[72.8304,21.1146],[72.8143,21.1191],[72.8114,21.1483],[72.8316,21.1672],[72.8059,21.1497],[72.8016,21.1242],[72.7904,21.1447],[72.7878,21.11],[72.7636,21.1227],[72.7569,21.1046],[72.7443,21.1262],[72.719,21.1034],[72.7302,21.0781],[72.7016,21.0949],[72.7059,21.1358],[72.7275,21.1475],[72.6707,21.1568],[72.6369,21.0816],[72.6178,21.1386],[72.6307,21.1283],[72.6467,21.1489],[72.6293,21.1338],[72.6145,21.1954],[72.6555,21.2226],[72.6817,21.2184],[72.6431,21.2498],[72.6304,21.2406],[72.6501,21.2798],[72.621,21.2928],[72.621,21.3125],[72.6554,21.3191],[72.6684,21.342],[72.7365,21.3238],[72.6962,21.355],[72.7016,21.3724],[72.6746,21.3486],[72.6646,21.3689],[72.6528,21.3494],[72.6459,21.3627],[72.6972,21.459],[72.6379,21.4484],[72.6719,21.4929],[72.7409,21.5657],[72.8165,21.6136],[72.8406,21.6659],[72.9193,21.6478],[73.0375,21.7005],[73.0901,21.7051],[73.1077,21.7297],[73.064,21.7327],[72.9364,21.6744],[72.8728,21.6882],[72.7887,21.6599],[72.7389,21.6861],[72.5952,21.6739],[72.5992,21.7954],[72.6312,21.8088],[72.6544,21.8912],[72.675,21.8872],[72.6682,21.9049],[72.6874,21.9044],[72.6878,21.886],[72.7223,21.8841],[72.7187,21.9318],[72.7511,21.9531],[72.7776,21.9495],[72.7647,21.9815],[72.746,21.988],[72.7719,22.0014],[72.7754,22.0168],[72.735,21.9912],[72.7186,22.0205],[72.718,21.9943],[72.7074,21.9796],[72.6933,21.9852],[72.6999,21.9716],[72.6719,21.9749],[72.6605,21.9605],[72.6465,21.9619],[72.6488,21.9881],[72.6368,22.0028],[72.6401,21.9548],[72.6281,21.9705],[72.6332,21.9546],[72.5642,21.9148],[72.5234,22.0508],[72.5384,22.1322],[72.5709,22.1909],[72.6099,22.2151],[72.6631,22.211],[72.7419,22.1758],[72.7668,22.1936],[72.7581,22.2163],[72.7121,22.2444],[72.6273,22.255],[72.6127,22.2672],[72.6495,22.2643],[72.6288,22.2759],[72.5679,22.2652],[72.6254,22.2802],[72.5931,22.2817],[72.479,22.2205],[72.4931,22.2641],[72.4597,22.2136],[72.4151,22.2149],[72.4247,22.2006],[72.4084,22.1524],[72.381,22.1539],[72.3885,22.1924],[72.3709,22.1814],[72.3689,22.1449],[72.367,22.1858],[72.3907,22.2002],[72.3697,22.1934],[72.3821,22.2262],[72.3704,22.2843],[72.4013,22.3249],[72.3667,22.3217],[72.342,22.2572],[72.3386,22.3066],[72.3287,22.2926],[72.3459,22.2239],[72.3116,22.1866],[72.2953,22.2249],[72.3209,22.1379],[72.242,22.0036],[72.2175,21.855],[72.2458,21.802],[72.2185,21.8162],[72.2081,21.8058],[72.2638,21.6982],[72.2309,21.4521],[72.112,21.3047],[72.0758,21.3224],[72.1088,21.2927],[72.097,21.2799],[72.0872,21.2893],[72.0985,21.2661],[72.0777,21.2534],[72.1006,21.2209],[72.0681,21.1847],[72.003,21.1399],[71.8968,21.1146],[71.7917,21.0504],[71.5338,20.9438],[71.5268,20.9531],[71.4957,20.9258],[71.1263,20.7529],[71.0512,20.7313],[71.0014,20.7354],[70.9853,20.7226],[70.9996,20.7104],[70.9747,20.7008],[70.8524,20.7055],[70.8269,20.6883],[70.6904,20.7436],[70.6749,20.7589],[70.6808,20.7778],[70.6564,20.7576],[70.6481,20.7725],[70.6122,20.7681],[70.29,20.9485],[70.0171,21.1847],[69.6836,21.5506],[69.6995,21.6142],[69.7267,22.022],[70.2975,22.2938],[71.4664,22.8103],[72.9615,23.1909],[75.0275,23.5171],[76.9032,23.6802],[78.1808,23.5714],[79.0235,23.2724],[79.54,22.8918],[80.8449,22.321],[82.3672,21.9404],[83.4817,21.4783],[84.7322,20.6628],[85.4389,19.7385],[85.3532,19.5813]]],[[[81.2096,16.1721],[81.2099,16.1752],[81.2111,16.1755],[81.2096,16.1721]]],[[[83.4662,17.9166],[83.4535,17.9115],[83.4556,17.9161],[83.4662,17.9166]]]]}}