{"type":"Feature","properties":{"speciesId":720,"category":"EN","source":"IUCN Red List","simplifyTol":0.01,"clippedToSubcontinent":true},"geometry":{"type":"Polygon","coordinates":[[[77.2282,8.9715],[77.2765,8.8643],[77.4317,8.7157],[77.4925,8.5766],[77.5574,8.4979],[77.5722,8.4191],[77.5614,8.2962],[77.5457,8.2732],[77.5146,8.2684],[77.4553,8.2924],[77.3417,8.2916],[77.2924,8.4036],[77.2306,8.4043],[77.1997,8.4258],[77.1766,8.464],[77.1615,8.5653],[77.0715,8.6343],[77.0435,8.814],[77.0943,8.8929],[77.092,8.9819],[77.1201,9.0968],[77.1729,9.1479],[77.2271,9.1361],[77.2518,9.1045],[77.2282,8.9715]]]}}