{"type":"Feature","properties":{"speciesId":722,"category":"VU","source":"IUCN Red List","simplifyTol":0.01,"clippedToSubcontinent":true},"geometry":{"type":"Polygon","coordinates":[[[73.3073,17.8127],[73.3384,17.9137],[73.3706,17.9438],[73.4541,17.9715],[73.6419,17.987],[73.687,17.9688],[73.8295,17.822],[73.8911,17.7282],[73.9076,17.6228],[73.9163,17.2362],[74.0385,16.5767],[74.1036,16.4518],[74.3194,16.1955],[74.3535,16.1015],[74.3333,15.9587],[74.3042,15.8927],[74.248,15.8287],[74.1161,15.7267],[74.0853,15.6808],[74.096,15.6421],[74.1936,15.6166],[74.2392,15.5712],[74.2459,15.4049],[74.207,15.3565],[74.1422,15.3496],[74.0793,15.3715],[73.9897,15.5517],[73.8417,15.6659],[73.8001,15.7342],[73.7602,15.89],[73.6702,16.4985],[73.5865,16.8939],[73.4783,17.2901],[73.3315,17.5851],[73.3073,17.8127]]]}}