{"type":"Feature","properties":{"speciesId":724,"category":"NT","source":"IUCN Red List","simplifyTol":0.01,"clippedToSubcontinent":true},"geometry":{"type":"Polygon","coordinates":[[[76.6644,10.4844],[76.7774,10.5287],[76.8573,10.4867],[76.9615,10.3087],[76.9624,10.2547],[76.929,10.1406],[76.9469,10.0627],[77.0056,10.0243],[77.2057,9.9749],[77.2259,9.9168],[77.2736,9.884],[77.2268,9.8407],[77.2038,9.6942],[77.2137,9.6521],[77.2608,9.6266],[77.2697,9.54],[77.1868,9.4519],[77.1569,9.2314],[77.1682,9.189],[77.2347,9.1155],[77.2585,9.0214],[77.2601,8.9319],[77.2053,8.8658],[77.1739,8.7276],[77.2163,8.6127],[77.272,8.5347],[77.2645,8.5171],[77.1373,8.5211],[77.0863,8.5557],[77.0641,8.6478],[77.104,8.7535],[77.0981,8.8199],[76.9709,9.04],[76.8576,9.1866],[76.8547,9.3155],[76.9514,9.4107],[76.9671,9.4772],[76.9512,9.5169],[76.8314,9.6454],[76.7577,9.763],[76.7559,9.8311],[76.7928,9.8684],[76.7844,9.9218],[76.669,10.0878],[76.5708,10.1832],[76.4689,10.2541],[76.4132,10.3441],[76.4044,10.4466],[76.5034,10.5233],[76.5642,10.541],[76.6253,10.495],[76.6644,10.4844]]]}}