{"type":"Feature","properties":{"speciesId":728,"category":"LC","source":"IUCN Red List","simplifyTol":0.01,"clippedToSubcontinent":true},"geometry":{"type":"MultiPolygon","coordinates":[[[[79.5048,13.5527],[79.3694,13.5882],[79.3267,13.6277],[79.2689,13.824],[79.2925,13.9021],[79.3545,13.8932],[79.4374,13.7894],[79.5297,13.7389],[79.5426,13.5972],[79.5322,13.5644],[79.5048,13.5527]]],[[[79.0459,14.3845],[78.9599,14.4244],[78.8606,14.5531],[78.8387,14.6659],[78.8801,14.7251],[78.9127,14.7148],[78.99,14.5682],[79.0891,14.4752],[79.0836,14.4133],[79.0459,14.3845]]],[[[75.4359,13.658],[75.6482,13.6666],[75.7153,13.6489],[75.7959,13.5714],[75.8667,13.4321],[75.8818,13.3339],[75.8581,13.2427],[75.807,13.1732],[75.698,13.0903],[75.6793,13.0477],[75.8592,12.4699],[76.1728,11.6789],[76.179,11.6148],[76.1379,11.584],[76.0619,11.5699],[75.9936,11.6032],[75.8776,11.7229],[75.7989,11.8453],[75.7388,12.0056],[75.6403,12.4557],[75.5026,12.8328],[75.4745,12.8627],[75.1855,13.0348],[75.1434,13.0864],[75.0863,13.2035],[74.9802,13.3043],[74.9348,13.3717],[74.8456,13.7508],[74.7336,13.855],[74.6568,13.9721],[74.2995,14.7125],[74.2803,14.8385],[74.2945,15.0873],[74.3222,15.1673],[74.3787,15.2274],[74.4236,15.2438],[74.4758,15.2309],[74.5473,15.1836],[74.601,15.1241],[74.8721,14.405],[75.0702,14.0],[75.2659,13.6984],[75.4359,13.658]]],[[[78.7919,15.3477],[78.6773,15.3804],[78.6452,15.4221],[78.6337,15.503],[78.6512,15.6502],[78.6883,15.6951],[78.747,15.6958],[78.8245,15.6721],[78.878,15.6422],[78.9085,15.6006],[78.9144,15.5089],[78.896,15.4205],[78.8533,15.3734],[78.7919,15.3477]]]]}}