{"type":"Feature","properties":{"speciesId":729,"category":"LC","source":"IUCN Red List","simplifyTol":0.01,"clippedToSubcontinent":true},"geometry":{"type":"MultiPolygon","coordinates":[[[[74.7253,13.6354],[74.7263,13.6361],[74.726,13.6353],[74.7253,13.6354]]],[[[74.7294,13.6363],[74.7273,13.6354],[74.7295,13.6364],[74.7294,13.6363]]],[[[74.7298,13.6352],[74.7272,13.6349],[74.7315,13.6364],[74.7298,13.6352]]],[[[74.7232,13.6367],[74.7225,13.6354],[74.7205,13.6367],[74.7232,13.6367]]],[[[74.7372,13.6367],[74.7338,13.6364],[74.7387,13.6376],[74.7372,13.6367]]],[[[74.7098,13.6395],[74.7102,13.6399],[74.7104,13.6395],[74.7098,13.6395]]],[[[74.7133,13.6408],[74.7127,13.6403],[74.712,13.6412],[74.7133,13.6408]]],[[[74.7117,13.6406],[74.71,13.6402],[74.7093,13.6412],[74.7117,13.6406]]],[[[74.7159,13.6407],[74.7156,13.6389],[74.7125,13.6417],[74.7159,13.6407]]],[[[74.717,13.6423],[74.7186,13.6413],[74.7167,13.6417],[74.717,13.6423]]],[[[74.7199,13.642],[74.7189,13.6422],[74.7202,13.6422],[74.7199,13.642]]],[[[74.7134,13.6441],[74.714,13.643],[74.7128,13.644],[74.7134,13.6441]]],[[[74.7393,13.6453],[74.7409,13.6455],[74.7414,13.6447],[74.7393,13.6453]]],[[[74.7355,13.6458],[74.7451,13.6423],[74.7181,13.6402],[74.7355,13.6458]]],[[[74.7085,13.6425],[74.7108,13.643],[74.7108,13.6424],[74.7085,13.6425]]],[[[74.6985,13.6913],[74.7003,13.69],[74.6972,13.6904],[74.6985,13.6913]]],[[[74.7775,13.2131],[74.7105,13.6378],[74.7243,13.6332],[74.75,13.6397],[74.7505,13.6415],[74.7407,13.6461],[74.7361,13.6466],[74.7189,13.6427],[74.7058,13.6488],[74.6929,13.689],[74.7374,13.691],[74.6906,13.6917],[74.6879,13.7619],[74.767,13.9229],[74.8484,13.9862],[75.0085,14.0162],[75.1147,13.9842],[75.2109,13.7766],[75.2958,13.693],[75.4311,13.6591],[75.6905,13.6517],[75.7477,13.6299],[75.7878,13.5899],[75.8581,13.4352],[75.8663,13.2951],[75.8199,13.166],[75.7153,13.0948],[75.696,13.0586],[75.8192,12.8736],[75.9879,12.5274],[76.2654,11.8166],[76.2771,11.7685],[76.2624,11.6704],[76.2265,11.6066],[76.0496,11.5534],[75.9798,11.5172],[75.9296,11.5176],[75.8912,11.5381],[75.839,11.6013],[75.676,11.8771],[75.4568,12.0978],[75.2586,12.397],[75.0522,12.5693],[74.9109,12.8692],[74.7775,13.2131]]]]}}