{"type":"Feature","properties":{"speciesId":73,"category":"LC","source":"IUCN Red List","simplifyTol":0.01,"clippedToSubcontinent":true},"geometry":{"type":"Polygon","coordinates":[[[74.7792,14.7101],[74.9279,14.4575],[75.5521,13.5954],[75.8494,13.0009],[76.0723,12.3469],[76.2358,12.1091],[76.4587,11.9456],[76.7411,11.797],[76.9046,11.6633],[76.9789,11.5741],[77.0978,11.262],[77.1722,10.4296],[77.2613,9.954],[77.3802,9.1366],[77.4397,8.8244],[77.4843,8.7353],[77.514,8.5718],[77.2911,8.3934],[76.9641,8.6907],[76.8006,9.8351],[76.6965,10.1472],[76.6668,10.4891],[76.4736,10.9201],[76.2209,11.2025],[76.0574,11.3363],[75.9088,11.4849],[75.7899,11.693],[75.6413,12.1983],[75.3143,12.6888],[75.0616,13.1495],[74.809,13.4319],[74.6355,13.7246],[74.6058,13.8523],[74.6169,13.8576],[74.565,13.9466],[74.5278,13.9626],[74.505,14.0011],[74.464,14.1872],[74.4092,14.308],[74.3953,14.4186],[74.3765,14.4165],[74.3538,14.5117],[74.3052,14.5196],[74.2912,14.5931],[74.2635,14.6245],[74.2946,14.6402],[74.2751,14.6467],[74.2756,14.6779],[74.2537,14.7068],[74.2633,14.7094],[74.2647,14.7201],[74.2582,14.7122],[74.2215,14.7472],[74.1993,14.7176],[74.1765,14.7446],[74.1477,14.7464],[74.1341,14.7778],[74.1039,14.7843],[74.0911,14.8021],[74.1171,14.8034],[74.1249,14.8405],[74.1079,14.8451],[74.0912,14.8945],[74.0369,14.9199],[74.0487,14.9568],[74.0298,14.9815],[74.0476,14.9848],[74.0149,15.0114],[74.0064,15.156],[73.9618,15.3938],[73.8875,16.3153],[73.7537,16.6869],[73.5308,17.2071],[73.5753,17.8611],[73.5753,18.2921],[73.4862,18.8271],[73.501,19.1541],[73.3078,20.1054],[73.3078,20.4026],[73.4119,20.7296],[73.5902,20.9971],[73.7983,20.9525],[73.8726,20.8634],[73.9766,20.5512],[74.0212,20.2986],[74.0658,19.7189],[74.1699,19.3919],[74.2442,18.8569],[74.2293,17.9354],[74.1401,17.5935],[74.1401,17.0882],[74.1847,16.5234],[74.2739,16.0478],[74.4077,15.6019],[74.6455,14.9925],[74.7792,14.7101]]]}}