{"type":"Feature","properties":{"speciesId":731,"category":"VU","source":"IUCN Red List","simplifyTol":0.01,"clippedToSubcontinent":true},"geometry":{"type":"Polygon","coordinates":[[[77.3032,8.881],[77.309,8.8257],[77.2845,8.7848],[77.3346,8.7072],[77.3138,8.6902],[77.2696,8.6944],[77.3007,8.6669],[77.2845,8.6454],[77.2995,8.6306],[77.293,8.6114],[77.3304,8.6112],[77.3744,8.6447],[77.3876,8.627],[77.3724,8.5921],[77.4223,8.5907],[77.4384,8.6362],[77.4552,8.5969],[77.477,8.6085],[77.4909,8.5804],[77.523,8.5942],[77.5442,8.577],[77.5407,8.5489],[77.5013,8.5646],[77.4834,8.5449],[77.5345,8.4582],[77.4973,8.407],[77.5405,8.3932],[77.5172,8.3465],[77.5436,8.2723],[77.5094,8.2702],[77.5058,8.3081],[77.4446,8.3294],[77.3971,8.3184],[77.3979,8.2917],[77.3388,8.2941],[77.3543,8.3189],[77.4293,8.3424],[77.4409,8.3873],[77.3911,8.4218],[77.3822,8.3875],[77.3093,8.3546],[77.3204,8.3873],[77.3673,8.3889],[77.3742,8.4511],[77.3408,8.4452],[77.3433,8.4902],[77.2977,8.5151],[77.2845,8.4902],[77.2549,8.4906],[77.2451,8.4606],[77.2145,8.4529],[77.201,8.5126],[77.2193,8.5224],[77.2349,8.5034],[77.2721,8.5236],[77.2307,8.5688],[77.1819,8.5605],[77.1745,8.5762],[77.2036,8.5992],[77.1952,8.6233],[77.1515,8.6687],[77.134,8.7118],[77.0986,8.7076],[77.0834,8.7234],[77.0871,8.7456],[77.061,8.7876],[77.1415,8.7676],[77.1633,8.7774],[77.1405,8.8287],[77.1044,8.8372],[77.1078,8.8699],[77.1454,8.8794],[77.1953,8.8472],[77.2138,8.852],[77.1733,8.9084],[77.0961,8.9266],[77.0947,8.9396],[77.1432,8.9465],[77.1788,8.9775],[77.213,8.9349],[77.3032,8.881]]]}}