{"type":"Feature","properties":{"speciesId":733,"category":"LC","source":"IUCN Red List","simplifyTol":0.01,"clippedToSubcontinent":true},"geometry":{"type":"Polygon","coordinates":[[[76.1703,11.799],[76.006,11.9462],[75.9406,11.9645],[75.8191,11.9637],[75.706,12.0779],[75.5536,12.1225],[75.3459,12.3896],[75.3376,12.4228],[75.3607,12.4506],[75.4341,12.4794],[75.5381,12.4858],[75.5753,12.5577],[75.6354,12.5795],[75.619,12.7229],[75.5558,12.9154],[75.4785,12.985],[75.3836,13.117],[75.3542,13.1212],[75.2957,13.0882],[75.2596,13.0855],[75.1613,13.1707],[75.08,13.2851],[74.9182,13.7084],[74.8575,13.7792],[74.6937,13.8511],[74.6666,13.926],[74.6778,13.9789],[74.8068,13.9835],[74.9196,13.9271],[75.0721,13.7654],[75.2496,13.5067],[75.292,13.4683],[75.3386,13.4688],[75.4766,13.5607],[75.6189,13.581],[75.669,13.4843],[75.6516,13.4222],[75.6685,13.3934],[75.7456,13.3512],[75.8938,13.3289],[75.9263,13.3041],[75.9584,13.2396],[75.9723,13.1558],[75.9533,12.86],[75.9262,12.7562],[75.8297,12.6148],[75.8111,12.5257],[75.8487,12.4186],[75.9554,12.2993],[76.2688,12.0833],[76.4408,11.8981],[76.5836,11.8041],[76.6578,11.7731],[76.7238,11.785],[76.893,11.903],[77.0879,11.9188],[77.2544,12.0821],[77.3193,12.1019],[77.3873,12.0985],[77.4122,12.0393],[77.4913,11.9919],[77.519,11.9429],[77.5432,11.6009],[77.5223,11.5584],[77.3794,11.5077],[77.3085,11.5162],[77.2004,11.5629],[77.0842,11.5287],[76.9642,11.5715],[76.8484,11.5911],[76.9872,11.5306],[77.0401,11.4394],[77.026,11.4001],[76.9797,11.3616],[76.9158,11.3333],[76.8579,11.33],[76.6891,11.4131],[76.4926,11.4777],[76.3568,11.5503],[76.2975,11.6053],[76.4022,11.6568],[76.404,11.6813],[76.3073,11.7481],[76.1703,11.799]]]}}