{"type":"Feature","properties":{"speciesId":734,"category":"LC","source":"IUCN Red List","simplifyTol":0.01,"clippedToSubcontinent":true},"geometry":{"type":"MultiPolygon","coordinates":[[[[95.5434,5.6146],[95.6132,5.6266],[95.6729,5.5857],[95.879,5.5068],[95.9043,5.427],[96.049,5.327],[96.0735,5.2928],[96.1823,5.2636],[96.2587,5.2634],[96.3883,5.2149],[96.465,5.2376],[96.4908,5.2046],[96.5318,5.2027],[96.6139,5.2144],[96.7202,5.2559],[96.8273,5.2776],[96.8552,5.2774],[96.8303,5.2714],[96.8998,5.2516],[96.9753,5.2665],[97.0818,5.2327],[97.1448,5.2004],[97.1432,5.1623],[97.1981,5.1461],[97.4967,5.2537],[97.5137,5.2464],[97.5468,5.2151],[97.5273,5.2057],[97.57,5.1904],[97.5722,5.1386],[97.6018,5.1419],[97.611,5.1139],[97.6525,5.1197],[97.648,5.0751],[97.806,4.9341],[97.9015,4.8871],[97.934,4.808],[97.9619,4.7262],[97.9615,4.668],[97.9946,4.6349],[98.0,4.6047],[97.9604,4.5316],[97.9823,4.5447],[98.0,4.5268],[98.0,4.0],[97.8571,4.0],[97.8358,4.0237],[97.8477,4.0445],[97.8287,4.0622],[97.832,4.0869],[97.8138,4.0834],[97.8045,4.1075],[97.8017,4.0879],[97.784,4.0929],[97.7677,4.1417],[97.7501,4.1197],[97.7772,4.0774],[97.7547,4.0629],[97.7841,4.063],[97.7803,4.0297],[97.8094,4.0391],[97.8159,4.0],[97.6716,4.0],[97.6852,4.0543],[97.6653,4.07],[97.6655,4.1065],[97.6456,4.0747],[97.6199,4.0832],[97.6208,4.009],[97.5664,4.0345],[97.5513,4.0677],[97.5035,4.0335],[97.472,4.0309],[97.4324,4.0531],[97.4226,4.0703],[97.4612,4.1131],[97.4832,4.0673],[97.5129,4.087],[97.5178,4.1175],[97.5413,4.1183],[97.5354,4.1573],[97.4948,4.1444],[97.5009,4.1755],[97.4889,4.1829],[97.491,4.2048],[97.5116,4.2118],[97.5018,4.2319],[97.5361,4.2246],[97.5384,4.2361],[97.4998,4.2675],[97.4973,4.3141],[97.4747,4.2627],[97.447,4.3091],[97.4629,4.3242],[97.4451,4.3281],[97.4428,4.3459],[97.4176,4.3434],[97.4081,4.3094],[97.3717,4.3689],[97.3311,4.36],[97.371,4.3862],[97.394,4.3656],[97.4099,4.3801],[97.3661,4.4385],[97.3872,4.4467],[97.3746,4.461],[97.3998,4.4542],[97.4031,4.4663],[97.3113,4.518],[97.3489,4.5436],[97.3206,4.5854],[97.306,4.5433],[97.2692,4.5689],[97.2322,4.5335],[97.2869,4.4816],[97.2819,4.4545],[97.323,4.4652],[97.337,4.4308],[97.2822,4.4108],[97.3009,4.3368],[97.2757,4.3504],[97.2591,4.3422],[97.2742,4.3113],[97.3276,4.2743],[97.326,4.2599],[97.303,4.2695],[97.2951,4.258],[97.2875,4.2746],[97.2607,4.2629],[97.2623,4.2859],[97.2255,4.3178],[97.2153,4.3074],[97.2275,4.2701],[97.1776,4.287],[97.1853,4.2497],[97.1125,4.2802],[97.0215,4.2806],[97.055,4.3136],[97.0841,4.3027],[97.0802,4.319],[97.1116,4.3273],[97.0943,4.3462],[97.0703,4.3362],[97.0656,4.362],[97.024,4.3358],[96.9942,4.3385],[97.0279,4.3543],[97.0209,4.3784],[96.9333,4.3834],[96.948,4.4146],[96.9851,4.4316],[96.9815,4.4499],[96.9547,4.4382],[96.9455,4.4508],[96.9094,4.4488],[96.9073,4.4269],[96.8969,4.4441],[96.8614,4.4461],[96.8502,4.4886],[96.8818,4.4727],[96.9143,4.4937],[96.9207,4.4679],[96.9539,4.4699],[96.9532,4.4871],[97.0369,4.4693],[97.0271,4.4882],[97.0019,4.4846],[96.9709,4.5062],[97.011,4.4962],[97.0401,4.5102],[97.0786,4.4835],[97.0599,4.546],[97.1157,4.5027],[97.1539,4.5134],[97.1124,4.5688],[97.0924,4.5635],[97.1026,4.5843],[97.0819,4.587],[97.0847,4.6123],[97.0658,4.6133],[97.0443,4.6505],[97.0295,4.6452],[97.0208,4.663],[97.0048,4.6525],[97.0132,4.6952],[96.9966,4.6956],[96.9841,4.6673],[96.9657,4.6908],[96.9607,4.6706],[96.8878,4.689],[96.9437,4.7072],[96.9619,4.7448],[96.9538,4.7631],[96.9968,4.7474],[97.0138,4.7693],[97.0482,4.7627],[97.0744,4.7957],[97.1493,4.806],[97.1565,4.8371],[97.1313,4.8415],[97.1157,4.8638],[97.0991,4.8672],[97.0924,4.8487],[97.0614,4.8554],[97.0615,4.8353],[97.0437,4.8489],[97.029,4.8201],[97.0128,4.8458],[96.9831,4.8398],[96.9881,4.8583],[96.9646,4.8604],[96.9873,4.8893],[96.9679,4.8903],[96.9406,4.8498],[96.9054,4.9036],[96.8824,4.9138],[96.7921,4.8901],[96.7698,4.795],[96.8202,4.704],[96.7706,4.6823],[96.7424,4.6148],[96.7814,4.595],[96.8088,4.605],[96.8217,4.5562],[96.8034,4.5584],[96.7998,4.5836],[96.7133,4.5939],[96.7438,4.5717],[96.7736,4.5725],[96.7771,4.557],[96.7456,4.5539],[96.7372,4.5354],[96.6883,4.5661],[96.7,4.5259],[96.6749,4.5274],[96.673,4.5452],[96.6456,4.545],[96.6654,4.5664],[96.6567,4.583],[96.6869,4.6092],[96.6422,4.6174],[96.6401,4.5818],[96.6243,4.6426],[96.6603,4.6412],[96.6825,4.6661],[96.6236,4.738],[96.5243,4.7803],[96.4947,4.8341],[96.5405,4.8454],[96.5219,4.8804],[96.5581,4.8652],[96.5412,4.903],[96.5126,4.9079],[96.5176,4.9292],[96.5468,4.9283],[96.5167,4.9672],[96.4986,4.9469],[96.4618,4.9701],[96.4288,4.9388],[96.4325,4.9808],[96.4101,4.9847],[96.4219,5.0147],[96.4013,5.0225],[96.3889,4.9845],[96.3727,5.0119],[96.3344,5.0076],[96.3456,5.0353],[96.3242,5.0713],[96.2928,5.0618],[96.2627,5.1013],[96.2318,5.0895],[96.2574,5.0454],[96.2478,5.0264],[96.2715,4.9973],[96.2572,4.9897],[96.2745,4.9674],[96.2613,4.9702],[96.2529,4.9471],[96.2389,4.9809],[96.2194,4.983],[96.2133,5.0359],[96.1641,5.0377],[96.153,5.0624],[96.1284,5.0598],[96.1453,5.0997],[96.1099,5.0781],[96.0961,5.0964],[96.0697,5.0944],[96.0854,5.0744],[96.0769,5.0548],[96.0436,5.0671],[96.0311,5.0567],[96.0097,5.0829],[95.9772,5.0916],[95.9928,5.0504],[96.0227,5.0319],[96.0292,5.002],[96.0081,4.9886],[96.0312,4.9618],[96.0668,4.9472],[96.0487,4.9942],[96.0914,4.9589],[96.0945,4.9951],[96.123,4.9344],[96.1303,4.9581],[96.1653,4.9423],[96.1732,4.9613],[96.1985,4.9443],[96.1774,4.932],[96.1925,4.9138],[96.1587,4.9123],[96.2281,4.8945],[96.2169,4.8622],[96.2353,4.8434],[96.216,4.8203],[96.1829,4.8177],[96.1985,4.7948],[96.2081,4.8116],[96.2351,4.8038],[96.2506,4.7907],[96.2462,4.7705],[96.2731,4.765],[96.2925,4.7761],[96.2676,4.8155],[96.2933,4.8319],[96.3449,4.8082],[96.3253,4.8304],[96.335,4.8391],[96.3718,4.8216],[96.3848,4.8447],[96.3777,4.8711],[96.4007,4.8523],[96.4212,4.8669],[96.4267,4.8203],[96.482,4.7794],[96.496,4.7387],[96.5288,4.7166],[96.5268,4.751],[96.5411,4.7546],[96.5659,4.7312],[96.553,4.6943],[96.5987,4.6964],[96.6367,4.6674],[96.6047,4.6626],[96.6003,4.632],[96.5727,4.6531],[96.5746,4.6284],[96.5579,4.6466],[96.5264,4.64],[96.5214,4.6176],[96.4997,4.6111],[96.5143,4.5715],[96.4815,4.596],[96.4652,4.6321],[96.4227,4.657],[96.4494,4.682],[96.4465,4.6917],[96.4249,4.672],[96.4082,4.681],[96.426,4.6835],[96.4161,4.7047],[96.3515,4.6898],[96.3773,4.6808],[96.3643,4.6657],[96.3918,4.6579],[96.3822,4.6383],[96.4061,4.6546],[96.4314,4.6427],[96.4281,4.6231],[96.4666,4.6079],[96.4569,4.5917],[96.4766,4.5637],[96.4469,4.556],[96.4956,4.5461],[96.474,4.524],[96.4982,4.5018],[96.5113,4.5071],[96.5516,4.4683],[96.5372,4.4895],[96.5502,4.5137],[96.5664,4.48],[96.6,4.5032],[96.5825,4.4703],[96.6106,4.4705],[96.6161,4.4924],[96.6568,4.4905],[96.608,4.4222],[96.6724,4.3767],[96.5543,4.4085],[96.5384,4.3975],[96.4854,4.454],[96.4948,4.4184],[96.4559,4.4043],[96.4888,4.3643],[96.5318,4.3566],[96.5429,4.3274],[96.5658,4.3264],[96.5413,4.3084],[96.5419,4.2849],[96.5665,4.2994],[96.5929,4.2927],[96.5939,4.3146],[96.6219,4.324],[96.6324,4.2919],[96.6729,4.31],[96.6849,4.3009],[96.6785,4.3256],[96.7015,4.3051],[96.714,4.3178],[96.7392,4.3123],[96.7022,4.2855],[96.7183,4.2679],[96.6805,4.275],[96.6481,4.2506],[96.6246,4.2596],[96.6339,4.235],[96.6201,4.219],[96.6486,4.1993],[96.6534,4.2236],[96.6712,4.2191],[96.6663,4.1743],[96.7035,4.1786],[96.7123,4.2258],[96.7412,4.1921],[96.7772,4.189],[96.7733,4.1734],[96.7888,4.1724],[96.7649,4.1498],[96.8185,4.1732],[96.8033,4.1374],[96.8234,4.1249],[96.8075,4.1018],[96.8506,4.0837],[96.8558,4.0614],[96.8769,4.0753],[96.9039,4.0646],[96.9088,4.0974],[96.8676,4.096],[96.8587,4.1505],[96.8783,4.1219],[96.8958,4.1588],[96.9386,4.1718],[96.8794,4.2168],[96.8788,4.2352],[96.9413,4.2018],[96.9779,4.2072],[96.9889,4.1786],[97.0129,4.1943],[97.0171,4.1638],[97.0399,4.1663],[97.0492,4.1474],[97.0732,4.1551],[97.059,4.1285],[97.1049,4.1241],[97.0964,4.0943],[97.1296,4.0968],[97.1337,4.0739],[97.1701,4.103],[97.1543,4.1781],[97.2868,4.109],[97.3347,4.1455],[97.3133,4.0884],[97.3419,4.0812],[97.3449,4.0605],[97.3758,4.0504],[97.3765,4.0257],[97.4145,4.0],[97.2231,4.0],[97.0882,4.0384],[97.0609,4.0158],[97.0619,4.0365],[97.0201,4.0373],[97.0152,4.0068],[96.9915,4.0463],[96.9749,4.0416],[96.9881,4.0],[96.9487,4.0287],[96.9584,4.0],[96.8523,4.0],[96.8236,4.003],[96.7501,4.0576],[96.7767,4.0118],[96.8121,4.0],[96.2775,4.0],[96.1485,4.1406],[96.1249,4.128],[96.0536,4.206],[96.0229,4.196],[95.7128,4.5268],[95.6081,4.6162],[95.5654,4.6262],[95.5834,4.6462],[95.5723,4.6567],[95.5387,4.6473],[95.4818,4.7609],[95.4119,4.8179],[95.4252,4.8339],[95.3756,4.9197],[95.3694,4.9459],[95.3817,4.9568],[95.3555,4.9992],[95.3623,5.0193],[95.3045,5.0793],[95.3152,5.0834],[95.3041,5.1067],[95.2825,5.1073],[95.3067,5.1271],[95.3055,5.1652],[95.2367,5.2204],[95.2503,5.2266],[95.2336,5.2472],[95.2385,5.2724],[95.2113,5.2699],[95.2156,5.3179],[95.2336,5.3195],[95.2223,5.3417],[95.2331,5.3582],[95.2389,5.3385],[95.2483,5.3663],[95.2286,5.4272],[95.2409,5.4467],[95.2295,5.4922],[95.1897,5.5228],[95.2202,5.5705],[95.2424,5.5512],[95.2806,5.5506],[95.3247,5.5899],[95.3527,5.5887],[95.4314,5.6564],[95.4651,5.6437],[95.4974,5.5988],[95.5221,5.5944],[95.5434,5.6146]],[[95.6642,5.4477],[95.6513,5.4525],[95.6435,5.4481],[95.6586,5.4302],[95.6642,5.4477]],[[95.3675,5.2731],[95.3544,5.291],[95.328,5.2855],[95.3512,5.2793],[95.409,5.1934],[95.4226,5.2199],[95.3887,5.2406],[95.3951,5.2837],[95.3726,5.2913],[95.3675,5.2731]],[[95.4982,5.2095],[95.4984,5.1941],[95.5831,5.1977],[95.6322,5.1484],[95.5957,5.1383],[95.632,5.1067],[95.6044,5.0846],[95.6049,5.0501],[95.5859,5.0434],[95.593,4.9872],[95.6207,5.0134],[95.6439,4.9929],[95.6858,5.0018],[95.6809,4.9793],[95.7045,4.9747],[95.7086,5.0157],[95.7259,4.992],[95.7442,4.9957],[95.7433,4.9793],[95.7632,4.9779],[95.7346,5.0415],[95.6852,5.042],[95.6855,5.0581],[95.7137,5.0634],[95.7621,5.0403],[95.7662,5.0157],[95.789,5.0217],[95.8034,4.9839],[95.8186,4.9915],[95.8128,5.0083],[95.8404,4.9793],[95.873,4.9814],[95.8636,5.0246],[95.8502,5.0069],[95.8289,5.05],[95.7839,5.0486],[95.8028,5.08],[95.7585,5.0781],[95.6756,5.1284],[95.645,5.1263],[95.6708,5.136],[95.6414,5.1678],[95.626,5.1604],[95.6198,5.1894],[95.4821,5.2427],[95.4846,5.2095],[95.4982,5.2095]],[[95.7695,5.1737],[95.792,5.1233],[95.8115,5.127],[95.828,5.0834],[95.8498,5.0781],[95.8296,5.0995],[95.8296,5.1269],[95.7695,5.1737]],[[96.3874,5.0448],[96.4107,5.064],[96.3906,5.0782],[96.3798,5.0683],[96.3874,5.0448]],[[96.6572,4.7636],[96.6617,4.7821],[96.6101,4.796],[96.6224,4.7541],[96.6572,4.7636]],[[97.4167,4.5999],[97.3973,4.5871],[97.4123,4.5711],[97.4271,4.5867],[97.4947,4.5607],[97.4583,4.6266],[97.4326,4.6184],[97.433,4.6443],[97.3946,4.6629],[97.4167,4.5999]],[[97.1953,4.5821],[97.2075,4.554],[97.2189,4.5564],[97.2129,4.607],[97.1953,4.5821]],[[97.4499,4.492],[97.4132,4.5176],[97.408,4.5164],[97.4247,4.4958],[97.4499,4.492]],[[97.4141,4.4475],[97.4353,4.4453],[97.4512,4.4696],[97.4243,4.478],[97.4141,4.4475]],[[97.5591,4.3139],[97.5642,4.3163],[97.5632,4.3244],[97.5591,4.3139]],[[97.6221,4.2896],[97.5969,4.2998],[97.6251,4.2813],[97.6221,4.2896]],[[97.6225,4.1275],[97.6234,4.1695],[97.6094,4.2079],[97.6109,4.14],[97.6225,4.1275]],[[97.7385,4.1369],[97.7438,4.1214],[97.7472,4.1235],[97.7385,4.1369]],[[97.6248,4.1125],[97.6203,4.101],[97.6232,4.097],[97.634,4.1046],[97.6248,4.1125]],[[97.7087,4.0925],[97.7098,4.0793],[97.7146,4.0721],[97.7181,4.0815],[97.7087,4.0925]],[[97.7294,4.0247],[97.7127,4.0453],[97.7198,4.0062],[97.7294,4.0247]],[[97.226,4.0412],[97.2416,4.0172],[97.2878,4.0463],[97.3239,4.023],[97.31,4.0602],[97.2825,4.0715],[97.2631,4.0599],[97.2486,4.0862],[97.2241,4.078],[97.2149,4.09],[97.1864,4.072],[97.2083,4.0336],[97.226,4.0412]],[[97.1924,4.1036],[97.2192,4.1366],[97.1819,4.153],[97.1924,4.1036]],[[96.9768,4.1152],[96.9928,4.1171],[96.9686,4.1336],[96.9768,4.1152]],[[96.6343,4.1769],[96.6602,4.1449],[96.6651,4.1485],[96.6343,4.1769]],[[96.4399,4.4772],[96.4105,4.5223],[96.4389,4.4657],[96.4399,4.4772]],[[96.5177,4.663],[96.5068,4.6635],[96.5114,4.6549],[96.5177,4.663]],[[96.4651,4.6579],[96.4744,4.6339],[96.4788,4.6581],[96.4651,4.6579]],[[96.0648,4.7534],[96.0699,4.7603],[96.0579,4.7579],[96.0648,4.7534]],[[95.738,4.9208],[95.7091,4.9079],[95.6955,4.9192],[95.6742,4.9005],[95.6669,4.8625],[95.738,4.9208]],[[95.7621,4.9224],[95.7646,4.9367],[95.7444,4.9134],[95.7621,4.9224]],[[95.9119,4.9334],[95.9473,4.9375],[95.9443,4.9541],[95.8993,4.9613],[95.9119,4.9334]],[[95.8812,4.985],[95.8931,4.9728],[95.8938,4.9875],[95.8812,4.985]],[[95.9733,5.0582],[95.9414,5.0672],[95.9797,5.0478],[95.9733,5.0582]],[[95.526,5.0367],[95.5165,5.0395],[95.5165,5.0309],[95.526,5.0367]]],[[[97.998,4.6246],[98.0,4.6279],[98.0,4.6171],[97.998,4.6246]]],[[[93.8795,7.2024],[93.897,7.0791],[93.9251,7.0201],[93.9545,6.9964],[93.9368,7.0076],[93.9199,6.9913],[93.95,6.9523],[93.9282,6.9466],[93.924,6.9097],[93.9074,6.8998],[93.9004,6.8466],[93.9191,6.8288],[93.9137,6.8025],[93.8934,6.7908],[93.8853,6.8064],[93.8663,6.8033],[93.8398,6.7471],[93.8175,6.7601],[93.8268,6.8034],[93.7974,6.8258],[93.8052,6.8429],[93.7851,6.8659],[93.7998,6.8743],[93.773,6.9125],[93.7606,6.9036],[93.7512,6.9152],[93.7477,6.9585],[93.6882,7.0176],[93.6598,7.0112],[93.6711,7.0319],[93.6573,7.0934],[93.6718,7.1099],[93.6536,7.12],[93.678,7.1442],[93.6724,7.1738],[93.6879,7.1854],[93.7329,7.1823],[93.7622,7.2069],[93.8033,7.1959],[93.8043,7.2255],[93.8348,7.2369],[93.8795,7.2024]]],[[[93.7201,7.2049],[93.7175,7.2011],[93.7128,7.2013],[93.7201,7.2049]]],[[[93.7464,7.3552],[93.7339,7.3215],[93.6705,7.2797],[93.6542,7.2456],[93.6274,7.2585],[93.6147,7.3039],[93.6295,7.3143],[93.6236,7.3688],[93.6613,7.3675],[93.702,7.3899],[93.6946,7.4414],[93.7108,7.3892],[93.7464,7.3552]]],[[[93.4131,7.9539],[93.4593,7.9299],[93.4641,7.8666],[93.4193,7.899],[93.382,7.8756],[93.3568,7.8827],[93.3456,7.9033],[93.3617,7.9295],[93.3457,7.943],[93.3299,7.9121],[93.3126,7.9455],[93.3268,8.0],[93.3713,8.0189],[93.4037,8.0049],[93.4131,7.9539]]],[[[93.5405,8.0],[93.5431,8.022],[93.5585,8.0212],[93.5755,7.9936],[93.5728,7.9256],[93.5072,7.98],[93.5263,8.0229],[93.5405,8.0]]],[[[93.5071,7.9944],[93.5063,7.9942],[93.5068,7.9949],[93.5071,7.9944]]],[[[93.5407,8.2023],[93.513,8.1811],[93.4996,8.1446],[93.5464,8.0824],[93.5445,8.0392],[93.5269,8.0471],[93.5052,8.0296],[93.4964,7.9944],[93.484,8.0109],[93.4839,8.0886],[93.4623,8.1053],[93.4713,8.1206],[93.4564,8.1165],[93.4513,8.1697],[93.4878,8.1987],[93.4908,8.2198],[93.5188,8.2298],[93.5407,8.2023]]],[[[93.1284,8.3425],[93.1188,8.2674],[93.1821,8.2281],[93.1834,8.201],[93.1364,8.2118],[93.0894,8.2477],[93.0722,8.3017],[93.0827,8.3384],[93.1143,8.3577],[93.1284,8.3425]]],[[[92.8047,9.2164],[92.8203,9.1354],[92.7964,9.1204],[92.768,9.1213],[92.7825,9.1266],[92.7737,9.1384],[92.7278,9.1193],[92.7115,9.1515],[92.7122,9.2109],[92.7605,9.2171],[92.7668,9.2593],[92.8047,9.2164]]],[[[93.2111,28.1343],[93.1482,28.1634],[93.1243,28.2285],[93.1534,28.2915],[93.2192,28.3155],[93.282,28.2861],[93.3056,28.2209],[93.2763,28.158],[93.2111,28.1343]]]]}}