{"type":"Feature","properties":{"speciesId":735,"category":"LC","source":"IUCN Red List","simplifyTol":0.01,"clippedToSubcontinent":true},"geometry":{"type":"MultiPolygon","coordinates":[[[[97.138,4.2235],[96.7787,4.6937],[96.7471,4.7835],[96.7576,4.8944],[96.858,4.9473],[97.0059,4.9473],[97.1063,4.8786],[97.5131,4.4243],[97.8142,4.1337],[98.0,4.0128],[98.0,4.0],[97.365,4.0],[97.138,4.2235]]],[[[95.6885,5.267],[95.7381,5.2503],[95.7521,5.2138],[95.7378,5.193],[95.7351,5.1148],[95.7071,5.0926],[95.6633,5.0929],[95.656,5.1425],[95.6384,5.1601],[95.6499,5.2492],[95.6885,5.267]]],[[[97.9956,18.7075],[97.6462,18.9056],[96.8479,19.2392],[96.566,19.4086],[96.4209,19.5406],[96.2834,19.7214],[96.1526,19.9458],[96.0449,20.19],[95.9744,20.4119],[95.9452,20.5981],[95.942,20.8424],[95.9781,21.3995],[95.9701,21.6701],[95.9101,22.3578],[95.7856,23.3254],[95.5876,24.5212],[95.4797,25.3091],[95.4213,25.5006],[95.233,25.9574],[95.1849,26.1848],[95.194,26.3108],[95.2382,26.4378],[95.3149,26.5838],[95.3992,26.6824],[95.5231,26.7418],[95.8211,26.7929],[95.9355,26.829],[96.0226,26.8858],[96.1948,27.0436],[96.2729,27.0909],[96.3603,27.1129],[96.4696,27.115],[97.0422,27.0078],[97.1482,27.0068],[97.2193,27.0316],[97.2553,27.0761],[97.263,27.1478],[97.1728,27.5346],[97.1798,27.6747],[97.2123,27.7177],[97.2674,27.7439],[97.5421,27.7899],[97.7697,27.7822],[98.0,27.7382],[98.0,25.207],[97.8449,25.244],[97.7867,25.2162],[97.7299,25.1598],[97.6944,25.0994],[97.6863,25.0509],[97.7814,24.9026],[97.7892,24.8559],[97.7514,24.8205],[97.5557,24.7321],[97.5171,24.655],[97.5016,24.5612],[97.5308,24.4738],[97.6556,24.4257],[97.7074,24.3775],[97.7527,24.2964],[97.7734,24.2096],[97.7695,24.1654],[97.742,24.1271],[97.5346,23.9747],[97.5248,23.9445],[97.5466,23.9141],[97.6371,23.8567],[97.7016,23.8519],[97.8737,24.025],[98.0,24.0901],[97.9956,18.7075]]],[[[92.5828,22.0749],[92.6353,21.8915],[92.6071,21.8579],[92.6256,21.4601],[92.6443,21.348],[92.6814,21.2894],[92.6343,21.2803],[92.6136,21.2474],[92.5872,21.2444],[92.5854,21.3842],[92.5471,21.3788],[92.5163,21.3973],[92.4987,21.3612],[92.4526,21.3592],[92.4227,21.3877],[92.4357,21.4409],[92.3847,21.4782],[92.3625,21.4755],[92.3299,21.4165],[92.2955,21.4368],[92.2561,21.4184],[92.2588,21.3626],[92.2038,21.3179],[92.2234,21.2455],[92.18,21.1801],[92.218,21.1474],[92.2585,21.0719],[92.2479,21.0353],[92.2694,20.964],[92.3041,20.9268],[92.3211,20.8572],[92.376,20.7644],[92.3727,20.7454],[92.3351,20.7428],[92.3073,20.7639],[92.2137,20.9213],[92.1838,21.0153],[92.0488,21.1729],[92.0493,21.2672],[92.0303,21.3362],[91.9527,21.4537],[91.9985,21.5051],[92.0224,21.4868],[91.9953,21.5584],[92.0389,21.6475],[92.0395,21.6758],[92.025,21.6824],[92.0352,21.7004],[92.0176,21.7162],[92.0182,21.6658],[91.9818,21.656],[91.9828,21.7023],[91.9652,21.6789],[91.9452,21.7372],[91.9529,21.7503],[91.9727,21.7393],[91.9944,21.7658],[91.9722,21.7473],[91.9558,21.7526],[91.954,21.774],[91.9706,21.7865],[91.9429,21.8044],[91.9121,21.7791],[91.9511,21.8993],[92.0379,22.079],[92.0274,22.4393],[92.0459,22.4489],[92.0813,22.437],[92.1339,22.4559],[92.1443,22.4699],[92.0892,22.4446],[92.0337,22.4507],[92.0259,22.4447],[92.0225,22.4274],[91.98,22.6503],[91.9028,22.8811],[91.8672,22.8849],[91.8088,22.8607],[91.7111,22.7719],[91.5831,22.7765],[91.4723,22.8496],[91.4831,22.8768],[91.4565,22.8985],[91.4922,22.9007],[91.4554,22.9068],[91.4419,22.8867],[91.3748,23.0274],[91.4316,23.0645],[91.3735,23.1826],[91.4155,23.2714],[91.4415,23.2606],[91.5191,23.1269],[91.5367,23.0675],[91.5345,22.9867],[91.5575,22.9616],[91.6082,22.9497],[91.6591,22.9649],[91.7371,23.0071],[91.7996,23.0631],[91.811,23.1212],[91.7581,23.2548],[91.7536,23.3041],[91.8042,23.37],[91.9414,23.4648],[91.9368,23.6473],[91.963,23.7511],[92.0469,23.6776],[92.1662,23.7222],[92.2081,23.6421],[92.2421,23.7135],[92.301,23.6787],[92.2896,23.5512],[92.3707,23.3318],[92.3604,23.1056],[92.4052,23.0334],[92.3775,22.9745],[92.4782,22.7919],[92.4618,22.7437],[92.5161,22.7328],[92.5302,22.7076],[92.5353,22.5169],[92.5774,22.3533],[92.5844,22.2489],[92.6166,22.1678],[92.5806,22.1458],[92.5828,22.0749]]],[[[92.4695,25.0294],[92.2791,25.1898],[92.1288,25.2298],[91.5375,25.2499],[91.347,25.3],[91.1165,25.4203],[91.0664,25.4804],[91.0163,25.6408],[91.0263,25.741],[91.1265,25.7911],[91.337,25.7911],[91.7078,25.761],[92.1187,25.8111],[92.3292,25.7911],[92.5397,25.6909],[92.9306,25.4403],[93.0909,25.4103],[93.3014,25.4303],[93.6121,25.5907],[94.0029,25.8412],[94.1934,26.1018],[94.3036,26.1118],[94.4038,26.0316],[94.3337,25.7109],[93.9629,25.29],[93.3916,24.8089],[92.9606,24.5684],[92.7702,24.5483],[92.6399,24.5584],[92.5898,24.8189],[92.4695,25.0294]]]]}}