{"type":"Feature","properties":{"speciesId":736,"category":"LC","source":"IUCN Red List","simplifyTol":0.01,"clippedToSubcontinent":true},"geometry":{"type":"Polygon","coordinates":[[[76.6597,10.9544],[76.6068,10.9687],[76.5925,10.9871],[76.5936,11.0422],[76.6206,11.0745],[76.864,11.1854],[77.3083,11.4578],[77.8061,11.7012],[78.0753,11.7957],[78.1948,11.8097],[78.2635,11.7823],[78.3379,11.679],[78.4034,11.3891],[78.4019,11.3136],[78.311,11.2155],[78.1429,11.1275],[78.0805,11.0574],[78.021,10.8943],[77.9661,10.5805],[77.9744,10.4237],[78.01,10.2789],[78.0589,10.1888],[78.2496,9.9551],[78.2622,9.9056],[78.2475,9.8388],[78.1619,9.7128],[77.9583,9.6015],[77.8905,9.5436],[77.6994,9.2477],[77.3776,8.9058],[77.2589,8.6856],[77.1842,8.6414],[77.1499,8.6439],[77.1324,8.6776],[77.1782,8.8107],[77.1206,9.3545],[77.1568,9.714],[77.0104,10.0223],[77.0437,10.0344],[77.1309,10.0149],[77.2783,9.9351],[77.2887,10.0223],[77.2483,10.1132],[77.4159,10.166],[77.5479,10.2561],[77.6487,10.2887],[77.6595,10.3121],[77.6373,10.3535],[77.6144,10.3617],[77.5306,10.3093],[77.3911,10.2533],[77.4215,10.3421],[77.3836,10.3439],[77.315,10.3048],[77.3058,10.2322],[77.1983,10.2244],[77.0776,10.1503],[77.1735,10.3367],[77.1447,10.3839],[77.0974,10.3953],[77.0281,10.3347],[77.0428,10.2151],[77.0242,10.1225],[77.0024,10.0937],[76.9481,10.1741],[76.6872,10.3619],[76.6341,10.4282],[76.6133,10.5009],[76.624,10.5442],[76.6638,10.5785],[76.7627,10.5884],[76.7863,10.651],[76.7566,10.8224],[76.7083,10.9094],[76.6597,10.9544]]]}}