{"type":"Feature","properties":{"speciesId":737,"category":"LC","source":"IUCN Red List","simplifyTol":0.01,"clippedToSubcontinent":true},"geometry":{"type":"MultiPolygon","coordinates":[[[[86.7058,20.2902],[86.6894,20.2958],[86.7089,20.2938],[86.7058,20.2902]]],[[[86.7973,20.3888],[86.7908,20.4199],[86.8043,20.4822],[86.8169,20.4469],[86.7973,20.3888]]],[[[88.1938,21.5545],[88.2008,21.5701],[88.2152,21.5291],[88.179,21.5565],[88.1741,21.586],[88.1938,21.5545]]],[[[88.5398,21.5804],[88.5489,21.5338],[88.5354,21.5243],[88.4859,21.5473],[88.4989,21.5993],[88.5398,21.5804]]],[[[88.5686,21.5573],[88.5165,21.6027],[88.5246,21.6574],[88.5944,21.6041],[88.5686,21.5573]]],[[[88.749,21.562],[88.7122,21.5774],[88.7252,21.6313],[88.691,21.6813],[88.6973,21.7185],[88.711,21.6818],[88.763,21.6264],[88.7664,21.5861],[88.749,21.562]]],[[[88.3554,21.6824],[88.3517,21.6163],[88.3248,21.6031],[88.3233,21.7035],[88.3554,21.6824]]],[[[88.2164,21.6741],[88.2337,21.6737],[88.2393,21.647],[88.2199,21.6227],[88.2212,21.6018],[88.1874,21.6773],[88.2164,21.7159],[88.221,21.7033],[88.2024,21.6935],[88.2164,21.6741]]],[[[88.6446,21.6454],[88.6322,21.6617],[88.6474,21.6841],[88.652,21.679],[88.6446,21.6454]]],[[[88.5225,21.7151],[88.5715,21.6901],[88.5588,21.6372],[88.5333,21.6555],[88.5225,21.7151]]],[[[88.487,21.7923],[88.4587,21.7331],[88.4838,21.6724],[88.4528,21.6005],[88.4302,21.5999],[88.4483,21.6229],[88.4271,21.6584],[88.4272,21.6897],[88.4438,21.7033],[88.4361,21.7657],[88.4551,21.7927],[88.487,21.7923]]],[[[88.116,21.7855],[88.1453,21.7571],[88.1315,21.7343],[88.145,21.7039],[88.1365,21.6841],[88.1521,21.6664],[88.1459,21.623],[88.0499,21.6504],[88.0851,21.7809],[88.116,21.7855]]],[[[88.5794,21.7263],[88.615,21.682],[88.6003,21.6564],[88.6131,21.6056],[88.5643,21.6412],[88.5808,21.6632],[88.5719,21.7077],[88.5236,21.7222],[88.507,21.7559],[88.5371,21.78],[88.5463,21.8168],[88.5786,21.7906],[88.5666,21.7673],[88.5794,21.7263]]],[[[88.2153,21.7223],[88.2,21.7189],[88.2115,21.7321],[88.2153,21.7223]]],[[[88.381,21.7183],[88.4049,21.7147],[88.3707,21.6853],[88.3477,21.709],[88.3575,21.7183],[88.3616,21.7626],[88.4006,21.7601],[88.3725,21.7313],[88.381,21.7183]]],[[[88.3065,21.7344],[88.306,21.7207],[88.3012,21.7345],[88.3065,21.7344]]],[[[88.6204,21.7039],[88.6057,21.7119],[88.6289,21.7296],[88.6295,21.7381],[88.5951,21.763],[88.6112,21.7877],[88.6304,21.779],[88.6393,21.7422],[88.6204,21.7039]]],[[[88.6253,21.7307],[88.5867,21.7213],[88.5902,21.747],[88.573,21.7719],[88.589,21.7756],[88.5909,21.7566],[88.6253,21.7307]]],[[[88.3842,21.7739],[88.3501,21.7578],[88.3541,21.7223],[88.3359,21.7281],[88.3356,21.7059],[88.3147,21.7164],[88.3139,21.784],[88.3752,21.7974],[88.3842,21.7739]]],[[[88.2131,21.7414],[88.2018,21.7552],[88.2079,21.7765],[88.2151,21.7664],[88.2131,21.7414]]],[[[88.1831,21.804],[88.1808,21.7327],[88.1629,21.6844],[88.1497,21.6828],[88.1386,21.7347],[88.1521,21.7604],[88.1146,21.7995],[88.0917,21.7933],[88.1412,21.8812],[88.1831,21.804]]],[[[88.532,21.7861],[88.5147,21.7775],[88.5294,21.7967],[88.532,21.7861]]],[[[88.3051,21.787],[88.3072,21.7913],[88.3184,21.791],[88.3051,21.787]]],[[[88.5017,21.8008],[88.4738,21.801],[88.4601,21.8151],[88.4932,21.8356],[88.5091,21.8159],[88.5017,21.8008]]],[[[88.7295,21.9772],[88.7904,21.9368],[88.8136,21.8378],[88.8046,21.7117],[88.7678,21.6557],[88.7218,21.6825],[88.6993,21.7399],[88.7252,21.8],[88.6988,21.8377],[88.7311,21.9353],[88.7295,21.9772]]],[[[88.621,21.7986],[88.5837,21.8135],[88.5992,21.8507],[88.622,21.8303],[88.6124,21.8146],[88.621,21.7986]]],[[[88.6393,21.868],[88.6653,21.8667],[88.6463,21.7857],[88.6274,21.7973],[88.627,21.8318],[88.601,21.8617],[88.6252,21.8976],[88.6393,21.868]]],[[[88.1982,21.8349],[88.1832,21.846],[88.1795,21.8615],[88.1956,21.8491],[88.1982,21.8349]]],[[[88.0961,21.8575],[88.0823,21.8728],[88.0908,21.8982],[88.1094,21.876],[88.0961,21.8575]]],[[[88.6582,21.8751],[88.6419,21.8747],[88.6271,21.9034],[88.6422,21.9228],[88.6737,21.9166],[88.6582,21.8751]]],[[[88.5035,21.9031],[88.4889,21.9021],[88.5023,21.9084],[88.5035,21.9031]]],[[[88.1217,21.887],[88.0969,21.9042],[88.0936,21.9266],[88.1249,21.9026],[88.1217,21.887]]],[[[88.1431,21.8985],[88.0993,21.9299],[88.1158,21.9623],[88.155,21.9266],[88.1431,21.8985]]],[[[88.6784,22.0077],[88.7185,22.0014],[88.7,21.9578],[88.6853,21.945],[88.6407,21.9515],[88.6448,22.0018],[88.6634,22.0153],[88.6784,22.0077]]],[[[88.1108,21.971],[88.0965,21.9927],[88.1355,22.0228],[88.1395,21.999],[88.1108,21.971]]],[[[88.6844,22.0173],[88.6828,22.0088],[88.6734,22.0158],[88.6844,22.0173]]],[[[89.3454,23.8837],[89.328,23.8813],[89.3139,23.8913],[89.3325,23.8962],[89.3454,23.8837]]],[[[89.2188,23.9619],[89.2481,23.9325],[89.2293,23.9461],[89.2277,23.9307],[89.1825,23.955],[89.2188,23.9619]]],[[[89.1774,23.9948],[89.1657,23.989],[89.1391,23.9934],[89.1524,23.999],[89.1774,23.9948]]],[[[90.1018,21.8908],[90.0984,21.8845],[90.0935,21.8939],[90.1018,21.8908]]],[[[90.3828,21.9984],[90.355,21.8667],[90.3085,21.8606],[90.3354,21.9532],[90.35,21.9567],[90.3546,21.9798],[90.3828,21.9984]]],[[[90.3009,21.9179],[90.2721,21.8836],[90.2459,21.8985],[90.2692,21.926],[90.2752,21.9429],[90.2648,21.9619],[90.2803,21.9805],[90.3061,21.9653],[90.3009,21.9179]]],[[[90.078,21.9719],[90.0785,21.953],[90.0962,21.9298],[90.0873,21.9017],[90.0717,21.9231],[90.0238,21.938],[90.0317,21.9608],[90.078,21.9719]]],[[[90.3334,21.9741],[90.3229,21.9717],[90.3313,21.9817],[90.3334,21.9741]]],[[[90.3378,22.1039],[90.3789,22.0855],[90.3277,22.0267],[90.3072,21.9737],[90.2804,21.9872],[90.284,22.0585],[90.3134,22.0766],[90.3158,22.086],[90.3475,22.0894],[90.3378,22.1039]]],[[[90.2868,22.3644],[90.2792,22.3456],[90.2707,22.3484],[90.2868,22.3644]]],[[[90.3703,22.9263],[90.3501,22.953],[90.3253,22.9595],[90.3232,22.9702],[90.354,22.9648],[90.3703,22.9263]]],[[[90.3493,22.9421],[90.3104,22.9469],[90.2937,22.9644],[90.311,22.9698],[90.3493,22.9421]]],[[[90.3051,23.034],[90.2836,23.0318],[90.2751,23.039],[90.2946,23.0494],[90.3051,23.034]]],[[[90.3677,23.3579],[90.4125,23.3023],[90.4838,23.2997],[90.4846,23.2426],[90.4691,23.2044],[90.464,23.2259],[90.4514,23.2034],[90.4657,23.1659],[90.433,23.0964],[90.4474,23.0262],[90.3643,23.0126],[90.3281,22.9805],[90.308,23.0508],[90.3262,23.0686],[90.3327,23.1086],[90.3215,23.1028],[90.2728,23.1469],[90.2671,23.1323],[90.2903,23.1204],[90.2522,23.1264],[90.2451,23.1403],[90.2661,23.1596],[90.2184,23.1902],[90.18,23.1728],[90.1769,23.1876],[90.2023,23.2031],[90.2107,23.2247],[90.1695,23.2603],[90.2083,23.255],[90.2332,23.2609],[90.2526,23.2874],[90.2406,23.2941],[90.2888,23.3172],[90.2993,23.3513],[90.3229,23.3648],[90.3677,23.3579]]],[[[90.1767,23.337],[90.2574,23.3068],[90.2329,23.2955],[90.2368,23.2748],[90.222,23.2617],[90.1663,23.2688],[90.1681,23.2557],[90.1823,23.2412],[90.1284,23.2449],[90.1312,23.2629],[90.1257,23.2728],[90.0899,23.279],[90.099,23.2984],[90.126,23.2938],[90.1767,23.337]]],[[[90.3099,23.379],[90.3444,23.374],[90.2984,23.3684],[90.3099,23.379]]],[[[90.1972,23.3766],[90.1889,23.3772],[90.19,23.3863],[90.1972,23.3766]]],[[[90.3327,23.3851],[90.2857,23.3807],[90.2964,23.3724],[90.2702,23.3262],[90.214,23.3614],[90.249,23.3256],[90.2327,23.3301],[90.2033,23.3549],[90.1831,23.449],[90.3327,23.3851]]],[[[90.1832,23.3961],[90.1661,23.4126],[90.1689,23.423],[90.1805,23.4138],[90.1832,23.3961]]],[[[90.1769,23.4223],[90.1681,23.4295],[90.169,23.4389],[90.174,23.4329],[90.1769,23.4223]]],[[[90.2395,23.4693],[90.2285,23.4718],[90.2257,23.4791],[90.2317,23.4776],[90.2395,23.4693]]],[[[90.1961,23.4999],[90.1938,23.4901],[90.1838,23.503],[90.1961,23.4999]]],[[[90.1072,23.6097],[90.1059,23.597],[90.0877,23.6174],[90.1072,23.6097]]],[[[90.3738,23.6954],[90.4175,23.6851],[90.4641,23.6275],[90.4304,23.6154],[90.432,23.6408],[90.4139,23.6233],[90.3878,23.6461],[90.3968,23.6235],[90.3586,23.6324],[90.2915,23.6691],[90.2616,23.7239],[90.2866,23.7318],[90.3081,23.7609],[90.3151,23.73],[90.3738,23.6954]]],[[[89.9294,23.7013],[89.9239,23.6871],[89.8988,23.7075],[89.9294,23.7013]]],[[[89.8636,23.7085],[89.8743,23.71],[89.8761,23.7074],[89.8636,23.7085]]],[[[89.8652,23.7226],[89.8731,23.7227],[89.8745,23.7189],[89.8652,23.7226]]],[[[90.3437,23.7329],[90.3535,23.7145],[90.3291,23.7277],[90.3437,23.7329]]],[[[89.8511,23.7301],[89.8617,23.7257],[89.8624,23.723],[89.8511,23.7301]]],[[[89.2359,23.984],[89.1536,24.0064],[89.0868,23.9988],[89.0605,23.9849],[89.0961,23.9642],[89.123,23.92],[89.1259,23.9544],[89.1658,23.9263],[89.2308,23.921],[89.3009,23.8703],[89.4089,23.8973],[89.4459,23.8246],[89.5025,23.7776],[89.5358,23.7952],[89.5562,23.7891],[89.5966,23.7975],[89.6398,23.7767],[89.7122,23.7743],[89.8616,23.6574],[89.9469,23.6368],[90.0257,23.5559],[90.0181,23.5824],[90.0827,23.5731],[90.1296,23.5406],[90.1588,23.4854],[90.1562,23.428],[90.2071,23.3348],[90.1684,23.3476],[90.1638,23.3638],[90.1866,23.3599],[90.1614,23.368],[90.1684,23.3354],[90.125,23.3055],[90.1203,23.3352],[90.1446,23.3643],[90.1449,23.3779],[90.1267,23.3505],[90.0998,23.3596],[90.1209,23.3472],[90.1142,23.3259],[90.1195,23.306],[90.0939,23.3014],[90.0856,23.2749],[90.123,23.27],[90.1268,23.2424],[90.2019,23.2261],[90.1984,23.2094],[90.1668,23.2018],[90.1746,23.1682],[90.2213,23.1822],[90.2484,23.1625],[90.2337,23.1422],[90.242,23.1257],[90.3144,23.1065],[90.3187,23.0697],[90.2677,23.0426],[90.2728,23.0252],[90.3101,23.0183],[90.3209,22.9872],[90.2739,22.9684],[90.3547,22.9189],[90.3485,22.8877],[90.3181,22.8633],[90.3641,22.7893],[90.3681,22.7369],[90.42,22.7323],[90.4175,22.714],[90.396,22.7289],[90.3837,22.7048],[90.4002,22.7233],[90.4201,22.7084],[90.4298,22.7284],[90.4187,22.7455],[90.3769,22.7405],[90.3841,22.7595],[90.4284,22.7647],[90.468,22.7364],[90.4851,22.6987],[90.4768,22.6561],[90.4979,22.6716],[90.5192,22.6318],[90.5048,22.586],[90.5238,22.5964],[90.5806,22.5231],[90.6115,22.3624],[90.6092,22.2898],[90.5599,22.2396],[90.5272,22.1873],[90.5045,22.1843],[90.4528,22.0798],[90.4375,22.0668],[90.4237,22.0803],[90.4383,22.1543],[90.4176,22.1229],[90.4202,22.0914],[90.3855,22.096],[90.4027,22.1671],[90.4264,22.1835],[90.3997,22.22],[90.4167,22.2617],[90.4037,22.2844],[90.4191,22.2895],[90.3788,22.2929],[90.4144,22.3388],[90.364,22.2939],[90.408,22.2681],[90.395,22.2041],[90.4179,22.1835],[90.3978,22.1711],[90.3864,22.137],[90.3408,22.1619],[90.3877,22.196],[90.3875,22.2113],[90.357,22.1796],[90.3436,22.1957],[90.3497,22.1786],[90.3339,22.1656],[90.3783,22.131],[90.3753,22.1055],[90.3318,22.1085],[90.3266,22.0884],[90.3136,22.0884],[90.2617,22.041],[90.2751,22.0357],[90.278,21.9953],[90.2572,21.956],[90.2111,21.9824],[90.214,22.002],[90.1957,21.9793],[90.2323,21.9679],[90.218,21.9505],[90.2683,21.9465],[90.2409,21.901],[90.2602,21.8716],[90.2243,21.8542],[90.2045,21.8865],[90.2365,21.9351],[90.1968,21.8925],[90.2199,21.8529],[90.2461,21.8545],[90.2128,21.8279],[90.1574,21.8221],[90.1051,21.8604],[90.126,21.8899],[90.1549,21.8849],[90.1533,21.8596],[90.1696,21.8651],[90.152,21.8963],[90.1886,21.9227],[90.1442,21.8906],[90.116,21.8991],[90.1164,21.916],[90.15,21.9227],[90.1377,21.9517],[90.1686,21.9802],[90.1406,21.9702],[90.1279,21.9913],[90.1418,21.9248],[90.1118,21.9223],[90.1084,21.8936],[90.0966,21.8957],[90.0998,21.9391],[90.0733,22.0045],[90.1582,22.1118],[90.213,22.114],[90.2284,22.1642],[90.2539,22.1637],[90.273,22.1789],[90.2772,22.2099],[90.259,22.1723],[90.2289,22.1726],[90.2398,22.1973],[90.22,22.2208],[90.2071,22.3077],[90.228,22.3386],[90.2736,22.3376],[90.2908,22.3515],[90.2967,22.3721],[90.2658,22.3665],[90.2812,22.4076],[90.3159,22.4662],[90.3413,22.4589],[90.3598,22.4905],[90.3405,22.4664],[90.3115,22.4708],[90.2587,22.3756],[90.2551,22.3447],[90.2232,22.3427],[90.2029,22.3161],[90.2095,22.2151],[90.2298,22.1917],[90.2016,22.1215],[90.1588,22.1233],[90.0911,22.0598],[90.0523,21.9707],[90.0317,21.9965],[90.0275,21.9782],[89.9983,21.9921],[89.9928,22.0355],[90.03,22.0611],[90.0375,22.1285],[90.071,22.1531],[90.1401,22.1555],[90.0819,22.1581],[90.0257,22.1888],[90.0791,22.2174],[90.1125,22.2894],[90.1019,22.3432],[90.177,22.4226],[90.2021,22.4865],[90.2065,22.5107],[90.1867,22.5273],[90.2029,22.5717],[90.1853,22.6247],[90.2533,22.6214],[90.2849,22.6314],[90.2938,22.6556],[90.2505,22.6282],[90.18,22.6264],[90.1974,22.5693],[90.1817,22.5257],[90.1995,22.5074],[90.1946,22.4821],[90.1725,22.4559],[90.1706,22.4245],[90.0934,22.3465],[90.1044,22.3003],[90.0696,22.218],[90.0244,22.1955],[90.024,22.1718],[90.0632,22.1613],[90.0168,22.1238],[90.0185,22.0666],[89.9817,22.0436],[89.9885,21.9887],[89.9674,21.9764],[89.9447,21.9945],[89.8814,22.2823],[89.9262,22.3826],[89.9825,22.4356],[89.9994,22.4864],[90.0253,22.4905],[90.0297,22.5646],[90.0657,22.6095],[90.0563,22.6225],[90.0254,22.6002],[90.0335,22.6497],[90.0057,22.6801],[90.0278,22.6508],[90.0132,22.5992],[90.0307,22.5811],[90.0183,22.4951],[89.9547,22.5058],[89.9855,22.4868],[89.9866,22.4645],[89.9078,22.387],[89.886,22.3999],[89.8818,22.4296],[89.8772,22.4058],[89.8975,22.3645],[89.8277,22.248],[89.6205,22.2443],[89.0253,22.1035],[88.993,22.0448],[88.9254,22.0145],[88.8587,22.0244],[88.842,22.0596],[88.7699,22.0234],[88.7594,22.0502],[88.7745,22.0533],[88.7488,22.066],[88.7158,22.0501],[88.7406,22.031],[88.7357,22.0074],[88.6688,22.0225],[88.6448,22.1175],[88.631,22.1198],[88.6205,22.1066],[88.6439,22.0464],[88.6091,21.9766],[88.6199,21.9361],[88.5853,21.9853],[88.5785,21.9648],[88.6107,21.9327],[88.6096,21.9098],[88.5834,21.8858],[88.5603,21.8124],[88.5405,21.8535],[88.5029,21.8819],[88.5314,21.9299],[88.5098,21.9712],[88.5527,21.9853],[88.5652,22.0228],[88.5483,21.9885],[88.5054,21.9739],[88.5111,21.9241],[88.4906,21.9095],[88.4851,21.8967],[88.4662,21.9004],[88.4688,21.9487],[88.4599,21.9387],[88.4526,21.9079],[88.4648,21.8953],[88.485,21.8903],[88.5004,21.851],[88.4562,21.8171],[88.4696,21.7938],[88.448,21.8016],[88.4294,21.7671],[88.4363,21.7039],[88.4198,21.6886],[88.4164,21.6527],[88.4414,21.6209],[88.4194,21.6067],[88.4179,21.5817],[88.3934,21.6057],[88.4046,21.6193],[88.3877,21.6742],[88.4116,21.7195],[88.3794,21.7298],[88.3975,21.7347],[88.4075,21.7637],[88.3915,21.7796],[88.4084,21.7989],[88.4001,21.8346],[88.4217,21.8888],[88.3999,21.8986],[88.4163,21.9239],[88.4048,21.9531],[88.3902,21.9662],[88.4111,21.9793],[88.4116,21.9948],[88.3871,21.9663],[88.4116,21.9225],[88.3958,21.906],[88.398,21.8946],[88.4077,21.8859],[88.3974,21.8741],[88.397,21.7955],[88.3717,21.8006],[88.3648,21.8529],[88.3645,21.8016],[88.3297,21.7886],[88.3146,21.7988],[88.2816,21.7969],[88.2777,21.8096],[88.3148,21.8297],[88.3237,21.8508],[88.3061,21.8664],[88.2686,21.8651],[88.3174,21.8506],[88.2584,21.7991],[88.2887,21.7598],[88.285,21.7154],[88.3063,21.6759],[88.2955,21.6068],[88.3255,21.5795],[88.3053,21.561],[88.2625,21.5575],[88.2265,21.618],[88.2493,21.6474],[88.2433,21.6759],[88.2102,21.6904],[88.2311,21.7008],[88.2165,21.7908],[88.2376,21.7644],[88.2402,21.7795],[88.212,21.8018],[88.2011,21.8507],[88.1645,21.8907],[88.1736,21.9305],[88.1487,21.9594],[88.2329,22.0686],[88.2144,22.1569],[88.1731,22.1973],[88.086,22.2092],[88.0779,22.223],[88.0341,22.2182],[88.0319,22.2018],[88.1442,22.1868],[88.1932,22.1282],[88.1957,22.1037],[88.1618,22.0645],[88.062,22.0134],[88.0491,21.9632],[87.9766,21.8497],[87.9352,21.8113],[87.8866,21.8031],[87.891,21.779],[87.831,21.7238],[87.7876,21.6997],[87.7555,21.7011],[87.7032,21.6602],[87.6638,21.6495],[87.6514,21.6656],[87.6367,21.6471],[87.3716,21.578],[87.3705,21.5618],[87.1956,21.5494],[87.1966,21.5382],[87.1237,21.5148],[87.066,21.473],[86.8942,21.3132],[86.8167,21.1383],[86.9295,20.9011],[86.9724,20.8446],[86.9742,20.7699],[86.9993,20.761],[87.0138,20.7259],[86.9957,20.6995],[87.0257,20.6898],[87.0523,20.7048],[86.766,20.5055],[86.7365,20.452],[86.7403,20.4123],[86.7226,20.3935],[86.7418,20.3778],[86.7283,20.3616],[86.7829,20.3965],[86.7695,20.3352],[86.8032,20.3669],[86.8064,20.3952],[86.8109,20.3707],[86.7667,20.3256],[86.7219,20.3002],[86.6951,20.3017],[86.6873,20.318],[86.6797,20.3091],[86.6954,20.2818],[86.7646,20.3149],[86.7593,20.3063],[86.5381,20.1815],[86.4261,20.0256],[86.423,20.0496],[86.4009,20.0054],[86.429,19.9944],[86.4144,19.9749],[86.1578,19.8714],[86.0759,19.8488],[86.0873,19.8592],[86.0496,19.8556],[86.0658,19.8436],[85.9311,19.821],[85.6792,19.7426],[85.3747,19.5954],[85.2513,19.5152],[85.1224,19.4198],[85.0879,19.3694],[85.0082,19.3281],[84.8674,19.2115],[84.8236,19.1475],[84.8081,19.1464],[84.8021,19.112],[84.6918,18.9564],[84.5976,18.8643],[84.5419,18.7603],[84.5073,18.7512],[84.4722,18.8364],[84.4415,19.0284],[84.2987,20.5261],[84.2916,21.1219],[84.3422,21.6104],[84.4347,22.0009],[84.5836,22.4492],[84.9767,23.4481],[85.1833,24.0458],[85.606,24.8957],[85.6616,25.073],[85.6765,25.2222],[85.6333,25.3819],[85.5168,25.5042],[85.128,25.7087],[84.5915,26.0234],[84.2541,26.189],[84.1524,26.2608],[84.0858,26.3384],[84.0336,26.4721],[83.9328,26.9647],[83.8672,27.1422],[83.8561,27.2144],[83.8875,27.2967],[84.0349,27.4666],[84.1062,27.647],[84.145,27.7024],[84.1853,27.7214],[84.2469,27.7208],[84.5586,27.649],[85.5325,27.2899],[86.3252,26.929],[86.9355,26.749],[87.2481,26.6898],[87.5189,26.6628],[88.7033,26.6613],[89.0754,26.7067],[89.4921,26.8134],[89.8194,26.8153],[90.2625,26.7901],[90.3326,26.8424],[90.296,26.973],[90.3645,27.0794],[90.4438,27.1233],[90.6029,27.1471],[91.0356,27.1702],[91.2743,27.1545],[91.4374,27.1099],[91.6368,26.9933],[91.7599,27.0002],[91.8763,27.0582],[92.4204,27.4114],[92.5265,27.4603],[92.6849,27.5041],[92.8096,27.6133],[92.9934,27.6844],[93.1622,27.7998],[93.4363,27.9085],[93.7786,28.0796],[93.9162,28.1814],[94.2133,28.4738],[94.3709,28.5615],[94.546,28.6202],[94.8825,28.66],[95.1424,28.7312],[95.5329,28.7457],[95.6251,28.7136],[95.7539,28.6271],[95.8636,28.5366],[95.9365,28.4511],[95.9795,28.3468],[96.028,27.9739],[95.9968,27.813],[95.8776,27.4587],[95.7675,27.2023],[95.6804,27.0643],[95.0694,26.4236],[95.1332,26.0036],[95.0142,25.9284],[94.8643,25.5578],[94.7433,25.5084],[94.6068,25.3785],[94.5809,25.2121],[94.7219,25.1079],[94.7321,25.0547],[94.6059,24.7841],[94.3605,24.4482],[94.2823,24.2039],[94.1519,23.8779],[94.1318,23.871],[93.8363,23.9621],[93.4993,23.9688],[93.3806,24.0943],[93.3461,24.0263],[93.3387,23.9842],[93.3993,23.7705],[93.4209,23.5351],[93.3456,23.0997],[93.2885,23.0061],[93.1685,23.0518],[93.1263,23.0457],[93.1475,22.9241],[93.0984,22.8023],[93.1216,22.5372],[93.1708,22.3673],[93.1709,22.3085],[93.1314,22.2159],[92.9677,22.0589],[92.921,22.0525],[92.7853,22.0964],[92.5944,22.0065],[92.5572,22.018],[92.5315,22.0545],[92.513,22.1889],[92.5261,22.7239],[92.5005,22.8229],[92.3699,23.1226],[92.3467,23.5953],[92.3221,23.6433],[92.2513,23.6543],[92.0762,23.7349],[91.9232,23.6907],[91.9106,23.6549],[91.9454,23.5403],[91.9449,23.4948],[91.7597,23.2497],[91.8078,23.1225],[91.7927,23.0804],[91.5193,22.9119],[91.4491,22.9041],[91.4395,22.8863],[91.4544,22.8794],[91.3689,22.8081],[91.3498,22.8082],[91.3304,22.8322],[91.3505,22.8505],[91.3393,22.8827],[91.3158,22.8398],[91.3378,22.8019],[91.3316,22.7847],[91.2957,22.8103],[91.1895,22.7974],[91.1195,22.8098],[91.11,22.8274],[91.0988,22.8051],[91.0516,22.7955],[90.941,22.8552],[90.8253,22.8642],[90.7678,22.9409],[90.7539,22.9322],[90.792,22.9053],[90.7975,22.8665],[90.7814,22.8585],[90.7441,22.8783],[90.7051,22.9277],[90.7005,22.9584],[90.6882,22.9801],[90.6272,23.0002],[90.5669,23.1011],[90.5894,23.1644],[90.6526,23.243],[90.6389,23.3165],[90.6753,23.3166],[90.6743,23.3395],[90.6979,23.3459],[90.6795,23.3632],[90.695,23.3777],[90.6734,23.3643],[90.6614,23.3372],[90.6734,23.3211],[90.6038,23.3331],[90.5795,23.3953],[90.6006,23.4256],[90.5853,23.4661],[90.6219,23.4892],[90.6774,23.4817],[90.7009,23.4882],[90.7139,23.5058],[90.7174,23.5424],[90.7446,23.5445],[90.7246,23.5533],[90.7084,23.5387],[90.7055,23.5621],[90.7329,23.5925],[90.7396,23.6221],[90.7651,23.6302],[90.7627,23.6453],[90.7412,23.6632],[90.758,23.7209],[90.7424,23.6938],[90.7407,23.7238],[90.7311,23.7103],[90.7153,23.7414],[90.6818,23.6867],[90.6441,23.6909],[90.6307,23.6365],[90.5636,23.5935],[90.5536,23.5717],[90.5147,23.5814],[90.5049,23.6034],[90.4843,23.5865],[90.4693,23.6084],[90.4537,23.6151],[90.4701,23.6316],[90.4386,23.6735],[90.3689,23.7187],[90.384,23.7026],[90.366,23.7033],[90.3447,23.7391],[90.3179,23.7348],[90.3119,23.7651],[90.2554,23.7294],[90.2572,23.7754],[90.2306,23.8875],[90.2388,23.8266],[90.2032,23.8413],[90.1543,23.828],[90.1334,23.8659],[90.1128,23.8738],[90.1103,23.8573],[90.0929,23.8524],[90.0548,23.8207],[90.046,23.8296],[90.0629,23.8764],[90.0457,23.8897],[90.026,23.8818],[90.0228,23.9071],[89.9531,23.9623],[89.9518,23.9857],[89.933,23.9851],[89.9496,23.9615],[89.9381,23.9549],[90.0186,23.8947],[90.0127,23.8784],[90.0538,23.8747],[90.0409,23.8277],[90.0475,23.8169],[90.0905,23.8299],[90.1248,23.8071],[90.1818,23.8021],[90.2059,23.8158],[90.2207,23.8002],[90.2414,23.8151],[90.2061,23.7517],[90.2185,23.7236],[90.2541,23.72],[90.2747,23.6864],[90.2539,23.7084],[90.2206,23.7082],[90.1825,23.7401],[90.1918,23.7194],[90.1681,23.7215],[90.1475,23.7108],[90.1235,23.7365],[90.0698,23.7579],[90.023,23.7636],[90.0241,23.7979],[90.0022,23.8161],[90.0193,23.7628],[90.1205,23.7334],[90.1451,23.7046],[90.1722,23.7165],[90.2211,23.703],[90.2483,23.7073],[90.2761,23.6547],[90.2919,23.659],[90.3975,23.6023],[90.3994,23.5775],[90.38,23.5673],[90.41,23.5802],[90.4486,23.5418],[90.4688,23.5475],[90.504,23.5719],[90.5372,23.5618],[90.5701,23.4823],[90.569,23.475],[90.5531,23.4886],[90.537,23.482],[90.5347,23.4627],[90.5543,23.4281],[90.5269,23.3908],[90.4863,23.4206],[90.4209,23.416],[90.2819,23.4471],[90.1575,23.5302],[90.1084,23.6143],[89.9669,23.6604],[89.9208,23.7195],[89.8549,23.7507],[89.7914,23.8079],[89.7749,23.899],[89.768,23.8875],[89.7045,23.956],[89.7271,23.9754],[89.7215,23.9999],[89.7142,23.9698],[89.6986,23.9645],[89.7055,23.9987],[89.6717,24.0012],[89.6556,23.934],[89.6677,23.9149],[89.6994,23.8776],[89.7522,23.8654],[89.7719,23.8366],[89.7574,23.8477],[89.7233,23.8346],[89.6825,23.8639],[89.6828,23.8495],[89.7174,23.8311],[89.6269,23.8456],[89.5483,23.8241],[89.4499,23.8705],[89.4245,23.9147],[89.3786,23.9471],[89.3284,23.9489],[89.2757,23.988],[89.3168,23.9502],[89.2926,23.9454],[89.2359,23.984]]],[[[89.8004,23.7329],[89.7859,23.7415],[89.7866,23.7638],[89.7916,23.7575],[89.8004,23.7329]]],[[[90.2291,23.7247],[90.2119,23.7559],[90.2424,23.7921],[90.2523,23.747],[90.2291,23.7247]]],[[[89.7798,23.743],[89.759,23.7627],[89.7442,23.8041],[89.7773,23.7866],[89.7798,23.743]]],[[[89.7416,23.7781],[89.6872,23.7886],[89.6818,23.7993],[89.718,23.8016],[89.7416,23.7781]]],[[[89.6382,23.8004],[89.6751,23.7891],[89.6362,23.7876],[89.6382,23.8004]]],[[[89.488,23.817],[89.5325,23.8146],[89.5128,23.786],[89.488,23.817]]],[[[89.6196,23.8051],[89.5577,23.7942],[89.5465,23.7973],[89.5833,23.8143],[89.6196,23.8051]]],[[[90.1403,23.8317],[90.1702,23.8203],[90.206,23.8352],[90.2338,23.8197],[90.2238,23.8068],[90.2082,23.8222],[90.1819,23.8071],[90.1358,23.8117],[90.087,23.8381],[90.1156,23.8539],[90.1183,23.8703],[90.1403,23.8317]]],[[[89.7341,23.8814],[89.6995,23.8969],[89.6906,23.9316],[89.7086,23.9213],[89.7341,23.8814]]],[[[89.3797,23.9207],[89.4094,23.9158],[89.3782,23.907],[89.3797,23.9207]]],[[[89.3716,23.9144],[89.3563,23.8931],[89.3403,23.8963],[89.3189,23.8965],[89.2907,23.9394],[89.3676,23.9418],[89.3716,23.9144]]],[[[89.6793,23.9132],[89.6636,23.9215],[89.6644,23.9422],[89.6767,23.9366],[89.6793,23.9132]]],[[[90.3972,21.9322],[90.3865,21.9262],[90.3936,21.9378],[90.3972,21.9322]]],[[[90.5157,21.9809],[90.5014,21.9355],[90.493,21.9324],[90.4931,21.9676],[90.5157,21.9809]]],[[[90.3972,21.9608],[90.3871,21.9573],[90.3956,21.9657],[90.3972,21.9608]]],[[[90.4542,22.0277],[90.4717,21.995],[90.4576,21.9198],[90.4001,21.8996],[90.393,21.9156],[90.4222,22.0094],[90.4125,22.0314],[90.4542,22.0277]]],[[[90.5208,21.9913],[90.4997,22.0019],[90.5402,22.0275],[90.5404,22.019],[90.5208,21.9913]]],[[[90.3444,21.9672],[90.339,21.9823],[90.3527,22.0241],[90.3969,22.0703],[90.4087,22.0466],[90.3444,21.9672]]],[[[90.4059,22.0313],[90.4004,22.0157],[90.4011,22.0336],[90.4059,22.0313]]],[[[90.4451,22.0371],[90.4225,22.0337],[90.4135,22.0414],[90.4325,22.0464],[90.4451,22.0371]]],[[[90.5572,22.0324],[90.5423,22.0073],[90.5504,22.0297],[90.5375,22.0347],[90.4916,22.0102],[90.5573,22.0982],[90.5572,22.0324]]],[[[90.4867,22.0438],[90.4823,22.0766],[90.5179,22.1053],[90.5213,22.0762],[90.4867,22.0438]]],[[[90.5523,22.1039],[90.5264,22.0587],[90.5053,22.0445],[90.5306,22.0839],[90.5241,22.108],[90.5423,22.1173],[90.5523,22.1039]]],[[[90.5147,22.1365],[90.5072,22.1723],[90.5435,22.1752],[90.5411,22.1552],[90.5147,22.1365]]],[[[90.4896,22.7215],[90.4741,22.734],[90.4742,22.7458],[90.4852,22.7387],[90.4896,22.7215]]],[[[90.5457,22.7708],[90.5285,22.6842],[90.5001,22.7239],[90.4971,22.7894],[90.5457,22.7708]]],[[[90.4594,22.7489],[90.4346,22.7712],[90.4512,22.7881],[90.4797,22.7604],[90.4594,22.7489]]],[[[90.491,22.8168],[90.4563,22.8115],[90.4543,22.8296],[90.4876,22.8322],[90.491,22.8168]]],[[[90.4494,22.978],[90.4562,23.0016],[90.5382,22.9584],[90.5449,22.9045],[90.5192,22.8764],[90.4667,22.8655],[90.4448,22.8266],[90.4468,22.8042],[90.4267,22.8179],[90.4274,22.842],[90.3956,22.8281],[90.3901,22.8376],[90.4242,22.904],[90.4167,22.9159],[90.3844,22.8556],[90.3951,22.7999],[90.4157,22.7826],[90.3844,22.7884],[90.42,22.7751],[90.3983,22.7647],[90.3323,22.8471],[90.3808,22.9079],[90.3533,22.9931],[90.384,23.0014],[90.4494,22.978]]],[[[90.4395,23.0019],[90.423,23.0069],[90.4416,23.006],[90.4395,23.0019]]],[[[90.4126,23.0064],[90.3921,23.0105],[90.4172,23.0105],[90.4126,23.0064]]],[[[90.507,23.0173],[90.4997,23.019],[90.5046,23.0252],[90.507,23.0173]]],[[[90.495,23.0208],[90.4747,23.0252],[90.4763,23.0417],[90.495,23.0208]]],[[[90.5057,23.0349],[90.4903,23.0489],[90.5056,23.0638],[90.5089,23.0603],[90.5057,23.0349]]],[[[90.5229,23.0687],[90.5258,23.0535],[90.5212,23.053],[90.5229,23.0687]]],[[[90.5149,23.0813],[90.5003,23.1003],[90.5161,23.1386],[90.5241,23.0912],[90.5149,23.0813]]],[[[90.5072,23.1648],[90.4957,23.0845],[90.4677,23.0968],[90.4436,23.0565],[90.4444,23.1085],[90.4916,23.134],[90.4647,23.1898],[90.4687,23.2012],[90.4737,23.1841],[90.5072,23.1648]]],[[[90.4757,23.1555],[90.4781,23.1308],[90.4572,23.1226],[90.4634,23.1481],[90.4757,23.1555]]],[[[90.5309,23.1705],[90.5356,23.1882],[90.5449,23.1982],[90.5417,23.1434],[90.5216,23.1792],[90.5329,23.2004],[90.5309,23.1705]]],[[[90.4512,23.3396],[90.5194,23.3282],[90.5516,23.2846],[90.5456,23.2448],[90.5004,23.1797],[90.4757,23.1971],[90.5006,23.2457],[90.4948,23.2963],[90.4512,23.3396]]],[[[90.4524,23.3147],[90.4221,23.3168],[90.3487,23.3962],[90.4329,23.3584],[90.4524,23.3147]]],[[[90.4828,23.3509],[90.4509,23.3607],[90.4465,23.37],[90.4828,23.3509]]],[[[90.5354,23.3628],[90.533,23.3512],[90.5289,23.3644],[90.5354,23.3628]]],[[[90.4836,23.3717],[90.4639,23.3668],[90.4237,23.39],[90.4473,23.3942],[90.4836,23.3717]]],[[[90.46,23.401],[90.4943,23.3984],[90.5011,23.3829],[90.46,23.3878],[90.46,23.401]]],[[[90.3974,23.4081],[90.4179,23.3941],[90.3922,23.4041],[90.3974,23.4081]]],[[[90.4755,23.5666],[90.465,23.5493],[90.4395,23.5532],[90.4507,23.5674],[90.4755,23.5666]]],[[[90.4439,23.5983],[90.4323,23.5591],[90.4266,23.6061],[90.4439,23.5983]]],[[[90.4273,23.5722],[90.4083,23.5878],[90.4043,23.6057],[90.4207,23.5965],[90.4273,23.5722]]],[[[90.4822,23.5829],[90.5024,23.5852],[90.4536,23.5755],[90.4477,23.6043],[90.4822,23.5829]]],[[[90.4067,23.6108],[90.3893,23.6125],[90.4177,23.6109],[90.4067,23.6108]]],[[[90.5701,21.9457],[90.5245,21.8985],[90.5073,21.8902],[90.5258,21.9424],[90.5632,21.9589],[90.5701,21.9457]]],[[[90.5505,21.9994],[90.5542,21.9933],[90.5478,21.9918],[90.5505,21.9994]]],[[[90.5639,22.0133],[90.5512,22.0075],[90.5579,22.0227],[90.5639,22.0133]]],[[[90.635,21.995],[90.6187,21.9854],[90.6115,21.9988],[90.6434,22.053],[90.635,21.995]]],[[[90.6641,22.0972],[90.6234,22.0443],[90.6124,22.0624],[90.6311,22.0947],[90.6199,22.0837],[90.6055,22.056],[90.6229,22.0315],[90.6088,22.0209],[90.5951,22.0694],[90.6171,22.1117],[90.6583,22.128],[90.6641,22.0972]]],[[[90.597,22.1085],[90.5856,22.1073],[90.5965,22.1175],[90.597,22.1085]]],[[[90.5949,22.1275],[90.5801,22.1205],[90.5782,22.1291],[90.5949,22.1275]]],[[[90.6166,22.1755],[90.6113,22.1772],[90.6164,22.1831],[90.6166,22.1755]]],[[[90.549,22.1903],[90.5371,22.1942],[90.5642,22.2318],[90.5698,22.2188],[90.549,22.1903]]],[[[90.5842,22.2442],[90.5686,22.2397],[90.5822,22.2509],[90.5842,22.2442]]],[[[90.6402,22.4078],[90.6456,22.3686],[90.6324,22.4126],[90.6402,22.4078]]],[[[90.6331,22.3618],[90.604,22.4211],[90.6049,22.4629],[90.6286,22.4344],[90.6331,22.3618]]],[[[90.6584,22.4621],[90.6452,22.469],[90.6137,22.5393],[90.6329,22.5261],[90.6584,22.4621]]],[[[90.5684,22.6212],[90.56,22.6085],[90.5579,22.6283],[90.5684,22.6212]]],[[[90.5736,22.7442],[90.5661,22.777],[90.5998,22.7782],[90.5944,22.767],[90.5736,22.7442]]],[[[90.6603,22.8159],[90.6194,22.783],[90.5955,22.7884],[90.6129,22.8077],[90.6603,22.8159]]],[[[90.6435,22.8425],[90.6323,22.8422],[90.6461,22.8485],[90.6435,22.8425]]],[[[90.6456,22.8628],[90.557,22.7903],[90.4869,22.8386],[90.4606,22.8414],[90.4812,22.8666],[90.5325,22.8736],[90.5512,22.8998],[90.552,22.9444],[90.6489,22.8954],[90.6456,22.8628]]],[[[90.6405,22.9623],[90.636,22.9574],[90.6318,22.9652],[90.6405,22.9623]]],[[[90.5652,22.9995],[90.5358,23.0207],[90.5549,23.048],[90.5621,23.0416],[90.5652,22.9995]]],[[[90.5792,23.1846],[90.5541,23.1617],[90.5752,23.2084],[90.5792,23.1846]]],[[[90.556,23.2105],[90.5627,23.1939],[90.5569,23.1902],[90.556,23.2105]]],[[[90.5947,23.2317],[90.5901,23.2108],[90.5834,23.219],[90.5947,23.2317]]],[[[90.6188,23.2288],[90.6123,23.2261],[90.6162,23.2364],[90.6188,23.2288]]],[[[90.5631,23.2392],[90.562,23.2295],[90.5578,23.2282],[90.5631,23.2392]]],[[[90.5859,23.2561],[90.571,23.2474],[90.5822,23.26],[90.5859,23.2561]]],[[[90.6332,23.254],[90.6221,23.239],[90.6215,23.2624],[90.6332,23.254]]],[[[90.5729,23.3151],[90.5698,23.3081],[90.5656,23.3198],[90.5729,23.3151]]],[[[90.5576,23.3263],[90.5531,23.317],[90.5451,23.3288],[90.5576,23.3263]]],[[[90.5835,23.3473],[90.5916,23.3483],[90.5916,23.3393],[90.5835,23.3473]]],[[[90.545,23.3738],[90.5589,23.383],[90.5602,23.3673],[90.545,23.3738]]],[[[90.5882,23.427],[90.571,23.3967],[90.582,23.3682],[90.5655,23.4052],[90.5882,23.427]]],[[[90.5756,23.4381],[90.5687,23.443],[90.5743,23.4501],[90.5756,23.4381]]],[[[90.5621,23.4799],[90.5457,23.4501],[90.5443,23.4803],[90.5621,23.4799]]],[[[90.6236,23.4974],[90.6151,23.4878],[90.6083,23.4914],[90.6236,23.4974]]],[[[90.5731,23.5241],[90.5661,23.5158],[90.557,23.5382],[90.5731,23.5241]]],[[[90.6367,23.6107],[90.6838,23.5628],[90.6668,23.5693],[90.6946,23.5158],[90.6618,23.5223],[90.586,23.487],[90.5887,23.5232],[90.565,23.5863],[90.5919,23.5835],[90.6367,23.6107]]],[[[90.5517,23.5594],[90.5655,23.5537],[90.5676,23.5437],[90.5517,23.5594]]],[[[90.6273,23.6192],[90.6019,23.6062],[90.6252,23.6267],[90.6273,23.6192]]],[[[96.4676,17.3537],[96.4942,17.3194],[96.4601,17.293],[96.4335,17.3269],[96.4676,17.3537]]],[[[90.6675,22.0355],[90.6581,22.0273],[90.6585,22.0484],[90.6675,22.0355]]],[[[90.6989,22.066],[90.6715,22.0293],[90.6691,22.0671],[90.6989,22.066]]],[[[90.6685,22.0732],[90.6573,22.0675],[90.6667,22.0808],[90.6685,22.0732]]],[[[90.8271,22.1909],[90.8312,22.19],[90.8299,22.1869],[90.8271,22.1909]]],[[[90.8307,22.2114],[90.8321,22.211],[90.8313,22.2076],[90.8307,22.2114]]],[[[90.6542,22.4094],[90.6507,22.4],[90.6505,22.4138],[90.6542,22.4094]]],[[[90.7314,22.773],[90.7841,22.6153],[90.8684,22.517],[90.8893,22.4477],[90.881,22.4191],[90.834,22.3781],[90.8458,22.2474],[90.8313,22.2187],[90.8074,22.2168],[90.8262,22.1987],[90.8031,22.2071],[90.796,22.246],[90.7903,22.2377],[90.799,22.2017],[90.821,22.1845],[90.7784,22.186],[90.8214,22.1764],[90.8226,22.1441],[90.7921,22.1205],[90.7951,22.1454],[90.7785,22.111],[90.7619,22.111],[90.7131,22.0568],[90.7374,22.1319],[90.7043,22.0704],[90.6754,22.0706],[90.6785,22.1064],[90.6991,22.1117],[90.6702,22.1262],[90.6955,22.1384],[90.6591,22.1332],[90.6343,22.1482],[90.626,22.131],[90.6108,22.1496],[90.67,22.2745],[90.6701,22.479],[90.6083,22.5995],[90.5888,22.6066],[90.6183,22.5466],[90.5733,22.594],[90.5745,22.6202],[90.5634,22.6405],[90.5735,22.6482],[90.5887,22.6336],[90.5796,22.6542],[90.5644,22.656],[90.5434,22.6283],[90.5389,22.6554],[90.59,22.7349],[90.6708,22.7873],[90.7314,22.773]]],[[[90.6445,22.4277],[90.6406,22.4185],[90.6404,22.4302],[90.6445,22.4277]]],[[[90.6499,22.5073],[90.6447,22.5036],[90.6453,22.5118],[90.6499,22.5073]]],[[[91.0313,22.5597],[91.0238,22.553],[91.0188,22.5534],[91.0313,22.5597]]],[[[91.215,22.6369],[91.2661,22.6165],[91.2312,22.5743],[91.215,22.6369]]],[[[91.1643,22.5852],[91.1066,22.5622],[91.0912,22.5947],[91.1405,22.6644],[91.1724,22.609],[91.1643,22.5852]]],[[[91.127,22.677],[91.0894,22.6013],[91.0849,22.5531],[91.0654,22.57],[91.0583,22.6389],[91.0449,22.636],[91.0553,22.6976],[91.1088,22.7014],[91.127,22.677]]],[[[90.8096,22.6886],[90.8205,22.6551],[90.8044,22.6664],[90.7958,22.6567],[90.7898,22.6842],[90.8096,22.6886]]],[[[91.282,22.6759],[91.283,22.6752],[91.2821,22.6735],[91.282,22.6759]]],[[[90.9387,22.8052],[91.0195,22.7177],[91.0097,22.7051],[90.9751,22.7224],[90.9657,22.7161],[91.036,22.6703],[91.0293,22.6411],[91.0596,22.5993],[91.0555,22.5808],[91.0504,22.5933],[91.0248,22.5767],[91.0439,22.5696],[90.9915,22.5403],[90.9501,22.551],[90.9254,22.5755],[90.9398,22.5914],[90.9174,22.5882],[90.8627,22.6328],[90.8336,22.7296],[90.7974,22.7665],[90.8018,22.7834],[90.8727,22.805],[90.9387,22.8052]]],[[[91.0426,22.6776],[91.0294,22.6819],[91.0155,22.6999],[91.0456,22.7052],[91.0426,22.6776]]],[[[91.2326,22.7439],[91.2951,22.7141],[91.2714,22.6678],[91.217,22.6986],[91.2354,22.711],[91.2078,22.7045],[91.1311,22.7357],[91.2326,22.7439]]],[[[90.8013,22.7153],[90.7982,22.7102],[90.7921,22.718],[90.8013,22.7153]]],[[[91.3098,22.7487],[91.3107,22.7479],[91.3101,22.7469],[91.3098,22.7487]]],[[[90.7018,22.8189],[90.6802,22.8129],[90.6665,22.8265],[90.6919,22.8341],[90.7018,22.8189]]],[[[90.6889,22.8475],[90.6769,22.8527],[90.6936,22.8542],[90.6889,22.8475]]],[[[90.6641,22.8558],[90.6548,22.8812],[90.6726,22.8818],[90.6641,22.8558]]],[[[90.6928,22.9565],[90.675,22.9592],[90.6484,22.9845],[90.6835,22.9791],[90.6928,22.9565]]],[[[90.6731,23.3494],[90.6825,23.3514],[90.6815,23.3461],[90.6731,23.3494]]],[[[90.6868,23.4897],[90.6642,23.4887],[90.6435,23.5016],[90.6649,23.5165],[90.6868,23.4897]]],[[[90.7067,23.5062],[90.6947,23.4973],[90.7019,23.5148],[90.7067,23.5062]]],[[[90.6907,23.5465],[90.7065,23.5408],[90.7019,23.5256],[90.6907,23.5465]]],[[[90.6968,23.5565],[90.6918,23.5631],[90.6987,23.5623],[90.6968,23.5565]]],[[[90.6896,23.5731],[90.6794,23.5734],[90.6806,23.5796],[90.6896,23.5731]]],[[[90.6738,23.6487],[90.7313,23.6528],[90.7613,23.6339],[90.7359,23.6272],[90.7277,23.5943],[90.6964,23.5732],[90.6683,23.5902],[90.6535,23.6238],[90.6587,23.6562],[90.6738,23.6487]]],[[[90.6491,23.6173],[90.6315,23.6175],[90.643,23.6584],[90.6628,23.6646],[90.6495,23.6456],[90.6491,23.6173]]],[[[90.6838,23.6627],[90.6694,23.6627],[90.6722,23.6689],[90.6838,23.6627]]],[[[90.7261,23.679],[90.7034,23.6612],[90.6923,23.6753],[90.7261,23.679]]],[[[90.6575,23.6794],[90.654,23.6716],[90.6475,23.6802],[90.6575,23.6794]]],[[[90.7321,23.6966],[90.6938,23.6858],[90.712,23.7259],[90.7321,23.6966]]]]}}