{"type":"Feature","properties":{"speciesId":745,"category":"LC","source":"IUCN Red List","simplifyTol":0.01,"clippedToSubcontinent":true},"geometry":{"type":"Polygon","coordinates":[[[75.5428,12.6752],[75.4588,12.8278],[75.3959,12.9967],[75.357,13.1726],[75.3427,13.3538],[75.3641,13.3915],[75.6072,13.5602],[75.6895,13.5818],[75.7284,13.5206],[75.7503,13.3225],[75.7433,12.921],[75.7714,12.4621],[75.7491,12.2783],[75.6971,12.2219],[75.6653,12.2268],[75.6505,12.2691],[75.6878,12.4969],[75.5428,12.6752]]]}}