{"type":"Feature","properties":{"speciesId":747,"category":"DD","source":"IUCN Red List","simplifyTol":0.01,"clippedToSubcontinent":true},"geometry":{"type":"MultiPolygon","coordinates":[[[[92.936,23.9636],[92.9111,23.9725],[92.9215,23.9948],[92.9396,23.9884],[92.936,23.9636]]],[[[93.4052,24.9172],[93.4017,24.9422],[93.4197,24.9487],[93.4301,24.9261],[93.4052,24.9172]]],[[[93.4844,24.9777],[93.4808,25.0027],[93.4989,25.0092],[93.5093,24.9867],[93.4844,24.9777]]],[[[93.5561,25.0073],[93.5597,25.0323],[93.5787,25.0323],[93.5822,25.0073],[93.5561,25.0073]]],[[[93.4011,25.0181],[93.4047,25.0431],[93.4237,25.0431],[93.4272,25.0181],[93.4011,25.0181]]]]}}