{"type":"Feature","properties":{"speciesId":75,"category":"LC","source":"IUCN Red List","simplifyTol":0.01,"clippedToSubcontinent":true},"geometry":{"type":"MultiPolygon","coordinates":[[[[80.2496,8.7955],[80.7136,8.7027],[80.8861,8.5986],[81.0817,8.5256],[81.2862,8.2441],[81.4376,8.1488],[81.4918,8.0098],[81.5686,7.9227],[81.5874,7.921],[81.5671,7.8981],[81.593,7.83],[81.6268,7.8247],[81.6544,7.7729],[81.6999,7.7536],[81.7333,7.7119],[81.7932,7.5985],[81.8252,7.4366],[81.8718,7.3159],[81.8586,7.0907],[81.8813,7.0267],[81.8704,6.9789],[81.8489,6.9896],[81.8578,6.9672],[81.8729,6.9669],[81.8364,6.8853],[81.8518,6.8884],[81.8483,6.8675],[81.8397,6.8542],[81.8211,6.8621],[81.8444,6.8344],[81.8233,6.8088],[81.8249,6.7653],[81.8084,6.7647],[81.8279,6.7586],[81.7759,6.6639],[81.7664,6.592],[81.7324,6.5669],[81.7003,6.482],[81.6518,6.4367],[81.5973,6.4241],[81.6135,6.4056],[81.56,6.3612],[81.522,6.3525],[81.4869,6.3055],[81.3285,6.1945],[81.2222,6.1589],[81.1946,6.1576],[81.197,6.1776],[81.178,6.1441],[81.1336,6.1174],[81.0167,6.1071],[80.8659,6.0408],[80.8255,6.0415],[80.7202,5.9607],[80.6641,5.9575],[80.5868,5.9168],[80.5532,5.9411],[80.4489,5.9431],[80.4522,5.9588],[80.4357,5.969],[80.4179,5.955],[80.3828,5.9595],[80.2442,6.0069],[80.2285,6.0351],[80.2186,6.022],[80.0986,6.1289],[80.0314,6.2656],[80.0167,6.3767],[79.9746,6.464],[79.9866,6.4771],[79.9796,6.5149],[79.8687,6.8057],[79.8431,6.9333],[79.8712,6.9756],[79.869,7.0027],[79.819,7.1934],[79.8592,7.2756],[79.8445,7.2761],[79.8027,7.4826],[79.7916,7.5936],[79.8062,7.6517],[79.7749,7.8372],[79.8086,7.8731],[79.7434,7.9565],[79.7053,8.0526],[79.6984,8.2138],[79.7179,8.2167],[79.7381,8.28],[79.7812,8.3497],[79.7563,8.3071],[79.7511,8.2617],[79.7655,8.2739],[79.7573,8.2571],[79.7766,8.2541],[79.7688,8.2156],[79.7404,8.2008],[79.7492,8.1829],[79.7316,8.0868],[79.7541,8.0582],[79.7426,8.0],[79.8163,7.9776],[79.8082,7.8839],[79.8179,7.8899],[79.834,8.0071],[79.7896,8.0682],[79.8086,8.0611],[79.7948,8.0793],[79.8338,8.1396],[79.8154,8.2037],[79.7946,8.2203],[79.8095,8.2174],[79.7897,8.2301],[79.8101,8.2374],[79.8342,8.2919],[79.8476,8.2742],[79.8584,8.2846],[79.8351,8.317],[79.8678,8.5277],[79.9263,8.559],[79.9193,8.5846],[79.9414,8.6155],[79.9561,8.7209],[79.9248,8.7907],[79.9401,8.8068],[79.9251,8.7999],[79.9217,8.8255],[80.0108,8.7978],[80.2496,8.7955]]],[[[81.2059,8.54],[81.2153,8.5394],[81.2077,8.5364],[81.2059,8.54]]],[[[78.571,12.5133],[78.703,12.39],[78.8333,12.1928],[78.8941,11.8473],[79.1438,11.7402],[79.3316,11.6061],[79.6088,11.463],[79.7787,11.3289],[79.8234,11.1858],[79.8055,10.9623],[79.5551,10.8908],[79.2328,10.9074],[78.8819,10.8171],[78.69,10.81],[78.5983,10.8772],[78.531,11.0778],[78.4284,11.0964],[78.1333,11.0696],[77.4627,10.8013],[77.0067,10.694],[77.1587,10.5867],[77.4272,10.5585],[77.6871,10.4171],[77.9285,10.3718],[77.982,10.222],[77.9,9.9435],[77.7001,9.5438],[77.4213,9.1776],[77.3643,9.004],[77.4001,8.7983],[77.5789,8.5748],[77.6058,8.3691],[77.5342,8.1903],[77.2034,8.2171],[76.7116,8.7536],[76.3181,9.5316],[76.3181,9.7194],[76.2446,9.9545],[75.719,11.4362],[75.3434,11.9817],[75.2719,12.1426],[75.254,12.3841],[75.3077,12.4735],[75.5223,12.4645],[75.8084,12.4914],[77.6147,12.1158],[77.8472,12.1247],[78.0681,12.1783],[78.2622,12.3272],[78.571,12.5133]]]]}}