{"type":"Feature","properties":{"speciesId":751,"category":"LC","source":"IUCN Red List","simplifyTol":0.01,"clippedToSubcontinent":true},"geometry":{"type":"Polygon","coordinates":[[[76.7984,10.5768],[76.9593,10.5792],[77.0277,10.5629],[77.1006,10.4946],[77.1527,10.3921],[77.1519,10.3049],[77.013,10.0729],[76.9615,9.9155],[76.9551,9.8227],[76.9847,9.7489],[77.1016,9.5836],[77.1868,9.3757],[77.1977,9.2784],[77.1674,9.1472],[77.1642,9.0398],[77.1818,8.9202],[77.2194,8.8065],[77.3364,8.6324],[77.4028,8.5746],[77.51,8.5223],[77.5416,8.473],[77.5482,8.354],[77.5277,8.3258],[77.4834,8.3053],[77.3032,8.2837],[77.1808,8.3141],[77.133,8.3638],[77.0433,8.5103],[76.8568,8.7278],[76.7778,8.8609],[76.7233,8.9922],[76.6789,9.2948],[76.5114,9.5434],[76.428,9.7551],[76.3691,10.0014],[76.3593,10.1574],[76.3865,10.2749],[76.4879,10.5046],[76.5303,10.5751],[76.5788,10.6047],[76.7984,10.5768]]]}}