{"type":"Feature","properties":{"speciesId":756,"category":"NT","source":"IUCN Red List","simplifyTol":0.01,"clippedToSubcontinent":true},"geometry":{"type":"Polygon","coordinates":[[[75.7044,12.7361],[75.3767,12.6819],[75.2296,12.7005],[74.9652,12.8037],[74.8916,12.89],[74.8738,13.2672],[74.7684,13.6657],[74.5957,14.0892],[74.3995,14.5035],[74.3898,14.5536],[74.2581,14.7824],[74.2552,14.8402],[74.2893,14.9118],[74.3384,15.1538],[74.3406,15.4588],[74.3757,15.5006],[74.4644,15.5001],[74.53,15.301],[74.5801,15.0228],[74.6394,14.8424],[74.7811,14.5005],[75.0782,13.8862],[75.1531,13.772],[75.2342,13.6853],[75.4681,13.5418],[75.5596,13.4686],[75.5374,13.4398],[75.5631,13.4309],[75.5511,13.4124],[75.5756,13.3711],[75.5684,13.3466],[75.6224,13.2925],[75.6378,13.2975],[75.6416,13.2498],[75.5587,13.3107],[75.5254,13.3012],[75.6247,13.2016],[75.6207,13.1764],[75.7241,13.1151],[75.75,13.0641],[75.7927,12.9033],[75.7683,12.8041],[75.7044,12.7361]]]}}