{"type":"Feature","properties":{"speciesId":758,"category":"LC","source":"IUCN Red List","simplifyTol":0.01,"clippedToSubcontinent":true},"geometry":{"type":"MultiPolygon","coordinates":[[[[72.9637,18.7123],[72.9629,18.7124],[72.9629,18.7131],[72.9637,18.7123]]],[[[72.9692,18.7646],[72.9689,18.7638],[72.9682,18.7641],[72.9692,18.7646]]],[[[72.9318,18.8096],[72.9276,18.7913],[72.9465,18.7926],[72.9511,18.7606],[72.9841,18.7592],[72.9537,18.743],[72.969,18.7399],[72.9519,18.7277],[72.952,18.7172],[72.9639,18.7238],[72.9623,18.7108],[72.9786,18.716],[72.9858,18.7015],[72.9748,18.7013],[72.9815,18.6921],[72.9891,18.694],[72.9847,18.7113],[72.978,18.7179],[72.9698,18.7182],[72.9664,18.7234],[72.9832,18.7523],[72.9792,18.7392],[73.0239,18.7094],[73.0246,18.6869],[72.9772,18.6477],[72.8952,18.6406],[72.8638,18.66],[72.878,18.6717],[72.8633,18.6689],[72.8557,18.6948],[72.8634,18.7916],[72.8695,18.804],[72.8838,18.8081],[72.9165,18.7873],[72.9318,18.8096]]],[[[72.8453,19.3188],[72.914,19.2742],[72.9113,19.2873],[72.9573,19.295],[72.9878,19.2777],[73.0034,19.2228],[72.9714,19.1338],[72.8629,19.1134],[72.8206,19.1154],[72.806,19.1466],[72.7872,19.129],[72.7809,19.1663],[72.7964,19.197],[72.7824,19.1929],[72.7751,19.2081],[72.7862,19.3063],[72.8162,19.302],[72.8453,19.3188]]],[[[73.8712,16.3789],[73.8107,16.3857],[73.7514,16.4179],[73.7147,16.4683],[73.678,16.5652],[73.629,16.7751],[73.5716,17.2471],[73.4213,17.9932],[73.2406,18.6095],[73.0961,18.8321],[73.0634,18.9289],[73.179,19.3733],[73.2524,19.8515],[73.3892,20.2898],[73.6133,20.8124],[73.6761,20.88],[73.7602,20.9021],[73.8909,20.8711],[73.9447,20.8185],[73.9508,20.759],[73.9138,20.55],[73.9882,20.4038],[73.9882,20.3586],[73.967,20.3373],[73.8447,20.3373],[73.7383,20.3107],[73.7011,20.2794],[73.6909,20.2408],[73.6825,20.045],[73.7221,19.7726],[73.7815,19.6208],[73.8959,19.4468],[73.9128,19.3848],[73.864,19.2613],[73.7222,19.1033],[73.6931,19.0412],[73.6517,18.8061],[73.6445,18.5769],[73.6806,18.4091],[73.8457,18.0387],[73.893,17.8986],[73.9256,17.3021],[73.9795,17.0969],[74.1021,16.8151],[74.1336,16.6228],[74.1162,16.5246],[74.0639,16.45],[73.9815,16.4015],[73.8712,16.3789]]]]}}