{"type":"Feature","properties":{"speciesId":76,"category":"LC","source":"IUCN Red List","simplifyTol":0.01,"clippedToSubcontinent":true},"geometry":{"type":"MultiPolygon","coordinates":[[[[98.0,15.8086],[97.9085,16.0879],[97.8061,16.3265],[97.8346,16.3236],[97.8601,16.2918],[97.8887,16.2862],[97.8521,16.3024],[97.8441,16.3234],[97.8042,16.3305],[97.8013,16.3576],[97.6875,16.551],[97.7465,16.5616],[97.6794,16.5647],[97.4109,16.9517],[97.084,17.2975],[95.2522,20.9409],[94.8321,22.4525],[92.9858,22.9331],[91.2328,23.4731],[87.4522,22.9678],[82.2015,22.0969],[82.1931,22.0641],[82.1636,22.0481],[82.122,22.0721],[82.1299,22.1194],[81.9355,22.3091],[82.0478,22.7],[84.3172,23.4331],[90.2373,24.3526],[90.3497,24.7767],[90.3705,25.4186],[90.8597,26.1006],[91.4936,26.4846],[94.1768,26.3776],[96.9378,26.656],[98.0,26.8069],[98.0,15.8086]]],[[[76.135,21.3965],[76.2017,21.3648],[76.2265,21.2952],[76.1949,21.2284],[76.1254,21.2035],[76.0586,21.2349],[76.0335,21.3044],[76.0648,21.3713],[76.135,21.3965]]]]}}