{"type":"Feature","properties":{"speciesId":761,"category":"VU","source":"IUCN Red List","simplifyTol":0.01,"clippedToSubcontinent":true},"geometry":{"type":"Polygon","coordinates":[[[74.6605,15.211],[74.6864,15.1252],[74.6207,14.8824],[74.6521,14.7024],[74.7623,14.4659],[74.8664,14.1164],[74.9676,13.8597],[75.0384,13.7253],[75.1817,13.5586],[75.2218,13.4793],[75.2156,13.3286],[75.1802,13.2855],[75.1261,13.256],[75.072,13.272],[74.9882,13.3611],[74.8855,13.6331],[74.5779,14.0577],[74.4355,14.4297],[74.2714,14.7461],[74.1869,14.8393],[74.1482,14.9323],[74.1394,15.0986],[74.1778,15.1581],[74.262,15.1858],[74.5288,15.2274],[74.6605,15.211]]]}}