{"type":"Feature","properties":{"speciesId":763,"category":"LC","source":"IUCN Red List","simplifyTol":0.01,"clippedToSubcontinent":true},"geometry":{"type":"MultiPolygon","coordinates":[[[[76.1337,11.4735],[75.8293,11.5572],[75.792,11.5968],[75.819,11.6654],[75.9191,11.7411],[76.1646,11.7993],[76.2791,11.8428],[76.3875,11.8382],[76.4395,11.8111],[76.518,11.6863],[76.6754,11.0465],[76.8126,10.7373],[76.9437,10.5287],[76.9978,10.4864],[77.1528,10.4142],[77.2272,10.3281],[77.2598,10.219],[77.291,9.8051],[77.328,9.757],[77.4646,9.6989],[77.4869,9.649],[77.4667,9.5794],[77.338,9.4588],[77.3035,9.3956],[77.2699,9.1174],[77.3021,9.0439],[77.3749,8.9443],[77.4088,8.814],[77.3943,8.7433],[77.3242,8.6731],[77.2438,8.6516],[77.1592,8.6612],[77.0562,8.8114],[76.9927,8.9514],[76.9266,9.2305],[76.8884,9.7269],[76.8184,9.9803],[76.7587,10.0835],[76.5562,10.248],[76.4541,10.4175],[76.3585,10.5035],[76.346,10.5821],[76.3869,10.7329],[76.393,10.883],[76.2986,11.1396],[76.2287,11.399],[76.1956,11.4377],[76.1337,11.4735]]],[[[75.5854,12.6235],[75.5407,12.6206],[75.4781,12.6458],[75.4304,12.7099],[75.4275,12.8062],[75.4759,12.9644],[75.4903,13.1251],[75.4423,13.2201],[75.4125,13.3529],[75.4166,13.4097],[75.4482,13.4625],[75.4992,13.5019],[75.58,13.5203],[75.6184,13.5108],[75.6622,13.4714],[75.8388,13.2024],[75.9078,13.0524],[75.9293,12.9397],[75.8938,12.8872],[75.7328,12.752],[75.6514,12.66],[75.5854,12.6235]]],[[[75.1052,13.4906],[75.0598,13.4972],[75.0642,13.5454],[75.1144,13.5339],[75.1052,13.4906]]],[[[74.6722,14.3484],[74.635,14.3737],[74.6465,14.4086],[74.6967,14.3972],[74.6973,14.3617],[74.6722,14.3484]]],[[[74.3602,14.9668],[74.323,14.9922],[74.3345,15.0271],[74.3848,15.0157],[74.3853,14.9802],[74.3602,14.9668]]]]}}