{"type":"Feature","properties":{"speciesId":765,"category":"VU","source":"IUCN Red List","simplifyTol":0.01,"clippedToSubcontinent":true},"geometry":{"type":"MultiPolygon","coordinates":[[[[77.164,8.5008],[77.1276,8.5165],[77.1136,8.6784],[77.0843,8.7235],[77.083,8.7656],[77.1251,8.766],[77.1483,8.7433],[77.2255,8.5864],[77.224,8.538],[77.164,8.5008]]],[[[77.0965,9.4622],[77.1489,9.4882],[77.1638,9.4752],[77.1472,9.4475],[77.162,9.4147],[77.0948,9.3548],[76.9976,9.3216],[76.9298,9.3716],[76.9348,9.398],[77.0112,9.4717],[77.0738,9.4985],[77.0965,9.4622]]],[[[76.7696,10.42],[76.9566,10.075],[77.0099,10.0367],[77.0864,9.9278],[77.1043,9.8726],[77.0771,9.8423],[76.9476,9.8137],[76.8812,9.8286],[76.7853,10.0732],[76.6943,10.1353],[76.4349,10.433],[76.4634,10.4609],[76.5595,10.4839],[76.6209,10.4314],[76.6543,10.4225],[76.6832,10.4459],[76.7081,10.503],[76.7696,10.42]]]]}}