{"type":"Feature","properties":{"speciesId":77,"category":"LC","source":"IUCN Red List","simplifyTol":0.01,"clippedToSubcontinent":true},"geometry":{"type":"MultiPolygon","coordinates":[[[[77.2816,8.8233],[77.2977,8.7681],[77.2862,8.6624],[77.3069,8.6325],[77.3643,8.644],[77.4747,8.5911],[77.4839,8.5705],[77.477,8.5199],[77.5229,8.4578],[77.4954,8.4003],[77.5275,8.398],[77.5344,8.3797],[77.496,8.3251],[77.4747,8.3268],[77.4379,8.4141],[77.4103,8.421],[77.3138,8.5153],[77.2885,8.513],[77.2402,8.5567],[77.2057,8.6325],[77.185,8.6302],[77.1505,8.7176],[77.1207,8.7176],[77.0931,8.7429],[77.1046,8.7727],[77.1758,8.7773],[77.1207,8.8509],[77.1482,8.8693],[77.1827,8.8371],[77.2218,8.8417],[77.1988,8.8877],[77.2264,8.9038],[77.2701,8.9015],[77.3092,8.8693],[77.2816,8.8233]]],[[[76.9308,10.5144],[77.098,10.5144],[77.2317,10.4475],[77.4323,10.3918],[77.5437,10.4587],[77.6552,10.481],[77.7666,10.481],[77.8335,10.4252],[77.8335,10.3361],[77.8,10.2581],[77.6886,10.2469],[77.4434,10.1689],[77.4212,10.0352],[77.4434,9.9795],[77.5215,9.9015],[77.6552,9.712],[77.722,9.6897],[77.7109,9.4892],[77.4434,9.5114],[77.3766,9.4446],[77.332,9.1437],[77.1871,9.0991],[77.1091,9.1437],[77.0423,9.2886],[77.0757,9.5114],[77.0646,9.6006],[77.0868,9.7343],[77.0868,9.8458],[76.864,10.2135],[76.63,10.2692],[76.4739,10.2135],[76.3625,10.2246],[76.3468,10.2968],[76.3578,10.3765],[76.4962,10.4475],[76.5965,10.5255],[76.7302,10.559],[76.9308,10.5144]]],[[[75.8165,12.9437],[75.9279,12.7431],[75.9279,12.42],[76.2288,11.7068],[76.3068,11.6288],[76.3959,11.6288],[76.5074,11.573],[76.864,11.5842],[76.9643,11.5508],[77.0534,11.4505],[77.0423,11.3947],[76.942,11.339],[76.8305,11.3056],[76.7637,11.2053],[76.9197,11.1719],[76.9308,11.105],[76.8305,11.027],[76.7637,11.0047],[76.7637,10.949],[76.8305,10.949],[76.8305,10.9156],[76.786,10.8376],[76.7191,10.8487],[76.5854,10.9156],[76.5631,11.0159],[76.4851,11.0381],[76.3848,11.1273],[76.3848,11.261],[76.4182,11.3502],[76.2622,11.4839],[76.2065,11.4839],[76.2288,11.3836],[76.1062,11.2833],[76.0393,11.4616],[75.9167,11.5062],[75.7942,11.7625],[75.7942,11.8405],[75.8945,11.8516],[75.8165,11.9854],[75.7273,12.1191],[75.6047,12.1525],[75.4821,12.3085],[75.3818,12.3643],[75.4599,12.4868],[75.5713,12.4868],[75.6716,12.5091],[75.6827,12.654],[75.627,12.8212],[75.5379,13.0217],[75.3818,13.122],[75.237,13.122],[75.1033,13.278],[75.0475,13.3895],[75.0252,13.5789],[75.1144,13.6235],[75.2593,13.6235],[75.5713,13.3003],[75.6493,13.1555],[75.8165,12.9437]]]]}}