{"type":"Feature","properties":{"speciesId":773,"category":"LC","source":"IUCN Red List","simplifyTol":0.01,"clippedToSubcontinent":true},"geometry":{"type":"Polygon","coordinates":[[[89.6064,25.7769],[89.792,25.3226],[89.8847,25.1702],[90.0397,24.9845],[90.1832,24.8783],[90.2282,24.8238],[90.2375,24.7242],[90.1986,24.6289],[90.1622,24.6008],[90.0825,24.5921],[89.9842,24.6225],[89.8768,24.6759],[89.7773,24.7495],[89.614,24.9401],[89.4821,25.1969],[89.3759,25.5579],[89.3241,25.9656],[89.3294,26.3234],[89.357,26.3969],[89.4138,26.4738],[89.5957,26.5607],[89.7633,26.5963],[90.2561,26.597],[90.8144,26.6253],[91.4294,26.7043],[91.84,26.7274],[91.964,26.7556],[92.1386,26.8461],[92.2147,26.8675],[92.305,26.8594],[92.3738,26.8346],[92.4236,26.7881],[92.4631,26.7182],[92.4769,26.6076],[92.4037,26.477],[92.3124,26.4038],[92.1785,26.3608],[91.6757,26.3357],[90.9108,26.2699],[90.6846,26.2668],[90.1929,26.2939],[89.9864,26.2668],[89.8693,26.2354],[89.7151,26.1359],[89.6212,25.9818],[89.6064,25.7769]]]}}