{"type":"Feature","properties":{"speciesId":778,"category":"LC","source":"IUCN Red List","simplifyTol":0.01,"clippedToSubcontinent":true},"geometry":{"type":"MultiPolygon","coordinates":[[[[90.2946,25.563],[90.4378,25.5706],[91.0283,25.5343],[91.2295,25.5601],[91.3228,25.5515],[91.4312,25.5093],[91.5792,25.4129],[91.7673,25.3404],[91.7974,25.2811],[91.7423,25.2166],[91.6241,25.2031],[91.4721,25.2198],[91.2402,25.2824],[90.5643,25.2975],[90.4379,25.3225],[90.3377,25.363],[90.1639,25.4761],[89.987,25.8264],[89.9162,25.9783],[89.8635,26.2051],[89.8817,26.3286],[89.9202,26.3428],[89.9546,26.3286],[90.0012,26.2577],[90.0863,25.9864],[90.2422,25.5976],[90.2946,25.563]]],[[[96.3366,28.306],[96.408,28.3339],[96.5028,28.4131],[96.5292,28.4125],[96.7906,28.2632],[96.9035,28.1796],[96.9315,28.1234],[96.9215,28.0471],[96.8749,27.9829],[96.7793,27.7299],[96.4941,27.4771],[95.8951,27.1308],[95.5496,27.0958],[95.463,27.1023],[95.3342,27.2322],[95.4103,27.2998],[95.7145,27.2998],[96.1804,27.4434],[96.4085,27.6036],[96.4933,27.9522],[96.1222,28.0293],[95.7628,28.1386],[95.5752,28.2123],[95.2677,28.0072],[94.6307,27.7467],[94.2528,27.6352],[94.1036,27.5284],[93.775,27.1392],[93.2521,26.9106],[92.8528,26.8936],[92.6743,26.9835],[92.5096,26.965],[92.2254,26.8766],[91.9211,26.8851],[91.9782,27.0122],[92.7439,27.2275],[93.152,27.4363],[94.15,28.0356],[94.4301,28.6831],[94.5702,28.9023],[94.8138,28.9389],[95.4103,28.9266],[95.9513,28.8516],[96.259,28.418],[96.2691,28.3488],[96.3366,28.306]]],[[[94.2476,30.0113],[94.3093,29.9977],[94.3611,29.9615],[94.3951,29.9082],[94.4061,29.846],[94.3925,29.7843],[94.3562,29.7325],[94.3029,29.6986],[94.2406,29.6877],[94.1789,29.7015],[94.128,29.7371],[94.0938,29.7903],[94.0826,29.8525],[94.0961,29.9142],[94.1322,29.9661],[94.1854,30.0002],[94.2476,30.0113]]]]}}