{"type":"Feature","properties":{"speciesId":780,"category":"LC","source":"IUCN Red List","simplifyTol":0.01,"clippedToSubcontinent":true},"geometry":{"type":"MultiPolygon","coordinates":[[[[92.9212,23.4663],[92.8446,23.3097],[92.786,23.3104],[92.6713,23.3959],[92.6124,23.4853],[92.5683,23.5913],[92.5665,23.6991],[92.6081,23.7201],[92.6771,23.6713],[92.6923,23.5429],[92.7094,23.5122],[92.7741,23.4821],[92.8398,23.476],[92.8919,23.519],[92.9285,23.6098],[92.9325,23.6702],[92.8993,23.7576],[92.9397,23.793],[92.9781,23.7903],[93.0209,23.7305],[93.0258,23.6167],[93.0072,23.5707],[92.9212,23.4663]]],[[[97.8158,24.1306],[97.8796,24.1122],[97.8599,24.039],[97.7788,24.0753],[97.725,24.0741],[97.6775,24.0145],[97.5799,23.9637],[97.5424,23.9776],[97.5427,24.0629],[97.4408,24.0909],[97.3908,24.1398],[97.4011,24.2743],[97.4254,24.3378],[97.5003,24.7787],[97.5539,24.8448],[97.6196,24.8295],[97.6753,24.7759],[97.5923,24.659],[97.5669,24.5795],[97.5397,24.6331],[97.5026,24.482],[97.5729,24.5438],[97.6186,24.508],[97.5764,24.4644],[97.6365,24.4643],[97.6878,24.4843],[97.6927,24.4732],[97.6705,24.4281],[97.5709,24.3957],[97.5075,24.3379],[97.5015,24.2898],[97.4499,24.2713],[97.5118,24.1895],[97.4451,24.1586],[97.4911,24.1244],[97.5782,24.1085],[97.6222,24.0757],[97.6995,24.1304],[97.8158,24.1306]]],[[[94.1086,25.6338],[94.0803,25.6464],[94.0693,25.6753],[94.0818,25.7035],[94.1107,25.7146],[94.139,25.702],[94.15,25.6731],[94.1374,25.6449],[94.1086,25.6338]]],[[[94.256,26.0523],[94.2281,26.0655],[94.2177,26.0946],[94.2309,26.1224],[94.26,26.1327],[94.2875,26.1198],[94.2981,26.0908],[94.2851,26.0628],[94.256,26.0523]]],[[[96.5346,27.4058],[96.5067,27.4188],[96.4964,27.4472],[96.5094,27.475],[96.5378,27.4853],[96.5652,27.4728],[96.5759,27.444],[96.5629,27.4162],[96.5346,27.4058]]]]}}