{"type":"Feature","properties":{"speciesId":786,"category":"LC","source":"IUCN Red List","simplifyTol":0.01,"clippedToSubcontinent":true},"geometry":{"type":"MultiPolygon","coordinates":[[[[94.5538,17.9076],[94.6304,17.8705],[94.6453,17.8836],[94.6819,17.8509],[94.6728,17.7736],[94.7014,17.7812],[94.6842,17.7518],[94.73,17.7474],[94.7449,17.6919],[94.7185,17.6417],[94.7014,17.6624],[94.7094,17.6908],[94.6281,17.6777],[94.6327,17.7104],[94.6098,17.7246],[94.6281,17.7442],[94.5961,17.7769],[94.5927,17.8281],[94.5801,17.8313],[94.595,17.84],[94.5801,17.8629],[94.5915,17.8673],[94.5538,17.9076]]],[[[94.667,18.0447],[94.6842,17.9848],[94.635,17.999],[94.6362,17.9653],[94.6224,17.9674],[94.611,18.0295],[94.6304,18.011],[94.6419,18.0599],[94.667,18.0447]],[[94.6423,18.0096],[94.666,18.0021],[94.6551,18.0338],[94.6423,18.0096]]],[[[94.9211,18.1339],[94.9668,18.098],[94.952,18.0795],[94.9611,18.049],[94.9165,18.0806],[94.9085,18.0567],[94.9348,18.0208],[94.9108,18.0055],[94.8822,18.0186],[94.8993,18.036],[94.8833,18.0599],[94.8993,18.0512],[94.9062,18.0719],[94.8844,18.0969],[94.9233,18.098],[94.9153,18.1197],[94.8844,18.1176],[94.9211,18.1339]]],[[[94.6957,18.4185],[94.7311,18.3175],[94.7552,18.3154],[94.7574,18.2904],[94.7414,18.2828],[94.7677,18.2719],[94.7506,18.2524],[94.7746,18.2295],[94.7552,18.2045],[94.7735,18.2045],[94.7849,18.185],[94.77,18.1502],[94.7826,18.1578],[94.8169,18.1328],[94.8501,18.1284],[94.8513,18.0926],[94.8696,18.0882],[94.8719,18.0665],[94.841,18.0708],[94.8478,18.0393],[94.8215,18.0055],[94.8433,17.999],[94.8433,18.0218],[94.8776,18.0382],[94.8799,17.999],[94.9096,17.9848],[94.8844,17.9685],[94.8421,17.987],[94.8707,17.9598],[94.8753,17.9293],[94.8604,17.9163],[94.8993,17.9021],[94.9028,17.925],[94.9451,17.962],[94.96,17.9489],[94.9062,17.8934],[94.8867,17.8923],[94.8867,17.8411],[94.8707,17.8695],[94.8776,17.8978],[94.833,17.9141],[94.8101,17.9555],[94.8044,17.8771],[94.7906,17.937],[94.7506,17.9413],[94.7185,17.8978],[94.7025,17.9021],[94.7151,17.9544],[94.6979,18.0077],[94.7185,17.999],[94.7231,17.9729],[94.7368,17.9903],[94.6968,18.0229],[94.6991,18.036],[94.7277,18.024],[94.7529,17.974],[94.7929,17.9696],[94.7323,18.0577],[94.7403,18.0806],[94.7002,18.0784],[94.7128,18.1067],[94.6911,18.098],[94.6899,18.1328],[94.7643,18.0991],[94.7597,18.0599],[94.7998,18.0066],[94.7815,18.073],[94.8089,18.0904],[94.8261,18.0523],[94.841,18.1013],[94.8398,18.1132],[94.8135,18.1034],[94.7895,18.1295],[94.746,18.1263],[94.7483,18.1469],[94.7609,18.1437],[94.7506,18.1676],[94.762,18.1904],[94.7449,18.1915],[94.7311,18.1567],[94.7094,18.1828],[94.7025,18.1687],[94.6911,18.1774],[94.7014,18.2122],[94.6854,18.2143],[94.6728,18.2437],[94.6957,18.2393],[94.7208,18.1937],[94.7002,18.26],[94.7185,18.2621],[94.7334,18.2328],[94.738,18.26],[94.7254,18.2817],[94.7037,18.2643],[94.6911,18.2708],[94.706,18.2915],[94.6785,18.2839],[94.6796,18.2676],[94.6716,18.2752],[94.6819,18.3241],[94.6636,18.3295],[94.6453,18.3892],[94.6773,18.3805],[94.6945,18.3349],[94.7082,18.3534],[94.6934,18.3773],[94.6957,18.4185]]],[[[94.6192,18.2513],[94.6502,18.2104],[94.6652,18.082],[94.6317,18.104],[94.6584,18.1006],[94.6556,18.1243],[94.6417,18.1206],[94.6467,18.1501],[94.6371,18.1284],[94.6296,18.1399],[94.6335,18.2053],[94.5946,18.2432],[94.6192,18.2513]]],[[[94.8352,18.4717],[94.8467,18.4565],[94.8661,18.4739],[94.8719,18.4413],[94.7998,18.4207],[94.8101,18.3881],[94.8215,18.3968],[94.8444,18.3827],[94.8341,18.4088],[94.8467,18.4012],[94.8753,18.4196],[94.8947,18.4099],[94.9016,18.4337],[94.9153,18.4196],[94.897,18.3914],[94.8833,18.4077],[94.8536,18.3686],[94.8753,18.348],[94.8673,18.3273],[94.9245,18.3599],[94.8993,18.3132],[94.9405,18.3219],[94.9268,18.2871],[94.9474,18.2708],[94.9188,18.2741],[94.8936,18.2339],[94.9382,18.2382],[94.9188,18.2154],[94.9542,18.2165],[94.9565,18.2002],[94.9336,18.1839],[94.9634,18.1828],[94.9771,18.1567],[94.9439,18.1589],[94.9634,18.1361],[94.9542,18.1317],[94.9256,18.1437],[94.8639,18.1263],[94.8833,18.1535],[94.9233,18.1589],[94.905,18.1795],[94.9211,18.1893],[94.9131,18.2002],[94.865,18.1665],[94.841,18.1828],[94.8421,18.1676],[94.8249,18.1654],[94.8318,18.1426],[94.7929,18.1611],[94.8101,18.1937],[94.7906,18.1969],[94.77,18.26],[94.7918,18.2752],[94.786,18.2502],[94.8044,18.2524],[94.8089,18.2328],[94.7906,18.2317],[94.8009,18.2165],[94.8249,18.2241],[94.8181,18.1969],[94.8398,18.1915],[94.8158,18.2534],[94.8433,18.2415],[94.8421,18.2741],[94.8272,18.2676],[94.8147,18.285],[94.8398,18.298],[94.8227,18.3317],[94.8009,18.3154],[94.7998,18.3404],[94.7757,18.349],[94.7632,18.3382],[94.7757,18.3686],[94.7437,18.3925],[94.7769,18.386],[94.7757,18.4001],[94.7323,18.4218],[94.7563,18.4446],[94.7838,18.412],[94.7929,18.374],[94.7803,18.3686],[94.8341,18.348],[94.8513,18.2991],[94.8776,18.2806],[94.8947,18.2871],[94.857,18.3165],[94.8375,18.3588],[94.7941,18.3849],[94.7906,18.4088],[94.7574,18.4554],[94.762,18.4685],[94.7918,18.4381],[94.7998,18.4641],[94.8352,18.4717]],[[94.8616,18.2426],[94.8467,18.2198],[94.8799,18.1937],[94.889,18.2632],[94.8455,18.248],[94.8616,18.2426]]],[[[94.7505,18.5185],[94.6795,18.5419],[94.734,18.5555],[94.7021,18.5936],[94.7093,18.6053],[94.6743,18.6053],[94.6785,18.5789],[94.664,18.575],[94.6404,18.615],[94.6517,18.6258],[94.6702,18.614],[94.699,18.617],[94.697,18.6404],[94.6815,18.6375],[94.6857,18.618],[94.6743,18.6258],[94.6167,18.6306],[94.6136,18.6492],[94.663,18.6423],[94.5941,18.7067],[94.6301,18.6823],[94.7258,18.6589],[94.6826,18.6989],[94.7021,18.7115],[94.6918,18.7291],[94.6682,18.7349],[94.6712,18.6989],[94.6507,18.7096],[94.6517,18.7681],[94.6301,18.81],[94.6352,18.8207],[94.6599,18.7944],[94.6538,18.8178],[94.6712,18.8411],[94.6435,18.847],[94.6466,18.8684],[94.6929,18.8382],[94.7145,18.8421],[94.6774,18.8567],[94.6702,18.8966],[94.6939,18.8742],[94.697,18.8986],[94.7299,18.8752],[94.7402,18.8888],[94.7484,18.8528],[94.7649,18.8479],[94.7515,18.8937],[94.7618,18.9112],[94.7834,18.8762],[94.7762,18.8236],[94.8019,18.8031],[94.7567,18.8178],[94.7186,18.7934],[94.7443,18.7827],[94.7443,18.7544],[94.7659,18.7486],[94.7886,18.7028],[94.7789,18.6752],[94.8724,18.6755],[94.874,18.6326],[94.8585,18.6209],[94.8421,18.6336],[94.8374,18.6136],[94.8019,18.6345],[94.8036,18.6199],[94.7798,18.6066],[94.7145,18.6355],[94.7505,18.576],[94.7823,18.5734],[94.8112,18.538],[94.7772,18.5409],[94.7793,18.5077],[94.8106,18.4833],[94.7762,18.4843],[94.7412,18.4638],[94.732,18.4736],[94.7474,18.5009],[94.734,18.5009],[94.7289,18.4794],[94.7351,18.4633],[94.7524,18.4576],[94.7123,18.4306],[94.7072,18.4593],[94.6534,18.5174],[94.6909,18.5199],[94.7124,18.4833],[94.7134,18.5087],[94.7505,18.5185]],[[94.7412,18.5321],[94.7412,18.5326],[94.7406,18.5306],[94.7412,18.5321]],[[94.7412,18.5326],[94.7628,18.5497],[94.7742,18.5497],[94.7567,18.5546],[94.7412,18.5326]],[[94.7659,18.6345],[94.7587,18.654],[94.7412,18.6618],[94.7484,18.6384],[94.7659,18.6345]],[[94.8388,18.6574],[94.8356,18.6408],[94.8401,18.6409],[94.8388,18.6574]],[[94.7227,18.6716],[94.7227,18.6901],[94.7505,18.6843],[94.7536,18.7232],[94.7402,18.7369],[94.7258,18.731],[94.7289,18.7018],[94.7114,18.6979],[94.7227,18.6716]],[[94.6682,18.7642],[94.7145,18.7379],[94.7073,18.7642],[94.7206,18.7846],[94.698,18.7661],[94.6682,18.7642]],[[94.7104,18.7846],[94.7016,18.7791],[94.7054,18.7764],[94.7104,18.7846]],[[94.6949,18.7827],[94.7114,18.8119],[94.7114,18.8236],[94.6795,18.8139],[94.6785,18.7837],[94.6949,18.7827]]],[[[91.9341,26.8705],[92.6944,26.7038],[93.145,26.5675],[93.3536,26.4826],[93.7352,26.2923],[93.931,26.2224],[93.9771,26.189],[93.9989,26.1421],[93.9911,26.0726],[93.9549,26.0073],[93.9642,25.9659],[93.9287,25.8905],[93.8827,25.8459],[93.8423,25.8626],[93.8188,25.8262],[93.7913,25.816],[93.7798,25.8463],[93.7983,25.9097],[93.773,25.966],[93.7518,25.9364],[93.6877,25.9094],[93.7055,25.8486],[93.641,25.8179],[93.6056,25.7675],[93.5732,25.7608],[93.4999,25.6565],[93.4275,25.6315],[93.4068,25.5965],[93.3317,25.5468],[93.3523,25.5376],[93.3959,25.4641],[93.437,25.4538],[93.3117,25.3389],[93.2539,25.1957],[93.2354,24.7422],[93.1889,24.2683],[93.2072,24.0988],[93.3121,23.721],[93.3377,23.3625],[93.2923,23.2394],[93.0967,23.1124],[93.0154,22.9612],[92.9938,22.8489],[92.9969,22.7618],[93.1284,22.5175],[93.1487,22.4271],[93.126,22.3097],[93.0829,22.208],[93.0308,22.147],[92.9662,22.1211],[92.8779,22.1155],[92.797,22.1301],[92.7487,22.1568],[92.707,22.2094],[92.5833,22.4664],[92.4917,22.8885],[92.3546,23.9901],[92.349,24.2041],[92.3917,24.3647],[92.6183,24.6641],[92.6644,24.7953],[92.6189,24.9571],[92.508,25.1202],[92.4222,25.1948],[92.3109,25.2581],[92.1872,25.3031],[92.0694,25.3224],[91.9688,25.3103],[91.7585,25.2209],[91.665,25.2002],[91.5466,25.2104],[91.2777,25.2875],[91.1597,25.3046],[91.0369,25.2925],[90.717,25.2183],[90.5045,25.2257],[90.0062,25.3387],[89.9121,25.3964],[89.8454,25.4883],[89.8727,25.6542],[89.8217,25.7281],[89.8389,25.7646],[89.8203,25.8149],[89.8386,25.8831],[89.8803,25.9313],[89.8245,25.9458],[89.8582,25.9778],[89.8268,25.9856],[89.7916,26.0388],[89.793,26.3589],[89.8204,26.3706],[89.8201,26.3504],[89.8256,26.3793],[89.8573,26.3845],[89.8468,26.4027],[89.8273,26.3965],[89.8695,26.4484],[89.8535,26.5172],[89.8772,26.6131],[89.8573,26.6321],[89.8853,26.6631],[89.9625,26.692],[90.2249,26.7403],[90.4065,26.8543],[90.4556,26.8357],[90.5803,26.715],[90.7405,26.6829],[91.1825,26.7275],[91.5379,26.8127],[91.5739,26.7994],[91.7006,26.8081],[91.7153,26.7956],[91.8514,26.8636],[91.8833,26.8579],[91.892,26.8126],[91.9129,26.8043],[91.904,26.8503],[91.9307,26.8561],[91.9341,26.8705]]]]}}