{"type":"Feature","properties":{"speciesId":787,"category":"LC","source":"IUCN Red List","simplifyTol":0.01,"clippedToSubcontinent":true},"geometry":{"type":"MultiPolygon","coordinates":[[[[97.3258,17.0536],[97.337,17.0659],[97.3386,17.0656],[97.3385,17.0432],[97.3258,17.0536]]],[[[97.3202,17.0759],[97.3207,17.0995],[97.3323,17.0873],[97.3202,17.0759]]],[[[97.1117,17.2155],[97.1304,17.1942],[97.1,17.2167],[97.1117,17.2155]]],[[[97.2186,17.2122],[97.2174,17.2294],[97.2292,17.2406],[97.2324,17.222],[97.2186,17.2122]]],[[[97.1,17.2167],[97.0781,17.2392],[97.0967,17.2392],[97.1,17.2167]]],[[[97.3333,17.1833],[97.2935,17.2289],[97.2793,17.2891],[97.3333,17.1833]]],[[[97.1888,17.291],[97.1829,17.2974],[97.1917,17.3],[97.1888,17.291]]],[[[97.1985,17.3153],[97.2227,17.3123],[97.2213,17.2851],[97.1917,17.3],[97.1985,17.3153]]],[[[97.2802,17.3242],[97.2765,17.3315],[97.2833,17.3333],[97.2802,17.3242]]],[[[97.2689,17.3448],[97.275,17.3667],[97.2714,17.3423],[97.2689,17.3448]]],[[[97.2418,17.3523],[97.2472,17.3602],[97.2494,17.351],[97.2418,17.3523]]],[[[97.1251,17.369],[97.1305,17.3768],[97.1327,17.3676],[97.1251,17.369]]],[[[97.27,17.4182],[97.2606,17.4401],[97.2716,17.4479],[97.27,17.4182]]],[[[97.2915,17.4673],[97.2915,17.4744],[97.3024,17.4708],[97.2915,17.4673]]],[[[97.0302,17.5158],[97.0265,17.5232],[97.0333,17.525],[97.0302,17.5158]]],[[[97.2591,17.532],[97.2624,17.5579],[97.2627,17.526],[97.2591,17.532]]],[[[97.0124,17.5423],[97.0124,17.5661],[97.0238,17.5454],[97.0124,17.5423]]],[[[96.9534,17.5515],[96.944,17.5735],[96.9549,17.5813],[96.9534,17.5515]]],[[[97.2751,17.594],[97.2805,17.6018],[97.2827,17.5926],[97.2751,17.594]]],[[[97.2835,17.6107],[97.2888,17.6185],[97.2911,17.6093],[97.2835,17.6107]]],[[[97.2998,17.6508],[97.2917,17.6617],[97.3,17.6667],[97.2998,17.6508]]],[[[97.3003,17.6826],[97.3083,17.6717],[97.3,17.6667],[97.3003,17.6826]]],[[[96.9751,17.7023],[96.9805,17.7102],[96.9827,17.701],[96.9751,17.7023]]],[[[97.3042,17.7416],[97.3012,17.7648],[97.3083,17.7667],[97.3042,17.7416]]],[[[97.0,17.7333],[96.975,17.7611],[96.979,17.7889],[97.0,17.7333]]],[[[97.0156,17.7658],[97.023,17.774],[97.0214,17.7586],[97.0156,17.7658]]],[[[97.0085,17.794],[97.0138,17.8018],[97.0161,17.7926],[97.0085,17.794]]],[[[97.3006,17.7932],[97.3072,17.8076],[97.3083,17.7917],[97.3006,17.7932]]],[[[96.9751,17.8023],[96.9805,17.8102],[96.9827,17.801],[96.9751,17.8023]]],[[[97.2913,17.836],[97.2971,17.8424],[97.3,17.8333],[97.2913,17.836]]],[[[97.0138,17.8576],[97.0079,17.8641],[97.0167,17.8667],[97.0138,17.8576]]],[[[97.0171,17.8741],[97.0247,17.8678],[97.0167,17.8667],[97.0171,17.8741]]],[[[96.9498,17.8924],[96.9417,17.9033],[96.95,17.9083],[96.9498,17.8924]]],[[[96.9547,17.9242],[96.966,17.9131],[96.9628,17.9006],[96.95,17.9083],[96.9547,17.9242]]],[[[96.9672,17.9266],[96.9739,17.9409],[96.975,17.925],[96.9672,17.9266]]],[[[97.3468,17.9325],[97.3432,17.9399],[97.35,17.9417],[97.3468,17.9325]]],[[[96.9519,17.9386],[96.9502,17.9815],[96.9597,17.9909],[96.9808,17.9542],[96.9519,17.9386]]],[[[96.9251,17.969],[96.9305,17.9768],[96.9327,17.9676],[96.9251,17.969]]],[[[96.9093,17.9885],[96.9104,18.0066],[96.9321,18.0056],[96.9313,17.9854],[96.9093,17.9885]]],[[[96.9498,18.009],[96.9498,18.0161],[96.9607,18.0125],[96.9498,18.009]]],[[[96.9813,17.9894],[96.9674,18.0196],[96.9958,18.0523],[97.0157,18.0361],[97.0155,17.9898],[96.9813,17.9894]]],[[[97.1585,18.032],[97.1678,18.029],[97.1583,18.025],[97.1585,18.032]]],[[[96.9412,18.0515],[96.9469,18.0369],[96.9293,18.0332],[96.9025,18.054],[96.9412,18.0515]]],[[[96.9408,18.1533],[96.9548,18.1115],[96.9366,18.1304],[96.9383,18.1107],[96.9051,18.1012],[96.8767,18.1286],[96.8961,18.1889],[96.9408,18.1533]],[[96.9083,18.1583],[96.9004,18.1657],[96.9009,18.1587],[96.9083,18.1583]]],[[[96.9659,18.1674],[96.9598,18.173],[96.9638,18.1768],[96.9659,18.1674]]],[[[96.8724,18.2031],[96.8596,18.2306],[96.8728,18.2319],[96.8724,18.2031]]],[[[97.251,18.2253],[97.2544,18.2345],[97.2583,18.225],[97.251,18.2253]]],[[[96.7668,18.3857],[96.7722,18.3935],[96.7744,18.3843],[96.7668,18.3857]]],[[[96.9829,18.4276],[96.9888,18.434],[96.9917,18.425],[96.9829,18.4276]]],[[[96.7824,18.5009],[96.7662,18.5045],[96.7833,18.5083],[96.7824,18.5009]]],[[[97.0246,18.5026],[97.0305,18.509],[97.0333,18.5],[97.0246,18.5026]]],[[[96.7685,18.528],[96.779,18.5401],[96.7968,18.5124],[96.7833,18.5083],[96.7685,18.528]]],[[[96.7331,18.534],[96.7331,18.5411],[96.744,18.5375],[96.7331,18.534]]],[[[96.7579,18.5443],[96.7638,18.5507],[96.7667,18.5417],[96.7579,18.5443]]],[[[96.7218,18.5742],[96.7176,18.5814],[96.725,18.5833],[96.7218,18.5742]]],[[[96.6751,18.5857],[96.6805,18.5935],[96.6827,18.5843],[96.6751,18.5857]]],[[[96.6613,18.5933],[96.6594,18.6144],[96.6724,18.6159],[96.6739,18.6034],[96.6613,18.5933]]],[[[96.984,18.6305],[96.9776,18.6246],[96.975,18.6333],[96.984,18.6305]]],[[[96.9509,18.6421],[96.9572,18.6497],[96.9583,18.6417],[96.9509,18.6421]]],[[[97.1079,18.6526],[97.1138,18.659],[97.1167,18.65],[97.1079,18.6526]]],[[[96.7072,18.679],[96.7164,18.6823],[96.7167,18.675],[96.7072,18.679]]],[[[96.6091,18.6797],[96.6208,18.691],[96.6323,18.6789],[96.623,18.675],[96.6091,18.6797]]],[[[96.6741,18.7324],[96.6705,18.7161],[96.6667,18.7333],[96.6741,18.7324]]],[[[96.6577,18.7362],[96.6641,18.7421],[96.6667,18.7333],[96.6577,18.7362]]],[[[96.614,18.7204],[96.5858,18.7553],[96.6083,18.7667],[96.614,18.7204]]],[[[96.6719,18.7492],[96.6676,18.7564],[96.675,18.7583],[96.6719,18.7492]]],[[[96.6295,18.7745],[96.6259,18.7907],[96.6333,18.7917],[96.6295,18.7745]]],[[[96.9772,18.8002],[96.9845,18.8078],[96.9923,18.8041],[96.9772,18.8002]]],[[[96.5805,18.816],[96.5746,18.8224],[96.5833,18.825],[96.5805,18.816]]],[[[96.5833,18.825],[96.6119,18.8409],[96.615,18.8363],[96.5833,18.825]]],[[[96.6343,18.8426],[96.6378,18.8589],[96.6417,18.8417],[96.6343,18.8426]]],[[[96.6166,18.8656],[96.6318,18.8713],[96.6171,18.8416],[96.6166,18.8656]]],[[[96.6079,18.8776],[96.6138,18.884],[96.6167,18.875],[96.6079,18.8776]]],[[[97.1097,18.8835],[97.1156,18.8914],[97.1167,18.8833],[97.1097,18.8835]]],[[[96.5917,18.9917],[96.599,18.9888],[96.5959,18.9821],[96.5917,18.9917]]],[[[96.5085,19.0273],[96.5138,19.0352],[96.5161,19.026],[96.5085,19.0273]]],[[[96.509,19.0638],[96.5026,19.0579],[96.5,19.0667],[96.509,19.0638]]],[[[96.4767,19.0714],[96.4893,19.0773],[96.4981,19.09],[96.5,19.0667],[96.4767,19.0714]]],[[[96.4783,19.0929],[96.4806,19.1154],[96.4917,19.0917],[96.4783,19.0929]]],[[[96.9718,19.2825],[96.9676,19.2897],[96.975,19.2917],[96.9718,19.2825]]],[[[97.1259,19.3004],[97.1322,19.3081],[97.1333,19.3],[97.1259,19.3004]]],[[[97.1009,19.3004],[97.1072,19.3081],[97.1083,19.3],[97.1009,19.3004]]],[[[97.0913,19.311],[97.0971,19.3174],[97.1,19.3083],[97.0913,19.311]]],[[[97.0831,19.3256],[97.0831,19.3327],[97.094,19.3292],[97.0831,19.3256]]],[[[96.9496,19.3443],[96.9555,19.3507],[96.9583,19.3417],[96.9496,19.3443]]],[[[97.0585,19.344],[97.0638,19.3518],[97.0661,19.3426],[97.0585,19.344]]],[[[97.1343,19.3509],[97.1378,19.3672],[97.1417,19.35],[97.1343,19.3509]]],[[[97.0768,19.3952],[97.0826,19.3982],[97.0794,19.3905],[97.0768,19.3952]]],[[[97.2413,19.4026],[97.2471,19.409],[97.25,19.4],[97.2413,19.4026]]],[[[97.2542,19.4332],[97.2538,19.448],[97.2583,19.4441],[97.2542,19.4332]]],[[[96.7579,19.461],[96.7638,19.4674],[96.7667,19.4583],[96.7579,19.461]]],[[[96.8009,19.4837],[96.8072,19.4914],[96.8083,19.4833],[96.8009,19.4837]]],[[[96.7501,19.5023],[96.7555,19.5102],[96.7577,19.501],[96.7501,19.5023]]],[[[96.7507,19.5221],[96.7443,19.5163],[96.7417,19.525],[96.7507,19.5221]]],[[[96.7342,19.5254],[96.7406,19.5331],[96.7417,19.525],[96.7342,19.5254]]],[[[96.8605,19.5673],[96.8645,19.5821],[96.8747,19.5702],[96.8605,19.5673]]],[[[96.809,19.6555],[96.8026,19.6496],[96.8,19.6583],[96.809,19.6555]]],[[[96.8246,19.6526],[96.8305,19.659],[96.8333,19.65],[96.8246,19.6526]]],[[[96.791,19.6612],[96.7974,19.6671],[96.8,19.6583],[96.791,19.6612]]],[[[96.7757,19.6721],[96.7693,19.6663],[96.7667,19.675],[96.7757,19.6721]]],[[[96.8221,19.666],[96.8163,19.6724],[96.825,19.675],[96.8221,19.666]]],[[[96.7572,19.679],[96.7665,19.682],[96.7667,19.675],[96.7572,19.679]]],[[[96.8279,19.684],[96.8338,19.6776],[96.825,19.675],[96.8279,19.684]]],[[[96.767,19.6917],[96.775,19.6864],[96.7667,19.6833],[96.767,19.6917]]],[[[96.7501,19.694],[96.7555,19.7018],[96.7577,19.6926],[96.7501,19.694]]],[[[96.7628,19.7341],[96.7501,19.7483],[96.7503,19.7584],[96.7663,19.7451],[96.7628,19.7341]]],[[[96.8074,19.773],[96.8032,19.7658],[96.8,19.775],[96.8074,19.773]]],[[[96.7751,19.894],[96.7805,19.9018],[96.7827,19.8926],[96.7751,19.894]]],[[[96.7574,19.9564],[96.7532,19.9492],[96.75,19.9583],[96.7574,19.9564]]],[[[96.7418,20.044],[96.7472,20.0518],[96.7494,20.0426],[96.7418,20.044]]],[[[96.736,20.0754],[96.7424,20.0695],[96.7333,20.0667],[96.736,20.0754]]],[[[96.7085,20.094],[96.7138,20.1018],[96.7161,20.0926],[96.7085,20.094]]],[[[96.7018,20.1116],[96.7044,20.1257],[96.7044,20.1077],[96.7018,20.1116]]],[[[96.6674,20.1805],[96.661,20.1746],[96.6583,20.1833],[96.6674,20.1805]]],[[[96.6509,20.1837],[96.6572,20.1914],[96.6583,20.1833],[96.6509,20.1837]]],[[[96.6426,20.1921],[96.6489,20.1997],[96.65,20.1917],[96.6426,20.1921]]],[[[96.6526,20.2087],[96.659,20.2029],[96.65,20.2],[96.6526,20.2087]]],[[[96.6007,20.3388],[96.5943,20.3329],[96.5917,20.3417],[96.6007,20.3388]]],[[[96.5847,20.3418],[96.5877,20.3512],[96.5917,20.3417],[96.5847,20.3418]]],[[[96.5915,20.359],[96.5915,20.3661],[96.6024,20.3625],[96.5915,20.359]]],[[[96.525,20.5583],[96.5287,20.5346],[96.5185,20.5562],[96.525,20.5583]]],[[[96.5279,20.5674],[96.5338,20.561],[96.525,20.5583],[96.5279,20.5674]]],[[[96.5585,20.7857],[96.5638,20.7935],[96.5661,20.7843],[96.5585,20.7857]]],[[[97.3135,21.0908],[97.3099,21.0982],[97.3167,21.1],[97.3135,21.0908]]],[[[96.4085,21.0986],[96.4178,21.0956],[96.4083,21.0917],[96.4085,21.0986]]],[[[96.4,21.1167],[96.3927,21.1325],[96.3989,21.1326],[96.4,21.1167]]],[[[97.3052,21.1242],[97.3015,21.1315],[97.3083,21.1333],[97.3052,21.1242]]],[[[96.4993,21.1445],[96.5057,21.1504],[96.5083,21.1417],[96.4993,21.1445]]],[[[97.3168,21.2023],[97.3222,21.2102],[97.3244,21.201],[97.3168,21.2023]]],[[[96.6568,21.2899],[96.6532,21.2825],[96.65,21.2917],[96.6568,21.2899]]],[[[96.6985,21.3899],[96.6948,21.3825],[96.6917,21.3917],[96.6985,21.3899]]],[[[96.7591,21.3919],[96.77,21.4],[96.775,21.3917],[96.7591,21.3919]]],[[[96.7847,21.5168],[96.7877,21.5262],[96.7917,21.5167],[96.7847,21.5168]]],[[[96.7635,21.5408],[96.7599,21.5482],[96.7667,21.55],[96.7635,21.5408]]],[[[96.8822,21.8956],[96.8915,21.8986],[96.8917,21.8917],[96.8822,21.8956]]],[[[97.6335,8.5023],[97.6388,8.5102],[97.6411,8.501],[97.6335,8.5023]]],[[[97.6335,8.644],[97.6388,8.6518],[97.6411,8.6426],[97.6335,8.644]]],[[[97.478,11.7675],[97.4534,11.7769],[97.4523,11.7889],[97.4917,11.7833],[97.478,11.7675]]],[[[97.4969,11.8079],[97.5229,11.806],[97.5232,11.7859],[97.4917,11.7833],[97.4969,11.8079]]],[[[97.6585,11.8107],[97.6638,11.8185],[97.6661,11.8093],[97.6585,11.8107]]],[[[97.6644,11.8371],[97.6434,11.8707],[97.6721,11.896],[97.6825,11.8733],[97.6644,11.8371]]],[[[97.6833,12.0417],[97.6608,12.0276],[97.6611,12.0488],[97.6833,12.0417]]],[[[97.6862,12.0507],[97.6921,12.0443],[97.6833,12.0417],[97.6862,12.0507]]],[[[97.6471,12.043],[97.6424,12.0563],[97.6554,12.0579],[97.6583,12.05],[97.6471,12.043]]],[[[97.7424,12.1221],[97.736,12.1163],[97.7333,12.125],[97.7424,12.1221]]],[[[97.7331,12.1249],[97.7236,12.141],[97.7412,12.1378],[97.7331,12.1249]]],[[[97.7342,15.0561],[97.7379,15.0751],[97.7374,15.0499],[97.7342,15.0561]]],[[[97.6659,15.5174],[97.6598,15.523],[97.6638,15.5268],[97.6659,15.5174]]],[[[97.6578,15.5488],[97.6502,15.5561],[97.6583,15.5583],[97.6578,15.5488]]],[[[97.6612,15.5674],[97.6671,15.561],[97.6583,15.5583],[97.6612,15.5674]]],[[[97.7168,15.9357],[97.7222,15.9435],[97.7244,15.9343],[97.7168,15.9357]]],[[[97.6251,15.969],[97.6305,15.9768],[97.6327,15.9676],[97.6251,15.969]]],[[[97.6092,15.9978],[97.6129,16.0167],[97.6124,15.9916],[97.6092,15.9978]]],[[[97.7545,16.3167],[97.7582,16.2851],[97.7487,16.2756],[97.7333,16.325],[97.7545,16.3167]]],[[[97.7239,16.3255],[97.7311,16.3331],[97.7333,16.325],[97.7239,16.3255]]],[[[97.7001,16.3523],[97.7055,16.3602],[97.7077,16.351],[97.7001,16.3523]]],[[[97.6918,16.369],[97.6972,16.3768],[97.6994,16.3676],[97.6918,16.369]]],[[[97.5268,16.4033],[97.5294,16.4173],[97.5294,16.3993],[97.5268,16.4033]]],[[[97.5418,16.4107],[97.5472,16.4185],[97.5494,16.4093],[97.5418,16.4107]]],[[[97.6764,16.3981],[97.6708,16.4357],[97.6793,16.3934],[97.6764,16.3981]]],[[[97.5418,16.444],[97.5472,16.4518],[97.5494,16.4426],[97.5418,16.444]]],[[[97.6001,16.544],[97.6055,16.5518],[97.6077,16.5426],[97.6001,16.544]]],[[[97.5833,16.575],[97.5897,16.5611],[97.5872,16.5578],[97.5833,16.575]]],[[[97.5756,16.5766],[97.5822,16.5909],[97.5833,16.575],[97.5756,16.5766]]],[[[97.575,16.5917],[97.5358,16.6151],[97.5624,16.6235],[97.575,16.5917]]],[[[97.4781,16.7024],[97.4793,16.7305],[97.5053,16.7052],[97.5332,16.6209],[97.491,16.5918],[97.4681,16.6117],[97.4196,16.7376],[97.4369,16.7472],[97.4781,16.7024]]],[[[97.5424,16.7055],[97.536,16.6996],[97.5333,16.7083],[97.5424,16.7055]]],[[[97.5239,16.7123],[97.5332,16.7153],[97.5333,16.7083],[97.5239,16.7123]]],[[[97.536,16.7254],[97.5424,16.7195],[97.5333,16.7167],[97.536,16.7254]]],[[[97.5085,16.719],[97.5138,16.7268],[97.5161,16.7176],[97.5085,16.719]]],[[[97.4918,16.7357],[97.4972,16.7435],[97.4994,16.7343],[97.4918,16.7357]]],[[[97.484,16.7555],[97.4776,16.7496],[97.475,16.7583],[97.484,16.7555]]],[[[97.4676,16.7587],[97.4739,16.7664],[97.475,16.7583],[97.4676,16.7587]]],[[[97.4592,16.7671],[97.4656,16.7747],[97.4667,16.7667],[97.4592,16.7671]]],[[[97.697,16.8134],[97.7003,16.8243],[97.7139,16.8129],[97.7127,16.7447],[97.668,16.8293],[97.697,16.8134]]],[[[97.4583,16.775],[97.428,16.796],[97.4209,16.8474],[97.4583,16.775]]],[[[97.5835,16.819],[97.5888,16.8268],[97.5911,16.8176],[97.5835,16.819]]],[[[97.6552,16.8242],[97.6515,16.8315],[97.6583,16.8333],[97.6552,16.8242]]],[[[97.5668,16.8357],[97.5722,16.8435],[97.5744,16.8343],[97.5668,16.8357]]],[[[97.6168,16.8357],[97.6222,16.8435],[97.6244,16.8343],[97.6168,16.8357]]],[[[97.6595,16.8352],[97.6625,16.8584],[97.6667,16.8333],[97.6595,16.8352]]],[[[97.7268,16.8449],[97.7294,16.859],[97.7294,16.841],[97.7268,16.8449]]],[[[97.5751,16.869],[97.5805,16.8768],[97.5827,16.8676],[97.5751,16.869]]],[[[97.5418,16.869],[97.5472,16.8768],[97.5494,16.8676],[97.5418,16.869]]],[[[97.4,16.8833],[97.4063,16.8694],[97.4039,16.8661],[97.4,16.8833]]],[[[97.3926,16.8843],[97.3962,16.9005],[97.4,16.8833],[97.3926,16.8843]]],[[[97.7415,16.9173],[97.7415,16.9244],[97.7524,16.9208],[97.7415,16.9173]]],[[[97.6501,16.9523],[97.6555,16.9602],[97.6577,16.951],[97.6501,16.9523]]],[[[97.375,17.0],[97.3997,16.9391],[97.3876,16.9112],[97.375,17.0]]],[[[97.5918,16.969],[97.5972,16.9768],[97.5994,16.9676],[97.5918,16.969]]],[[[97.6085,16.969],[97.6138,16.9768],[97.6161,16.9676],[97.6085,16.969]]],[[[97.7088,16.9807],[97.7029,16.9743],[97.7,16.9833],[97.7088,16.9807]]],[[[97.6922,16.9849],[97.6989,16.9993],[97.7,16.9833],[97.6922,16.9849]]],[[[97.6827,17.0029],[97.6891,17.0087],[97.6917,17.0],[97.6827,17.0029]]],[[[97.575,17.0167],[97.5897,17.0007],[97.5759,17.0017],[97.575,17.0167]]],[[[97.375,17.0],[97.3674,17.0182],[97.3708,17.0251],[97.375,17.0]]],[[[97.4751,17.019],[97.4805,17.0268],[97.4827,17.0176],[97.4751,17.019]]],[[[97.6668,17.019],[97.6722,17.0268],[97.6744,17.0176],[97.6668,17.019]]],[[[97.5513,17.0217],[97.5624,17.0327],[97.5823,17.0295],[97.575,17.0167],[97.5513,17.0217]]],[[[97.4418,17.0357],[97.4472,17.0435],[97.4494,17.0343],[97.4418,17.0357]]],[[[97.3583,17.0583],[97.366,17.0402],[97.3625,17.0333],[97.3583,17.0583]]],[[[97.3751,17.044],[97.3805,17.0518],[97.3827,17.0426],[97.3751,17.044]]],[[[97.4335,17.0607],[97.4388,17.0685],[97.4411,17.0593],[97.4335,17.0607]]],[[[97.3583,17.0583],[97.3507,17.0765],[97.3542,17.0834],[97.3583,17.0583]]],[[[97.461,17.0775],[97.4549,17.1052],[97.464,17.0776],[97.461,17.0775]]],[[[97.5335,17.094],[97.5388,17.1018],[97.5411,17.0926],[97.5335,17.094]]],[[[97.4861,17.1417],[97.4717,17.1334],[97.4667,17.1417],[97.4861,17.1417]]],[[[97.4946,17.1507],[97.5004,17.1443],[97.4917,17.1417],[97.4946,17.1507]]],[[[97.4423,17.1458],[97.4527,17.1575],[97.4656,17.1562],[97.4667,17.1417],[97.4423,17.1458]]],[[[97.3685,17.1449],[97.3711,17.159],[97.3711,17.141],[97.3685,17.1449]]],[[[97.4381,17.1506],[97.4339,17.1716],[97.4471,17.1744],[97.45,17.1583],[97.4381,17.1506]]],[[[97.5166,17.1663],[97.5337,17.171],[97.5254,17.1581],[97.5166,17.1663]]],[[[97.5077,17.1695],[97.5141,17.1754],[97.5167,17.1667],[97.5077,17.1695]]],[[[97.3334,17.182],[97.3581,17.1763],[97.3544,17.1601],[97.3334,17.182]]],[[[97.5155,17.1839],[97.5228,17.1915],[97.525,17.1833],[97.5155,17.1839]]],[[[97.4168,17.194],[97.4222,17.2018],[97.4244,17.1926],[97.4168,17.194]]],[[[97.4698,17.1923],[97.4354,17.1938],[97.4457,17.2317],[97.4833,17.2083],[97.4698,17.1923]]],[[[97.4833,17.2083],[97.4993,17.223],[97.4983,17.2092],[97.4833,17.2083]]],[[[97.6168,17.219],[97.6222,17.2268],[97.6244,17.2176],[97.6168,17.219]]],[[[97.6001,17.2273],[97.6055,17.2352],[97.6077,17.226],[97.6001,17.2273]]],[[[97.4074,17.2397],[97.4032,17.2325],[97.4,17.2417],[97.4074,17.2397]]],[[[97.6159,17.2424],[97.6098,17.248],[97.6138,17.2518],[97.6159,17.2424]]],[[[97.4512,17.2661],[97.4439,17.2585],[97.4417,17.2667],[97.4512,17.2661]]],[[[97.6102,17.2616],[97.6128,17.2757],[97.6128,17.2577],[97.6102,17.2616]]],[[[97.4342,17.2671],[97.4406,17.2747],[97.4417,17.2667],[97.4342,17.2671]]],[[[97.584,17.2709],[97.5953,17.2826],[97.5969,17.2822],[97.5968,17.2599],[97.584,17.2709]]],[[[97.5501,17.2773],[97.5555,17.2852],[97.5577,17.276],[97.5501,17.2773]]],[[[97.5668,17.2773],[97.5722,17.2852],[97.5744,17.276],[97.5668,17.2773]]],[[[97.7249,17.3087],[97.7264,17.3307],[97.7385,17.3325],[97.7417,17.3],[97.7249,17.3087]]],[[[97.6002,17.357],[97.6095,17.354],[97.6,17.35],[97.6002,17.357]]],[[[97.5867,17.3536],[97.5991,17.3417],[97.5897,17.3122],[97.5608,17.3104],[97.5364,17.3538],[97.5496,17.3691],[97.5434,17.4114],[97.5641,17.4279],[97.5614,17.4639],[97.5823,17.4351],[97.5682,17.3869],[97.6,17.3595],[97.5867,17.3536]]],[[[97.3583,17.3833],[97.3663,17.3907],[97.3658,17.3837],[97.3583,17.3833]]],[[[97.5329,17.4193],[97.5388,17.4257],[97.5417,17.4167],[97.5329,17.4193]]],[[[97.6835,17.419],[97.6888,17.4268],[97.6911,17.4176],[97.6835,17.419]]],[[[97.4888,17.4243],[97.4829,17.4307],[97.4917,17.4333],[97.4888,17.4243]]],[[[97.6831,17.434],[97.6831,17.4411],[97.694,17.4375],[97.6831,17.434]]],[[[97.4917,17.4333],[97.4865,17.4629],[97.5039,17.4725],[97.5075,17.4406],[97.4917,17.4333]]],[[[97.5496,17.4693],[97.5555,17.4757],[97.5583,17.4667],[97.5496,17.4693]]],[[[97.5418,17.4857],[97.5472,17.4935],[97.5494,17.4843],[97.5418,17.4857]]],[[[97.5001,17.494],[97.5055,17.5018],[97.5077,17.4926],[97.5001,17.494]]],[[[97.4888,17.4993],[97.4829,17.5057],[97.4917,17.5083],[97.4888,17.4993]]],[[[97.5501,17.5023],[97.5555,17.5102],[97.5577,17.501],[97.5501,17.5023]]],[[[97.5411,17.5072],[97.5336,17.5144],[97.5417,17.5167],[97.5411,17.5072]]],[[[97.6746,17.511],[97.6805,17.5174],[97.6833,17.5083],[97.6746,17.511]]],[[[97.4841,17.5209],[97.4934,17.5319],[97.499,17.5311],[97.497,17.5096],[97.4841,17.5209]]],[[[97.7417,17.5167],[97.7497,17.524],[97.7491,17.5171],[97.7417,17.5167]]],[[[97.5445,17.5257],[97.5504,17.5193],[97.5417,17.5167],[97.5445,17.5257]]],[[[97.4827,17.5362],[97.4891,17.5421],[97.4917,17.5333],[97.4827,17.5362]]],[[[97.4661,17.5405],[97.4586,17.5478],[97.4667,17.55],[97.4661,17.5405]]],[[[97.4085,17.544],[97.4138,17.5518],[97.4161,17.5426],[97.4085,17.544]]],[[[97.4667,17.55],[97.4799,17.5664],[97.4823,17.5514],[97.4667,17.55]]],[[[97.7171,17.5658],[97.7247,17.5594],[97.7167,17.5583],[97.7171,17.5658]]],[[[97.4085,17.5607],[97.4138,17.5685],[97.4161,17.5593],[97.4085,17.5607]]],[[[97.3751,17.6023],[97.3805,17.6102],[97.3827,17.601],[97.3751,17.6023]]],[[[97.4418,17.694],[97.4472,17.7018],[97.4494,17.6926],[97.4418,17.694]]],[[[97.4418,17.7273],[97.4472,17.7352],[97.4494,17.726],[97.4418,17.7273]]],[[[97.4168,17.7403],[97.4262,17.7373],[97.4167,17.7333],[97.4168,17.7403]]],[[[97.5125,17.7503],[97.5124,17.7667],[97.525,17.7541],[97.5125,17.7503]]],[[[97.5001,17.7857],[97.5055,17.7935],[97.5077,17.7843],[97.5001,17.7857]]],[[[97.4748,17.8006],[97.4748,17.8077],[97.4857,17.8042],[97.4748,17.8006]]],[[[97.4569,17.8508],[97.4541,17.8663],[97.469,17.8542],[97.4569,17.8508]]],[[[97.4335,17.919],[97.4388,17.9268],[97.4411,17.9176],[97.4335,17.919]]],[[[97.3776,21.1171],[97.384,21.1112],[97.375,21.1083],[97.3776,21.1171]]],[[[97.3809,21.1941],[97.3671,21.1643],[97.3748,21.0905],[97.3555,21.0851],[97.346,21.1059],[97.3279,21.0945],[97.3114,21.1398],[97.364,21.1874],[97.3439,21.1961],[97.344,21.2208],[97.3809,21.1941]]],[[[97.3818,21.1732],[97.3782,21.1658],[97.375,21.175],[97.3818,21.1732]]],[[[97.4126,21.2078],[97.3996,21.2133],[97.4167,21.2167],[97.4126,21.2078]]],[[[97.366,21.2112],[97.3724,21.2171],[97.375,21.2083],[97.366,21.2112]]],[[[97.4172,21.2262],[97.4248,21.2189],[97.4167,21.2167],[97.4172,21.2262]]],[[[97.4167,21.35],[97.427,21.3576],[97.434,21.3542],[97.4167,21.35]]],[[[97.3835,21.5107],[97.3888,21.5185],[97.3911,21.5093],[97.3835,21.5107]]],[[[97.884,9.3971],[97.8776,9.3913],[97.875,9.4],[97.884,9.3971]]],[[[97.866,9.4029],[97.8724,9.4087],[97.875,9.4],[97.866,9.4029]]],[[[97.8528,9.4099],[97.8511,9.4226],[97.8632,9.4326],[97.8655,9.4202],[97.8528,9.4099]]],[[[97.9001,9.444],[97.9055,9.4518],[97.9077,9.4426],[97.9001,9.444]]],[[[97.8585,9.4523],[97.8638,9.4602],[97.8661,9.451],[97.8585,9.4523]]],[[[97.8888,9.4597],[97.8676,9.4718],[97.8907,9.4727],[97.8888,9.4597]]],[[[97.907,10.4],[97.9042,10.419],[97.9323,10.4041],[97.907,10.4]]],[[[97.9221,10.4243],[97.9163,10.4307],[97.925,10.4333],[97.9221,10.4243]]],[[[97.9485,10.4289],[97.9032,10.4633],[97.9229,10.4632],[97.9485,10.4289]]],[[[97.9001,10.4773],[97.9055,10.4852],[97.9077,10.476],[97.9001,10.4773]]],[[[97.9055,10.8493],[97.8996,10.8557],[97.9083,10.8583],[97.9055,10.8493]]],[[[97.9028,10.8866],[97.9203,10.93],[97.9472,10.9222],[97.9487,10.8956],[97.9202,10.8607],[97.9083,10.8583],[97.9028,10.8866]]],[[[97.7458,11.9919],[97.7457,12.0083],[97.7583,11.9958],[97.7458,11.9919]]],[[[97.7668,12.0357],[97.7722,12.0435],[97.7744,12.0343],[97.7668,12.0357]]],[[[97.9507,12.2221],[97.9443,12.2163],[97.9417,12.225],[97.9507,12.2221]]],[[[97.9327,12.2279],[97.9391,12.2337],[97.9417,12.225],[97.9327,12.2279]]],[[[97.7751,12.2607],[97.7805,12.2685],[97.7827,12.2593],[97.7751,12.2607]]],[[[97.9578,12.2822],[97.9502,12.2894],[97.9583,12.2917],[97.9578,12.2822]]],[[[97.7765,12.2784],[97.7851,12.2901],[97.7967,12.2986],[97.7974,12.2774],[97.7765,12.2784]]],[[[97.8751,12.2857],[97.8805,12.2935],[97.8827,12.2843],[97.8751,12.2857]]],[[[97.9552,12.3158],[97.951,12.323],[97.9583,12.325],[97.9552,12.3158]]],[[[97.9457,12.334],[97.9439,12.3573],[97.9583,12.3583],[97.9457,12.334]]],[[[97.8259,12.4311],[97.8295,12.4501],[97.8291,12.4249],[97.8259,12.4311]]],[[[97.8534,12.5895],[97.874,12.5697],[97.8597,12.5505],[97.8444,12.5538],[97.8534,12.5895]]],[[[97.8327,12.5779],[97.8391,12.5837],[97.8417,12.575],[97.8327,12.5779]]],[[[97.8405,12.5956],[97.8494,12.5992],[97.85,12.5917],[97.8405,12.5956]]],[[[97.85,12.6],[97.8603,12.6076],[97.8673,12.6042],[97.85,12.6]]],[[[97.884,12.7805],[97.8776,12.7746],[97.875,12.7833],[97.884,12.7805]]],[[[97.8554,12.775],[97.8355,12.7874],[97.8597,12.8076],[97.8751,12.7837],[97.8554,12.775]]],[[[97.9133,13.8032],[97.9191,13.8379],[97.9217,13.8396],[97.9133,13.8032]]],[[[97.9168,13.8523],[97.9222,13.8602],[97.9244,13.851],[97.9168,13.8523]]],[[[97.9085,13.919],[97.9138,13.9268],[97.9161,13.9176],[97.9085,13.919]]],[[[97.8005,14.1208],[97.8125,14.1327],[97.824,14.1213],[97.8167,14.1167],[97.8005,14.1208]]],[[[97.8155,14.1561],[97.786,14.1458],[97.8167,14.175],[97.8155,14.1561]]],[[[97.8196,14.184],[97.8254,14.1776],[97.8167,14.175],[97.8196,14.184]]],[[[97.8102,14.2699],[97.8128,14.284],[97.8128,14.266],[97.8102,14.2699]]],[[[97.7768,14.3949],[97.7794,14.409],[97.7794,14.391],[97.7768,14.3949]]],[[[97.9175,14.5811],[97.9212,14.6001],[97.9207,14.5749],[97.9175,14.5811]]],[[[97.9415,14.659],[97.9415,14.6661],[97.9524,14.6625],[97.9415,14.659]]],[[[97.9038,14.6669],[97.9072,14.6815],[97.9048,14.667],[97.9038,14.6669]]],[[[97.9585,14.6857],[97.9638,14.6935],[97.9661,14.6843],[97.9585,14.6857]]],[[[97.9001,14.7023],[97.9055,14.7102],[97.9077,14.701],[97.9001,14.7023]]],[[[97.8715,14.8229],[97.8586,14.7876],[97.8619,14.7455],[97.8808,14.7376],[97.8711,14.7114],[97.834,14.7571],[97.8277,14.7876],[97.8472,14.8217],[97.8106,14.8559],[97.828,14.8723],[97.8445,14.8658],[97.8715,14.8229]]],[[[97.8008,14.8669],[97.8117,14.875],[97.8167,14.8667],[97.8008,14.8669]]],[[[97.9257,14.9888],[97.9193,14.9829],[97.9167,14.9917],[97.9257,14.9888]]],[[[97.9092,14.9921],[97.9156,14.9997],[97.9167,14.9917],[97.9092,14.9921]]],[[[97.8085,15.0273],[97.8138,15.0352],[97.8161,15.026],[97.8085,15.0273]]],[[[97.8138,15.041],[97.8079,15.0474],[97.8167,15.05],[97.8138,15.041]]],[[[97.8196,15.059],[97.8254,15.0526],[97.8167,15.05],[97.8196,15.059]]],[[[97.8327,15.1445],[97.8391,15.1504],[97.8417,15.1417],[97.8327,15.1445]]],[[[97.9052,15.2075],[97.901,15.2147],[97.9083,15.2167],[97.9052,15.2075]]],[[[97.7924,15.2221],[97.786,15.2163],[97.7833,15.225],[97.7924,15.2221]]],[[[97.7833,15.225],[97.7687,15.2409],[97.7825,15.2399],[97.7833,15.225]]],[[[97.9001,15.2607],[97.9055,15.2685],[97.9077,15.2593],[97.9001,15.2607]]],[[[97.8992,15.2757],[97.8931,15.2813],[97.8972,15.2852],[97.8992,15.2757]]],[[[97.9135,15.2825],[97.9093,15.2897],[97.9167,15.2917],[97.9135,15.2825]]],[[[97.959,15.2888],[97.9526,15.2829],[97.95,15.2917],[97.959,15.2888]]],[[[97.7362,15.2611],[97.7516,15.328],[97.7611,15.3317],[97.7583,15.3071],[97.7803,15.2711],[97.7575,15.2508],[97.7362,15.2611]]],[[[97.9273,15.2917],[97.9123,15.3138],[97.9501,15.2921],[97.9273,15.2917]]],[[[97.9424,15.3209],[97.9271,15.3377],[97.9413,15.3495],[97.9584,15.3277],[97.9424,15.3209]]],[[[97.9239,15.354],[97.933,15.3573],[97.9333,15.35],[97.9239,15.354]]],[[[97.95,15.35],[97.958,15.3573],[97.9574,15.3504],[97.95,15.35]]],[[[97.936,15.3671],[97.9424,15.3612],[97.9333,15.3583],[97.936,15.3671]]],[[[97.9052,15.3742],[97.9015,15.3815],[97.9083,15.3833],[97.9052,15.3742]]],[[[97.9001,15.4107],[97.9055,15.4185],[97.9077,15.4093],[97.9001,15.4107]]],[[[97.8605,15.4435],[97.8703,15.4583],[97.8895,15.4455],[97.8711,15.4274],[97.8605,15.4435]]],[[[97.8585,15.469],[97.8638,15.4768],[97.8661,15.4676],[97.8585,15.469]]],[[[97.9251,15.5023],[97.9305,15.5102],[97.9327,15.501],[97.9251,15.5023]]],[[[97.8585,15.5607],[97.8638,15.5685],[97.8661,15.5593],[97.8585,15.5607]]],[[[97.8479,15.5452],[97.8177,15.5801],[97.8223,15.5905],[97.8488,15.5785],[97.8479,15.5452]]],[[[97.8907,15.6147],[97.8865,15.6075],[97.8833,15.6167],[97.8907,15.6147]]],[[[97.9085,15.6107],[97.9138,15.6185],[97.9161,15.6093],[97.9085,15.6107]]],[[[97.9402,15.6232],[97.9365,15.6158],[97.9333,15.625],[97.9402,15.6232]]],[[[97.8085,15.6607],[97.8138,15.6685],[97.8161,15.6593],[97.8085,15.6607]]],[[[97.841,15.6945],[97.8474,15.7004],[97.85,15.6917],[97.841,15.6945]]],[[[97.9585,15.769],[97.9638,15.7768],[97.9661,15.7676],[97.9585,15.769]]],[[[97.9268,15.7783],[97.9294,15.7923],[97.9294,15.7743],[97.9268,15.7783]]],[[[97.7989,15.7922],[97.8061,15.7998],[97.8083,15.7917],[97.7989,15.7922]]],[[[97.8489,15.804],[97.858,15.8073],[97.8583,15.8],[97.8489,15.804]]],[[[97.8001,15.8107],[97.8055,15.8185],[97.8077,15.8093],[97.8001,15.8107]]],[[[97.8385,15.8158],[97.8349,15.8232],[97.8417,15.825],[97.8385,15.8158]]],[[[97.8751,15.8465],[97.8833,15.8364],[97.875,15.8333],[97.8751,15.8465]]],[[[97.9168,15.844],[97.9222,15.8518],[97.9244,15.8426],[97.9168,15.844]]],[[[97.784,15.8555],[97.7776,15.8496],[97.775,15.8583],[97.784,15.8555]]],[[[97.766,15.8612],[97.7724,15.8671],[97.775,15.8583],[97.766,15.8612]]],[[[97.8001,15.8857],[97.8055,15.8935],[97.8077,15.8843],[97.8001,15.8857]]],[[[97.8835,15.8986],[97.8928,15.8956],[97.8833,15.8917],[97.8835,15.8986]]],[[[97.9335,15.9107],[97.9388,15.9185],[97.9411,15.9093],[97.9335,15.9107]]],[[[97.7719,15.9325],[97.7682,15.9399],[97.775,15.9417],[97.7719,15.9325]]],[[[97.867,15.9584],[97.8748,15.9522],[97.8667,15.95],[97.867,15.9584]]],[[[97.9335,15.9773],[97.9388,15.9852],[97.9411,15.976],[97.9335,15.9773]]],[[[97.8667,16.0083],[97.8599,15.9538],[97.8822,15.9333],[97.8819,15.8635],[97.8609,15.8457],[97.8821,15.8027],[97.8728,15.7917],[97.8199,15.8696],[97.8305,15.8804],[97.8114,15.9115],[97.8151,15.9373],[97.7861,15.9278],[97.7695,15.9709],[97.7691,15.9964],[97.787,15.9937],[97.7937,16.0147],[97.8157,16.0227],[97.7952,16.0467],[97.8307,16.0541],[97.7846,16.0722],[97.7975,16.1042],[97.7848,16.1264],[97.7987,16.1416],[97.7763,16.1972],[97.7861,16.2145],[97.8405,16.1112],[97.8427,16.0471],[97.8667,16.0083]],[[97.8,16.0083],[97.8153,16.0007],[97.8163,16.0067],[97.8,16.0083]],[[97.8322,16.0247],[97.8259,16.0171],[97.8333,16.0167],[97.8322,16.0247]],[[97.7928,15.9773],[97.8141,15.9846],[97.8157,15.9893],[97.8035,15.9904],[97.7928,15.9773]],[[97.8261,15.9253],[97.8324,15.9329],[97.825,15.9333],[97.8261,15.9253]]],[[[97.7579,16.0026],[97.7638,16.009],[97.7667,16.0],[97.7579,16.0026]]],[[[97.8705,16.0332],[97.875,16.0134],[97.8728,16.0094],[97.8706,16.0086],[97.8684,16.0083],[97.8667,16.0083],[97.8705,16.0332]]],[[[97.7822,16.0172],[97.7894,16.0248],[97.7917,16.0167],[97.7822,16.0172]]],[[[97.8577,16.0362],[97.8641,16.0421],[97.8667,16.0333],[97.8577,16.0362]]],[[[97.7802,16.0575],[97.7765,16.0649],[97.7833,16.0667],[97.7802,16.0575]]],[[[97.8501,16.0607],[97.8555,16.0685],[97.8577,16.0593],[97.8501,16.0607]]],[[[97.7728,16.0919],[97.7655,16.0995],[97.775,16.1],[97.7728,16.0919]]],[[[97.7777,16.1002],[97.7894,16.1081],[97.7917,16.1],[97.7777,16.1002]]],[[[97.9418,16.219],[97.9472,16.2268],[97.9494,16.2176],[97.9418,16.219]]],[[[97.7759,16.2176],[97.7795,16.2339],[97.7833,16.2167],[97.7759,16.2176]]],[[[97.9085,16.269],[97.9138,16.2768],[97.9161,16.2676],[97.9085,16.269]]],[[[97.7668,16.269],[97.7722,16.2768],[97.7744,16.2676],[97.7668,16.269]]],[[[97.8008,16.3404],[97.8041,16.3663],[97.8043,16.3343],[97.8008,16.3404]]],[[[97.8585,16.7357],[97.8638,16.7435],[97.8661,16.7343],[97.8585,16.7357]]],[[[97.7916,16.7606],[97.7794,16.7506],[97.768,16.7709],[97.7833,16.775],[97.7916,16.7606]]],[[[97.7862,16.784],[97.7921,16.7776],[97.7833,16.775],[97.7862,16.784]]],[[[97.7581,16.809],[97.7581,16.8161],[97.769,16.8125],[97.7581,16.809]]],[[[97.7496,16.8339],[97.7595,16.8412],[97.7728,16.8286],[97.7625,16.8259],[97.7496,16.8339]]],[[[97.7835,16.8857],[97.7888,16.8935],[97.7911,16.8843],[97.7835,16.8857]]],[[[97.7501,16.9023],[97.7555,16.9102],[97.7577,16.901],[97.7501,16.9023]]],[[[97.8399,16.9544],[97.857,16.9202],[97.8257,16.9085],[97.7855,16.9619],[97.8399,16.9544]]],[[[97.959,17.0721],[97.9526,17.0663],[97.95,17.075],[97.959,17.0721]]],[[[97.9426,17.0754],[97.9489,17.0831],[97.95,17.075],[97.9426,17.0754]]],[[[97.909,17.087],[97.9345,17.0917],[97.9417,17.0836],[97.9203,17.0834],[97.909,17.087]]],[[[97.9125,17.1003],[97.9124,17.1167],[97.925,17.1041],[97.9125,17.1003]]],[[[97.9247,17.1508],[97.9379,17.1585],[97.9501,17.1504],[97.9457,17.144],[97.9247,17.1508]]],[[[97.9577,17.1529],[97.9641,17.1587],[97.9667,17.15],[97.9577,17.1529]]],[[[97.959,17.1721],[97.9526,17.1663],[97.95,17.175],[97.959,17.1721]]],[[[97.9426,17.1754],[97.9489,17.1831],[97.95,17.175],[97.9426,17.1754]]],[[[97.9579,17.2026],[97.9638,17.209],[97.9667,17.2],[97.9579,17.2026]]],[[[97.8435,17.2199],[97.8461,17.234],[97.8461,17.216],[97.8435,17.2199]]],[[[97.9083,17.225],[97.9163,17.2323],[97.9158,17.2254],[97.9083,17.225]]],[[[97.8085,17.2273],[97.8138,17.2352],[97.8161,17.226],[97.8085,17.2273]]],[[[97.9322,17.2373],[97.9414,17.2407],[97.9417,17.2333],[97.9322,17.2373]]],[[[97.9168,17.2403],[97.9262,17.2373],[97.9167,17.2333],[97.9168,17.2403]]],[[[97.7751,17.269],[97.7805,17.2768],[97.7827,17.2676],[97.7751,17.269]]],[[[97.7504,17.2974],[97.7446,17.291],[97.7417,17.3],[97.7504,17.2974]]],[[[97.8918,17.3357],[97.8972,17.3435],[97.8994,17.3343],[97.8918,17.3357]]],[[[97.7676,17.3754],[97.7739,17.3831],[97.775,17.375],[97.7676,17.3754]]],[[[97.8079,17.3776],[97.8138,17.384],[97.8167,17.375],[97.8079,17.3776]]],[[[97.7654,17.3879],[97.7442,17.3692],[97.7443,17.3904],[97.7654,17.3879]]],[[[97.85,17.4],[97.8573,17.3971],[97.8542,17.3904],[97.85,17.4]]],[[[97.8842,17.4004],[97.8906,17.4081],[97.8917,17.4],[97.8842,17.4004]]],[[[97.9665,9.6256],[97.9665,9.6327],[97.9774,9.6292],[97.9665,9.6256]]],[[[97.9835,10.0607],[97.9888,10.0685],[97.9911,10.0593],[97.9835,10.0607]]],[[[97.9668,10.144],[97.9722,10.1518],[97.9744,10.1426],[97.9668,10.144]]],[[[97.9835,10.1523],[97.9888,10.1602],[97.9911,10.151],[97.9835,10.1523]]],[[[97.9918,10.3273],[97.9972,10.3352],[97.9994,10.326],[97.9918,10.3273]]],[[[97.984,10.5555],[97.9776,10.5496],[97.975,10.5583],[97.984,10.5555]]],[[[97.966,10.5612],[97.9724,10.5671],[97.975,10.5583],[97.966,10.5612]]],[[[97.9992,10.8781],[98.0,10.8797],[98.0,10.8774],[97.9992,10.8781]]],[[[97.9992,11.3281],[98.0,11.3297],[98.0,11.3274],[97.9992,11.3281]]],[[[97.991,11.3945],[97.9974,11.4004],[98.0,11.3917],[97.991,11.3945]]],[[[97.9992,11.8281],[98.0,11.8297],[98.0,11.8274],[97.9992,11.8281]]],[[[98.0,11.9453],[97.9992,11.9468],[98.0,11.9476],[98.0,11.9453]]],[[[97.9668,11.9523],[97.9722,11.9602],[97.9744,11.951],[97.9668,11.9523]]],[[[98.0,12.006],[97.9946,11.9993],[97.9917,12.0083],[98.0,12.006]]],[[[97.9843,12.0093],[97.9878,12.0255],[97.9917,12.0083],[97.9843,12.0093]]],[[[97.9668,12.0607],[97.9722,12.0685],[97.9744,12.0593],[97.9668,12.0607]]],[[[97.9751,12.094],[97.9805,12.1018],[97.9827,12.0926],[97.9751,12.094]]],[[[97.9612,12.3007],[97.9671,12.2943],[97.9583,12.2917],[97.9612,12.3007]]],[[[97.9771,12.3366],[98.0,12.3381],[98.0,12.2893],[97.9754,12.3228],[97.9771,12.3366]]],[[[97.961,12.3252],[97.9727,12.3331],[97.975,12.325],[97.961,12.3252]]],[[[97.9866,12.3511],[97.975,12.3667],[98.0,12.3827],[98.0,12.3705],[97.9866,12.3511]]],[[[97.9835,12.3838],[97.9612,12.3602],[97.9582,12.3724],[97.9733,12.391],[97.9835,12.3838]]],[[[98.0,14.3619],[97.9928,14.3748],[98.0,14.3835],[98.0,14.3619]]],[[[98.0,14.3962],[97.9758,14.4166],[98.0,14.4417],[98.0,14.3962]]],[[[97.9675,14.4645],[97.9712,14.4834],[97.9707,14.4582],[97.9675,14.4645]]],[[[97.9637,14.5986],[97.9886,14.5175],[97.9678,14.5114],[97.9654,14.5524],[97.9506,14.5624],[97.9637,14.5986]]],[[[97.9992,14.5947],[98.0,14.5964],[98.0,14.5941],[97.9992,14.5947]]],[[[97.9751,14.644],[97.9805,14.6518],[97.9827,14.6426],[97.9751,14.644]]],[[[97.9992,14.8114],[98.0,14.8131],[98.0,14.8107],[97.9992,14.8114]]],[[[97.9981,15.2115],[97.9842,15.2613],[98.0,15.2657],[97.9981,15.2115]]],[[[97.9668,15.2607],[97.9722,15.2685],[97.9744,15.2593],[97.9668,15.2607]]],[[[97.9757,15.3138],[97.9693,15.3079],[97.9667,15.3167],[97.9757,15.3138]]],[[[97.9592,15.3171],[97.9656,15.3247],[97.9667,15.3167],[97.9592,15.3171]]],[[[97.9813,15.3346],[97.9687,15.3494],[97.9825,15.3481],[97.9813,15.3346]]],[[[97.9587,15.3667],[97.9665,15.3606],[97.9583,15.3583],[97.9587,15.3667]]],[[[97.9935,15.3949],[97.9961,15.409],[97.9961,15.391],[97.9935,15.3949]]],[[[97.9662,15.3832],[97.9611,15.4225],[97.989,15.4307],[97.9796,15.3936],[97.9662,15.3832]]],[[[97.9793,15.7011],[97.9785,15.7245],[97.9911,15.7212],[97.9793,15.7011]]],[[[97.9721,15.741],[97.9663,15.7474],[97.975,15.75],[97.9721,15.741]]],[[[97.9753,15.7659],[97.9833,15.755],[97.975,15.75],[97.9753,15.7659]]],[[[97.9832,15.7912],[98.0,15.8034],[98.0,15.7704],[97.9832,15.7912]]],[[[97.9743,15.7945],[97.9807,15.8004],[97.9833,15.7917],[97.9743,15.7945]]],[[[97.9992,15.8614],[98.0,15.8631],[98.0,15.8607],[97.9992,15.8614]]],[[[97.9835,16.1773],[97.9888,16.1852],[97.9911,16.176],[97.9835,16.1773]]],[[[97.4855,21.8497],[97.4525,21.8285],[97.4633,21.8537],[97.4434,21.8618],[97.446,21.8971],[97.4373,21.8869],[97.4191,21.8965],[97.3946,21.8632],[97.4216,21.8648],[97.4324,21.8485],[97.3862,21.8302],[97.4139,21.8045],[97.3858,21.789],[97.3988,21.7857],[97.3865,21.7624],[97.3983,21.7501],[97.3765,21.7444],[97.3805,21.7127],[97.3593,21.7096],[97.3648,21.6402],[97.3428,21.6252],[97.3636,21.5711],[97.3442,21.5612],[97.3734,21.5295],[97.3685,21.4953],[97.4317,21.3857],[97.4088,21.3745],[97.4217,21.3196],[97.3889,21.2447],[97.3606,21.271],[97.3621,21.2895],[97.3106,21.256],[97.314,21.1624],[97.2849,21.1211],[97.2883,21.0867],[97.2528,21.0799],[97.2537,21.0591],[97.2745,21.0526],[97.2504,21.015],[97.1437,21.0985],[96.9511,21.1653],[96.9027,21.2762],[96.8313,21.3831],[96.7804,21.3913],[96.7888,21.4136],[96.7528,21.4194],[96.7809,21.4441],[96.7888,21.4889],[96.7129,21.4419],[96.7049,21.4035],[96.6617,21.3892],[96.689,21.3719],[96.6731,21.3536],[96.6535,21.3636],[96.6385,21.343],[96.6182,21.3623],[96.6494,21.2626],[96.6102,21.2629],[96.6011,21.2401],[96.6139,21.2195],[96.5779,21.2136],[96.5871,21.1941],[96.5525,21.2124],[96.5733,21.2303],[96.5721,21.2818],[96.522,21.3059],[96.5046,21.2696],[96.4967,21.2885],[96.447,21.2765],[96.3789,21.3149],[96.3765,21.2704],[96.4164,21.2255],[96.3608,21.2115],[96.385,21.1611],[96.4363,21.1658],[96.4532,21.1194],[96.4623,21.1467],[96.4774,21.1252],[96.5135,21.1389],[96.5239,21.1094],[96.5275,20.9462],[96.5413,20.9059],[96.5262,20.8819],[96.5496,20.8642],[96.5462,20.8535],[96.5289,20.8645],[96.5254,20.851],[96.557,20.8115],[96.543,20.7885],[96.5636,20.7612],[96.544,20.7371],[96.5742,20.7252],[96.5443,20.6873],[96.5555,20.653],[96.4945,20.6301],[96.5056,20.5791],[96.4959,20.5527],[96.4856,20.5801],[96.4841,20.5576],[96.4952,20.5174],[96.5053,20.5108],[96.5041,20.5475],[96.5168,20.5186],[96.5013,20.4931],[96.5026,20.4446],[96.5426,20.3784],[96.5626,20.3966],[96.5807,20.3872],[96.561,20.3707],[96.5822,20.3362],[96.5768,20.3037],[96.6275,20.2025],[96.6644,20.1625],[96.6686,20.1291],[96.6896,20.1276],[96.6989,20.0832],[96.6858,20.0619],[96.7303,20.0636],[96.7558,19.9875],[96.7273,19.937],[96.7552,19.9376],[96.7512,19.9055],[96.79,19.8545],[96.7995,19.8189],[96.7865,19.8041],[96.7996,19.7857],[96.7777,19.7606],[96.7523,19.7875],[96.7481,19.8213],[96.7344,19.8221],[96.7488,19.7652],[96.726,19.7222],[96.7774,19.6189],[96.8112,19.6095],[96.8118,19.6382],[96.8374,19.6277],[96.838,19.6484],[96.8554,19.6388],[96.8444,19.6111],[96.8699,19.5935],[96.8461,19.5837],[96.7856,19.5947],[96.811,19.5453],[96.9301,19.4796],[96.8523,19.4964],[96.8803,19.4706],[96.8776,19.4287],[96.9053,19.4137],[96.8855,19.4026],[96.9221,19.3873],[96.91,19.3536],[96.9403,19.3333],[96.928,19.2944],[96.9457,19.3064],[96.969,19.2689],[97.0051,19.2605],[96.9613,19.3367],[96.9877,19.3552],[96.9946,19.3118],[97.0301,19.2903],[97.0384,19.2612],[97.0449,19.2886],[97.0642,19.2701],[97.0547,19.33],[97.0965,19.2881],[97.0947,19.2604],[97.1221,19.2303],[97.095,19.2191],[97.1445,19.2143],[97.1451,19.1944],[97.1611,19.1927],[97.1469,19.2479],[97.1108,19.2948],[97.1317,19.2947],[97.1471,19.3049],[97.1024,19.3525],[97.0932,19.3868],[97.1352,19.3446],[97.1625,19.3434],[97.1283,19.3797],[97.2111,19.4314],[97.2357,19.3855],[97.2556,19.3972],[97.2876,19.385],[97.2612,19.4123],[97.3062,19.4204],[97.2979,19.4392],[97.2694,19.4378],[97.2976,19.4576],[97.3485,19.4014],[97.4501,19.348],[97.5066,19.3758],[97.5758,19.4677],[97.7888,19.4954],[97.8564,19.3687],[97.9158,18.9692],[97.9155,18.8104],[97.8783,18.4699],[97.8876,18.2626],[97.9603,17.9395],[98.0,17.912],[98.0,17.2129],[97.9805,17.2393],[97.9517,17.2202],[97.932,17.2702],[97.9221,17.2738],[97.9012,17.23],[97.9124,17.2106],[97.9308,17.2122],[97.9377,17.1858],[97.8845,17.2115],[97.8444,17.2783],[97.8719,17.2865],[97.8937,17.3212],[97.9068,17.3128],[97.8983,17.3568],[97.878,17.3725],[97.8374,17.3363],[97.7752,17.3592],[97.7789,17.3724],[97.8059,17.3588],[97.8634,17.3782],[97.8779,17.3971],[97.8894,17.3869],[97.907,17.4135],[97.9047,17.448],[97.8809,17.412],[97.8699,17.4215],[97.8616,17.4033],[97.8517,17.4221],[97.8302,17.3929],[97.806,17.4469],[97.7769,17.4115],[97.7638,17.4637],[97.7126,17.4978],[97.7569,17.4051],[97.7364,17.3939],[97.7023,17.419],[97.6844,17.5],[97.7056,17.53],[97.6562,17.5966],[97.6188,17.5872],[97.5931,17.6637],[97.6056,17.6884],[97.5689,17.7106],[97.5558,17.7714],[97.5199,17.7846],[97.5223,17.8046],[97.5024,17.8105],[97.4598,17.9056],[97.442,18.0145],[97.4641,18.0305],[97.44,18.1212],[97.3965,18.1973],[97.4321,18.1],[97.4012,17.8765],[97.4151,17.8678],[97.4303,17.7803],[97.4114,17.7648],[97.4109,17.7363],[97.4797,17.6396],[97.4905,17.5981],[97.4403,17.6155],[97.4028,17.5862],[97.3815,17.6222],[97.3625,17.6112],[97.3364,17.6307],[97.3437,17.579],[97.3788,17.5806],[97.3987,17.547],[97.3366,17.5471],[97.3105,17.5209],[97.3405,17.4861],[97.3692,17.4107],[97.3971,17.3955],[97.403,17.3446],[97.4312,17.3461],[97.4192,17.3042],[97.431,17.252],[97.421,17.2365],[97.4055,17.2556],[97.3856,17.2464],[97.3886,17.2127],[97.3703,17.1952],[97.3023,17.2875],[97.2844,17.3402],[97.2971,17.3632],[97.2584,17.3943],[97.2681,17.4074],[97.3196,17.3776],[97.3741,17.3816],[97.3189,17.4558],[97.2921,17.5625],[97.3018,17.6132],[97.3125,17.6301],[97.3232,17.6127],[97.349,17.7003],[97.3374,17.7226],[97.3206,17.702],[97.3094,17.7078],[97.3394,17.7796],[97.327,17.7889],[97.315,17.7677],[97.3092,17.786],[97.3386,17.812],[97.3472,17.8471],[97.3133,17.8111],[97.3025,17.8301],[97.3196,17.8789],[97.357,17.9056],[97.3514,17.9532],[97.3885,18.0391],[97.3351,17.946],[97.3308,17.9045],[97.2887,17.8845],[97.2946,17.9144],[97.2682,17.8863],[97.2987,17.8182],[97.2884,17.7127],[97.2695,17.6805],[97.2728,17.6524],[97.2431,17.6195],[97.2388,17.529],[97.2231,17.5808],[97.2133,17.553],[97.1948,17.5467],[97.2388,17.5123],[97.2278,17.4878],[97.2401,17.4765],[97.2476,17.371],[97.2296,17.3891],[97.2015,17.3646],[97.195,17.3525],[97.2237,17.3435],[97.204,17.3281],[97.1448,17.3537],[97.1725,17.362],[97.1942,17.3975],[97.2162,17.3989],[97.2062,17.4478],[97.1716,17.4722],[97.156,17.4107],[97.1135,17.3777],[97.0351,17.4389],[97.0263,17.4613],[97.0487,17.5181],[97.0008,17.632],[97.0028,17.7309],[97.012,17.7389],[97.0303,17.7221],[97.0528,17.6772],[97.0533,17.6988],[97.0825,17.7099],[97.0451,17.7118],[97.0259,17.7402],[97.0469,17.7448],[97.035,17.7916],[97.0569,17.805],[97.0567,17.8789],[97.0269,17.878],[97.0,17.9074],[96.979,17.8779],[96.9747,17.9082],[96.9869,17.9318],[97.0084,17.9179],[97.0398,17.9291],[97.0179,17.9514],[97.0265,18.0195],[97.0485,18.0379],[97.0024,18.0692],[97.0211,18.0894],[96.9697,18.0944],[96.999,18.1567],[96.9805,18.1805],[96.9272,18.1772],[96.8964,18.2307],[96.855,18.2638],[96.837,18.2364],[96.8403,18.2692],[96.7929,18.3401],[96.7928,18.3779],[96.8144,18.4054],[96.776,18.46],[96.797,18.4909],[96.8405,18.4776],[96.794,18.5376],[96.7964,18.5559],[96.7183,18.5954],[96.7097,18.6617],[96.7384,18.6809],[96.6947,18.6946],[96.6974,18.7379],[96.6737,18.7636],[96.6431,18.7554],[96.6475,18.7954],[96.6351,18.7963],[96.6333,18.8204],[96.6496,18.8578],[96.6267,18.8932],[96.6642,18.9134],[96.6201,18.9118],[96.6014,18.9487],[96.6305,18.9515],[96.6098,18.9719],[96.6213,18.9893],[96.5917,19.0072],[96.5699,18.9944],[96.5604,19.0295],[96.5884,19.0239],[96.5715,19.0398],[96.5417,19.0374],[96.53,19.0737],[96.4358,19.1691],[96.4031,19.253],[96.4226,19.272],[96.3864,19.3281],[96.3903,19.362],[96.3453,19.3687],[96.3637,19.3884],[96.3276,19.4045],[96.364,19.42],[96.3422,19.4596],[96.3742,19.4932],[96.3521,19.4889],[96.3565,19.5212],[96.3002,19.6592],[96.3039,19.6812],[96.3318,19.6802],[96.3319,19.7612],[96.2942,19.7858],[96.2564,19.8794],[96.2571,20.0386],[96.3205,20.1855],[96.2468,20.4036],[96.2185,20.6508],[96.2261,20.8098],[96.1624,21.1249],[96.199,21.2263],[96.2921,21.2953],[96.3285,21.3646],[96.3504,21.4649],[96.352,21.5689],[96.3833,21.6279],[96.4917,21.7142],[96.5261,21.8087],[96.6717,21.839],[96.7229,21.9271],[96.8272,21.9611],[96.93,21.9736],[96.9802,22.104],[97.0687,22.1926],[97.1187,22.1947],[97.1974,22.1329],[97.2564,22.0586],[97.3499,22.0366],[97.427,21.9718],[97.5158,21.9259],[97.4855,21.8497]],[[96.8917,21.9045],[96.8262,21.903],[96.844,21.8358],[96.8721,21.8093],[96.8826,21.8152],[96.8777,21.8709],[96.8965,21.8948],[96.8917,21.9045]],[[96.8846,21.7221],[96.906,21.7034],[96.9161,21.7578],[96.8958,21.7725],[96.8846,21.7221]],[[96.7989,21.7081],[96.793,21.7002],[96.8,21.7],[96.7989,21.7081]],[[96.6894,21.7081],[96.6769,21.7004],[96.6917,21.7],[96.6894,21.7081]],[[96.7038,21.7108],[96.7393,21.7198],[96.738,21.7396],[96.7014,21.7292],[96.7038,21.7108]],[[96.546,21.5965],[96.5114,21.5688],[96.5726,21.5873],[96.546,21.5965]],[[96.7674,21.5672],[96.7745,21.5743],[96.7667,21.575],[96.7674,21.5672]],[[96.4822,21.5664],[96.4764,21.5585],[96.4833,21.5583],[96.4822,21.5664]],[[96.7388,21.5425],[96.7452,21.5197],[96.7699,21.5109],[96.8079,21.5156],[96.8154,21.5011],[96.8407,21.5237],[96.7953,21.537],[96.7956,21.5565],[96.7529,21.5654],[96.7388,21.5425]],[[96.716,21.51],[96.7087,21.5229],[96.7105,21.5086],[96.716,21.51]],[[96.4811,21.5399],[96.4678,21.5303],[96.4692,21.5097],[96.474,21.5118],[96.4811,21.5399]],[[96.7254,21.5259],[96.7331,21.5322],[96.725,21.5333],[96.7254,21.5259]],[[96.4243,21.5578],[96.4176,21.5504],[96.425,21.55],[96.4243,21.5578]],[[96.59,21.4185],[96.5846,21.4395],[96.5856,21.4187],[96.59,21.4185]],[[96.5634,21.3929],[96.5852,21.3919],[96.5906,21.3964],[96.579,21.4071],[96.5634,21.3929]],[[96.5856,21.3586],[96.5973,21.3665],[96.5833,21.3667],[96.5856,21.3586]],[[96.5779,21.342],[96.5672,21.3502],[96.5583,21.3404],[96.5629,21.3345],[96.5779,21.342]],[[96.4011,21.2253],[96.407,21.2331],[96.4,21.2333],[96.4011,21.2253]],[[96.3776,21.1279],[96.4065,21.1122],[96.4029,21.0948],[96.4216,21.0608],[96.4148,21.1463],[96.3776,21.1279]],[[96.4595,21.0924],[96.4661,21.1068],[96.4583,21.1083],[96.4595,21.0924]],[[96.2996,20.9362],[96.2932,20.9574],[96.2947,20.9339],[96.2996,20.9362]],[[96.5178,20.9003],[96.5237,20.9081],[96.5167,20.9083],[96.5178,20.9003]],[[96.5341,20.6672],[96.5408,20.6746],[96.5333,20.675],[96.5341,20.6672]],[[96.5095,20.6658],[96.5157,20.6509],[96.5157,20.6658],[96.5095,20.6658]],[[96.4678,20.6086],[96.4737,20.6165],[96.4667,20.6167],[96.4678,20.6086]],[[96.3845,20.4086],[96.3903,20.4165],[96.3833,20.4167],[96.3845,20.4086]],[[96.5004,20.4009],[96.5081,20.4072],[96.5,20.4083],[96.5004,20.4009]],[[96.5261,20.3503],[96.532,20.3581],[96.525,20.3583],[96.5261,20.3503]],[[96.4316,20.3468],[96.4016,20.3465],[96.4124,20.3351],[96.4316,20.3468]],[[96.4106,20.2919],[96.4223,20.2998],[96.4083,20.3],[96.4106,20.2919]],[[96.5763,20.2522],[96.5904,20.2485],[96.5764,20.2572],[96.5763,20.2522]],[[96.6011,20.2086],[96.607,20.2165],[96.6,20.2167],[96.6011,20.2086]],[[96.6327,20.1282],[96.6389,20.1394],[96.6118,20.198],[96.6084,20.1738],[96.6327,20.1282]],[[96.4299,20.1406],[96.4347,20.127],[96.4554,20.1118],[96.4572,20.1284],[96.4299,20.1406]],[[96.6335,20.1097],[96.6414,20.1156],[96.6333,20.1167],[96.6335,20.1097]],[[96.6752,20.1027],[96.6831,20.1144],[96.675,20.1167],[96.6752,20.1027]],[[96.4834,20.1069],[96.4748,20.1083],[96.4794,20.0999],[96.4834,20.1069]],[[96.6011,20.1336],[96.607,20.1415],[96.6,20.1417],[96.6011,20.1336]],[[96.451,20.079],[96.473,20.0785],[96.4611,20.0982],[96.451,20.079]],[[96.4919,20.061],[96.4998,20.0727],[96.4917,20.075],[96.4919,20.061]],[[96.4822,20.0664],[96.4764,20.0585],[96.4833,20.0583],[96.4822,20.0664]],[[96.4385,20.0338],[96.4208,20.0268],[96.397,20.0559],[96.3694,20.046],[96.389,20.0309],[96.387,20.0108],[96.4387,19.997],[96.4719,19.9609],[96.4429,20.0584],[96.4385,20.0338]],[[96.7178,20.0253],[96.7237,20.0331],[96.7167,20.0333],[96.7178,20.0253]],[[96.6682,19.9844],[96.6743,20.0055],[96.6667,20.0083],[96.6682,19.9844]],[[96.6544,19.9156],[96.669,19.8606],[96.6974,19.8444],[96.6765,19.8638],[96.6727,19.9063],[96.6544,19.9156]],[[96.7131,19.9062],[96.7305,19.8691],[96.7317,19.8958],[96.7131,19.9062]],[[96.6761,19.8253],[96.682,19.8331],[96.675,19.8333],[96.6761,19.8253]],[[96.3428,19.7836],[96.3487,19.7915],[96.3417,19.7917],[96.3428,19.7836]],[[96.709,19.7328],[96.7163,19.7491],[96.7032,19.7811],[96.7006,19.7713],[96.709,19.7328]],[[96.7011,19.7086],[96.707,19.7165],[96.7,19.7167],[96.7011,19.7086]],[[96.7273,19.6669],[96.739,19.6748],[96.725,19.675],[96.7273,19.6669]],[[96.7346,19.6439],[96.7487,19.6402],[96.7347,19.6489],[96.7346,19.6439]],[[96.7778,19.5592],[96.7825,19.5721],[96.7693,19.5824],[96.775,19.575],[96.7778,19.5592]],[[96.7219,19.5728],[96.7334,19.5487],[96.7291,19.5366],[96.7096,19.5446],[96.7183,19.4954],[96.7555,19.479],[96.7362,19.4352],[96.7941,19.3701],[96.806,19.3883],[96.8314,19.3461],[96.818,19.3347],[96.825,19.2711],[96.8097,19.2288],[96.8395,19.2041],[96.8532,19.1593],[96.8884,19.144],[96.8601,19.1787],[96.8532,19.2206],[96.8719,19.2301],[96.8347,19.2997],[96.8472,19.3037],[96.8488,19.3527],[96.8107,19.3942],[96.8219,19.4126],[96.8129,19.4311],[96.7972,19.4096],[96.7685,19.4487],[96.7806,19.4728],[96.8054,19.4612],[96.8139,19.49],[96.7853,19.5017],[96.7219,19.5728]],[[96.8166,19.4575],[96.8251,19.468],[96.8205,19.4749],[96.8166,19.4575]],[[96.8424,19.4505],[96.8491,19.4579],[96.8417,19.4583],[96.8424,19.4505]],[[96.8504,19.4259],[96.8581,19.4322],[96.85,19.4333],[96.8504,19.4259]],[[96.8928,19.2586],[96.8987,19.2665],[96.8917,19.2667],[96.8928,19.2586]],[[96.9761,19.2086],[96.982,19.2165],[96.975,19.2167],[96.9761,19.2086]],[[97.0921,19.2009],[97.0997,19.2072],[97.0917,19.2083],[97.0921,19.2009]],[[97.4419,19.1984],[97.45,19.2073],[97.4535,19.2155],[97.4419,19.1984]],[[97.1511,19.1753],[97.157,19.1831],[97.15,19.1833],[97.1511,19.1753]],[[96.9083,19.15],[96.9004,19.1573],[96.9009,19.1504],[96.9083,19.15]],[[97.5346,19.1522],[97.5487,19.1485],[97.5347,19.1572],[97.5346,19.1522]],[[96.6989,19.4247],[96.693,19.4169],[96.7,19.4167],[96.6989,19.4247]],[[96.6739,19.5158],[96.6676,19.5009],[96.6739,19.5009],[96.6739,19.5158]],[[96.666,19.5495],[96.6589,19.5424],[96.6667,19.5417],[96.666,19.5495]],[[97.0338,19.1342],[97.0414,19.1406],[97.0333,19.1417],[97.0338,19.1342]],[[97.5266,19.1256],[97.5409,19.1322],[97.525,19.1333],[97.5266,19.1256]],[[97.5083,19.125],[97.5163,19.1177],[97.5158,19.1246],[97.5083,19.125]],[[96.9977,19.1248],[96.986,19.1169],[97.0,19.1167],[96.9977,19.1248]],[[96.9321,19.131],[96.9178,19.1264],[96.9333,19.125],[96.9321,19.131]],[[96.6746,19.0862],[96.6682,19.1074],[96.6697,19.0839],[96.6746,19.0862]],[[97.5011,19.0919],[97.507,19.0998],[97.5,19.1],[97.5011,19.0919]],[[96.9301,19.0804],[96.9577,19.0676],[96.9196,19.0894],[96.9301,19.0804]],[[97.0585,19.0813],[97.0821,19.0711],[97.0626,19.0897],[97.0585,19.0813]],[[97.3959,19.0895],[97.3926,18.9884],[97.4111,18.9758],[97.4307,18.9961],[97.4309,19.0291],[97.3959,19.0895]],[[97.5095,19.0753],[97.5153,19.0831],[97.5083,19.0833],[97.5095,19.0753]],[[97.4996,19.0362],[97.4932,19.0574],[97.4947,19.0339],[97.4996,19.0362]],[[97.4845,19.0086],[97.4903,19.0165],[97.4833,19.0167],[97.4845,19.0086]],[[97.4838,18.9926],[97.4911,18.9993],[97.4833,19.0],[97.4838,18.9926]],[[97.2406,18.9831],[97.2347,18.9752],[97.2417,18.975],[97.2406,18.9831]],[[97.1394,19.006],[97.1028,19.0322],[97.0956,19.0029],[97.076,19.0195],[97.1018,18.9287],[97.1222,18.9124],[97.1071,18.8916],[97.0863,18.9226],[97.0966,18.879],[97.0789,18.8612],[97.0621,18.8897],[97.0361,18.8876],[97.0564,18.9044],[97.0563,18.9299],[97.0029,18.9194],[96.9847,18.939],[96.9817,18.9788],[96.9597,18.9883],[96.9721,19.0221],[96.9512,19.0201],[96.9422,18.9923],[96.9633,18.946],[96.9531,18.9366],[97.0054,18.9056],[96.9766,18.8703],[97.0143,18.8458],[96.9919,18.8332],[96.9523,18.8465],[96.9742,18.8165],[96.944,18.8215],[96.9656,18.7934],[96.9523,18.7128],[97.0209,18.6605],[97.0467,18.6716],[97.0453,18.6441],[97.0956,18.6182],[97.1225,18.6466],[97.2019,18.5425],[97.2141,18.5524],[97.1949,18.5779],[97.2065,18.5954],[97.187,18.6012],[97.1645,18.6541],[97.1343,18.6807],[97.1284,18.6964],[97.1476,18.6972],[97.1115,18.736],[97.1236,18.7848],[97.1011,18.8066],[97.1127,18.8473],[97.131,18.8263],[97.1489,18.8314],[97.1192,18.8783],[97.1495,18.8737],[97.1192,18.9461],[97.1556,18.9682],[97.1394,19.006]],[[97.3261,18.9586],[97.332,18.9665],[97.325,18.9667],[97.3261,18.9586]],[[97.1595,18.9341],[97.1661,18.9484],[97.1583,18.95],[97.1595,18.9341]],[[97.3178,18.9336],[97.3241,18.9413],[97.3167,18.9417],[97.3178,18.9336]],[[97.3261,18.8919],[97.332,18.8998],[97.325,18.9],[97.3261,18.8919]],[[97.3463,18.8513],[97.3645,18.8551],[97.338,18.8811],[97.3417,18.875],[97.3463,18.8513]],[[97.3216,18.8646],[97.3188,18.8272],[97.3293,18.819],[97.3216,18.8646]],[[97.4524,18.847],[97.4388,18.8265],[97.457,18.8472],[97.4524,18.847]],[[97.3915,18.8334],[97.3731,18.8251],[97.4001,18.8254],[97.3915,18.8334]],[[97.4099,18.8172],[97.4243,18.8239],[97.4083,18.825],[97.4099,18.8172]],[[97.1663,18.8241],[97.1586,18.8178],[97.1667,18.8167],[97.1663,18.8241]],[[97.3583,18.8368],[97.35,18.8288],[97.3552,18.825],[97.3583,18.8368]],[[97.4171,18.7926],[97.4245,18.7993],[97.4167,18.8],[97.4171,18.7926]],[[97.3256,18.7893],[97.3321,18.7679],[97.3306,18.7913],[97.3256,18.7893]],[[97.1371,18.7964],[97.147,18.7757],[97.1731,18.786],[97.1689,18.791],[97.1371,18.7964]],[[97.1761,18.7586],[97.182,18.7665],[97.175,18.7667],[97.1761,18.7586]],[[97.3254,18.7509],[97.3331,18.7572],[97.325,18.7583],[97.3254,18.7509]],[[97.3345,18.7086],[97.3403,18.7165],[97.3333,18.7167],[97.3345,18.7086]],[[97.3428,18.6753],[97.3487,18.6831],[97.3417,18.6833],[97.3428,18.6753]],[[97.3511,18.6586],[97.357,18.6665],[97.35,18.6667],[97.3511,18.6586]],[[97.3667,18.625],[97.3587,18.6323],[97.3592,18.6254],[97.3667,18.625]],[[97.7678,18.6253],[97.7741,18.6329],[97.7667,18.6333],[97.7678,18.6253]],[[97.3606,18.5904],[97.3568,18.5763],[97.3656,18.5903],[97.3606,18.5904]],[[97.0917,18.55],[97.0997,18.5427],[97.0991,18.5496],[97.0917,18.55]],[[97.3504,18.5342],[97.3581,18.5406],[97.35,18.5417],[97.3504,18.5342]],[[96.9621,18.6408],[96.9561,18.6896],[96.9116,18.6741],[96.9466,18.656],[96.9282,18.6458],[96.9359,18.6116],[96.9732,18.5764],[96.9596,18.5584],[96.9729,18.5188],[96.9627,18.5021],[96.9357,18.5041],[96.9723,18.4636],[96.9516,18.4287],[96.9865,18.3696],[97.0127,18.3608],[96.9861,18.4139],[97.0373,18.4101],[97.0266,18.425],[97.0388,18.4377],[97.0068,18.4343],[97.0019,18.4457],[97.0295,18.4525],[97.0205,18.4632],[97.048,18.4792],[97.0374,18.498],[97.075,18.5069],[97.0887,18.4946],[97.0995,18.5243],[97.0638,18.5889],[97.0207,18.5769],[97.022,18.6154],[96.9621,18.6408]],[[97.1179,18.6106],[97.132,18.6068],[97.1181,18.6156],[97.1179,18.6106]],[[97.3678,18.5169],[97.3737,18.5248],[97.3667,18.525],[97.3678,18.5169]],[[97.2,18.5083],[97.216,18.5021],[97.2148,18.5159],[97.2,18.5083]],[[97.3919,18.4777],[97.3998,18.4894],[97.3917,18.4917],[97.3919,18.4777]],[[97.4171,18.4342],[97.4247,18.4406],[97.4167,18.4417],[97.4171,18.4342]],[[97.0906,18.4367],[97.0863,18.4109],[97.1134,18.4104],[97.0906,18.4367]],[[97.1511,18.4169],[97.157,18.4248],[97.15,18.425],[97.1511,18.4169]],[[97.4252,18.4027],[97.4331,18.4144],[97.425,18.4167],[97.4252,18.4027]],[[97.4429,18.3939],[97.457,18.3902],[97.4431,18.3989],[97.4429,18.3939]],[[97.1406,18.3666],[97.1535,18.3831],[97.1334,18.3775],[97.1406,18.3666]],[[97.4511,18.3669],[97.4574,18.3746],[97.45,18.375],[97.4511,18.3669]],[[96.8072,18.3747],[96.8014,18.3669],[96.8083,18.3667],[96.8072,18.3747]],[[96.8822,18.3997],[96.8764,18.3919],[96.8833,18.3917],[96.8822,18.3997]],[[96.8343,18.5574],[96.8405,18.5426],[96.8405,18.5574],[96.8343,18.5574]],[[96.8877,18.6911],[96.8843,18.6777],[96.8976,18.6676],[96.8917,18.675],[96.8877,18.6911]],[[96.8734,18.6995],[96.8591,18.6928],[96.875,18.6917],[96.8734,18.6995]],[[96.8332,18.7206],[96.8251,18.705],[96.8333,18.7],[96.8332,18.7206]],[[96.8511,18.7086],[96.857,18.7165],[96.85,18.7167],[96.8511,18.7086]],[[96.8072,18.7497],[96.8014,18.7419],[96.8083,18.7417],[96.8072,18.7497]],[[96.9426,18.7741],[96.9489,18.7592],[96.9489,18.7741],[96.9426,18.7741]],[[96.9329,18.7824],[96.9253,18.7761],[96.9333,18.775],[96.9329,18.7824]],[[96.9053,18.7857],[96.873,18.846],[96.8686,18.8467],[96.9053,18.7857]],[[96.9178,18.7926],[96.9241,18.8074],[96.9178,18.8074],[96.9178,18.7926]],[[96.7072,18.8914],[96.7014,18.8835],[96.7083,18.8833],[96.7072,18.8914]],[[96.7027,18.9255],[96.6783,18.9232],[96.6761,18.912],[96.689,18.9099],[96.7027,18.9255]],[[96.7156,18.9497],[96.7097,18.9419],[96.7167,18.9417],[96.7156,18.9497]],[[96.7656,18.9664],[96.7597,18.9585],[96.7667,18.9583],[96.7656,18.9664]],[[97.0134,19.0186],[97.0,19.025],[96.9861,19.0474],[96.9867,19.0273],[97.0134,19.0186]],[[97.3254,19.0259],[97.3331,19.0322],[97.325,19.0333],[97.3254,19.0259]],[[97.047,18.9589],[97.0445,18.9744],[97.0341,18.9603],[97.047,18.9589]],[[97.1167,19.0583],[97.1247,19.051],[97.1241,19.0579],[97.1167,19.0583]],[[96.6917,19.0756],[96.6753,19.0641],[96.6914,19.0499],[96.6917,19.0756]],[[97.4419,18.3443],[97.4498,18.3561],[97.4417,18.3583],[97.4419,18.3443]],[[97.2443,18.3474],[97.2396,18.2805],[97.2176,18.2881],[97.1862,18.2446],[97.2279,18.2407],[97.2529,18.2206],[97.2847,18.2173],[97.2978,18.2635],[97.2681,18.243],[97.2434,18.2569],[97.2637,18.3552],[97.2443,18.3474]],[[97.5583,18.325],[97.5504,18.3323],[97.5509,18.3254],[97.5583,18.325]],[[97.5856,18.3253],[97.5973,18.3331],[97.5833,18.3333],[97.5856,18.3253]],[[97.6088,18.3176],[97.6164,18.3239],[97.6083,18.325],[97.6088,18.3176]],[[97.4583,18.3167],[97.4663,18.3094],[97.4658,18.3163],[97.4583,18.3167]],[[97.6252,18.3014],[97.6331,18.3072],[97.625,18.3083],[97.6252,18.3014]],[[97.5426,18.3074],[97.5489,18.2926],[97.5489,18.3074],[97.5426,18.3074]],[[97.3989,18.2914],[97.393,18.2835],[97.4,18.2833],[97.3989,18.2914]],[[97.4846,18.2856],[97.4987,18.2818],[97.4847,18.2906],[97.4846,18.2856]],[[97.5356,18.2821],[97.5318,18.268],[97.5406,18.282],[97.5356,18.2821]],[[97.2749,18.2956],[97.2667,18.28],[97.275,18.275],[97.2749,18.2956]],[[97.2854,18.2893],[97.2898,18.2766],[97.2986,18.2983],[97.2854,18.2893]],[[97.391,18.3078],[97.3842,18.3004],[97.3917,18.3],[97.391,18.3078]],[[97.5088,18.2592],[97.5164,18.2656],[97.5083,18.2667],[97.5088,18.2592]],[[97.3667,18.2583],[97.3747,18.251],[97.3741,18.2579],[97.3667,18.2583]],[[97.6085,18.236],[97.6164,18.2477],[97.6083,18.25],[97.6085,18.236]],[[97.3806,18.2407],[97.3857,18.2189],[97.3902,18.2183],[97.3806,18.2407]],[[97.3,18.2167],[97.3118,18.1757],[97.3298,18.1687],[97.3301,18.1977],[97.3,18.2167]],[[97.6272,18.2055],[97.6523,18.1763],[97.6642,18.1693],[97.6397,18.1985],[97.6272,18.2055]],[[97.1398,18.207],[97.0937,18.2037],[97.1717,18.1685],[97.172,18.1735],[97.1398,18.207]],[[97.1158,18.2228],[97.1006,18.2309],[97.115,18.2176],[97.1158,18.2228]],[[97.1778,18.2591],[97.1611,18.2973],[97.1589,18.2823],[97.1778,18.2591]],[[97.0584,18.2986],[97.0498,18.3],[97.0544,18.2916],[97.0584,18.2986]],[[97.0583,18.3417],[97.0663,18.3344],[97.0658,18.3413],[97.0583,18.3417]],[[96.8822,18.3414],[96.8759,18.3337],[96.8833,18.3333],[96.8822,18.3414]],[[97.2011,18.1503],[97.207,18.1581],[97.2,18.1583],[97.2011,18.1503]],[[97.2004,18.1176],[97.2081,18.1239],[97.2,18.125],[97.2004,18.1176]],[[97.162,18.1226],[97.136,18.0776],[97.1616,18.0976],[97.1725,18.0879],[97.1634,18.0595],[97.1442,18.0545],[97.1557,18.0375],[97.1441,18.0203],[97.1699,18.018],[97.1892,18.0362],[97.1778,18.0542],[97.1976,18.1037],[97.162,18.1226]],[[97.3928,18.1003],[97.3987,18.1081],[97.3917,18.1083],[97.3928,18.1003]],[[97.2167,18.0917],[97.2322,18.0847],[97.2321,18.0987],[97.2167,18.0917]],[[97.3,18.0799],[97.3084,18.0879],[97.3032,18.0917],[97.3,18.0799]],[[97.3936,18.0641],[97.3982,18.0516],[97.4069,18.0733],[97.3936,18.0641]],[[97.2678,18.0253],[97.2737,18.0331],[97.2667,18.0333],[97.2678,18.0253]],[[97.2845,18.0086],[97.2903,18.0165],[97.2833,18.0167],[97.2845,18.0086]],[[97.2757,17.9865],[97.2909,17.9894],[97.2778,17.9993],[97.2757,17.9865]],[[97.1335,17.9838],[97.1104,17.9792],[97.1208,17.9521],[97.1335,17.9838]],[[97.3057,17.9811],[97.3124,17.9512],[97.3225,17.9529],[97.3057,17.9811]],[[97.225,17.9583],[97.233,17.951],[97.2325,17.9579],[97.225,17.9583]],[[97.253,17.9178],[97.2577,17.9374],[97.2446,17.9487],[97.25,17.9417],[97.253,17.9178]],[[97.2588,17.9009],[97.2664,17.9072],[97.2583,17.9083],[97.2588,17.9009]],[[97.164,17.8729],[97.1444,17.8112],[97.1796,17.8219],[97.1976,17.8035],[97.2061,17.838],[97.1847,17.8365],[97.164,17.8729]],[[97.0322,17.6914],[97.0264,17.6835],[97.0333,17.6833],[97.0322,17.6914]],[[97.1889,17.5773],[97.2056,17.5862],[97.2218,17.6064],[97.2034,17.6061],[97.1889,17.5773]],[[97.1921,17.5592],[97.1997,17.5656],[97.1917,17.5667],[97.1921,17.5592]],[[97.0449,17.5648],[97.0583,17.5583],[97.0732,17.5365],[97.0725,17.5553],[97.0449,17.5648]],[[97.1941,17.5083],[97.1919,17.5251],[97.1757,17.5118],[97.1941,17.5083]],[[97.1845,17.4836],[97.1903,17.4915],[97.1833,17.4917],[97.1845,17.4836]],[[97.3678,17.9669],[97.3737,17.9748],[97.3667,17.975],[97.3678,17.9669]],[[97.4012,17.8093],[97.4074,17.8241],[97.4012,17.8241],[97.4012,17.8093]],[[97.4095,17.7919],[97.4153,17.7998],[97.4083,17.8],[97.4095,17.7919]],[[97.3428,17.7336],[97.3487,17.7415],[97.3417,17.7417],[97.3428,17.7336]],[[97.3595,17.6336],[97.3653,17.6415],[97.3583,17.6417],[97.3595,17.6336]],[[97.3088,17.3426],[97.3161,17.3493],[97.3083,17.35],[97.3088,17.3426]],[[97.4011,17.2919],[97.407,17.2998],[97.4,17.3],[97.4011,17.2919]],[[97.4011,17.2669],[97.407,17.2748],[97.4,17.275],[97.4011,17.2669]],[[97.4004,17.6176],[97.4081,17.6239],[97.4,17.625],[97.4004,17.6176]],[[97.6778,18.1422],[97.6803,18.1577],[97.6674,18.1563],[97.6778,18.1422]],[[97.6928,18.1503],[97.6987,18.1581],[97.6917,18.1583],[97.6928,18.1503]],[[97.6845,18.1003],[97.6903,18.1081],[97.6833,18.1083],[97.6845,18.1003]],[[97.6847,18.0627],[97.715,18.0544],[97.6933,18.0892],[97.6847,18.0627]],[[97.718,18.0204],[97.7308,18.0015],[97.7167,18.0333],[97.718,18.0204]],[[97.7345,17.9836],[97.7403,17.9915],[97.7333,17.9917],[97.7345,17.9836]],[[97.5179,17.9689],[97.532,17.9652],[97.5181,17.9739],[97.5179,17.9689]],[[97.719,17.9487],[97.7307,17.9427],[97.7407,17.9559],[97.719,17.9487]],[[97.7504,17.9342],[97.7581,17.9406],[97.75,17.9417],[97.7504,17.9342]],[[97.5416,17.9457],[97.5367,17.9189],[97.5549,17.9184],[97.5416,17.9457]],[[97.6835,17.9027],[97.6914,17.9144],[97.6833,17.9167],[97.6835,17.9027]],[[97.4743,17.9161],[97.4676,17.9087],[97.475,17.9083],[97.4743,17.9161]],[[97.5539,17.8975],[97.5701,17.859],[97.5884,17.852],[97.5727,17.881],[97.5539,17.8975]],[[97.6761,17.8836],[97.682,17.8915],[97.675,17.8917],[97.6761,17.8836]],[[97.6783,17.8727],[97.6619,17.817],[97.6723,17.8117],[97.6814,17.8389],[97.7553,17.761],[97.7548,17.7823],[97.6869,17.8442],[97.6783,17.8727]],[[97.7856,17.7821],[97.7818,17.768],[97.7906,17.782],[97.7856,17.7821]],[[97.6857,17.7812],[97.6763,17.7638],[97.6958,17.7188],[97.6994,17.7339],[97.6857,17.7812]],[[97.7679,17.7522],[97.782,17.7485],[97.7681,17.7572],[97.7679,17.7522]],[[97.7698,17.7311],[97.795,17.6762],[97.864,17.611],[97.7698,17.7311]],[[97.7928,17.7086],[97.7987,17.7165],[97.7917,17.7167],[97.7928,17.7086]],[[97.7047,17.6729],[97.7007,17.6575],[97.7135,17.6189],[97.7163,17.637],[97.7047,17.6729]],[[97.7251,17.6754],[97.7063,17.7045],[97.7019,17.7051],[97.7026,17.6866],[97.7251,17.6754]],[[97.666,17.7066],[97.6587,17.6938],[97.6642,17.6918],[97.666,17.7066]],[[97.6822,17.7997],[97.6764,17.7919],[97.6833,17.7917],[97.6822,17.7997]],[[97.9083,17.575],[97.9163,17.5677],[97.9158,17.5746],[97.9083,17.575]],[[97.7133,17.5594],[97.7357,17.5192],[97.7735,17.4777],[97.781,17.4883],[97.7599,17.5056],[97.7553,17.5467],[97.7199,17.5975],[97.7102,17.5656],[97.7133,17.5594]],[[97.9044,17.5838],[97.9063,17.6048],[97.8945,17.5946],[97.8777,17.6057],[97.9044,17.5838]],[[97.9178,17.5503],[97.9237,17.5581],[97.9167,17.5583],[97.9178,17.5503]],[[97.9359,17.5283],[97.9568,17.5199],[97.9277,17.539],[97.9359,17.5283]],[[97.9975,17.521],[97.9687,17.5128],[97.9876,17.5018],[97.9975,17.521]],[[97.8905,17.4592],[97.8843,17.4741],[97.8843,17.4592],[97.8905,17.4592]],[[97.978,17.3337],[97.9743,17.3472],[97.9583,17.35],[97.9602,17.3269],[97.978,17.3337]],[[97.9572,17.2581],[97.9514,17.2502],[97.9583,17.25],[97.9572,17.2581]],[[97.8667,17.275],[97.8747,17.2677],[97.8741,17.2746],[97.8667,17.275]],[[97.4667,19.225],[97.4736,19.327],[97.4573,19.3328],[97.4518,19.2301],[97.4667,19.225]],[[97.1489,19.2914],[97.143,19.2835],[97.15,19.2833],[97.1489,19.2914]],[[97.5261,19.3086],[97.532,19.3165],[97.525,19.3167],[97.5261,19.3086]],[[97.5261,19.2753],[97.532,19.2831],[97.525,19.2833],[97.5261,19.2753]],[[97.5491,19.2259],[97.5428,19.2408],[97.5428,19.2259],[97.5491,19.2259]],[[97.7156,19.3664],[97.7097,19.3585],[97.7167,19.3583],[97.7156,19.3664]],[[96.8437,21.4626],[96.8289,21.4272],[96.8474,21.4629],[96.8437,21.4626]],[[96.8157,21.4534],[96.7943,21.4265],[96.8125,21.418],[96.8157,21.4534]],[[96.9787,21.3105],[96.9739,21.3683],[96.964,21.374],[96.9607,21.3535],[96.9787,21.3105]],[[96.9893,21.2895],[96.9834,21.2451],[96.9874,21.2356],[96.9991,21.2752],[96.9893,21.2895]],[[96.9679,21.1939],[96.982,21.1902],[96.9681,21.1989],[96.9679,21.1939]],[[97.0107,21.1786],[97.0292,21.1773],[97.0313,21.1794],[97.0131,21.1977],[97.0107,21.1786]],[[96.9833,21.1583],[96.9754,21.1657],[96.9759,21.1587],[96.9833,21.1583]],[[97.0169,21.1527],[97.0248,21.1644],[97.0167,21.1667],[97.0169,21.1527]],[[97.2678,21.1336],[97.2737,21.1415],[97.2667,21.1417],[97.2678,21.1336]],[[97.2678,21.1086],[97.2737,21.1165],[97.2667,21.1167],[97.2678,21.1086]]],[[[97.9987,15.1859],[97.9893,14.8686],[97.9691,14.8771],[97.9517,14.9288],[97.9289,15.056],[97.8948,15.0301],[97.9136,15.0196],[97.8859,14.9873],[97.9154,14.9197],[97.9065,14.8956],[97.8789,14.8849],[97.8535,14.9152],[97.8488,14.876],[97.802,14.9026],[97.8038,14.9228],[97.8304,14.9199],[97.8275,14.9463],[97.8468,14.9448],[97.8368,14.9959],[97.8726,15.0445],[97.853,15.0448],[97.8547,15.0744],[97.8289,15.0774],[97.8195,15.0946],[97.839,15.0954],[97.8372,15.1129],[97.8552,15.1201],[97.8451,15.1394],[97.9281,15.0772],[97.9125,15.1225],[97.9362,15.1027],[97.9807,15.1031],[97.9181,15.1389],[97.9015,15.1919],[97.9233,15.1876],[97.911,15.2208],[97.9301,15.2198],[97.9302,15.2401],[97.971,15.2231],[97.9987,15.1859]]],[[[97.998,15.5041],[97.9848,15.5123],[97.9975,15.452],[97.9871,15.4448],[97.9778,15.4717],[97.9728,15.4463],[97.9515,15.436],[97.9464,15.385],[97.9127,15.3847],[97.9411,15.5008],[97.9284,15.521],[97.9453,15.5632],[97.9812,15.5722],[97.9522,15.5875],[97.9472,15.6304],[97.919,15.6275],[97.905,15.6555],[97.8814,15.6194],[97.8724,15.6475],[97.8528,15.6209],[97.8279,15.6706],[97.8568,15.6955],[97.8642,15.7473],[97.8113,15.7764],[97.8183,15.7966],[97.8803,15.772],[97.9812,15.6791],[98.0,15.6377],[97.998,15.5041]],[[97.9829,15.6408],[97.9753,15.6344],[97.9833,15.6333],[97.9829,15.6408]],[[97.9537,15.6451],[97.9637,15.6722],[97.9445,15.6721],[97.9537,15.6451]]],[[[97.9991,15.647],[97.9933,15.6554],[97.9958,15.6638],[98.0,15.6612],[97.9991,15.647]]],[[[97.9992,17.0882],[98.0,17.0893],[98.0,17.0869],[97.9992,17.0882]]],[[[97.9671,17.1501],[98.0,17.1245],[97.9962,17.1031],[97.9609,17.1383],[97.9671,17.1501]]],[[[98.0,17.1589],[97.9922,17.1626],[98.0,17.1663],[98.0,17.1589]]],[[[97.9918,17.1773],[97.9972,17.1852],[97.9994,17.176],[97.9918,17.1773]]],[[[97.984,17.1888],[97.9776,17.1829],[97.975,17.1917],[97.984,17.1888]]],[[[97.9992,17.1965],[98.0,17.1976],[98.0,17.1953],[97.9992,17.1965]]],[[[97.968,17.1919],[97.9739,17.1997],[97.975,17.1917],[97.968,17.1919]]]]}}