{"type":"Feature","properties":{"speciesId":79,"category":"LC","source":"IUCN Red List","simplifyTol":0.01,"clippedToSubcontinent":true},"geometry":{"type":"Polygon","coordinates":[[[93.0586,23.8847],[92.3573,24.3913],[92.071,24.6153],[91.9204,24.7621],[91.6157,24.9714],[91.355,25.2835],[90.9769,26.0582],[90.841,26.4474],[90.797,26.7301],[90.8116,26.8439],[90.8594,26.8843],[91.0173,26.8843],[91.4799,26.5942],[91.7626,26.3262],[91.9388,26.0986],[92.2068,25.669],[92.4418,25.2064],[92.7318,24.7658],[92.8713,24.5198],[93.0953,24.2335],[93.3266,23.8039],[93.2789,23.7819],[93.0586,23.8847]]]}}