{"type":"Feature","properties":{"speciesId":791,"category":"LC","source":"IUCN Red List","simplifyTol":0.01,"clippedToSubcontinent":true},"geometry":{"type":"MultiPolygon","coordinates":[[[[97.9762,14.8525],[97.8739,14.9978],[97.8575,15.1268],[97.9148,15.1349],[97.8964,15.3805],[97.9619,15.4624],[97.9394,15.5341],[97.8698,15.5852],[97.9557,15.665],[98.0,15.6454],[98.0,14.7629],[97.9762,14.8525]]],[[[97.6538,19.4628],[97.7099,19.7028],[97.8121,19.81],[97.8018,19.9325],[97.9857,20.1572],[98.0,20.1547],[98.0,17.2142],[97.8376,17.4614],[97.664,17.4716],[97.5466,17.3797],[97.5568,17.1193],[97.5006,16.8743],[97.3883,16.9457],[97.2709,17.3746],[97.1994,17.3797],[97.1177,17.2674],[96.842,17.5176],[96.5816,18.4264],[96.5152,18.5489],[96.4029,18.6663],[96.3825,19.1667],[96.2293,19.4067],[96.2395,19.5649],[96.1783,19.7998],[96.2089,20.0755],[96.3263,20.0755],[96.357,20.2236],[96.5305,20.244],[96.5765,20.147],[96.6531,19.7896],[96.6684,19.6262],[96.9033,19.4271],[97.1381,19.085],[97.2913,19.2433],[97.4138,19.1565],[97.47,19.4628],[97.6538,19.4628]]],[[[95.0081,23.3255],[94.9189,23.0221],[94.6453,22.802],[94.5798,22.2607],[94.3359,22.0466],[94.1991,22.106],[94.211,23.0102],[94.2764,23.5516],[94.6334,24.4617],[94.8178,24.4677],[94.7523,24.5807],[94.794,24.658],[94.9784,24.7116],[95.1509,24.4201],[95.252,24.4498],[95.145,24.7591],[95.4007,24.7829],[95.5435,24.7294],[95.6506,24.6461],[95.2223,23.9918],[95.1569,23.9382],[95.0319,23.6943],[95.0081,23.3255]]],[[[97.3011,24.977],[97.3727,24.9105],[97.3676,24.8798],[97.4001,24.8132],[97.4376,24.8234],[97.4615,24.7944],[97.453,24.7603],[97.4052,24.7569],[97.3813,24.6869],[97.3591,24.6869],[97.3318,24.6049],[97.3488,24.5452],[97.2993,24.4667],[97.2157,24.4018],[97.2208,24.3745],[97.1662,24.3353],[97.1201,24.325],[97.1031,24.2994],[97.0672,24.1526],[97.0245,24.127],[97.0518,24.0485],[97.0399,23.9683],[97.0553,23.9205],[97.0228,23.7873],[96.9631,23.8266],[96.9409,23.7976],[96.9494,23.7105],[96.9221,23.6252],[96.8248,23.5876],[96.8282,23.5381],[96.8538,23.5108],[96.9272,23.5228],[97.1065,23.632],[97.2055,23.5962],[97.2106,23.5211],[97.0945,23.4187],[96.9153,23.306],[96.8573,23.3419],[96.7873,23.2787],[96.6251,23.2309],[96.5654,23.2668],[96.5944,23.3657],[96.7258,23.3845],[96.7719,23.5706],[96.7088,23.5962],[96.5364,23.5535],[96.5244,23.504],[96.4732,23.4767],[96.4954,23.4289],[96.5415,23.4289],[96.4971,23.3555],[96.5159,23.2753],[96.4749,23.2292],[96.4237,23.2207],[96.381,23.166],[96.2684,23.1934],[96.2121,23.1319],[96.166,23.1575],[96.1745,23.347],[96.1335,23.376],[96.2172,23.463],[96.3196,23.5245],[96.3964,23.6337],[96.4391,23.7549],[96.4015,23.8078],[96.4544,23.8949],[96.5398,23.9222],[96.5483,24.0724],[96.4408,24.0809],[96.4408,24.168],[96.5859,24.1851],[96.6473,24.1475],[96.5705,24.1117],[96.5825,24.0622],[96.7292,24.0946],[96.76,24.0587],[96.859,24.1577],[96.8914,24.2175],[97.0126,24.209],[97.0365,24.2328],[97.0228,24.3028],[96.9477,24.3831],[96.8641,24.3626],[96.8419,24.3199],[96.7873,24.3131],[96.6644,24.395],[96.6507,24.4803],[96.6029,24.4855],[96.5705,24.4326],[96.5074,24.465],[96.4527,24.4291],[96.3452,24.4445],[96.3827,24.634],[96.4442,24.7313],[96.8231,25.1238],[96.8641,25.0778],[96.958,25.1938],[96.9989,25.1955],[97.0331,25.1477],[97.1901,25.426],[97.2259,25.3935],[97.2106,25.3133],[97.2516,25.2945],[97.2379,25.2536],[97.2089,25.2297],[97.2106,25.1494],[97.2618,25.0539],[97.3045,25.0146],[97.3011,24.977]]],[[[96.9852,25.8399],[96.9305,25.8447],[96.9091,25.7091],[96.9519,25.5711],[96.9186,25.5044],[96.9614,25.4664],[96.9377,25.4045],[96.8472,25.3974],[96.8187,25.514],[96.8068,25.6639],[96.733,25.6924],[96.6902,25.8614],[96.6045,25.9137],[96.5784,25.859],[96.6045,25.6948],[96.4903,25.6234],[96.576,25.5782],[96.6117,25.4925],[96.4784,25.3355],[96.4308,25.3736],[96.3452,25.3022],[96.2286,25.1261],[96.3095,24.9572],[96.2904,24.8596],[96.1524,24.6026],[95.9716,24.7121],[95.855,24.9001],[95.8836,24.9905],[95.7884,25.019],[95.6147,24.8287],[95.4338,24.9191],[95.2887,24.8977],[95.0555,24.8953],[95.0722,24.9952],[95.0198,25.0428],[94.8437,24.9262],[94.8294,25.0024],[94.9104,25.0785],[94.9817,25.1999],[95.0436,25.3593],[95.1554,25.4426],[95.1816,25.5354],[95.2435,25.5711],[95.2435,25.6639],[95.3434,25.7519],[95.5338,26.0184],[95.6718,26.0969],[95.6765,26.1683],[95.7265,26.2492],[95.8336,26.3254],[95.9763,26.5728],[96.1072,26.549],[96.1715,26.4943],[96.2072,26.5728],[96.1572,26.6394],[96.1762,26.7061],[96.4737,26.8155],[96.9329,26.7584],[97.009,26.7085],[97.1423,26.4824],[97.1185,26.185],[96.9852,25.8399]]],[[[97.7974,26.9216],[97.8846,26.8264],[97.8291,26.7075],[97.8609,26.6084],[97.9679,26.652],[98.0,26.6001],[98.0,26.5351],[97.9758,26.4934],[97.9005,26.4617],[97.956,26.3784],[97.8965,26.3507],[97.8886,26.2833],[97.9124,26.1643],[97.841,25.8273],[97.9758,25.7877],[97.9283,25.6331],[97.8291,25.5458],[97.7578,25.5894],[97.6626,25.5736],[97.6111,25.6489],[97.4128,25.6568],[97.401,25.8273],[97.3137,25.6727],[97.171,25.4784],[97.167,25.6172],[97.2186,25.6608],[97.2225,25.756],[97.1988,25.8868],[97.2463,25.9582],[97.2186,26.0414],[97.2622,26.1167],[97.3653,26.3824],[97.3217,26.4656],[97.3851,26.5608],[97.4049,26.759],[97.4446,26.7868],[97.4247,26.8938],[97.4802,26.9136],[97.4961,27.0405],[97.4366,27.1476],[97.4366,27.211],[97.623,27.211],[97.6706,27.3418],[97.7498,27.2546],[97.8529,27.2546],[97.9005,27.096],[97.8133,27.0326],[97.7974,26.9216]]]]}}