{"type":"Feature","properties":{"speciesId":799,"category":"DD","source":"IUCN Red List","simplifyTol":0.01,"clippedToSubcontinent":true},"geometry":{"type":"MultiPolygon","coordinates":[[[[95.0093,29.1909],[95.0095,29.1913],[95.0118,29.193],[95.0093,29.1909]]],[[[95.0118,29.193],[95.013,29.194],[95.0132,29.1941],[95.0118,29.193]]],[[[94.9944,29.1759],[95.0045,29.1953],[95.0133,29.1735],[95.0491,29.1879],[95.0545,29.2028],[95.0384,29.2179],[95.0574,29.207],[95.057,29.1889],[95.0846,29.1887],[95.0782,29.2253],[95.1144,29.2136],[95.1374,29.2486],[95.1619,29.2473],[95.1701,29.2771],[95.1669,29.2499],[95.203,29.2601],[95.1221,29.2102],[95.0924,29.206],[95.0883,29.1793],[95.0114,29.1659],[94.9944,29.1759]]]]}}