{"type":"Feature","properties":{"speciesId":8,"category":"LC","source":"IUCN Red List","simplifyTol":0.01,"clippedToSubcontinent":true},"geometry":{"type":"MultiPolygon","coordinates":[[[[66.6949,29.4322],[66.6793,29.0825],[66.4504,26.2396],[66.2809,25.6165],[66.2314,25.5902],[66.1894,25.5986],[66.1337,25.5442],[66.1328,25.5078],[66.0925,25.4805],[66.1497,25.4774],[66.2522,25.5113],[66.2399,25.4659],[66.0391,25.4266],[66.0238,25.4437],[66.0094,25.4361],[66.0144,25.4209],[65.9549,25.4131],[65.8387,25.4194],[65.773,25.3834],[65.6357,25.3494],[65.5174,25.3712],[65.5435,25.4198],[65.5057,25.3761],[65.3718,25.39],[65.3381,25.3805],[65.3189,25.3966],[65.2545,25.3817],[65.2268,25.3178],[65.1564,25.306],[64.9953,25.3252],[64.8271,25.3189],[64.7806,25.3477],[64.7927,25.3239],[64.7262,25.3167],[64.6525,25.2732],[64.6402,25.2055],[64.7005,25.1866],[64.6784,25.1655],[64.6166,25.1545],[64.58,25.1736],[64.6094,25.1964],[64.6053,25.2299],[64.5436,25.2704],[64.406,25.2382],[64.3405,25.2767],[64.2392,25.308],[64.2462,25.3324],[64.2233,25.318],[64.0838,25.3294],[64.0927,25.3664],[64.1175,25.3648],[64.081,25.3965],[64.1419,25.4112],[64.1381,25.4322],[64.1651,25.4533],[64.1243,25.439],[64.1174,25.4544],[64.0642,25.4452],[64.0473,25.4314],[64.0287,25.465],[64.0287,25.444],[63.9934,25.4298],[64.02,25.424],[64.0058,25.4065],[63.9744,25.4234],[63.9674,25.4073],[63.9913,25.4099],[64.0042,25.3843],[64.0208,25.4094],[64.0361,25.4061],[64.072,25.3631],[64.0643,25.3283],[63.9296,25.3371],[63.758,25.3787],[63.6059,25.3706],[63.5366,25.3462],[63.4811,25.2844],[63.4561,25.2951],[63.5039,25.2262],[63.4927,25.1981],[63.1395,25.2577],[63.0071,25.2106],[62.6949,25.2595],[62.4945,25.2528],[62.4637,25.2364],[62.4707,25.2126],[62.4118,25.2054],[62.3562,25.1699],[62.3394,25.1132],[62.3897,25.1037],[62.3769,25.0961],[62.2734,25.098],[62.3202,25.1205],[62.3149,25.1687],[62.2651,25.2048],[62.2034,25.215],[62.0735,25.1784],[62.0666,25.1547],[62.1054,25.1042],[62.0984,25.0961],[61.9847,25.1096],[61.8747,25.1027],[61.859,25.0955],[61.8449,25.0434],[61.7644,25.0327],[61.7242,25.054],[61.7575,25.0983],[61.7476,25.132],[61.769,25.124],[61.7831,25.1418],[61.7791,25.1926],[61.7523,25.1687],[61.6899,25.2053],[61.6592,25.1869],[61.6337,25.2028],[61.5696,25.1845],[61.603,25.2043],[61.5627,25.2175],[61.5702,25.2398],[61.5354,25.2375],[61.5557,25.2192],[61.5284,25.2069],[61.5556,25.1929],[61.4999,25.1944],[61.5279,25.1896],[61.4889,25.1778],[61.4893,25.192],[61.4541,25.1854],[61.4906,25.1719],[61.4918,25.1583],[61.4742,25.1072],[61.4048,25.0874],[61.4146,25.064],[61.1805,25.1258],[61.1673,25.1667],[61.0614,25.2019],[60.7418,25.273],[60.6056,25.2883],[60.6205,25.3072],[60.591,25.352],[60.6039,25.3785],[60.5932,25.4162],[60.5315,25.4464],[60.4296,25.4201],[60.4004,25.38],[60.3961,25.3504],[60.4466,25.3324],[60.4393,25.3188],[60.4586,25.2924],[60.4146,25.3183],[60.3057,25.3399],[60.2946,25.3894],[60.3257,25.3705],[60.3042,25.4029],[60.2014,25.3782],[60.1852,25.3524],[60.2072,25.3343],[60.1971,25.3286],[60.1103,25.3519],[60.108,25.3733],[60.0875,25.3822],[60.0,25.3822],[60.0,30.7477],[60.1248,30.7407],[60.9956,30.5048],[61.4492,30.4686],[61.9389,30.5593],[62.465,30.8314],[62.9185,31.2486],[63.5716,31.8836],[63.7168,31.9561],[64.0835,32.0413],[64.6206,31.9741],[65.4747,31.6081],[66.2068,31.12],[66.6949,30.388],[66.6949,29.4322]]],[[[61.7201,32.0771],[61.794,32.0445],[61.8235,31.9685],[61.7903,31.894],[61.7149,31.8651],[61.641,31.8977],[61.6115,31.9737],[61.6447,32.0482],[61.7201,32.0771]]]]}}