{"type":"Feature","properties":{"speciesId":80,"category":"LC","source":"IUCN Red List","simplifyTol":0.01,"clippedToSubcontinent":true},"geometry":{"type":"Polygon","coordinates":[[[75.8168,24.313],[77.1747,24.3904],[77.9998,24.3732],[78.4037,24.3044],[78.6444,24.2013],[78.8421,23.9864],[78.8678,23.8317],[78.8593,23.677],[78.2233,23.5739],[77.8021,23.4879],[75.6277,23.1785],[73.5736,22.8605],[72.7055,22.6285],[72.3102,22.4995],[71.296,22.2675],[70.935,22.3706],[70.2923,22.7428],[70.3559,22.8761],[70.4429,22.9596],[70.4865,23.0526],[70.4856,23.0888],[70.4091,23.0363],[70.4029,23.0606],[70.3715,23.0588],[70.3624,23.0403],[70.3943,23.0061],[70.2917,22.9434],[70.2374,22.973],[70.2032,22.9444],[70.1582,22.9416],[70.1211,22.9587],[70.1318,22.9827],[70.1208,22.9852],[70.1029,22.964],[70.1286,22.9303],[70.0933,22.9022],[70.0647,22.9131],[70.0274,22.8974],[69.9467,22.9465],[69.5427,23.1184],[69.2247,23.2129],[68.6747,23.4364],[68.52,23.5395],[68.4929,23.6592],[68.5457,23.7129],[68.6186,23.7489],[68.6581,23.7992],[68.6794,23.7916],[68.7497,23.8379],[68.6444,23.8473],[68.6308,23.8149],[68.5235,23.7464],[68.5192,23.7731],[68.4861,23.7328],[68.5304,23.8575],[68.8851,25.7337],[69.2429,27.235],[69.9053,28.0939],[70.3089,28.3201],[70.9561,28.2439],[71.6033,27.5777],[71.946,26.2261],[72.5361,25.5028],[73.0923,24.9146],[73.7455,24.5966],[74.4159,24.4763],[75.8168,24.313]]]}}