{"type":"Feature","properties":{"speciesId":808,"category":"EN","source":"IUCN Red List","simplifyTol":0.01,"clippedToSubcontinent":true},"geometry":{"type":"MultiPolygon","coordinates":[[[[90.2933,25.5386],[90.2789,25.5529],[90.2933,25.5675],[90.3078,25.5532],[90.2933,25.5386]]],[[[91.8709,25.8657],[91.8565,25.88],[91.8709,25.8945],[91.8853,25.8803],[91.8709,25.8657]]],[[[91.7894,26.0476],[91.7726,26.0801],[91.7809,26.1049],[91.8009,26.0666],[91.7894,26.0476]]],[[[92.0403,26.2443],[92.026,26.2587],[92.0404,26.273],[92.0548,26.2584],[92.0403,26.2443]]]]}}