{"type":"Feature","properties":{"speciesId":809,"category":"LC","source":"IUCN Red List","simplifyTol":0.01,"clippedToSubcontinent":true},"geometry":{"type":"MultiPolygon","coordinates":[[[[97.9997,24.0408],[97.6549,23.9284],[97.5849,23.9184],[97.5575,23.9335],[97.5895,23.9867],[97.8039,24.194],[97.861,24.2882],[97.8606,24.3292],[97.8349,24.3706],[97.6031,24.5447],[97.568,24.5868],[97.5575,24.6262],[97.5915,24.7031],[97.7806,24.9156],[97.8021,24.9832],[97.8241,25.1858],[97.8485,25.2252],[97.8883,25.2399],[98.0,25.2336],[97.9997,24.0408]]],[[[91.3564,27.4024],[91.384,27.373],[91.3546,27.3455],[91.3271,27.3748],[91.3564,27.4024]]]]}}