{"type":"Feature","properties":{"speciesId":811,"category":"EN","source":"IUCN Red List","simplifyTol":0.01,"clippedToSubcontinent":true},"geometry":{"type":"MultiPolygon","coordinates":[[[[92.481,23.1913],[92.4664,23.2061],[92.4815,23.2207],[92.4959,23.2058],[92.481,23.1913]]],[[[92.7525,23.4399],[92.738,23.4547],[92.7527,23.4693],[92.7674,23.4544],[92.7525,23.4399]]],[[[92.6064,23.6782],[92.5918,23.6928],[92.6064,23.7075],[92.6211,23.6928],[92.6064,23.6782]]],[[[93.4343,25.033],[93.4199,25.0477],[93.4348,25.062],[93.449,25.0471],[93.4343,25.033]]]]}}