{"type":"Feature","properties":{"speciesId":813,"category":"EN","source":"IUCN Red List","simplifyTol":0.01,"clippedToSubcontinent":true},"geometry":{"type":"MultiPolygon","coordinates":[[[[91.7461,25.4291],[91.7316,25.4435],[91.7461,25.4581],[91.7606,25.4438],[91.7461,25.4291]]],[[[90.3242,25.4783],[90.3097,25.4926],[90.3242,25.5072],[90.3386,25.4929],[90.3242,25.4783]]],[[[91.8827,25.5463],[91.8682,25.5606],[91.8827,25.5752],[91.8971,25.5609],[91.8827,25.5463]]],[[[91.7508,25.5983],[91.7364,25.6126],[91.7508,25.6272],[91.7653,25.6129],[91.7508,25.5983]]]]}}