{"type":"Feature","properties":{"speciesId":817,"category":"LC","source":"IUCN Red List","simplifyTol":0.01,"clippedToSubcontinent":true},"geometry":{"type":"Polygon","coordinates":[[[87.6102,27.3538],[87.6862,27.4144],[87.7533,27.4386],[88.1456,27.4488],[88.4328,27.438],[88.7269,27.4904],[88.7701,27.4617],[88.7691,27.3169],[88.7907,27.2766],[88.8673,27.2602],[88.9469,27.2713],[89.0263,27.3913],[89.0531,27.4048],[89.2405,27.2106],[89.2893,27.1852],[89.3426,27.2269],[89.3737,27.2958],[89.2691,27.4837],[89.3175,27.504],[89.4235,27.5004],[89.571,27.4649],[89.645,27.415],[89.6451,27.3701],[89.5826,27.2033],[89.6045,27.1247],[89.634,27.0937],[89.7299,27.1778],[89.861,27.2267],[89.853,27.2656],[89.767,27.3855],[89.7762,27.4126],[89.8139,27.4336],[89.9877,27.4501],[90.1681,27.4172],[90.2213,27.3834],[90.3055,27.2479],[90.3442,27.224],[90.388,27.2528],[90.5003,27.3986],[90.6015,27.4573],[90.6392,27.4386],[90.7265,27.307],[90.849,27.2947],[90.8686,27.3439],[90.8595,27.5084],[91.0183,27.2218],[90.9962,27.4407],[91.0087,27.4854],[91.0376,27.4985],[91.2502,27.4561],[91.4642,27.3829],[91.6347,27.2983],[91.7787,27.1883],[91.8276,27.1926],[91.9571,27.2565],[92.0799,27.2614],[92.4067,27.1823],[92.5648,27.1767],[92.5941,27.1452],[92.6052,27.0884],[92.5879,27.0305],[92.5516,27.0128],[90.8635,26.9931],[89.2253,27.0153],[88.9939,26.9907],[88.4008,26.8774],[87.9969,26.8369],[87.9073,26.8607],[87.846,26.9111],[87.8073,26.9791],[87.7807,27.0986],[87.7425,27.1852],[87.7062,27.242],[87.615,27.3196],[87.6102,27.3538]]]}}