{"type":"Feature","properties":{"speciesId":822,"category":"EN","source":"IUCN Red List","simplifyTol":0.01,"clippedToSubcontinent":true},"geometry":{"type":"MultiPolygon","coordinates":[[[[93.7128,24.6142],[93.6984,24.629],[93.713,24.6434],[93.7276,24.6287],[93.7128,24.6142]]],[[[94.0665,25.6087],[94.0309,25.6202],[94.0091,25.6624],[94.0142,25.7015],[94.0458,25.7232],[94.0888,25.7139],[94.1182,25.6519],[94.1145,25.6177],[94.0665,25.6087]]],[[[94.4983,25.9525],[94.4839,25.9668],[94.4983,25.9814],[94.5127,25.9671],[94.4983,25.9525]]]]}}