{"type":"Feature","properties":{"speciesId":823,"category":"VU","source":"IUCN Red List","simplifyTol":0.01,"clippedToSubcontinent":true},"geometry":{"type":"MultiPolygon","coordinates":[[[[77.2839,8.6045],[77.2456,8.6358],[77.1835,8.7378],[77.2331,8.8138],[77.2628,8.7978],[77.2893,8.7269],[77.2967,8.6162],[77.2839,8.6045]]],[[[77.3429,9.4265],[77.2444,9.4783],[77.2418,9.5349],[77.2732,9.5757],[77.3402,9.5631],[77.4142,9.4991],[77.4005,9.4508],[77.3429,9.4265]]],[[[77.3814,10.3313],[77.298,10.328],[77.3004,10.2454],[77.2453,10.2047],[77.2426,10.1736],[77.2816,10.1245],[77.245,10.0749],[77.2837,10.0063],[77.2414,9.9447],[77.1777,9.9221],[77.0787,9.9191],[76.9686,9.9572],[76.9635,9.9897],[76.9979,10.0104],[76.9967,10.0574],[77.0228,10.1229],[76.9217,10.1934],[76.8838,10.241],[76.9388,10.29],[76.936,10.3514],[76.9933,10.4585],[77.0471,10.4857],[77.2271,10.4466],[77.2816,10.3904],[77.3714,10.371],[77.3814,10.3313]]]]}}