{"type":"Feature","properties":{"speciesId":824,"category":"EN","source":"IUCN Red List","simplifyTol":0.01,"clippedToSubcontinent":true},"geometry":{"type":"MultiPolygon","coordinates":[[[[77.07,8.8697],[77.095,8.8728],[77.0942,8.8484],[77.0394,8.8323],[77.0237,8.8096],[77.0464,8.7684],[77.0693,8.7599],[77.0895,8.7042],[77.1308,8.6795],[77.1146,8.6378],[77.1545,8.648],[77.1771,8.6278],[77.1557,8.5487],[77.1301,8.5744],[77.1002,8.6639],[77.0657,8.6856],[77.062,8.7398],[77.0096,8.7702],[77.0166,8.8265],[77.07,8.8697]]],[[[76.6587,10.3138],[76.6738,10.2976],[76.6575,10.2822],[76.6422,10.2986],[76.6587,10.3138]]]]}}