{"type":"Feature","properties":{"speciesId":827,"category":"VU","source":"IUCN Red List","simplifyTol":0.01,"clippedToSubcontinent":true},"geometry":{"type":"Polygon","coordinates":[[[75.9989,11.4871],[75.9487,11.5701],[75.8765,11.8373],[75.8153,11.904],[75.8208,11.9895],[75.7607,11.991],[75.7752,12.053],[75.7636,12.0824],[75.739,12.1032],[75.6982,12.084],[75.6532,12.1336],[75.6033,12.0992],[75.5805,12.104],[75.4831,12.2859],[75.468,12.4046],[75.4779,12.4669],[75.5052,12.4799],[75.6041,12.4747],[75.5516,12.5135],[75.4891,12.507],[75.4973,12.5469],[75.5372,12.5812],[75.585,12.5927],[75.635,12.5237],[75.6594,12.5848],[75.6137,12.7128],[75.5873,12.8778],[75.5718,12.8899],[75.5194,12.8766],[75.5204,12.9435],[75.4741,12.8994],[75.4579,12.9543],[75.4634,13.0176],[75.4107,13.0894],[75.4376,13.1273],[75.5257,13.1691],[75.6445,13.1886],[75.7273,13.171],[75.8154,13.0985],[75.8598,13.0044],[75.8749,12.9209],[75.8695,12.8287],[75.8377,12.6932],[75.772,12.5375],[75.7643,12.385],[75.7858,12.2703],[75.8283,12.1611],[75.898,12.0556],[76.0257,11.9344],[76.1106,11.6952],[76.1295,11.5845],[76.1217,11.4781],[76.0506,11.4543],[75.9989,11.4871]]]}}