{"type":"Feature","properties":{"speciesId":83,"category":"EN","source":"IUCN Red List","simplifyTol":0.01,"clippedToSubcontinent":true},"geometry":{"type":"Polygon","coordinates":[[[91.6826,25.2532],[91.6285,25.2826],[91.6025,25.3476],[91.5567,25.3962],[91.4759,25.4338],[91.1502,25.503],[91.0804,25.5331],[91.0783,25.5762],[91.2042,25.5817],[91.478,25.5447],[91.6539,25.5406],[91.7996,25.557],[91.8907,25.5858],[91.9126,25.5762],[91.9037,25.5454],[91.8044,25.4236],[91.7552,25.2614],[91.6826,25.2532]]]}}