{"type":"Feature","properties":{"speciesId":830,"category":"VU","source":"IUCN Red List","simplifyTol":0.01,"clippedToSubcontinent":true},"geometry":{"type":"MultiPolygon","coordinates":[[[[77.1691,9.598],[77.2437,9.5787],[77.2638,9.3017],[77.2236,9.2049],[77.1315,9.1508],[77.0236,9.2435],[76.9666,9.4696],[76.8712,9.5694],[76.836,9.6718],[76.8534,9.7681],[76.892,9.8088],[76.9552,9.834],[77.1672,9.8133],[77.2176,9.7549],[77.1545,9.6354],[77.1691,9.598]]],[[[76.6623,10.5086],[76.6519,10.5294],[76.6723,10.54],[76.6827,10.5192],[76.6623,10.5086]]]]}}