{"type":"Feature","properties":{"speciesId":831,"category":"EN","source":"IUCN Red List","simplifyTol":0.01,"clippedToSubcontinent":true},"geometry":{"type":"Polygon","coordinates":[[[77.4746,8.3081],[77.3707,8.3493],[77.3427,8.3377],[77.3015,8.3972],[77.3168,8.431],[77.2996,8.4341],[77.2837,8.4137],[77.23,8.443],[77.1856,8.5338],[77.1922,8.5497],[77.1709,8.5443],[77.1358,8.6232],[77.0715,8.6717],[77.0836,8.7073],[77.0604,8.7269],[77.0706,8.7503],[77.0475,8.7592],[77.043,8.7847],[77.1096,8.8774],[77.1089,8.9651],[77.1637,8.9232],[77.2205,8.8124],[77.2956,8.7193],[77.3253,8.617],[77.3799,8.5801],[77.4163,8.5319],[77.4603,8.3865],[77.5219,8.3356],[77.5113,8.2827],[77.4914,8.2842],[77.4746,8.3081]]]}}