{"type":"Feature","properties":{"speciesId":833,"category":"VU","source":"IUCN Red List","simplifyTol":0.01,"clippedToSubcontinent":true},"geometry":{"type":"MultiPolygon","coordinates":[[[[75.7089,12.8436],[75.6787,12.8503],[75.4503,13.0291],[75.4276,13.0587],[75.4208,13.1109],[75.4185,13.2857],[75.4344,13.3356],[75.5982,13.5769],[75.6222,13.5884],[75.8431,13.3879],[75.8541,13.3616],[75.8635,12.9701],[75.8204,12.8975],[75.7089,12.8436]]],[[[74.7298,14.2338],[74.6593,14.3318],[74.5126,14.6456],[74.5339,14.6532],[74.5776,14.6369],[74.7634,14.4625],[74.792,14.2996],[74.7573,14.2338],[74.7298,14.2338]]]]}}