{"type":"Feature","properties":{"speciesId":836,"category":"VU","source":"IUCN Red List","simplifyTol":0.01,"clippedToSubcontinent":true},"geometry":{"type":"Polygon","coordinates":[[[76.8451,10.4476],[76.9391,10.4282],[77.044,10.4619],[77.1389,10.4066],[77.2239,10.4375],[77.3527,10.3677],[77.4399,10.348],[77.4961,10.3546],[77.5768,10.405],[77.7076,10.3947],[77.7701,10.3699],[77.7969,10.3321],[77.7518,10.2714],[77.6499,10.2559],[77.4512,10.158],[77.2625,10.0232],[77.1722,9.9924],[77.0987,9.9868],[76.8153,10.0809],[76.8173,10.0943],[76.8858,10.1079],[76.9113,10.1454],[76.8305,10.1486],[76.8704,10.1931],[76.821,10.2045],[76.7657,10.189],[76.7358,10.2334],[76.8466,10.2606],[76.7018,10.2638],[76.6539,10.3065],[76.5708,10.3354],[76.5245,10.427],[76.532,10.459],[76.568,10.4939],[76.6713,10.5403],[76.7437,10.5191],[76.8451,10.4476]],[[77.1189,10.3301],[77.1751,10.3931],[77.1064,10.3909],[77.0994,10.3507],[77.0764,10.3787],[77.0432,10.3617],[77.0375,10.3193],[77.0718,10.2579],[77.0265,10.2721],[77.0482,10.2486],[77.0258,10.2128],[77.0578,10.1822],[77.0022,10.1812],[76.9729,10.1584],[77.0096,10.1366],[77.0673,10.1396],[77.0698,10.1077],[77.098,10.097],[77.1584,10.1479],[77.1982,10.1571],[77.1315,10.0948],[77.1564,10.083],[77.1482,10.071],[77.0995,10.0762],[77.123,10.0442],[77.0818,10.0604],[77.1139,10.0261],[77.2056,10.0641],[77.2436,10.0622],[77.2155,10.1035],[77.2336,10.1218],[77.2752,10.1037],[77.3899,10.141],[77.4587,10.2009],[77.5488,10.2429],[77.5568,10.2801],[77.62,10.2941],[77.6427,10.3404],[77.5732,10.3244],[77.5459,10.3388],[77.5517,10.3032],[77.5352,10.2653],[77.4967,10.3134],[77.4322,10.2517],[77.4054,10.2824],[77.4354,10.3329],[77.3907,10.3337],[77.3655,10.297],[77.3344,10.323],[77.3223,10.3092],[77.3372,10.2787],[77.3291,10.2273],[77.3077,10.252],[77.2606,10.2277],[77.2714,10.1833],[77.2563,10.1476],[77.2337,10.2381],[77.2141,10.2025],[77.1489,10.2005],[77.1256,10.16],[77.1049,10.1538],[77.0982,10.1749],[77.1312,10.2281],[77.1182,10.2614],[77.1647,10.3117],[77.1497,10.3295],[77.1189,10.3301]]]}}