{"type":"Feature","properties":{"speciesId":847,"category":"EN","source":"IUCN Red List","simplifyTol":0.01,"clippedToSubcontinent":true},"geometry":{"type":"MultiPolygon","coordinates":[[[[76.6713,11.1056],[76.6993,11.1076],[76.6971,11.0605],[76.6746,10.9773],[76.6519,10.9518],[76.6231,10.964],[76.5845,10.9559],[76.6009,10.9796],[76.5951,11.0036],[76.5629,11.0101],[76.584,11.0183],[76.5594,11.0277],[76.5804,11.049],[76.5728,11.068],[76.6319,11.1019],[76.6286,11.0902],[76.6573,11.077],[76.6396,11.0353],[76.6617,11.0481],[76.652,11.0625],[76.6775,11.0868],[76.6713,11.1056]]],[[[76.3961,11.2184],[76.4413,11.1708],[76.4782,11.1012],[76.4991,11.0958],[76.5085,11.1022],[76.4882,11.1232],[76.5182,11.148],[76.5014,11.1583],[76.5113,11.1796],[76.5353,11.1664],[76.5543,11.098],[76.5526,11.1305],[76.5696,11.151],[76.5509,11.1815],[76.706,11.2024],[76.6915,11.1798],[76.6046,11.1584],[76.6197,11.1367],[76.5813,11.1267],[76.5822,11.0934],[76.5449,11.0756],[76.5373,11.0997],[76.5241,11.0961],[76.529,11.0763],[76.5165,11.0687],[76.5298,11.0582],[76.4956,11.0515],[76.4322,11.0764],[76.4332,11.0621],[76.4093,11.0624],[76.4141,11.0933],[76.3737,11.0962],[76.4045,11.1436],[76.4009,11.1674],[76.3671,11.1957],[76.3961,11.2184]]]]}}