{"type":"Feature","properties":{"speciesId":848,"category":"EN","source":"IUCN Red List","simplifyTol":0.01,"clippedToSubcontinent":true},"geometry":{"type":"MultiPolygon","coordinates":[[[[74.2922,15.5142],[74.3546,15.4056],[74.3852,15.2604],[74.377,15.2223],[74.3955,15.2308],[74.3738,15.1862],[74.3812,15.1646],[74.4013,15.1823],[74.3952,15.0178],[74.3723,15.0002],[74.3212,15.0054],[74.278,15.0349],[74.2668,15.0601],[74.2791,15.0874],[74.249,15.0924],[74.2517,15.1094],[74.2744,15.118],[74.2642,15.1458],[74.2999,15.1745],[74.2746,15.2355],[74.2472,15.2398],[74.2407,15.2625],[74.2678,15.2945],[74.3234,15.2945],[74.3019,15.3368],[74.3164,15.3906],[74.2708,15.3762],[74.2654,15.4168],[74.2427,15.4184],[74.2684,15.4294],[74.2608,15.4715],[74.2377,15.4827],[74.2247,15.4602],[74.206,15.4824],[74.233,15.4883],[74.2469,15.5079],[74.2387,15.5203],[74.2624,15.5145],[74.2603,15.5283],[74.2922,15.5142]]],[[[74.0859,15.5821],[74.0725,15.5811],[74.0672,15.59],[74.0859,15.5821]]],[[[74.1198,15.6095],[74.1177,15.5842],[74.1011,15.5847],[74.0864,15.6048],[74.1198,15.6095]]],[[[74.1538,15.7313],[74.173,15.753],[74.194,15.7382],[74.2062,15.647],[74.1856,15.664],[74.1943,15.6225],[74.1685,15.6497],[74.1191,15.6356],[74.1129,15.6564],[74.0682,15.6671],[74.0705,15.6903],[74.1225,15.6867],[74.1224,15.7011],[74.0981,15.7109],[74.1595,15.7642],[74.1538,15.7313]]],[[[74.176,15.8113],[74.1789,15.772],[74.1231,15.7754],[74.176,15.8113]]],[[[74.0012,15.9448],[74.0486,15.9395],[74.0615,15.9564],[74.083,15.9411],[74.0687,15.9154],[74.0179,15.9112],[74.0189,15.8767],[74.0429,15.8613],[74.0874,15.8718],[74.1103,15.9037],[74.1347,15.874],[74.0826,15.8634],[74.0547,15.8331],[74.1463,15.8526],[74.1627,15.8246],[74.1204,15.8275],[74.0418,15.8011],[74.0315,15.8253],[74.0065,15.7972],[74.0134,15.7835],[73.9967,15.7884],[74.0201,15.8396],[73.9775,15.8267],[73.9492,15.8743],[73.9811,15.8604],[73.9997,15.8779],[73.9801,15.8846],[73.9992,15.8928],[73.9864,15.9132],[73.9607,15.904],[73.9619,15.9364],[73.9878,15.9377],[73.991,15.9632],[74.0214,15.9648],[74.0012,15.9448]]]]}}