{"type":"Feature","properties":{"speciesId":850,"category":"LC","source":"IUCN Red List","simplifyTol":0.01,"clippedToSubcontinent":true},"geometry":{"type":"MultiPolygon","coordinates":[[[[98.0,14.2852],[97.9673,14.3915],[98.0,14.4787],[98.0,14.2852]]],[[[98.0,14.4823],[97.965,14.4261],[97.948,14.5132],[97.9062,14.5766],[97.9137,14.619],[97.8977,14.612],[97.8731,14.6693],[97.8957,14.7027],[97.8855,14.7229],[97.8678,14.7078],[97.8385,14.7194],[97.7907,14.8707],[97.8084,14.9483],[97.7969,14.9974],[97.8188,15.0101],[97.8248,15.0226],[97.7908,14.9984],[97.7709,15.0176],[97.7971,15.0308],[97.8063,15.1507],[97.787,15.1796],[97.7959,15.1892],[97.7649,15.1975],[97.7342,15.2503],[97.7417,15.2952],[97.7215,15.3328],[97.7271,15.3547],[97.7476,15.3574],[97.7467,15.384],[97.7832,15.399],[97.7408,15.4873],[97.762,15.529],[97.7314,15.5963],[97.7373,15.6505],[97.6995,15.7536],[97.7224,15.7734],[97.7182,15.8422],[97.6751,15.9148],[97.61,15.9494],[97.6052,15.9781],[97.5722,16.0081],[97.5582,16.0722],[97.5972,16.0849],[97.623,16.0528],[97.6456,16.0444],[97.665,16.0488],[97.676,16.0291],[97.6969,16.0274],[97.6672,16.0521],[97.6209,16.0582],[97.6071,16.1037],[97.5963,16.0993],[97.644,16.2715],[97.6155,16.3551],[97.6295,16.3882],[97.6141,16.4256],[97.6283,16.4521],[97.6256,16.5002],[97.6657,16.5105],[97.6712,16.4995],[97.6595,16.4868],[97.6636,16.4749],[97.6828,16.4654],[97.7025,16.4706],[97.7038,16.4507],[97.7237,16.4495],[97.721,16.425],[97.7538,16.4145],[97.7345,16.4008],[97.7345,16.3816],[97.7735,16.378],[97.7969,16.3566],[97.7858,16.3396],[97.789,16.3311],[97.8376,16.3223],[97.8551,16.2946],[97.8886,16.2866],[97.854,16.3007],[97.8404,16.326],[97.7902,16.3343],[97.8031,16.353],[97.793,16.368],[97.7655,16.3849],[97.7372,16.3859],[97.7586,16.4151],[97.7248,16.4281],[97.7265,16.4535],[97.7071,16.4533],[97.7022,16.4741],[97.6657,16.4764],[97.6755,16.5012],[97.6684,16.5455],[97.7465,16.5624],[97.712,16.5711],[97.6664,16.5546],[97.6237,16.6432],[97.6074,16.5832],[97.6265,16.5584],[97.6211,16.5184],[97.5269,16.538],[97.488,16.5386],[97.472,16.5195],[97.3912,16.5251],[97.361,16.4799],[97.3284,16.6589],[97.3462,16.6472],[97.3975,16.6399],[97.4232,16.6506],[97.424,16.6586],[97.3952,16.6434],[97.3455,16.6545],[97.3424,16.67],[97.3578,16.6678],[97.3476,16.6786],[97.3278,16.6671],[97.329,16.6953],[97.344,16.6954],[97.3415,16.7344],[97.3409,16.7102],[97.3207,16.7101],[97.3201,16.669],[97.2786,16.6847],[97.2393,16.7699],[97.2499,16.8223],[97.234,16.8093],[97.2223,16.8471],[97.2276,16.8574],[97.2638,16.8444],[97.2778,16.8517],[97.2662,16.8701],[97.2683,16.8482],[97.2262,16.8698],[97.209,16.813],[97.1998,16.8837],[97.2195,16.9045],[97.2191,16.9379],[97.2085,16.9023],[97.1878,16.8901],[97.1696,16.8988],[97.2072,17.0097],[97.1547,17.0679],[97.1526,17.0939],[97.1876,17.1168],[97.2145,17.0867],[97.2644,17.1037],[97.2282,17.1027],[97.205,17.1341],[97.1458,17.1231],[97.1337,17.0797],[97.1134,17.0784],[97.0883,17.1623],[97.1068,17.1875],[97.0824,17.183],[97.0601,17.2531],[97.0014,17.2658],[97.0104,17.2987],[96.9121,17.3561],[96.8886,17.394],[96.883,17.4544],[96.8642,17.3944],[96.8469,17.3877],[96.8484,17.4147],[96.8169,17.4381],[96.7955,17.4873],[96.7784,17.4876],[96.7344,17.4355],[96.7726,17.3751],[96.7278,17.348],[96.6961,17.3662],[96.6736,17.3585],[96.6505,17.34],[96.6508,17.3168],[96.6691,17.2678],[96.6968,17.2479],[96.7083,17.2562],[96.6769,17.2667],[96.6854,17.3453],[96.7298,17.339],[96.8348,17.3813],[96.8598,17.3613],[96.8555,17.3433],[96.8643,17.3527],[96.9098,17.3232],[96.8907,17.3119],[96.9128,17.3051],[96.9043,17.2744],[96.8625,17.2405],[96.8476,17.2066],[96.8325,17.2091],[96.8514,17.1979],[96.9131,17.0508],[96.8739,16.9111],[96.8368,16.9298],[96.8509,16.9591],[96.831,16.9459],[96.8301,16.9228],[96.8513,16.9104],[96.8554,16.8878],[96.8329,16.9061],[96.8293,16.8933],[96.8073,16.9106],[96.7965,16.9063],[96.8349,16.8773],[96.853,16.837],[96.8235,16.8058],[96.8085,16.756],[96.7935,16.7567],[96.7889,16.7776],[96.7747,16.7735],[96.8014,16.7403],[96.7747,16.6943],[96.5941,16.5351],[96.4988,16.5054],[96.3812,16.4976],[96.2851,16.5534],[96.2869,16.5921],[96.3355,16.6237],[96.4288,16.6071],[96.4707,16.612],[96.331,16.6286],[96.2847,16.5979],[96.2778,16.5774],[96.2642,16.6464],[96.2293,16.6953],[96.2223,16.7528],[96.3148,16.8332],[96.3476,16.8338],[96.3945,16.8595],[96.4109,16.8553],[96.4851,16.8696],[96.5126,16.8874],[96.3937,16.8637],[96.3247,16.8384],[96.3182,16.8649],[96.3477,16.9059],[96.3007,16.8638],[96.2987,16.841],[96.2774,16.8691],[96.3037,16.8261],[96.2029,16.7632],[96.1847,16.7773],[96.1946,16.788],[96.1917,16.8001],[96.2132,16.7984],[96.2248,16.8115],[96.2185,16.8407],[96.2089,16.8458],[96.22,16.8099],[96.1911,16.8054],[96.1802,16.7773],[96.1967,16.7579],[96.1293,16.7706],[96.1227,16.8118],[96.1155,16.8121],[96.132,16.7594],[96.1201,16.7544],[96.146,16.7606],[96.1912,16.7418],[96.2141,16.6734],[96.2459,16.641],[96.2364,16.6076],[96.1736,16.5833],[96.1735,16.5169],[96.1925,16.4866],[96.1802,16.4871],[96.1765,16.4641],[96.1415,16.4535],[96.1632,16.4195],[96.1381,16.3898],[96.1057,16.3838],[96.0836,16.3582],[96.056,16.3625],[95.9974,16.4102],[95.9479,16.4263],[95.9287,16.4981],[95.9555,16.88],[95.9823,17.0364],[96.0516,17.2425],[96.1607,17.4534],[96.2914,17.6469],[96.4601,17.8562],[97.1032,18.5447],[97.3319,18.8123],[97.5243,19.0895],[97.6516,19.3502],[97.7206,19.6149],[97.7283,19.917],[97.6873,20.254],[97.5295,21.1086],[97.5106,21.3323],[97.519,21.5149],[97.5694,21.6992],[97.6665,21.8373],[97.8019,21.9208],[98.0,21.9712],[98.0,14.4823]]],[[[91.3907,26.7797],[89.6448,26.7384],[89.1902,26.7952],[89.0921,26.8417],[89.0869,26.9347],[89.1179,26.9915],[89.2419,27.038],[90.0167,27.1052],[90.869,27.1568],[91.8246,27.1052],[91.9744,27.0742],[92.0364,27.0328],[92.0467,26.976],[91.9847,26.8727],[91.3907,26.7797]]]]}}