{"type":"Feature","properties":{"speciesId":857,"category":"LC","source":"IUCN Red List","simplifyTol":0.01,"clippedToSubcontinent":true},"geometry":{"type":"MultiPolygon","coordinates":[[[[97.999,19.8458],[97.8568,19.8867],[97.6788,19.911],[96.9607,19.9291],[96.672,19.9587],[96.4407,20.0224],[96.1361,20.1746],[95.9107,20.3117],[95.709,20.4577],[95.5391,20.6053],[95.3772,20.7751],[95.2089,20.9811],[95.0682,21.1887],[94.9609,21.389],[94.8858,21.5842],[94.8493,21.7408],[94.8355,21.9065],[94.8721,22.3197],[95.0959,23.426],[95.1951,23.7908],[95.3046,24.1062],[95.4993,24.5141],[95.7303,24.839],[95.8815,24.9909],[96.0669,25.1351],[96.2197,25.2371],[96.3451,25.292],[96.5883,25.3245],[96.896,25.2972],[97.0829,25.2261],[97.5811,24.9613],[97.7535,24.9143],[98.0,24.8769],[97.999,19.8458]]],[[[91.8297,22.366],[91.7828,22.4487],[91.769,22.5619],[91.8683,22.6888],[91.918,22.7164],[92.0201,22.722],[92.0698,22.7054],[92.1609,22.6364],[92.1995,22.5812],[92.2161,22.515],[92.2133,22.3991],[92.1802,22.3356],[92.1388,22.297],[91.9886,22.2799],[91.9025,22.307],[91.8297,22.366]]],[[[92.6421,22.3412],[92.5981,22.6596],[92.6406,22.8746],[92.6997,22.9711],[92.7742,23.0423],[92.8961,23.049],[92.9367,23.0321],[93.0011,22.9677],[93.0316,22.8932],[93.0553,22.6833],[93.0383,22.2532],[93.0045,22.1821],[92.9604,22.1381],[92.8622,22.1347],[92.7742,22.1516],[92.7073,22.2077],[92.6421,22.3412]]]]}}