{"type":"Feature","properties":{"speciesId":859,"category":"LC","source":"IUCN Red List","simplifyTol":0.01,"clippedToSubcontinent":true},"geometry":{"type":"MultiPolygon","coordinates":[[[[76.6215,11.603],[76.5536,11.6129],[76.5404,11.6705],[76.5042,11.698],[76.4514,11.6551],[76.4235,11.6593],[76.4356,11.6377],[76.4248,11.6233],[76.3801,11.6224],[76.3501,11.5827],[76.3286,11.5886],[76.2979,11.5643],[76.271,11.5929],[76.2257,11.5644],[76.2425,11.5288],[76.2401,11.4596],[76.2781,11.4745],[76.3209,11.4447],[76.3337,11.4587],[76.3906,11.428],[76.4104,11.4336],[76.4082,11.4148],[76.4484,11.3814],[76.5101,11.3612],[76.5095,11.3466],[76.5382,11.3516],[76.5285,11.3034],[76.5402,11.2923],[76.5135,11.262],[76.4464,11.2305],[76.438,11.1945],[76.4527,11.1802],[76.4748,11.2013],[76.623,11.1857],[76.6581,11.2063],[76.6717,10.9729],[76.6474,10.929],[76.6768,10.9056],[76.6814,10.8512],[76.6455,10.6572],[76.5808,10.4776],[76.4946,10.4129],[76.3868,10.377],[76.2647,10.377],[76.1713,10.3986],[76.121,10.4417],[75.9989,10.6644],[75.9702,10.7506],[75.9127,11.0739],[75.7403,11.4977],[75.6397,11.6701],[75.6172,11.6744],[75.516,11.8262],[75.3498,12.0214],[75.2766,12.18],[75.0169,12.6227],[74.8742,12.9848],[74.834,13.1275],[74.812,13.5006],[74.8218,13.6986],[74.7432,14.2657],[74.6477,14.5409],[74.4793,14.8778],[74.4343,15.0126],[74.0413,15.8099],[73.9177,16.0177],[73.8578,16.1876],[73.7268,16.4669],[73.5974,16.8267],[73.48,17.3637],[73.2991,18.5553],[73.2233,19.2579],[73.195,19.7715],[73.2099,19.9633],[73.2492,20.1109],[73.3378,20.2684],[73.4657,20.4061],[73.6035,20.4947],[73.7935,20.573],[74.027,20.6024],[74.2423,20.573],[74.4269,20.5235],[74.5067,20.4862],[74.6503,20.3745],[74.8099,20.1351],[74.8559,19.9858],[74.8762,19.8443],[74.95,18.1071],[75.0889,16.909],[75.1997,16.1797],[75.2626,15.5719],[75.3923,15.2944],[75.6958,14.8257],[75.8297,14.5044],[76.0217,14.1205],[76.2001,13.6673],[76.2934,13.3512],[76.3222,13.1069],[76.3725,12.9632],[76.4012,12.7908],[76.4299,12.4388],[76.6215,11.603]]],[[[82.6919,28.8811],[83.1578,28.7409],[84.4458,28.4319],[86.9179,27.327],[88.0615,26.7778],[88.466,26.5639],[88.7749,26.3689],[89.0324,26.1684],[89.2109,25.9956],[89.5338,25.6286],[89.6017,25.4972],[89.6275,25.357],[89.6198,25.1676],[89.5765,24.9176],[89.5277,24.8014],[89.4517,24.6894],[89.3499,24.5837],[89.2195,24.4806],[88.9239,24.3043],[88.0555,23.8711],[87.8323,23.7231],[87.6653,23.5719],[87.5428,23.4015],[87.4451,23.1631],[87.3134,22.9179],[86.8807,22.3836],[86.7026,22.1273],[86.5681,21.7568],[86.505,21.4953],[86.4129,21.3014],[86.2462,21.0537],[85.9135,20.6342],[85.6916,20.3131],[84.9013,19.4851],[84.619,19.2478],[84.2609,18.8634],[84.0741,18.6991],[83.703,18.4221],[83.4261,18.1736],[83.102,17.9642],[82.7712,17.826],[82.5083,17.6903],[82.0018,17.3321],[81.6416,17.1663],[81.4828,17.0422],[81.1128,16.6855],[80.9994,16.6052],[80.888,16.5517],[80.7136,16.5019],[80.5028,16.4703],[79.6768,16.4313],[79.2661,16.4405],[78.95,16.4992],[78.7182,16.6004],[78.4011,16.8212],[78.2398,16.9997],[78.1949,17.0871],[78.1748,17.1715],[78.1835,17.3422],[78.2948,17.7908],[78.6043,19.5703],[78.6993,20.2084],[78.7674,20.9942],[78.7662,21.8644],[78.7328,22.3982],[78.6741,22.9516],[78.5904,23.5188],[78.4815,24.1006],[78.346,24.7037],[78.1826,25.3302],[77.9804,26.0138],[77.7971,26.562],[77.6746,26.7027],[77.4835,26.811],[75.5775,27.4129],[75.0089,27.6168],[74.5108,27.8196],[73.8341,28.1508],[72.9651,28.6726],[72.5969,28.908],[72.3109,29.1144],[72.0742,29.3154],[71.8816,29.5158],[71.7257,29.7249],[71.4826,30.1388],[71.4261,30.3146],[71.4367,30.463],[71.6233,30.8258],[71.8552,31.3725],[72.0101,31.6222],[72.2655,31.885],[72.8713,32.4249],[73.2036,32.6976],[73.6107,32.9847],[74.1224,33.2981],[75.3081,33.9223],[75.4554,33.9765],[75.6236,34.0062],[75.8115,34.0112],[76.0233,33.9918],[76.3327,33.9312],[76.8089,33.8019],[76.9351,33.7394],[77.0313,33.6399],[77.1274,33.4625],[77.1839,33.1658],[77.2701,32.8462],[77.4339,32.3473],[77.8146,31.5319],[77.8879,31.4285],[77.9882,31.3359],[78.1173,31.2526],[78.2783,31.1765],[79.0964,30.9064],[79.421,30.7702],[79.7512,30.6089],[80.1685,30.3737],[80.603,30.0939],[81.7317,29.2586],[82.0641,29.1009],[82.6919,28.8811]]],[[[91.1091,26.6791],[91.7184,26.6716],[91.8028,26.7154],[91.9061,26.915],[91.9786,26.9957],[92.0336,27.0176],[92.0933,27.0132],[92.1312,26.9834],[92.184,26.8703],[92.1954,26.7197],[92.2381,26.6838],[92.3043,26.6624],[92.5686,26.6638],[92.7545,26.7137],[92.9758,26.8597],[93.1376,27.0512],[93.2474,27.0957],[93.3508,27.0915],[93.4777,27.0199],[93.5638,26.8633],[93.5456,26.6988],[93.4433,26.5791],[92.8892,26.1904],[92.61,26.0612],[92.1019,25.9733],[91.7554,25.9401],[91.1507,25.9345],[90.9127,25.9595],[90.728,26.0082],[90.5996,26.076],[90.5342,26.151],[90.5059,26.2675],[90.5149,26.4709],[90.5624,26.5585],[90.6519,26.6223],[90.7836,26.6545],[91.1091,26.6791]]]]}}