{"type":"Feature","properties":{"speciesId":86,"category":"LC","source":"IUCN Red List","simplifyTol":0.01,"clippedToSubcontinent":true},"geometry":{"type":"MultiPolygon","coordinates":[[[[98.0,7.0828],[97.882,7.2208],[97.83,7.3484],[97.813,7.4778],[97.8242,7.5823],[97.7648,7.8183],[97.7604,7.9898],[97.6458,7.9762],[97.5414,7.9868],[97.3612,8.0615],[97.2788,8.1301],[97.1994,8.2336],[97.1589,8.3229],[97.1359,8.4247],[97.1278,8.6524],[97.1414,8.7668],[97.1988,8.9192],[97.3103,9.0523],[97.3216,9.1749],[97.3481,9.2636],[97.3213,9.3953],[97.3298,9.5256],[97.405,9.7068],[97.421,9.8034],[97.4626,9.9088],[97.3952,10.0505],[97.2827,10.1576],[97.2175,10.2707],[97.1837,10.3967],[97.1837,10.5273],[97.2464,10.712],[97.3035,10.7917],[97.3871,10.8682],[97.4114,11.0242],[97.4472,11.1187],[97.44,11.1403],[97.312,11.1738],[97.2211,11.2231],[97.0846,11.36],[96.9572,11.6682],[96.9445,11.8663],[96.9667,11.9617],[97.0245,12.0788],[97.1627,12.2176],[97.2206,12.3358],[97.299,12.4267],[97.2993,12.5743],[97.3413,12.7184],[97.3432,12.8717],[97.3965,13.0405],[97.5153,13.1953],[97.595,13.2524],[97.6929,13.2961],[97.6664,13.349],[97.5548,13.433],[97.4637,13.5576],[97.4196,13.6678],[97.4031,13.8113],[97.3308,13.9306],[97.2962,14.0224],[97.2666,14.4705],[97.2826,14.5672],[97.3285,14.6793],[97.237,14.9666],[97.2321,15.2285],[97.1587,15.4186],[97.1416,15.5794],[97.1625,15.7216],[97.0977,15.8503],[97.0623,16.0051],[96.9612,16.1818],[96.8253,16.0925],[96.7864,16.0965],[96.6604,16.1504],[96.5688,16.2523],[96.5402,16.3123],[96.5523,16.4492],[96.6496,16.588],[96.7864,16.7133],[96.8013,16.7397],[96.7746,16.7731],[96.7808,16.7817],[96.8078,16.7555],[96.8531,16.8372],[96.8333,16.8788],[96.7968,16.9065],[96.8251,16.8937],[96.8359,16.9046],[96.8552,16.8876],[96.8316,16.9194],[96.8346,16.9511],[96.8509,16.9591],[96.8383,16.9272],[96.8737,16.911],[96.9121,17.0177],[96.9001,17.0889],[96.8771,17.1122],[96.8487,17.2008],[96.8335,17.2052],[96.9024,17.2717],[96.9129,17.3049],[96.8907,17.3119],[96.9111,17.3214],[96.863,17.3527],[96.856,17.3431],[96.8597,17.3614],[96.8443,17.3762],[96.8401,17.3648],[96.8366,17.3809],[96.7251,17.3382],[96.6854,17.3453],[96.6769,17.2675],[96.7086,17.2545],[96.6962,17.2479],[96.6683,17.2691],[96.6488,17.3303],[96.6584,17.3486],[96.6924,17.3664],[96.7225,17.3474],[96.7735,17.3764],[96.7344,17.4353],[96.7671,17.4792],[96.7859,17.4899],[96.7944,17.4883],[96.8209,17.4331],[96.849,17.4134],[96.8417,17.3905],[96.8649,17.3961],[96.8832,17.4541],[96.9116,17.357],[97.0091,17.3],[97.0003,17.2668],[97.0592,17.2533],[97.0833,17.1817],[97.1067,17.1878],[97.0887,17.1652],[97.1143,17.0778],[97.1343,17.0806],[97.1365,17.1162],[97.1791,17.1294],[97.2063,17.1338],[97.2278,17.1029],[97.2646,17.1036],[97.2134,17.0874],[97.1909,17.1169],[97.1533,17.0952],[97.1547,17.0679],[97.2072,17.008],[97.1693,16.9107],[97.1749,16.8905],[97.1906,16.8911],[97.2191,16.9379],[97.2181,16.9017],[97.1998,16.8823],[97.2092,16.8129],[97.2228,16.8672],[97.265,16.8481],[97.2659,16.8701],[97.2781,16.8505],[97.2664,16.8441],[97.227,16.8573],[97.2226,16.8417],[97.2349,16.8088],[97.2498,16.8225],[97.2398,16.7684],[97.2772,16.6862],[97.3185,16.6679],[97.3207,16.7102],[97.3402,16.7096],[97.3419,16.7341],[97.3439,16.6953],[97.3301,16.6963],[97.328,16.6669],[97.3476,16.6786],[97.3578,16.6694],[97.3406,16.6666],[97.3457,16.6544],[97.3831,16.6559],[97.3928,16.6437],[97.4241,16.6584],[97.3939,16.64],[97.3284,16.6589],[97.3629,16.479],[97.3928,16.5251],[97.481,16.5218],[97.4886,16.5387],[97.5325,16.5376],[97.6215,16.5187],[97.6264,16.5585],[97.6076,16.581],[97.6214,16.6432],[97.6441,16.6134],[97.6685,16.5549],[97.7089,16.5706],[97.7465,16.5616],[97.6684,16.5455],[97.6755,16.5007],[97.6641,16.48],[97.7023,16.474],[97.7068,16.4536],[97.7259,16.4541],[97.7289,16.4247],[97.7578,16.4177],[97.7372,16.386],[97.7614,16.386],[97.7905,16.3703],[97.8031,16.3534],[97.7924,16.3327],[97.8441,16.3234],[97.8521,16.3024],[97.8887,16.2862],[97.8601,16.2918],[97.8346,16.3236],[97.7874,16.3327],[97.7974,16.354],[97.7784,16.3746],[97.7334,16.3833],[97.7539,16.4141],[97.7199,16.4268],[97.7232,16.4502],[97.7044,16.4501],[97.7025,16.4706],[97.6624,16.4765],[97.6621,16.5123],[97.6486,16.4984],[97.6253,16.5],[97.6284,16.4532],[97.6141,16.4256],[97.6294,16.3873],[97.6155,16.3556],[97.6438,16.27],[97.5978,16.097],[97.6072,16.1036],[97.6202,16.0587],[97.6673,16.0521],[97.6969,16.0274],[97.6772,16.0283],[97.6654,16.0486],[97.6277,16.0504],[97.6143,16.0611],[97.5967,16.0851],[97.5582,16.0726],[97.5713,16.0108],[97.6035,15.9803],[97.6103,15.949],[97.6754,15.9144],[97.7179,15.8434],[97.7217,15.7717],[97.6994,15.7541],[97.762,15.5281],[97.7408,15.4871],[97.7828,15.397],[97.7465,15.3837],[97.7469,15.3561],[97.7274,15.3548],[97.7215,15.3328],[97.7417,15.295],[97.7387,15.2445],[97.7653,15.1971],[97.7951,15.1903],[97.787,15.1795],[97.8063,15.1503],[97.7958,15.0271],[97.7707,15.0183],[97.791,14.9984],[97.8244,15.0243],[97.7969,14.9972],[97.8083,14.9501],[97.7917,14.8683],[97.8392,14.7188],[97.8678,14.7078],[97.8855,14.7229],[97.8944,14.7054],[97.8728,14.671],[97.9047,14.6107],[97.9134,14.6195],[97.9058,14.5783],[97.9408,14.5262],[97.9654,14.4261],[97.9669,14.4417],[97.9851,14.4713],[98.0,14.4825],[97.9679,14.3954],[98.0,14.2877],[98.0,12.3864],[97.9765,12.3649],[97.9769,12.386],[97.9567,12.3773],[97.9419,12.3454],[97.9453,12.3292],[97.9686,12.3623],[97.9786,12.3388],[97.9453,12.3129],[97.9605,12.3213],[97.9813,12.3091],[98.0,12.2737],[98.0,12.1081],[97.9887,12.1039],[98.0,12.0909],[98.0,11.9659],[97.9697,11.9569],[98.0,11.9564],[98.0,11.4487],[97.9723,11.4422],[98.0,11.4351],[98.0,10.5605],[97.9812,10.5704],[97.9451,10.5591],[98.0,10.5407],[98.0,10.3565],[97.9882,10.3267],[98.0,10.3201],[98.0,7.0828]],[[97.6409,8.4835],[97.6391,8.4771],[97.6504,8.4805],[97.6409,8.4835]],[[97.6334,8.5134],[97.6336,8.5047],[97.6444,8.5005],[97.6334,8.5134]],[[97.6266,8.5674],[97.6298,8.5527],[97.6349,8.5638],[97.6266,8.5674]],[[97.6308,8.5955],[97.6375,8.5899],[97.6331,8.5957],[97.6308,8.5955]],[[97.645,8.6529],[97.6279,8.6523],[97.6449,8.615],[97.645,8.6529]],[[97.6423,8.6722],[97.6354,8.666],[97.6446,8.6708],[97.6423,8.6722]],[[97.7981,8.82],[97.8103,8.8174],[97.8076,8.8264],[97.7981,8.82]],[[97.8151,9.0784],[97.8101,9.0609],[97.8194,9.0489],[97.8233,9.062],[97.8151,9.0784]],[[97.8676,9.3719],[97.8759,9.3673],[97.875,9.3762],[97.8676,9.3719]],[[97.8439,9.4157],[97.8778,9.3829],[97.8894,9.3844],[97.8645,9.4351],[97.8439,9.4157]],[[97.824,9.4346],[97.8293,9.4279],[97.83,9.4362],[97.824,9.4346]],[[97.8463,9.4465],[97.8839,9.4289],[97.8783,9.4595],[97.9125,9.4419],[97.8899,9.4841],[97.8528,9.4724],[97.8604,9.4531],[97.8463,9.4465]],[[97.9709,9.6004],[97.9762,9.6376],[97.9537,9.6382],[97.9709,9.6004]],[[97.904,9.6738],[97.9119,9.6751],[97.911,9.6816],[97.904,9.6738]],[[97.986,10.0374],[97.9959,10.0302],[97.9923,10.0489],[97.986,10.0374]],[[97.9949,10.0657],[97.9745,10.0747],[97.9874,10.0526],[97.9949,10.0657]],[[97.9628,10.1231],[97.9731,10.1412],[97.9835,10.1325],[97.9814,10.1764],[97.9628,10.1231]],[[97.9161,10.1553],[97.9269,10.147],[97.9333,10.1536],[97.9161,10.1553]],[[97.8737,10.2003],[97.8851,10.192],[97.8819,10.2026],[97.8737,10.2003]],[[97.9419,10.3598],[97.9439,10.3462],[97.9521,10.3678],[97.9419,10.3598]],[[97.9674,10.3544],[97.9718,10.3521],[97.9723,10.3615],[97.9674,10.3544]],[[97.9507,10.3959],[97.9396,10.4023],[97.9491,10.3912],[97.9507,10.3959]],[[97.8997,10.3938],[97.9425,10.4116],[97.9167,10.4121],[97.9207,10.4268],[97.9458,10.4198],[97.9509,10.4324],[97.9352,10.4563],[97.9482,10.476],[97.909,10.4651],[97.9124,10.4938],[97.8963,10.4812],[97.8997,10.3938]],[[97.9637,10.4326],[97.9541,10.4172],[97.9655,10.4069],[97.9637,10.4326]],[[97.6794,10.4619],[97.6887,10.4591],[97.6889,10.4663],[97.6794,10.4619]],[[97.8968,10.5042],[97.9126,10.4991],[97.9208,10.5161],[97.8968,10.5042]],[[97.9913,10.8487],[97.9961,10.8404],[97.9957,10.8498],[97.9913,10.8487]],[[97.8877,10.8414],[97.9226,10.8695],[97.9448,10.867],[97.9541,10.9303],[97.9267,10.9327],[97.9043,10.9151],[97.8944,10.8946],[97.9101,10.8674],[97.8927,10.8661],[97.8877,10.8414]],[[97.9241,11.275],[97.932,11.2718],[97.9321,11.277],[97.9241,11.275]],[[97.5009,11.6388],[97.5107,11.6427],[97.5098,11.645],[97.5009,11.6388]],[[97.4887,11.7622],[97.4988,11.7733],[97.486,11.7887],[97.4402,11.8008],[97.4547,11.7771],[97.4887,11.7622]],[[97.4795,11.8062],[97.4993,11.7818],[97.5285,11.7808],[97.5257,11.8144],[97.4795,11.8062]],[[97.6479,11.8162],[97.6684,11.8048],[97.6782,11.8145],[97.6691,11.8226],[97.6479,11.8162]],[[97.4711,11.8256],[97.4725,11.8145],[97.4739,11.826],[97.4711,11.8256]],[[97.6752,11.8304],[97.6905,11.8764],[97.6742,11.8988],[97.6422,11.8705],[97.6752,11.8304]],[[97.9226,11.9877],[97.9311,11.9989],[97.9231,12.0011],[97.9226,11.9877]],[[97.7549,11.9966],[97.7355,12.0086],[97.7458,11.989],[97.7549,11.9966]],[[97.9699,12.0103],[97.9935,12.0019],[97.9951,12.0049],[97.9849,12.0243],[97.9699,12.0103]],[[97.6528,12.0075],[97.6828,12.0424],[97.6875,12.0546],[97.6522,12.0374],[97.6528,12.0075]],[[97.9613,12.0674],[97.9572,12.0449],[97.9627,12.0244],[97.9626,12.0469],[97.9829,12.0531],[97.9613,12.0674]],[[97.6342,12.0365],[97.6463,12.036],[97.6468,12.0623],[97.6354,12.057],[97.6342,12.0365]],[[97.762,12.0486],[97.7688,12.0359],[97.791,12.0462],[97.762,12.0486]],[[97.9397,12.0445],[97.9443,12.0419],[97.9451,12.0527],[97.9397,12.0445]],[[97.9756,12.0814],[97.9849,12.0936],[97.9808,12.103],[97.9737,12.0957],[97.9756,12.0814]],[[97.7271,12.1024],[97.748,12.1239],[97.7452,12.146],[97.7141,12.1348],[97.7271,12.1024]],[[97.9682,12.1183],[97.9746,12.1048],[97.9735,12.1183],[97.9682,12.1183]],[[97.9746,12.1261],[97.9811,12.13],[97.9748,12.1337],[97.9746,12.1261]],[[97.9364,12.2409],[97.927,12.2312],[97.9377,12.2072],[97.9405,12.2144],[97.9364,12.2409]],[[97.8679,12.2421],[97.877,12.2434],[97.8756,12.2469],[97.8679,12.2421]],[[97.7809,12.2638],[97.802,12.2809],[97.8035,12.3017],[97.777,12.2806],[97.7809,12.2638]],[[97.9431,12.2818],[97.9554,12.2751],[97.96,12.2939],[97.9431,12.2818]],[[97.8635,12.28],[97.8839,12.2866],[97.8858,12.2931],[97.8671,12.2991],[97.8635,12.28]],[[97.9674,12.2969],[97.9704,12.2819],[97.9698,12.2971],[97.9674,12.2969]],[[97.824,12.4268],[97.8371,12.4348],[97.8255,12.4728],[97.8198,12.4436],[97.824,12.4268]],[[97.8027,12.4964],[97.8099,12.5065],[97.7966,12.5111],[97.795,12.5089],[97.8027,12.4964]],[[97.8529,12.539],[97.882,12.5668],[97.8491,12.6001],[97.8444,12.5842],[97.8266,12.5836],[97.8529,12.539]],[[97.8639,12.6069],[97.8515,12.606],[97.8573,12.6003],[97.8639,12.6069]],[[97.8634,12.6145],[97.8803,12.6204],[97.8811,12.6246],[97.8675,12.6274],[97.8634,12.6145]],[[97.8754,12.765],[97.8716,12.8064],[97.8456,12.8203],[97.8556,12.8092],[97.8385,12.8003],[97.8403,12.7762],[97.8754,12.765]],[[97.9085,13.7864],[97.9272,13.8188],[97.9167,13.8682],[97.907,13.8613],[97.9085,13.7864]],[[97.9137,13.8897],[97.919,13.911],[97.9074,13.9421],[97.9021,13.9267],[97.9137,13.8897]],[[97.8244,14.1246],[97.7987,14.1267],[97.8085,14.1093],[97.8244,14.1246]],[[97.7883,14.176],[97.7919,14.1344],[97.8134,14.1559],[97.8229,14.1869],[97.7883,14.176]],[[97.8067,14.2813],[97.8002,14.2718],[97.8071,14.2613],[97.8171,14.2704],[97.8067,14.2813]],[[97.7677,14.3957],[97.7802,14.389],[97.7836,14.4145],[97.7746,14.4127],[97.7677,14.3957]],[[97.7657,14.4339],[97.777,14.4412],[97.7657,14.4376],[97.7657,14.4339]],[[97.7274,15.0641],[97.7323,15.0554],[97.739,15.0756],[97.7274,15.0641]],[[97.744,15.0871],[97.7371,15.088],[97.7418,15.0802],[97.744,15.0871]],[[97.7301,15.2004],[97.7408,15.2026],[97.7351,15.2072],[97.7301,15.2004]],[[97.6608,15.5668],[97.6504,15.5634],[97.6462,15.5884],[97.6552,15.494],[97.6608,15.5668]],[[97.5084,16.2396],[97.5543,16.2238],[97.5706,16.2383],[97.5683,16.3141],[97.5904,16.3597],[97.5794,16.3995],[97.6162,16.4666],[97.6081,16.4883],[97.5793,16.4835],[97.5023,16.5124],[97.4547,16.4823],[97.4489,16.4675],[97.472,16.4712],[97.4418,16.4469],[97.482,16.3525],[97.4565,16.3187],[97.5084,16.2396]],[[97.5769,16.2936],[97.5936,16.2399],[97.6161,16.2774],[97.5955,16.3324],[97.5769,16.2936]],[[97.6029,16.3816],[97.6131,16.3953],[97.6051,16.4101],[97.601,16.3972],[97.6029,16.3816]],[[97.5718,16.4957],[97.5818,16.4865],[97.5905,16.4882],[97.5718,16.4957]],[[97.5467,16.5019],[97.5532,16.5085],[97.5285,16.5115],[97.5467,16.5019]],[[97.5555,16.5248],[97.5876,16.5066],[97.6083,16.5084],[97.5555,16.5248]],[[97.6474,16.5138],[97.6557,16.5165],[97.6558,16.5234],[97.6474,16.5138]],[[97.4991,16.5271],[97.5148,16.5236],[97.5211,16.5336],[97.4991,16.5271]],[[97.6276,16.5296],[97.6647,16.5554],[97.6435,16.5772],[97.6344,16.5656],[97.6276,16.5296]],[[97.7152,16.5643],[97.7111,16.5602],[97.7161,16.5622],[97.7152,16.5643]],[[97.6481,16.5788],[97.6573,16.5738],[97.6515,16.5872],[97.6481,16.5788]],[[97.6122,16.58],[97.6424,16.5868],[97.6261,16.6184],[97.6122,16.58]],[[97.1989,16.8658],[97.183,16.8705],[97.1871,16.8463],[97.1989,16.8658]],[[96.6596,17.3426],[96.6653,17.3236],[96.6759,17.3463],[96.6596,17.3426]],[[96.7677,17.3663],[96.778,17.3694],[96.7776,17.3754],[96.7677,17.3663]],[[96.7766,17.4062],[96.7977,17.379],[96.8428,17.407],[96.8078,17.4389],[96.792,17.4828],[96.7385,17.4383],[96.7596,17.4058],[96.7766,17.4062]]],[[[98.0,12.3337],[97.9896,12.3398],[98.0,12.3529],[98.0,12.3337]]],[[[93.7075,14.5276],[93.8526,14.3487],[93.8837,14.1823],[93.8795,14.0355],[93.8504,13.905],[93.7927,13.788],[93.703,13.6857],[93.5795,13.6064],[93.6095,13.4891],[93.6095,13.3585],[93.5801,13.2016],[93.5441,13.1003],[93.5256,12.9494],[93.4768,12.8096],[93.4787,12.6122],[93.6353,12.731],[93.7922,12.7785],[93.9635,12.7742],[94.12,12.7148],[94.2667,12.5861],[94.346,12.4389],[94.3744,12.269],[94.3468,12.1015],[94.2891,11.9844],[94.222,11.9022],[94.1462,11.84],[94.0291,11.7823],[93.9209,11.7556],[93.8229,11.7524],[93.6949,11.7779],[93.5968,11.8239],[93.5815,11.6535],[93.5121,11.497],[93.4008,11.3781],[93.2326,11.2938],[93.1736,11.0545],[93.1783,10.9485],[93.1624,10.8518],[93.0822,10.6854],[93.0712,10.5789],[93.0244,10.4143],[92.9716,10.3047],[92.8638,10.1592],[92.7313,10.0643],[92.577,10.0173],[92.4123,10.0127],[92.2065,10.0542],[92.0554,10.1341],[91.9268,10.2808],[91.8694,10.4332],[91.8661,10.6184],[91.8014,10.6966],[91.7437,10.8137],[91.7182,10.9417],[91.7215,11.0397],[91.7552,11.1657],[91.8071,11.2605],[91.741,11.411],[91.717,11.5818],[91.734,11.7112],[91.8013,11.8596],[91.9126,11.9785],[92.0674,12.0598],[92.1419,12.1971],[92.1988,12.3902],[92.1798,12.5256],[92.1937,12.6415],[92.1604,12.8917],[92.2327,13.2587],[92.3175,13.4121],[92.3439,13.5757],[92.4646,13.8408],[92.5508,13.9514],[92.7333,14.0992],[92.7638,14.2055],[92.81,14.292],[93.0369,14.5677],[93.1853,14.6575],[93.398,14.6689],[93.568,14.6261],[93.7075,14.5276]],[[92.7792,12.9305],[92.7841,12.9289],[92.7806,12.9338],[92.7792,12.9305]],[[93.0445,13.6493],[93.0425,13.6389],[93.0461,13.6383],[93.0445,13.6493]],[[92.6142,11.5306],[92.6158,11.5173],[92.6158,11.5313],[92.6142,11.5306]],[[92.7304,11.3194],[92.7326,11.3128],[92.733,11.3199],[92.7304,11.3194]],[[93.0959,13.41],[93.0996,13.4013],[93.0991,13.4149],[93.0959,13.41]],[[92.6797,11.1812],[92.6905,11.1738],[92.6836,11.1852],[92.6797,11.1812]],[[92.7738,11.6792],[92.7721,11.6688],[92.7773,11.6786],[92.7738,11.6792]],[[93.1067,13.4318],[93.1101,13.4219],[93.1145,13.4247],[93.1067,13.4318]],[[93.0371,12.2788],[93.0318,12.2699],[93.0397,12.2753],[93.0371,12.2788]],[[92.612,11.9157],[92.6131,11.9056],[92.615,11.9156],[92.612,11.9157]],[[92.8708,12.2454],[92.8758,12.2344],[92.8752,12.2468],[92.8708,12.2454]],[[92.8168,13.3987],[92.8227,13.411],[92.8175,13.4148],[92.8168,13.3987]],[[93.0766,13.4155],[93.0809,13.4061],[93.0816,13.4224],[93.0766,13.4155]],[[92.8751,13.5026],[92.8815,13.5004],[92.8783,13.5107],[92.8751,13.5026]],[[92.7265,12.782],[92.7319,12.7664],[92.7277,12.7849],[92.7265,12.782]],[[92.7568,12.8924],[92.7636,12.8946],[92.764,12.9096],[92.7568,12.8924]],[[92.6706,10.9868],[92.6734,10.9746],[92.6794,10.9812],[92.6706,10.9868]],[[92.6153,10.9263],[92.6265,10.9246],[92.6198,10.9342],[92.6153,10.9263]],[[92.7362,11.9478],[92.7387,11.9356],[92.7436,11.9543],[92.7362,11.9478]],[[92.9571,12.9376],[92.9756,12.9411],[92.9764,12.9434],[92.9668,12.9465],[92.9571,12.9376]],[[92.7786,12.0034],[92.7686,11.9989],[92.7799,11.991],[92.7786,12.0034]],[[93.3667,14.1916],[93.3772,14.1816],[93.3777,14.1912],[93.3667,14.1916]],[[93.0876,11.7866],[93.0964,11.7747],[93.0987,11.7832],[93.0876,11.7866]],[[92.9171,12.3404],[92.9286,12.3495],[92.9253,12.3532],[92.9171,12.3404]],[[92.9562,12.0859],[92.9649,12.0961],[92.9584,12.1064],[92.9562,12.0859]],[[93.0326,13.3235],[93.0238,13.3123],[93.0301,13.3004],[93.0299,13.3133],[93.0326,13.3235]],[[93.1209,12.1379],[93.1274,12.1239],[93.1316,12.1435],[93.1209,12.1379]],[[92.7453,11.9802],[92.7632,11.9731],[92.7682,11.9826],[92.7453,11.9802]],[[92.5631,11.5321],[92.5744,11.5125],[92.5716,11.5359],[92.5631,11.5321]],[[92.8928,13.5729],[92.9088,13.5906],[92.9091,13.5982],[92.8977,13.5906],[92.8928,13.5729]],[[92.6943,12.5319],[92.6799,12.5255],[92.6899,12.5157],[92.6943,12.5319]],[[92.244,10.9779],[92.2292,10.9837],[92.2173,10.9743],[92.244,10.9779]],[[92.625,11.5837],[92.6146,11.5659],[92.6263,11.5608],[92.625,11.5837]],[[92.618,11.5539],[92.6268,11.5308],[92.6266,11.5566],[92.618,11.5539]],[[92.9488,12.1917],[92.9494,12.2223],[92.9374,12.2129],[92.9488,12.1917]],[[92.7145,12.837],[92.7339,12.8589],[92.7335,12.8663],[92.7145,12.837]],[[93.0745,13.6552],[93.0536,13.6354],[93.0551,13.6184],[93.0745,13.6552]],[[92.7977,12.9149],[92.7941,12.8911],[92.8069,12.8977],[92.7977,12.9149]],[[93.2271,13.9763],[93.2383,13.9825],[93.228,14.0164],[93.2259,14.0141],[93.2271,13.9763]],[[92.8706,12.9343],[92.88,12.9174],[92.8974,12.9269],[92.8927,12.9321],[92.8706,12.9343]],[[92.8281,13.4276],[92.8481,13.4236],[92.8483,13.4385],[92.8281,13.4276]],[[92.7499,11.9551],[92.7595,11.9398],[92.7751,11.9587],[92.7499,11.9551]],[[92.6108,11.9289],[92.6155,11.9568],[92.6022,11.9718],[92.6001,11.9685],[92.6108,11.9289]],[[92.6004,11.5313],[92.6088,11.5473],[92.6014,11.5723],[92.5951,11.5448],[92.6004,11.5313]],[[92.7034,11.2435],[92.718,11.261],[92.7183,11.2893],[92.7047,11.2811],[92.7034,11.2435]],[[92.7062,13.0979],[92.7139,13.0672],[92.7322,13.1027],[92.7062,13.0979]],[[92.948,12.9944],[92.9297,13.0263],[92.927,13.0044],[92.948,12.9944]],[[93.8464,12.2638],[93.8685,12.2555],[93.8725,12.2784],[93.8523,12.2802],[93.8464,12.2638]],[[92.8875,12.2058],[92.8974,12.2276],[92.9212,12.2203],[92.9118,12.2512],[92.8957,12.2347],[92.8811,12.2404],[92.8875,12.2058]],[[92.5491,11.6014],[92.5413,11.5502],[92.5802,11.5851],[92.5491,11.6014]],[[93.0111,12.9971],[92.9796,12.9702],[92.9697,12.9873],[92.9602,12.9777],[92.986,12.9332],[92.9874,12.9643],[93.0111,12.9971]],[[92.9385,12.2811],[92.9162,12.2872],[92.9111,12.2724],[92.9315,12.2658],[92.9349,12.2276],[92.9511,12.2681],[92.9443,12.3033],[92.9385,12.2811]],[[92.7185,12.7176],[92.7257,12.7518],[92.7319,12.7436],[92.722,12.7793],[92.7203,12.8309],[92.7034,12.7966],[92.7185,12.7176]],[[92.9669,12.1307],[92.9899,12.1094],[93.0129,12.1221],[92.9754,12.1458],[92.9669,12.1307]],[[93.1097,12.2553],[93.095,12.2331],[93.0807,12.2561],[93.0698,12.2281],[93.1008,12.2209],[93.1067,12.2037],[93.1097,12.2553]],[[93.3633,14.0731],[93.3771,14.0657],[93.3839,14.1007],[93.3851,14.1488],[93.3735,14.1553],[93.3609,14.1446],[93.3633,14.0731]],[[92.9665,12.4313],[92.9378,12.4086],[92.9268,12.3624],[92.9453,12.3613],[92.9665,12.4313]],[[93.0214,11.8266],[93.0682,11.8095],[93.0827,11.8367],[93.0223,11.8469],[93.0214,11.8266]],[[93.0027,12.1024],[92.9711,12.0999],[92.9842,12.0892],[92.9701,12.0739],[93.0059,12.0424],[93.0027,12.1024]],[[93.03,13.6744],[92.979,13.6571],[93.0378,13.6266],[93.03,13.6744]],[[93.0594,12.0767],[93.0371,12.1643],[93.0136,12.1251],[93.0199,12.0787],[93.0531,12.0439],[93.0594,12.0767]],[[92.23,11.5263],[92.2843,11.5171],[92.2696,11.5832],[92.2173,11.5828],[92.23,11.5263]],[[93.0765,12.2052],[93.0465,12.1297],[93.0803,12.0828],[93.0986,12.095],[93.1068,12.1434],[93.0765,12.2052]],[[92.9881,12.0428],[92.9792,12.0305],[92.9734,12.0447],[92.9368,11.9903],[92.9709,11.976],[92.987,11.9429],[93.0172,11.9428],[93.0067,11.9381],[93.0508,11.8777],[93.0625,11.8912],[93.0478,11.9393],[93.0139,12.0238],[92.9881,12.0428]],[[92.674,12.7934],[92.6952,12.8158],[92.6855,12.8366],[92.7016,12.8373],[92.7264,12.8743],[92.7288,12.9772],[92.7045,12.995],[92.6758,12.9594],[92.6862,12.9395],[92.6596,12.8588],[92.674,12.7934]],[[92.6874,11.4719],[92.6432,11.5097],[92.6249,11.4622],[92.6359,11.4002],[92.6072,11.3984],[92.5979,11.3683],[92.6151,11.3453],[92.6781,11.3536],[92.7041,11.3741],[92.7013,11.3901],[92.6624,11.4038],[92.6976,11.4352],[92.6874,11.4719]],[[92.5064,10.8952],[92.446,10.8639],[92.4438,10.8362],[92.4129,10.8212],[92.3972,10.7866],[92.36,10.7812],[92.3643,10.6684],[92.3897,10.6486],[92.4001,10.6138],[92.3593,10.5358],[92.3769,10.5278],[92.4121,10.5461],[92.4776,10.5082],[92.5103,10.5126],[92.5511,10.5747],[92.5228,10.5895],[92.5231,10.6121],[92.5655,10.6512],[92.5594,10.6676],[92.5793,10.6721],[92.5828,10.7018],[92.5689,10.7433],[92.5764,10.7793],[92.5491,10.8035],[92.5439,10.8619],[92.5064,10.8952]],[[93.0313,13.5727],[93.0176,13.5421],[92.9952,13.5646],[92.9934,13.5246],[92.9711,13.5387],[92.9194,13.5235],[92.9334,13.5173],[92.9209,13.5042],[92.9314,13.494],[92.8836,13.4678],[92.8906,13.4258],[92.8746,13.3986],[92.8487,13.3959],[92.8737,13.38],[92.8402,13.3567],[92.8321,13.3037],[92.8474,13.2968],[92.8296,13.2811],[92.8585,13.2366],[92.8337,13.2316],[92.8251,13.1786],[92.8417,13.1687],[92.8222,13.1689],[92.8196,13.1521],[92.8524,13.1401],[92.8489,13.1246],[92.8173,13.1249],[92.8299,13.0949],[92.8121,13.0953],[92.8178,13.0731],[92.8049,13.089],[92.7973,13.0152],[92.8338,13.0086],[92.8106,12.9954],[92.8246,12.9816],[92.8071,12.9891],[92.8015,12.9766],[92.816,12.8983],[92.7997,12.8622],[92.7786,12.8607],[92.7846,12.8392],[92.7711,12.8597],[92.7534,12.8242],[92.7462,12.8333],[92.7466,12.8117],[92.7318,12.8278],[92.7403,12.7338],[92.7549,12.7161],[92.7429,12.7012],[92.7531,12.6944],[92.7359,12.6873],[92.756,12.6641],[92.7426,12.6302],[92.7287,12.6197],[92.7252,12.6362],[92.7153,12.6075],[92.6939,12.5977],[92.7174,12.5638],[92.7026,12.5079],[92.7149,12.4894],[92.7085,12.3296],[92.7243,12.307],[92.6872,12.1956],[92.6836,12.2184],[92.662,12.1797],[92.6696,12.2162],[92.6529,12.1793],[92.6309,12.0922],[92.6383,12.0382],[92.6201,12.0029],[92.6244,11.9202],[92.6025,11.8786],[92.5741,11.9336],[92.5374,11.89],[92.526,11.8449],[92.5342,11.8264],[92.5571,11.8291],[92.5723,11.6971],[92.5993,11.7157],[92.6222,11.6329],[92.6397,11.6289],[92.6455,11.6596],[92.6494,11.6366],[92.6588,11.6434],[92.6512,11.6092],[92.6201,11.615],[92.6339,11.5639],[92.6411,11.5863],[92.6571,11.578],[92.6599,11.5182],[92.6837,11.5027],[92.7099,11.5102],[92.7214,11.4793],[92.764,11.6181],[92.7675,11.666],[92.7444,11.6818],[92.7534,11.7164],[92.7702,11.7022],[92.7999,11.8769],[92.7887,11.9361],[92.7249,11.9246],[92.7282,11.9525],[92.7453,11.964],[92.7344,11.9874],[92.7649,11.997],[92.7412,12.0183],[92.7489,12.035],[92.7888,12.0238],[92.793,12.0402],[92.7686,12.0479],[92.77,12.0633],[92.8001,12.0811],[92.8049,12.1042],[92.8178,12.1007],[92.8124,12.1299],[92.8281,12.1586],[92.8575,12.1639],[92.8597,12.2014],[92.8891,12.1885],[92.8666,12.2446],[92.8963,12.2556],[92.8931,12.2807],[92.8681,12.3119],[92.9085,12.3179],[92.8886,12.3331],[92.9081,12.329],[92.8989,12.3484],[92.8818,12.3519],[92.8901,12.3769],[92.9264,12.4034],[92.9267,12.4451],[92.9644,12.4644],[92.9618,12.4753],[92.9416,12.4653],[92.9547,12.4977],[92.9701,12.4848],[92.9782,12.4943],[92.9835,12.5448],[92.963,12.6164],[92.972,12.7042],[92.9867,12.7118],[92.9701,12.7532],[92.9439,12.7715],[92.9607,12.8039],[92.9546,12.8349],[92.9347,12.8837],[92.9119,12.8845],[92.9301,12.9108],[92.9053,12.9217],[92.9044,12.8971],[92.8818,12.8933],[92.8832,12.9081],[92.861,12.9163],[92.8633,12.9354],[92.8816,12.9386],[92.9054,12.9924],[92.9166,12.947],[92.9417,12.9625],[92.943,12.9856],[92.9283,12.9817],[92.9073,13.0177],[92.9259,13.0594],[92.9494,13.0607],[92.9476,13.0372],[92.9736,13.0111],[92.9744,13.0348],[93.0156,13.0284],[93.0427,13.0787],[93.0423,13.1752],[93.0699,13.2607],[93.0538,13.2552],[93.0525,13.2773],[93.0187,13.2773],[93.0297,13.2917],[93.0174,13.3157],[93.0011,13.3111],[92.997,13.3327],[93.0125,13.3479],[93.0492,13.3458],[93.0489,13.3622],[93.0551,13.3434],[93.0493,13.3208],[93.0674,13.3212],[93.0743,13.2994],[93.0973,13.3308],[93.068,13.3762],[93.0571,13.3699],[93.0776,13.3959],[93.071,13.4117],[93.0571,13.3998],[93.0313,13.4264],[93.0527,13.521],[93.0313,13.5727]]],[[[94.7296,13.7038],[94.7918,13.5356],[94.791,13.3358],[94.7626,13.242],[94.7077,13.1422],[94.5698,13.0043],[94.3863,12.9282],[94.1912,12.9282],[94.0032,13.0059],[93.9275,13.068],[93.8579,13.1552],[93.7858,13.3335],[93.7862,13.5329],[93.8608,13.7132],[93.9344,13.8037],[94.0102,13.8659],[94.199,13.9442],[94.3941,13.9442],[94.5744,13.8695],[94.6725,13.7834],[94.7296,13.7038]],[[94.2937,13.4508],[94.2757,13.4321],[94.2888,13.4184],[94.3015,13.4378],[94.2937,13.4508]]]]}}