{"type":"Feature","properties":{"speciesId":861,"category":"LC","source":"IUCN Red List","simplifyTol":0.01,"clippedToSubcontinent":true},"geometry":{"type":"Polygon","coordinates":[[[80.3275,13.3076],[80.2956,13.1211],[80.3049,13.0927],[80.2609,13.0127],[80.2741,13.0056],[80.2429,12.8158],[80.2476,12.7533],[80.1758,12.5813],[80.1868,12.5753],[80.1569,12.4775],[80.1353,12.4587],[80.1454,12.4454],[80.0463,12.3104],[80.067,12.3502],[80.0576,12.351],[79.8819,12.0511],[79.8342,11.9097],[79.8187,11.9071],[79.8333,11.902],[79.7982,11.7882],[79.7762,11.7694],[79.794,11.7694],[79.7932,11.7502],[79.7589,11.6076],[79.7601,11.5391],[79.7719,11.4914],[79.8186,11.4263],[79.8483,11.2505],[79.8252,11.2306],[79.8497,11.2282],[79.8597,11.1777],[79.8497,10.8824],[79.8726,10.2847],[79.7578,10.2712],[79.5304,10.3131],[79.3983,10.3201],[79.3055,10.2651],[79.271,10.2303],[79.2771,10.2105],[79.2308,10.1448],[79.2319,10.0843],[79.2669,10.0338],[79.165,9.934],[79.1247,9.8787],[79.1204,9.8444],[78.9816,9.6768],[78.9314,9.5843],[78.9182,9.4896],[78.9033,9.4879],[78.9653,9.3763],[79.0751,9.2923],[79.2096,9.2811],[79.2686,9.29],[79.2922,9.3161],[79.3255,9.3206],[79.3367,9.3084],[79.3223,9.2665],[79.4423,9.1539],[79.3151,9.2377],[79.2237,9.2513],[79.2086,9.2757],[79.0889,9.2567],[78.9626,9.2688],[78.9115,9.2451],[78.8733,9.2526],[78.8104,9.2313],[78.7299,9.2009],[78.7216,9.183],[78.6512,9.1917],[78.6449,9.1654],[78.6619,9.1519],[78.5829,9.1271],[78.492,9.1252],[78.4912,9.1361],[78.4198,9.1097],[78.2767,8.9996],[78.2658,9.0126],[78.2681,8.9925],[78.1937,8.9249],[78.1703,8.8671],[78.1539,8.7474],[78.1786,8.7594],[78.1952,8.7499],[78.2012,8.7785],[78.2055,8.7605],[78.1959,8.7407],[78.1629,8.7296],[78.1322,8.6694],[78.133,8.4883],[78.0647,8.4057],[78.0697,8.3666],[77.8041,8.2336],[77.7838,8.1982],[77.7383,8.1691],[77.5938,8.1399],[77.5609,8.1154],[77.5526,8.069],[77.3183,8.1173],[76.9771,8.3876],[76.6206,8.8431],[76.5464,8.8985],[76.5204,8.9993],[76.4617,9.1312],[76.497,9.067],[76.4753,9.1197],[76.4848,9.1159],[76.4921,9.1672],[76.4748,9.1621],[76.4709,9.1412],[76.4405,9.2326],[76.4196,9.2432],[76.4551,9.1423],[76.3343,9.4274],[76.2446,9.9545],[76.2184,9.9982],[76.1029,10.3754],[76.0478,10.4918],[76.0639,10.4735],[76.0463,10.5317],[76.0266,10.5323],[75.9113,10.799],[75.9104,10.7838],[75.8326,11.1235],[75.8054,11.1508],[75.7296,11.3316],[75.7333,11.354],[75.6866,11.4353],[75.6174,11.4744],[75.5851,11.5587],[75.597,11.5363],[75.5912,11.562],[75.6041,11.561],[75.5822,11.5708],[75.5294,11.6966],[75.5386,11.7048],[75.4917,11.7339],[75.4716,11.769],[75.451,11.7697],[75.3893,11.8467],[75.3522,11.8601],[75.3004,11.9467],[75.2377,12.0138],[75.2249,12.0211],[75.2004,12.0032],[75.1677,12.067],[75.0648,12.3407],[75.0296,12.3922],[75.0386,12.4111],[75.0229,12.3997],[75.0063,12.4371],[75.0154,12.4444],[74.9979,12.4456],[74.983,12.475],[74.8249,12.8316],[74.776,13.0949],[74.7699,13.0782],[74.6921,13.3488],[74.6657,13.6381],[74.6428,13.6709],[74.6058,13.8523],[74.6169,13.8576],[74.565,13.9466],[74.5278,13.9626],[74.505,14.0011],[74.464,14.1872],[74.4092,14.308],[74.3953,14.4186],[74.3765,14.4165],[74.3538,14.5117],[74.3052,14.5196],[74.2912,14.5931],[74.2635,14.6245],[74.2946,14.6402],[74.2751,14.6467],[74.2756,14.6779],[74.2537,14.7068],[74.2633,14.7094],[74.2647,14.7201],[74.2582,14.7122],[74.2215,14.7472],[74.1993,14.7176],[74.092,14.7994],[74.1171,14.8034],[74.1211,14.8436],[74.3023,15.0399],[74.2783,15.0959],[74.2896,15.1431],[74.3219,15.1841],[74.3067,15.2232],[74.2575,15.2576],[74.283,15.2813],[74.3417,15.2929],[74.3233,15.3296],[74.3284,15.3673],[74.2826,15.3886],[74.2825,15.4431],[74.2563,15.4895],[74.2873,15.526],[74.2543,15.5658],[74.2685,15.6096],[74.2525,15.6238],[74.2553,15.6542],[74.2316,15.6665],[74.2133,15.649],[74.1901,15.681],[74.1632,15.6486],[74.126,15.6503],[74.0965,15.6709],[74.1336,15.6784],[74.1306,15.7179],[74.1677,15.7493],[74.2044,15.7534],[74.2273,15.7857],[74.2501,15.7412],[74.274,15.7531],[74.2922,15.7393],[74.3298,15.7704],[74.3649,15.7737],[74.3664,15.8155],[74.3893,15.8441],[74.3445,15.8521],[74.3741,15.8916],[74.3934,15.8518],[74.4116,15.8526],[74.3919,15.9012],[74.4352,15.9512],[74.4703,16.0405],[74.4405,16.057],[74.3901,16.0351],[74.3682,16.053],[74.381,16.0783],[74.4346,16.1106],[74.4891,16.0873],[74.4858,16.147],[74.5129,16.1883],[74.5031,16.231],[74.4225,16.2575],[74.4212,16.2806],[74.3533,16.2918],[74.3599,16.2796],[74.3338,16.2681],[74.3318,16.2862],[74.3487,16.2915],[74.3373,16.3234],[74.323,16.3251],[74.3344,16.3405],[74.3255,16.3792],[74.3431,16.3907],[74.3617,16.3647],[74.3691,16.3943],[74.3427,16.4005],[74.3389,16.4522],[74.2963,16.459],[74.2999,16.5026],[74.2688,16.476],[74.2532,16.4949],[74.2858,16.5034],[74.2716,16.5387],[74.2843,16.5431],[74.2896,16.5226],[74.3069,16.5292],[74.3141,16.5021],[74.3294,16.5535],[74.3656,16.5571],[74.3626,16.5387],[74.3899,16.5279],[74.4035,16.5787],[74.4725,16.6048],[74.4628,16.6445],[74.4774,16.6608],[74.498,16.6266],[74.5514,16.6332],[74.5499,16.5922],[74.5656,16.5904],[74.5597,16.5598],[74.5741,16.552],[74.6239,16.5819],[74.6364,16.5757],[74.6428,16.6068],[74.6904,16.6045],[74.6943,16.6152],[74.6605,16.6376],[74.6961,16.675],[74.6982,16.7152],[74.7366,16.7158],[74.779,16.7486],[74.855,16.7708],[74.9238,16.77],[74.912,16.8559],[74.9641,16.8779],[74.9673,16.9054],[74.927,16.9256],[74.9384,16.941],[74.9858,16.929],[75.0037,16.9458],[75.0303,16.9415],[75.0319,16.9257],[75.0904,16.9487],[75.098,16.9139],[75.1384,16.8929],[75.1411,16.8735],[75.1897,16.8735],[75.1832,16.842],[75.2159,16.8403],[75.2828,16.8742],[75.2884,16.9548],[75.3453,16.9525],[75.3948,16.9764],[75.431,16.9635],[75.4679,16.9853],[75.4925,16.9429],[75.5329,16.9667],[75.5703,16.9636],[75.5758,17.0078],[75.6095,17.0031],[75.6107,16.9696],[75.645,16.951],[75.6746,16.9603],[75.6722,17.0357],[75.6438,17.0364],[75.6784,17.0629],[75.6785,17.0942],[75.6741,17.1136],[75.6536,17.1131],[75.628,17.1701],[75.6621,17.2083],[75.6599,17.2614],[75.606,17.3033],[75.6131,17.3423],[75.5848,17.3498],[75.5785,17.3829],[75.6158,17.3919],[75.6101,17.4195],[75.6356,17.4775],[75.6776,17.458],[75.6912,17.4126],[75.737,17.4219],[75.8023,17.3701],[75.8151,17.3739],[75.8247,17.4228],[75.856,17.4077],[75.862,17.3859],[75.8872,17.4173],[75.8937,17.3536],[75.9312,17.3241],[76.0545,17.3543],[76.0787,17.3301],[76.1212,17.3663],[76.1631,17.3409],[76.1638,17.3003],[76.1758,17.2972],[76.1723,17.3487],[76.2444,17.3747],[76.25,17.3579],[76.2702,17.3565],[76.2759,17.3305],[76.3172,17.3294],[76.313,17.3433],[76.3436,17.3499],[76.3523,17.3106],[76.3817,17.3118],[76.4106,17.3477],[76.4081,17.3693],[76.362,17.3751],[76.3732,17.4344],[76.3337,17.4323],[76.3308,17.4688],[76.375,17.4935],[76.3435,17.4944],[76.3661,17.5222],[76.34,17.5426],[76.3317,17.5949],[76.4157,17.6042],[76.4287,17.6444],[76.4893,17.6607],[76.4864,17.7135],[76.5236,17.7152],[76.5237,17.7589],[76.5733,17.76],[76.5732,17.7022],[76.6144,17.7683],[76.6631,17.6879],[76.6906,17.68],[76.6982,17.726],[76.7276,17.737],[76.7157,17.7819],[76.7628,17.7871],[76.7882,17.8265],[76.7375,17.8571],[76.7407,17.898],[76.766,17.8984],[76.7746,17.877],[76.8028,17.8683],[76.8082,17.8831],[76.8812,17.8931],[76.9164,17.9151],[76.9177,18.0332],[76.9546,18.0397],[76.947,18.0738],[76.9683,18.0971],[76.9226,18.1161],[76.9541,18.1849],[76.9879,18.1885],[76.9978,18.1669],[77.024,18.1627],[77.0328,18.1838],[77.0577,18.1524],[77.1089,18.1527],[77.1163,18.1676],[77.0955,18.1951],[77.15,18.2166],[77.1705,18.2809],[77.2062,18.278],[77.1954,18.3127],[77.21,18.3137],[77.245,18.3706],[77.2329,18.3861],[77.2402,18.4086],[77.3133,18.4394],[77.3174,18.4538],[77.3421,18.4303],[77.3696,18.4477],[77.3698,18.4007],[77.4101,18.3885],[77.3918,18.3659],[77.3983,18.3475],[77.3588,18.3106],[77.4364,18.3065],[77.4369,18.282],[77.4654,18.26],[77.5102,18.2784],[77.5095,18.3067],[77.603,18.278],[77.5725,18.2406],[77.585,18.2167],[77.5643,18.2005],[77.5978,18.1518],[77.5975,18.0843],[77.5457,18.0538],[77.5922,18.0102],[77.6067,18.018],[77.6462,17.9932],[77.6534,17.9694],[77.644,17.9464],[77.6237,17.9578],[77.6166,17.9029],[77.5852,17.9082],[77.5967,17.8705],[77.5727,17.8728],[77.5497,17.818],[77.526,17.8268],[77.5109,17.8014],[77.5045,17.7826],[77.566,17.7641],[77.562,17.7471],[77.4503,17.6913],[77.4399,17.5815],[77.49,17.5663],[77.5016,17.5409],[77.5274,17.5732],[77.5484,17.5495],[77.5898,17.5628],[77.5917,17.5327],[77.6566,17.5213],[77.688,17.4985],[77.684,17.4729],[77.6481,17.4812],[77.6528,17.5033],[77.6404,17.476],[77.6109,17.4699],[77.6106,17.4442],[77.5732,17.4542],[77.5726,17.4295],[77.5335,17.441],[77.5101,17.4273],[77.5107,17.4125],[77.5355,17.4041],[77.528,17.3721],[77.4991,17.3541],[77.4516,17.3705],[77.4551,17.3379],[77.434,17.2883],[77.4545,17.2759],[77.4149,17.2299],[77.3804,17.2198],[77.3988,17.2088],[77.36,17.1616],[77.3763,17.1379],[77.4626,17.1041],[77.4994,17.0073],[77.4784,16.9902],[77.4677,16.9171],[77.4534,16.909],[77.4711,16.7791],[77.4375,16.7832],[77.4234,16.7145],[77.4668,16.7119],[77.465,16.6783],[77.4166,16.6628],[77.4329,16.6376],[77.4694,16.6469],[77.4538,16.6138],[77.4642,16.5842],[77.3914,16.5652],[77.4157,16.544],[77.4153,16.5178],[77.3791,16.5107],[77.3663,16.4841],[77.2966,16.4915],[77.292,16.4736],[77.2352,16.4681],[77.2847,16.403],[77.3429,16.3797],[77.4117,16.3627],[77.4945,16.3758],[77.5916,16.3375],[77.5923,16.2901],[77.565,16.2977],[77.5338,16.2626],[77.5012,16.2678],[77.4876,16.2498],[77.4888,16.2244],[77.5112,16.2172],[77.4953,16.213],[77.4836,16.1586],[77.4867,16.1158],[77.5094,16.1035],[77.4929,16.0838],[77.5029,16.0732],[77.4907,16.0306],[77.5101,16.0023],[77.5095,15.9209],[77.4264,15.9423],[77.3762,15.9332],[77.2489,15.9577],[77.1806,15.9501],[77.0768,15.9097],[77.0223,15.8318],[77.0639,15.8232],[77.0471,15.725],[77.0763,15.7214],[77.0759,15.6909],[77.125,15.6591],[77.1162,15.6251],[77.0814,15.6528],[77.0293,15.6338],[77.0266,15.5],[76.9719,15.5063],[76.9704,15.4909],[77.0274,15.4352],[77.038,15.3588],[77.0616,15.3219],[77.1097,15.3273],[77.1154,15.2899],[77.1479,15.2857],[77.1452,15.2661],[77.1641,15.2591],[77.1403,15.2516],[77.1209,15.2212],[77.15,15.2079],[77.1632,15.1613],[77.1321,15.1427],[77.154,15.1205],[77.1276,15.0936],[77.1096,15.0286],[77.0821,15.0223],[77.0788,15.0],[77.041,15.0055],[77.0469,15.0292],[77.0007,15.0296],[76.9818,15.0104],[76.8767,15.0287],[76.8606,15.0567],[76.7969,15.0908],[76.7742,15.0714],[76.7846,15.0167],[76.757,14.983],[76.7638,14.9699],[76.8279,14.951],[76.8645,14.964],[76.8655,14.9376],[76.8603,14.8912],[76.8438,14.8864],[76.8487,14.804],[76.8338,14.7849],[76.7804,14.7793],[76.7981,14.7346],[76.7602,14.602],[76.7997,14.5277],[76.8276,14.5231],[76.8702,14.4684],[76.9065,14.4842],[76.9734,14.4783],[76.9644,14.4517],[76.9438,14.4451],[76.9416,14.3995],[76.9131,14.4136],[76.8831,14.3903],[76.8791,14.3464],[76.899,14.3192],[76.9501,14.294],[76.9249,14.2722],[76.9435,14.2363],[77.0496,14.2395],[77.0753,14.2094],[77.0952,14.2095],[77.1099,14.2215],[77.1119,14.2875],[77.1355,14.334],[77.232,14.3111],[77.2811,14.3311],[77.2796,14.2761],[77.3593,14.2693],[77.3554,14.23],[77.3912,14.1909],[77.4157,14.212],[77.375,14.2952],[77.3949,14.3292],[77.4259,14.3208],[77.4275,14.3049],[77.4423,14.3098],[77.4436,14.2776],[77.4793,14.2848],[77.4963,14.2718],[77.4901,14.2276],[77.5104,14.172],[77.5004,14.151],[77.3897,14.1653],[77.3767,14.1296],[77.3477,14.1243],[77.3445,14.096],[77.3897,14.1186],[77.3954,14.1034],[77.338,14.0538],[77.3262,14.0229],[77.3834,14.0074],[77.3757,13.9691],[77.4306,13.9688],[77.4287,13.9433],[77.4077,13.9361],[77.4256,13.9021],[77.3919,13.8799],[77.3904,13.8977],[77.3483,13.8965],[77.3426,13.9122],[77.3626,13.9423],[77.3437,13.9509],[77.3538,13.9823],[77.3303,13.9904],[77.3135,14.0248],[77.2785,14.0069],[77.2715,14.0281],[77.2426,14.0063],[77.1714,14.0086],[77.1473,13.9916],[77.1211,14.0422],[77.0237,14.0533],[77.024,14.0834],[77.0083,14.0981],[77.0198,14.1727],[76.9416,14.1893],[76.937,14.1659],[76.8914,14.159],[76.8837,14.131],[76.927,14.1272],[76.9463,14.0853],[76.975,14.0653],[76.9715,14.0524],[76.938,14.0476],[76.9311,14.0227],[76.9944,13.9815],[76.989,13.9567],[77.0358,13.9256],[77.0413,13.8974],[77.0173,13.8934],[77.006,13.8501],[76.9684,13.8144],[76.9837,13.8042],[76.9926,13.7426],[77.0114,13.7327],[77.0264,13.7714],[77.06,13.7389],[77.0806,13.7374],[77.0953,13.7609],[77.1666,13.7547],[77.1622,13.8207],[77.1239,13.8494],[77.1625,13.857],[77.1559,13.8998],[77.177,13.9174],[77.1788,13.8598],[77.1969,13.8595],[77.2049,13.8812],[77.2115,13.8614],[77.2338,13.8949],[77.2504,13.8395],[77.3069,13.8572],[77.32,13.8258],[77.3595,13.8457],[77.3729,13.8313],[77.4245,13.8351],[77.4087,13.7993],[77.4287,13.788],[77.4406,13.8023],[77.4575,13.7971],[77.4498,13.6758],[77.4829,13.6797],[77.4873,13.7068],[77.5215,13.6879],[77.5197,13.7438],[77.5395,13.7437],[77.5561,13.7165],[77.5956,13.7436],[77.6285,13.7299],[77.6338,13.7413],[77.6105,13.7554],[77.6491,13.7758],[77.6702,13.7775],[77.6637,13.7523],[77.6955,13.7614],[77.7087,13.7327],[77.7129,13.7905],[77.7785,13.8129],[77.776,13.8359],[77.8277,13.8606],[77.8064,13.9086],[77.8183,13.9349],[77.887,13.9312],[77.9116,13.8972],[77.9613,13.95],[77.9786,13.9477],[77.978,13.8933],[77.9425,13.8802],[77.9446,13.82],[77.9658,13.8202],[77.9852,13.8617],[78.0378,13.8529],[78.0412,13.8867],[78.0749,13.8549],[78.106,13.8535],[78.1182,13.7769],[78.0849,13.7335],[78.1094,13.7102],[78.1054,13.6844],[78.0641,13.6882],[78.0583,13.667],[78.0807,13.6353],[78.1558,13.6487],[78.1605,13.6234],[78.1939,13.6162],[78.1833,13.5564],[78.2277,13.5872],[78.2497,13.5743],[78.3908,13.5781],[78.3673,13.4952],[78.3713,13.391],[78.3564,13.3467],[78.5436,13.2732],[78.5557,13.2994],[78.5775,13.2621],[78.5589,13.2271],[78.5687,13.2043],[78.5409,13.1873],[78.5691,13.1565],[78.5388,13.1516],[78.5354,13.1307],[78.5088,13.1196],[78.528,13.0974],[78.5019,13.0817],[78.5046,13.0528],[78.4516,13.0315],[78.4579,12.9632],[78.4227,12.9686],[78.4214,12.9235],[78.4561,12.8928],[78.4542,12.8532],[78.4358,12.9007],[78.3783,12.8952],[78.3454,12.9281],[78.3272,12.8892],[78.3135,12.8886],[78.3109,12.8738],[78.3275,12.874],[78.3041,12.8658],[78.3031,12.8472],[78.2411,12.8474],[78.2193,12.747],[78.2289,12.7202],[78.1898,12.6813],[78.2281,12.6739],[78.2327,12.6938],[78.2644,12.6918],[78.2905,12.6529],[78.3683,12.6118],[78.4548,12.612],[78.4577,12.6623],[78.4886,12.6633],[78.4934,12.7035],[78.5098,12.6988],[78.4844,12.7348],[78.5264,12.7012],[78.5244,12.6797],[78.5477,12.6856],[78.5455,12.7439],[78.5819,12.7708],[78.6257,12.9192],[78.6467,12.919],[78.6137,12.9789],[78.6511,13.0179],[78.6938,13.0044],[78.7024,13.0562],[78.746,13.0454],[78.8081,13.0779],[78.8584,13.0711],[78.876,13.0862],[78.8819,13.0198],[78.9246,13.0186],[78.8935,13.0351],[78.9144,13.0678],[78.9796,13.0765],[79.0533,13.038],[79.0691,13.0142],[79.1044,13.0242],[79.1527,13.0073],[79.1731,13.0193],[79.1694,13.053],[79.1889,13.0846],[79.2183,13.1039],[79.2183,13.1356],[79.2367,13.1268],[79.2472,13.1481],[79.2674,13.1412],[79.3079,13.0969],[79.3167,13.1194],[79.3546,13.1298],[79.3478,13.163],[79.3612,13.156],[79.3784,13.1824],[79.4238,13.1875],[79.4216,13.2085],[79.4455,13.2168],[79.4361,13.2298],[79.4108,13.2122],[79.425,13.2813],[79.3746,13.303],[79.4289,13.3236],[79.5358,13.3111],[79.5487,13.2671],[79.5803,13.2454],[79.6011,13.2677],[79.6208,13.259],[79.6685,13.2819],[79.6843,13.2567],[79.6733,13.2295],[79.696,13.2339],[79.6888,13.2074],[79.7228,13.2219],[79.7444,13.1949],[79.7849,13.2235],[79.7213,13.2722],[79.7461,13.28],[79.7541,13.3028],[79.7798,13.2821],[79.8003,13.3043],[79.8512,13.3034],[79.9107,13.3437],[79.9255,13.3359],[79.9536,13.3741],[79.9325,13.4044],[79.9632,13.4179],[79.9619,13.4513],[79.9954,13.4595],[80.0059,13.4878],[80.036,13.4845],[80.0328,13.5018],[79.9902,13.5101],[79.9941,13.5296],[80.0454,13.522],[80.0694,13.5376],[80.1521,13.4789],[80.2409,13.4702],[80.3275,13.3076]]]}}