{"type":"Feature","properties":{"speciesId":862,"category":"LC","source":"IUCN Red List","simplifyTol":0.01,"clippedToSubcontinent":true},"geometry":{"type":"Polygon","coordinates":[[[76.4479,11.7995],[76.5599,11.8315],[76.6808,11.9395],[76.9187,12.106],[77.1273,12.1815],[77.1968,12.1843],[77.258,12.151],[77.3171,12.0822],[77.3512,11.9954],[77.3541,11.9335],[77.3327,11.8928],[76.9218,11.5744],[76.7237,11.4879],[76.4979,11.4718],[76.3964,11.5105],[76.2431,11.6273],[75.7732,12.1199],[75.5138,12.2638],[75.4427,12.3684],[75.4258,12.4452],[75.5544,12.595],[75.6174,12.695],[75.6457,12.789],[75.6398,12.8949],[75.5675,13.0435],[75.4824,13.1568],[75.3661,13.2735],[75.1582,13.4239],[75.0651,13.542],[75.0318,13.6718],[75.0352,13.9524],[75.0068,14.1013],[75.017,14.1264],[75.1016,14.1315],[75.1758,14.0574],[75.2125,13.9633],[75.2215,13.7665],[75.2872,13.653],[75.4336,13.5106],[75.643,13.3703],[75.7799,13.1985],[75.8795,13.0026],[75.9348,12.8308],[75.9328,12.7407],[75.8884,12.5238],[75.8987,12.4399],[75.9407,12.3971],[76.0807,12.3439],[76.1431,12.2871],[76.2278,12.1552],[76.291,11.9452],[76.3743,11.8321],[76.4479,11.7995]]]}}