{"type":"Feature","properties":{"speciesId":866,"category":"LC","source":"IUCN Red List","simplifyTol":0.01,"clippedToSubcontinent":true},"geometry":{"type":"MultiPolygon","coordinates":[[[[92.6292,11.542],[92.618,11.5537],[92.618,11.5539],[92.6314,11.5518],[92.6292,11.542]]],[[[92.6049,11.5703],[92.6008,11.5718],[92.6014,11.5723],[92.6049,11.5703]]],[[[92.614,11.5691],[92.6272,11.5762],[92.6237,11.56],[92.614,11.5691]]],[[[92.7737,11.6698],[92.7687,11.6757],[92.7773,11.6786],[92.7737,11.6698]]],[[[92.6142,11.908],[92.6079,11.9095],[92.615,11.9156],[92.6142,11.908]]],[[[92.7387,11.9356],[92.7362,11.9478],[92.7436,11.9543],[92.7387,11.9356]]],[[[92.7595,11.9398],[92.7483,11.953],[92.7713,11.9617],[92.7741,11.949],[92.7595,11.9398]]],[[[92.6142,11.9227],[92.6001,11.9685],[92.6022,11.9718],[92.6155,11.9568],[92.6142,11.9227]]],[[[92.7656,11.9855],[92.7473,11.9726],[92.7453,11.9802],[92.7656,11.9855]]],[[[92.7799,11.991],[92.7686,11.9989],[92.7732,12.0045],[92.7786,12.0034],[92.7799,11.991]]],[[[92.6983,12.2355],[92.7288,12.1472],[92.7555,12.1489],[92.7484,12.0688],[92.793,12.0402],[92.7842,12.0208],[92.7473,12.0347],[92.7412,12.0183],[92.7649,11.997],[92.7344,11.9874],[92.7453,11.964],[92.7282,11.9525],[92.7249,11.9246],[92.7887,11.9361],[92.7999,11.8769],[92.7702,11.7022],[92.7534,11.7164],[92.7444,11.6818],[92.7675,11.666],[92.764,11.6181],[92.7214,11.4793],[92.7099,11.5102],[92.6837,11.5027],[92.6599,11.5182],[92.6571,11.578],[92.6411,11.5863],[92.6339,11.5639],[92.6201,11.615],[92.6512,11.6092],[92.6588,11.6434],[92.6494,11.6366],[92.6455,11.6596],[92.6397,11.6289],[92.6222,11.6329],[92.5993,11.7157],[92.5723,11.6971],[92.5571,11.8291],[92.5342,11.8264],[92.526,11.8449],[92.5374,11.89],[92.5741,11.9336],[92.6025,11.8786],[92.6244,11.9202],[92.6309,12.0922],[92.6696,12.2162],[92.662,12.1797],[92.6836,12.2184],[92.6872,12.1956],[92.6983,12.2355]]]]}}