{"type":"Feature","properties":{"speciesId":869,"category":"LC","source":"IUCN Red List","simplifyTol":0.01,"clippedToSubcontinent":true},"geometry":{"type":"MultiPolygon","coordinates":[[[[74.0454,14.9873],[74.0454,14.9857],[74.0438,14.9873],[74.0454,14.9873]]],[[[74.0464,14.9879],[74.0449,14.9879],[74.0448,14.9881],[74.0464,14.9879]]],[[[73.8784,15.5127],[73.8704,15.51],[73.8792,15.5152],[73.8784,15.5127]]],[[[73.9317,15.5283],[73.8744,15.5073],[73.916,15.5454],[73.9317,15.5283]]],[[[73.9029,15.5381],[73.8993,15.5442],[73.9142,15.5463],[73.9029,15.5381]]],[[[73.9091,15.5476],[73.9084,15.5484],[73.9101,15.5485],[73.9091,15.5476]]],[[[73.698,15.6941],[73.6978,15.694],[73.6976,15.6942],[73.698,15.6941]]],[[[73.7287,15.7231],[73.726,15.7213],[73.7231,15.7227],[73.7287,15.7231]]],[[[73.7309,15.7219],[73.7268,15.7206],[73.7315,15.7245],[73.7309,15.7219]]],[[[73.7275,15.7243],[73.7238,15.724],[73.7283,15.7251],[73.7275,15.7243]]],[[[73.6514,15.7458],[73.6488,15.7453],[73.6488,15.7458],[73.6514,15.7458]]],[[[73.6564,15.7984],[73.6548,15.7999],[73.6569,15.8004],[73.6564,15.7984]]],[[[73.619,15.8558],[73.618,15.8561],[73.619,15.8564],[73.619,15.8558]]],[[[73.5482,15.9437],[73.5484,15.944],[73.5492,15.9443],[73.5482,15.9437]]],[[[73.5498,15.944],[73.5495,15.9443],[73.5498,15.9443],[73.5498,15.944]]],[[[73.5046,15.963],[73.5044,15.9633],[73.5046,15.9633],[73.5046,15.963]]],[[[73.4957,15.9866],[73.4953,15.9859],[73.4949,15.9866],[73.4957,15.9866]]],[[[73.4941,15.9874],[73.4938,15.9865],[73.4933,15.9877],[73.4941,15.9874]]],[[[73.4908,15.9915],[73.4927,15.9887],[73.4906,15.9902],[73.4908,15.9915]]],[[[73.4972,15.9921],[73.4953,15.9944],[73.4961,15.9944],[73.4972,15.9921]]],[[[73.4973,15.973],[73.4863,15.9812],[73.4838,16.0],[73.4869,16.0001],[73.4884,15.9875],[73.4902,15.9816],[73.4973,15.973]]],[[[73.4759,16.0697],[73.4745,16.0694],[73.4745,16.07],[73.4759,16.0697]]],[[[73.4724,16.0723],[73.4724,16.0728],[73.4732,16.0723],[73.4724,16.0723]]],[[[73.4716,16.0748],[73.471,16.0743],[73.471,16.0748],[73.4716,16.0748]]],[[[73.4598,16.1139],[73.4595,16.1149],[73.4601,16.1149],[73.4598,16.1139]]],[[[73.465,16.1363],[73.4663,16.1302],[73.4625,16.1286],[73.465,16.1363]]],[[[73.4644,16.1361],[73.4612,16.1353],[73.4639,16.1384],[73.4644,16.1361]]],[[[73.4407,16.2008],[73.4396,16.2052],[73.442,16.2047],[73.4407,16.2008]]],[[[73.451,16.213],[73.4505,16.2122],[73.4505,16.213],[73.451,16.213]]],[[[73.4446,16.2137],[73.4444,16.2145],[73.4446,16.2145],[73.4446,16.2137]]],[[[73.4459,16.2184],[73.4456,16.2204],[73.4462,16.2207],[73.4459,16.2184]]],[[[73.4499,16.2269],[73.4493,16.2266],[73.4493,16.2269],[73.4499,16.2269]]],[[[73.452,16.2266],[73.4507,16.2266],[73.452,16.2269],[73.452,16.2266]]],[[[73.411,16.283],[73.413,16.281],[73.4137,16.2799],[73.411,16.283]]],[[[73.4185,16.2862],[73.4187,16.2851],[73.4171,16.2856],[73.4185,16.2862]]],[[[73.4104,16.359],[73.4101,16.3592],[73.4104,16.3592],[73.4104,16.359]]],[[[73.4072,16.3597],[73.4065,16.3587],[73.4061,16.36],[73.4072,16.3597]]],[[[73.3888,16.3627],[73.388,16.3622],[73.388,16.3627],[73.3888,16.3627]]],[[[73.4572,16.4116],[73.4569,16.4119],[73.4572,16.4119],[73.4572,16.4116]]],[[[73.4652,16.414],[73.4617,16.4151],[73.4655,16.4148],[73.4652,16.414]]],[[[73.3644,16.44],[73.3633,16.4403],[73.3633,16.4405],[73.3644,16.44]]],[[[73.3657,16.4416],[73.3652,16.4421],[73.3657,16.4421],[73.3657,16.4416]]],[[[73.3112,16.5388],[73.3107,16.5382],[73.3107,16.5385],[73.3112,16.5388]]],[[[73.3518,16.9759],[73.3495,16.9755],[73.3526,16.9779],[73.3518,16.9759]]],[[[73.3043,16.981],[73.3024,16.9794],[73.3019,16.9828],[73.3043,16.981]]],[[[73.287,17.0046],[73.2875,17.0053],[73.2875,17.0035],[73.287,17.0046]]],[[[73.2885,17.0086],[73.2889,17.0074],[73.288,17.0068],[73.2885,17.0086]]],[[[73.2866,17.01],[73.2874,17.0098],[73.2874,17.0089],[73.2868,17.0094],[73.2866,17.01]]],[[[73.2878,17.01],[73.2875,17.0093],[73.2876,17.01],[73.2878,17.01]]],[[[73.2869,17.0114],[73.2867,17.0115],[73.2868,17.0119],[73.2869,17.0114]]],[[[73.289,17.0183],[73.2889,17.018],[73.2889,17.0182],[73.289,17.0183]]],[[[73.2894,17.0181],[73.2891,17.0184],[73.2893,17.0185],[73.2894,17.0181]]],[[[73.289,17.0186],[73.2888,17.0188],[73.2889,17.0188],[73.289,17.0186]]],[[[73.289,17.0191],[73.2885,17.0191],[73.2888,17.0194],[73.289,17.0191]]],[[[73.2922,17.0204],[73.2919,17.0199],[73.2917,17.0205],[73.2922,17.0204]]],[[[73.2965,17.0211],[73.2963,17.0209],[73.2962,17.021],[73.2965,17.0211]]],[[[73.3192,17.0354],[73.3191,17.0339],[73.3159,17.035],[73.3192,17.0354]]],[[[73.3196,17.0353],[73.3206,17.0356],[73.3213,17.0353],[73.3196,17.0353]]],[[[73.3199,17.0358],[73.3192,17.0362],[73.3202,17.0359],[73.3199,17.0358]]],[[[73.3164,17.0366],[73.3166,17.0351],[73.315,17.0359],[73.3164,17.0366]]],[[[73.3187,17.0359],[73.3178,17.0362],[73.3178,17.0367],[73.3187,17.0359]]],[[[73.319,17.0363],[73.318,17.0366],[73.3179,17.037],[73.319,17.0363]]],[[[73.3194,17.0374],[73.3191,17.0363],[73.3178,17.0372],[73.3194,17.0374]]],[[[73.3154,17.0373],[73.3149,17.0374],[73.3152,17.0375],[73.3154,17.0373]]],[[[73.3159,17.0376],[73.3154,17.0377],[73.3155,17.0379],[73.3159,17.0376]]],[[[73.3147,17.0364],[73.3132,17.0371],[73.3145,17.0382],[73.3147,17.0364]]],[[[73.3021,17.0383],[73.3035,17.0382],[73.3047,17.0368],[73.3024,17.0375],[73.3021,17.0383]]],[[[73.302,17.0383],[73.3012,17.0376],[73.3012,17.0382],[73.302,17.0383]]],[[[73.2892,17.0438],[73.2884,17.044],[73.2894,17.0443],[73.2892,17.0438]]],[[[73.2967,17.0759],[73.2952,17.0766],[73.2955,17.0774],[73.2967,17.0759]]],[[[73.0369,18.0422],[73.034,18.0357],[73.034,18.0378],[73.0369,18.0422]]],[[[72.9957,18.0943],[72.9946,18.0945],[72.9946,18.0948],[72.9957,18.0943]]],[[[73.0789,18.1592],[73.0803,18.1585],[73.0806,18.1577],[73.079,18.1585],[73.0789,18.1592]]],[[[73.0689,18.1666],[73.0686,18.1669],[73.0689,18.1669],[73.0689,18.1666]]],[[[73.0742,18.1664],[73.0734,18.1668],[73.0729,18.1679],[73.0742,18.1664]]],[[[73.0694,18.1687],[73.0691,18.1689],[73.0694,18.1689],[73.0694,18.1687]]],[[[73.0713,18.1702],[73.0702,18.1715],[73.0705,18.1715],[73.0713,18.1702]]],[[[73.0733,18.18],[73.0736,18.1816],[73.0741,18.1818],[73.0733,18.18]]],[[[73.0735,18.1937],[73.0732,18.192],[73.0713,18.1937],[73.0735,18.1937]]],[[[72.9802,18.1945],[72.98,18.1948],[72.9802,18.1948],[72.9802,18.1945]]],[[[73.0699,18.196],[73.0697,18.1956],[73.0686,18.196],[73.0699,18.196]]],[[[73.0155,18.2441],[73.0174,18.2428],[73.015,18.243],[73.0155,18.2441]]],[[[73.0178,18.2451],[73.0166,18.2441],[73.0174,18.2454],[73.0178,18.2451]]],[[[73.0176,18.2469],[73.0174,18.2462],[73.0171,18.2469],[73.0176,18.2469]]],[[[73.0672,18.2742],[73.0664,18.2747],[73.0672,18.2747],[73.0672,18.2742]]],[[[73.0487,18.2947],[73.0502,18.2952],[73.0498,18.294],[73.0487,18.2947]]],[[[73.051,18.3032],[73.0491,18.3019],[73.0491,18.3032],[73.051,18.3032]]],[[[73.1049,18.3279],[73.1062,18.3274],[73.1065,18.3269],[73.1049,18.3279]]],[[[73.1121,18.3282],[73.1095,18.3272],[73.1094,18.3279],[73.1121,18.3282]]],[[[73.1016,18.3294],[73.1032,18.3292],[73.1038,18.3274],[73.1016,18.3294]]],[[[72.9918,18.4516],[72.9881,18.4492],[72.9878,18.4516],[72.9918,18.4516]]],[[[73.6747,18.5697],[73.6345,18.4064],[73.6384,18.3196],[73.6775,18.248],[73.8034,18.1264],[73.8665,18.0412],[73.9998,17.774],[74.0513,17.575],[74.2038,16.6522],[74.2816,16.3079],[74.336,16.1481],[74.5532,15.7324],[74.5987,15.6018],[74.6222,15.4755],[74.6102,15.2815],[74.5452,15.1694],[74.3382,15.0494],[74.0986,14.9842],[74.0405,14.9824],[74.0544,14.9846],[74.0565,14.9861],[74.0589,14.9945],[74.0681,14.9975],[74.0708,15.0029],[74.0583,14.995],[74.0562,14.9877],[74.0422,14.9885],[74.0385,14.9844],[74.0234,15.0093],[73.9882,15.0198],[73.9668,15.0651],[73.9118,15.0839],[73.9497,15.1427],[73.8937,15.3324],[73.8727,15.3696],[73.8412,15.3606],[73.7832,15.4103],[73.8725,15.396],[73.8874,15.4082],[73.9408,15.4048],[73.9585,15.3808],[73.9508,15.4039],[73.862,15.4289],[73.8486,15.4526],[73.8029,15.4504],[73.7874,15.4635],[73.8032,15.4637],[73.819,15.5006],[73.8893,15.5],[73.9275,15.5228],[73.9396,15.5158],[73.929,15.5344],[73.9485,15.549],[73.9693,15.5242],[73.995,15.5129],[74.0015,15.4989],[73.9971,15.5138],[73.9559,15.549],[73.9463,15.5504],[73.9267,15.5378],[73.9107,15.5499],[73.8987,15.545],[73.8677,15.5115],[73.8458,15.5112],[73.8655,15.5253],[73.855,15.5251],[73.8417,15.5062],[73.7683,15.4911],[73.732,15.5905],[73.732,15.6076],[73.7557,15.6169],[73.7231,15.6301],[73.6886,15.7199],[73.7257,15.7165],[73.7402,15.7229],[73.7086,15.7355],[73.6795,15.7205],[73.6536,15.7425],[73.6533,15.7479],[73.6581,15.7466],[73.6655,15.7536],[73.6647,15.7568],[73.6748,15.7499],[73.6775,15.7502],[73.6865,15.7545],[73.6641,15.758],[73.6623,15.7533],[73.6531,15.7901],[73.6658,15.8095],[73.6673,15.8229],[73.6655,15.8268],[73.6653,15.8098],[73.6545,15.8004],[73.653,15.7927],[73.6259,15.8515],[73.587,15.9092],[73.5341,15.9375],[73.5572,15.9466],[73.5101,15.9368],[73.5041,15.9805],[73.5179,15.9886],[73.5024,15.9815],[73.4921,16.0039],[73.4902,15.9902],[73.5028,15.9639],[73.4994,15.9707],[73.4889,15.9866],[73.4826,16.0355],[73.4555,16.0538],[73.4801,16.0702],[73.4752,16.0795],[73.4569,16.0814],[73.4649,16.0874],[73.4698,16.0972],[73.4742,16.1341],[73.4699,16.1575],[73.4586,16.1371],[73.4587,16.1141],[73.4632,16.0905],[73.4341,16.2005],[73.4453,16.1931],[73.4618,16.2298],[73.4509,16.2287],[73.448,16.2264],[73.429,16.1994],[73.4105,16.2696],[73.418,16.2823],[73.4147,16.2838],[73.4337,16.2833],[73.444,16.2928],[73.4463,16.3003],[73.4321,16.2841],[73.4163,16.2921],[73.4107,16.2846],[73.4103,16.2745],[73.3855,16.3361],[73.3888,16.3617],[73.4051,16.3546],[73.4398,16.3713],[73.4324,16.378],[73.4045,16.3589],[73.3922,16.3658],[73.3898,16.3655],[73.3829,16.3585],[73.3669,16.3785],[73.4011,16.3888],[73.4119,16.4078],[73.4794,16.4082],[73.4895,16.4115],[73.4927,16.4178],[73.4983,16.4175],[73.5039,16.4135],[73.5047,16.4135],[73.4999,16.4176],[73.4948,16.4185],[73.4652,16.4153],[73.4718,16.4268],[73.3671,16.3963],[73.3545,16.4448],[73.3655,16.4369],[73.3871,16.4482],[73.3784,16.4529],[73.3523,16.4443],[73.3165,16.5138],[73.3112,16.5416],[73.3341,16.5765],[73.3175,16.6016],[73.3521,16.5938],[73.3408,16.6049],[73.3513,16.625],[73.3308,16.6198],[73.3402,16.6338],[73.3226,16.6383],[73.3278,16.6877],[73.3399,16.6808],[73.3428,16.6897],[73.3189,16.6959],[73.3058,16.7288],[73.3177,16.806],[73.296,16.8147],[73.2859,16.88],[73.3164,16.8862],[73.2776,16.8916],[73.2822,16.9508],[73.2946,16.9826],[73.3068,16.959],[73.329,16.9517],[73.3308,16.9731],[73.3494,16.9739],[73.3555,16.9787],[73.3603,16.9772],[73.3637,16.9646],[73.3718,16.9454],[73.3737,16.9446],[73.3603,16.978],[73.3547,16.9791],[73.3522,16.9779],[73.3486,16.9747],[73.3475,16.9744],[73.3341,16.9766],[73.3154,16.9633],[73.3144,16.9797],[73.3073,16.9713],[73.3041,16.9842],[73.2723,16.9858],[73.2832,17.0119],[73.255,17.0261],[73.2649,17.0475],[73.2767,17.028],[73.29,17.0219],[73.2877,17.0203],[73.2855,17.0126],[73.2864,17.0126],[73.2864,17.0092],[73.288,17.0079],[73.2868,17.0042],[73.2876,17.0034],[73.2967,17.0207],[73.2966,17.0212],[73.2941,17.0214],[73.29,17.0252],[73.2877,17.0297],[73.2802,17.0318],[73.2843,17.041],[73.3146,17.0309],[73.3217,17.035],[73.3199,17.0387],[73.3161,17.0394],[73.3059,17.0368],[73.2946,17.0452],[73.2888,17.0445],[73.2882,17.0443],[73.2882,17.0432],[73.2863,17.0441],[73.2904,17.0476],[73.283,17.0435],[73.2785,17.0372],[73.2877,17.0768],[73.2934,17.0676],[73.3064,17.0777],[73.2834,17.0793],[73.2523,17.188],[73.2307,17.1986],[73.2459,17.1967],[73.2417,17.2255],[73.1896,17.2985],[73.2218,17.3026],[73.2275,17.2812],[73.242,17.3178],[73.2189,17.3285],[73.2066,17.3841],[73.1776,17.3871],[73.1681,17.4031],[73.1972,17.4368],[73.1861,17.4413],[73.1922,17.4664],[73.1738,17.5182],[73.1375,17.5555],[73.1693,17.583],[73.1277,17.6368],[73.1139,17.6889],[73.1347,17.7084],[73.1285,17.7373],[73.0892,17.8124],[73.0705,17.8913],[73.0494,17.9064],[73.0521,17.9296],[73.0709,17.9271],[73.0902,17.9403],[73.0992,17.9315],[73.1049,17.9301],[73.0894,17.9414],[73.0416,17.9324],[73.0296,17.944],[73.04,17.9782],[73.0023,18.0202],[73.0571,18.0395],[73.0408,18.057],[73.0158,18.0308],[72.9937,18.0497],[72.9903,18.0574],[73.0014,18.0707],[73.0023,18.0887],[72.9971,18.0848],[72.9963,18.093],[72.9954,18.095],[72.9932,18.0955],[73.0006,18.0706],[72.9705,18.1313],[72.9883,18.157],[72.9782,18.1948],[72.994,18.1718],[73.0056,18.1881],[72.9316,18.2195],[72.9355,18.28],[72.965,18.2791],[72.969,18.2462],[73.0217,18.2401],[73.0684,18.2104],[73.0496,18.1826],[73.0702,18.1465],[73.098,18.1404],[73.0743,18.1929],[73.0896,18.2191],[73.0615,18.25],[73.0727,18.2627],[73.0674,18.2788],[73.0515,18.2807],[73.0509,18.2988],[73.0815,18.292],[73.0951,18.2721],[73.0865,18.3187],[73.0909,18.3256],[73.1133,18.3236],[73.1181,18.3305],[73.0875,18.3357],[73.0647,18.3038],[73.0441,18.3134],[73.0368,18.2929],[73.0524,18.2683],[73.0279,18.2635],[73.022,18.2799],[73.0077,18.287],[72.9925,18.2724],[72.9548,18.3155],[72.9726,18.3155],[72.9779,18.3307],[72.9599,18.3192],[72.914,18.354],[72.914,18.3712],[72.9302,18.3678],[72.9359,18.3761],[72.9061,18.402],[72.8936,18.4629],[72.9168,18.5059],[72.9055,18.5403],[72.9156,18.5287],[72.9514,18.539],[72.9895,18.4871],[72.9855,18.4407],[73.0172,18.4529],[72.9723,18.54],[73.0087,18.5378],[73.0295,18.5884],[73.0911,18.586],[73.1252,18.6041],[73.2137,18.8579],[73.3395,19.0831],[73.4162,19.1608],[73.5605,19.2196],[73.6291,19.21],[73.692,19.1595],[73.7357,19.0796],[73.7723,18.9597],[73.7666,18.8259],[73.6747,18.5697]]]]}}