{"type":"Feature","properties":{"speciesId":87,"category":"LC","source":"IUCN Red List","simplifyTol":0.01,"clippedToSubcontinent":true},"geometry":{"type":"MultiPolygon","coordinates":[[[[79.1305,10.4455],[79.0055,10.4589],[78.8957,10.4944],[78.7945,10.5506],[78.7056,10.6256],[78.6266,10.7256],[78.5734,10.8302],[78.5407,10.9434],[78.5296,11.0609],[78.5428,11.189],[78.5774,11.3017],[78.6324,11.4056],[78.7056,11.4968],[78.8032,11.578],[78.9054,11.6326],[79.0158,11.6662],[79.1305,11.6776],[79.2451,11.6662],[79.3555,11.6326],[79.4577,11.578],[79.5553,11.4968],[79.6286,11.4056],[79.6835,11.3017],[79.7182,11.189],[79.7313,11.0609],[79.7203,10.9434],[79.6875,10.8302],[79.6344,10.7256],[79.5553,10.6256],[79.4664,10.5506],[79.3652,10.4944],[79.2554,10.4589],[79.1305,10.4455]]],[[[80.4042,5.8748],[80.2793,5.8881],[80.1695,5.9231],[80.0682,5.9788],[79.9794,6.0529],[79.9003,6.1517],[79.8471,6.2552],[79.8144,6.367],[79.8034,6.4831],[79.8165,6.6097],[79.8512,6.721],[79.9061,6.8236],[79.9794,6.9137],[80.077,6.9939],[80.1791,7.0478],[80.2896,7.081],[80.4042,7.0922],[80.5189,7.081],[80.6293,7.0478],[80.7314,6.9939],[80.8291,6.9137],[80.9023,6.8236],[80.9573,6.721],[80.9919,6.6097],[81.005,6.4831],[80.994,6.367],[80.9613,6.2552],[80.9081,6.1517],[80.8291,6.0529],[80.7402,5.9788],[80.639,5.9231],[80.5291,5.8881],[80.4042,5.8748]]],[[[74.0114,16.2628],[73.8865,16.2765],[73.7767,16.3128],[73.6754,16.3704],[73.5866,16.4472],[73.5075,16.5496],[73.4543,16.6568],[73.4216,16.7727],[73.4106,16.8932],[73.4237,17.0245],[73.4584,17.1401],[73.5133,17.2466],[73.5866,17.3402],[73.6842,17.4235],[73.7863,17.4796],[73.8968,17.514],[74.0114,17.5257],[74.1261,17.514],[74.2365,17.4796],[74.3387,17.4235],[74.4363,17.3402],[74.5095,17.2466],[74.5645,17.1401],[74.5991,17.0245],[74.6122,16.8932],[74.6012,16.7727],[74.5685,16.6568],[74.5153,16.5496],[74.4363,16.4472],[74.3474,16.3704],[74.2462,16.3128],[74.1363,16.2765],[74.0114,16.2628]]],[[[95.4249,16.5147],[95.3,16.5285],[95.1901,16.5648],[95.0889,16.6225],[95.0,16.6994],[94.921,16.8019],[94.8678,16.9092],[94.8351,17.0253],[94.824,17.1459],[94.8372,17.2774],[94.8718,17.3931],[94.9268,17.4998],[95.0,17.5936],[95.0976,17.677],[95.1998,17.7331],[95.3102,17.7676],[95.4249,17.7793],[95.5395,17.7676],[95.6499,17.7331],[95.7521,17.677],[95.8497,17.5936],[95.923,17.4998],[95.9779,17.3931],[96.0126,17.2774],[96.0257,17.1459],[96.0147,17.0253],[95.9819,16.9092],[95.9288,16.8019],[95.8497,16.6994],[95.7609,16.6225],[95.6596,16.5648],[95.5498,16.5285],[95.4249,16.5147]]],[[[79.5631,15.0578],[79.4381,15.0715],[79.3283,15.1075],[79.2271,15.1648],[79.1382,15.2412],[79.0592,15.343],[79.006,15.4495],[78.9733,15.5648],[78.9622,15.6845],[78.9754,15.8151],[79.01,15.9299],[79.065,16.0358],[79.1382,16.1288],[79.2358,16.2116],[79.338,16.2673],[79.4484,16.3016],[79.5631,16.3131],[79.6777,16.3016],[79.7881,16.2673],[79.8903,16.2116],[79.9879,16.1288],[80.0612,16.0358],[80.1161,15.9299],[80.1508,15.8151],[80.1639,15.6845],[80.1528,15.5648],[80.1201,15.4495],[80.067,15.343],[79.9879,15.2412],[79.899,15.1648],[79.7978,15.1075],[79.688,15.0715],[79.5631,15.0578]]],[[[88.3832,22.0975],[88.2583,22.1117],[88.1484,22.1493],[88.0472,22.2089],[87.9583,22.2885],[87.8793,22.3945],[87.8261,22.5056],[87.7934,22.6257],[87.7824,22.7506],[87.7955,22.8867],[87.8301,23.0066],[87.8851,23.1171],[87.9583,23.2142],[88.056,23.3007],[88.1581,23.3588],[88.2685,23.3946],[88.3832,23.4067],[88.4978,23.3946],[88.6083,23.3588],[88.7104,23.3007],[88.808,23.2142],[88.8813,23.1171],[88.9363,23.0066],[88.9709,22.8867],[88.984,22.7506],[88.973,22.6257],[88.9403,22.5056],[88.8871,22.3945],[88.808,22.2885],[88.7192,22.2089],[88.6179,22.1493],[88.5081,22.1117],[88.3832,22.0975]]],[[[88.5995,24.3307],[88.4746,24.3452],[88.3647,24.3834],[88.2635,24.444],[88.1746,24.5249],[88.0956,24.6327],[88.0424,24.7456],[88.0097,24.8678],[87.9987,24.9948],[88.0118,25.1333],[88.0464,25.2552],[88.1014,25.3676],[88.1746,25.4664],[88.2723,25.5544],[88.3744,25.6136],[88.4848,25.65],[88.5995,25.6623],[88.7141,25.65],[88.8246,25.6136],[88.9267,25.5544],[89.0243,25.4664],[89.0976,25.3676],[89.1525,25.2552],[89.1872,25.1333],[89.2003,24.9948],[89.1893,24.8678],[89.1566,24.7456],[89.1034,24.6327],[89.0243,24.5249],[88.9355,24.444],[88.8342,24.3834],[88.7244,24.3452],[88.5995,24.3307]]],[[[75.2852,13.1632],[75.1603,13.1768],[75.0504,13.2125],[74.9492,13.2693],[74.8603,13.3451],[74.7813,13.446],[74.7281,13.5517],[74.6954,13.666],[74.6843,13.7847],[74.6975,13.9142],[74.7321,14.028],[74.7871,14.133],[74.8603,14.2252],[74.9579,14.3072],[75.0601,14.3625],[75.1705,14.3964],[75.2852,14.4079],[75.3998,14.3964],[75.5102,14.3625],[75.6124,14.3072],[75.71,14.2252],[75.7833,14.133],[75.8382,14.028],[75.8729,13.9142],[75.886,13.7847],[75.875,13.666],[75.8423,13.5517],[75.7891,13.446],[75.71,13.3451],[75.6212,13.2693],[75.5199,13.2125],[75.4101,13.1768],[75.2852,13.1632]]],[[[79.491,13.6105],[79.366,13.6241],[79.2562,13.66],[79.155,13.7169],[79.0661,13.7928],[78.9871,13.8939],[78.9339,13.9998],[78.9012,14.1143],[78.8901,14.2332],[78.9033,14.3629],[78.9379,14.477],[78.9929,14.5822],[79.0661,14.6746],[79.1637,14.7568],[79.2659,14.8121],[79.3763,14.8461],[79.491,14.8576],[79.6056,14.8461],[79.716,14.8121],[79.8182,14.7568],[79.9158,14.6746],[79.9891,14.5822],[80.044,14.477],[80.0787,14.3629],[80.0918,14.2332],[80.0807,14.1143],[80.048,13.9998],[79.9949,13.8939],[79.9158,13.7928],[79.8269,13.7169],[79.7257,13.66],[79.6159,13.6241],[79.491,13.6105]]]]}}