{"type":"Feature","properties":{"speciesId":870,"category":"VU","source":"IUCN Red List","simplifyTol":0.01,"clippedToSubcontinent":true},"geometry":{"type":"MultiPolygon","coordinates":[[[[92.3653,26.5547],[92.2861,26.5308],[92.2487,26.4992],[92.2522,26.5277],[92.2987,26.589],[92.3528,26.5853],[92.3653,26.5547]]],[[[89.4496,26.5759],[89.4016,26.5785],[89.3826,26.6025],[89.4339,26.6601],[89.5794,26.6699],[89.6201,26.6453],[89.6185,26.6274],[89.573,26.606],[89.4496,26.5759]]],[[[91.2146,26.8133],[91.2627,26.8072],[91.3202,26.7777],[91.3778,26.7919],[91.3992,26.7521],[91.3795,26.7273],[91.3336,26.7181],[91.1997,26.7414],[91.1613,26.7023],[91.1234,26.707],[91.0648,26.6633],[90.9271,26.6634],[90.8973,26.6265],[90.8414,26.6449],[90.8565,26.6818],[90.8078,26.7117],[90.8027,26.7301],[90.8092,26.7698],[90.9368,26.7888],[91.0385,26.7854],[91.088,26.8159],[91.2146,26.8133]],[[91.1139,26.8078],[91.1014,26.8128],[91.0943,26.8129],[91.1139,26.8078]],[[91.2181,26.8127],[91.211,26.812],[91.2008,26.8098],[91.2181,26.8127]],[[91.1715,26.8082],[91.1643,26.8084],[91.1598,26.8082],[91.1715,26.8082]],[[91.1598,26.8082],[91.1545,26.8078],[91.1497,26.8073],[91.1598,26.8082]],[[91.0858,26.8083],[91.0816,26.8051],[91.0751,26.7992],[91.0858,26.8083]],[[91.0943,26.8129],[91.0906,26.8113],[91.0859,26.8084],[91.0943,26.8129]],[[91.0749,26.799],[91.0747,26.7988],[91.075,26.7991],[91.0749,26.799]]]]}}