{"type":"Feature","properties":{"speciesId":874,"category":"LC","source":"IUCN Red List","simplifyTol":0.01,"clippedToSubcontinent":true},"geometry":{"type":"MultiPolygon","coordinates":[[[[74.8434,14.5886],[74.8131,14.6202],[74.8446,14.6506],[74.8751,14.6188],[74.8434,14.5886]]],[[[85.0261,20.0147],[85.0609,19.9925],[85.1866,20.0248],[85.2172,20.0058],[85.2248,19.9797],[85.1544,19.8759],[85.003,19.7636],[84.9392,19.7581],[84.8993,19.7986],[84.8852,19.8823],[84.911,20.0285],[84.8722,20.0645],[84.6914,20.0448],[84.5789,20.0105],[84.535,19.9612],[84.5266,19.848],[84.3933,19.8111],[84.3555,19.7775],[84.3494,19.7248],[84.3712,19.6811],[84.5084,19.5929],[84.568,19.5252],[84.5521,19.4927],[84.4554,19.4315],[84.4418,19.3955],[84.4493,19.3626],[84.495,19.327],[84.5866,19.3208],[84.4904,19.1877],[84.4942,19.0913],[84.454,18.9895],[84.356,18.8564],[84.3261,18.844],[84.1317,18.8482],[83.9881,18.8177],[83.9316,18.7629],[83.9235,18.6587],[83.8981,18.6112],[83.8491,18.5803],[83.7837,18.5659],[83.7124,18.6044],[83.5779,18.8216],[83.5215,18.8769],[83.4719,18.8873],[83.2946,18.8561],[83.1657,18.5252],[83.1882,18.4814],[83.2732,18.4458],[83.2864,18.4077],[83.1864,18.2037],[83.06,18.0497],[82.8452,17.9165],[82.7127,17.7999],[82.6122,17.7472],[82.4139,17.6891],[81.6917,17.4195],[81.6093,17.4158],[81.5445,17.4527],[81.5285,17.4984],[81.5455,17.5901],[81.6574,17.7993],[81.8421,18.0445],[82.1125,18.3066],[82.2467,18.5199],[82.2549,18.5655],[82.2433,18.5961],[82.1387,18.6531],[81.99,18.621],[81.939,18.6553],[81.9477,18.8034],[81.9861,18.922],[82.0299,18.9993],[82.1632,19.1424],[82.5873,19.469],[82.6628,19.4924],[82.768,19.4266],[82.8082,19.4353],[82.9772,19.7675],[83.068,19.8127],[83.1782,19.8055],[83.1801,19.9113],[83.198,19.9545],[83.3804,20.0504],[83.464,20.1123],[83.5361,20.1932],[83.6006,20.3204],[83.7203,20.4327],[83.9895,20.5845],[84.16,20.6269],[84.4682,20.6406],[84.7105,20.6242],[84.8562,20.5968],[84.8996,20.5724],[84.9084,20.5193],[84.8305,20.4174],[84.8202,20.3249],[84.855,20.2753],[84.9787,20.1679],[85.0099,20.1014],[85.0261,20.0147]]],[[[78.4078,22.4729],[78.3791,22.5035],[78.4096,22.5321],[78.4383,22.5016],[78.4078,22.4729]]]]}}