{"type":"Feature","properties":{"speciesId":875,"category":"VU","source":"IUCN Red List","simplifyTol":0.01,"clippedToSubcontinent":true},"geometry":{"type":"Polygon","coordinates":[[[76.7996,10.4144],[76.9547,10.4327],[77.1049,10.3796],[77.1458,10.3464],[77.2182,10.2232],[77.3449,9.8407],[77.4237,9.2742],[77.4232,9.0274],[77.4051,8.6878],[77.3548,8.5946],[77.2957,8.5472],[77.2497,8.553],[77.1893,8.5892],[77.1211,8.6875],[77.0999,8.7762],[77.0908,9.0766],[77.0296,9.3174],[76.9646,9.4906],[76.7856,9.8089],[76.7286,10.0025],[76.6301,10.1882],[76.6303,10.244],[76.669,10.3161],[76.73,10.3781],[76.7996,10.4144]]]}}