{"type":"Feature","properties":{"speciesId":881,"category":"LC","source":"IUCN Red List","simplifyTol":0.01,"clippedToSubcontinent":true},"geometry":{"type":"MultiPolygon","coordinates":[[[[91.1816,22.3106],[91.1556,22.1843],[91.1222,22.1649],[91.1191,22.1934],[91.1011,22.2106],[91.1115,22.1597],[91.0505,22.1794],[91.0519,22.4201],[91.0269,22.4766],[91.0408,22.508],[91.1223,22.492],[91.1369,22.3951],[91.1816,22.3106]]],[[[91.4848,25.1702],[91.5725,25.2601],[91.6712,25.4282],[91.7197,25.453],[91.7849,25.3665],[91.7905,25.2124],[91.8171,25.1755],[91.9433,25.1809],[91.9806,25.1647],[92.035,25.188],[92.1219,25.1664],[92.1394,25.1365],[92.1567,25.1458],[92.1792,25.1195],[92.1826,25.133],[92.203,25.1287],[92.2192,25.1002],[92.2679,25.0787],[92.3364,25.0772],[92.3366,25.0486],[92.4085,25.0259],[92.422,24.973],[92.4603,24.9636],[92.4499,24.9409],[92.4834,24.9391],[92.4911,24.9198],[92.4857,24.8653],[92.457,24.8699],[92.4295,24.8525],[92.2824,24.8559],[92.2632,24.8372],[92.2745,24.787],[92.194,24.5737],[92.1289,24.5134],[92.1386,24.4006],[92.1015,24.3737],[91.964,24.3752],[91.9939,24.3196],[91.9608,24.3523],[91.9227,24.3305],[91.9329,24.2639],[91.9061,24.1452],[91.8816,24.1438],[91.8393,24.1928],[91.8434,24.2248],[91.8096,24.2114],[91.752,24.2364],[91.7422,24.2245],[91.7541,24.1383],[91.694,24.1583],[91.6672,24.2235],[91.6529,24.2273],[91.638,24.1057],[91.5943,24.0774],[91.5336,24.0712],[91.4808,24.095],[91.3851,24.1071],[91.3764,24.0893],[91.3956,24.0437],[91.3686,24.0082],[91.3704,23.978],[91.3076,23.9894],[91.2624,23.9605],[91.2672,23.9262],[91.2427,23.9208],[91.2275,23.8869],[91.246,23.8339],[91.2223,23.751],[91.2124,23.739],[91.1653,23.744],[91.1507,23.7095],[91.1568,23.6895],[91.1999,23.6803],[91.1966,23.6475],[91.1637,23.667],[91.1509,23.6415],[91.1637,23.5931],[91.2077,23.5412],[91.1969,23.5197],[91.2467,23.4814],[91.2493,23.4386],[91.2899,23.3492],[91.3143,23.3543],[91.2876,23.3204],[91.3074,23.3048],[91.2975,23.2928],[91.3197,23.2488],[91.3253,23.1526],[91.3491,23.0861],[91.3791,23.0591],[91.4062,23.0577],[91.3819,23.2065],[91.3921,23.259],[91.4286,23.2587],[91.4604,23.2333],[91.454,23.2159],[91.4789,23.2097],[91.47,23.1918],[91.4972,23.1872],[91.4919,23.1587],[91.529,23.0877],[91.5222,23.0517],[91.5415,23.0362],[91.544,22.9933],[91.5704,22.9636],[91.6094,22.9636],[91.5995,22.9523],[91.618,22.9286],[91.6438,22.9764],[91.717,22.985],[91.7776,23.0272],[91.7773,23.0662],[91.8066,23.0632],[91.8274,23.089],[91.7704,23.2678],[91.84,23.3979],[91.8992,23.4338],[91.9358,23.4298],[91.9403,23.4612],[91.966,23.4857],[91.9364,23.6707],[91.9522,23.7251],[91.9791,23.722],[92.0302,23.6394],[92.0726,23.6439],[92.0864,23.6763],[92.1643,23.7347],[92.2112,23.6971],[92.2128,23.6503],[92.2459,23.7208],[92.2897,23.6953],[92.2732,23.6267],[92.2879,23.6229],[92.2829,23.5928],[92.3044,23.5744],[92.3268,23.4237],[92.3409,23.4245],[92.3757,23.3543],[92.3669,23.3235],[92.3861,23.2752],[92.3482,23.233],[92.3583,23.1028],[92.3886,23.047],[92.373,22.9329],[92.4436,22.8836],[92.4611,22.8511],[92.4499,22.8339],[92.4735,22.7467],[92.5165,22.7156],[92.5367,22.5863],[92.5252,22.5544],[92.5481,22.5084],[92.577,22.2694],[92.6117,22.1573],[92.6027,22.125],[92.5817,22.1382],[92.5644,22.129],[92.5956,22.062],[92.6263,21.8882],[92.6027,21.6583],[92.6232,21.4696],[92.6744,21.2942],[92.614,21.242],[92.5951,21.2441],[92.5551,21.3759],[92.5114,21.3683],[92.4969,21.3495],[92.4382,21.3633],[92.4237,21.3798],[92.4227,21.4268],[92.379,21.4735],[92.3407,21.4537],[92.3106,21.413],[92.2688,21.4222],[92.2556,21.3573],[92.2002,21.3261],[92.2186,21.256],[92.1892,21.1761],[92.1953,21.1275],[92.2544,21.0631],[92.2604,20.9386],[92.3125,20.8483],[92.3332,20.7432],[92.3014,20.7571],[92.2632,20.8512],[92.2119,20.9248],[92.1838,21.0153],[92.0477,21.1755],[92.0494,21.2666],[92.0303,21.3362],[91.9527,21.4537],[91.9985,21.5051],[92.0224,21.4868],[91.9953,21.5584],[92.0389,21.6475],[92.0395,21.6758],[92.025,21.6824],[92.0352,21.7004],[92.0175,21.7161],[92.0183,21.6659],[91.9832,21.6551],[91.9827,21.7025],[91.9654,21.6788],[91.9452,21.7368],[91.9528,21.7503],[91.9731,21.7395],[91.9937,21.7668],[91.9725,21.7474],[91.9558,21.7526],[91.954,21.774],[91.9706,21.7865],[91.9429,21.8044],[91.92,21.7787],[91.8907,21.778],[91.9198,21.847],[91.9124,21.9271],[91.9274,21.9346],[91.8934,21.9718],[91.8554,22.1263],[91.8488,22.1348],[91.8378,22.1162],[91.8116,22.1875],[91.8337,22.2113],[91.8421,22.2589],[91.8144,22.3042],[91.8677,22.3233],[91.9011,22.401],[91.9397,22.4163],[92.0022,22.4047],[92.0224,22.4171],[92.0369,22.4469],[92.0804,22.4368],[92.1339,22.4559],[92.1442,22.47],[92.0892,22.4446],[92.0331,22.4505],[92.0015,22.412],[91.9541,22.421],[91.8982,22.4109],[91.8574,22.3311],[91.7959,22.2934],[91.7967,22.2755],[91.8291,22.2551],[91.7979,22.2196],[91.7795,22.2396],[91.7479,22.3992],[91.7,22.4842],[91.6276,22.5716],[91.5931,22.6421],[91.5289,22.7038],[91.4587,22.7449],[91.4851,22.7611],[91.4841,22.7692],[91.4695,22.7789],[91.4777,22.763],[91.4571,22.7598],[91.438,22.7739],[91.4409,22.7973],[91.4742,22.8258],[91.4352,22.8083],[91.4703,22.8388],[91.4836,22.8738],[91.4565,22.8986],[91.4913,22.9015],[91.461,22.9078],[91.4424,22.8968],[91.4412,22.8834],[91.4666,22.8742],[91.4209,22.81],[91.4076,22.7608],[91.3307,22.8314],[91.3504,22.8501],[91.3424,22.8833],[91.3158,22.839],[91.3518,22.7903],[91.345,22.7758],[91.296,22.8102],[91.1895,22.7974],[91.1195,22.8098],[91.1102,22.8273],[91.0952,22.8035],[91.0265,22.7999],[90.9416,22.8551],[90.8253,22.8642],[90.7664,22.9412],[90.7539,22.9322],[90.7921,22.905],[90.7971,22.8656],[90.7806,22.8587],[90.7373,22.8833],[90.689,22.9791],[90.6268,23.0005],[90.5662,23.1057],[90.5915,23.1679],[90.6526,23.243],[90.6389,23.3166],[90.6753,23.3166],[90.6743,23.3395],[90.6978,23.3458],[90.6795,23.3632],[90.695,23.3777],[90.6734,23.3643],[90.6614,23.3372],[90.6737,23.3213],[90.6147,23.3246],[90.5794,23.3965],[90.6001,23.4216],[90.5915,23.4747],[90.6264,23.4899],[90.7003,23.4879],[90.7174,23.5424],[90.7446,23.5446],[90.7068,23.5433],[90.7079,23.5745],[90.7323,23.5916],[90.7397,23.6223],[90.7655,23.6328],[90.7412,23.6632],[90.7596,23.7181],[90.7424,23.6938],[90.7408,23.7237],[90.7311,23.7103],[90.7199,23.7407],[90.6817,23.6866],[90.6401,23.6875],[90.6307,23.6365],[90.5636,23.5935],[90.554,23.5719],[90.515,23.5812],[90.5049,23.6034],[90.4843,23.5865],[90.4537,23.6151],[90.4701,23.6316],[90.4386,23.6735],[90.3689,23.7187],[90.384,23.7026],[90.366,23.7033],[90.3447,23.7391],[90.3179,23.7348],[90.3119,23.7651],[90.2554,23.7294],[90.2572,23.7754],[90.2306,23.8875],[90.2388,23.8266],[90.2032,23.8413],[90.1543,23.828],[90.1128,23.8738],[90.1103,23.8573],[90.0548,23.8207],[90.046,23.8296],[90.0629,23.8764],[90.0457,23.8897],[90.026,23.8818],[90.0228,23.9071],[89.9531,23.9623],[89.9518,23.9857],[89.9329,23.985],[89.9496,23.9615],[89.9381,23.9549],[90.0186,23.8947],[90.013,23.8782],[90.0538,23.8747],[90.0409,23.8277],[90.0475,23.8169],[90.0905,23.8299],[90.1248,23.8071],[90.1818,23.8021],[90.2059,23.8158],[90.2207,23.8002],[90.2414,23.8151],[90.2061,23.7517],[90.2185,23.7236],[90.2541,23.72],[90.2747,23.6864],[90.2539,23.7084],[90.2206,23.7082],[90.1825,23.7401],[90.1918,23.7194],[90.1681,23.7215],[90.1475,23.7108],[90.1235,23.7365],[90.0698,23.7579],[90.023,23.7636],[90.0241,23.7979],[90.0022,23.8161],[90.0193,23.7628],[90.1205,23.7334],[90.1451,23.7046],[90.1722,23.7165],[90.2211,23.703],[90.2483,23.7073],[90.2761,23.6547],[90.2919,23.659],[90.3975,23.6023],[90.3994,23.5775],[90.38,23.5673],[90.41,23.5802],[90.4486,23.5418],[90.504,23.5719],[90.5372,23.5618],[90.5701,23.4823],[90.537,23.482],[90.5543,23.4281],[90.5271,23.3907],[90.4863,23.4206],[90.4209,23.416],[90.2819,23.4471],[90.1575,23.5302],[90.1084,23.6143],[89.9669,23.6604],[89.9208,23.7195],[89.8549,23.7507],[89.7914,23.8079],[89.7749,23.899],[89.768,23.8875],[89.7045,23.956],[89.7271,23.9754],[89.7215,23.9999],[89.7142,23.9698],[89.6986,23.9645],[89.7055,23.9987],[89.6717,24.0012],[89.6556,23.934],[89.6994,23.8776],[89.7522,23.8654],[89.7719,23.8366],[89.7574,23.8477],[89.7233,23.8346],[89.6825,23.8639],[89.6828,23.8495],[89.7174,23.8311],[89.6269,23.8456],[89.5498,23.8241],[89.4497,23.8706],[89.3922,23.9399],[89.3282,23.9489],[89.2812,23.9874],[89.3156,23.9473],[89.2898,23.9463],[89.2363,23.9838],[89.1851,23.9866],[89.1608,24.0058],[89.062,23.9888],[89.1229,23.9201],[89.126,23.9543],[89.1658,23.9263],[89.2308,23.921],[89.3005,23.8704],[89.4091,23.8972],[89.4459,23.8246],[89.5025,23.7776],[89.5358,23.7952],[89.5966,23.7975],[89.6398,23.7767],[89.7122,23.7743],[89.8616,23.6574],[89.9469,23.6368],[90.0257,23.5559],[90.0181,23.5824],[90.0821,23.5733],[90.1264,23.5446],[90.1588,23.4856],[90.1562,23.428],[90.2071,23.3348],[90.1684,23.3476],[90.1638,23.3638],[90.1866,23.3599],[90.1614,23.368],[90.1684,23.3354],[90.125,23.3055],[90.1203,23.3352],[90.1446,23.3643],[90.1449,23.3779],[90.1267,23.3505],[90.0998,23.3596],[90.1209,23.3472],[90.1142,23.3259],[90.1195,23.306],[90.0939,23.3014],[90.0855,23.2752],[90.123,23.27],[90.1268,23.2424],[90.2019,23.2261],[90.1984,23.2094],[90.1668,23.2018],[90.1744,23.1684],[90.2213,23.1822],[90.2484,23.1625],[90.2337,23.1423],[90.2416,23.1261],[90.3157,23.1044],[90.3175,23.0681],[90.2677,23.0426],[90.2728,23.0252],[90.3101,23.0183],[90.3208,22.9871],[90.2739,22.9683],[90.3545,22.9193],[90.3487,22.8879],[90.3183,22.8619],[90.3641,22.7893],[90.3684,22.7364],[90.4201,22.7321],[90.4175,22.714],[90.396,22.7289],[90.3834,22.7049],[90.4002,22.7233],[90.4204,22.7086],[90.4295,22.7322],[90.4179,22.7456],[90.3775,22.7402],[90.3764,22.7528],[90.4243,22.7652],[90.4828,22.7127],[90.4768,22.6561],[90.4981,22.6715],[90.5193,22.6313],[90.5048,22.586],[90.5234,22.5967],[90.5795,22.5268],[90.6131,22.3376],[90.5923,22.2586],[90.5637,22.2441],[90.5262,22.1864],[90.5046,22.1844],[90.5039,22.1614],[90.4383,22.0669],[90.4217,22.1092],[90.4417,22.1527],[90.4267,22.1512],[90.4184,22.0897],[90.3886,22.0898],[90.3839,22.1122],[90.4058,22.1442],[90.4029,22.1674],[90.4258,22.1787],[90.3997,22.22],[90.4167,22.2617],[90.4037,22.2844],[90.4191,22.2895],[90.3788,22.293],[90.4151,22.3386],[90.3643,22.2954],[90.4081,22.2679],[90.395,22.2041],[90.4177,22.1832],[90.3983,22.1719],[90.3965,22.1447],[90.3812,22.1367],[90.3408,22.162],[90.3877,22.196],[90.388,22.2108],[90.3568,22.1796],[90.3435,22.1957],[90.3497,22.1787],[90.334,22.1623],[90.3783,22.1311],[90.3752,22.1055],[90.3318,22.1085],[90.3266,22.0884],[90.2617,22.041],[90.2751,22.0357],[90.278,21.9953],[90.2572,21.956],[90.2111,21.9824],[90.214,22.002],[90.1956,21.9792],[90.2323,21.9679],[90.218,21.9505],[90.2686,21.946],[90.241,21.9017],[90.2611,21.8838],[90.2561,21.8674],[90.2241,21.8543],[90.2042,21.8874],[90.2396,21.9347],[90.1967,21.8919],[90.2208,21.8523],[90.263,21.8586],[90.2488,21.8381],[90.2164,21.8353],[90.2601,21.8324],[90.1737,21.7887],[90.1108,21.799],[90.0817,21.8342],[90.0991,21.8516],[90.1222,21.8484],[90.1013,21.8537],[90.1017,21.8737],[90.1361,21.8902],[90.1625,21.8731],[90.1532,21.8596],[90.1672,21.8636],[90.1521,21.8964],[90.1886,21.9227],[90.1548,21.9088],[90.1442,21.8906],[90.116,21.8991],[90.1164,21.916],[90.15,21.9227],[90.1377,21.9517],[90.1686,21.9802],[90.1406,21.9702],[90.1279,21.9913],[90.1418,21.9247],[90.1118,21.9223],[90.1084,21.8936],[90.0966,21.8957],[90.0998,21.9391],[90.0731,22.0039],[90.1582,22.1118],[90.213,22.114],[90.2284,22.1642],[90.2539,22.1637],[90.273,22.1789],[90.2772,22.2099],[90.259,22.1723],[90.2289,22.1726],[90.2398,22.1973],[90.22,22.2208],[90.2072,22.3078],[90.228,22.3386],[90.2736,22.3376],[90.2908,22.3515],[90.2968,22.372],[90.2657,22.3668],[90.2816,22.4082],[90.3161,22.4663],[90.3412,22.4588],[90.3628,22.4889],[90.3405,22.4664],[90.3119,22.4712],[90.2587,22.3756],[90.2551,22.3447],[90.2232,22.3427],[90.2031,22.3166],[90.2095,22.2151],[90.2298,22.1917],[90.2017,22.1217],[90.1588,22.1233],[90.0911,22.0598],[90.0527,21.971],[90.0307,21.9969],[90.0278,21.9783],[90.0031,21.9851],[89.9927,22.0353],[90.0301,22.0613],[90.037,22.1279],[90.0708,22.1531],[90.1401,22.1555],[90.0819,22.1581],[90.0257,22.1888],[90.0791,22.2174],[90.1125,22.2894],[90.1019,22.3432],[90.177,22.4226],[90.2021,22.4865],[90.2065,22.5107],[90.1867,22.5273],[90.2029,22.5717],[90.1852,22.6246],[90.2531,22.6214],[90.2843,22.6309],[90.2954,22.6527],[90.2502,22.6281],[90.1805,22.6272],[90.1974,22.5693],[90.1817,22.5257],[90.1995,22.5074],[90.1947,22.4824],[90.1725,22.4559],[90.1706,22.4245],[90.0934,22.3465],[90.1045,22.3006],[90.0717,22.2222],[90.021,22.186],[90.0262,22.1703],[90.0631,22.1609],[90.0176,22.1253],[90.0201,22.0696],[89.9798,22.0376],[89.9895,21.9907],[89.958,21.9789],[89.9095,22.0721],[89.9174,22.1364],[89.8785,22.2662],[89.9244,22.38],[89.9825,22.4356],[89.9994,22.4864],[90.0253,22.4905],[90.0297,22.5646],[90.0657,22.6095],[90.0563,22.6225],[90.0254,22.6002],[90.0334,22.6501],[90.0057,22.68],[90.0278,22.6508],[90.0132,22.5992],[90.0307,22.5811],[90.0183,22.4952],[89.9547,22.5058],[89.9855,22.4868],[89.9866,22.4645],[89.9078,22.387],[89.886,22.3999],[89.8817,22.4295],[89.8785,22.4008],[89.8982,22.3673],[89.846,22.2606],[89.8906,22.1227],[89.8536,22.0684],[89.8187,22.0659],[89.857,22.0425],[89.8854,21.9064],[89.8617,21.8794],[89.844,21.8853],[89.8429,21.8578],[89.7723,21.8307],[89.7907,21.8785],[89.7531,21.8562],[89.7339,21.8911],[89.749,21.8344],[89.7157,21.8336],[89.7041,21.8497],[89.6776,21.8369],[89.6581,21.8903],[89.6795,21.9051],[89.6551,21.9136],[89.6351,21.8637],[89.712,21.7854],[89.7131,21.7681],[89.6594,21.7511],[89.6544,21.7653],[89.6101,21.7564],[89.6135,21.8117],[89.5629,21.8603],[89.5901,21.9401],[89.5643,21.9628],[89.5594,21.9924],[89.5276,21.9958],[89.5145,21.9885],[89.5251,21.9558],[89.5135,21.9011],[89.4937,21.9067],[89.4633,21.8539],[89.4337,21.8481],[89.4625,21.8463],[89.4712,21.8206],[89.4585,21.812],[89.4842,21.7855],[89.4193,21.7109],[89.3842,21.7123],[89.3556,21.8018],[89.387,21.9036],[89.3679,21.9052],[89.3208,21.8654],[89.3074,21.8211],[89.2868,21.8065],[89.2918,21.756],[89.2305,21.7684],[89.2169,21.7578],[89.1969,21.8047],[89.163,21.7898],[89.1085,21.81],[89.1107,21.8642],[89.0878,21.9118],[89.0959,21.937],[89.0832,21.9381],[89.0906,22.01],[89.0491,22.0911],[89.1073,22.1537],[89.0811,22.1517],[89.078,22.1962],[89.007,22.2815],[89.0344,22.2966],[88.9939,22.3309],[89.0015,22.3842],[88.9832,22.4016],[89.0069,22.4233],[89.0014,22.4676],[88.9707,22.5436],[88.9266,22.559],[88.9539,22.5608],[88.9475,22.5841],[88.9655,22.6106],[88.9352,22.6414],[88.9487,22.6406],[88.943,22.6556],[88.9689,22.6889],[88.9234,22.7588],[88.9666,22.7929],[88.9544,22.8069],[88.972,22.843],[88.9534,22.8764],[88.9201,22.8789],[88.9023,22.9515],[88.8665,22.957],[88.8931,23.0375],[88.8733,23.0779],[88.8811,23.1024],[88.9166,23.1236],[88.9471,23.1741],[88.9974,23.2002],[88.9841,23.2261],[88.9464,23.2028],[88.9219,23.2332],[88.8198,23.2497],[88.8179,23.2274],[88.8027,23.2221],[88.7824,23.2433],[88.7288,23.2563],[88.7021,23.3054],[88.7155,23.3154],[88.7284,23.305],[88.7328,23.3231],[88.7491,23.3156],[88.737,23.3531],[88.7723,23.3707],[88.7706,23.4373],[88.7971,23.449],[88.8027,23.4914],[88.7855,23.5014],[88.7777,23.4796],[88.7531,23.4757],[88.738,23.5063],[88.6638,23.5518],[88.6524,23.6051],[88.5961,23.6022],[88.6045,23.6371],[88.5703,23.6468],[88.5859,23.6748],[88.5912,23.7607],[88.5747,23.7859],[88.6135,23.8069],[88.5963,23.8606],[88.6202,23.8747],[88.6687,23.8641],[88.7172,23.9069],[88.7384,23.9063],[88.746,23.9755],[88.7758,23.9841],[88.7595,24.0054],[88.7379,23.9973],[88.7344,24.0134],[88.7568,24.0294],[88.7261,24.0421],[88.746,24.0544],[88.697,24.1069],[88.6979,24.1672],[88.715,24.2002],[88.7324,24.2015],[88.7312,24.278],[88.6867,24.3283],[88.6499,24.303],[88.5673,24.3275],[88.5477,24.3113],[88.5127,24.319],[88.4571,24.3629],[88.3743,24.3992],[88.3419,24.4381],[88.2082,24.473],[88.1405,24.5089],[88.1083,24.5433],[88.0862,24.6205],[88.0284,24.6881],[88.0717,24.7422],[88.072,24.771],[88.1052,24.7844],[88.1125,24.8173],[88.1242,24.8267],[88.1329,24.8134],[88.1466,24.8484],[88.168,24.8591],[88.1413,24.934],[88.2266,24.9592],[88.2625,24.9195],[88.2568,24.8837],[88.273,24.8979],[88.3331,24.8726],[88.3437,24.8988],[88.3216,24.9059],[88.3383,24.9381],[88.3884,24.9479],[88.4451,25.0355],[88.4317,25.0545],[88.4467,25.0784],[88.4366,25.1273],[88.4591,25.1491],[88.4414,25.2004],[88.4949,25.2137],[88.5656,25.1763],[88.6142,25.2055],[88.6997,25.2111],[88.7451,25.1823],[88.7729,25.1925],[88.799,25.175],[88.8381,25.2116],[88.9223,25.1723],[88.9421,25.1862],[88.9338,25.2143],[88.9553,25.2156],[88.9476,25.253],[88.9974,25.2739],[89.0113,25.2985],[88.9957,25.3179],[88.9091,25.3203],[88.8954,25.3427],[88.8762,25.3353],[88.8331,25.3722],[88.8328,25.4047],[88.8104,25.4165],[88.8393,25.4613],[88.8254,25.4943],[88.8027,25.5063],[88.8034,25.5334],[88.7586,25.5288],[88.7609,25.4999],[88.7317,25.5088],[88.6989,25.4792],[88.6702,25.4756],[88.641,25.4851],[88.6438,25.5043],[88.5382,25.512],[88.5314,25.5422],[88.4448,25.6033],[88.4465,25.6688],[88.4009,25.6751],[88.3699,25.7188],[88.2715,25.782],[88.2634,25.8139],[88.2316,25.8128],[88.2051,25.7885],[88.1864,25.8036],[88.1522,25.7791],[88.1393,25.7996],[88.1146,25.8022],[88.1128,25.8658],[88.0899,25.8756],[88.0861,25.9306],[88.1211,25.9506],[88.1093,25.9624],[88.1283,25.995],[88.1842,26.0269],[88.1719,26.0431],[88.1858,26.0671],[88.1597,26.0811],[88.1809,26.1456],[88.2304,26.168],[88.2317,26.1893],[88.273,26.1834],[88.3521,26.219],[88.3459,26.2777],[88.3586,26.301],[88.408,26.3147],[88.4013,26.3312],[88.4283,26.3381],[88.4531,26.377],[88.479,26.3481],[88.4975,26.3636],[88.5075,26.3511],[88.5264,26.3717],[88.4814,26.4626],[88.3651,26.4852],[88.3532,26.4507],[88.332,26.4847],[88.4058,26.6323],[88.4296,26.5533],[88.4796,26.5434],[88.4863,26.5132],[88.5161,26.5117],[88.5215,26.4862],[88.5555,26.4864],[88.5598,26.4666],[88.5871,26.4612],[88.6178,26.4768],[88.6227,26.4366],[88.6831,26.4144],[88.6745,26.4038],[88.6952,26.3965],[88.6838,26.3905],[88.7082,26.3477],[88.7457,26.3533],[88.7383,26.3366],[88.7533,26.3264],[88.6912,26.3135],[88.7029,26.2862],[88.6643,26.3003],[88.6756,26.2684],[88.7136,26.2824],[88.7179,26.2991],[88.745,26.292],[88.7461,26.3122],[88.7953,26.3122],[88.8142,26.296],[88.8066,26.2564],[88.832,26.2385],[88.8716,26.2351],[88.8639,26.2759],[88.909,26.2889],[88.9567,26.2366],[89.0083,26.2283],[89.0655,26.2578],[89.0561,26.2887],[89.0277,26.2878],[89.0174,26.3147],[89.0164,26.3015],[88.9864,26.2979],[88.9805,26.3146],[88.9971,26.3366],[88.9698,26.3552],[88.9461,26.3439],[88.9505,26.3676],[88.9153,26.3636],[88.9155,26.4025],[88.9016,26.4083],[88.9332,26.4188],[88.9247,26.4386],[88.9373,26.4304],[88.9573,26.462],[88.9918,26.4202],[89.0455,26.3973],[89.0998,26.3963],[89.0841,26.3663],[89.1044,26.3558],[89.0906,26.3252],[89.1384,26.3155],[89.1294,26.2987],[89.1028,26.3119],[89.1048,26.2844],[89.1442,26.2345],[89.1407,26.1831],[89.1645,26.1428],[89.1832,26.1255],[89.2276,26.122],[89.267,26.0896],[89.2627,26.0601],[89.3561,26.0087],[89.3856,26.0059],[89.4079,26.0355],[89.4304,26.0397],[89.4685,26.0006],[89.5327,26.0036],[89.5467,25.966],[89.5728,25.9625],[89.5813,26.0335],[89.64,26.0698],[89.6298,26.1031],[89.5995,26.0882],[89.5997,26.1083],[89.63,26.1198],[89.6002,26.1184],[89.5901,26.1558],[89.6162,26.1754],[89.6492,26.1696],[89.6231,26.1887],[89.6367,26.1992],[89.629,26.2132],[89.6753,26.2288],[89.6909,26.2071],[89.6802,26.1614],[89.7456,26.1554],[89.7874,26.088],[89.777,26.0423],[89.8027,26.0323],[89.826,25.9861],[89.8574,25.9803],[89.8245,25.9459],[89.8805,25.9308],[89.8359,25.8788],[89.82,25.8119],[89.8389,25.7654],[89.8217,25.7283],[89.8731,25.6518],[89.8157,25.38],[89.833,25.2996],[89.8533,25.2837],[89.9013,25.3058],[89.9531,25.3018],[90.1021,25.228],[90.3125,25.1894],[90.3608,25.159],[90.4367,25.1447],[90.5125,25.173],[90.6182,25.1667],[90.6482,25.186],[90.6786,25.16],[90.7254,25.1569],[90.7708,25.1804],[90.8513,25.1525],[90.951,25.1576],[90.9849,25.1796],[91.0772,25.196],[91.2587,25.2025],[91.4328,25.1475],[91.4848,25.1702]]],[[[89.3653,26.8021],[89.3389,26.833],[89.3696,26.8592],[89.3959,26.8285],[89.3653,26.8021]]],[[[91.6902,26.8493],[91.6637,26.8798],[91.694,26.9064],[91.7207,26.8757],[91.6902,26.8493]]],[[[88.5616,27.2971],[88.535,27.3274],[88.5653,27.354],[88.5919,27.3238],[88.5616,27.2971]]],[[[86.523,27.1949],[87.0217,26.9879],[87.3886,27.0162],[88.0378,26.9879],[88.1507,26.9315],[88.1601,26.8092],[88.1131,26.6868],[88.0472,26.6116],[87.9531,26.5551],[87.8496,26.5175],[87.7744,26.5081],[87.4733,26.4987],[87.1157,26.5645],[86.7582,26.5363],[86.5606,26.5645],[86.3348,26.6398],[86.0243,26.668],[85.8644,26.7151],[85.7044,26.8374],[85.6386,26.8656],[85.3657,26.875],[85.1211,26.9315],[84.9329,27.0726],[84.7542,27.2796],[84.6695,27.3455],[84.4813,27.4207],[84.2179,27.5619],[84.152,27.5713],[83.9638,27.543],[83.8509,27.496],[83.691,27.496],[83.4087,27.543],[83.2958,27.6842],[83.2864,27.91],[83.3052,27.9947],[83.3617,28.0605],[83.4463,28.117],[83.5781,28.1546],[83.7192,28.1358],[84.0767,28.0041],[84.2931,27.9476],[85.1211,27.6465],[85.4692,27.5901],[85.7327,27.5054],[85.855,27.4019],[86.0714,27.3078],[86.523,27.1949]]],[[[78.172,29.8529],[78.1764,29.8848],[78.2072,29.8788],[78.2347,29.835],[78.2391,29.7921],[78.1955,29.8042],[78.172,29.8529]]],[[[77.5273,30.3223],[77.5015,30.3515],[77.5309,30.3775],[77.5567,30.3484],[77.5273,30.3223]]],[[[93.8135,24.5234],[93.7864,24.5544],[93.8173,24.5816],[93.8446,24.5503],[93.8135,24.5234]]],[[[92.7437,24.6539],[92.7165,24.6848],[92.7474,24.712],[92.7746,24.6811],[92.7437,24.6539]]],[[[95.2464,26.6797],[95.1447,26.6164],[95.0644,26.4686],[95.0817,26.2281],[95.1133,26.1383],[95.178,26.0589],[95.1178,25.9833],[95.06,25.9436],[94.9964,25.7322],[94.8853,25.5786],[94.798,25.5031],[94.6953,25.4725],[94.6617,25.428],[94.5725,25.4739],[94.5654,25.5183],[94.6008,25.6],[94.6015,25.6614],[94.5671,25.6685],[94.4435,25.5874],[94.3696,25.4924],[94.2431,25.4796],[94.1091,25.4941],[94.0138,25.5357],[93.8682,25.5333],[93.7569,25.5136],[93.7527,25.4829],[93.783,25.4554],[93.7283,25.3636],[93.6625,25.3061],[93.5882,25.1769],[93.5612,25.16],[93.5504,25.2215],[93.4168,25.26],[93.4376,25.3997],[93.3766,25.4343],[93.3126,25.5337],[93.4017,25.6116],[93.4864,25.652],[93.6887,25.9202],[93.777,25.9298],[93.7682,25.8309],[93.7832,25.8035],[93.9062,25.8402],[93.9911,25.8943],[93.9652,25.9764],[93.9938,26.1263],[94.0372,26.2352],[94.1768,26.3776],[94.2241,26.4933],[94.2707,26.5511],[94.327,26.4449],[94.389,26.5093],[94.4206,26.5944],[94.4672,26.6453],[94.5982,26.7092],[94.7404,26.7458],[94.8486,26.8304],[94.9187,26.9289],[95.0373,26.911],[95.1917,27.0089],[95.2371,26.9608],[95.2593,26.8924],[95.2657,26.7798],[95.2464,26.6797]]],[[[91.8599,26.1552],[91.833,26.1855],[91.8635,26.2127],[91.8904,26.1819],[91.8599,26.1552]]],[[[96.2066,27.4614],[96.1801,27.4916],[96.2102,27.5181],[96.2368,27.488],[96.2066,27.4614]]],[[[94.4991,27.9551],[94.4729,27.9855],[94.5029,28.0116],[94.5293,27.9814],[94.4991,27.9551]]],[[[93.9159,28.6976],[94.0484,28.7712],[94.1956,28.808],[94.3427,28.808],[94.4679,28.6976],[94.5047,28.5504],[94.409,28.44],[94.225,28.4032],[94.0631,28.44],[93.9527,28.5136],[93.9012,28.5872],[93.9159,28.6976]]]]}}