{"type":"Feature","properties":{"speciesId":884,"category":"LC","source":"IUCN Red List","simplifyTol":0.01,"clippedToSubcontinent":true},"geometry":{"type":"Polygon","coordinates":[[[76.6334,10.768],[76.5111,10.2189],[76.5022,9.9785],[76.5395,9.6938],[76.6262,9.4098],[76.7477,9.1644],[76.9927,8.8057],[77.2711,8.4727],[77.4891,8.2748],[77.5758,8.141],[77.5521,8.0686],[77.3139,8.1189],[77.296,8.1468],[77.2394,8.1731],[77.0099,8.3564],[76.6206,8.8431],[76.5469,8.8976],[76.5143,9.0175],[76.4563,9.1273],[76.4843,9.1153],[76.4926,9.1661],[76.4746,9.1619],[76.4702,9.1417],[76.4369,9.241],[76.4198,9.2436],[76.4549,9.1424],[76.3276,9.448],[76.2452,9.9562],[76.221,9.9906],[76.1682,10.1789],[76.1536,10.1858],[76.1217,10.3244],[76.0454,10.4857],[76.0643,10.4737],[76.0399,10.5169],[76.0463,10.5323],[76.0227,10.5382],[75.932,10.7393],[75.9252,10.7889],[75.9109,10.7992],[75.9101,10.7839],[75.8324,11.1254],[75.7919,11.1697],[75.7805,11.2272],[75.7295,11.3317],[75.7338,11.3533],[75.6668,11.4638],[75.9569,11.4454],[76.1188,11.4165],[76.2963,11.3455],[76.4067,11.2628],[76.5621,11.068],[76.6244,10.9386],[76.6334,10.768]],[[76.4732,9.1114],[76.4726,9.1117],[76.4732,9.1099],[76.4732,9.1114]],[[76.4732,9.1099],[76.487,9.0777],[76.4967,9.0666],[76.495,9.0805],[76.4732,9.1099]]]}}