{"type":"Feature","properties":{"speciesId":886,"category":"NT","source":"IUCN Red List","simplifyTol":0.01,"clippedToSubcontinent":true},"geometry":{"type":"Polygon","coordinates":[[[74.9086,13.8575],[74.9953,13.7994],[75.4524,13.3173],[75.6277,13.0882],[75.7543,12.8678],[75.8604,12.6021],[75.9478,12.292],[76.1092,11.5375],[76.1022,11.4947],[76.0582,11.4616],[75.9879,11.4571],[75.8456,11.5067],[75.6078,11.6792],[75.3901,11.9191],[75.1586,12.1436],[75.0301,12.3906],[75.0385,12.4112],[75.0231,12.3994],[75.0061,12.4324],[75.0153,12.4447],[74.996,12.4475],[74.9669,12.5016],[74.8124,12.8733],[74.7735,13.0539],[74.7774,13.0932],[74.7699,13.0782],[74.6895,13.3541],[74.6657,13.6379],[74.6425,13.6719],[74.6048,13.8409],[74.6171,13.8573],[74.5995,13.8685],[74.7358,13.8875],[74.9086,13.8575]]]}}