{"type":"Feature","properties":{"speciesId":887,"category":"LC","source":"IUCN Red List","simplifyTol":0.01,"clippedToSubcontinent":true},"geometry":{"type":"MultiPolygon","coordinates":[[[[74.6228,14.8315],[75.2592,13.9744],[75.709,12.744],[75.9805,12.0991],[76.1247,11.6579],[76.286,11.3015],[76.2775,11.1996],[76.1332,11.013],[75.8648,10.9794],[75.8326,11.1235],[75.8054,11.1508],[75.7296,11.3316],[75.7333,11.354],[75.6782,11.4458],[75.6174,11.4744],[75.5851,11.5587],[75.597,11.5363],[75.5912,11.562],[75.6041,11.561],[75.5822,11.5708],[75.5294,11.6966],[75.5386,11.7048],[75.4917,11.7339],[75.4716,11.769],[75.451,11.7697],[75.3893,11.8467],[75.3522,11.8601],[75.2491,12.0038],[75.2275,12.0209],[75.1963,12.0092],[75.0648,12.3407],[75.0296,12.3922],[75.0386,12.4111],[75.0229,12.3997],[75.0063,12.4371],[75.0154,12.4444],[74.9979,12.4456],[74.983,12.475],[74.8249,12.8316],[74.776,13.0949],[74.7699,13.0782],[74.6921,13.3488],[74.6657,13.6381],[74.6428,13.6709],[74.6058,13.8523],[74.6169,13.8576],[74.565,13.9466],[74.5278,13.9626],[74.505,14.0011],[74.464,14.1872],[74.4092,14.308],[74.3953,14.4186],[74.3765,14.4165],[74.3538,14.5117],[74.3052,14.5196],[74.2912,14.5931],[74.2635,14.6245],[74.2946,14.6402],[74.2751,14.6467],[74.2756,14.6779],[74.2537,14.7068],[74.2633,14.7094],[74.2647,14.7201],[74.2582,14.7122],[74.2215,14.7472],[74.1993,14.7176],[74.1765,14.7446],[74.1477,14.7464],[74.1479,14.7648],[74.1146,14.776],[74.0924,14.8055],[74.1092,14.7985],[74.1238,14.8379],[74.224,14.8824],[74.4361,14.8994],[74.6228,14.8315]]],[[[73.0519,18.6563],[73.0978,18.6278],[73.1576,18.5581],[73.3944,18.1264],[73.7371,17.1331],[73.806,16.4767],[73.8769,16.2456],[73.8843,16.1545],[73.8546,16.0508],[73.7241,15.9794],[73.6804,15.996],[73.6254,16.0914],[73.6218,16.1786],[73.6525,16.3907],[73.6442,16.4878],[73.5011,16.9616],[73.3724,17.5263],[73.1378,18.1787],[72.9693,18.5576],[72.9768,18.6394],[73.0519,18.6563]]]]}}