{"type":"Feature","properties":{"speciesId":889,"category":"LC","source":"IUCN Red List","simplifyTol":0.01,"clippedToSubcontinent":true},"geometry":{"type":"Polygon","coordinates":[[[86.6066,21.839],[86.4496,21.7346],[86.369,21.6193],[86.3229,21.4603],[86.2786,21.0757],[86.2419,20.9142],[86.1846,20.7956],[86.0232,20.5916],[85.8487,20.4159],[85.6578,20.2556],[85.1195,19.9358],[84.863,19.7441],[83.8524,18.787],[83.5777,18.6783],[83.4106,18.5887],[82.6976,18.0469],[82.1018,17.6757],[81.557,17.3635],[81.2103,17.1985],[80.4153,16.899],[80.1102,16.7461],[79.8516,16.5532],[79.6456,16.3515],[79.4862,16.1687],[79.3487,15.968],[79.2612,15.7774],[79.2146,15.572],[79.2022,15.3289],[79.2253,15.0254],[79.2848,14.6608],[79.346,14.4709],[79.5286,14.0215],[79.5889,13.7858],[79.6178,13.5378],[79.6199,13.358],[79.5961,13.2038],[79.5409,13.0377],[79.29,12.5361],[79.0744,12.1944],[78.5932,11.5447],[78.0946,10.9603],[77.8947,10.6768],[77.7654,10.4046],[77.4454,9.5068],[77.3481,9.3278],[77.1866,9.1706],[77.0651,9.1177],[76.8941,9.1483],[76.6687,9.263],[76.5657,9.3831],[76.4917,9.5588],[76.3591,10.2704],[76.153,11.055],[76.0569,11.3177],[75.9262,11.529],[75.5762,11.9058],[75.2597,12.4515],[74.9366,12.7581],[74.8364,12.8936],[74.7809,13.0393],[74.7774,13.0933],[74.7702,13.078],[74.7005,13.338],[74.6657,13.638],[74.6046,13.8426],[74.6171,13.8573],[74.5051,14.0237],[74.4658,14.1827],[74.4128,14.3114],[74.3952,14.4191],[74.3842,14.4155],[74.3526,14.5142],[74.3346,14.5129],[74.2979,14.5733],[74.2799,14.6358],[74.2946,14.6403],[74.279,14.6431],[74.2545,14.7074],[74.2633,14.7094],[74.2649,14.7199],[74.2581,14.7123],[74.2343,14.7446],[74.1847,14.7402],[74.1238,14.7826],[74.1128,14.8024],[74.125,14.8402],[74.1079,14.8451],[74.0923,14.8932],[74.0534,14.9292],[74.0297,14.9808],[74.0472,14.9858],[74.0291,14.9883],[73.9359,15.0876],[73.9293,15.1174],[73.9459,15.1429],[73.8865,15.3353],[73.8662,15.3677],[73.8454,15.3623],[73.8134,15.394],[73.8374,15.4084],[73.8756,15.3984],[73.8894,15.4207],[73.8122,15.4614],[73.8017,15.4807],[73.8165,15.5057],[73.7883,15.4959],[73.764,15.5187],[73.6205,15.8504],[73.5864,15.9056],[73.5172,15.9541],[73.4751,16.0431],[73.4699,16.0694],[73.4772,16.0583],[73.4839,16.0695],[73.469,16.0748],[73.4723,16.1105],[73.4621,16.1066],[73.4519,16.1501],[73.4523,16.2251],[73.4411,16.2068],[73.417,16.2783],[73.4396,16.289],[73.4127,16.2881],[73.3845,16.3626],[73.3846,16.3925],[73.4085,16.4086],[73.3828,16.4014],[73.365,16.4356],[73.3816,16.4481],[73.3618,16.4433],[73.3318,16.5106],[73.3414,16.5302],[73.3584,16.5197],[73.3507,16.5071],[73.3715,16.514],[73.3398,16.5868],[73.3593,16.6255],[73.341,16.6219],[73.3277,16.6801],[73.343,16.6908],[73.3253,16.6896],[73.3065,16.7753],[73.3179,16.8013],[73.3022,16.8033],[73.295,16.84],[73.2901,16.8835],[73.3048,16.8848],[73.2883,16.8934],[73.2858,16.949],[73.3058,16.973],[73.2814,16.9842],[73.2743,17.012],[73.2924,17.0078],[73.2829,17.0236],[73.2972,17.036],[73.3264,17.0304],[73.2971,17.0392],[73.2155,17.272],[73.2256,17.287],[73.2578,17.2597],[73.2649,17.2885],[73.2972,17.2844],[73.2437,17.3102],[73.1946,17.398],[73.1901,17.482],[73.1566,17.5583],[73.1718,17.5833],[73.1413,17.6304],[73.1273,17.7493],[73.0393,17.9571],[73.0258,18.022],[73.0447,18.0395],[73.0252,18.0294],[73.034,18.0446],[73.0226,18.0385],[73.0151,18.0552],[72.9643,18.2279],[72.9703,18.2503],[73.0118,18.2402],[73.058,18.2219],[73.0707,18.197],[73.0672,18.2708],[73.0525,18.2858],[73.0431,18.266],[72.9944,18.2933],[72.9269,18.3652],[72.9084,18.4909],[72.9236,18.5306],[72.962,18.5413],[72.927,18.5442],[72.8654,18.6916],[72.8701,18.7561],[72.8949,18.7901],[72.9498,18.8016],[72.9898,18.7753],[72.9985,18.7821],[72.9823,18.7963],[73.0574,18.8017],[72.9917,18.8292],[72.9826,18.8625],[72.9483,18.8588],[72.9306,18.8911],[72.978,18.9633],[73.0702,19.0038],[73.091,18.9989],[73.0704,19.0112],[73.0847,19.0314],[73.0644,19.0302],[73.0907,19.0446],[73.0404,19.028],[73.0102,19.0389],[72.9767,19.1708],[72.9309,19.0913],[72.9345,19.0683],[72.9139,19.0753],[72.9326,19.0605],[72.9213,19.0292],[72.8903,19.0046],[72.8783,19.0226],[72.8563,19.0086],[72.854,18.9762],[72.824,18.9315],[72.8093,18.9497],[72.832,19.0382],[72.8597,19.0601],[72.8312,19.0504],[72.8096,19.1417],[72.7959,19.1488],[72.7905,19.2605],[72.8362,19.3016],[72.9155,19.2925],[72.8624,19.3383],[72.8042,19.3511],[72.7683,19.3972],[72.7274,19.565],[72.7257,19.5998],[72.745,19.6032],[72.7278,19.6121],[72.7032,19.7298],[72.7151,19.7462],[72.701,19.742],[72.6908,19.7899],[72.706,19.8088],[72.6877,19.8041],[72.6779,19.8451],[72.7014,19.9371],[72.7354,19.9534],[72.7607,19.9239],[72.7396,19.9556],[72.7215,20.0478],[72.7513,20.1989],[72.7796,20.2081],[72.7522,20.2049],[72.7563,20.2948],[72.7823,20.3424],[72.8173,20.3634],[72.8253,20.4409],[72.8872,20.5054],[72.8755,20.5207],[72.8947,20.5298],[72.8825,20.546],[72.8925,20.5852],[72.8732,20.6438],[72.9029,20.5965],[72.8863,20.6377],[72.9016,20.6431],[72.8967,20.7025],[72.9089,20.7118],[72.891,20.721],[72.9225,20.755],[72.953,20.7592],[72.9394,20.777],[72.9187,20.7689],[72.9205,20.7892],[72.878,20.7947],[72.8961,20.8129],[72.8742,20.8278],[72.8945,20.8667],[72.826,20.83],[72.8549,20.8594],[72.8242,20.8832],[72.8352,20.9066],[72.8491,20.9042],[72.824,20.9215],[72.8826,20.9549],[72.8766,20.9728],[72.8934,20.9848],[72.8327,20.9728],[72.8374,20.9867],[72.8052,20.9869],[72.827,21.014],[72.765,21.0038],[72.7424,20.9795],[72.764,20.9279],[72.7512,20.9397],[72.7225,21.0278],[72.7213,21.057],[72.7458,21.0279],[72.7864,21.0463],[72.807,21.0247],[72.8569,21.0389],[72.8419,21.0534],[72.8553,21.0673],[72.8322,21.0546],[72.8386,21.0696],[72.8226,21.0884],[72.8436,21.1114],[72.8179,21.0979],[72.8304,21.1147],[72.8082,21.1301],[72.8316,21.1672],[72.8081,21.1533],[72.8019,21.1242],[72.7902,21.1444],[72.7877,21.11],[72.7637,21.1227],[72.7572,21.1045],[72.7456,21.1275],[72.7185,21.1023],[72.7294,21.0776],[72.7021,21.0929],[72.7042,21.134],[72.7278,21.144],[72.7056,21.1614],[72.6691,21.1556],[72.6471,21.0848],[72.6254,21.0903],[72.6173,21.1381],[72.6309,21.1283],[72.6467,21.1489],[72.63,21.1334],[72.6223,21.1441],[72.6179,21.2071],[72.6819,21.2197],[72.6435,21.2497],[72.6298,21.2411],[72.6502,21.2826],[72.6207,21.293],[72.6196,21.3109],[72.656,21.3191],[72.6708,21.3425],[72.7367,21.3242],[72.6963,21.3548],[72.7011,21.3728],[72.675,21.3486],[72.6647,21.3689],[72.653,21.3495],[72.6462,21.3618],[72.6943,21.4655],[72.6696,21.4456],[72.6379,21.4508],[72.7386,21.5639],[72.8134,21.61],[72.8355,21.6638],[72.919,21.6477],[73.0366,21.7003],[73.0952,21.7066],[73.1093,21.7269],[73.0681,21.7342],[72.9402,21.6747],[72.8736,21.6883],[72.7814,21.66],[72.738,21.6862],[72.5396,21.6592],[72.5308,21.7193],[72.5459,21.6942],[72.5767,21.7063],[72.5619,21.7192],[72.5657,21.7327],[72.5998,21.7156],[72.5853,21.7282],[72.6034,21.7569],[72.5985,21.7937],[72.6403,21.8188],[72.655,21.8922],[72.675,21.8871],[72.6787,21.912],[72.6874,21.8861],[72.7223,21.8841],[72.717,21.93],[72.7788,21.9527],[72.7458,21.9874],[72.7717,22.0012],[72.7753,22.017],[72.7343,21.9912],[72.7202,22.0212],[72.7185,21.9947],[72.7072,21.9796],[72.6932,21.9851],[72.7009,21.9733],[72.6862,21.9645],[72.6719,21.9749],[72.6703,21.9621],[72.6473,21.9609],[72.6492,21.9869],[72.6364,22.0029],[72.6403,21.955],[72.6283,21.9707],[72.6327,21.9538],[72.5465,21.9017],[72.5264,21.9054],[72.5049,21.9401],[72.5363,22.126],[72.5754,22.1955],[72.6309,22.2166],[72.7408,22.1759],[72.7673,22.1923],[72.7579,22.2166],[72.7119,22.2444],[72.628,22.2545],[72.613,22.2677],[72.6495,22.2644],[72.6317,22.2756],[72.5829,22.2664],[72.6254,22.2812],[72.5689,22.2926],[72.5667,22.3917],[72.6106,22.4064],[72.769,22.3987],[73.74,22.4557],[74.3996,22.5218],[78.0256,23.1071],[79.2884,23.333],[79.9347,23.4769],[80.2934,23.5883],[81.0505,23.8852],[81.3757,23.9797],[81.875,24.0507],[82.3259,24.0631],[82.9532,23.9909],[83.7544,23.926],[84.2096,23.8595],[84.6276,23.7697],[84.9472,23.6354],[85.9829,22.9835],[86.1226,22.88],[86.2303,22.7766],[86.3306,22.6423],[86.4204,22.4826],[86.5972,22.0205],[86.6219,21.8837],[86.6066,21.839]]]}}