{"type":"Feature","properties":{"speciesId":892,"category":"LC","source":"IUCN Red List","simplifyTol":0.01,"clippedToSubcontinent":true},"geometry":{"type":"Polygon","coordinates":[[[87.6696,26.8784],[87.472,26.834],[87.3291,26.8333],[87.1597,26.8829],[86.9894,26.9779],[86.9098,27.0581],[86.8655,27.164],[86.8337,27.3825],[86.8605,27.4815],[86.9148,27.5316],[87.1097,27.6164],[87.3485,27.7588],[87.4568,27.7901],[87.5314,27.7715],[87.5623,27.7283],[87.4773,27.5869],[87.5013,27.52],[87.5466,27.5377],[87.6264,27.6068],[87.6967,27.6231],[87.7928,27.5987],[88.1831,27.5863],[88.2058,27.5557],[88.2424,27.5454],[88.7514,27.5403],[88.7725,27.5157],[88.7737,27.4497],[88.8132,27.3734],[88.8605,27.3479],[88.8982,27.3033],[88.9738,27.2741],[88.9985,27.3011],[88.9624,27.3736],[88.984,27.4794],[89.0091,27.505],[89.1386,27.5503],[90.0069,27.5345],[90.6097,27.5563],[91.1157,27.6235],[91.3781,27.6368],[92.2365,27.7377],[92.3318,27.7301],[92.4292,27.6767],[92.5158,27.561],[92.5398,27.4757],[92.5287,27.3097],[92.4728,27.1645],[92.3363,27.1145],[92.1477,27.0863],[91.9848,27.0751],[91.7718,27.0922],[91.3247,27.0358],[91.0157,27.0226],[90.7635,26.9929],[90.3705,27.0026],[89.7036,26.9481],[89.1281,26.9739],[88.7694,27.028],[88.5831,26.9852],[88.0365,26.9804],[87.852,26.9409],[87.6696,26.8784]]]}}