{"type":"Feature","properties":{"speciesId":893,"category":"VU","source":"IUCN Red List","simplifyTol":0.01,"clippedToSubcontinent":true},"geometry":{"type":"Polygon","coordinates":[[[95.4267,28.2814],[95.3983,28.2228],[95.3538,28.2528],[95.3256,28.2048],[95.2626,28.1744],[95.2423,28.0878],[95.203,28.0566],[95.0461,28.0187],[94.9315,28.0251],[94.7402,27.8741],[94.6489,27.8377],[94.5031,27.8186],[94.2431,27.6903],[94.1023,27.5686],[93.925,27.5252],[93.8734,27.5774],[93.8686,27.6454],[93.9632,27.6361],[93.9984,27.7107],[94.1028,27.7117],[94.1998,27.7684],[94.4112,27.8194],[94.4553,27.8496],[94.5174,27.9404],[94.6122,27.8868],[94.7218,27.9179],[94.7489,27.9473],[94.7641,28.0404],[94.8758,28.0308],[94.9111,28.1241],[94.9498,28.1718],[95.0872,28.2301],[95.1097,28.3792],[95.1738,28.4455],[95.2835,28.5236],[95.39,28.542],[95.6009,28.4685],[95.5081,28.5579],[95.4046,28.6281],[95.3947,28.6591],[95.4087,28.7071],[95.436,28.706],[95.5521,28.6117],[95.6285,28.5954],[95.6967,28.6008],[95.5761,28.6868],[95.5617,28.7549],[95.5869,28.8196],[95.6072,28.8294],[95.6447,28.7511],[95.676,28.7948],[95.6923,28.7923],[95.7643,28.6597],[95.7637,28.7645],[95.8093,28.8919],[95.8365,28.9076],[95.8915,28.8779],[95.9474,28.7982],[95.8623,28.7268],[95.8628,28.5953],[95.7307,28.6209],[95.7851,28.54],[95.776,28.525],[95.5974,28.5504],[95.8188,28.4671],[95.8138,28.4541],[95.6907,28.4389],[95.7982,28.4085],[95.6095,28.3991],[95.7515,28.3585],[95.6876,28.3209],[95.6015,28.3018],[95.5717,28.315],[95.5327,28.4059],[95.4434,28.3973],[95.3724,28.4193],[95.4578,28.3443],[95.4935,28.2733],[95.4782,28.2507],[95.4267,28.2814]]]}}