{"type":"Feature","properties":{"speciesId":894,"category":"LC","source":"IUCN Red List","simplifyTol":0.01,"clippedToSubcontinent":true},"geometry":{"type":"MultiPolygon","coordinates":[[[[91.4092,25.6606],[91.8006,25.663],[92.2704,25.5847],[92.3943,25.5279],[92.4679,25.4672],[92.5305,25.349],[92.535,25.2525],[92.4639,25.1694],[92.3701,25.1482],[92.284,25.1597],[92.1378,25.2266],[92.0151,25.2462],[91.08,25.2467],[90.7513,25.2579],[90.6267,25.2762],[90.3231,25.3722],[90.192,25.4629],[90.1365,25.5301],[90.105,25.5985],[90.0866,25.8092],[90.1085,25.8638],[90.1757,25.8986],[90.2742,25.9213],[90.406,25.9206],[90.5805,25.8781],[91.1494,25.6853],[91.4092,25.6606]]],[[[81.2445,29.9067],[81.3549,29.9197],[81.4935,29.8525],[81.7538,29.7865],[82.0013,29.6252],[82.1927,29.5301],[83.6062,28.991],[83.8551,28.8675],[84.5267,28.4677],[84.9354,28.28],[85.4737,28.1354],[86.2531,27.8868],[86.6868,27.7971],[87.001,27.7001],[87.1061,27.6887],[87.2352,27.7037],[87.8668,27.5434],[88.4768,27.3246],[88.6123,27.3133],[88.7069,27.3491],[88.7705,27.4433],[88.8088,27.5789],[88.8694,27.6119],[88.8877,27.6507],[88.9285,27.68],[89.4151,27.7725],[90.3511,27.7975],[90.7716,27.8234],[91.2881,27.7783],[91.4709,27.7894],[91.5269,27.776],[91.5827,27.7331],[91.6031,27.6959],[91.6024,27.6454],[91.5687,27.5899],[91.3493,27.5311],[91.1624,27.5493],[91.0157,27.5346],[90.8574,27.5468],[90.5224,27.5138],[90.4181,27.5232],[90.1508,27.595],[89.4779,27.6577],[89.2849,27.6415],[89.1417,27.593],[89.0264,27.4992],[88.967,27.4284],[88.9265,27.2965],[88.7036,26.9803],[88.5919,26.911],[88.5259,26.836],[88.4561,26.7889],[88.3615,26.7563],[88.2426,26.7413],[87.4628,26.7384],[87.1298,26.7614],[86.8411,26.8149],[86.2363,27.0037],[85.1559,27.3727],[84.1326,27.589],[83.2747,27.8196],[82.9433,27.9411],[82.6067,28.0984],[82.1155,28.3483],[81.6573,28.6338],[81.5306,28.6744],[81.3142,28.6868],[81.1586,28.7296],[80.6879,28.9726],[79.6156,29.4308],[78.8662,29.8298],[78.2286,30.2407],[77.8957,30.4864],[77.6323,30.7108],[76.9672,31.3729],[76.7807,31.5878],[76.6022,31.8769],[76.5067,32.1057],[76.4524,32.3706],[76.4636,32.4525],[76.505,32.5513],[76.5656,32.6327],[76.6359,32.679],[76.8,32.7211],[76.9319,32.7348],[77.0723,32.7296],[77.2159,32.7027],[77.3735,32.6506],[77.5158,32.5831],[77.6818,32.4739],[77.8176,32.3532],[78.3026,31.7408],[78.5366,31.4796],[78.7942,31.2467],[79.0992,31.0122],[79.5444,30.7244],[80.5495,30.1827],[81.1244,29.9341],[81.2445,29.9067]]]]}}