{"type":"Feature","properties":{"speciesId":895,"category":"LC","source":"IUCN Red List","simplifyTol":0.01,"clippedToSubcontinent":true},"geometry":{"type":"MultiPolygon","coordinates":[[[[88.8667,27.2309],[88.8648,27.0582],[88.8404,27.0084],[88.7684,27.0004],[88.7481,26.979],[88.6475,26.9918],[88.634,27.022],[88.6415,27.067],[88.7237,27.2161],[88.7963,27.2203],[88.7325,27.1363],[88.7497,27.1049],[88.7657,27.1682],[88.8094,27.2264],[88.8667,27.2309]]],[[[95.8297,28.9904],[95.8534,28.9282],[95.8681,28.9575],[95.8839,28.958],[95.8936,28.9364],[95.8778,28.9043],[95.9074,28.8522],[95.912,28.8896],[95.9464,28.8875],[95.9302,28.9054],[95.9551,28.9672],[95.9982,28.9567],[95.9959,28.9192],[96.0119,28.8947],[96.0428,28.9035],[96.0698,28.9378],[96.0842,28.9335],[96.0727,28.8876],[96.0229,28.8348],[96.0284,28.7956],[95.9303,28.7204],[95.9395,28.6905],[95.9904,28.7441],[96.0554,28.7259],[96.0574,28.7478],[96.084,28.7595],[96.1062,28.7578],[96.1357,28.7184],[96.2022,28.7717],[96.2163,28.8064],[96.2815,28.8164],[96.3212,28.8539],[96.3512,28.8137],[96.4104,28.8075],[96.3875,28.7798],[96.2844,28.7648],[96.2139,28.689],[96.3232,28.6776],[96.3483,28.6484],[96.3397,28.6363],[96.2691,28.6373],[96.2776,28.5875],[96.1795,28.6307],[96.1875,28.6049],[96.1484,28.5829],[96.1114,28.6199],[96.0774,28.622],[96.0867,28.5697],[96.0737,28.5451],[95.9948,28.5705],[95.9271,28.5674],[95.9718,28.5366],[95.9746,28.4647],[96.0105,28.4723],[96.0715,28.4408],[96.0826,28.4027],[96.1274,28.4172],[96.1496,28.4085],[96.1546,28.4372],[96.1866,28.4525],[96.1668,28.4841],[96.2107,28.4682],[96.2317,28.4776],[96.2692,28.4447],[96.2338,28.3987],[96.2661,28.3669],[96.2647,28.329],[96.299,28.3171],[96.3593,28.3263],[96.3667,28.2937],[96.4026,28.2787],[96.4649,28.3247],[96.5089,28.3225],[96.4587,28.3529],[96.4567,28.4143],[96.4715,28.4238],[96.5017,28.3902],[96.5348,28.3804],[96.5426,28.494],[96.5693,28.5418],[96.5886,28.512],[96.5926,28.4394],[96.6148,28.4102],[96.6438,28.4061],[96.7163,28.451],[96.7323,28.4437],[96.6847,28.3844],[96.7217,28.3617],[96.6813,28.3514],[96.7323,28.3121],[96.6493,28.3294],[96.6591,28.2727],[96.6179,28.2846],[96.6156,28.246],[96.5855,28.2363],[96.6371,28.2218],[96.737,28.2615],[96.7442,28.2364],[96.7698,28.2371],[96.7968,28.2155],[96.7497,28.2053],[96.7769,28.1856],[96.8958,28.1847],[96.9494,28.1998],[96.9482,28.2725],[96.877,28.3337],[96.9584,28.3482],[96.9919,28.4271],[96.929,28.4892],[96.9002,28.56],[96.8574,28.5906],[96.8583,28.6214],[96.8247,28.6578],[96.9467,28.6039],[96.9874,28.6057],[97.0331,28.6425],[97.147,28.7895],[97.2407,28.832],[97.6956,28.8565],[97.8473,28.843],[98.0,28.8088],[98.0,28.4856],[97.8326,28.5932],[97.7556,28.6091],[97.684,28.5997],[97.191,28.3812],[97.0973,28.3087],[97.0006,28.1841],[96.9471,28.1609],[96.6534,28.1929],[96.2037,28.3403],[95.9882,28.3662],[95.7737,28.3218],[95.6818,28.3177],[95.5779,28.2697],[95.5034,28.3305],[95.5486,28.2629],[95.5356,28.23],[95.4763,28.2103],[95.4409,28.2175],[95.2826,28.15],[95.2317,28.1824],[95.225,28.2408],[95.1956,28.2965],[95.24,28.4038],[95.2128,28.4708],[95.2296,28.3948],[95.1671,28.2971],[95.2053,28.1963],[95.1539,28.1548],[95.1133,28.1487],[95.0416,28.1766],[95.0256,28.2417],[94.9864,28.2913],[95.0055,28.3167],[95.0296,28.307],[95.0682,28.3461],[95.0979,28.4078],[95.1083,28.4859],[95.0834,28.5647],[95.0179,28.6737],[94.9499,28.7397],[94.8811,28.7656],[94.9585,28.7149],[94.9739,28.6717],[95.0607,28.5638],[95.0887,28.4733],[95.0633,28.3757],[94.9759,28.3229],[94.8935,28.433],[94.9474,28.3481],[94.9513,28.2953],[94.9797,28.2645],[94.9767,28.2439],[94.8569,28.2385],[94.8513,28.2589],[94.8775,28.3023],[94.8143,28.3206],[94.7806,28.3073],[94.8494,28.3055],[94.8267,28.2544],[94.8058,28.2491],[94.7946,28.225],[94.7606,28.2408],[94.764,28.2056],[94.7176,28.2086],[94.7024,28.271],[94.7117,28.3106],[94.6912,28.3347],[94.7002,28.4046],[94.6653,28.4788],[94.6726,28.3256],[94.6417,28.2973],[94.6389,28.2373],[94.6008,28.2223],[94.5945,28.2029],[94.6381,28.1952],[94.6693,28.2302],[94.6842,28.2282],[94.6946,28.1925],[94.6489,28.1396],[94.678,28.0986],[94.7059,28.159],[94.741,28.1727],[94.7624,28.1639],[94.7978,28.1051],[94.742,28.0756],[94.7429,28.0483],[94.7689,28.0662],[94.8295,28.067],[94.8517,28.1019],[94.856,28.1617],[94.9198,28.2284],[94.9726,28.2266],[94.9974,28.2099],[95.0174,28.1776],[95.0138,28.122],[95.0405,28.1456],[95.1161,28.1184],[95.2011,28.1517],[95.2418,28.1379],[94.7249,27.9876],[94.6676,27.9886],[94.3383,27.8623],[94.3481,27.9346],[94.3209,27.9877],[94.3272,28.0459],[94.2941,28.0004],[94.2152,28.0167],[94.1859,28.0797],[94.1571,28.0871],[94.1669,28.1861],[94.1528,28.2365],[94.0213,28.3743],[93.9095,28.3788],[93.9004,28.3717],[94.0303,28.338],[94.1004,28.2365],[94.1382,28.2157],[94.1371,28.0753],[94.072,28.0407],[94.1773,28.0324],[94.1983,27.9949],[94.1651,27.9394],[94.2261,27.9623],[94.2692,27.9564],[94.271,27.9209],[94.311,27.8876],[94.267,27.867],[94.2837,27.8425],[94.0714,27.7616],[94.032,27.7674],[93.9621,27.804],[93.9515,27.875],[93.8394,27.9944],[93.6623,28.0413],[93.6432,28.0263],[93.5122,28.0068],[93.4391,28.0674],[93.3687,28.0926],[93.451,28.0414],[93.5015,27.9843],[93.6769,28.0143],[93.8381,27.9645],[93.8884,27.8982],[93.8714,27.8543],[93.9306,27.8557],[93.8518,27.7851],[93.9383,27.7966],[93.9939,27.7413],[93.3934,27.4879],[93.3646,27.5049],[93.3474,27.6059],[93.4284,27.627],[93.3235,27.6418],[93.2706,27.6096],[93.2355,27.6155],[93.2128,27.6],[93.3124,27.554],[93.2969,27.5298],[93.2681,27.5226],[93.3062,27.5054],[93.3148,27.4578],[93.0632,27.3664],[93.0636,27.3952],[93.0277,27.3983],[93.0209,27.4949],[92.9785,27.5565],[93.0502,27.612],[93.0452,27.6403],[92.9717,27.5666],[92.9647,27.5356],[92.8845,27.5337],[92.9978,27.4916],[93.0042,27.4609],[92.9842,27.3988],[93.0247,27.3535],[92.8508,27.307],[92.8231,27.3324],[92.8196,27.3884],[92.8048,27.3417],[92.8361,27.2948],[92.7594,27.3175],[92.6727,27.2758],[92.7778,27.3008],[92.8061,27.2865],[92.0143,27.1044],[92.0407,27.2344],[92.0606,27.2012],[92.0882,27.2256],[92.1383,27.184],[92.2054,27.2068],[92.1546,27.2201],[92.1316,27.2616],[92.1357,27.2848],[92.2483,27.2639],[92.2843,27.2668],[92.306,27.2869],[92.3519,27.2617],[92.4017,27.2678],[92.3019,27.292],[92.2602,27.2814],[92.2057,27.2976],[92.1824,27.3554],[92.1656,27.35],[92.0735,27.3896],[92.1015,27.4277],[92.0744,27.462],[92.1274,27.4638],[92.1587,27.4437],[92.2032,27.5267],[92.2548,27.4977],[92.2564,27.4523],[92.2981,27.5106],[92.3112,27.5695],[92.3412,27.5417],[92.3488,27.4869],[92.3804,27.4833],[92.3633,27.4305],[92.4002,27.4344],[92.4027,27.5382],[92.4336,27.5457],[92.4657,27.4968],[92.4685,27.5823],[92.5002,27.6235],[92.5362,27.5951],[92.5282,27.5711],[92.5649,27.5679],[92.5877,27.5932],[92.6009,27.5516],[92.6264,27.536],[92.5964,27.4598],[92.661,27.5095],[92.6691,27.5534],[92.6289,27.5552],[92.6217,27.5965],[92.5497,27.6352],[92.5502,27.6624],[92.6055,27.6822],[92.5488,27.7074],[92.5478,27.7712],[92.5797,27.7781],[92.5973,27.7381],[92.6267,27.7295],[92.618,27.7661],[92.6976,27.7842],[92.7105,27.7538],[92.7629,27.7194],[92.8451,27.6975],[92.8745,27.7006],[92.867,27.7278],[92.7891,27.7267],[92.7524,27.7868],[92.7553,27.8029],[92.7872,27.8141],[92.7822,27.8362],[92.8123,27.8453],[92.8876,27.8321],[92.8889,27.8696],[92.9164,27.8811],[92.9311,27.8453],[92.9767,27.821],[92.9835,27.796],[93.0316,27.8255],[93.0761,27.8233],[93.0795,27.7973],[93.1283,27.8187],[93.1712,27.8168],[93.2223,27.8809],[93.1836,27.8684],[93.157,27.8349],[93.1221,27.8549],[93.108,27.8365],[93.0019,27.8317],[92.9664,27.8387],[92.9492,27.8897],[93.0177,27.8989],[93.0158,27.921],[93.246,28.031],[93.3383,27.9566],[93.3983,27.9671],[93.3356,27.9693],[93.2587,28.0362],[93.7161,28.2892],[93.7353,28.2706],[93.7362,28.2348],[93.7461,28.256],[93.8447,28.232],[93.8754,28.2492],[93.908,28.2427],[93.9466,28.2685],[93.9752,28.2523],[93.9766,28.2797],[93.8258,28.2583],[93.8256,28.2723],[93.7604,28.3046],[93.777,28.3226],[94.0965,28.4681],[94.1212,28.4612],[94.1023,28.4224],[94.1327,28.4289],[94.1539,28.4084],[94.1343,28.3647],[94.1514,28.3417],[94.1914,28.4103],[94.2178,28.3941],[94.276,28.4194],[94.2927,28.4114],[94.2896,28.3881],[94.2456,28.3047],[94.2698,28.3418],[94.2927,28.3463],[94.318,28.3226],[94.3379,28.3346],[94.3791,28.3233],[94.3652,28.2881],[94.3439,28.2762],[94.385,28.2693],[94.3596,28.2413],[94.3558,28.2036],[94.3101,28.2163],[94.3359,28.1877],[94.3647,28.1851],[94.3927,28.2488],[94.4227,28.2465],[94.4595,28.2154],[94.4429,28.2555],[94.4028,28.2681],[94.3916,28.2973],[94.4451,28.3368],[94.4247,28.3602],[94.4531,28.3768],[94.4578,28.4049],[94.5039,28.4073],[94.5244,28.4417],[94.5214,28.4716],[94.4977,28.4104],[94.4395,28.4537],[94.4191,28.3924],[94.3978,28.3829],[94.3333,28.4154],[94.3334,28.442],[94.3616,28.4401],[94.3663,28.4587],[94.3448,28.47],[94.3389,28.5006],[94.261,28.4763],[94.2361,28.5146],[94.2223,28.4694],[94.2019,28.4591],[94.1957,28.489],[94.1655,28.4653],[94.1337,28.4843],[94.4415,28.6155],[94.442,28.5594],[94.4648,28.5824],[94.4928,28.57],[94.5064,28.598],[94.5557,28.6214],[94.5179,28.6452],[94.5442,28.6616],[94.911,28.8198],[95.1866,28.9174],[95.1887,28.8823],[95.2346,28.8878],[95.2501,28.84],[95.3159,28.8115],[95.3476,28.7372],[95.2154,28.7392],[95.1852,28.7575],[95.1594,28.7518],[95.1393,28.7825],[95.0951,28.7677],[95.0051,28.8285],[95.0041,28.8115],[95.0457,28.7935],[95.0303,28.7751],[95.0363,28.7477],[95.1039,28.752],[95.1322,28.7357],[95.1166,28.7091],[95.1645,28.6964],[95.1919,28.6254],[95.178,28.6744],[95.2007,28.7136],[95.2205,28.6942],[95.2552,28.7057],[95.268,28.6602],[95.285,28.6873],[95.311,28.6912],[95.3511,28.6485],[95.336,28.6275],[95.3531,28.6205],[95.3633,28.583],[95.3253,28.5418],[95.3745,28.5531],[95.3966,28.5272],[95.3384,28.4771],[95.3771,28.4816],[95.4112,28.5297],[95.4368,28.5258],[95.4486,28.5428],[95.5238,28.5148],[95.5374,28.4906],[95.5649,28.4993],[95.5947,28.476],[95.578,28.4992],[95.539,28.5081],[95.5304,28.5271],[95.4366,28.579],[95.4397,28.5972],[95.4047,28.6215],[95.4089,28.6443],[95.3823,28.6769],[95.3959,28.707],[95.4204,28.7053],[95.5978,28.6041],[95.6414,28.6172],[95.6842,28.5935],[95.5979,28.6539],[95.5931,28.6892],[95.5492,28.6928],[95.5416,28.7177],[95.5143,28.7148],[95.5205,28.746],[95.4635,28.749],[95.4524,28.7575],[95.4676,28.7758],[95.4227,28.7894],[95.4089,28.8233],[95.4499,28.8051],[95.4656,28.8333],[95.4457,28.8508],[95.4528,28.8834],[95.4052,28.9066],[95.4332,28.921],[95.4236,28.9714],[95.46,28.9811],[95.4903,28.9468],[95.5266,28.939],[95.5088,28.9279],[95.5278,28.9113],[95.509,28.8976],[95.5274,28.8642],[95.5136,28.8481],[95.5225,28.805],[95.5404,28.8],[95.533,28.8439],[95.5612,28.893],[95.5956,28.8895],[95.5824,28.8446],[95.6084,28.8659],[95.647,28.8572],[95.6405,28.8232],[95.6061,28.8007],[95.5958,28.7691],[95.6242,28.7873],[95.6413,28.7461],[95.6565,28.8036],[95.6845,28.8176],[95.7022,28.7556],[95.6723,28.7177],[95.7026,28.7003],[95.7357,28.7598],[95.7481,28.6637],[95.789,28.656],[95.7689,28.6791],[95.7701,28.7134],[95.7932,28.7364],[95.8171,28.7368],[95.7859,28.7521],[95.7957,28.7719],[95.75,28.793],[95.7423,28.8169],[95.7486,28.8328],[95.7846,28.8302],[95.662,28.8979],[95.6744,28.9333],[95.6624,28.9559],[95.6787,28.971],[95.7121,28.9483],[95.7207,28.9657],[95.7405,28.9575],[95.7271,28.9818],[95.6983,28.9824],[95.6881,28.9994],[95.8297,28.9904]],[[97.0656,28.373],[97.0649,28.373],[97.0652,28.3705],[97.0656,28.373]],[[97.0172,28.5721],[97.0366,28.5427],[97.0528,28.5348],[97.0567,28.5552],[97.0172,28.5721]]]]}}