{"type":"Feature","properties":{"speciesId":896,"category":"DD","source":"IUCN Red List","simplifyTol":0.01,"clippedToSubcontinent":true},"geometry":{"type":"MultiPolygon","coordinates":[[[[89.0694,27.5192],[89.0829,27.5043],[89.0681,27.4908],[89.0545,27.5056],[89.0694,27.5192]]],[[[91.8052,27.6259],[91.8196,27.6702],[91.8808,27.7455],[92.0958,27.8658],[92.316,28.0428],[92.3949,28.0536],[92.4583,28.0053],[92.4716,27.9393],[92.4414,27.8787],[92.0495,27.6042],[91.9626,27.565],[91.8826,27.5523],[91.8318,27.577],[91.8052,27.6259]]]]}}