{"type":"Feature","properties":{"speciesId":897,"category":"LC","source":"IUCN Red List","simplifyTol":0.01,"clippedToSubcontinent":true},"geometry":{"type":"MultiPolygon","coordinates":[[[[87.9002,27.0575],[87.9418,26.9887],[87.9658,26.9001],[87.9465,26.8776],[87.8818,26.8664],[87.7057,26.9393],[87.2845,27.0479],[87.1081,27.0586],[86.8731,27.0169],[86.7691,27.0324],[86.687,27.0749],[86.6677,27.1753],[86.6945,27.234],[86.7826,27.2718],[87.0325,27.3094],[87.2069,27.3072],[87.4209,27.27],[87.7167,27.1844],[87.8252,27.1314],[87.9002,27.0575]]],[[[89.5673,27.4028],[89.5398,27.4321],[89.5691,27.4596],[89.5967,27.4303],[89.5673,27.4028]]],[[[82.7951,29.0692],[82.8789,28.9965],[82.9133,28.9177],[82.9238,28.5543],[82.9711,28.2657],[82.9875,28.0248],[82.9773,27.9747],[82.9363,27.922],[82.8664,27.8721],[82.809,27.8558],[82.5505,27.8904],[82.3756,27.9417],[81.4565,28.4973],[80.8649,28.793],[80.3974,28.9697],[79.6459,29.5275],[79.503,29.6028],[79.2171,29.7065],[79.0613,29.7942],[78.9951,29.8954],[78.9674,30.0116],[78.9679,30.0756],[79.0127,30.1315],[79.1852,30.2294],[79.3039,30.36],[79.4046,30.4352],[79.5013,30.4746],[79.6058,30.4658],[80.5184,30.1369],[80.687,30.0494],[80.9079,29.8915],[81.735,29.573],[82.0795,29.3638],[82.4418,29.2028],[82.7951,29.0692]]]]}}