{"type":"Feature","properties":{"speciesId":898,"category":"NT","source":"IUCN Red List","simplifyTol":0.01,"clippedToSubcontinent":true},"geometry":{"type":"MultiPolygon","coordinates":[[[[93.0117,26.9763],[93.0288,26.9576],[93.0102,26.9407],[92.9931,26.959],[93.0117,26.9763]]],[[[88.6703,27.3943],[88.4267,27.1835],[88.2074,27.055],[88.1348,27.0269],[88.1177,27.0354],[88.1234,27.0726],[88.094,27.0553],[88.051,27.0657],[88.0842,27.1072],[88.0586,27.123],[88.0834,27.1665],[88.1231,27.1623],[88.1376,27.2086],[88.1822,27.2031],[88.1755,27.2156],[88.1001,27.2194],[88.0946,27.2542],[88.0709,27.2682],[88.0798,27.3014],[88.1066,27.3011],[88.1201,27.2818],[88.1597,27.2938],[88.117,27.3615],[88.1689,27.3376],[88.1653,27.3516],[88.2006,27.3919],[88.1969,27.4164],[88.265,27.3781],[88.2642,27.4237],[88.321,27.4283],[88.3687,27.4548],[88.3808,27.39],[88.3684,27.3459],[88.3941,27.3245],[88.4239,27.3549],[88.4209,27.4051],[88.4775,27.4109],[88.4661,27.4476],[88.4332,27.4802],[88.4681,27.515],[88.4088,27.5069],[88.4189,27.5442],[88.3401,27.5821],[88.336,27.625],[88.4312,27.606],[88.4624,27.6161],[88.4698,27.5838],[88.5968,27.5508],[88.6301,27.5598],[88.6407,27.5817],[88.6001,27.6625],[88.6426,27.6161],[88.7008,27.6308],[88.6639,27.6008],[88.6769,27.5344],[88.5684,27.497],[88.5582,27.4315],[88.6287,27.4631],[88.685,27.4501],[88.6613,27.4187],[88.6703,27.3943]]]]}}