{"type":"Feature","properties":{"speciesId":899,"category":"LC","source":"IUCN Red List","simplifyTol":0.01,"clippedToSubcontinent":true},"geometry":{"type":"Polygon","coordinates":[[[82.1581,28.9578],[81.9115,29.0281],[81.3132,29.1094],[81.032,29.1771],[80.5622,29.367],[79.9662,29.6413],[79.3876,29.9431],[78.871,30.2539],[78.2027,30.7076],[77.4594,31.2503],[76.2504,32.2062],[76.0546,32.3954],[75.8516,32.645],[75.6989,32.9321],[75.6031,33.2487],[75.5459,33.7075],[75.5694,33.8309],[75.6271,33.9404],[75.7017,34.0112],[75.8134,34.0739],[75.9377,34.118],[76.0643,34.1359],[76.5577,34.1016],[76.7038,34.0637],[76.8097,34.0069],[76.9256,33.8961],[77.1329,33.632],[77.5427,32.9307],[77.6721,32.7468],[78.6449,31.7099],[78.7274,31.5765],[78.8416,31.2858],[78.923,31.1762],[79.0096,31.1104],[79.1268,31.0509],[79.6967,30.8475],[79.9697,30.6934],[80.2377,30.5025],[80.5612,30.3816],[80.9253,30.0996],[81.0938,29.9375],[81.2144,29.911],[81.2927,29.9299],[81.2824,30.0919],[81.2963,30.1718],[81.3489,30.3112],[81.4051,30.3806],[81.539,30.4232],[81.794,30.4295],[81.9823,30.2628],[82.3928,30.0103],[82.7107,29.7762],[82.816,29.723],[83.0368,29.6605],[83.1261,29.6179],[83.3354,29.4164],[83.4139,29.36],[83.6303,29.2775],[83.9265,29.2677],[84.1443,29.2065],[84.2284,29.1484],[84.3979,28.9425],[84.7151,28.7134],[84.8032,28.6808],[84.9792,28.6793],[85.0485,28.6629],[85.3283,28.4337],[85.6846,28.3106],[85.8844,28.1756],[85.9279,28.1719],[86.0094,28.1997],[86.0689,28.1901],[86.1862,28.0748],[86.7841,28.1059],[87.2549,27.9115],[87.4112,27.8792],[87.5875,27.8704],[87.95,27.9135],[88.4936,28.0972],[88.667,28.1148],[88.7407,28.0802],[88.8047,28.0005],[88.8175,27.955],[88.8049,27.833],[88.8529,27.762],[88.9025,27.7342],[88.9953,27.7437],[89.0678,27.6979],[89.1304,27.6847],[89.235,27.6971],[89.3771,27.7446],[89.7687,28.0119],[89.8584,28.0488],[89.9602,28.0622],[90.349,28.0668],[90.695,28.0319],[91.0358,28.0332],[91.2853,27.9762],[91.7859,27.8158],[91.9229,27.7974],[92.0818,27.8031],[92.286,27.8451],[92.476,27.9243],[92.6086,28.0275],[92.8679,28.3093],[92.9989,28.4154],[93.4502,28.6519],[93.9389,28.8351],[94.3545,29.1526],[94.5149,29.2364],[94.6637,29.2787],[94.8079,29.2595],[94.9017,29.1681],[94.946,29.0355],[94.9083,28.8018],[94.8594,28.633],[94.6404,28.2184],[94.267,27.833],[93.6532,27.0572],[93.5205,26.9555],[93.3308,26.8788],[93.209,26.8542],[93.0606,26.8528],[92.6939,26.8931],[92.5295,26.8954],[91.9511,26.8041],[91.4515,26.7552],[91.034,26.6948],[90.468,26.6585],[90.0133,26.6857],[89.3589,26.7943],[89.0411,26.8851],[88.7794,27.0141],[88.7122,27.0284],[88.0243,26.9376],[87.5451,26.818],[87.2824,26.8128],[87.0056,26.8457],[86.7459,26.9184],[86.1663,27.1294],[85.9359,27.2486],[85.4439,27.5666],[84.8655,27.7922],[84.7058,27.8334],[84.3672,27.8492],[84.1744,27.8401],[83.9335,27.7953],[83.4995,27.6331],[83.3885,27.6257],[83.2115,27.6546],[83.1012,27.7105],[83.0221,27.8312],[82.9975,27.9914],[82.9895,28.2945],[82.9694,28.3646],[82.9258,28.4328],[82.7445,28.6139],[82.5984,28.7281],[82.3967,28.8481],[82.1581,28.9578]]]}}