{"type":"Feature","properties":{"speciesId":902,"category":"LC","source":"IUCN Red List","simplifyTol":0.01,"clippedToSubcontinent":true},"geometry":{"type":"Polygon","coordinates":[[[91.9662,27.7296],[91.7312,27.9326],[91.6335,27.9842],[91.5394,28.0083],[91.4083,28.0006],[91.1082,27.925],[90.7995,27.8941],[90.5599,27.8852],[90.3975,27.9094],[90.3178,27.9511],[90.2752,28.0132],[90.281,28.2586],[90.246,28.2875],[90.1832,28.2976],[89.8419,28.2319],[89.7051,28.1587],[89.5579,27.9958],[89.3156,27.6054],[89.2105,27.4652],[89.0839,27.3575],[88.9481,27.3109],[88.8956,27.3052],[88.8632,27.3454],[88.8119,27.3751],[88.7851,27.4283],[88.7851,27.4939],[88.7684,27.5231],[88.8149,27.6086],[88.8419,27.6273],[88.8512,27.7782],[88.8772,27.8064],[88.8731,27.8624],[88.8363,27.9058],[88.8432,28.0008],[88.7613,28.0684],[88.6746,28.0737],[88.6306,28.1287],[88.6143,28.0973],[88.5626,28.0819],[88.551,28.037],[88.4948,28.0467],[88.4007,27.9844],[88.3445,27.9877],[88.2594,27.9468],[88.2284,27.966],[88.2059,27.9614],[88.2016,27.9434],[88.1362,27.9549],[88.1242,27.9144],[88.136,27.8792],[88.1985,27.8446],[87.9685,27.7595],[87.7866,27.7198],[87.538,27.7153],[87.2715,27.7555],[87.1338,27.821],[86.8281,28.0197],[86.7097,28.0612],[86.6609,28.0515],[86.6258,28.017],[86.5666,27.7938],[86.5314,27.7447],[86.4881,27.7511],[86.4244,27.7927],[86.1412,28.0549],[86.1379,28.03],[86.201,27.9006],[86.1994,27.8603],[86.115,27.8192],[85.9772,27.8103],[85.8943,27.8725],[85.7521,28.1247],[85.6753,28.2053],[85.6154,28.2266],[85.5339,28.2309],[85.1618,28.1691],[85.0514,28.1771],[85.0226,28.2018],[85.0136,28.2387],[85.0727,28.4473],[85.0638,28.5042],[84.843,28.5032],[84.6069,28.6094],[84.3263,28.7002],[84.2197,28.7733],[84.1573,28.9006],[84.1023,28.8951],[83.9281,28.8203],[83.6331,28.7876],[83.3119,28.7964],[82.9263,28.8522],[82.7233,28.9207],[82.2861,29.1931],[81.6723,29.4653],[81.4341,29.6081],[81.2377,29.8502],[81.2212,29.9222],[81.2496,30.3084],[81.3154,30.462],[81.4454,30.5709],[81.5412,30.5987],[82.047,30.6792],[82.1143,30.7129],[82.2515,30.8483],[82.3861,30.9333],[82.5396,30.9815],[82.7081,30.9892],[82.9549,30.9384],[83.2381,30.8175],[83.5671,30.6254],[84.2933,30.1354],[84.6143,29.9375],[84.9462,29.7753],[85.2343,29.6898],[85.5798,29.6507],[85.9647,29.6464],[87.4426,29.7559],[88.3648,29.7175],[88.9251,29.7315],[89.5371,29.6871],[89.788,29.7019],[89.9598,29.7491],[90.1108,29.8331],[90.7626,30.3909],[90.9504,30.5208],[91.0932,30.5688],[91.4438,30.591],[91.5429,30.6412],[91.5801,30.774],[91.5597,30.9697],[91.5263,31.0498],[91.3996,31.2359],[91.3334,31.4567],[91.339,31.5323],[91.3674,31.6182],[91.4117,31.694],[91.4627,31.7435],[91.5769,31.7839],[92.1193,31.8635],[92.374,31.9164],[92.507,31.9587],[92.7298,32.0655],[92.853,32.0986],[93.0429,32.1238],[93.2875,32.1113],[93.3885,32.1226],[93.8374,32.3566],[93.9335,32.3909],[93.9495,32.3843],[93.9491,32.3627],[93.8464,32.1539],[93.8374,32.1108],[93.8489,32.0866],[93.9035,32.0703],[94.0864,32.0672],[94.1846,32.0399],[94.6294,31.8121],[94.7428,31.7986],[94.8981,31.865],[94.9654,31.8672],[95.3401,31.6575],[95.5025,31.6089],[95.6212,31.6132],[95.9137,31.6707],[96.1552,31.6949],[96.2438,31.6932],[96.3099,31.6708],[96.6389,31.3758],[96.8954,31.2237],[97.0446,31.1002],[97.3644,30.7546],[97.593,30.5418],[97.8129,30.2197],[97.8562,30.0824],[97.8518,29.9902],[97.7911,29.9179],[97.6629,29.8466],[97.4575,29.7588],[97.2712,29.7058],[96.2451,29.5139],[95.8454,29.4063],[95.5069,29.263],[95.2723,29.1075],[95.2614,29.0729],[95.2155,29.1082],[95.1057,29.0958],[95.0995,29.1397],[95.0031,29.1667],[95.0161,29.1283],[94.9701,29.1569],[94.9105,29.1592],[94.8741,29.1806],[94.8051,29.1671],[94.7933,29.215],[94.7577,29.2272],[94.7281,29.2836],[94.6914,29.3121],[94.6231,29.2939],[94.5434,29.2237],[94.4934,29.2309],[94.4239,29.214],[94.365,29.1489],[94.3109,29.1478],[94.2752,29.1286],[94.1357,28.9551],[94.0786,28.9872],[94.0428,28.9803],[94.033,28.9676],[94.0574,28.878],[94.0042,28.8414],[93.9326,28.8309],[93.9525,28.7945],[93.9407,28.7719],[93.8266,28.7643],[93.7427,28.692],[93.6908,28.7013],[93.6728,28.6742],[93.5683,28.686],[93.3852,28.6502],[93.3471,28.6611],[93.2939,28.6313],[93.2211,28.5389],[93.2448,28.4482],[93.2236,28.358],[93.1065,28.3573],[93.0639,28.3119],[93.0353,28.3299],[93.0162,28.2626],[92.9558,28.2618],[92.8667,28.1846],[92.7579,28.1672],[92.6899,28.1216],[92.6695,28.0636],[92.7234,28.0208],[92.7246,27.9756],[92.7029,27.9468],[92.6259,27.9051],[92.591,27.9057],[92.556,27.8617],[92.4624,27.8271],[92.4221,27.8528],[92.3961,27.8041],[92.3687,27.8477],[92.3456,27.8057],[92.3216,27.7975],[92.2813,27.8723],[92.2609,27.8731],[92.0864,27.7903],[92.0284,27.737],[91.9662,27.7296]]]}}