{"type":"Feature","properties":{"speciesId":903,"category":"LC","source":"IUCN Red List","simplifyTol":0.01,"clippedToSubcontinent":true},"geometry":{"type":"Polygon","coordinates":[[[80.2312,29.0197],[80.2411,29.1393],[80.3144,29.3945],[80.3665,29.5149],[80.5114,29.7312],[80.7336,29.9643],[80.8192,30.013],[80.8991,30.0273],[80.9656,30.0191],[81.0929,29.9703],[81.1778,29.9741],[81.2585,30.0629],[81.3102,30.1483],[81.3692,30.147],[81.3852,30.2147],[81.4231,30.2636],[81.5855,30.3711],[81.6454,30.3747],[81.9629,30.3174],[82.1791,30.1944],[82.1498,30.1238],[82.1679,30.0657],[82.226,30.0769],[82.2819,30.0384],[82.4409,30.0013],[82.741,29.7449],[83.1965,29.5631],[83.2863,29.5127],[83.4447,29.3579],[83.5084,29.2249],[83.5461,29.1853],[83.6686,29.1515],[83.6964,29.2163],[83.7588,29.2442],[83.9079,29.2224],[84.0354,29.182],[84.1424,29.1171],[84.3042,28.9448],[84.5279,28.7538],[84.7452,28.6543],[85.1547,28.4994],[85.1635,28.4775],[85.099,28.4433],[85.1016,28.3498],[85.1214,28.3325],[85.1948,28.3148],[85.3552,28.3338],[85.4804,28.3167],[85.6727,28.2611],[85.8631,28.1725],[86.167,28.1805],[86.199,28.1551],[86.1076,28.0663],[86.2915,28.0128],[86.7752,27.9897],[87.5533,27.8252],[87.6532,27.8269],[87.7868,27.8748],[87.8563,27.8838],[87.9663,27.8769],[88.0495,27.8468],[88.1341,27.7764],[88.1681,27.6874],[88.1559,27.5906],[88.0855,27.4941],[88.0742,27.4424],[88.1603,26.9844],[88.1709,26.838],[88.1012,26.763],[88.0058,26.7435],[87.5936,26.7628],[86.8298,26.8433],[86.6226,26.8946],[85.2073,27.3436],[84.8942,27.4747],[84.5162,27.6033],[84.2503,27.6397],[83.8385,27.6312],[83.6141,27.6518],[82.9538,27.7677],[82.8432,27.8046],[82.7248,27.8832],[82.6673,27.8424],[82.6096,27.8368],[81.9853,27.9534],[81.6503,28.0808],[81.3508,28.2891],[80.6999,28.622],[80.4789,28.7752],[80.2979,28.8771],[80.2557,28.9334],[80.2312,29.0197]]]}}