{"type":"Feature","properties":{"speciesId":905,"category":"LC","source":"IUCN Red List","simplifyTol":0.01,"clippedToSubcontinent":true},"geometry":{"type":"Polygon","coordinates":[[[74.5088,34.5622],[75.5835,34.4047],[75.8362,34.3424],[76.0471,34.2378],[76.3357,34.0231],[76.5602,33.8084],[77.0195,33.2846],[77.7151,32.5912],[78.1381,32.063],[78.5546,31.4836],[78.7711,31.3412],[78.9079,31.293],[79.0105,31.0815],[79.0904,30.9567],[79.2718,30.8124],[79.3021,30.746],[79.3122,30.6758],[79.1413,30.2329],[78.965,30.0492],[78.8848,29.9395],[78.813,29.8971],[78.7277,29.8736],[78.6372,29.8746],[78.5559,29.8972],[78.5102,29.9342],[78.3542,30.149],[78.2432,30.2584],[78.166,30.3069],[77.9811,30.3641],[77.9136,30.4038],[77.8676,30.4734],[77.8037,30.6579],[77.756,30.7224],[77.6678,30.7882],[77.3458,30.9684],[77.127,31.1515],[76.9705,31.3214],[76.8293,31.5559],[76.7897,31.7558],[76.7234,31.9359],[76.67,32.0263],[76.6073,32.0895],[76.5166,32.129],[76.2695,32.1674],[76.1295,32.2247],[75.9705,32.3212],[75.8038,32.5009],[75.729,32.5599],[75.2091,32.7731],[75.1187,32.8566],[74.9431,33.1056],[74.8018,33.2361],[74.6931,33.3063],[74.4598,33.3857],[74.1933,33.4147],[73.9617,33.4705],[73.5343,33.6243],[73.3406,33.7164],[73.2142,33.8162],[73.1022,33.9572],[73.0276,34.1077],[72.9862,34.2753],[72.9955,34.4244],[73.0352,34.5082],[73.1687,34.5906],[73.3135,34.6238],[73.7789,34.6256],[74.0711,34.6089],[74.5088,34.5622]],[[75.0356,33.6562],[75.1409,33.572],[75.1734,33.5627],[75.2162,33.6187],[75.2426,33.7193],[75.219,33.843],[75.0566,34.0731],[75.0163,34.0885],[74.9056,34.0723],[74.865,34.0814],[74.7787,34.193],[74.639,34.2751],[74.5466,34.3824],[74.4996,34.4128],[74.3297,34.4182],[74.2059,34.4577],[74.1287,34.4365],[74.0766,34.3929],[74.0575,34.3572],[74.0627,34.3344],[74.1819,34.2697],[74.3107,34.1086],[74.4695,34.0279],[74.5957,33.8355],[74.6681,33.7523],[74.7314,33.7234],[75.0356,33.6562]]]}}