{"type":"Feature","properties":{"speciesId":907,"category":"NT","source":"IUCN Red List","simplifyTol":0.01,"clippedToSubcontinent":true},"geometry":{"type":"MultiPolygon","coordinates":[[[[76.9236,10.2816],[77.0209,10.2889],[77.0456,10.2763],[77.0339,10.1975],[76.9819,10.1513],[77.05,10.1435],[77.095,10.1026],[77.1465,10.1451],[77.1951,10.1569],[77.1536,10.0815],[77.1499,10.0108],[77.2285,10.0772],[77.2419,10.074],[77.1765,9.7469],[77.1804,9.6015],[77.2115,9.5603],[77.3338,9.5208],[77.3459,9.4876],[77.3177,9.369],[77.2556,9.2253],[77.2382,9.1253],[77.152,8.9988],[77.1772,8.9403],[77.237,8.9093],[77.2077,8.8712],[77.1156,8.8884],[76.962,9.0087],[76.8617,9.1347],[76.7861,9.3196],[76.7528,9.3524],[76.6691,9.3863],[76.7289,9.6054],[76.7238,9.8285],[76.7422,9.851],[76.8123,9.864],[76.8355,9.9003],[76.7594,9.9531],[76.5902,9.9882],[76.5294,10.0257],[76.5176,10.0654],[76.5337,10.1822],[76.5086,10.25],[76.4666,10.3067],[76.3634,10.3654],[76.2884,10.4498],[76.2192,10.4968],[76.2063,10.5449],[76.2195,10.6067],[76.2504,10.6527],[76.2797,10.6648],[76.4459,10.5934],[76.7452,10.5475],[76.8192,10.522],[76.8532,10.4981],[76.8647,10.4624],[76.8605,10.4235],[76.8307,10.3794],[76.8353,10.3305],[76.8684,10.2987],[76.9236,10.2816]]],[[[76.4281,11.2024],[76.4547,11.1683],[76.5122,11.2094],[76.6085,11.1977],[76.553,11.105],[76.5598,11.0383],[76.6888,10.9676],[76.8153,10.9331],[76.851,10.8891],[76.8505,10.8369],[76.6576,10.8462],[76.5918,10.8988],[76.5607,10.9832],[76.525,11.0141],[76.3503,11.0343],[76.2469,11.0726],[76.2336,11.1149],[76.2451,11.1477],[76.3003,11.1988],[76.3534,11.2042],[76.3836,11.2305],[76.2977,11.3875],[76.3232,11.4415],[76.4326,11.4505],[76.5236,11.36],[76.5126,11.2979],[76.4362,11.2366],[76.4281,11.2024]]]]}}