{"type":"Feature","properties":{"speciesId":908,"category":"LC","source":"IUCN Red List","simplifyTol":0.01,"clippedToSubcontinent":true},"geometry":{"type":"Polygon","coordinates":[[[88.0633,27.0812],[88.0929,27.119],[88.1392,27.1397],[88.4321,27.175],[90.1593,27.2921],[91.2374,27.392],[91.6168,27.4497],[92.5565,27.6324],[93.3007,27.7197],[93.5094,27.7773],[93.7394,27.8664],[94.1894,28.0824],[94.4765,28.2394],[94.7102,28.3308],[94.8646,28.3514],[95.1867,28.2921],[95.364,28.331],[95.4567,28.3821],[95.6122,28.5364],[95.7797,28.6616],[95.8731,28.7109],[95.9617,28.7284],[96.1698,28.699],[96.3396,28.5981],[96.425,28.4798],[96.4513,28.3775],[96.4549,28.2571],[96.5183,28.146],[96.5894,28.0936],[96.8349,28.0414],[96.9485,27.9738],[97.1026,27.8075],[97.198,27.6099],[97.1885,27.5428],[97.1558,27.4824],[97.1078,27.4382],[97.0507,27.4194],[96.917,27.422],[96.6177,27.5397],[96.5178,27.5277],[96.402,27.4793],[96.0331,27.2488],[95.3579,26.7443],[94.893,26.4636],[94.6342,26.2491],[94.4085,26.0092],[94.2552,25.7832],[94.1756,25.5839],[94.0245,25.0544],[93.8706,24.7539],[93.8553,24.589],[93.9041,24.4206],[93.9102,24.346],[93.8428,24.0357],[93.7952,23.9925],[93.6948,24.0332],[93.5355,24.0004],[93.3735,24.0993],[93.3291,24.1031],[93.2919,24.0595],[93.2976,24.0155],[93.198,23.9348],[92.8873,23.5265],[92.7984,23.4477],[92.6914,23.3965],[92.6352,23.4183],[92.5818,23.4786],[92.5724,23.6359],[92.6407,23.9169],[92.7409,24.1565],[92.8604,24.3614],[93.0082,24.5644],[93.3855,24.9454],[93.5921,25.1092],[93.6266,25.165],[93.6187,25.2159],[93.5733,25.2657],[93.5167,25.2707],[93.4448,25.2363],[93.2472,25.086],[93.1544,25.0351],[93.0195,25.0171],[92.8458,25.0276],[92.6036,25.0767],[92.3262,25.19],[92.1878,25.2245],[91.8841,25.2504],[91.6049,25.2387],[91.4987,25.262],[91.4386,25.2969],[91.407,25.3659],[91.4091,25.4291],[91.4527,25.5002],[91.5763,25.6004],[91.717,25.6449],[92.5674,25.5898],[92.8509,25.5954],[93.0896,25.6236],[93.5039,25.7339],[94.0496,25.9598],[94.1373,26.0145],[94.1965,26.076],[94.2829,26.2825],[94.3874,26.4517],[94.6392,26.6665],[95.9952,27.5204],[96.108,27.5807],[96.3209,27.6532],[96.3866,27.6934],[96.4266,27.7558],[96.4258,27.8125],[96.3855,27.8784],[96.2919,27.9723],[96.1088,28.0586],[95.6999,28.1533],[95.4013,28.1706],[95.1208,28.1366],[94.8106,28.0503],[94.588,27.9515],[94.0738,27.6246],[93.7437,27.3802],[93.5404,27.2858],[93.1309,27.2023],[92.1603,27.1167],[91.4975,26.9967],[91.1834,26.9779],[90.4766,26.9815],[89.86,26.9632],[89.0525,26.9015],[88.6666,26.8374],[88.5347,26.831],[88.153,26.9069],[88.1451,26.9895],[88.0731,27.0427],[88.0633,27.0812]]]}}