{"type":"Feature","properties":{"speciesId":909,"category":"EN","source":"IUCN Red List","simplifyTol":0.01,"clippedToSubcontinent":true},"geometry":{"type":"Polygon","coordinates":[[[76.764,10.3001],[76.7467,10.3144],[76.7389,10.4433],[76.739,10.5187],[76.7543,10.5494],[76.8533,10.5525],[76.8719,10.4894],[76.9525,10.4741],[77.0884,10.3736],[77.1,10.3463],[77.0661,10.2886],[77.0281,10.2735],[76.9714,10.2876],[76.9164,10.2474],[76.8708,10.29],[76.8386,10.2794],[76.8243,10.2995],[76.764,10.3001]]]}}