{"type":"Feature","properties":{"speciesId":910,"category":"VU","source":"IUCN Red List","simplifyTol":0.01,"clippedToSubcontinent":true},"geometry":{"type":"Polygon","coordinates":[[[77.2796,8.9275],[77.3288,8.823],[77.3134,8.7963],[77.379,8.7208],[77.3476,8.7318],[77.4049,8.6768],[77.397,8.6189],[77.4243,8.6494],[77.4468,8.651],[77.4888,8.6149],[77.5256,8.374],[77.5205,8.3392],[77.484,8.3137],[77.3736,8.3446],[77.3166,8.4067],[77.3135,8.4409],[77.3405,8.4425],[77.316,8.467],[77.2381,8.4578],[77.1921,8.4718],[77.1806,8.5125],[77.1229,8.566],[77.1186,8.5869],[77.1439,8.5981],[77.1484,8.627],[77.089,8.7603],[76.9787,8.8446],[76.9576,8.8908],[76.9698,8.9244],[77.0142,8.9364],[77.0357,8.963],[77.1895,8.8808],[77.046,8.9738],[77.0629,9.0101],[77.0909,9.0155],[77.2035,8.9871],[77.2796,8.9275]]]}}