{"type":"Feature","properties":{"speciesId":917,"category":"EN","source":"IUCN Red List","simplifyTol":0.01,"clippedToSubcontinent":true},"geometry":{"type":"Polygon","coordinates":[[[76.954,10.4731],[77.0927,10.3689],[77.0992,10.3299],[77.0758,10.2949],[77.0298,10.2735],[76.9708,10.2875],[76.9144,10.2473],[76.8709,10.2899],[76.8382,10.2794],[76.8256,10.2992],[76.749,10.3092],[76.7386,10.5124],[76.7502,10.5476],[76.8449,10.5467],[76.8498,10.5277],[76.8235,10.5198],[76.8607,10.4718],[76.954,10.4731]]]}}