{"type":"Feature","properties":{"speciesId":919,"category":"EN","source":"IUCN Red List","simplifyTol":0.01,"clippedToSubcontinent":true},"geometry":{"type":"Polygon","coordinates":[[[76.1685,11.8905],[76.1487,11.8563],[76.1589,11.8321],[76.314,11.6936],[76.3559,11.6104],[76.3352,11.5937],[76.2482,11.5791],[76.2307,11.5363],[76.1966,11.5161],[76.1943,11.4279],[76.1042,11.3727],[76.0609,11.4056],[76.1106,11.4403],[76.0481,11.4449],[76.04,11.4848],[75.992,11.5309],[75.9741,11.5317],[75.9307,11.4869],[75.9199,11.4941],[75.9124,11.5593],[75.885,11.6094],[75.9181,11.706],[75.8635,11.8227],[75.871,11.8388],[75.919,11.8482],[75.9194,11.8734],[75.9064,11.8892],[75.8546,11.8913],[75.8828,11.918],[75.8845,11.9481],[75.7701,12.0164],[75.8111,12.06],[75.8089,12.1018],[75.7959,12.1201],[75.7208,12.1464],[75.7004,12.2104],[75.7388,12.2228],[75.8152,12.2097],[76.006,12.1256],[76.0911,12.0079],[76.152,11.962],[76.1685,11.8905]]]}}