{"type":"Feature","properties":{"speciesId":92,"category":"LC","source":"IUCN Red List","simplifyTol":0.01,"clippedToSubcontinent":true},"geometry":{"type":"MultiPolygon","coordinates":[[[[80.2493,9.8236],[80.3657,9.6603],[80.8117,9.2909],[80.8841,9.1219],[81.0005,8.9388],[80.993,8.918],[81.0102,8.929],[81.013,8.8911],[81.021,8.9048],[81.0589,8.8595],[81.0875,8.8584],[81.1048,8.8126],[81.2267,8.6475],[81.2208,8.6062],[81.2298,8.581],[81.2451,8.5793],[81.2471,8.5458],[81.2257,8.5323],[81.2261,8.5695],[81.1927,8.5665],[81.2119,8.5077],[81.1896,8.5018],[81.1977,8.4615],[81.2624,8.4569],[81.304,8.4326],[81.304,8.4583],[81.2958,8.4465],[81.2809,8.4568],[81.2831,8.5032],[81.3222,8.5224],[81.353,8.4909],[81.3937,8.3567],[81.4078,8.2419],[81.4769,8.0343],[81.5686,7.9227],[81.5874,7.921],[81.5671,7.8981],[81.593,7.83],[81.6268,7.8247],[81.6544,7.7729],[81.6999,7.7536],[81.7713,7.6448],[81.8718,7.3159],[81.8586,7.0907],[81.8813,7.0267],[81.8704,6.9789],[81.8489,6.9896],[81.8578,6.9672],[81.8729,6.9669],[81.8364,6.8853],[81.8518,6.8884],[81.8483,6.8675],[81.8397,6.8542],[81.8211,6.8621],[81.8444,6.8344],[81.8233,6.8088],[81.8249,6.7653],[81.8084,6.7647],[81.8279,6.7586],[81.7759,6.6639],[81.7664,6.592],[81.7324,6.5669],[81.7003,6.482],[81.6518,6.4367],[81.5973,6.4241],[81.6135,6.4056],[81.56,6.3612],[81.522,6.3525],[81.4869,6.3055],[81.3285,6.1945],[81.2222,6.1589],[81.1946,6.1576],[81.197,6.1776],[81.178,6.1441],[81.1336,6.1174],[81.0167,6.1071],[80.8659,6.0408],[80.8255,6.0415],[80.7202,5.9607],[80.6641,5.9575],[80.5868,5.9168],[80.5532,5.9411],[80.4489,5.9431],[80.4522,5.9588],[80.4357,5.969],[80.4179,5.955],[80.3828,5.9595],[80.2442,6.0069],[80.2285,6.0351],[80.2186,6.022],[80.0986,6.1289],[80.0314,6.2656],[80.0252,6.3364],[79.9746,6.464],[79.9866,6.4771],[79.9796,6.5149],[79.8687,6.8057],[79.8431,6.9333],[79.8712,6.9756],[79.869,7.0027],[79.819,7.1934],[79.8592,7.2756],[79.8445,7.2761],[79.8027,7.4826],[79.7977,7.7275],[79.7513,7.9316],[79.7064,8.0445],[79.699,8.1154],[79.7095,8.1343],[79.6984,8.2138],[79.7179,8.2167],[79.7381,8.28],[79.7812,8.3497],[79.7563,8.3071],[79.7511,8.2617],[79.7655,8.2739],[79.7573,8.2571],[79.7766,8.2541],[79.7688,8.2156],[79.7404,8.2008],[79.7492,8.1829],[79.7316,8.0868],[79.7541,8.0582],[79.7426,8.0],[79.8186,7.9719],[79.8082,7.8839],[79.8265,7.9206],[79.834,8.0071],[79.7896,8.0682],[79.8086,8.0611],[79.7948,8.0793],[79.8338,8.1396],[79.8154,8.2037],[79.7946,8.2203],[79.8095,8.2174],[79.7897,8.2301],[79.8101,8.2374],[79.8342,8.2919],[79.8476,8.2742],[79.8584,8.2846],[79.8362,8.3011],[79.8445,8.4289],[79.8632,8.4496],[79.8709,8.5352],[79.9263,8.559],[79.9193,8.5846],[79.9414,8.6155],[79.9558,8.7174],[79.9248,8.7907],[79.9401,8.8068],[79.9184,8.8083],[79.9307,8.8147],[79.919,8.8188],[79.9358,8.8913],[79.9122,8.9299],[80.0403,9.0133],[80.0661,9.0562],[80.0857,9.0999],[80.0761,9.1203],[80.1173,9.2072],[80.1116,9.2768],[80.1278,9.2906],[80.0676,9.3287],[80.0549,9.3914],[80.1466,9.4347],[80.1861,9.4827],[80.1461,9.5361],[80.054,9.5979],[80.0876,9.6249],[80.0176,9.6509],[79.971,9.7077],[79.948,9.6871],[79.9099,9.7587],[79.9528,9.7921],[80.0224,9.8126],[80.1056,9.8059],[80.2147,9.8314],[80.2493,9.8236]]],[[[74.7182,13.2214],[74.7216,13.2204],[74.7198,13.2198],[74.7182,13.2214]]],[[[74.7253,13.2255],[74.7251,13.2229],[74.7246,13.2251],[74.7253,13.2255]]],[[[74.7113,13.2373],[74.7125,13.2347],[74.7113,13.2353],[74.7113,13.2373]]],[[[74.6851,13.2615],[74.6866,13.26],[74.6858,13.2597],[74.6851,13.2615]]],[[[74.6832,13.2658],[74.6813,13.2659],[74.6826,13.2664],[74.6832,13.2658]]],[[[74.6924,13.2757],[74.6953,13.2789],[74.6958,13.2754],[74.6924,13.2757]]],[[[74.6916,13.281],[74.693,13.2828],[74.6929,13.2805],[74.6916,13.281]]],[[[74.6866,13.3263],[74.685,13.3266],[74.6858,13.3272],[74.6866,13.3263]]],[[[74.6783,13.3402],[74.6771,13.3389],[74.6772,13.3399],[74.6783,13.3402]]],[[[74.6725,13.3593],[74.6723,13.3617],[74.6735,13.361],[74.6725,13.3593]]],[[[74.6647,13.3747],[74.6688,13.3737],[74.6689,13.3725],[74.6647,13.3747]]],[[[74.4756,14.0091],[74.4737,14.0119],[74.4764,14.0124],[74.4756,14.0091]]],[[[74.3299,14.0202],[74.3226,14.0179],[74.3237,14.021],[74.3299,14.0202]]],[[[74.4799,14.0248],[74.4835,14.0238],[74.4806,14.0229],[74.4799,14.0248]]],[[[74.4634,14.0859],[74.4666,14.084],[74.4654,14.0831],[74.4634,14.0859]]],[[[74.4746,14.0957],[74.4786,14.0927],[74.4748,14.0931],[74.4746,14.0957]]],[[[74.4679,14.1047],[74.4689,14.1094],[74.4706,14.1051],[74.4679,14.1047]]],[[[74.3981,14.3085],[74.394,14.3131],[74.4,14.3123],[74.3981,14.3085]]],[[[74.2465,14.6994],[74.2473,14.7021],[74.2486,14.6996],[74.2465,14.6994]]],[[[74.2353,14.7098],[74.232,14.7076],[74.2316,14.7096],[74.2353,14.7098]]],[[[74.1432,14.7199],[74.1435,14.7234],[74.145,14.7222],[74.1432,14.7199]]],[[[74.1492,14.7349],[74.1524,14.7386],[74.1513,14.7341],[74.1492,14.7349]]],[[[74.1071,14.7514],[74.1052,14.7621],[74.1152,14.754],[74.1071,14.7514]]],[[[74.0833,14.7935],[74.0817,14.791],[74.0817,14.7939],[74.0833,14.7935]]],[[[74.0503,14.8138],[74.0559,14.8196],[74.0567,14.8188],[74.0503,14.8138]]],[[[74.0981,14.8392],[74.0918,14.8414],[74.0919,14.8455],[74.0981,14.8392]]],[[[74.0991,14.8645],[74.1,14.8622],[74.0991,14.8621],[74.0991,14.8645]]],[[[74.0891,14.8748],[74.0919,14.8759],[74.0918,14.8742],[74.0891,14.8748]]],[[[73.7711,15.3583],[73.7765,15.3544],[73.7729,15.3523],[73.7711,15.3583]]],[[[73.788,15.3716],[73.7886,15.3776],[73.7914,15.3752],[73.788,15.3716]]],[[[72.9321,18.9527],[72.9276,18.967],[72.9424,18.9688],[72.9321,18.9527]]],[[[73.0585,19.0047],[73.0532,19.0151],[73.0595,19.016],[73.0585,19.0047]]],[[[72.8672,19.3274],[72.838,19.3354],[72.8684,19.3295],[72.8672,19.3274]]],[[[72.8793,20.6887],[72.8883,20.6806],[72.8807,20.6811],[72.8793,20.6887]]],[[[72.8695,20.6904],[72.8667,20.7131],[72.8576,20.706],[72.8726,20.6676],[72.8785,20.6761],[72.8779,20.6457],[72.8474,20.7183],[72.8454,20.7442],[72.855,20.7205],[72.877,20.7253],[72.8695,20.6904]]],[[[72.8652,20.7515],[72.8745,20.756],[72.8767,20.754],[72.8652,20.7515]]],[[[72.8696,20.7604],[72.8726,20.768],[72.8728,20.7588],[72.8696,20.7604]]],[[[72.9366,20.7718],[72.9309,20.7624],[72.9297,20.7693],[72.9366,20.7718]]],[[[72.8406,20.7799],[72.856,20.7635],[72.8547,20.7598],[72.8406,20.7799]]],[[[72.8454,20.7961],[72.8404,20.7849],[72.8444,20.7987],[72.8454,20.7961]]],[[[72.7824,20.9205],[72.8226,20.8256],[72.8415,20.8054],[72.8261,20.8098],[72.7824,20.9205]]],[[[72.807,20.9073],[72.8144,20.9178],[72.8173,20.919],[72.817,20.91],[72.807,20.9073]]],[[[72.7824,20.9862],[72.767,20.9865],[72.7854,20.9937],[72.7824,20.9862]]],[[[72.8357,21.0425],[72.8453,21.0376],[72.835,21.04],[72.8357,21.0425]]],[[[72.6797,21.0622],[72.6836,21.0665],[72.6852,21.0536],[72.6797,21.0622]]],[[[72.6739,21.0707],[72.6479,21.0595],[72.6749,21.0808],[72.6739,21.0707]]],[[[72.6971,21.1414],[72.686,21.1092],[72.6796,21.1095],[72.6814,21.1409],[72.6971,21.1414]]],[[[72.6278,21.2829],[72.6319,21.2659],[72.6197,21.273],[72.6278,21.2829]]],[[[72.6204,21.3316],[72.624,21.3251],[72.6213,21.3247],[72.6204,21.3316]]],[[[72.7991,21.6238],[72.6902,21.5999],[72.674,21.5873],[72.6865,21.5808],[72.6432,21.5644],[72.6228,21.5682],[72.6295,21.5877],[72.6114,21.6017],[72.6478,21.6331],[72.7358,21.6496],[72.7402,21.6376],[72.807,21.6431],[72.7991,21.6238]]],[[[72.8578,21.6764],[72.8784,21.6802],[72.8816,21.6769],[72.8759,21.6719],[72.8578,21.6764]]],[[[72.5716,21.7534],[72.5922,21.7518],[72.5944,21.7488],[72.5701,21.7394],[72.5716,21.7534]]],[[[72.5815,21.7771],[72.5755,21.7656],[72.5733,21.7649],[72.5815,21.7771]]],[[[90.0362,22.1269],[90.1009,22.1526],[90.0301,22.0899],[90.0362,22.1269]]],[[[72.7056,22.225],[72.7191,22.2376],[72.7317,22.2225],[72.7056,22.225]]],[[[89.8708,22.2377],[89.8594,22.2516],[89.8656,22.2576],[89.8708,22.2377]]],[[[90.2892,22.3548],[90.2713,22.3515],[90.2864,22.3644],[90.2892,22.3548]]],[[[90.3332,22.9723],[90.3564,22.9623],[90.368,22.9212],[90.3518,22.9514],[90.325,22.9598],[90.3332,22.9723]]],[[[90.3034,22.9689],[90.3475,22.9474],[90.3481,22.9398],[90.301,22.9519],[90.3034,22.9689]]],[[[90.3919,23.0089],[90.4081,23.0135],[90.4172,23.0099],[90.4052,23.0052],[90.3919,23.0089]]],[[[90.2885,23.0314],[90.2918,23.0496],[90.3079,23.0375],[90.2885,23.0314]]],[[[90.4674,23.3095],[90.4857,23.2465],[90.4622,23.2026],[90.4646,23.2254],[90.4534,23.2116],[90.4659,23.1672],[90.4326,23.0911],[90.4459,23.0225],[90.3609,23.0111],[90.3426,22.9819],[90.326,22.9816],[90.3087,23.0538],[90.3259,23.0679],[90.3326,23.1087],[90.3229,23.1024],[90.2729,23.1468],[90.267,23.1328],[90.2905,23.1207],[90.2538,23.1253],[90.2444,23.1379],[90.2657,23.1601],[90.2142,23.1915],[90.1842,23.1708],[90.1781,23.1892],[90.2071,23.2097],[90.2108,23.224],[90.1721,23.262],[90.2124,23.2553],[90.233,23.2607],[90.2526,23.2882],[90.24,23.2931],[90.2866,23.3161],[90.3026,23.3547],[90.3339,23.3674],[90.393,23.3396],[90.4122,23.3025],[90.4674,23.3095]]],[[[90.2372,23.2762],[90.209,23.2588],[90.1662,23.2687],[90.1801,23.2409],[90.1276,23.2454],[90.1311,23.2632],[90.1245,23.2738],[90.0892,23.2811],[90.1807,23.3378],[90.2557,23.3117],[90.2334,23.2961],[90.2372,23.2762]]],[[[90.4206,23.3182],[90.349,23.3965],[90.4311,23.3598],[90.4532,23.3159],[90.4206,23.3182]]],[[[90.306,23.3773],[90.3463,23.3767],[90.2989,23.3679],[90.306,23.3773]]],[[[90.1966,23.3718],[90.1883,23.3811],[90.1896,23.386],[90.1966,23.3718]]],[[[90.2629,23.3271],[90.2182,23.3603],[90.2488,23.3252],[90.2056,23.3503],[90.1836,23.4498],[90.2382,23.4169],[90.3299,23.3948],[90.3316,23.3845],[90.286,23.3796],[90.2958,23.3708],[90.2629,23.3271]]],[[[90.413,23.3934],[90.3949,23.4],[90.3924,23.4059],[90.4093,23.4048],[90.413,23.3934]]],[[[90.184,23.3987],[90.1658,23.4199],[90.1682,23.4225],[90.184,23.3987]]],[[[90.1768,23.4246],[90.167,23.4337],[90.1686,23.4386],[90.1768,23.4246]]],[[[90.2377,23.4724],[90.2303,23.4706],[90.2255,23.4789],[90.2377,23.4724]]],[[[90.2006,23.4875],[90.19,23.5033],[90.2035,23.4881],[90.2006,23.4875]]],[[[90.4282,23.5808],[90.408,23.5882],[90.4039,23.6053],[90.4199,23.5975],[90.4282,23.5808]]],[[[90.0878,23.6174],[90.1101,23.6069],[90.1143,23.5944],[90.0967,23.6051],[90.0878,23.6174]]],[[[90.3979,23.6086],[90.3909,23.6159],[90.4177,23.611],[90.3979,23.6086]]],[[[90.4643,23.628],[90.4239,23.6183],[90.4349,23.637],[90.429,23.6419],[90.415,23.624],[90.3878,23.6461],[90.3978,23.6253],[90.3645,23.63],[90.288,23.6726],[90.2617,23.7243],[90.2876,23.7327],[90.3085,23.7608],[90.313,23.7323],[90.3713,23.6956],[90.4183,23.6844],[90.4643,23.628]]],[[[89.9254,23.7029],[89.928,23.6854],[89.8987,23.7073],[89.9254,23.7029]]],[[[89.8656,23.7068],[89.8689,23.7138],[89.8759,23.7073],[89.8656,23.7068]]],[[[89.8686,23.7271],[89.8652,23.7226],[89.8641,23.7265],[89.8686,23.7271]]],[[[90.3547,23.715],[90.3291,23.7271],[90.3466,23.7315],[90.3547,23.715]]],[[[89.8515,23.7281],[89.8568,23.7306],[89.8623,23.7229],[89.8515,23.7281]]],[[[89.8001,23.7323],[89.786,23.7414],[89.7868,23.7639],[89.7904,23.7596],[89.8001,23.7323]]],[[[90.2445,23.7901],[90.2522,23.7467],[90.2259,23.725],[90.2118,23.7551],[90.2445,23.7901]]],[[[89.7438,23.8037],[89.7758,23.7887],[89.7791,23.7421],[89.7587,23.7631],[89.7438,23.8037]]],[[[89.7424,23.7792],[89.6852,23.7896],[89.6826,23.8011],[89.718,23.8016],[89.7424,23.7792]]],[[[89.6375,23.7862],[89.6436,23.8032],[89.6754,23.8006],[89.6752,23.7892],[89.6375,23.7862]]],[[[89.4879,23.8167],[89.5325,23.8154],[89.5155,23.7856],[89.4879,23.8167]]],[[[89.5465,23.7973],[89.595,23.8151],[89.62,23.8056],[89.5465,23.7973]]],[[[90.228,23.8095],[90.2054,23.8221],[90.1823,23.8071],[90.1342,23.812],[90.0872,23.8364],[90.1157,23.8541],[90.1171,23.8704],[90.1436,23.827],[90.176,23.8211],[90.2147,23.8334],[90.2324,23.8245],[90.228,23.8095]]],[[[89.3342,23.8807],[89.3147,23.8929],[89.3479,23.8867],[89.3342,23.8807]]],[[[89.6972,23.9274],[89.7101,23.9194],[89.7311,23.8789],[89.6953,23.9025],[89.6972,23.9274]]],[[[89.3791,23.9063],[89.398,23.9267],[89.4109,23.9196],[89.3791,23.9063]]],[[[89.3149,23.8989],[89.2906,23.9388],[89.3638,23.9429],[89.3787,23.9275],[89.3556,23.8929],[89.3149,23.8989]]],[[[89.6726,23.9407],[89.6775,23.9107],[89.6645,23.9423],[89.6726,23.9407]]],[[[89.2366,23.9344],[89.2241,23.9316],[89.1825,23.9548],[89.2314,23.9586],[89.2524,23.9367],[89.2298,23.9463],[89.2366,23.9344]]],[[[89.1722,23.9906],[89.1418,23.9903],[89.1391,23.9934],[89.1568,23.9991],[89.1722,23.9906]]],[[[93.0159,19.8894],[92.9159,20.0553],[92.926,20.0833],[92.9602,20.0616],[93.02,19.9194],[93.0358,19.8746],[93.0291,19.8189],[93.0159,19.8894]]],[[[93.0832,20.0912],[93.074,20.0766],[93.1218,20.0396],[93.1382,20.0047],[93.103,19.9467],[93.1733,19.7869],[93.0568,19.9513],[93.0421,20.0089],[92.9792,20.0713],[92.9746,20.1264],[92.9967,20.1116],[93.0564,20.1217],[93.0832,20.0912]]],[[[93.1186,20.0846],[93.0747,20.1186],[93.0954,20.1426],[93.1267,20.079],[93.1119,20.0615],[93.0949,20.0879],[93.1186,20.0846]]],[[[93.0895,20.1485],[93.0643,20.1276],[93.0841,20.1652],[93.0895,20.1485]]],[[[93.0953,20.1603],[93.095,20.1789],[93.113,20.179],[93.1024,20.1719],[93.0953,20.1603]]],[[[92.972,20.1728],[92.9498,20.1894],[92.9752,20.2112],[92.9807,20.1927],[92.972,20.1728]]],[[[92.9341,20.2471],[92.9465,20.2489],[92.9504,20.2119],[92.9238,20.1903],[92.9341,20.2471]]],[[[92.9575,20.21],[92.9763,20.2319],[92.9804,20.2315],[92.9575,20.21]]],[[[92.7405,20.2161],[92.7322,20.232],[92.7337,20.2383],[92.7405,20.2161]]],[[[92.7527,20.3521],[92.7418,20.3584],[92.7522,20.3624],[92.7527,20.3521]]],[[[92.8117,20.4109],[92.8664,20.3114],[92.8411,20.2875],[92.7948,20.2773],[92.8025,20.3036],[92.8357,20.3129],[92.8128,20.3389],[92.8143,20.3141],[92.7758,20.2801],[92.7623,20.4322],[92.8202,20.4236],[92.8117,20.4109]]],[[[92.8454,20.3947],[92.8766,20.4023],[92.8908,20.3856],[92.8454,20.3947]]],[[[92.8192,20.4105],[92.8326,20.402],[92.8169,20.4066],[92.8192,20.4105]]],[[[93.0435,20.3504],[93.038,20.423],[93.0899,20.5061],[93.1102,20.4209],[93.0785,20.4073],[93.0778,20.3641],[93.0435,20.3504]]],[[[92.7753,20.4392],[92.7559,20.4701],[92.7683,20.4705],[92.7972,20.4995],[92.8037,20.4826],[92.7789,20.4549],[92.7891,20.4417],[92.7753,20.4392]]],[[[92.7207,20.5712],[92.7008,20.5817],[92.6991,20.6049],[92.7084,20.5986],[92.7207,20.5712]]],[[[92.3262,20.5853],[92.3129,20.627],[92.3212,20.6346],[92.3296,20.5991],[92.3262,20.5853]]],[[[92.5844,20.7087],[92.6389,20.72],[92.6335,20.6965],[92.6086,20.6838],[92.5844,20.7087]]],[[[92.3511,20.7187],[92.3599,20.7178],[92.3431,20.7244],[92.3511,20.7187]]],[[[92.5795,20.723],[92.5491,20.7402],[92.5512,20.757],[92.5627,20.7432],[92.5806,20.749],[92.5795,20.723]]],[[[92.3145,20.9072],[92.3036,20.9269],[92.3159,20.9543],[92.3067,20.9822],[92.3326,20.9939],[92.3552,20.9436],[92.3145,20.9072]]],[[[92.3098,20.9528],[92.2969,20.9277],[92.2813,20.9476],[92.3007,20.9774],[92.3098,20.9528]]],[[[92.2638,21.0272],[92.2566,21.0234],[92.2613,21.0311],[92.2638,21.0272]]],[[[92.211,21.1081],[92.2201,21.109],[92.2195,21.103],[92.211,21.1081]]],[[[92.2102,21.1334],[92.2178,21.1235],[92.2076,21.1318],[92.2102,21.1334]]],[[[92.0109,21.5983],[92.0041,21.6176],[92.0071,21.6241],[92.0109,21.5983]]],[[[91.9399,21.735],[91.9484,21.6934],[91.989,21.6196],[91.9741,21.509],[91.9479,21.4896],[91.9164,21.7088],[91.9399,21.735]]],[[[92.0276,21.6687],[92.0131,21.6296],[92.0032,21.6316],[92.0276,21.6687]]],[[[91.9392,21.7524],[91.9207,21.7299],[91.9145,21.7585],[91.9392,21.7524]]],[[[91.9119,21.7472],[91.9121,21.7467],[91.912,21.7462],[91.9119,21.7472]]],[[[91.9399,21.7579],[91.9088,21.7733],[91.9473,21.7662],[91.9399,21.7579]]],[[[90.5575,22.628],[90.5695,22.6148],[90.5632,22.6057],[90.5575,22.628]]],[[[90.5829,22.5795],[90.5648,22.6457],[90.5889,22.6338],[90.5749,22.6586],[90.5439,22.6283],[90.539,22.641],[90.5913,22.7362],[90.6594,22.7846],[90.7309,22.7736],[90.7481,22.7258],[90.6069,22.6008],[90.5888,22.6067],[90.5999,22.5946],[90.5829,22.5795]]],[[[90.4893,22.7199],[90.4723,22.7396],[90.4747,22.7461],[90.4893,22.7199]]],[[[90.5288,22.6841],[90.4885,22.7697],[90.509,22.7926],[90.5482,22.768],[90.5473,22.7143],[90.5288,22.6841]]],[[[90.5657,22.7763],[90.6003,22.7771],[90.571,22.7444],[90.5657,22.7763]]],[[[90.4796,22.7568],[90.4576,22.7485],[90.4346,22.7747],[90.4604,22.7881],[90.4796,22.7568]]],[[[90.7987,22.7706],[90.8018,22.7834],[90.812,22.7824],[90.7987,22.7706]]],[[[90.5986,22.7863],[90.6042,22.8025],[90.6604,22.8159],[90.6273,22.786],[90.5986,22.7863]]],[[[90.4843,22.8343],[90.4637,22.8077],[90.4526,22.8264],[90.4843,22.8343]]],[[[90.7021,22.8276],[90.6907,22.8126],[90.6665,22.8261],[90.6686,22.8296],[90.7021,22.8276]]],[[[90.6367,22.8388],[90.6434,22.85],[90.647,22.8467],[90.6367,22.8388]]],[[[90.6758,22.8436],[90.6796,22.8543],[90.6937,22.8538],[90.6902,22.8484],[90.6758,22.8436]]],[[[90.6741,22.8794],[90.6623,22.8542],[90.6521,22.8487],[90.6554,22.8821],[90.6741,22.8794]]],[[[90.5488,22.7933],[90.4846,22.8396],[90.4608,22.8402],[90.4824,22.867],[90.5329,22.8745],[90.5502,22.8971],[90.5535,22.9442],[90.6506,22.8863],[90.6005,22.8155],[90.5488,22.7933]]],[[[90.5389,22.9578],[90.5431,22.8996],[90.515,22.8747],[90.4671,22.8659],[90.4447,22.8264],[90.4491,22.8052],[90.4274,22.8167],[90.4278,22.8417],[90.3951,22.8281],[90.3898,22.839],[90.4218,22.8989],[90.4173,22.9163],[90.3845,22.856],[90.3951,22.7999],[90.4151,22.7819],[90.3844,22.7899],[90.42,22.7752],[90.3923,22.7672],[90.3323,22.8477],[90.3807,22.9076],[90.3533,22.9932],[90.4309,22.9917],[90.4512,22.9721],[90.4551,23.0016],[90.5389,22.9578]]],[[[90.6311,22.9633],[90.6432,22.9568],[90.6418,22.9551],[90.6311,22.9633]]],[[[90.6632,22.9681],[90.6481,22.9807],[90.6485,22.9847],[90.6647,22.9825],[90.6632,22.9681]]],[[[90.4198,23.0042],[90.4418,23.0056],[90.4177,23.0005],[90.4198,23.0042]]],[[[90.5002,23.0161],[90.5044,23.0251],[90.5034,23.0104],[90.5002,23.0161]]],[[[90.5551,23.048],[90.5628,22.9968],[90.5357,23.0213],[90.5551,23.048]]],[[[90.4812,23.0388],[90.496,23.0157],[90.4929,23.0117],[90.4733,23.0279],[90.4812,23.0388]]],[[[90.5064,23.0378],[90.491,23.0532],[90.5057,23.0637],[90.5083,23.062],[90.5064,23.0378]]],[[[90.5192,23.06],[90.5266,23.0634],[90.5237,23.0524],[90.5192,23.06]]],[[[90.5168,23.1384],[90.5241,23.0914],[90.5131,23.0812],[90.5003,23.1001],[90.5168,23.1384]]],[[[90.4507,23.0566],[90.4435,23.1068],[90.4907,23.1312],[90.4643,23.1914],[90.4687,23.2012],[90.4724,23.1855],[90.5053,23.1688],[90.5079,23.1439],[90.4922,23.0819],[90.4684,23.097],[90.4507,23.0566]]],[[[90.4645,23.1499],[90.479,23.1329],[90.4571,23.1226],[90.4645,23.1499]]],[[[90.5412,23.1433],[90.5221,23.1767],[90.5317,23.2004],[90.5297,23.1719],[90.5449,23.1982],[90.5492,23.1828],[90.5412,23.1433]]],[[[90.5768,23.2038],[90.5761,23.1787],[90.5547,23.1611],[90.5541,23.1765],[90.5768,23.2038]]],[[[90.5544,23.2059],[90.5661,23.2048],[90.5566,23.1903],[90.5544,23.2059]]],[[[90.5855,23.2229],[90.5954,23.2312],[90.5899,23.2108],[90.5855,23.2229]]],[[[90.6161,23.2364],[90.6165,23.2235],[90.6141,23.2223],[90.6161,23.2364]]],[[[90.5631,23.2392],[90.5704,23.2357],[90.5578,23.2282],[90.5631,23.2392]]],[[[90.5816,23.2599],[90.5803,23.239],[90.5713,23.2467],[90.5816,23.2599]]],[[[90.6334,23.2534],[90.6232,23.2389],[90.6207,23.2617],[90.6334,23.2534]]],[[[90.552,23.2742],[90.5051,23.1817],[90.4788,23.1889],[90.4982,23.2794],[90.4511,23.3395],[90.5188,23.3285],[90.552,23.2742]]],[[[90.5699,23.308],[90.5699,23.3181],[90.5748,23.3061],[90.5699,23.308]]],[[[90.5583,23.3138],[90.5526,23.3295],[90.5608,23.3132],[90.5583,23.3138]]],[[[90.5857,23.3557],[90.591,23.3393],[90.5829,23.3499],[90.5857,23.3557]]],[[[90.6816,23.3461],[90.6734,23.3486],[90.6783,23.3582],[90.6816,23.3461]]],[[[90.4849,23.346],[90.4467,23.3667],[90.4464,23.3699],[90.4849,23.346]]],[[[90.542,23.3558],[90.5275,23.3583],[90.5293,23.3648],[90.542,23.3558]]],[[[90.5464,23.3722],[90.5529,23.3901],[90.5602,23.3673],[90.5464,23.3722]]],[[[90.4238,23.3903],[90.4829,23.3774],[90.4857,23.3672],[90.4378,23.3786],[90.4238,23.3903]]],[[[90.501,23.3839],[90.4506,23.3978],[90.4986,23.396],[90.501,23.3839]]],[[[90.5818,23.3682],[90.5719,23.3743],[90.5656,23.4056],[90.5851,23.43],[90.5714,23.3878],[90.5818,23.3682]]],[[[90.5686,23.4417],[90.5754,23.4453],[90.5713,23.4342],[90.5686,23.4417]]],[[[90.5615,23.4807],[90.563,23.4585],[90.5557,23.4454],[90.5401,23.475],[90.5615,23.4807]]],[[[90.6263,23.4961],[90.6184,23.4883],[90.6087,23.4896],[90.6132,23.4946],[90.6263,23.4961]]],[[[90.6637,23.5167],[90.6821,23.4877],[90.6436,23.5019],[90.6637,23.5167]]],[[[90.702,23.5148],[90.7056,23.4991],[90.6983,23.492],[90.702,23.5148]]],[[[90.5554,23.536],[90.5756,23.5199],[90.5753,23.5125],[90.5726,23.5117],[90.5554,23.536]]],[[[90.7019,23.5256],[90.6906,23.5452],[90.7032,23.5522],[90.7019,23.5256]]],[[[90.6669,23.5693],[90.6946,23.5158],[90.6576,23.5209],[90.5851,23.4883],[90.58,23.5629],[90.5632,23.583],[90.6371,23.6107],[90.6737,23.5817],[90.684,23.562],[90.6669,23.5693]]],[[[90.5542,23.5553],[90.5566,23.5649],[90.5668,23.5437],[90.5542,23.5553]]],[[[90.6949,23.5552],[90.6936,23.5641],[90.6992,23.5613],[90.6949,23.5552]]],[[[90.4749,23.568],[90.4666,23.5501],[90.4394,23.5536],[90.453,23.568],[90.4749,23.568]]],[[[90.6905,23.5679],[90.6789,23.5747],[90.6804,23.5794],[90.6905,23.5679]]],[[[90.4432,23.5992],[90.4335,23.558],[90.4251,23.6052],[90.4432,23.5992]]],[[[90.4517,23.5772],[90.4564,23.6062],[90.4791,23.5844],[90.5024,23.5851],[90.4517,23.5772]]],[[[90.7245,23.6497],[90.728,23.5954],[90.6991,23.573],[90.6684,23.59],[90.6585,23.6553],[90.6769,23.6476],[90.7245,23.6497]]],[[[90.6019,23.6062],[90.6261,23.6259],[90.6195,23.6099],[90.6019,23.6062]]],[[[90.637,23.6141],[90.6505,23.6631],[90.6634,23.6642],[90.6503,23.6478],[90.6474,23.6139],[90.637,23.6141]]],[[[90.6841,23.6613],[90.6694,23.6628],[90.6724,23.669],[90.6841,23.6613]]],[[[90.7253,23.6733],[90.7168,23.6597],[90.6913,23.6714],[90.7039,23.6812],[90.7253,23.6733]]],[[[90.6579,23.6711],[90.6474,23.6798],[90.6641,23.6736],[90.6579,23.6711]]],[[[90.6946,23.6848],[90.7146,23.7266],[90.7319,23.6849],[90.6946,23.6848]]],[[[94.7332,15.8221],[94.7914,15.9258],[94.8121,15.9418],[94.8402,15.869],[94.8108,15.7875],[94.7344,15.7929],[94.7332,15.8221]]],[[[94.8422,15.884],[94.8309,15.9006],[94.8309,15.9062],[94.8422,15.884]]],[[[94.515,15.9145],[94.5197,15.9423],[94.5225,15.9426],[94.515,15.9145]]],[[[94.6603,15.9655],[94.6647,15.9598],[94.6597,15.9602],[94.6603,15.9655]]],[[[94.8637,16.0362],[94.8491,16.0],[94.8099,15.9774],[94.845,16.0629],[94.8637,16.0362]]],[[[94.6944,16.0016],[94.7016,16.0264],[94.7171,16.0504],[94.7196,16.0274],[94.6944,16.0016]]],[[[94.6214,16.0421],[94.6182,16.0528],[94.6513,16.0928],[94.6425,16.0649],[94.6214,16.0421]]],[[[94.5799,16.0431],[94.5922,16.0997],[94.5718,16.0745],[94.573,16.0451],[94.5966,16.0307],[94.5938,16.0155],[94.5131,15.9889],[94.4649,15.9258],[94.4121,16.0056],[94.4535,16.0189],[94.5847,16.1991],[94.6492,16.2476],[94.6728,16.2033],[94.6476,16.1113],[94.5953,16.038],[94.5799,16.0431]]],[[[94.665,16.1337],[94.6684,16.1227],[94.6629,16.1192],[94.665,16.1337]]],[[[94.5263,16.1324],[94.5276,16.1457],[94.5448,16.1502],[94.5263,16.1324]]],[[[94.5266,16.2838],[94.5602,16.2407],[94.5404,16.2011],[94.5185,16.2316],[94.5266,16.2838]]],[[[94.6579,16.2763],[94.6604,16.2697],[94.6576,16.2671],[94.6579,16.2763]]],[[[94.6148,16.2946],[94.6165,16.3223],[94.6499,16.3302],[94.6864,16.3779],[94.6279,16.2577],[94.5788,16.2248],[94.5746,16.2472],[94.6148,16.2946]]],[[[94.6843,16.31],[94.6779,16.2989],[94.6812,16.3123],[94.6843,16.31]]],[[[94.695,16.3713],[94.7034,16.387],[94.6979,16.3684],[94.695,16.3713]]],[[[94.234,16.3846],[94.227,16.3781],[94.2321,16.3873],[94.234,16.3846]]],[[[94.253,16.5291],[94.2422,16.5182],[94.2493,16.5399],[94.253,16.5291]]],[[[94.5929,17.5688],[94.5871,17.5687],[94.588,17.5735],[94.5929,17.5688]]],[[[94.0921,18.0474],[94.0847,18.0602],[94.0996,18.0615],[94.0921,18.0474]]],[[[94.4417,18.1332],[94.452,18.1374],[94.4471,18.1291],[94.4417,18.1332]]],[[[94.3767,18.3504],[94.3768,18.3426],[94.371,18.3442],[94.3767,18.3504]]],[[[93.9109,18.4304],[93.9043,18.4342],[93.9054,18.4414],[93.9109,18.4304]]],[[[94.2341,18.5377],[94.2478,18.5369],[94.2436,18.5307],[94.2341,18.5377]]],[[[93.7935,18.6657],[93.8024,18.6113],[93.7859,18.6024],[93.7754,18.6206],[93.7935,18.6657]]],[[[93.8182,18.7147],[93.811,18.7247],[93.8158,18.7253],[93.8182,18.7147]]],[[[94.0091,18.7307],[93.9915,18.7312],[93.9846,18.744],[93.9961,18.7476],[94.0091,18.7307]]],[[[93.7415,18.8723],[93.7474,18.7242],[93.7201,18.6758],[93.6913,18.6669],[93.6373,18.6853],[93.5448,18.7668],[93.4825,18.8677],[93.5766,18.8837],[93.6152,18.9146],[93.6532,18.873],[93.7415,18.8723]]],[[[93.9408,18.8204],[93.9726,18.8367],[93.975,18.8024],[93.9923,18.7854],[93.9608,18.78],[93.9424,18.7993],[93.9408,18.8204]]],[[[94.1157,18.8095],[94.0733,18.8313],[94.0678,18.8476],[94.0864,18.8476],[94.1155,18.8697],[94.1131,18.8492],[94.1376,18.8564],[94.1346,18.8249],[94.1157,18.8095]]],[[[93.5253,18.8954],[93.5329,18.8997],[93.5366,18.8949],[93.5253,18.8954]]],[[[94.0331,19.0228],[94.0409,19.0389],[94.0559,19.0356],[94.0447,19.0229],[94.0331,19.0228]]],[[[94.0199,19.0422],[94.0346,19.0609],[94.0409,19.0594],[94.0346,19.0444],[94.0199,19.0422]]],[[[93.9972,19.103],[94.0167,19.1014],[94.0006,19.0971],[93.9972,19.103]]],[[[93.8194,19.2598],[93.8359,19.2586],[93.8263,19.2521],[93.8194,19.2598]]],[[[93.7439,19.2818],[93.7604,19.2793],[93.7547,19.2753],[93.7439,19.2818]]],[[[93.837,19.2717],[93.8367,19.2933],[93.8451,19.2768],[93.837,19.2717]]],[[[93.8654,19.2833],[93.8532,19.2712],[93.8486,19.2721],[93.8502,19.296],[93.8654,19.2833]]],[[[93.7747,19.2932],[93.8275,19.295],[93.8326,19.2758],[93.8002,19.2673],[93.7747,19.2932]]],[[[94.0419,19.3426],[94.0545,19.3488],[94.0466,19.337],[94.0419,19.3426]]],[[[93.6509,19.3456],[93.6527,19.3733],[93.6864,19.3668],[93.6691,19.3399],[93.6509,19.3456]]],[[[93.6891,19.3979],[93.6737,19.391],[93.6631,19.4074],[93.6891,19.3979]]],[[[93.6319,19.4231],[93.6406,19.4241],[93.6363,19.4039],[93.6319,19.4231]]],[[[93.6616,19.429],[93.6551,19.4218],[93.6531,19.4273],[93.6616,19.429]]],[[[93.5999,19.442],[93.6099,19.4506],[93.6157,19.4504],[93.614,19.4362],[93.5999,19.442]]],[[[93.5981,19.4617],[93.5827,19.4751],[93.5946,19.4729],[93.5981,19.4617]]],[[[93.5366,19.4636],[93.5311,19.4769],[93.5522,19.4705],[93.5366,19.4636]]],[[[93.6058,19.4669],[93.6031,19.4878],[93.6175,19.4951],[93.6441,19.4497],[93.6058,19.4669]]],[[[93.5338,19.4866],[93.5197,19.4767],[93.5116,19.4978],[93.5195,19.5018],[93.5338,19.4866]]],[[[93.5489,19.4801],[93.5182,19.5238],[93.5768,19.4794],[93.5489,19.4801]]],[[[93.8301,19.4819],[93.7709,19.5239],[93.7689,19.5315],[93.8592,19.5001],[93.8301,19.4819]]],[[[93.5319,19.5332],[93.5248,19.5359],[93.525,19.5391],[93.5319,19.5332]]],[[[93.6321,19.5433],[93.6397,19.5666],[93.6662,19.5656],[93.6621,19.5474],[93.6321,19.5433]]],[[[93.4999,19.5532],[93.5014,19.5448],[93.4902,19.5639],[93.4999,19.5532]]],[[[93.6007,19.5511],[93.5878,19.5576],[93.5987,19.5569],[93.6007,19.5511]]],[[[93.6597,19.5781],[93.6728,19.5734],[93.6743,19.5716],[93.6681,19.5679],[93.6597,19.5781]]],[[[93.7184,19.5938],[93.7067,19.5966],[93.7034,19.6042],[93.7184,19.5938]]],[[[93.6013,19.6074],[93.6265,19.6262],[93.635,19.6109],[93.6013,19.6074]]],[[[93.6614,19.6301],[93.6539,19.6291],[93.6549,19.6392],[93.6614,19.6301]]],[[[93.5469,19.649],[93.5394,19.6491],[93.5373,19.6578],[93.5469,19.649]]],[[[93.6886,19.6621],[93.7,19.6579],[93.6921,19.6539],[93.6886,19.6621]]],[[[93.5654,19.664],[93.5894,19.6599],[93.5687,19.6491],[93.5654,19.664]]],[[[93.5,19.7047],[93.5017,19.6741],[93.457,19.6908],[93.4078,19.7406],[93.4406,19.7464],[93.5,19.7047]]],[[[93.8104,19.7264],[93.814,19.7108],[93.8111,19.7096],[93.8104,19.7264]]],[[[93.5438,19.6949],[93.5539,19.687],[93.5246,19.6804],[93.5162,19.7214],[93.5825,19.7697],[93.5762,19.7142],[93.5438,19.6949]]],[[[93.5022,19.7176],[93.4829,19.7251],[93.4726,19.7381],[93.4967,19.7301],[93.5022,19.7176]]],[[[93.6388,19.7183],[93.6308,19.7333],[93.6489,19.7721],[93.6629,19.7797],[93.6663,19.76],[93.6934,19.7879],[93.7046,19.7612],[93.6946,19.7183],[93.6388,19.7183]]],[[[93.5815,19.789],[93.5583,19.7629],[93.5489,19.7621],[93.5456,19.7889],[93.5667,19.8012],[93.5815,19.789]]],[[[93.6706,19.8147],[93.6742,19.7998],[93.6318,19.7618],[93.5996,19.7099],[93.5916,19.7776],[93.6301,19.8135],[93.6423,19.8601],[93.7012,19.8521],[93.6706,19.8147]]],[[[93.4054,19.7978],[93.3997,19.8053],[93.4035,19.8074],[93.4054,19.7978]]],[[[93.7016,19.7919],[93.7213,19.8073],[93.7435,19.8326],[93.7368,19.7887],[93.7016,19.7919]]],[[[93.7925,19.8314],[93.7726,19.7636],[93.717,19.7625],[93.7037,19.7795],[93.7469,19.7906],[93.7545,19.8254],[93.7409,19.8452],[93.7634,19.8635],[93.7925,19.8314]]],[[[93.5964,19.8282],[93.5822,19.8034],[93.5446,19.8059],[93.5665,19.8315],[93.5964,19.8282]]],[[[93.6806,19.7981],[93.6872,19.8262],[93.734,19.8509],[93.7326,19.8242],[93.6806,19.7981]]],[[[93.4773,19.9022],[93.4978,19.8995],[93.5115,19.8611],[93.5051,19.8348],[93.4822,19.8391],[93.4692,19.8297],[93.499,19.8213],[93.5212,19.7592],[93.5112,19.7345],[93.4446,19.7876],[93.3958,19.9583],[93.4274,19.9541],[93.4773,19.9022]]],[[[93.5996,19.843],[93.5459,19.8272],[93.5471,19.8669],[93.5941,19.8746],[93.6184,19.9037],[93.6589,19.9056],[93.5996,19.843]]],[[[93.7236,19.8673],[93.6902,19.8775],[93.6633,19.8581],[93.6521,19.8729],[93.6999,19.8948],[93.719,19.882],[93.7357,19.8838],[93.7236,19.8673]]],[[[93.7206,19.8914],[93.7226,19.8864],[93.7106,19.8934],[93.7206,19.8914]]],[[[93.5289,19.9084],[93.5269,19.8703],[93.5187,19.8667],[93.5011,19.9039],[93.5289,19.9084]]],[[[93.5936,19.9044],[93.5855,19.8796],[93.5699,19.8837],[93.5936,19.9044]]],[[[93.7112,19.9182],[93.7223,19.9264],[93.7264,19.9232],[93.7112,19.9182]]],[[[93.498,19.9161],[93.5036,19.9304],[93.5093,19.9231],[93.498,19.9161]]],[[[93.2272,19.8161],[93.1633,19.9447],[93.1267,20.0519],[93.1576,20.0248],[93.1809,19.9394],[93.2507,19.8162],[93.2272,19.8161]]],[[[93.4994,19.9347],[93.4842,19.9297],[93.4678,19.9349],[93.4991,19.9572],[93.4994,19.9347]]],[[[93.4629,19.939],[93.4711,19.9623],[93.4875,19.9522],[93.4629,19.939]]],[[[93.4609,19.9581],[93.4444,19.9893],[93.4543,19.9927],[93.4609,19.9581]]],[[[93.4831,19.9701],[93.4747,19.9808],[93.4747,19.9909],[93.497,19.9809],[93.4831,19.9701]]],[[[93.1373,20.0718],[93.1742,20.0586],[93.1752,20.0428],[93.1373,20.0718]]],[[[93.3313,20.0589],[93.3391,20.0728],[93.3333,20.0521],[93.3313,20.0589]]],[[[93.1264,20.0691],[93.1259,20.0572],[93.1188,20.0584],[93.1264,20.0691]]],[[[93.3034,20.1704],[93.3109,20.1152],[93.3309,20.0821],[93.2991,20.0481],[93.2862,20.0946],[93.3034,20.1704]]],[[[93.3256,20.1211],[93.328,20.1069],[93.3129,20.1366],[93.3256,20.1211]]],[[[93.2035,20.0935],[93.1892,20.0627],[93.1329,20.0846],[93.0981,20.1542],[93.123,20.1798],[93.1761,20.1878],[93.1898,20.168],[93.2242,20.1518],[93.2312,20.113],[93.2035,20.0935]]],[[[93.2744,20.0875],[93.2911,20.0604],[93.275,20.0333],[93.2057,20.0497],[93.2079,20.0922],[93.2467,20.116],[93.2317,20.1537],[93.1829,20.1916],[93.2081,20.2124],[93.2167,20.2346],[93.2528,20.2428],[93.2513,20.2636],[93.2766,20.2438],[93.3004,20.1904],[93.2837,20.1579],[93.251,20.146],[93.2845,20.1445],[93.2744,20.0875]]],[[[93.3577,20.27],[93.3906,20.2092],[93.4112,20.1214],[93.4012,20.1103],[93.3839,20.1859],[93.3959,20.1024],[93.3666,20.084],[93.3799,20.0275],[93.3672,20.0156],[93.3556,20.0728],[93.3143,20.1414],[93.3067,20.2079],[93.2713,20.2575],[93.2776,20.2882],[93.2677,20.2972],[93.2839,20.3204],[93.3206,20.3269],[93.3364,20.2789],[93.3577,20.27]]],[[[93.193,20.2818],[93.143,20.2188],[93.1272,20.2428],[93.1284,20.2167],[93.0613,20.1595],[93.0187,20.1333],[92.9977,20.1385],[93.0012,20.2153],[93.0221,20.2687],[93.0399,20.2773],[93.04,20.3263],[93.0911,20.3689],[93.12,20.3744],[93.1322,20.3447],[93.1199,20.3296],[93.1288,20.321],[93.1403,20.3166],[93.1334,20.3059],[93.1755,20.3243],[93.2129,20.3129],[93.2135,20.2929],[93.193,20.2818]]],[[[93.2677,20.3154],[93.2636,20.2969],[93.2728,20.2683],[93.2385,20.2685],[93.2444,20.3054],[93.2677,20.3154]]],[[[93.2914,20.353],[93.2847,20.3436],[93.2902,20.3544],[93.2914,20.353]]],[[[97.9277,13.8521],[97.9134,13.7836],[97.9026,13.797],[97.9125,13.8685],[97.9277,13.8521]]],[[[97.9074,13.9421],[97.9169,13.926],[97.9173,13.8862],[97.9021,13.9267],[97.9074,13.9421]]],[[[97.8154,14.1343],[97.8045,14.109],[97.8013,14.1339],[97.8154,14.1343]]],[[[97.7883,14.176],[97.8243,14.1837],[97.7919,14.1344],[97.7792,14.1517],[97.7883,14.176]]],[[[97.8099,14.2617],[97.802,14.2771],[97.8138,14.2806],[97.8099,14.2617]]],[[[97.7802,14.389],[97.7672,14.4001],[97.7836,14.4145],[97.7802,14.389]]],[[[97.777,14.4412],[97.7657,14.4339],[97.7657,14.4376],[97.777,14.4412]]],[[[97.7274,15.0641],[97.7389,15.0666],[97.7323,15.0554],[97.7274,15.0641]]],[[[97.744,15.0871],[97.7371,15.088],[97.7381,15.0962],[97.744,15.0871]]],[[[97.7351,15.2072],[97.7376,15.1921],[97.7324,15.193],[97.7351,15.2072]]],[[[97.6608,15.5668],[97.6552,15.494],[97.6462,15.5884],[97.6504,15.5634],[97.6608,15.5668]]],[[[95.1104,15.6706],[95.1155,15.6605],[95.1074,15.6644],[95.1104,15.6706]]],[[[95.0567,15.6656],[95.0564,15.6728],[95.0717,15.6793],[95.0567,15.6656]]],[[[95.2044,15.6826],[95.2064,15.6698],[95.1831,15.6708],[95.189,15.6793],[95.2044,15.6826]]],[[[95.2757,15.6791],[95.2641,15.6731],[95.2634,15.6823],[95.2757,15.6791]]],[[[95.0624,15.7327],[95.0443,15.7145],[95.0181,15.7194],[95.0521,15.7421],[95.0624,15.7327]]],[[[95.0663,15.8118],[95.0534,15.8195],[95.0646,15.8444],[95.0697,15.8263],[95.0663,15.8118]]],[[[95.0651,15.8834],[95.0649,15.8676],[95.0628,15.8664],[95.0651,15.8834]]],[[[95.313,15.9345],[95.3209,15.9478],[95.3327,15.9568],[95.3321,15.9424],[95.313,15.9345]]],[[[95.2678,15.9852],[95.2507,15.9233],[95.241,15.9118],[95.2678,15.9852]]],[[[95.3453,15.9714],[95.3453,15.9583],[95.3396,15.9546],[95.3384,15.9631],[95.3453,15.9714]]],[[[95.1207,15.9944],[95.104,15.939],[95.102,15.9576],[95.1207,15.9944]]],[[[95.2736,15.8683],[95.2473,15.8572],[95.2349,15.8718],[95.273,15.9563],[95.2842,16.0323],[95.3264,16.0786],[95.3489,16.0],[95.2736,15.8683]]],[[[95.0752,16.0156],[95.0846,16.0328],[95.0807,16.0085],[95.0752,16.0156]]],[[[95.1377,16.0363],[95.0987,15.9801],[95.0997,16.046],[95.1202,16.0802],[95.1719,16.1117],[95.2087,16.1057],[95.1806,16.075],[95.1854,16.028],[95.1377,16.0363]]],[[[95.1454,16.1152],[95.1551,16.121],[95.1617,16.1199],[95.1454,16.1152]]],[[[95.1272,16.1448],[95.1362,16.1514],[95.1277,16.1379],[95.1272,16.1448]]],[[[95.3685,16.1971],[95.3608,16.1503],[95.3213,16.1173],[95.3183,16.1719],[95.3685,16.1971]]],[[[95.8876,16.2228],[95.8727,16.2216],[95.8943,16.2393],[95.8876,16.2228]]],[[[95.9078,16.2866],[95.9133,16.2749],[95.9016,16.2554],[95.9031,16.273],[95.9078,16.2866]]],[[[97.5955,16.3324],[97.6161,16.2774],[97.5936,16.2399],[97.5804,16.3194],[97.5955,16.3324]]],[[[95.9178,16.273],[95.913,16.3313],[95.9399,16.3786],[95.9563,16.3263],[95.9441,16.2474],[95.9064,16.2095],[95.871,16.2021],[95.8981,16.2329],[95.9178,16.273]]],[[[96.0412,16.2625],[95.927,16.2097],[95.9557,16.2478],[95.9886,16.3774],[96.0188,16.3769],[96.0736,16.3414],[96.0835,16.3147],[96.0412,16.2625]]],[[[95.9615,16.2951],[95.9577,16.3129],[95.9577,16.3487],[95.9672,16.3175],[95.9615,16.2951]]],[[[96.0681,16.3567],[96.0805,16.3436],[96.0648,16.3563],[96.0681,16.3567]]],[[[97.5825,16.4071],[97.5904,16.3597],[97.5642,16.2884],[97.5721,16.2436],[97.5591,16.2244],[97.5368,16.2262],[97.5009,16.2468],[97.4565,16.3187],[97.482,16.3525],[97.4418,16.4469],[97.472,16.4712],[97.4489,16.4757],[97.5023,16.5124],[97.5793,16.4835],[97.6081,16.4883],[97.6115,16.4467],[97.5825,16.4071]]],[[[95.9343,16.3798],[95.9279,16.3735],[95.9334,16.3835],[95.9343,16.3798]]],[[[95.9641,16.4063],[95.9924,16.3898],[95.9658,16.3464],[95.9522,16.3705],[95.9641,16.4063]]],[[[95.9515,16.3792],[95.9437,16.3836],[95.9477,16.39],[95.9515,16.3792]]],[[[95.9967,16.3988],[96.0038,16.385],[95.9936,16.399],[95.9967,16.3988]]],[[[95.9325,16.3958],[95.9399,16.3965],[95.9418,16.3884],[95.9325,16.3958]]],[[[97.6029,16.3816],[97.601,16.3972],[97.6051,16.4101],[97.6131,16.3953],[97.6029,16.3816]]],[[[96.1781,16.525],[96.1851,16.5578],[96.1801,16.5847],[96.2356,16.5983],[96.2628,16.5187],[96.3026,16.4722],[96.2944,16.4457],[96.3266,16.4653],[96.3211,16.447],[96.336,16.4437],[96.281,16.3911],[96.1241,16.314],[96.0992,16.3264],[96.0914,16.3535],[96.109,16.3796],[96.1432,16.3846],[96.1689,16.4176],[96.1488,16.4548],[96.1585,16.453],[96.1804,16.4603],[96.1866,16.4686],[96.1895,16.4766],[96.1831,16.4835],[96.1985,16.4841],[96.1781,16.525]]],[[[96.3192,16.4688],[96.309,16.4677],[96.3076,16.4757],[96.3192,16.4688]]],[[[97.5739,16.4879],[97.5885,16.4907],[97.5905,16.4882],[97.5739,16.4879]]],[[[97.5339,16.514],[97.5541,16.503],[97.5285,16.5115],[97.5339,16.514]]],[[[98.0,14.2877],[97.9679,14.3954],[98.0,14.4789],[98.0,14.2877]]],[[[97.9963,14.4786],[97.9654,14.4261],[97.9408,14.5262],[97.9058,14.5783],[97.9134,14.6195],[97.9047,14.6107],[97.8728,14.671],[97.8944,14.7054],[97.8855,14.7229],[97.8678,14.7078],[97.8392,14.7188],[97.7917,14.8683],[97.8083,14.9501],[97.7969,14.9972],[97.8132,15.0062],[97.8244,15.0243],[97.791,14.9984],[97.7707,15.0183],[97.7958,15.0271],[97.8063,15.1503],[97.787,15.1795],[97.7951,15.1903],[97.7653,15.1971],[97.7387,15.2445],[97.7417,15.295],[97.7215,15.3328],[97.7274,15.3548],[97.7469,15.3561],[97.7465,15.3837],[97.7828,15.397],[97.7408,15.4871],[97.762,15.5281],[97.6994,15.7541],[97.7217,15.7717],[97.7179,15.8434],[97.6754,15.9144],[97.6103,15.949],[97.6035,15.9803],[97.5713,16.0108],[97.5582,16.0726],[97.5967,16.0851],[97.6143,16.0611],[97.6277,16.0504],[97.648,16.0442],[97.6654,16.0486],[97.6772,16.0283],[97.6969,16.0274],[97.6673,16.0521],[97.6202,16.0587],[97.6072,16.1036],[97.5978,16.097],[97.6438,16.27],[97.6155,16.3556],[97.6294,16.3873],[97.6141,16.4256],[97.6284,16.4532],[97.6253,16.5],[97.6486,16.4984],[97.6621,16.5123],[97.6624,16.4765],[97.6823,16.4655],[97.7025,16.4706],[97.7044,16.4501],[97.7232,16.4502],[97.7199,16.4268],[97.7539,16.4141],[97.7355,16.4023],[97.7334,16.3833],[97.7784,16.3746],[97.7974,16.354],[97.7858,16.3396],[97.7874,16.3327],[97.8346,16.3236],[97.8601,16.2918],[97.8887,16.2862],[97.8521,16.3024],[97.8441,16.3234],[97.7924,16.3327],[97.8031,16.3534],[97.7905,16.3703],[97.7614,16.386],[97.7372,16.386],[97.7578,16.4177],[97.7289,16.4247],[97.7259,16.4541],[97.7068,16.4536],[97.7023,16.474],[97.6641,16.48],[97.6755,16.5007],[97.6684,16.5455],[97.7465,16.5616],[97.7089,16.5706],[97.6685,16.5549],[97.6441,16.6134],[97.6214,16.6432],[97.6076,16.581],[97.6264,16.5585],[97.6215,16.5187],[97.5325,16.5376],[97.4886,16.5387],[97.481,16.5218],[97.3928,16.5251],[97.3629,16.479],[97.3284,16.6589],[97.3466,16.6471],[97.3939,16.64],[97.4108,16.6424],[97.4241,16.6584],[97.3928,16.6437],[97.3457,16.6544],[97.3406,16.6666],[97.3578,16.6694],[97.3476,16.6786],[97.328,16.6669],[97.3301,16.6963],[97.3439,16.6953],[97.3419,16.7341],[97.3402,16.7096],[97.3207,16.7102],[97.3185,16.6679],[97.2772,16.6862],[97.2398,16.7684],[97.2498,16.8225],[97.2349,16.8088],[97.2226,16.8417],[97.227,16.8573],[97.2664,16.8441],[97.2781,16.8505],[97.2659,16.8701],[97.265,16.8481],[97.2228,16.8672],[97.2092,16.8129],[97.1998,16.8823],[97.2181,16.9017],[97.2191,16.9379],[97.1906,16.8911],[97.1749,16.8905],[97.1693,16.9107],[97.2072,17.008],[97.1547,17.0679],[97.1533,17.0952],[97.1909,17.1169],[97.2134,17.0874],[97.2646,17.1036],[97.2278,17.1029],[97.2063,17.1338],[97.1791,17.1294],[97.1365,17.1162],[97.1343,17.0806],[97.1143,17.0778],[97.0887,17.1652],[97.1067,17.1878],[97.0833,17.1817],[97.0592,17.2533],[97.0003,17.2668],[97.0091,17.3],[96.9116,17.357],[96.8832,17.4541],[96.8649,17.3961],[96.8434,17.3893],[96.849,17.4134],[96.8209,17.4331],[96.7944,17.4883],[96.7859,17.4899],[96.7671,17.4792],[96.7344,17.4353],[96.7735,17.3764],[96.7225,17.3474],[96.6924,17.3664],[96.6498,17.3383],[96.6683,17.2691],[96.6962,17.2479],[96.7086,17.2545],[96.6769,17.2675],[96.6854,17.3453],[96.7251,17.3382],[96.8366,17.3809],[96.8401,17.3648],[96.8443,17.3762],[96.8597,17.3614],[96.856,17.3431],[96.863,17.3527],[96.9111,17.3214],[96.8907,17.3119],[96.9129,17.3049],[96.9024,17.2717],[96.8335,17.2052],[96.8487,17.2008],[96.8771,17.1122],[96.9001,17.0889],[96.9121,17.0177],[96.8737,16.911],[96.8383,16.9272],[96.8509,16.9591],[96.8346,16.9511],[96.8316,16.9194],[96.8552,16.8876],[96.8359,16.9046],[96.8251,16.8937],[96.8073,16.9106],[96.7968,16.9065],[96.8333,16.8788],[96.8531,16.8372],[96.8078,16.7555],[96.7808,16.7817],[96.7746,16.7731],[96.8013,16.7397],[96.7713,16.6916],[96.5964,16.5366],[96.4938,16.5046],[96.3837,16.4966],[96.2847,16.5537],[96.2867,16.5918],[96.3336,16.6234],[96.4269,16.6076],[96.4699,16.6127],[96.3313,16.6287],[96.2874,16.6001],[96.2777,16.5775],[96.2637,16.6474],[96.2348,16.6789],[96.2228,16.7542],[96.3156,16.8334],[96.3456,16.8334],[96.3941,16.8594],[96.4084,16.8552],[96.4861,16.8699],[96.5119,16.8882],[96.4839,16.8731],[96.3948,16.864],[96.3244,16.8384],[96.32,16.869],[96.3477,16.9059],[96.3007,16.8638],[96.298,16.8408],[96.2776,16.8693],[96.3037,16.8261],[96.2035,16.7632],[96.1848,16.7765],[96.195,16.7898],[96.1915,16.7999],[96.2124,16.7983],[96.2246,16.8111],[96.2182,16.8412],[96.2089,16.8458],[96.2203,16.8109],[96.1917,16.8059],[96.1802,16.7768],[96.1973,16.7597],[96.1288,16.7711],[96.1208,16.8137],[96.1155,16.8122],[96.1319,16.7589],[96.119,16.7566],[96.1921,16.7409],[96.2158,16.6707],[96.2461,16.636],[96.2366,16.6077],[96.1735,16.5831],[96.1736,16.5163],[96.1926,16.4892],[96.1804,16.4874],[96.1754,16.4635],[96.1417,16.4537],[96.1628,16.4177],[96.0771,16.3572],[96.0173,16.3845],[95.9964,16.4107],[95.9121,16.4109],[95.9275,16.385],[95.9059,16.3295],[95.8912,16.2446],[95.7786,16.1291],[95.7544,16.1266],[95.7404,16.1452],[95.7269,16.264],[95.7096,16.2731],[95.7229,16.2566],[95.7382,16.113],[95.6966,16.046],[95.6931,15.9993],[95.6483,15.9258],[95.5158,15.7881],[95.4264,15.7213],[95.358,15.7039],[95.2868,15.7187],[95.2704,15.8008],[95.2791,15.8463],[95.3045,15.8527],[95.2973,15.8621],[95.3195,15.8808],[95.3399,15.88],[95.3404,15.9023],[95.3479,15.8805],[95.3809,15.8721],[95.3989,15.8768],[95.4126,15.9056],[95.3871,15.8768],[95.3534,15.8849],[95.3388,15.9054],[95.3356,15.8829],[95.3225,15.8868],[95.2984,15.8701],[95.3477,15.9473],[95.364,16.0503],[95.3962,16.0616],[95.3628,16.0583],[95.3368,16.0993],[95.3706,16.1492],[95.3907,16.2396],[95.3263,16.1926],[95.306,16.1581],[95.3266,16.0873],[95.2792,16.0394],[95.2352,15.9326],[95.2101,15.8565],[95.2226,15.7902],[95.1768,15.7679],[95.1243,15.7917],[95.1094,15.8899],[95.1332,16.0193],[95.1896,16.0246],[95.1927,16.0799],[95.2671,16.1495],[95.1911,16.1138],[95.2079,16.1777],[95.1799,16.1374],[95.1526,16.1389],[95.165,16.1263],[95.1328,16.1239],[95.1442,16.168],[95.1293,16.2051],[95.1408,16.2315],[95.1236,16.2066],[95.1323,16.1672],[95.1198,16.1153],[95.0867,16.0923],[95.0561,16.0354],[95.0701,15.9441],[95.0369,15.8038],[95.0011,15.7788],[94.9868,15.7848],[94.9843,15.8484],[94.9821,15.76],[94.9476,15.7412],[94.8343,15.7808],[94.8398,15.8061],[94.8893,15.8274],[94.8713,15.8954],[94.9508,15.9456],[94.9443,15.9536],[94.8637,15.8968],[94.873,15.8249],[94.845,15.8298],[94.8373,15.8467],[94.8501,15.8762],[94.8384,15.9381],[94.8233,15.9327],[94.8283,15.9601],[94.8619,16.0],[94.9145,16.0],[94.9218,16.0306],[94.9054,16.0748],[94.9333,16.0861],[94.9556,16.131],[95.0226,16.1351],[95.0225,16.1603],[95.0557,16.1994],[95.0566,16.2159],[95.0465,16.2391],[95.0693,16.2458],[95.1006,16.3006],[95.0652,16.2477],[95.0432,16.2457],[95.0479,16.1971],[95.0137,16.1616],[95.0162,16.1437],[94.9529,16.1388],[94.9304,16.0942],[94.9029,16.083],[94.9154,16.0299],[94.8918,16.0061],[94.8785,16.0115],[94.8656,16.1351],[94.8888,16.1817],[94.9573,16.1962],[95.0257,16.2628],[95.0421,16.3097],[95.0649,16.3114],[95.0509,16.3127],[95.0505,16.3334],[95.0165,16.2669],[94.9522,16.211],[94.8726,16.1872],[94.8388,16.1108],[94.8497,16.0723],[94.7194,15.8504],[94.6856,15.8371],[94.634,15.8613],[94.6005,15.9202],[94.6697,15.9557],[94.7184,16.0],[94.7362,16.0636],[94.7845,16.0965],[94.763,16.1241],[94.7876,16.1316],[94.8071,16.1998],[94.8411,16.2149],[94.8519,16.2428],[94.8035,16.2062],[94.7764,16.1448],[94.7554,16.1316],[94.7516,16.0937],[94.7196,16.0669],[94.6841,16.0],[94.5736,15.9294],[94.5495,15.9488],[94.5501,15.966],[94.5608,15.9567],[94.6846,16.1148],[94.6806,16.2026],[94.7209,16.2029],[94.7589,16.2373],[94.7395,16.2574],[94.7567,16.2809],[94.7336,16.2564],[94.7496,16.2377],[94.7262,16.2305],[94.7192,16.2091],[94.6748,16.2152],[94.6636,16.2472],[94.6981,16.2454],[94.7087,16.2549],[94.7058,16.2669],[94.6983,16.2493],[94.6636,16.2541],[94.6881,16.3066],[94.6989,16.3555],[94.7371,16.354],[94.7548,16.3841],[94.7858,16.3564],[94.8134,16.3559],[94.8254,16.3704],[94.7948,16.3601],[94.7519,16.3905],[94.7347,16.3608],[94.7195,16.3662],[94.7242,16.3986],[94.7432,16.4022],[94.75,16.4194],[94.7586,16.4096],[94.7705,16.4093],[94.7839,16.4261],[94.7588,16.4137],[94.7478,16.4265],[94.7126,16.3942],[94.6959,16.4757],[94.7404,16.5202],[94.7463,16.569],[94.7897,16.5778],[94.8004,16.5907],[94.7465,16.5768],[94.7237,16.5101],[94.6898,16.4927],[94.6782,16.5132],[94.7012,16.5517],[94.7103,16.6135],[94.7423,16.6328],[94.7216,16.6873],[94.7447,16.6957],[94.7416,16.7301],[94.7218,16.7336],[94.738,16.7245],[94.7361,16.7004],[94.7173,16.6913],[94.7097,16.6537],[94.733,16.629],[94.6784,16.6436],[94.6989,16.6798],[94.6889,16.7396],[94.6936,16.6767],[94.6754,16.6933],[94.6823,16.6714],[94.6688,16.6524],[94.6511,16.6702],[94.6557,16.6579],[94.6743,16.6497],[94.6581,16.6276],[94.6913,16.6391],[94.7012,16.6217],[94.6924,16.5549],[94.6644,16.5184],[94.6796,16.3932],[94.6529,16.3403],[94.6233,16.338],[94.6403,16.3836],[94.6062,16.3372],[94.6021,16.2844],[94.5648,16.2582],[94.5311,16.2921],[94.5464,16.308],[94.518,16.2901],[94.5109,16.1802],[94.4336,16.0697],[94.3797,16.0546],[94.2428,16.2613],[94.2309,16.3217],[94.2643,16.3968],[94.2771,16.4963],[94.2615,16.5308],[94.2907,16.5386],[94.2897,16.5191],[94.3149,16.5196],[94.3503,16.5688],[94.3234,16.6004],[94.3508,16.6207],[94.3679,16.6149],[94.3563,16.6903],[94.3759,16.7572],[94.4039,16.7884],[94.3788,16.8748],[94.3885,16.907],[94.4106,16.8895],[94.4434,16.9306],[94.484,16.9432],[94.4782,16.9576],[94.443,16.9481],[94.4582,16.9806],[94.4567,17.0673],[94.4896,17.1177],[94.4558,17.1417],[94.4447,17.179],[94.4644,17.1882],[94.4993,17.1568],[94.5216,17.1687],[94.5363,17.1869],[94.5014,17.2162],[94.5083,17.2999],[94.5264,17.2768],[94.5464,17.2903],[94.5409,17.319],[94.5815,17.2885],[94.5917,17.3042],[94.5715,17.3171],[94.5654,17.4983],[94.5416,17.5488],[94.563,17.5931],[94.6099,17.5365],[94.6111,17.5501],[94.5769,17.5914],[94.5884,17.6192],[94.5693,17.6453],[94.5588,17.6362],[94.5416,17.6813],[94.5448,17.7349],[94.4898,17.7824],[94.4815,17.9029],[94.4375,17.9956],[94.4777,18.0065],[94.4847,18.0557],[94.4469,18.1691],[94.4208,18.1909],[94.4268,18.2197],[94.4075,18.2462],[94.3372,18.2416],[94.3221,18.2642],[94.3284,18.302],[94.3911,18.2835],[94.4074,18.3107],[94.4023,18.3463],[94.3816,18.3656],[94.3376,18.3662],[94.3225,18.4359],[94.2492,18.5245],[94.2626,18.5486],[94.2513,18.5468],[94.2579,18.6085],[94.2402,18.6458],[94.1409,18.736],[94.1743,18.7141],[94.1745,18.7283],[94.2197,18.7182],[94.28,18.7351],[94.253,18.7341],[94.2492,18.7552],[94.2388,18.7347],[94.2169,18.731],[94.2064,18.7431],[94.2243,18.7812],[94.2039,18.7527],[94.1916,18.7712],[94.1994,18.7931],[94.1831,18.7796],[94.1466,18.8144],[94.1762,18.8347],[94.1458,18.8353],[94.1523,18.8795],[94.1696,18.89],[94.1467,18.8848],[94.127,18.8567],[94.1169,18.8566],[94.1287,18.8786],[94.0553,18.8461],[94.0309,18.8633],[94.0439,18.8846],[94.0738,18.8676],[94.0906,18.8806],[94.1057,18.8997],[94.1353,18.8919],[94.1086,18.9296],[94.113,18.9662],[94.0864,18.8797],[94.0718,18.8743],[94.031,18.9005],[94.0552,18.9352],[94.0364,18.9913],[94.0632,19.0376],[94.0586,19.0598],[94.1021,19.0766],[94.0897,19.0849],[94.097,19.0986],[94.1228,19.0846],[94.109,19.1051],[94.1466,19.1191],[94.1161,19.1204],[94.0545,19.0754],[94.0272,19.0792],[94.0375,19.1067],[94.1385,19.1514],[94.1357,19.1796],[94.1295,19.1561],[94.1075,19.1513],[94.0927,19.1822],[94.0911,19.1484],[94.0648,19.1263],[94.0735,19.165],[94.0624,19.1881],[94.0568,19.1255],[94.0329,19.1296],[94.0492,19.2206],[94.0711,19.2339],[94.0469,19.2483],[94.0435,19.3119],[94.0762,19.3746],[94.0686,19.3853],[94.0315,19.3281],[94.0354,19.2177],[94.0163,19.1814],[93.9914,19.2229],[94.0,19.1502],[93.9663,19.1394],[93.9439,19.1562],[93.9453,19.1934],[93.9092,19.1995],[93.9677,19.1238],[93.9534,19.0885],[93.9557,19.0208],[93.9858,18.9614],[93.9324,18.8475],[93.8923,18.8923],[93.7728,18.9664],[93.7448,18.9689],[93.7151,19.0075],[93.6742,19.0103],[93.6659,19.0664],[93.6901,19.0844],[93.6976,19.1146],[93.7476,19.1213],[93.6942,19.1196],[93.6897,19.0961],[93.6629,19.0763],[93.6393,19.1378],[93.5993,19.1513],[93.5699,19.2256],[93.4722,19.3669],[93.4841,19.4091],[93.5135,19.4341],[93.5509,19.4324],[93.568,19.4163],[93.5514,19.4101],[93.5682,19.4046],[93.6041,19.4144],[93.6374,19.3542],[93.6342,19.3399],[93.6172,19.3482],[93.6001,19.3227],[93.6214,19.3411],[93.6672,19.3022],[93.6417,19.2398],[93.6446,19.2238],[93.6815,19.3001],[93.7215,19.2926],[93.6948,19.2819],[93.7269,19.2754],[93.7207,19.2445],[93.739,19.2567],[93.809,19.2263],[93.8733,19.2466],[93.9559,19.3061],[93.9498,19.3369],[93.9722,19.3514],[93.9817,19.3851],[94.0108,19.381],[93.9834,19.4055],[93.9663,19.3584],[93.8921,19.2916],[93.8818,19.3076],[93.9191,19.3345],[93.9218,19.3773],[93.9111,19.3353],[93.8842,19.3196],[93.8889,19.3534],[93.8589,19.3878],[93.8824,19.3531],[93.8692,19.3068],[93.7751,19.3011],[93.7392,19.3449],[93.7463,19.3542],[93.7753,19.3404],[93.78,19.3542],[93.7704,19.3446],[93.7533,19.3576],[93.7323,19.3566],[93.7319,19.3826],[93.7121,19.4014],[93.7393,19.4088],[93.6516,19.4445],[93.6372,19.4889],[93.6546,19.4919],[93.6468,19.5122],[93.6875,19.5654],[93.7462,19.5422],[93.7688,19.4853],[93.7758,19.5037],[93.7933,19.5003],[93.8187,19.4643],[93.8567,19.4843],[93.8585,19.4404],[93.877,19.473],[93.9764,19.4188],[93.9971,19.4526],[93.9766,19.4629],[93.9536,19.4479],[93.9046,19.4681],[93.9484,19.5081],[93.9383,19.564],[93.9324,19.4985],[93.9024,19.4885],[93.7768,19.5911],[93.8164,19.6042],[93.7935,19.614],[93.7602,19.5991],[93.722,19.6265],[93.7476,19.6525],[93.7943,19.6598],[93.7882,19.6815],[93.8193,19.7111],[93.8181,19.7292],[93.8066,19.7392],[93.7986,19.7014],[93.727,19.6711],[93.7059,19.7028],[93.7208,19.7482],[93.7914,19.7691],[93.7976,19.8329],[93.7862,19.8628],[93.7979,19.8666],[93.8012,19.891],[93.7933,19.916],[93.7937,19.873],[93.7386,19.8852],[93.7145,19.9079],[93.7457,19.9152],[93.7085,19.9375],[93.7091,19.9673],[93.702,19.9144],[93.6219,19.9171],[93.5518,19.8885],[93.5419,19.9036],[93.5754,19.9201],[93.5867,19.9378],[93.5688,19.9212],[93.5416,19.924],[93.546,19.9363],[93.5161,19.9234],[93.5121,19.9438],[93.5365,19.9552],[93.5085,19.9613],[93.5071,19.9748],[93.5401,19.9909],[93.4818,19.9914],[93.4674,20.0443],[93.4584,20.0541],[93.4762,20.0609],[93.4548,20.0552],[93.4762,20.0065],[93.4661,19.9825],[93.4542,19.9959],[93.4392,19.9925],[93.4567,19.95],[93.416,19.9708],[93.3807,20.0659],[93.3841,20.0801],[93.4167,20.0799],[93.4148,20.1121],[93.4329,20.1052],[93.4126,20.1727],[93.3623,20.2736],[93.343,20.2772],[93.3234,20.3298],[93.2966,20.33],[93.3259,20.3859],[93.3254,20.4036],[93.2805,20.3482],[93.2801,20.3282],[93.2398,20.306],[93.2306,20.2739],[93.2464,20.2454],[93.2099,20.2347],[93.1825,20.1969],[93.117,20.1857],[93.2165,20.2861],[93.2259,20.3076],[93.2124,20.3278],[93.2512,20.4261],[93.2252,20.3917],[93.198,20.3871],[93.2235,20.376],[93.203,20.3226],[93.1243,20.3281],[93.1374,20.3425],[93.1321,20.3693],[93.1564,20.3591],[93.1748,20.3741],[93.1292,20.3762],[93.1742,20.3994],[93.1647,20.422],[93.1681,20.4002],[93.0939,20.3797],[93.0884,20.4013],[93.1111,20.4138],[93.1167,20.4272],[93.107,20.5041],[93.087,20.5198],[93.1051,20.5307],[93.0919,20.53],[93.0701,20.602],[93.0483,20.5976],[93.0218,20.6219],[93.0277,20.6439],[93.0056,20.6398],[93.0178,20.6122],[93.0757,20.5791],[93.0816,20.5517],[93.0583,20.4764],[93.0258,20.4274],[93.0173,20.454],[93.0427,20.4633],[93.0402,20.4931],[93.063,20.5208],[93.055,20.5337],[93.0351,20.5378],[93.0556,20.5207],[93.0196,20.4791],[93.0333,20.4857],[93.0386,20.4686],[93.0135,20.4606],[93.0243,20.3894],[93.0091,20.2869],[92.963,20.2257],[92.9449,20.2674],[92.915,20.2419],[92.9146,20.2122],[92.8862,20.2095],[92.9203,20.1809],[92.8966,20.1094],[92.8531,20.1232],[92.7649,20.2],[92.7873,20.2401],[92.7969,20.2102],[92.8305,20.1804],[92.8458,20.1823],[92.799,20.2141],[92.7988,20.2582],[92.9446,20.3156],[92.8982,20.3078],[92.8393,20.3808],[92.9108,20.3717],[92.9315,20.3863],[92.9417,20.3522],[92.9508,20.3739],[92.9127,20.414],[92.9289,20.4211],[92.9326,20.4327],[92.8983,20.4822],[92.9285,20.4299],[92.9072,20.421],[92.9174,20.3833],[92.9063,20.3787],[92.8867,20.4218],[92.8866,20.4039],[92.8571,20.4195],[92.8637,20.4051],[92.8418,20.4017],[92.8166,20.4429],[92.8337,20.4407],[92.8383,20.4688],[92.8487,20.4591],[92.8275,20.4968],[92.8108,20.4924],[92.7961,20.5101],[92.7639,20.4734],[92.7523,20.4794],[92.7322,20.5696],[92.7486,20.5782],[92.7524,20.5868],[92.7467,20.5986],[92.7266,20.6168],[92.7482,20.5876],[92.7311,20.5792],[92.6844,20.6278],[92.6456,20.6891],[92.6451,20.7277],[92.5832,20.7199],[92.591,20.732],[92.5697,20.7796],[92.5997,20.7956],[92.6024,20.8064],[92.5649,20.7864],[92.5494,20.8493],[92.5449,20.8118],[92.5713,20.7516],[92.5466,20.7631],[92.5441,20.7431],[92.591,20.6851],[92.607,20.6776],[92.6395,20.6883],[92.6954,20.5825],[92.7292,20.5496],[92.72,20.4706],[92.7478,20.4143],[92.7299,20.2954],[92.747,20.2559],[92.7284,20.26],[92.638,20.4332],[92.5281,20.5435],[92.5133,20.5993],[92.4597,20.649],[92.4661,20.6597],[92.3774,20.6957],[92.3877,20.7048],[92.3611,20.7723],[92.3901,20.8168],[92.3787,20.8246],[92.3584,20.7833],[92.3353,20.8433],[92.3602,20.8647],[92.3366,20.8509],[92.3146,20.8826],[92.3164,20.901],[92.3619,20.9419],[92.3477,20.9871],[92.3313,20.9978],[92.2968,20.9872],[92.2891,21.0036],[92.2933,20.9801],[92.2798,20.9694],[92.2694,21.0182],[92.2887,21.0225],[92.2646,21.0357],[92.3128,21.0579],[92.3122,21.0703],[92.2734,21.0458],[92.2298,21.1046],[92.2243,21.1365],[92.198,21.1546],[92.1976,21.1198],[92.255,21.0615],[92.2494,21.026],[92.2611,20.9362],[92.313,20.8469],[92.3408,20.7524],[92.3261,20.7433],[92.2996,20.7607],[92.2117,20.9253],[92.1847,21.0139],[92.0533,21.1632],[92.0496,21.2642],[92.0289,21.3402],[91.9535,21.4502],[91.9993,21.5054],[92.0221,21.4864],[91.9963,21.5656],[92.0246,21.6034],[92.0184,21.6251],[92.0405,21.6722],[92.0251,21.6822],[92.0352,21.7006],[92.021,21.7182],[92.0192,21.6685],[91.9818,21.656],[91.9796,21.7042],[91.9667,21.6781],[91.9481,21.7453],[91.9764,21.7418],[91.9924,21.7678],[91.9716,21.7472],[91.9545,21.7539],[91.9706,21.7862],[91.9424,21.8042],[91.9082,21.7785],[91.9199,21.8473],[91.9095,21.9079],[91.9274,21.9345],[91.8949,21.9689],[91.8767,22.0434],[91.8948,22.3944],[91.9281,22.4147],[92.0019,22.4046],[92.0221,22.4167],[92.0349,22.4459],[92.0815,22.4371],[92.1417,22.4616],[92.1439,22.4703],[92.0873,22.4443],[92.0331,22.4505],[92.0029,22.4124],[91.9257,22.4192],[91.8861,22.3911],[91.8429,22.8273],[91.2238,23.0337],[91.0493,22.9926],[90.9027,22.8628],[90.8246,22.8647],[90.8016,22.9088],[90.7578,22.9387],[90.7958,22.898],[90.7954,22.8634],[90.7333,22.8875],[90.6896,22.9783],[90.6294,22.9981],[90.5663,23.1036],[90.598,23.1778],[90.6524,23.2423],[90.6389,23.3166],[90.6776,23.3183],[90.6754,23.3407],[90.6978,23.3457],[90.6796,23.3628],[90.695,23.3777],[90.6733,23.3642],[90.6616,23.3375],[90.6738,23.3213],[90.5987,23.3393],[90.5796,23.3948],[90.6007,23.4314],[90.5856,23.4669],[90.6303,23.4903],[90.6817,23.4821],[90.7039,23.4901],[90.7178,23.5428],[90.7443,23.5443],[90.7254,23.5534],[90.7084,23.5386],[90.7057,23.5618],[90.732,23.5912],[90.7392,23.6216],[90.7646,23.629],[90.7414,23.6621],[90.7578,23.721],[90.7425,23.6938],[90.7403,23.7242],[90.7315,23.7102],[90.7156,23.7414],[90.6818,23.6867],[90.6429,23.6899],[90.6324,23.6392],[90.5628,23.5929],[90.5531,23.5715],[90.5147,23.5814],[90.505,23.6033],[90.4839,23.5866],[90.4539,23.6149],[90.4703,23.6298],[90.4427,23.6684],[90.368,23.7186],[90.3837,23.7022],[90.3658,23.7034],[90.3421,23.7401],[90.3176,23.735],[90.3128,23.7642],[90.2548,23.7303],[90.2571,23.7757],[90.2298,23.8877],[90.2396,23.827],[90.194,23.8405],[90.1518,23.8291],[90.1319,23.8674],[90.1117,23.8736],[90.1104,23.8573],[90.0572,23.8201],[90.047,23.8255],[90.0625,23.8769],[90.0468,23.8894],[90.0262,23.8817],[90.0227,23.9072],[89.9481,23.9709],[89.9523,23.9846],[89.9328,23.9846],[89.9487,23.9598],[89.9378,23.9554],[90.0192,23.8936],[90.0144,23.8769],[90.0547,23.8732],[90.0409,23.8278],[90.0466,23.8174],[90.0691,23.8163],[90.0887,23.83],[90.1247,23.8071],[90.1837,23.8023],[90.2068,23.8157],[90.2226,23.8004],[90.2415,23.8149],[90.2059,23.7537],[90.221,23.7216],[90.2524,23.721],[90.2746,23.6862],[90.2557,23.7074],[90.2383,23.7112],[90.2208,23.7081],[90.1813,23.7401],[90.1924,23.7203],[90.1626,23.7198],[90.1492,23.7107],[90.1219,23.7371],[90.0698,23.7579],[90.0232,23.7635],[90.0245,23.7952],[90.0021,23.816],[90.0195,23.7627],[90.1205,23.7334],[90.1497,23.7043],[90.1739,23.7165],[90.2205,23.7031],[90.2477,23.7076],[90.276,23.6548],[90.3797,23.6165],[90.4018,23.5883],[90.3789,23.5678],[90.4098,23.5802],[90.4377,23.5451],[90.4635,23.5452],[90.5054,23.5721],[90.5302,23.5669],[90.5701,23.4832],[90.538,23.4837],[90.5339,23.4659],[90.5539,23.4263],[90.5281,23.3907],[90.4858,23.4204],[90.4204,23.4161],[90.2542,23.4608],[90.1641,23.5242],[90.1103,23.6129],[89.97,23.6581],[89.9179,23.7216],[89.8638,23.7451],[89.7915,23.8077],[89.7742,23.8995],[89.7688,23.8876],[89.7046,23.9579],[89.7275,23.9776],[89.7208,24.0],[89.7153,23.9718],[89.6983,23.9645],[89.7051,23.9991],[89.6707,24.0],[89.6557,23.9361],[89.7033,23.8749],[89.7513,23.8659],[89.7708,23.8359],[89.7571,23.8473],[89.7242,23.8344],[89.6802,23.8626],[89.7179,23.8319],[89.6297,23.8456],[89.5468,23.8241],[89.4497,23.8706],[89.4256,23.9133],[89.3865,23.9431],[89.3288,23.9487],[89.2808,23.9875],[89.3161,23.9479],[89.2889,23.9467],[89.2414,23.9813],[89.1733,24.0],[89.0914,23.9991],[89.0608,23.9839],[89.0936,23.9665],[89.1225,23.9203],[89.1241,23.9541],[89.1671,23.9259],[89.2341,23.9194],[89.3047,23.8696],[89.4078,23.8978],[89.4384,23.8386],[89.4996,23.7788],[89.5929,23.7975],[89.6397,23.7768],[89.7017,23.7769],[89.8567,23.6605],[89.9485,23.6357],[90.0246,23.5566],[90.0179,23.5823],[90.083,23.573],[90.1256,23.5454],[90.1578,23.4889],[90.1593,23.4206],[90.2067,23.3338],[90.17,23.3466],[90.1639,23.3639],[90.1862,23.3591],[90.1608,23.3676],[90.1665,23.3332],[90.1253,23.3055],[90.1205,23.3356],[90.1417,23.3597],[90.1445,23.3786],[90.1279,23.351],[90.0995,23.359],[90.1208,23.3473],[90.1189,23.3041],[90.093,23.3005],[90.0871,23.2728],[90.1245,23.2685],[90.1217,23.2487],[90.1287,23.2416],[90.2023,23.2256],[90.1987,23.2096],[90.1681,23.2041],[90.1774,23.1665],[90.219,23.1829],[90.2485,23.1621],[90.2336,23.1421],[90.2452,23.1232],[90.3091,23.1128],[90.3167,23.0671],[90.2678,23.0431],[90.2726,23.0254],[90.3072,23.0209],[90.3206,22.9865],[90.2739,22.9687],[90.2991,22.9434],[90.3537,22.9212],[90.3456,22.884],[90.3205,22.8726],[90.3213,22.8502],[90.3726,22.7652],[90.3682,22.7366],[90.4195,22.7331],[90.4167,22.7138],[90.3964,22.729],[90.3831,22.7054],[90.4003,22.7234],[90.4204,22.7086],[90.4297,22.7305],[90.4193,22.7453],[90.378,22.7401],[90.3825,22.7586],[90.4243,22.7652],[90.4692,22.7349],[90.485,22.6991],[90.4769,22.6561],[90.4961,22.6723],[90.5194,22.6294],[90.5042,22.5879],[90.5187,22.5991],[90.558,22.5575],[90.2194,22.2576],[90.2077,22.3093],[90.2269,22.3379],[90.2896,22.3505],[90.2973,22.3714],[90.2696,22.3586],[90.2657,22.3711],[90.2809,22.4069],[90.3137,22.4635],[90.3413,22.4589],[90.3619,22.4905],[90.3405,22.4664],[90.3194,22.4782],[90.2722,22.4037],[90.2548,22.3443],[90.2223,22.3421],[90.1991,22.3026],[90.2069,22.2465],[90.1066,22.1576],[90.0801,22.1586],[90.0257,22.189],[90.081,22.2209],[90.1116,22.2858],[90.1016,22.3424],[90.176,22.4215],[90.2018,22.4859],[90.206,22.5118],[90.1876,22.5224],[90.2028,22.5725],[90.1858,22.6255],[90.2519,22.6212],[90.2832,22.6302],[90.2952,22.6531],[90.2487,22.6279],[90.1846,22.631],[90.1975,22.5676],[90.1819,22.5223],[90.1989,22.509],[90.1936,22.4802],[90.1724,22.4297],[90.095,22.3491],[90.1048,22.3039],[90.0669,22.2145],[90.025,22.1966],[90.0234,22.1724],[90.0632,22.1618],[90.0153,22.1191],[90.0202,22.0811],[89.938,22.0073],[89.9092,22.0731],[89.9175,22.136],[89.8803,22.2424],[89.8819,22.2869],[89.9304,22.3885],[89.9847,22.4388],[90.0,22.4869],[90.025,22.4901],[90.033,22.5719],[90.065,22.6087],[90.0571,22.6225],[90.0268,22.599],[90.0327,22.6527],[90.0059,22.6801],[90.028,22.6463],[90.0132,22.5988],[90.0307,22.5814],[90.0179,22.4944],[89.9546,22.5055],[89.9855,22.4867],[89.9872,22.466],[89.9102,22.3882],[89.8834,22.4052],[89.8834,22.4302],[89.8788,22.4209],[89.8806,22.3954],[89.8987,22.3721],[89.8448,22.2487],[89.8905,22.1211],[89.8528,22.0679],[89.8188,22.066],[89.8534,22.0483],[89.8744,21.9495],[89.8346,21.9134],[89.6878,21.9578],[89.5907,22.26],[88.979,22.2217],[88.2264,22.0581],[88.2352,22.0848],[88.2013,22.1795],[88.0826,22.2206],[88.0342,22.2183],[88.0321,22.2018],[88.1438,22.1871],[88.1762,22.153],[88.1961,22.1048],[88.1618,22.0645],[88.1021,22.0311],[87.8805,21.9829],[87.1641,21.6008],[86.4955,21.2188],[86.3044,20.5979],[86.0656,20.2635],[85.8268,19.8337],[85.6939,19.7477],[85.3281,19.5669],[85.1224,19.4198],[85.0869,19.3687],[84.9439,19.2764],[83.1045,18.4486],[82.1015,17.3979],[79.5224,16.0129],[79.1881,14.7711],[79.1881,13.2905],[79.0448,11.9532],[78.5672,10.8547],[78.3284,9.8518],[78.2303,8.9682],[78.174,8.8792],[78.1539,8.7474],[78.1786,8.7594],[78.1952,8.7499],[78.2012,8.7785],[78.2055,8.7605],[78.1959,8.7407],[78.1629,8.7296],[78.1322,8.6694],[78.1408,8.579],[78.1292,8.4961],[77.9504,8.3036],[77.8041,8.2336],[77.7838,8.1982],[77.7383,8.1691],[77.5938,8.1399],[77.5609,8.1154],[77.5526,8.069],[77.3183,8.1173],[76.9771,8.3876],[76.6206,8.8431],[76.5578,8.8831],[76.3702,9.7085],[76.1591,10.1777],[76.1229,10.3207],[76.0478,10.4918],[76.0639,10.4735],[76.0463,10.5317],[76.0266,10.5323],[75.9345,10.7345],[75.8926,11.2368],[75.5572,11.6394],[75.5294,11.6966],[75.5386,11.7048],[75.4917,11.7339],[75.4716,11.769],[75.451,11.7697],[75.3871,11.8483],[75.1041,12.2375],[75.0296,12.3922],[75.0386,12.4111],[75.0229,12.3997],[75.0063,12.4371],[75.0154,12.4444],[74.9979,12.4456],[74.963,12.5147],[74.8076,12.893],[74.776,13.0949],[74.7699,13.0782],[74.6921,13.3488],[74.6657,13.6381],[74.6428,13.6709],[74.6058,13.8523],[74.6169,13.8576],[74.565,13.9466],[74.5278,13.9626],[74.505,14.0011],[74.464,14.1872],[74.4092,14.308],[74.3953,14.4186],[74.3765,14.4165],[74.3538,14.5117],[74.3052,14.5196],[74.2912,14.5931],[74.2635,14.6245],[74.2946,14.6402],[74.2751,14.6467],[74.2756,14.6779],[74.2537,14.7068],[74.2633,14.7094],[74.2647,14.7201],[74.2582,14.7122],[74.2215,14.7472],[74.1993,14.7176],[74.1765,14.7446],[74.1477,14.7464],[74.1341,14.7778],[74.1039,14.7843],[74.0911,14.8021],[74.1171,14.8034],[74.1249,14.8405],[74.1079,14.8451],[74.0912,14.8945],[74.0388,14.9156],[74.0487,14.9568],[74.0298,14.9815],[74.0476,14.9848],[73.9857,15.0225],[73.9786,15.0504],[73.95,15.0729],[73.9051,15.0871],[73.9458,15.1408],[73.8821,15.3452],[73.862,15.3694],[73.8357,15.361],[73.8032,15.377],[73.7794,15.4089],[73.8757,15.3984],[73.8899,15.4192],[73.8764,15.4337],[73.8584,15.4258],[73.845,15.4491],[73.7822,15.4597],[73.8199,15.4996],[73.7574,15.4939],[73.731,15.6146],[73.6872,15.7154],[73.6616,15.7339],[73.5524,16.1084],[73.2701,17.2846],[73.2914,17.2775],[73.2946,17.2901],[73.2674,17.296],[73.1244,17.6984],[73.1285,17.7446],[73.056,17.9248],[73.0397,17.9356],[73.0418,17.9741],[73.0248,17.986],[73.0197,18.0201],[73.0444,18.04],[73.0247,18.0295],[73.0296,18.0465],[73.018,18.0316],[72.987,18.2414],[73.063,18.2177],[73.0702,18.1968],[73.0756,18.2358],[73.0525,18.2857],[73.0313,18.2636],[72.9791,18.2945],[72.9433,18.5362],[72.9616,18.5423],[72.9417,18.547],[72.9045,18.798],[72.921,18.7977],[72.9356,18.8241],[72.9886,18.7759],[72.999,18.7794],[72.9859,18.8052],[73.0578,18.8027],[72.9898,18.8116],[72.9821,18.8626],[72.9381,18.847],[72.9069,18.8865],[72.9247,18.9098],[72.942,18.8943],[72.9495,18.9458],[72.9772,18.9461],[72.9539,18.9701],[73.0908,18.9988],[73.0667,19.0143],[73.0847,19.0314],[73.0644,19.0292],[73.0904,19.0457],[73.0061,19.005],[72.9844,19.0708],[72.9952,19.0869],[72.9764,19.1069],[72.9764,19.1707],[72.9642,19.1353],[72.9522,19.1374],[72.9569,19.1077],[72.9307,19.0904],[72.9472,19.068],[72.9137,19.0744],[72.9517,19.0432],[72.8988,18.9927],[72.8723,19.0156],[72.836,19.2606],[72.8296,19.3114],[72.9155,19.2908],[72.8583,19.3403],[72.8266,19.3355],[72.7404,20.0247],[72.7448,20.1954],[72.7796,20.2093],[72.7456,20.203],[72.7404,20.2423],[72.778,20.3364],[72.8183,20.3657],[72.8262,20.4424],[72.8869,20.5046],[72.8771,20.5274],[72.8946,20.5296],[72.8828,20.5439],[72.8927,20.5834],[72.8736,20.6444],[72.9035,20.5969],[72.8864,20.6374],[72.9015,20.6429],[72.8967,20.7022],[72.9087,20.7111],[72.8907,20.7199],[72.9241,20.7558],[72.9519,20.755],[72.9501,20.7674],[72.9276,20.7763],[72.9197,20.7682],[72.9199,20.7893],[72.91,20.7807],[72.8745,20.8015],[72.896,20.8134],[72.8756,20.8245],[72.8948,20.8665],[72.8268,20.8292],[72.8547,20.86],[72.8245,20.8829],[72.8351,20.9065],[72.8491,20.9044],[72.8239,20.9212],[72.8822,20.9546],[72.8765,20.9718],[72.8913,20.9864],[72.8308,20.9734],[72.8387,20.9855],[72.8052,20.9872],[72.827,21.014],[72.7661,21.0042],[72.7425,20.9769],[72.767,20.9279],[72.7473,20.9498],[72.7229,21.0266],[72.7218,21.0569],[72.7417,21.0289],[72.7856,21.0461],[72.8068,21.0247],[72.857,21.0392],[72.8419,21.0537],[72.8549,21.0677],[72.8326,21.0544],[72.8227,21.0878],[72.8419,21.1137],[72.8215,21.0977],[72.8145,21.1053],[72.8304,21.1146],[72.8143,21.1191],[72.8114,21.1483],[72.8316,21.1672],[72.8059,21.1497],[72.8016,21.1242],[72.7904,21.1447],[72.7878,21.11],[72.7636,21.1227],[72.7569,21.1046],[72.7443,21.1262],[72.719,21.1034],[72.7302,21.0781],[72.7016,21.0949],[72.7059,21.1358],[72.7275,21.1475],[72.6707,21.1568],[72.6431,21.0821],[72.6259,21.0892],[72.6173,21.1324],[72.6307,21.1283],[72.6467,21.1489],[72.6293,21.1338],[72.6227,21.1434],[72.6195,21.2089],[72.6817,21.2184],[72.6431,21.2498],[72.6304,21.2406],[72.6501,21.2798],[72.621,21.2928],[72.621,21.3125],[72.6554,21.3191],[72.6684,21.342],[72.7365,21.3238],[72.6962,21.355],[72.7016,21.3724],[72.6746,21.3486],[72.658,21.3682],[72.6528,21.3494],[72.6551,21.3988],[72.6972,21.459],[72.6501,21.4411],[72.6414,21.456],[72.7409,21.5657],[72.8165,21.6136],[72.8406,21.6659],[72.9193,21.6478],[73.0375,21.7005],[73.0901,21.7051],[73.1077,21.7297],[73.064,21.7327],[72.9438,21.6753],[72.8728,21.6882],[72.7776,21.6604],[72.7389,21.6861],[72.6033,21.6764],[72.5499,21.6543],[72.533,21.6716],[72.5317,21.7209],[72.5458,21.6943],[72.5756,21.7047],[72.5659,21.7328],[72.6,21.7159],[72.5857,21.7265],[72.6033,21.7563],[72.5992,21.7954],[72.6458,21.8329],[72.6544,21.8912],[72.675,21.8872],[72.6786,21.912],[72.6878,21.886],[72.7223,21.8841],[72.7187,21.9318],[72.7786,21.9518],[72.746,21.988],[72.7719,22.0014],[72.7754,22.0168],[72.735,21.9912],[72.7186,22.0205],[72.718,21.9943],[72.7074,21.9796],[72.6933,21.9852],[72.6999,21.9716],[72.6719,21.9749],[72.6605,21.9605],[72.6465,21.9619],[72.6488,21.9881],[72.6368,22.0028],[72.6401,21.9548],[72.6281,21.9705],[72.6332,21.9546],[72.534,21.9007],[72.6897,22.1948],[72.7419,22.1758],[72.7668,22.1936],[72.7581,22.2163],[72.7149,22.2425],[72.9315,22.6516],[73.9822,23.7023],[75.415,24.4665],[76.8001,25.0874],[77.7075,25.4694],[78.9493,26.2336],[79.9523,26.6157],[81.2418,26.9023],[82.0537,27.0455],[82.9612,27.0933],[85.4925,26.9978],[86.591,26.9023],[87.8328,26.6635],[89.1223,26.5679],[90.4118,26.7112],[91.2715,26.8545],[92.1312,27.1888],[92.8476,27.5231],[93.6118,27.6664],[94.3451,27.5289],[94.8851,27.7468],[98.0,27.6877],[97.9963,14.4786]]],[[[97.5998,16.5168],[97.5876,16.5066],[97.5555,16.5248],[97.5998,16.5168]]],[[[97.6466,16.5086],[97.6569,16.5199],[97.6492,16.5078],[97.6466,16.5086]]],[[[97.5211,16.5336],[97.5148,16.5236],[97.4991,16.5271],[97.5211,16.5336]]],[[[97.6435,16.5772],[97.6564,16.5387],[97.6276,16.5296],[97.6435,16.5772]]],[[[97.7045,16.5644],[97.7111,16.5602],[97.7036,16.5633],[97.7045,16.5644]]],[[[97.6481,16.5788],[97.6573,16.5738],[97.6534,16.5681],[97.6481,16.5788]]],[[[97.6422,16.6084],[97.6359,16.5736],[97.6181,16.574],[97.6261,16.6184],[97.6422,16.6084]]],[[[96.3033,16.8612],[96.3107,16.8499],[96.3078,16.8424],[96.3016,16.8461],[96.3033,16.8612]]],[[[97.1907,16.8475],[97.183,16.8705],[97.1928,16.8778],[97.1989,16.8658],[97.1907,16.8475]]],[[[96.6759,17.3463],[96.6653,17.3236],[96.6557,17.3309],[96.6596,17.3426],[96.6759,17.3463]]],[[[96.7776,17.3754],[96.7742,17.3662],[96.7677,17.3663],[96.7776,17.3754]]],[[[96.7977,17.379],[96.7389,17.4316],[96.7865,17.4833],[96.8078,17.4389],[96.8428,17.407],[96.7977,17.379]]]]}}