{"type":"Feature","properties":{"speciesId":922,"category":"VU","source":"IUCN Red List","simplifyTol":0.01,"clippedToSubcontinent":true},"geometry":{"type":"Polygon","coordinates":[[[75.161,13.1736],[75.0928,13.2008],[74.997,13.3348],[74.8781,13.5935],[74.7425,13.8388],[74.4415,14.4977],[74.3854,14.7769],[74.3748,15.2764],[74.3417,15.488],[74.2609,15.6652],[74.1166,15.7378],[74.0808,15.8015],[74.1091,15.8601],[74.1995,15.9059],[74.2511,15.913],[74.3127,15.8931],[74.3764,15.8127],[74.6106,15.2161],[74.7414,14.8258],[74.9286,14.4202],[75.3252,13.4455],[75.3485,13.3478],[75.3318,13.2841],[75.2669,13.2171],[75.161,13.1736]]]}}