{"type":"Feature","properties":{"speciesId":923,"category":"EN","source":"IUCN Red List","simplifyTol":0.01,"clippedToSubcontinent":true},"geometry":{"type":"Polygon","coordinates":[[[75.0556,13.6112],[75.122,13.6082],[75.1855,13.5774],[75.2299,13.3842],[75.2866,13.346],[75.3688,13.2383],[75.4071,13.2136],[75.4105,13.1708],[75.3473,13.1559],[75.2818,13.1809],[75.2469,13.1748],[75.2083,13.2222],[75.1669,13.2419],[75.1489,13.2817],[75.0979,13.3076],[75.094,13.3538],[75.0597,13.3925],[75.0493,13.4401],[75.1056,13.3987],[75.1283,13.4488],[75.1008,13.4536],[75.0914,13.4844],[75.0147,13.5749],[75.0556,13.6112]]]}}