{"type":"Feature","properties":{"speciesId":924,"category":"LC","source":"IUCN Red List","simplifyTol":0.01,"clippedToSubcontinent":true},"geometry":{"type":"MultiPolygon","coordinates":[[[[74.5472,15.5639],[74.6735,15.5893],[74.7912,15.577],[74.895,15.513],[74.9497,15.4291],[75.037,15.178],[75.0623,15.0147],[75.0494,14.921],[74.9839,14.7033],[74.9516,14.465],[74.9703,14.4191],[75.1044,14.2586],[75.1839,14.0834],[75.2629,14.0073],[75.3935,13.9357],[75.4728,13.9067],[75.664,13.8733],[75.7524,13.8226],[75.9296,13.6017],[76.0539,13.3553],[76.0894,13.2084],[76.087,13.0758],[76.0434,12.9329],[75.9389,12.7416],[75.9121,12.6194],[75.9113,12.5262],[75.9375,12.4574],[76.0783,12.3301],[76.2003,12.1364],[76.2724,11.9341],[76.2957,11.7213],[76.2811,11.6381],[76.2328,11.5623],[76.1039,11.4475],[76.0096,11.3918],[75.9166,11.3936],[75.8135,11.4602],[75.7885,11.517],[75.7646,11.6803],[75.6743,11.8966],[75.3007,12.2432],[75.224,12.3564],[75.1955,12.4912],[75.2093,12.5881],[75.2682,12.6511],[75.4522,12.7621],[75.4635,12.7937],[75.4527,12.8465],[75.4111,12.912],[75.1865,13.0483],[75.1124,13.1304],[75.0713,13.2328],[75.0468,13.414],[75.0023,13.5683],[74.954,13.6448],[74.8115,13.804],[74.7038,13.9736],[74.5986,14.2205],[74.5728,14.4218],[74.3972,14.7487],[74.3521,14.8658],[74.3476,14.998],[74.3154,15.1968],[74.336,15.3695],[74.3668,15.4441],[74.421,15.5127],[74.5472,15.5639]]],[[[73.9672,16.1335],[74.0553,16.0125],[74.1518,15.7729],[74.1475,15.7025],[74.0912,15.636],[74.0395,15.6455],[73.8707,15.8437],[73.7888,15.9661],[73.7343,16.0958],[73.738,16.1574],[73.7609,16.1744],[73.9672,16.1335]]]]}}