{"type":"Feature","properties":{"speciesId":929,"category":"VU","source":"IUCN Red List","simplifyTol":0.01,"clippedToSubcontinent":true},"geometry":{"type":"Polygon","coordinates":[[[75.6079,12.2762],[75.713,12.256],[75.867,12.0953],[76.1432,12.0158],[76.2839,11.8473],[76.4304,11.8293],[76.4813,11.778],[76.489,11.7003],[76.4461,11.5923],[76.21,11.4959],[76.1567,11.4409],[76.12,11.3385],[76.0842,11.3127],[76.0511,11.3063],[76.0214,11.3276],[76.0161,11.4254],[75.9949,11.4688],[75.9223,11.4357],[75.9029,11.4425],[75.8623,11.5954],[75.7631,11.7022],[75.7471,11.7844],[75.7814,11.8866],[75.7755,11.9565],[75.5861,12.1639],[75.5883,12.2529],[75.6079,12.2762]]]}}