{"type":"Feature","properties":{"speciesId":93,"category":"LC","source":"IUCN Red List","simplifyTol":0.01,"clippedToSubcontinent":true},"geometry":{"type":"MultiPolygon","coordinates":[[[[97.5884,5.1511],[97.5765,5.1602],[97.5769,5.1653],[97.5884,5.1511]]],[[[96.2986,4.0003],[96.1857,4.125],[96.0091,4.2231],[95.8283,4.4206],[95.5311,4.6828],[95.3709,4.9479],[95.3817,4.9568],[95.3555,4.9993],[95.3623,5.0194],[95.2852,5.1151],[95.3068,5.1271],[95.3055,5.1652],[95.2322,5.2831],[95.2555,5.4058],[95.227,5.4835],[95.2336,5.5699],[95.2424,5.5512],[95.2806,5.5506],[95.3247,5.5899],[95.3527,5.5887],[95.428,5.6544],[95.4651,5.6437],[95.5107,5.5957],[95.6091,5.6267],[95.6729,5.5857],[95.879,5.5067],[95.9042,5.427],[96.0735,5.2928],[96.3882,5.2148],[96.5814,5.2072],[96.6916,5.2278],[96.8085,5.2739],[96.8553,5.2775],[96.8303,5.2714],[96.8998,5.2516],[96.9753,5.2665],[97.0818,5.2327],[97.1454,5.2],[97.1432,5.1623],[97.1981,5.1461],[97.5013,5.2528],[97.5468,5.2152],[97.5273,5.2057],[97.57,5.1904],[97.5722,5.1386],[97.6017,5.1419],[97.648,5.0751],[97.806,4.9341],[97.9036,4.8846],[97.9619,4.7262],[97.9615,4.668],[98.0,4.6047],[97.9604,4.5316],[97.9823,4.5447],[98.0,4.5268],[98.0,4.0],[96.2986,4.0003]]],[[[95.2152,5.9044],[95.2949,5.837],[95.2997,5.8668],[95.3217,5.8814],[95.313,5.8913],[95.3331,5.8926],[95.3736,5.847],[95.3742,5.8025],[95.3454,5.8252],[95.3365,5.7755],[95.2925,5.7856],[95.2177,5.8817],[95.2152,5.9044]]]]}}