{"type":"Feature","properties":{"speciesId":930,"category":"EN","source":"IUCN Red List","simplifyTol":0.01,"clippedToSubcontinent":true},"geometry":{"type":"Polygon","coordinates":[[[77.2272,8.5113],[77.1987,8.5116],[77.1891,8.5343],[77.232,8.5237],[77.2457,8.5363],[77.215,8.5752],[77.1921,8.5578],[77.1515,8.5692],[77.1677,8.6201],[77.1932,8.6225],[77.1172,8.6959],[77.1382,8.7069],[77.1278,8.7197],[77.0923,8.7191],[77.0801,8.7739],[77.054,8.7886],[77.0552,8.802],[77.0987,8.8045],[77.0497,8.8427],[77.1608,8.7812],[77.1686,8.8021],[77.125,8.8146],[77.1355,8.8359],[77.0975,8.849],[77.091,8.8924],[77.132,8.8935],[77.1159,8.9161],[77.2057,8.8712],[77.2245,8.843],[77.231,8.8073],[77.2148,8.7754],[77.1829,8.761],[77.1773,8.7355],[77.1548,8.7374],[77.2624,8.545],[77.2272,8.5113]]]}}