{"type":"Feature","properties":{"speciesId":931,"category":"EN","source":"IUCN Red List","simplifyTol":0.01,"clippedToSubcontinent":true},"geometry":{"type":"Polygon","coordinates":[[[76.98,9.8396],[77.0155,9.8569],[77.0058,9.8764],[77.0339,9.8729],[77.0265,9.9081],[77.0703,9.9022],[77.0227,9.9274],[77.046,9.9352],[77.0208,9.9517],[77.0703,9.9463],[77.0774,9.9807],[77.1145,9.9237],[77.1628,9.7934],[77.1861,9.6191],[77.2093,9.6191],[77.2395,9.5911],[77.269,9.5965],[77.3865,9.7443],[77.4337,9.7592],[77.4233,9.6954],[77.4367,9.69],[77.4068,9.641],[77.4206,9.6129],[77.4413,9.6035],[77.4801,9.6464],[77.5026,9.5947],[77.5315,9.5841],[77.5756,9.6023],[77.5036,9.5359],[77.4881,9.5435],[77.4568,9.5273],[77.4305,9.5395],[77.4094,9.4536],[77.3699,9.4459],[77.3513,9.4113],[77.3547,9.3643],[77.3347,9.3417],[77.3462,9.329],[77.3172,9.3265],[77.2952,9.2839],[77.1991,9.2038],[77.1249,9.2108],[77.129,9.228],[77.0836,9.2358],[77.0784,9.2595],[77.0366,9.2764],[77.1078,9.2981],[77.0938,9.3169],[77.1016,9.3753],[77.1408,9.3371],[77.1407,9.39],[77.1049,9.4139],[77.1539,9.4301],[77.1182,9.458],[77.0371,9.4507],[77.0333,9.4719],[77.0711,9.4724],[77.0815,9.5207],[77.0414,9.5266],[77.0231,9.552],[76.9767,9.5569],[76.9611,9.58],[76.9234,9.5898],[76.928,9.6267],[76.8776,9.6794],[76.8921,9.7092],[76.8429,9.7366],[76.8086,9.7884],[76.8703,9.7396],[76.8863,9.7605],[76.9599,9.754],[76.9348,9.7742],[76.98,9.8396]]]}}