{"type":"Feature","properties":{"speciesId":934,"category":"NT","source":"IUCN Red List","simplifyTol":0.01,"clippedToSubcontinent":true},"geometry":{"type":"Polygon","coordinates":[[[77.0126,10.3544],[77.127,10.2125],[77.184,10.0959],[77.2095,9.9725],[77.2074,9.7812],[77.2795,9.7273],[77.4649,9.6875],[77.4936,9.6566],[77.4867,9.6278],[77.3581,9.6341],[77.185,9.6858],[77.1233,9.7323],[77.1153,9.7652],[77.1439,9.929],[77.1271,10.0447],[77.0879,10.149],[76.9498,10.3717],[76.9702,10.3845],[77.0126,10.3544]]]}}