{"type":"Feature","properties":{"speciesId":941,"category":"EN","source":"IUCN Red List","simplifyTol":0.01,"clippedToSubcontinent":true},"geometry":{"type":"MultiPolygon","coordinates":[[[[75.5438,12.4019],[75.6759,12.2359],[75.6681,12.2087],[75.6213,12.2235],[75.5674,12.2797],[75.5176,12.3687],[75.5203,12.396],[75.5438,12.4019]]],[[[75.7122,13.0772],[75.6706,13.0614],[75.5719,13.071],[75.4534,13.0914],[75.4328,13.1168],[75.4619,13.1343],[75.5605,13.1271],[75.6944,13.1053],[75.7122,13.0772]]]]}}