{"type":"Feature","properties":{"speciesId":942,"category":"NT","source":"IUCN Red List","simplifyTol":0.01,"clippedToSubcontinent":true},"geometry":{"type":"Polygon","coordinates":[[[77.3645,8.525],[77.2572,8.681],[77.2691,8.6927],[77.3267,8.68],[77.3058,8.6618],[77.2685,8.6776],[77.3108,8.6103],[77.3218,8.6231],[77.3506,8.615],[77.3217,8.6443],[77.3608,8.625],[77.3752,8.6575],[77.3889,8.6325],[77.3781,8.6067],[77.3625,8.6079],[77.3777,8.5916],[77.4239,8.6053],[77.4374,8.5793],[77.4243,8.6202],[77.4406,8.6234],[77.4592,8.4984],[77.3645,8.525]]]}}