{"type":"Feature","properties":{"speciesId":945,"category":"LC","source":"IUCN Red List","simplifyTol":0.01,"clippedToSubcontinent":true},"geometry":{"type":"MultiPolygon","coordinates":[[[[94.635,17.3736],[94.5684,17.5068],[94.5641,17.5921],[94.6099,17.5365],[94.6111,17.5501],[94.5769,17.5914],[94.5884,17.6192],[94.5693,17.6453],[94.5618,17.6376],[94.5284,18.0664],[94.5284,18.2795],[94.6483,18.4794],[94.7416,18.4927],[94.8481,18.4128],[94.9148,18.1729],[94.9281,17.8266],[94.8748,17.4802],[94.8348,17.3736],[94.7682,17.3203],[94.635,17.3736]]],[[[96.1002,21.5617],[96.2728,21.782],[96.3721,21.9934],[96.4902,22.4094],[96.7637,23.7409],[96.8343,23.9041],[97.0831,24.3117],[97.1269,24.4334],[97.1429,24.5882],[97.1285,24.7487],[96.9562,25.3918],[96.7839,25.9121],[96.7637,26.1664],[96.8212,26.4729],[96.917,26.6933],[96.9778,26.7644],[97.1121,26.8705],[97.1964,26.9088],[97.2682,26.911],[97.3805,26.8586],[97.4343,26.7862],[97.6725,26.0423],[98.0,25.2429],[98.0,13.7292],[97.9184,14.0537],[97.8554,14.4289],[97.8095,14.8787],[97.7825,15.4046],[97.7439,15.485],[97.7621,15.529],[97.7314,15.5962],[97.7374,15.6504],[97.6994,15.7539],[97.7224,15.7734],[97.7182,15.8422],[97.6752,15.9147],[97.61,15.9494],[97.6052,15.9782],[97.5722,16.0081],[97.5582,16.0724],[97.5972,16.0849],[97.623,16.0528],[97.6456,16.0443],[97.665,16.0488],[97.6761,16.0291],[97.6969,16.0274],[97.6672,16.0521],[97.6209,16.0582],[97.6072,16.1036],[97.5963,16.0994],[97.644,16.2715],[97.6155,16.3556],[97.6295,16.3882],[97.6141,16.4256],[97.6283,16.4521],[97.6256,16.5002],[97.6657,16.5106],[97.6712,16.4996],[97.6595,16.4868],[97.6636,16.4749],[97.6828,16.4654],[97.7025,16.4706],[97.7038,16.4507],[97.7238,16.4495],[97.721,16.4251],[97.7538,16.4144],[97.7343,16.4006],[97.7345,16.3818],[97.7737,16.3778],[97.797,16.3564],[97.7859,16.3398],[97.7889,16.3312],[97.8376,16.3223],[97.8552,16.2946],[97.8887,16.2865],[97.854,16.3007],[97.8404,16.326],[97.7902,16.3343],[97.8031,16.353],[97.793,16.368],[97.7655,16.3849],[97.7372,16.3859],[97.7587,16.4151],[97.7248,16.4281],[97.7266,16.4534],[97.7071,16.4533],[97.7023,16.474],[97.6656,16.4767],[97.6755,16.5013],[97.6683,16.5454],[97.7465,16.5624],[97.712,16.5711],[97.6664,16.5546],[97.6238,16.6432],[97.6074,16.5832],[97.6265,16.5584],[97.6211,16.5184],[97.5269,16.538],[97.488,16.5386],[97.472,16.5196],[97.3912,16.5251],[97.3607,16.4804],[97.3284,16.659],[97.3462,16.6472],[97.3972,16.6399],[97.4232,16.6506],[97.4242,16.6581],[97.3951,16.6434],[97.3455,16.6545],[97.3424,16.67],[97.3578,16.6678],[97.3476,16.6786],[97.3278,16.6671],[97.3288,16.6952],[97.344,16.6954],[97.3415,16.7344],[97.3409,16.7102],[97.3207,16.7101],[97.3199,16.6688],[97.2767,16.6868],[97.2387,16.7755],[97.2499,16.8223],[97.234,16.8093],[97.2223,16.8474],[97.2276,16.8574],[97.2634,16.8444],[97.278,16.8512],[97.2662,16.8701],[97.2648,16.8481],[97.2293,16.871],[97.2095,16.8413],[97.1999,16.8842],[97.2194,16.9042],[97.2196,16.937],[97.2112,16.9053],[97.1902,16.8914],[97.1765,16.9199],[97.207,17.0114],[97.1507,17.0773],[97.1581,17.1035],[97.1801,17.1156],[97.1986,17.1166],[97.2145,17.0868],[97.2648,17.1032],[97.228,17.1028],[97.2052,17.1341],[97.138,17.1177],[97.1295,17.0761],[97.1039,17.0885],[97.0883,17.1631],[97.1068,17.1876],[97.0846,17.18],[97.0602,17.253],[97.0283,17.2683],[97.0005,17.3117],[96.9623,17.4716],[96.7198,18.1385],[96.4438,19.0529],[96.2504,19.9214],[96.168,20.4607],[96.1116,21.0834],[96.0732,21.347],[96.0736,21.4672],[96.1002,21.5617]]],[[[91.8337,24.2788],[91.8632,24.3415],[91.9238,24.3891],[92.0723,24.4619],[92.3555,24.5367],[92.4118,24.5729],[92.4831,24.6504],[92.509,24.7425],[92.4848,24.8776],[92.4367,24.9709],[92.3514,25.0656],[92.217,25.1683],[92.1161,25.2052],[91.9627,25.2083],[91.5722,25.1502],[91.3234,25.1707],[90.6246,25.3043],[90.3385,25.3945],[90.1804,25.4682],[89.8617,25.7067],[89.319,25.9988],[89.1127,26.1654],[88.8422,26.3434],[88.5076,26.6224],[88.3543,26.7274],[88.2402,26.905],[88.1854,27.114],[88.196,27.4225],[88.2621,27.5585],[88.3075,27.5866],[88.4392,27.5974],[88.4901,27.5788],[88.535,27.534],[88.5586,27.4394],[88.5584,27.1947],[88.5806,27.0478],[88.6111,26.963],[88.6664,26.9086],[89.442,26.5284],[90.1106,26.251],[90.3647,26.1264],[90.8832,26.0111],[91.109,25.9932],[91.607,26.0784],[92.294,26.1005],[92.7753,26.1479],[93.0909,26.1975],[93.2285,26.2014],[93.387,26.1799],[93.5307,26.1328],[93.6529,26.0652],[93.762,25.9688],[93.8284,25.8556],[93.8879,25.5949],[93.8966,25.4578],[93.8716,25.3593],[93.7809,25.2261],[93.6415,25.1156],[93.5547,25.0818],[93.2952,25.0328],[93.2349,24.9977],[93.1784,24.9367],[93.0141,24.5919],[92.9001,24.0971],[92.8667,23.988],[92.8353,23.9478],[92.7448,23.9104],[92.6588,23.937],[92.6098,24.0285],[92.5749,24.201],[92.5452,24.2335],[92.483,24.2636],[92.3998,24.2716],[92.1042,24.1826],[91.9751,24.1698],[91.8652,24.2013],[91.8337,24.2788]]]]}}