{"type":"Feature","properties":{"speciesId":946,"category":"LC","source":"IUCN Red List","simplifyTol":0.01,"clippedToSubcontinent":true},"geometry":{"type":"Polygon","coordinates":[[[92.1734,24.534],[92.2343,24.5004],[92.2311,24.4604],[92.2731,24.3885],[92.2129,24.2493],[92.4224,24.2531],[92.419,24.1944],[92.4366,24.1524],[92.466,24.1348],[92.4859,24.1622],[92.5297,24.1748],[92.5506,24.2459],[92.6116,24.2534],[92.6243,24.3327],[92.649,24.3288],[92.6907,24.3548],[92.7652,24.5208],[92.8008,24.419],[92.8314,24.4005],[92.829,24.3778],[92.8629,24.3995],[92.9052,24.3945],[92.9115,24.4129],[92.9357,24.3955],[92.9803,24.4097],[93.0244,24.3905],[93.0216,24.3468],[93.0434,24.3434],[93.0067,24.254],[93.0266,24.2326],[92.9764,24.1148],[93.0537,24.0907],[93.0795,24.103],[93.1023,24.074],[93.1009,24.0451],[93.1479,24.0881],[93.1699,24.0751],[93.1698,24.055],[93.2167,24.0501],[93.2238,24.084],[93.248,24.0853],[93.2666,24.0603],[93.2553,24.0238],[93.2882,24.0515],[93.3374,24.0534],[93.3344,23.9869],[93.371,23.9405],[93.3987,23.9303],[93.4053,23.7616],[93.4169,23.7121],[93.4447,23.6824],[93.4283,23.6536],[93.4276,23.5344],[93.4076,23.5085],[93.3972,23.4333],[93.4142,23.388],[93.3987,23.3643],[93.3658,23.3545],[93.3947,23.2243],[93.3739,23.1503],[93.3936,23.1386],[93.365,23.1167],[93.3326,23.0357],[93.2977,23.0058],[93.2532,23.0065],[93.2062,23.0569],[93.1678,23.049],[93.1419,23.0606],[93.1292,23.0008],[93.1683,22.9191],[93.1388,22.9132],[93.1162,22.8163],[93.0993,22.8104],[93.1127,22.7442],[93.0918,22.7093],[93.1456,22.5861],[93.1117,22.5318],[93.1337,22.5199],[93.1421,22.4633],[93.1754,22.4513],[93.1908,22.4273],[93.2086,22.2611],[93.1471,22.2465],[93.1698,22.2001],[93.1544,22.1782],[93.077,22.2101],[93.0467,22.1976],[93.0469,22.1387],[93.0656,22.1021],[93.0133,22.1022],[93.0,22.0504],[93.0092,21.9839],[92.988,21.9829],[92.9558,22.0299],[92.9316,22.0175],[92.9109,21.9462],[92.8677,22.0654],[92.8446,22.0634],[92.8171,22.0956],[92.7179,22.1526],[92.6994,22.1483],[92.6936,22.0773],[92.6838,22.1053],[92.6844,22.0179],[92.6097,21.9768],[92.605,22.0576],[92.5704,22.1291],[92.5876,22.1397],[92.61,22.1213],[92.6139,22.1729],[92.5528,22.5205],[92.5314,22.5623],[92.5317,22.6561],[92.5114,22.7366],[92.4846,22.7502],[92.4778,22.7983],[92.4577,22.8211],[92.4644,22.856],[92.4475,22.8936],[92.4329,22.8869],[92.4214,22.9201],[92.3754,22.9349],[92.3937,23.0582],[92.3658,23.1059],[92.3611,23.2375],[92.4086,23.2461],[92.3729,23.3229],[92.3804,23.3625],[92.3642,23.3695],[92.3618,23.4091],[92.3232,23.4738],[92.318,23.5546],[92.2936,23.596],[92.3002,23.6253],[92.2814,23.63],[92.2952,23.6927],[92.2763,23.7219],[92.2475,23.7241],[92.2469,23.6918],[92.2241,23.6573],[92.2177,23.6952],[92.1676,23.7414],[92.0707,23.6446],[92.0231,23.658],[91.9836,23.7297],[91.9621,23.7277],[91.9423,23.6818],[91.9752,23.4824],[91.9418,23.4691],[91.9418,23.4376],[91.9035,23.4414],[91.8474,23.4002],[91.7709,23.2638],[91.7922,23.2293],[91.7856,23.2078],[91.8139,23.1186],[91.8355,23.0939],[91.8151,23.0699],[91.7804,23.0685],[91.785,23.0317],[91.7734,23.0441],[91.7256,22.9893],[91.6983,23.0026],[91.6885,22.9879],[91.6521,22.992],[91.6187,22.9442],[91.6192,22.9598],[91.6049,22.956],[91.612,22.9734],[91.5834,22.9632],[91.5489,22.9948],[91.5542,23.0338],[91.5357,23.0388],[91.5353,23.087],[91.5089,23.1272],[91.5217,23.1391],[91.4974,23.1533],[91.5109,23.182],[91.4742,23.1888],[91.486,23.2122],[91.4586,23.2154],[91.4748,23.2256],[91.4517,23.2435],[91.4597,23.2547],[91.4237,23.255],[91.419,23.2802],[91.3888,23.1795],[91.422,23.0593],[91.3777,23.0641],[91.3303,23.1577],[91.3323,23.2528],[91.3064,23.2906],[91.3215,23.3022],[91.2973,23.321],[91.3256,23.3623],[91.2967,23.3545],[91.2538,23.4897],[91.2069,23.5178],[91.218,23.5484],[91.1994,23.548],[91.1821,23.5937],[91.1666,23.5987],[91.1613,23.6706],[91.1989,23.647],[91.2101,23.6876],[91.1583,23.6912],[91.1604,23.7394],[91.1955,23.7533],[91.2246,23.7401],[91.2321,23.797],[91.2576,23.8397],[91.2325,23.8832],[91.2495,23.9133],[91.2352,23.9286],[91.2763,23.9262],[91.2718,23.9636],[91.2837,23.9831],[91.2997,23.9727],[91.3064,23.9986],[91.3782,23.9769],[91.3743,24.0079],[91.3965,24.0514],[91.3754,24.1075],[91.4905,24.0978],[91.543,24.0764],[91.5962,24.0802],[91.5969,24.0964],[91.6403,24.1084],[91.6359,24.1393],[91.6602,24.1876],[91.6481,24.2144],[91.6675,24.2304],[91.6924,24.1593],[91.7612,24.1416],[91.7435,24.2471],[91.8156,24.209],[91.8475,24.2283],[91.8569,24.2142],[91.8418,24.1977],[91.8883,24.137],[91.9026,24.1378],[91.9419,24.2676],[91.9204,24.3358],[91.9571,24.3563],[91.9954,24.3213],[91.9983,24.3393],[91.9646,24.3818],[91.9741,24.3886],[91.9864,24.3761],[92.0,24.392],[92.0446,24.376],[92.1192,24.3838],[92.1391,24.4245],[92.1728,24.4309],[92.1559,24.5242],[92.1734,24.534]]]}}