{"type":"Feature","properties":{"speciesId":947,"category":"DD","source":"IUCN Red List","simplifyTol":0.01,"clippedToSubcontinent":true},"geometry":{"type":"MultiPolygon","coordinates":[[[[93.4747,24.0908],[93.4121,24.1128],[93.383,24.1774],[93.3952,24.2689],[93.442,24.3701],[93.4904,24.4327],[93.5371,24.4609],[93.6163,24.4722],[93.6867,24.4563],[93.712,24.4114],[93.7222,24.3372],[93.6986,24.2045],[93.6036,24.1086],[93.4747,24.0908]]],[[[94.1111,25.5372],[94.0602,25.5583],[94.0391,25.6092],[94.0602,25.6602],[94.1111,25.6812],[94.162,25.6602],[94.1831,25.6092],[94.162,25.5583],[94.1111,25.5372]]],[[[91.5927,25.2561],[91.5427,25.2653],[91.5042,25.3019],[91.4604,25.4596],[91.4576,25.6723],[91.4858,25.7104],[91.54,25.7324],[91.6732,25.7134],[91.7501,25.6783],[91.8083,25.5948],[91.8393,25.4611],[91.8338,25.3695],[91.8081,25.3267],[91.7181,25.2781],[91.5927,25.2561]]]]}}