{"type":"Feature","properties":{"speciesId":948,"category":"LC","source":"IUCN Red List","simplifyTol":0.01,"clippedToSubcontinent":true},"geometry":{"type":"MultiPolygon","coordinates":[[[[98.0,17.5721],[97.9401,17.6201],[97.8976,17.6942],[97.8574,17.7305],[97.885,17.7447],[97.9349,17.8181],[97.9662,17.7855],[98.0,17.6609],[98.0,17.5721]]],[[[98.0,17.851],[97.9972,17.8709],[98.0,17.8873],[98.0,17.851]]],[[[97.9984,17.9333],[97.9799,17.9465],[97.9717,18.0008],[97.9897,18.0417],[97.9845,18.0999],[98.0,18.1183],[97.9984,17.9333]]],[[[97.9994,18.2535],[97.9668,18.2941],[97.9764,18.3422],[98.0,18.3663],[97.9994,18.2535]]],[[[97.9988,18.4159],[97.9838,18.4095],[97.9746,18.4227],[97.983,18.4979],[98.0,18.5138],[97.9988,18.4159]]],[[[97.9988,18.5717],[97.998,18.6071],[97.964,18.5751],[97.9398,18.6118],[97.9478,18.7772],[98.0,18.9955],[97.9988,18.5717]]],[[[97.9986,19.5367],[97.9104,19.4059],[97.8846,19.4008],[97.8574,19.4229],[97.8133,19.4181],[97.8879,19.499],[97.8589,19.5382],[97.909,19.572],[97.8897,19.5806],[97.9718,19.6015],[97.988,19.6397],[98.0,19.6379],[97.9986,19.5367]]],[[[97.6832,26.1688],[97.6479,26.2132],[97.6447,26.2532],[97.6644,26.2762],[97.6949,26.2701],[97.7223,26.2003],[97.6832,26.1688]]],[[[97.6618,26.4089],[97.5755,26.363],[97.5453,26.3823],[97.5646,26.4131],[97.6618,26.4089]]],[[[97.7188,26.7938],[97.6563,26.8288],[97.671,26.8695],[97.6949,26.8734],[97.7188,26.7938]]],[[[97.9484,27.7451],[97.9775,27.7605],[97.9713,27.8414],[97.9897,27.8501],[98.0,27.6809],[97.9454,27.7036],[97.8038,27.7207],[97.6742,27.9357],[97.8455,27.8011],[97.8719,27.7589],[97.9484,27.7451]]],[[[97.999,25.5751],[97.9861,25.5634],[98.0,25.54],[98.0,25.3983],[97.9415,25.4101],[97.895,25.338],[97.805,25.2998],[97.7791,25.3583],[97.8607,25.4708],[97.9324,25.4967],[97.8917,25.5436],[97.8905,25.5646],[97.9314,25.615],[97.9423,25.6814],[98.0,25.7354],[97.999,25.5751]]],[[[97.9955,25.7959],[97.8083,25.709],[97.7836,25.7227],[97.736,25.7122],[97.6121,25.7508],[97.5963,25.7745],[97.6045,25.796],[97.6684,25.7815],[97.7369,25.8194],[97.713,25.8488],[97.71,25.8885],[97.6559,25.9018],[97.6068,25.9702],[97.6047,26.0186],[97.6259,26.0667],[97.7183,26.1351],[97.7501,26.1385],[97.7845,26.1068],[97.8318,26.0074],[97.8438,26.0338],[97.8264,26.1139],[97.9319,26.1533],[98.0,26.1504],[98.0,26.0345],[97.9698,26.0494],[98.0,25.983],[98.0,25.9377],[97.959,25.9164],[97.9534,25.8691],[97.9706,25.8533],[98.0,25.8696],[97.9955,25.7959]],[[97.8412,25.9247],[97.8095,25.8931],[97.8205,25.8581],[97.8529,25.8913],[97.8412,25.9247]]],[[[97.9953,26.1743],[97.8284,26.1626],[97.7586,26.2557],[97.8493,26.3545],[97.9516,26.3564],[97.8941,26.389],[97.8649,26.4467],[98.0,26.5078],[97.9953,26.1743]],[[97.9858,26.2829],[97.9605,26.2666],[97.9763,26.2256],[97.9858,26.2829]]],[[[97.9957,26.5598],[97.9579,26.6681],[97.9377,26.5646],[97.9171,26.533],[97.8336,26.5077],[97.8005,26.5164],[97.7969,26.6099],[97.778,26.656],[97.7804,26.7524],[97.7317,26.8561],[97.7519,26.9957],[97.779,27.0187],[97.8393,27.0327],[97.8257,27.052],[97.8637,27.0861],[97.865,27.223],[97.9322,27.4445],[97.8091,27.5069],[97.8919,27.4298],[97.9045,27.3952],[97.8285,27.1422],[97.8017,27.1021],[97.7693,27.0992],[97.7499,27.1771],[97.7104,27.2335],[97.6862,27.3343],[97.6576,27.3336],[97.6503,27.2696],[97.6269,27.2659],[97.58,27.3817],[97.4748,27.4828],[97.4475,27.555],[97.3798,27.6257],[97.3393,27.6341],[97.3561,27.5307],[97.3182,27.5045],[97.311,27.4539],[97.2867,27.4232],[97.3724,27.2924],[97.3454,27.2775],[97.3494,27.2458],[97.315,27.2143],[97.261,27.2138],[97.2154,27.2571],[97.2329,27.2235],[97.2884,27.1948],[97.3918,27.2308],[97.535,27.213],[97.5244,27.0343],[97.6929,27.1633],[97.6419,27.0608],[97.6475,27.0305],[97.5839,27.0201],[97.5611,26.9935],[97.6284,26.9023],[97.5114,26.9159],[97.4886,26.9035],[97.5809,26.8645],[97.6059,26.7838],[97.5959,26.7323],[97.5494,26.6534],[97.4929,26.6113],[97.4291,26.5994],[97.4269,26.5733],[97.5003,26.5716],[97.5613,26.6332],[97.6974,26.6976],[97.7356,26.7451],[97.7399,26.7348],[97.7155,26.6556],[97.6211,26.6283],[97.6272,26.5068],[97.6034,26.4605],[97.5315,26.4419],[97.4914,26.4914],[97.381,26.4541],[97.4245,26.4269],[97.4139,26.3614],[97.4912,26.3408],[97.6213,26.2256],[97.6451,26.169],[97.6292,26.1158],[97.5632,26.0357],[97.4302,26.0206],[97.3851,26.0519],[97.3632,26.1019],[97.2656,26.139],[97.21,26.0166],[97.1833,25.8936],[97.2072,25.7579],[97.2032,25.6822],[97.0013,25.4504],[96.9672,25.4354],[96.943,25.4572],[96.8995,25.6822],[96.9462,25.6655],[96.9124,25.7378],[96.9179,25.8082],[97.0012,25.9148],[97.0782,26.0835],[97.1326,26.329],[97.1226,26.4563],[97.0712,26.4536],[97.0184,26.4281],[96.9983,26.462],[97.0298,26.5113],[97.0377,26.5933],[97.0554,26.5921],[97.1034,26.5409],[97.1352,26.5987],[97.1053,26.6435],[97.0591,26.6655],[97.02,26.6576],[96.9663,26.58],[96.9503,26.5921],[96.9488,26.6339],[96.9773,26.7019],[97.0467,26.7238],[97.0865,26.757],[97.1156,26.8336],[97.0801,26.8167],[97.0427,26.7646],[96.9985,26.751],[96.9322,26.7679],[96.9028,26.7963],[96.6798,26.7977],[96.5522,26.8428],[96.4067,26.8604],[96.3238,26.9039],[96.421,26.9235],[96.723,26.914],[96.2838,26.9717],[96.279,26.9886],[96.3144,27.0371],[96.3692,27.061],[96.4319,27.052],[96.661,27.112],[96.4677,27.1029],[96.3843,27.1278],[96.3639,27.1639],[96.2962,27.1298],[96.2614,27.1851],[96.2048,27.14],[96.3333,27.0987],[96.3309,27.083],[96.2787,27.0513],[96.2311,27.0697],[96.0517,26.992],[96.1241,26.9662],[96.1397,26.9289],[96.2517,26.9136],[96.3003,26.8363],[96.2875,26.8046],[96.1522,26.6882],[96.1888,26.5651],[96.1794,26.5114],[96.1511,26.5144],[96.1093,26.5668],[96.0771,26.5306],[96.0202,26.5549],[96.0437,26.6698],[96.0877,26.7442],[96.0381,26.7392],[95.9125,26.4726],[95.8209,26.3572],[95.6693,26.2445],[95.6061,26.2092],[95.578,26.2129],[95.5836,26.2679],[95.689,26.3689],[95.6921,26.4534],[95.7574,26.5535],[95.7896,26.7035],[95.8656,26.8539],[95.8403,26.8406],[95.8328,26.8718],[95.7908,26.7718],[95.7215,26.7454],[95.7281,26.7133],[95.7149,26.6908],[95.7461,26.6192],[95.7136,26.5436],[95.5916,26.5154],[95.5772,26.547],[95.591,26.6193],[95.5253,26.5077],[95.4399,26.4657],[95.3734,26.4977],[95.3511,26.4395],[95.2343,26.365],[95.5121,26.4397],[95.5372,26.4348],[95.5393,26.4087],[95.5999,26.4449],[95.6299,26.4381],[95.6338,26.4099],[95.5907,26.3456],[95.4257,26.2328],[95.4296,26.1969],[95.5215,26.1868],[95.5268,26.1474],[95.3974,26.0846],[95.3754,26.0395],[95.3178,25.9834],[95.3977,26.0131],[95.4541,25.9935],[95.5171,26.076],[95.5713,26.0929],[95.5824,26.0451],[95.5538,25.9766],[95.3297,25.7418],[95.2427,25.7036],[95.2443,25.613],[95.184,25.5215],[95.1628,25.5236],[95.1424,25.5828],[95.009,25.5711],[94.9504,25.527],[94.8819,25.5855],[94.9057,25.6007],[94.9526,25.5484],[95.0002,25.6675],[95.0391,25.6454],[95.0538,25.6002],[95.0937,25.6044],[95.1557,25.657],[95.1533,25.7095],[95.3438,25.8366],[95.3575,25.8594],[95.3707,25.9331],[95.3409,25.9446],[95.2201,25.8893],[95.1016,25.859],[95.1427,25.9125],[95.1973,25.9425],[95.2361,26.0001],[95.3088,26.0307],[95.3127,26.0646],[95.2685,26.1553],[95.3502,26.2206],[95.3848,26.2717],[95.325,26.305],[95.4341,26.3577],[95.3826,26.3726],[95.3201,26.3606],[95.1529,26.2494],[95.109,26.2502],[95.1075,26.3024],[95.1801,26.4178],[95.2812,26.4431],[95.3165,26.5273],[95.3114,26.5511],[95.2603,26.5908],[95.1644,26.625],[95.2408,26.6804],[95.2754,26.6433],[95.3557,26.6748],[95.3111,26.6407],[95.4058,26.6524],[95.4008,26.5714],[95.4276,26.5212],[95.4687,26.5845],[95.5143,26.6128],[95.4897,26.7049],[95.589,26.6948],[95.6258,26.7296],[95.6694,26.8375],[95.7275,26.8505],[95.8998,27.0053],[95.9211,27.0078],[95.9322,26.9715],[95.9785,27.0038],[95.9832,27.0798],[95.9549,27.0818],[96.0512,27.1734],[96.0517,27.1946],[96.1241,27.237],[96.3,27.2905],[96.3808,27.284],[96.4258,27.301],[96.4996,27.3003],[96.5641,27.2644],[96.5088,27.2368],[96.467,27.1682],[96.55,27.1927],[96.6372,27.1773],[96.6793,27.1993],[96.6594,27.2611],[96.6803,27.2913],[96.7613,27.3266],[96.8309,27.2993],[96.8871,27.2525],[96.8475,27.2119],[96.844,27.1679],[96.9346,27.1355],[96.985,27.0966],[96.8166,27.0998],[96.7945,27.0889],[96.7475,27.1119],[96.6904,27.0749],[96.6931,27.027],[96.6324,27.0339],[96.4743,26.9873],[96.6927,26.9596],[96.8267,26.9793],[96.8706,26.9522],[96.9554,26.9471],[96.962,26.9281],[96.9431,26.8948],[96.881,26.8551],[96.9997,26.8317],[97.0023,26.8895],[97.1013,26.9564],[97.0977,27.0339],[97.1135,27.0412],[97.1484,27.0074],[97.2432,26.8272],[97.17,26.7269],[97.177,26.6609],[97.2312,26.6151],[97.2821,26.5946],[97.3076,26.6005],[97.3303,26.6494],[97.3583,26.8339],[97.3454,26.9386],[97.3981,26.9856],[97.4143,27.0391],[97.3915,27.0725],[97.3221,27.1082],[97.3055,27.1381],[97.2083,27.1816],[97.1435,27.3008],[97.0634,27.3747],[97.061,27.3896],[97.1235,27.4183],[97.1316,27.4422],[97.1043,27.5064],[97.0497,27.5694],[97.0735,27.6204],[97.1548,27.5521],[97.185,27.5719],[97.2413,27.5627],[97.2489,27.6052],[97.1922,27.6984],[97.2046,27.7267],[97.2441,27.7274],[97.2547,27.7856],[97.3329,27.719],[97.3732,27.7613],[97.435,27.7595],[97.5102,27.8108],[97.5159,27.7682],[97.46,27.6771],[97.4606,27.6311],[97.5221,27.6303],[97.5341,27.559],[97.595,27.4873],[97.8153,27.341],[97.8319,27.3548],[97.8109,27.39],[97.6606,27.4823],[97.6683,27.5459],[97.5993,27.584],[97.61,27.7063],[97.6597,27.7454],[97.7278,27.7247],[97.8842,27.5341],[97.8364,27.6654],[97.9035,27.6814],[97.9601,27.6291],[97.9792,27.561],[98.0,27.5484],[98.0,27.2894],[97.9444,27.3145],[97.919,27.1938],[97.9597,27.1635],[98.0,27.1657],[98.0,27.0721],[97.9376,27.042],[98.0,26.9955],[98.0,26.9782],[97.8809,26.9679],[97.8564,26.92],[97.8659,26.8924],[97.9165,26.8674],[97.9466,26.8268],[98.0,26.8692],[97.9957,26.5598]],[[97.2605,27.2772],[97.2505,27.3784],[97.2167,27.4414],[97.2287,27.3277],[97.2605,27.2772]],[[97.4488,26.7148],[97.4849,26.7243],[97.4869,26.7429],[97.4524,26.7509],[97.4488,26.7148]],[[96.8233,26.8668],[96.5944,26.8804],[96.7719,26.8517],[96.8061,26.8513],[96.8233,26.8668]],[[95.9916,26.9163],[95.893,26.7882],[95.8773,26.7004],[95.8195,26.6173],[95.8372,26.5845],[95.7866,26.4939],[95.7784,26.4298],[95.7955,26.4073],[95.8585,26.4659],[95.9372,26.624],[95.9482,26.7795],[96.0575,26.8314],[96.0447,26.8657],[96.0647,26.9336],[95.9916,26.9163]],[[97.1881,26.5318],[97.1941,26.311],[97.2147,26.2873],[97.2593,26.3413],[97.265,26.3837],[97.2474,26.4165],[97.2574,26.5139],[97.2107,26.5716],[97.1881,26.5318]],[[97.4241,26.2776],[97.4461,26.2737],[97.4545,26.2941],[97.4259,26.3026],[97.4241,26.2776]],[[97.025,25.7585],[96.964,25.7538],[97.019,25.6805],[97.0078,25.5952],[97.0241,25.5701],[97.1375,25.7023],[97.1384,25.737],[97.1063,25.787],[97.1164,25.8801],[97.1501,25.9856],[97.1486,26.0584],[97.1961,26.108],[97.2219,26.1758],[97.2249,26.2317],[97.2124,26.2477],[97.1875,26.2365],[97.1289,26.0936],[97.118,25.9904],[97.0792,25.9529],[97.0747,25.8953],[97.025,25.7585]],[[97.4985,26.2314],[97.5614,26.1206],[97.5908,26.123],[97.6108,26.1631],[97.6046,26.2053],[97.5713,26.2238],[97.4985,26.2314]],[[97.3106,26.233],[97.2919,26.2218],[97.3256,26.1817],[97.354,26.1602],[97.377,26.1637],[97.3803,26.1846],[97.3106,26.233]]]]}}