{"type":"Feature","properties":{"speciesId":950,"category":"LC","source":"IUCN Red List","simplifyTol":0.01,"clippedToSubcontinent":true},"geometry":{"type":"Polygon","coordinates":[[[88.7845,27.499],[88.7996,27.4265],[88.8433,27.3604],[88.9263,27.2857],[88.9958,27.2583],[89.1061,27.2748],[89.3574,27.3663],[90.0433,27.3662],[90.6114,27.3334],[90.8206,27.3],[90.9929,27.244],[91.0364,27.2105],[91.0417,27.1617],[91.0052,26.9268],[90.9833,26.876],[90.9479,26.8457],[90.7858,26.8147],[90.6934,26.8298],[90.4502,26.9206],[90.25,26.9074],[90.157,26.8642],[90.1005,26.7663],[90.0485,26.717],[89.9799,26.6862],[89.8925,26.6729],[89.7122,26.6895],[89.4819,26.7532],[89.1491,26.8811],[88.9778,26.9856],[88.8973,27.0107],[88.7821,27.0],[88.5347,26.8714],[88.3594,26.8056],[88.1824,26.9563],[88.1047,27.0668],[88.0776,27.1918],[88.1217,27.3266],[88.2372,27.4342],[88.4169,27.5119],[88.7028,27.5372],[88.753,27.5274],[88.7845,27.499]]]}}