{"type":"Feature","properties":{"speciesId":951,"category":"LC","source":"IUCN Red List","simplifyTol":0.01,"clippedToSubcontinent":true},"geometry":{"type":"MultiPolygon","coordinates":[[[[77.1317,9.669],[77.3106,9.6823],[77.3699,9.6709],[77.4499,9.5763],[77.48,9.4657],[77.4483,9.3478],[77.364,9.2125],[77.3074,9.1501],[77.1594,9.0608],[77.1377,9.0304],[77.3368,8.9774],[77.4501,8.881],[77.6443,8.549],[77.6602,8.4735],[77.6285,8.4386],[77.4427,8.4311],[77.2802,8.4892],[77.104,8.6461],[76.9808,8.8467],[76.9471,9.0077],[76.9368,9.5866],[76.8925,9.9897],[76.8188,10.2464],[76.6924,10.4536],[76.719,10.5495],[76.7759,10.6067],[76.8994,10.6126],[77.0762,10.5577],[77.2199,10.4773],[77.2858,10.3872],[77.3069,10.307],[77.3026,10.2488],[77.1889,10.0495],[77.1083,9.7864],[77.1117,9.6924],[77.1317,9.669]]],[[[74.7169,15.353],[74.8497,15.3644],[74.8902,15.3214],[74.8558,14.9959],[74.9215,14.6189],[74.9492,14.3611],[74.9798,14.2477],[75.0294,14.1623],[75.182,13.9886],[75.5167,13.5474],[75.577,13.3151],[75.7415,13.0272],[75.7879,12.9129],[75.7999,12.804],[75.7753,12.4952],[75.8661,12.2376],[75.9863,12.0162],[76.1937,11.702],[76.3927,11.4364],[76.5453,11.2859],[76.5931,11.2128],[76.6031,11.1432],[76.5919,11.0631],[76.558,11.0042],[76.5133,10.9676],[76.3538,10.9929],[75.9983,11.1405],[75.9081,11.1938],[75.8513,11.2616],[75.7865,11.399],[75.7124,11.6391],[75.6399,11.786],[75.5646,11.8971],[75.3956,12.0674],[75.3351,12.169],[75.292,12.3012],[75.2327,12.6288],[75.1914,12.7711],[75.1158,12.9203],[74.9079,13.2532],[74.7788,13.5175],[74.5276,14.1503],[74.3705,14.6114],[74.0206,15.1587],[73.9214,15.352],[73.8191,15.6893],[73.7983,15.831],[73.7904,16.1246],[73.6653,16.6049],[73.623,16.8577],[73.6211,16.9824],[73.6547,17.3288],[73.5901,17.6273],[73.6383,17.7456],[73.7117,17.8141],[73.8007,17.8282],[73.8889,17.8103],[73.9387,17.7673],[73.982,17.6878],[74.0159,17.5432],[73.9737,17.1078],[73.9848,16.9219],[74.2533,15.9859],[74.3086,15.8406],[74.3752,15.7254],[74.576,15.5046],[74.6579,15.376],[74.7169,15.353]]]]}}