{"type":"Feature","properties":{"speciesId":955,"category":"VU","source":"IUCN Red List","simplifyTol":0.01,"clippedToSubcontinent":true},"geometry":{"type":"MultiPolygon","coordinates":[[[[92.8667,22.4852],[92.8519,22.4998],[92.8667,22.5148],[92.8815,22.5002],[92.8667,22.4852]]],[[[96.7452,27.4253],[96.677,27.3951],[96.5368,27.4254],[96.3927,27.391],[96.1068,27.2487],[95.7526,27.0155],[95.6895,26.9901],[95.6184,26.9932],[95.5429,27.1018],[95.4923,27.2186],[95.5019,27.3],[95.5435,27.3183],[95.6026,27.3031],[95.7403,27.2238],[95.8114,27.2253],[96.0713,27.4037],[96.6483,27.6288],[96.7207,27.6173],[96.7723,27.5636],[96.7817,27.4902],[96.7452,27.4253]]]]}}