{"type":"Feature","properties":{"speciesId":957,"category":"DD","source":"IUCN Red List","simplifyTol":0.01,"clippedToSubcontinent":true},"geometry":{"type":"MultiPolygon","coordinates":[[[[88.4,22.1199],[88.3839,22.1373],[88.4,22.1547],[88.416,22.1373],[88.4,22.1199]]],[[[88.1442,22.2302],[88.1282,22.2476],[88.1442,22.265],[88.1602,22.2476],[88.1442,22.2302]]],[[[88.4055,22.5567],[88.3895,22.5741],[88.4055,22.5915],[88.4216,22.5741],[88.4055,22.5567]]],[[[88.3151,22.5883],[88.299,22.6057],[88.3151,22.6231],[88.3311,22.6057],[88.3151,22.5883]]],[[[88.5059,22.6754],[88.4899,22.6929],[88.5059,22.7103],[88.522,22.6929],[88.5059,22.6754]]],[[[88.5555,23.4521],[88.5394,23.4695],[88.5555,23.4869],[88.5715,23.4695],[88.5555,23.4521]]],[[[88.3945,26.7081],[88.3785,26.7255],[88.3945,26.743],[88.4106,26.7255],[88.3945,26.7081]]]]}}