{"type":"Feature","properties":{"speciesId":959,"category":"NT","source":"IUCN Red List","simplifyTol":0.01,"clippedToSubcontinent":true},"geometry":{"type":"MultiPolygon","coordinates":[[[[93.8479,7.2159],[93.8821,7.197],[93.8862,7.1064],[93.9149,7.0305],[93.9476,7.0022],[93.9144,7.0023],[93.9451,6.9584],[93.9181,6.9481],[93.91,6.9067],[93.895,6.9087],[93.894,6.8491],[93.9117,6.8354],[93.9013,6.8114],[93.8812,6.7962],[93.8729,6.8154],[93.8521,6.8151],[93.8273,6.756],[93.8051,6.7691],[93.8153,6.816],[93.785,6.8347],[93.7928,6.8518],[93.7727,6.8749],[93.7874,6.8832],[93.7653,6.9155],[93.7504,6.9083],[93.7431,6.9209],[93.7274,6.9909],[93.7087,6.9887],[93.6883,7.0176],[93.6638,7.0093],[93.6754,7.0246],[93.6573,7.0934],[93.675,7.1141],[93.658,7.1109],[93.6569,7.1276],[93.678,7.1442],[93.6723,7.1738],[93.6912,7.1906],[93.7335,7.1866],[93.7648,7.2135],[93.8017,7.2022],[93.8195,7.2355],[93.8427,7.2369],[93.8479,7.2159]]],[[[93.6966,7.3989],[93.6841,7.4073],[93.6902,7.4096],[93.6966,7.3989]]],[[[93.7211,7.427],[93.7215,7.4006],[93.7612,7.3685],[93.7246,7.31],[93.6782,7.2843],[93.6463,7.2444],[93.622,7.3087],[93.6422,7.3285],[93.6324,7.3699],[93.7048,7.3911],[93.7157,7.4223],[93.7063,7.444],[93.7211,7.427]]]]}}