{"type":"Feature","properties":{"speciesId":960,"category":"LC","source":"IUCN Red List","simplifyTol":0.01,"clippedToSubcontinent":true},"geometry":{"type":"MultiPolygon","coordinates":[[[[95.4974,5.5988],[95.6132,5.6266],[95.6729,5.5857],[95.879,5.5068],[95.9043,5.427],[96.049,5.327],[96.0735,5.2928],[96.1823,5.2636],[96.2587,5.2634],[96.3883,5.2149],[96.465,5.2376],[96.4908,5.2046],[96.5318,5.2027],[96.6139,5.2144],[96.7202,5.2559],[96.8273,5.2776],[96.8552,5.2774],[96.8303,5.2714],[96.8998,5.2516],[96.9753,5.2665],[97.0818,5.2327],[97.1448,5.2004],[97.1432,5.1623],[97.1981,5.1461],[97.4967,5.2537],[97.5137,5.2464],[97.5468,5.2151],[97.5273,5.2057],[97.57,5.1904],[97.5722,5.1386],[97.6018,5.1419],[97.611,5.1139],[97.6525,5.1197],[97.648,5.0751],[97.806,4.9341],[97.9015,4.8871],[97.934,4.808],[97.9619,4.7262],[97.9615,4.668],[97.9946,4.6349],[98.0,4.6047],[97.9604,4.5316],[97.9823,4.5447],[98.0,4.5268],[98.0,4.0],[97.8571,4.0],[97.8358,4.0237],[97.8477,4.0445],[97.8287,4.0622],[97.832,4.0869],[97.8138,4.0834],[97.8045,4.1075],[97.8017,4.0879],[97.784,4.0929],[97.7677,4.1417],[97.7501,4.1197],[97.7772,4.0774],[97.7547,4.0629],[97.7841,4.063],[97.7803,4.0297],[97.8094,4.0391],[97.8159,4.0],[97.6716,4.0],[97.6852,4.0543],[97.6653,4.07],[97.6655,4.1065],[97.6456,4.0747],[97.6199,4.0832],[97.6208,4.009],[97.5664,4.0345],[97.5513,4.0677],[97.5035,4.0335],[97.472,4.0309],[97.4324,4.0531],[97.4226,4.0703],[97.4612,4.1131],[97.4832,4.0673],[97.5129,4.087],[97.5179,4.1175],[97.5413,4.1183],[97.5354,4.1573],[97.4948,4.1444],[97.5009,4.1755],[97.4889,4.1829],[97.491,4.2048],[97.5116,4.2118],[97.5018,4.2319],[97.5361,4.2246],[97.5384,4.2361],[97.4998,4.2675],[97.4973,4.3141],[97.4747,4.2627],[97.447,4.3091],[97.4629,4.3242],[97.4451,4.3281],[97.4428,4.3459],[97.4176,4.3434],[97.4081,4.3094],[97.3717,4.3689],[97.3311,4.36],[97.371,4.3862],[97.394,4.3656],[97.4099,4.3801],[97.3661,4.4385],[97.3872,4.4467],[97.3746,4.461],[97.3998,4.4542],[97.4031,4.4663],[97.3113,4.518],[97.3489,4.5436],[97.3206,4.5854],[97.306,4.5433],[97.2692,4.5689],[97.2322,4.5335],[97.2869,4.4816],[97.2819,4.4545],[97.323,4.4652],[97.337,4.4308],[97.2822,4.4108],[97.3009,4.3368],[97.2757,4.3504],[97.2591,4.3422],[97.2742,4.3113],[97.3276,4.2743],[97.326,4.2599],[97.303,4.2695],[97.2951,4.258],[97.2875,4.2746],[97.2607,4.2629],[97.2623,4.2859],[97.2255,4.3178],[97.2153,4.3074],[97.2275,4.2701],[97.1776,4.287],[97.1853,4.2497],[97.1125,4.2802],[97.0215,4.2806],[97.055,4.3136],[97.0841,4.3027],[97.0802,4.319],[97.1116,4.3273],[97.0943,4.3462],[97.0703,4.3362],[97.0656,4.362],[97.024,4.3358],[96.9942,4.3385],[97.0279,4.3543],[97.0209,4.3784],[96.9333,4.3834],[96.948,4.4146],[96.9851,4.4316],[96.9815,4.4499],[96.9547,4.4382],[96.9454,4.4508],[96.9094,4.4488],[96.9073,4.4269],[96.8969,4.4441],[96.8614,4.4461],[96.8502,4.4886],[96.8818,4.4727],[96.9143,4.4937],[96.9207,4.4679],[96.9539,4.4699],[96.9532,4.4871],[97.0369,4.4693],[97.0271,4.4882],[97.0019,4.4846],[96.9709,4.5062],[97.011,4.4962],[97.0401,4.5102],[97.0786,4.4835],[97.0599,4.546],[97.1157,4.5027],[97.1539,4.5134],[97.1124,4.5688],[97.0924,4.5635],[97.1026,4.5843],[97.0819,4.587],[97.0847,4.6123],[97.0658,4.6133],[97.0443,4.6505],[97.0295,4.6452],[97.0208,4.663],[97.0048,4.6525],[97.0132,4.6952],[96.9966,4.6956],[96.9841,4.6673],[96.9657,4.6907],[96.9607,4.6706],[96.8878,4.689],[96.9437,4.7072],[96.9619,4.7448],[96.9538,4.7631],[96.9968,4.7474],[97.0138,4.7693],[97.0482,4.7627],[97.0744,4.7957],[97.1493,4.806],[97.1565,4.8371],[97.1313,4.8415],[97.1157,4.8638],[97.0991,4.8672],[97.0924,4.8487],[97.0614,4.8554],[97.0615,4.8353],[97.0437,4.8489],[97.029,4.8201],[97.0128,4.8458],[96.9831,4.8398],[96.9881,4.8583],[96.9646,4.8604],[96.9873,4.8893],[96.9679,4.8903],[96.9406,4.8498],[96.9054,4.9036],[96.8824,4.9138],[96.7921,4.8901],[96.7698,4.795],[96.8202,4.704],[96.7706,4.6823],[96.7424,4.6148],[96.7814,4.595],[96.8088,4.605],[96.8217,4.5562],[96.8034,4.5584],[96.7998,4.5836],[96.7133,4.5939],[96.7438,4.5717],[96.7736,4.5725],[96.7771,4.557],[96.7456,4.5539],[96.7372,4.5354],[96.6883,4.5661],[96.7,4.5259],[96.6749,4.5274],[96.673,4.5452],[96.6455,4.545],[96.6654,4.5664],[96.6567,4.5831],[96.6869,4.6092],[96.6422,4.6174],[96.6401,4.5818],[96.6243,4.6426],[96.6603,4.6412],[96.6825,4.6661],[96.6236,4.738],[96.5243,4.7803],[96.4948,4.8341],[96.5405,4.8455],[96.5219,4.8804],[96.5581,4.8652],[96.5412,4.903],[96.5126,4.9079],[96.5176,4.9292],[96.5468,4.9283],[96.5167,4.9672],[96.4986,4.9469],[96.4618,4.9701],[96.4288,4.9388],[96.4325,4.9808],[96.4101,4.9847],[96.4219,5.0147],[96.4013,5.0225],[96.3889,4.9845],[96.3727,5.0119],[96.3344,5.0076],[96.3456,5.0353],[96.3242,5.0713],[96.2928,5.0618],[96.2627,5.1013],[96.2318,5.0895],[96.2574,5.0454],[96.2478,5.0264],[96.2715,4.9973],[96.2572,4.9897],[96.2745,4.9674],[96.2613,4.9702],[96.2529,4.9471],[96.2389,4.9809],[96.2194,4.983],[96.2133,5.0359],[96.1641,5.0377],[96.153,5.0624],[96.1284,5.0598],[96.1453,5.0997],[96.11,5.0781],[96.0961,5.0964],[96.0697,5.0944],[96.0854,5.0744],[96.0769,5.0548],[96.0436,5.0671],[96.0311,5.0567],[96.0097,5.0829],[95.9772,5.0916],[95.9928,5.0504],[96.0227,5.0319],[96.0292,5.002],[96.0081,4.9886],[96.0312,4.9618],[96.0668,4.9472],[96.0487,4.9941],[96.0914,4.9589],[96.0945,4.9951],[96.123,4.9344],[96.1303,4.9581],[96.1653,4.9423],[96.1732,4.9613],[96.1985,4.9443],[96.1774,4.932],[96.1925,4.9138],[96.1587,4.9123],[96.2281,4.8945],[96.2169,4.8622],[96.2353,4.8434],[96.216,4.8203],[96.1829,4.8177],[96.1985,4.7948],[96.2081,4.8116],[96.2351,4.8038],[96.2506,4.7907],[96.2462,4.7705],[96.2731,4.765],[96.2925,4.7761],[96.2676,4.8155],[96.2932,4.8319],[96.3449,4.8082],[96.3253,4.8304],[96.335,4.8391],[96.3718,4.8216],[96.3848,4.8447],[96.3777,4.8711],[96.4007,4.8523],[96.4212,4.8669],[96.4267,4.8203],[96.482,4.7794],[96.496,4.7387],[96.5288,4.7166],[96.5268,4.751],[96.5411,4.7546],[96.5659,4.7312],[96.553,4.6943],[96.5987,4.6964],[96.6367,4.6674],[96.6047,4.6626],[96.6003,4.632],[96.5727,4.6531],[96.5746,4.6284],[96.5579,4.6466],[96.5264,4.64],[96.5214,4.6176],[96.4997,4.6111],[96.5143,4.5715],[96.4815,4.596],[96.4652,4.6321],[96.4227,4.657],[96.4494,4.682],[96.4465,4.6917],[96.4249,4.672],[96.4082,4.681],[96.426,4.6835],[96.4161,4.7047],[96.3515,4.6898],[96.3773,4.6808],[96.3643,4.6657],[96.3918,4.6579],[96.3822,4.6383],[96.4061,4.6546],[96.4314,4.6427],[96.4281,4.6231],[96.4666,4.6079],[96.4569,4.5917],[96.4766,4.5637],[96.4469,4.556],[96.4956,4.5461],[96.474,4.524],[96.4982,4.5018],[96.5113,4.5071],[96.5516,4.4683],[96.5372,4.4895],[96.5502,4.5137],[96.5664,4.48],[96.6,4.5032],[96.5825,4.4703],[96.6106,4.4705],[96.6161,4.4924],[96.6568,4.4905],[96.608,4.4222],[96.6724,4.3767],[96.5543,4.4085],[96.5384,4.3975],[96.4854,4.454],[96.4948,4.4184],[96.456,4.4043],[96.4888,4.3643],[96.5318,4.3566],[96.5429,4.3274],[96.5658,4.3264],[96.5413,4.3084],[96.5419,4.2849],[96.5665,4.2994],[96.5929,4.2927],[96.5939,4.3146],[96.6219,4.324],[96.6324,4.2919],[96.6729,4.31],[96.6849,4.3009],[96.6785,4.3256],[96.7015,4.3051],[96.714,4.3178],[96.7392,4.3123],[96.7022,4.2855],[96.7183,4.2679],[96.6805,4.275],[96.6481,4.2506],[96.6246,4.2596],[96.6339,4.235],[96.6201,4.2191],[96.6486,4.1993],[96.6534,4.2236],[96.6712,4.2191],[96.6663,4.1743],[96.7035,4.1786],[96.7123,4.2258],[96.7412,4.1921],[96.7772,4.189],[96.7733,4.1734],[96.7888,4.1724],[96.7649,4.1498],[96.8185,4.1732],[96.8033,4.1374],[96.8234,4.1249],[96.8075,4.1018],[96.8505,4.0837],[96.8558,4.0614],[96.8769,4.0753],[96.9039,4.0646],[96.9088,4.0974],[96.8676,4.096],[96.8587,4.1505],[96.8783,4.1219],[96.8958,4.1589],[96.9386,4.1718],[96.8794,4.2168],[96.8788,4.2352],[96.9413,4.2018],[96.9779,4.2072],[96.9889,4.1786],[97.0129,4.1943],[97.0171,4.1638],[97.0399,4.1663],[97.0492,4.1474],[97.0732,4.1551],[97.059,4.1285],[97.1049,4.1241],[97.0964,4.0943],[97.1296,4.0968],[97.1337,4.0739],[97.17,4.103],[97.1543,4.1781],[97.2868,4.1089],[97.3347,4.1455],[97.3133,4.0884],[97.3419,4.0812],[97.3449,4.0605],[97.3758,4.0504],[97.3765,4.0257],[97.4145,4.0],[97.2231,4.0],[97.0882,4.0384],[97.0609,4.0158],[97.0619,4.0365],[97.0201,4.0373],[97.0152,4.0068],[96.9915,4.0463],[96.9749,4.0416],[96.9881,4.0],[96.9487,4.0287],[96.9584,4.0],[96.8523,4.0],[96.8236,4.003],[96.7501,4.0576],[96.7767,4.0118],[96.8121,4.0],[96.2775,4.0],[96.1485,4.1406],[96.1249,4.128],[96.0536,4.206],[96.0229,4.196],[95.7128,4.5268],[95.6081,4.6162],[95.5654,4.6262],[95.5834,4.6462],[95.5723,4.6567],[95.5387,4.6473],[95.4818,4.7609],[95.4119,4.8179],[95.4252,4.8339],[95.3756,4.9197],[95.3694,4.9459],[95.3817,4.9568],[95.3555,4.9992],[95.3623,5.0193],[95.3045,5.0793],[95.3152,5.0834],[95.3041,5.1067],[95.2825,5.1073],[95.3067,5.1271],[95.2962,5.1834],[95.2367,5.2204],[95.2503,5.2266],[95.2336,5.2472],[95.2385,5.2724],[95.2113,5.2699],[95.2156,5.3179],[95.2336,5.3195],[95.2223,5.3417],[95.2331,5.3582],[95.2389,5.3385],[95.2483,5.3663],[95.2286,5.4272],[95.2409,5.4467],[95.2295,5.4922],[95.1897,5.5228],[95.2202,5.5705],[95.2424,5.5512],[95.2806,5.5506],[95.3247,5.5899],[95.3527,5.5887],[95.4314,5.6564],[95.4651,5.6437],[95.4974,5.5988]],[[95.6513,5.4525],[95.6586,5.4302],[95.672,5.4451],[95.6513,5.4525]],[[95.362,5.2869],[95.328,5.2855],[95.3512,5.2793],[95.409,5.1934],[95.4226,5.2199],[95.3887,5.2406],[95.3951,5.2837],[95.3726,5.2913],[95.3675,5.2731],[95.362,5.2869]],[[95.5083,5.1929],[95.5698,5.2026],[95.6093,5.1841],[95.6322,5.1484],[95.5957,5.1383],[95.632,5.1067],[95.6044,5.0846],[95.6049,5.0501],[95.5859,5.0434],[95.593,4.9872],[95.6207,5.0134],[95.6439,4.9929],[95.6858,5.0018],[95.6809,4.9793],[95.7045,4.9747],[95.7086,5.0157],[95.7259,4.992],[95.7442,4.9957],[95.7433,4.9793],[95.7632,4.9779],[95.7346,5.0415],[95.6852,5.042],[95.6855,5.0581],[95.7137,5.0634],[95.7621,5.0403],[95.7662,5.0157],[95.789,5.0217],[95.8034,4.9839],[95.8186,4.9915],[95.8128,5.0083],[95.8404,4.9793],[95.873,4.9814],[95.8636,5.0246],[95.8502,5.0069],[95.8289,5.05],[95.7839,5.0486],[95.8028,5.08],[95.7585,5.0781],[95.6756,5.1284],[95.645,5.1263],[95.6708,5.136],[95.6414,5.1678],[95.626,5.1604],[95.6198,5.1894],[95.4821,5.2427],[95.4846,5.2095],[95.5083,5.1929]],[[95.7858,5.127],[95.8115,5.1269],[95.8165,5.0954],[95.8498,5.0781],[95.8296,5.0995],[95.8296,5.1269],[95.7695,5.1737],[95.7858,5.127]],[[96.3903,5.0403],[96.4107,5.0686],[96.3906,5.0782],[96.3798,5.0683],[96.3903,5.0403]],[[96.6657,4.7769],[96.6204,4.799],[96.6101,4.796],[96.6276,4.7507],[96.6657,4.7769]],[[97.4099,4.5883],[97.3973,4.5871],[97.4123,4.5711],[97.4271,4.5867],[97.4947,4.5607],[97.4583,4.6266],[97.4326,4.6184],[97.433,4.6443],[97.3946,4.6629],[97.4099,4.5883]],[[97.2075,4.554],[97.2206,4.5656],[97.2129,4.607],[97.1953,4.5821],[97.2075,4.554]],[[97.4131,4.5176],[97.4247,4.4958],[97.4493,4.4885],[97.4442,4.4971],[97.4131,4.5176]],[[97.432,4.4463],[97.4512,4.4696],[97.4242,4.478],[97.4272,4.4602],[97.4112,4.4509],[97.432,4.4463]],[[97.5591,4.3139],[97.5642,4.3163],[97.5632,4.3244],[97.5591,4.3139]],[[97.5975,4.2975],[97.617,4.281],[97.6251,4.2813],[97.6221,4.2896],[97.5975,4.2975]],[[97.6225,4.1275],[97.6094,4.2079],[97.6191,4.1223],[97.6225,4.1275]],[[97.7403,4.1237],[97.7466,4.1278],[97.7357,4.1369],[97.7403,4.1237]],[[97.622,4.1119],[97.6232,4.097],[97.634,4.1046],[97.622,4.1119]],[[97.7098,4.0793],[97.7181,4.0815],[97.7107,4.0933],[97.7098,4.0793]],[[97.7127,4.0453],[97.7095,4.0154],[97.7198,4.0062],[97.7294,4.0305],[97.7127,4.0453]],[[97.2323,4.0413],[97.2416,4.0172],[97.2918,4.0463],[97.3239,4.023],[97.31,4.0602],[97.2825,4.0715],[97.2631,4.0599],[97.2486,4.0862],[97.2241,4.078],[97.2149,4.09],[97.1864,4.072],[97.2083,4.0336],[97.2323,4.0413]],[[97.2232,4.1269],[97.1819,4.153],[97.1924,4.1036],[97.2232,4.1269]],[[96.9957,4.1123],[96.9686,4.1335],[96.9768,4.1152],[96.9957,4.1123]],[[96.6631,4.1455],[96.6492,4.1735],[96.6343,4.1769],[96.64,4.1599],[96.6631,4.1455]],[[96.4122,4.5241],[96.4164,4.4913],[96.4389,4.4657],[96.4277,4.5127],[96.4122,4.5241]],[[96.5068,4.6635],[96.5177,4.663],[96.5091,4.6658],[96.5068,4.6635]],[[96.4767,4.6362],[96.4788,4.658],[96.4708,4.6603],[96.4617,4.6493],[96.4767,4.6362]],[[96.0699,4.7603],[96.0648,4.7534],[96.0705,4.7563],[96.0699,4.7603]],[[95.7401,4.9164],[95.6978,4.9081],[95.7016,4.921],[95.6799,4.9063],[95.6669,4.8625],[95.7401,4.9164]],[[95.7444,4.9134],[95.7621,4.9224],[95.7717,4.939],[95.7646,4.9367],[95.7444,4.9134]],[[95.945,4.9373],[95.9443,4.9541],[95.8993,4.9612],[95.9119,4.9334],[95.945,4.9373]],[[95.8931,4.9728],[95.8938,4.9875],[95.878,4.9802],[95.8931,4.9728]],[[95.9414,5.0672],[95.9595,5.0485],[95.9797,5.0478],[95.9733,5.0582],[95.9414,5.0672]],[[95.5165,5.0395],[95.526,5.0367],[95.5234,5.0408],[95.5165,5.0395]]],[[[97.998,4.6246],[98.0,4.6279],[98.0,4.6171],[97.998,4.6246]]],[[[98.0,14.2853],[97.9673,14.3915],[98.0,14.4787],[98.0,14.2853]]],[[[98.0,14.4823],[97.965,14.4262],[97.948,14.5132],[97.9062,14.5766],[97.9137,14.6189],[97.8977,14.612],[97.8731,14.6693],[97.8957,14.7027],[97.8855,14.7229],[97.8678,14.7078],[97.8384,14.7195],[97.7907,14.8707],[97.8084,14.9483],[97.7969,14.9974],[97.8188,15.0101],[97.8248,15.0226],[97.7909,14.9984],[97.7709,15.0175],[97.7971,15.0308],[97.8063,15.1507],[97.787,15.1796],[97.7959,15.1892],[97.7649,15.1975],[97.7341,15.2503],[97.7417,15.2952],[97.7215,15.3328],[97.727,15.3547],[97.7475,15.3573],[97.7467,15.384],[97.7832,15.399],[97.7407,15.4874],[97.7621,15.529],[97.7314,15.5962],[97.7374,15.6504],[97.6994,15.7537],[97.7224,15.7734],[97.7182,15.8422],[97.6752,15.9147],[97.61,15.9494],[97.6052,15.9782],[97.5722,16.0081],[97.5582,16.0722],[97.5972,16.0849],[97.623,16.0528],[97.6456,16.0443],[97.665,16.0488],[97.6761,16.0291],[97.6969,16.0274],[97.6672,16.0521],[97.6209,16.0582],[97.6072,16.1036],[97.5963,16.0994],[97.644,16.2715],[97.6155,16.3556],[97.6295,16.3882],[97.6141,16.4256],[97.6283,16.4521],[97.6256,16.5002],[97.6657,16.5106],[97.6712,16.4996],[97.6595,16.4868],[97.6636,16.4749],[97.6828,16.4654],[97.7025,16.4706],[97.7038,16.4507],[97.7238,16.4495],[97.721,16.4251],[97.7538,16.4144],[97.7343,16.4006],[97.7345,16.3818],[97.7735,16.378],[97.7969,16.3566],[97.7859,16.3398],[97.7889,16.3312],[97.8376,16.3223],[97.8552,16.2946],[97.8886,16.2867],[97.854,16.3007],[97.8404,16.326],[97.7901,16.3344],[97.8031,16.353],[97.793,16.368],[97.7655,16.3849],[97.7372,16.3859],[97.7587,16.4151],[97.7248,16.4281],[97.7266,16.4534],[97.7071,16.4533],[97.7023,16.474],[97.6656,16.4767],[97.6755,16.5013],[97.6683,16.5454],[97.7465,16.5624],[97.712,16.5711],[97.6664,16.5546],[97.6238,16.6432],[97.6074,16.5832],[97.6265,16.5584],[97.6211,16.5184],[97.5269,16.538],[97.488,16.5386],[97.472,16.5196],[97.3912,16.5251],[97.3613,16.4795],[97.3284,16.6589],[97.3462,16.6472],[97.3975,16.6399],[97.4233,16.6506],[97.424,16.6585],[97.3951,16.6434],[97.3455,16.6545],[97.3424,16.67],[97.3578,16.6678],[97.3476,16.6786],[97.3278,16.6671],[97.3288,16.6952],[97.344,16.6954],[97.3415,16.7344],[97.3409,16.7102],[97.3207,16.7101],[97.3201,16.6689],[97.2786,16.6847],[97.2393,16.7699],[97.2499,16.8223],[97.234,16.8093],[97.2223,16.8471],[97.2276,16.8574],[97.2638,16.8444],[97.2778,16.8516],[97.2662,16.8701],[97.2661,16.8481],[97.2262,16.8698],[97.209,16.813],[97.1998,16.8837],[97.2195,16.9045],[97.2191,16.9379],[97.2087,16.9025],[97.1878,16.8901],[97.1696,16.8983],[97.2072,17.0098],[97.1547,17.0679],[97.1526,17.0939],[97.1876,17.1168],[97.2144,17.0868],[97.2646,17.1034],[97.228,17.1028],[97.205,17.134],[97.1458,17.1231],[97.1337,17.0797],[97.1133,17.0784],[97.0883,17.1623],[97.1068,17.1875],[97.0823,17.183],[97.0602,17.2531],[97.0013,17.2659],[97.0103,17.2988],[96.9122,17.3561],[96.8886,17.394],[96.8829,17.4545],[96.8636,17.3934],[96.842,17.3902],[96.8488,17.4139],[96.8173,17.4375],[96.7917,17.4904],[96.7346,17.4372],[96.7713,17.3735],[96.7248,17.3476],[96.6897,17.3658],[96.6488,17.3295],[96.6688,17.2683],[96.6957,17.2479],[96.7084,17.2561],[96.6769,17.2668],[96.6854,17.3453],[96.7298,17.339],[96.8348,17.3812],[96.8598,17.3613],[96.8555,17.3434],[96.8644,17.3526],[96.9117,17.3197],[96.8907,17.3119],[96.9129,17.305],[96.9021,17.2712],[96.8625,17.2405],[96.8477,17.2066],[96.8325,17.2092],[96.8514,17.1981],[96.877,17.1124],[96.9,17.0892],[96.9118,17.0164],[96.8729,16.9102],[96.8366,16.9302],[96.8509,16.959],[96.8314,16.947],[96.83,16.923],[96.8515,16.9103],[96.8552,16.8876],[96.8332,16.906],[96.829,16.8933],[96.8074,16.9106],[96.7967,16.9065],[96.835,16.8771],[96.853,16.837],[96.8234,16.8058],[96.8085,16.756],[96.7935,16.7568],[96.7889,16.7776],[96.7747,16.7735],[96.8014,16.7404],[96.7753,16.6951],[96.5943,16.5352],[96.4998,16.5055],[96.3846,16.4964],[96.2853,16.5532],[96.2865,16.5916],[96.3355,16.6237],[96.4288,16.6071],[96.4707,16.612],[96.3306,16.6286],[96.2845,16.5977],[96.2779,16.5774],[96.2644,16.6459],[96.2293,16.6953],[96.2223,16.7528],[96.3147,16.8332],[96.3476,16.8338],[96.3943,16.8594],[96.4109,16.8553],[96.4851,16.8696],[96.5124,16.8879],[96.4829,16.8728],[96.3943,16.8639],[96.3247,16.8384],[96.3182,16.8648],[96.3477,16.9058],[96.3006,16.8636],[96.2989,16.841],[96.2773,16.8691],[96.3038,16.8262],[96.2029,16.7631],[96.1847,16.7773],[96.1946,16.788],[96.1917,16.8001],[96.2132,16.7984],[96.2248,16.8115],[96.2185,16.8407],[96.2089,16.8458],[96.22,16.8099],[96.1909,16.8053],[96.1802,16.7773],[96.1962,16.7578],[96.1293,16.7706],[96.1228,16.8117],[96.1159,16.8125],[96.132,16.7594],[96.1202,16.7542],[96.146,16.7606],[96.1912,16.7418],[96.2142,16.6731],[96.2457,16.6432],[96.2368,16.608],[96.1735,16.5831],[96.1735,16.5169],[96.1926,16.4871],[96.1802,16.4871],[96.1765,16.4641],[96.1413,16.453],[96.1626,16.4174],[96.0759,16.3571],[95.9943,16.4115],[95.9116,16.4106],[95.9276,16.3817],[95.8985,16.257],[95.7801,16.1295],[95.744,16.1359],[95.7273,16.2628],[95.7084,16.2722],[95.7227,16.2585],[95.7381,16.1115],[95.6972,16.0479],[95.6934,16.0],[95.6503,15.928],[95.5064,15.7782],[95.4584,15.7508],[95.4654,15.74],[95.3827,15.706],[95.3149,15.7069],[95.2826,15.7216],[95.2706,15.7961],[95.2779,15.8446],[95.304,15.852],[95.2974,15.8627],[95.3172,15.8799],[95.3391,15.879],[95.3377,15.901],[95.3477,15.8806],[95.3832,15.8719],[95.4002,15.8779],[95.4128,15.9046],[95.3851,15.8767],[95.3367,15.9049],[95.3353,15.8826],[95.3215,15.8866],[95.2979,15.8707],[95.3483,15.9487],[95.3636,16.0496],[95.3962,16.0618],[95.3608,16.0593],[95.3368,16.0997],[95.3702,16.1472],[95.3884,16.2404],[95.309,16.1693],[95.327,16.0885],[95.2751,16.0348],[95.234,15.9294],[95.21,15.856],[95.2218,15.7893],[95.1752,15.7679],[95.1174,15.7968],[95.1085,15.9114],[95.1217,15.9188],[95.1343,16.021],[95.1869,16.0216],[95.1928,16.0801],[95.2677,16.1477],[95.1878,16.115],[95.207,16.1784],[95.1803,16.1377],[95.1532,16.1399],[95.1633,16.124],[95.1332,16.1235],[95.1401,16.2318],[95.1232,16.2049],[95.1325,16.17],[95.1186,16.1123],[95.0869,16.0928],[95.0561,16.0353],[95.0701,15.9426],[95.0371,15.804],[95.0072,15.7794],[94.9869,15.7848],[94.9845,15.8487],[94.9826,15.7612],[94.945,15.7408],[94.8346,15.7802],[94.8386,15.8052],[94.89,15.8258],[94.871,15.8951],[94.9514,15.9418],[94.9443,15.9536],[94.8641,15.8974],[94.873,15.8249],[94.8451,15.8298],[94.8375,15.8459],[94.85,15.8791],[94.8385,15.938],[94.822,15.9345],[94.8283,15.9601],[94.8644,16.0021],[94.9146,16.0001],[94.9216,16.0335],[94.9051,16.074],[94.9343,16.0873],[94.9579,16.1334],[95.0236,16.136],[95.0222,16.1597],[95.046,16.1771],[95.0567,16.2034],[95.0549,16.2251],[95.0468,16.2397],[95.0705,16.247],[95.1009,16.3004],[95.0714,16.2745],[95.066,16.2483],[95.0415,16.2432],[95.047,16.1931],[95.0143,16.1628],[95.0157,16.143],[94.9563,16.1411],[94.9299,16.0936],[94.9024,16.0823],[94.9153,16.0289],[94.8912,16.006],[94.8775,16.0137],[94.876,16.0898],[94.8584,16.1105],[94.8734,16.1573],[94.9017,16.1906],[94.9585,16.1969],[95.0198,16.2555],[95.039,16.307],[95.0648,16.3113],[95.0508,16.3129],[95.0498,16.3336],[95.0167,16.2672],[94.9566,16.2141],[94.8728,16.1874],[94.8385,16.1096],[94.8499,16.0728],[94.7995,15.9913],[94.7999,15.9683],[94.7178,15.849],[94.6851,15.8371],[94.6427,15.8538],[94.6003,15.9197],[94.6694,15.9555],[94.7245,16.007],[94.7377,16.0659],[94.7846,16.0961],[94.7633,16.1246],[94.788,16.1318],[94.8057,16.1978],[94.84,16.2137],[94.8519,16.2428],[94.7986,16.2003],[94.7793,16.1479],[94.7551,16.131],[94.7524,16.095],[94.7231,16.0722],[94.6812,15.9951],[94.5752,15.9299],[94.5498,15.9484],[94.5488,15.9653],[94.5611,15.9568],[94.5822,16.0002],[94.6174,16.0193],[94.6846,16.1147],[94.681,16.2032],[94.7202,16.2026],[94.7305,16.2248],[94.7585,16.2353],[94.7395,16.2574],[94.7579,16.2812],[94.7337,16.2581],[94.7495,16.2374],[94.726,16.2303],[94.7196,16.2093],[94.6672,16.2251],[94.6649,16.2486],[94.6985,16.2454],[94.7086,16.2545],[94.7058,16.2669],[94.6996,16.2495],[94.6627,16.2565],[94.6989,16.3555],[94.7383,16.3545],[94.7525,16.3841],[94.7932,16.3541],[94.8136,16.3559],[94.8254,16.37],[94.7901,16.3612],[94.756,16.3907],[94.7361,16.361],[94.7117,16.3754],[94.7447,16.4037],[94.7495,16.4195],[94.7574,16.4103],[94.7683,16.4086],[94.7838,16.4272],[94.761,16.4136],[94.7475,16.4264],[94.7124,16.3943],[94.6962,16.4839],[94.7358,16.5109],[94.7465,16.5692],[94.7874,16.5767],[94.8004,16.5905],[94.7469,16.5772],[94.7283,16.5147],[94.6872,16.4943],[94.6784,16.5168],[94.7013,16.5519],[94.7077,16.609],[94.7422,16.6326],[94.7216,16.6862],[94.7451,16.697],[94.744,16.7259],[94.731,16.7346],[94.7359,16.6997],[94.7177,16.692],[94.7097,16.6546],[94.7317,16.6274],[94.678,16.6441],[94.6993,16.6779],[94.6878,16.7404],[94.6929,16.6747],[94.6749,16.6932],[94.6824,16.672],[94.6688,16.6524],[94.6513,16.6718],[94.6588,16.6542],[94.6755,16.6473],[94.6584,16.6267],[94.6914,16.639],[94.7013,16.624],[94.6935,16.5577],[94.6644,16.5186],[94.6861,16.4184],[94.6563,16.3444],[94.623,16.3385],[94.6381,16.3862],[94.6024,16.3349],[94.6018,16.2838],[94.5664,16.2585],[94.5315,16.2901],[94.5463,16.3091],[94.5244,16.2969],[94.5101,16.2772],[94.5207,16.2142],[94.5103,16.1785],[94.4344,16.0706],[94.4089,16.0538],[94.3669,16.054],[94.3439,16.0176],[94.2814,15.9994],[94.264,15.9633],[94.2416,15.9559],[94.1975,16.036],[94.2288,16.2533],[94.2434,16.2575],[94.231,16.3224],[94.2645,16.3974],[94.277,16.4925],[94.2609,16.5293],[94.2892,16.539],[94.2901,16.5187],[94.3168,16.5207],[94.3508,16.5731],[94.3216,16.5978],[94.3512,16.6208],[94.3681,16.615],[94.3564,16.6911],[94.3758,16.757],[94.4043,16.7913],[94.379,16.8733],[94.3884,16.9067],[94.4125,16.89],[94.444,16.9312],[94.4846,16.9439],[94.4782,16.9576],[94.4625,16.9417],[94.443,16.9479],[94.458,16.9759],[94.4543,17.0641],[94.4896,17.1169],[94.4529,17.1444],[94.4445,17.1783],[94.4635,17.1887],[94.4995,17.1567],[94.52,17.1672],[94.5363,17.1869],[94.5011,17.217],[94.5069,17.2986],[94.5272,17.2768],[94.5464,17.2902],[94.5411,17.319],[94.5813,17.2886],[94.591,17.2985],[94.5704,17.3203],[94.5656,17.4974],[94.5416,17.5488],[94.5632,17.5931],[94.5907,17.5499],[94.6094,17.5364],[94.6121,17.5464],[94.5769,17.5914],[94.5879,17.6233],[94.5696,17.6452],[94.5584,17.6365],[94.5422,17.6791],[94.5445,17.7354],[94.4888,17.785],[94.4844,17.8943],[94.4372,17.9941],[94.4787,18.0074],[94.486,18.0481],[94.4475,18.1687],[94.4201,18.1925],[94.4266,18.2201],[94.4065,18.2466],[94.3373,18.2416],[94.3239,18.2557],[94.3275,18.3017],[94.393,18.2852],[94.4077,18.3116],[94.4023,18.3463],[94.3822,18.3655],[94.3391,18.3633],[94.3223,18.4362],[94.2493,18.5239],[94.2624,18.536],[94.2472,18.597],[94.2583,18.6072],[94.2388,18.6489],[94.1409,18.7356],[94.1735,18.7139],[94.1783,18.731],[94.2184,18.718],[94.2796,18.7365],[94.2528,18.7342],[94.2485,18.7553],[94.239,18.7348],[94.2161,18.7314],[94.2063,18.7428],[94.2241,18.7815],[94.2034,18.7528],[94.1989,18.794],[94.1829,18.7797],[94.1501,18.8085],[94.1461,18.823],[94.1763,18.8349],[94.145,18.8381],[94.1511,18.8776],[94.1693,18.8902],[94.1467,18.8848],[94.1245,18.8557],[94.1284,18.8786],[94.052,18.8454],[94.0311,18.8604],[94.0454,18.8851],[94.074,18.8677],[94.0864,18.8761],[94.1054,18.8996],[94.1353,18.8916],[94.1087,18.9292],[94.113,18.9662],[94.0844,18.8779],[94.0309,18.8983],[94.0552,18.9355],[94.0364,18.9912],[94.063,19.0349],[94.0524,19.0515],[94.102,19.0765],[94.0897,19.0848],[94.0969,19.0985],[94.1254,19.086],[94.1109,19.1088],[94.1466,19.1188],[94.1154,19.1201],[94.0545,19.0754],[94.0267,19.0802],[94.0417,19.1101],[94.1409,19.1571],[94.1357,19.1796],[94.1285,19.1553],[94.1001,19.1531],[94.093,19.1796],[94.0888,19.1423],[94.0648,19.1263],[94.0735,19.1656],[94.0626,19.1882],[94.057,19.1258],[94.0335,19.1271],[94.0499,19.2232],[94.0711,19.234],[94.0484,19.2434],[94.0423,19.3057],[94.0747,19.3794],[94.0323,19.3315],[94.0359,19.2209],[94.0191,19.183],[94.0027,19.1855],[93.9904,19.2205],[94.0028,19.1527],[93.9649,19.1401],[93.9416,19.1608],[93.9425,19.1983],[93.9093,19.1998],[93.9679,19.1234],[93.9534,19.0883],[93.9547,19.018],[93.9859,18.9633],[93.933,18.8473],[93.8996,18.8885],[93.7725,18.9666],[93.7444,18.9692],[93.7188,19.006],[93.6764,19.0073],[93.6664,19.0675],[93.6911,19.0858],[93.6974,19.1145],[93.7476,19.1212],[93.6942,19.1196],[93.686,19.0897],[93.6614,19.0772],[93.6415,19.1348],[93.599,19.1516],[93.5696,19.226],[93.4722,19.3658],[93.4818,19.4055],[93.5135,19.4341],[93.5482,19.4341],[93.5637,19.4046],[93.6048,19.4142],[93.6374,19.3488],[93.6172,19.3482],[93.6,19.3229],[93.6241,19.3415],[93.6672,19.3027],[93.642,19.2415],[93.6444,19.2239],[93.6647,19.2882],[93.6876,19.301],[93.7219,19.2921],[93.6948,19.2817],[93.7263,19.2762],[93.7212,19.2441],[93.74,19.2566],[93.808,19.2263],[93.8732,19.2466],[93.9345,19.303],[93.9564,19.3055],[93.947,19.3309],[93.9722,19.3514],[93.9815,19.3847],[94.0113,19.3815],[93.9835,19.4056],[93.9677,19.3601],[93.8923,19.2916],[93.8818,19.3078],[93.9183,19.3327],[93.9219,19.3769],[93.9116,19.336],[93.884,19.3196],[93.8887,19.3541],[93.8595,19.3881],[93.8824,19.3528],[93.8688,19.3064],[93.7748,19.3011],[93.739,19.3436],[93.7469,19.3542],[93.7747,19.3401],[93.7802,19.354],[93.7324,19.3565],[93.7318,19.3833],[93.7123,19.3988],[93.7375,19.4116],[93.6507,19.4463],[93.6372,19.4892],[93.6545,19.4912],[93.6467,19.512],[93.6855,19.5656],[93.744,19.5447],[93.7685,19.4854],[93.788,19.5028],[93.8194,19.4641],[93.8217,19.4777],[93.8567,19.4843],[93.859,19.4401],[93.8622,19.4642],[93.8812,19.4726],[93.9766,19.4188],[93.9971,19.4526],[93.9789,19.4633],[93.9522,19.448],[93.905,19.4669],[93.951,19.515],[93.9379,19.5643],[93.9386,19.5078],[93.9005,19.489],[93.7773,19.5882],[93.8159,19.605],[93.793,19.6141],[93.7633,19.5983],[93.7227,19.6246],[93.7371,19.6486],[93.7934,19.6589],[93.7878,19.6809],[93.8197,19.7125],[93.8061,19.7391],[93.7967,19.6995],[93.729,19.6709],[93.7057,19.7037],[93.7205,19.748],[93.7907,19.7671],[93.7976,19.8322],[93.7856,19.8591],[93.7991,19.8685],[93.8013,19.8919],[93.7932,19.9162],[93.7924,19.8721],[93.7362,19.8856],[93.7147,19.9088],[93.7455,19.9165],[93.71,19.9346],[93.7074,19.9675],[93.7018,19.9143],[93.6258,19.9185],[93.5507,19.889],[93.5432,19.9061],[93.5739,19.9182],[93.5873,19.9373],[93.5679,19.921],[93.5423,19.9232],[93.5447,19.9368],[93.5155,19.924],[93.5143,19.9482],[93.5365,19.9557],[93.5063,19.9734],[93.54,19.9912],[93.483,19.9899],[93.4747,20.0333],[93.4585,20.0532],[93.471,20.0642],[93.4548,20.0545],[93.4756,20.0005],[93.4661,19.9825],[93.4391,19.9917],[93.4564,19.9495],[93.4148,19.9719],[93.3806,20.0706],[93.4175,20.0801],[93.4138,20.1118],[93.4334,20.1056],[93.4112,20.1803],[93.3671,20.2681],[93.3396,20.2805],[93.3246,20.3286],[93.2953,20.3332],[93.3306,20.3947],[93.3269,20.4035],[93.2806,20.3484],[93.2792,20.327],[93.2388,20.3042],[93.2305,20.2747],[93.2471,20.2461],[93.2121,20.2377],[93.1827,20.197],[93.1153,20.1872],[93.225,20.2961],[93.2131,20.3364],[93.2517,20.425],[93.2253,20.3918],[93.1974,20.3863],[93.2238,20.3811],[93.2032,20.3228],[93.1255,20.3259],[93.1321,20.3694],[93.1569,20.3592],[93.1748,20.374],[93.1562,20.3657],[93.1294,20.3824],[93.1705,20.3949],[93.1738,20.4039],[93.1644,20.422],[93.1678,20.4001],[93.1478,20.4044],[93.1188,20.3783],[93.0911,20.3829],[93.0886,20.4016],[93.1166,20.4264],[93.107,20.5041],[93.087,20.5182],[93.1049,20.532],[93.0906,20.5314],[93.0866,20.5753],[93.0702,20.602],[93.0514,20.5965],[93.0244,20.6171],[93.026,20.6449],[93.0054,20.6396],[93.0161,20.6144],[93.0757,20.5791],[93.0814,20.5459],[93.0592,20.4783],[93.0262,20.4274],[93.0179,20.4564],[93.0431,20.4637],[93.0413,20.4968],[93.0636,20.5234],[93.0391,20.5411],[93.0553,20.5192],[93.0184,20.4764],[93.0343,20.4854],[93.0386,20.4686],[93.0129,20.4594],[93.0243,20.3875],[93.013,20.2965],[92.9631,20.2258],[92.945,20.2675],[92.9154,20.2428],[92.9159,20.2134],[92.8868,20.211],[92.9202,20.1816],[92.8976,20.1102],[92.8503,20.125],[92.7651,20.2015],[92.7877,20.2402],[92.7998,20.2067],[92.8298,20.1808],[92.8457,20.182],[92.7984,20.2149],[92.7983,20.2576],[92.9443,20.314],[92.8969,20.3084],[92.8796,20.3468],[92.8675,20.3547],[92.8807,20.3354],[92.8682,20.3347],[92.8391,20.3821],[92.9106,20.3716],[92.9318,20.3862],[92.9419,20.3523],[92.9507,20.3751],[92.9127,20.4119],[92.9324,20.4242],[92.9316,20.4347],[92.8984,20.4823],[92.9006,20.4573],[92.9285,20.4301],[92.9062,20.4191],[92.9093,20.3777],[92.8878,20.4218],[92.8863,20.4037],[92.8575,20.4196],[92.8636,20.405],[92.8511,20.3989],[92.8309,20.4171],[92.8167,20.4453],[92.834,20.4408],[92.8358,20.4683],[92.8488,20.4593],[92.8275,20.4968],[92.7919,20.5096],[92.7655,20.474],[92.7511,20.4806],[92.7321,20.5676],[92.7486,20.5782],[92.7505,20.5934],[92.7268,20.617],[92.7482,20.5887],[92.7308,20.5794],[92.6833,20.6292],[92.6439,20.6924],[92.647,20.727],[92.5834,20.7194],[92.5911,20.7316],[92.57,20.7811],[92.5993,20.7953],[92.6027,20.806],[92.5647,20.7866],[92.5476,20.8494],[92.5445,20.8128],[92.5717,20.7536],[92.5481,20.764],[92.5458,20.74],[92.5995,20.6787],[92.6401,20.6878],[92.6964,20.5806],[92.7294,20.5491],[92.7193,20.4711],[92.7477,20.4192],[92.7299,20.2967],[92.747,20.2558],[92.7222,20.2657],[92.6328,20.4414],[92.5341,20.5327],[92.5147,20.5968],[92.4601,20.6475],[92.4679,20.658],[92.3785,20.6934],[92.3878,20.7054],[92.3343,20.8367],[92.362,20.862],[92.3324,20.8525],[92.3134,20.8898],[92.3611,20.9397],[92.3499,20.9846],[92.3299,20.998],[92.297,20.9872],[92.2911,21.0044],[92.293,20.9778],[92.2779,20.9711],[92.2686,21.0165],[92.2891,21.0219],[92.2657,21.0396],[92.2839,21.0384],[92.3122,21.0703],[92.2734,21.0458],[92.231,21.1017],[92.225,21.1358],[92.196,21.1549],[92.1976,21.1197],[92.2544,21.0631],[92.2606,20.9378],[92.3121,20.8494],[92.3409,20.7534],[92.3306,20.7429],[92.3039,20.7532],[92.2632,20.8512],[92.2119,20.9248],[92.1843,21.0146],[92.0523,21.1652],[92.0492,21.2682],[92.0302,21.3366],[91.9544,21.447],[91.9976,21.5046],[92.0224,21.4868],[91.9953,21.5584],[92.0389,21.6475],[92.0395,21.6758],[92.025,21.6824],[92.0352,21.7003],[92.0175,21.7161],[92.0183,21.6659],[91.9832,21.6551],[91.9827,21.7025],[91.9654,21.6788],[91.9452,21.7368],[91.9528,21.7503],[91.9731,21.7395],[91.9937,21.7668],[91.9725,21.7474],[91.9558,21.7526],[91.954,21.774],[91.9706,21.7865],[91.9429,21.8044],[91.92,21.7787],[91.8907,21.778],[91.9198,21.847],[91.9124,21.9271],[91.9274,21.9346],[91.8934,21.9718],[91.8554,22.1263],[91.8488,22.1348],[91.8378,22.1162],[91.8116,22.1878],[91.8337,22.2113],[91.8421,22.2589],[91.8144,22.3042],[91.8677,22.3233],[91.9013,22.4012],[91.9397,22.4163],[92.0022,22.4047],[92.0224,22.4171],[92.0369,22.4469],[92.0804,22.4368],[92.1339,22.4559],[92.1442,22.47],[92.0892,22.4446],[92.0331,22.4505],[92.0015,22.412],[91.9541,22.421],[91.8982,22.4109],[91.8574,22.3311],[91.7959,22.2934],[91.7967,22.2755],[91.8291,22.2551],[91.7979,22.2196],[91.7795,22.2396],[91.7479,22.3992],[91.7,22.4842],[91.6276,22.5716],[91.5931,22.6421],[91.5289,22.7038],[91.4587,22.7449],[91.4851,22.7611],[91.4841,22.7692],[91.4695,22.7789],[91.4777,22.763],[91.4571,22.7598],[91.438,22.7739],[91.4409,22.7973],[91.4742,22.8258],[91.4352,22.8083],[91.4703,22.8388],[91.4836,22.8738],[91.4565,22.8986],[91.4913,22.9015],[91.461,22.9078],[91.4424,22.8968],[91.4412,22.8834],[91.4666,22.8742],[91.4209,22.81],[91.4076,22.7608],[91.3307,22.8314],[91.3504,22.8501],[91.3424,22.8833],[91.3158,22.839],[91.3518,22.7903],[91.345,22.7758],[91.296,22.8102],[91.1895,22.7974],[91.1195,22.8098],[91.1102,22.8273],[91.0952,22.8035],[91.0265,22.7999],[90.9416,22.8551],[90.8253,22.8642],[90.7667,22.9411],[90.7539,22.9322],[90.7921,22.905],[90.797,22.8655],[90.7806,22.8587],[90.7369,22.8836],[90.6893,22.9787],[90.6266,23.0007],[90.5662,23.1069],[90.5921,23.1688],[90.6525,23.2426],[90.6389,23.3166],[90.6753,23.3166],[90.6743,23.3395],[90.6979,23.3459],[90.6795,23.3632],[90.695,23.3777],[90.6734,23.3643],[90.6614,23.3372],[90.6734,23.3211],[90.6038,23.3331],[90.5795,23.3953],[90.6006,23.4256],[90.5853,23.4661],[90.6219,23.4892],[90.7009,23.4882],[90.7174,23.5424],[90.7446,23.5445],[90.7246,23.5533],[90.7084,23.5387],[90.7055,23.5621],[90.7396,23.6221],[90.7651,23.6302],[90.7412,23.6632],[90.758,23.7209],[90.7424,23.6938],[90.7407,23.7238],[90.7311,23.7103],[90.7153,23.7414],[90.6818,23.6867],[90.6441,23.6909],[90.6307,23.6365],[90.5636,23.5935],[90.5536,23.5717],[90.5147,23.5814],[90.5049,23.6034],[90.4843,23.5865],[90.4537,23.6151],[90.4701,23.6316],[90.4386,23.6735],[90.3689,23.7187],[90.384,23.7026],[90.366,23.7033],[90.3447,23.7391],[90.3179,23.7348],[90.3119,23.7651],[90.2554,23.7294],[90.2572,23.7754],[90.2306,23.8875],[90.2388,23.8266],[90.2032,23.8413],[90.1543,23.828],[90.1128,23.8738],[90.1103,23.8573],[90.0548,23.8207],[90.046,23.8296],[90.0629,23.8764],[90.0457,23.8897],[90.026,23.8818],[90.0228,23.9071],[89.9531,23.9623],[89.9518,23.9857],[89.933,23.9851],[89.9496,23.9615],[89.9381,23.9549],[90.0186,23.8947],[90.0127,23.8784],[90.0538,23.8747],[90.0409,23.8277],[90.0475,23.8169],[90.0905,23.8299],[90.1248,23.8071],[90.1818,23.8021],[90.2059,23.8158],[90.2207,23.8002],[90.2414,23.8151],[90.2061,23.7517],[90.2185,23.7236],[90.2541,23.72],[90.2747,23.6864],[90.2539,23.7084],[90.2206,23.7082],[90.1825,23.7401],[90.1918,23.7194],[90.1681,23.7215],[90.1475,23.7108],[90.1235,23.7365],[90.0698,23.7579],[90.023,23.7636],[90.0241,23.7979],[90.0022,23.8161],[90.0193,23.7628],[90.1205,23.7334],[90.1451,23.7046],[90.1722,23.7165],[90.2211,23.703],[90.2483,23.7073],[90.2761,23.6547],[90.2919,23.659],[90.3975,23.6023],[90.3994,23.5775],[90.38,23.5673],[90.41,23.5802],[90.4486,23.5418],[90.504,23.5719],[90.5372,23.5618],[90.5701,23.4823],[90.537,23.482],[90.5543,23.4281],[90.5271,23.3907],[90.4863,23.4206],[90.4209,23.416],[90.2819,23.4471],[90.1575,23.5302],[90.1084,23.6143],[89.9669,23.6604],[89.9208,23.7195],[89.8549,23.7507],[89.7914,23.8079],[89.7749,23.899],[89.768,23.8875],[89.7045,23.956],[89.7271,23.9754],[89.7215,23.9999],[89.7142,23.9698],[89.6986,23.9645],[89.7055,23.9987],[89.6717,24.0012],[89.6556,23.934],[89.6994,23.8776],[89.7522,23.8654],[89.7719,23.8366],[89.7574,23.8477],[89.7233,23.8346],[89.6825,23.8639],[89.6828,23.8495],[89.7174,23.8311],[89.6269,23.8456],[89.5498,23.8241],[89.4497,23.8706],[89.3922,23.9399],[89.3282,23.9489],[89.2812,23.9874],[89.3156,23.9473],[89.2898,23.9463],[89.2363,23.9838],[89.1851,23.9866],[89.1608,24.0058],[89.062,23.9888],[89.1229,23.9201],[89.126,23.9543],[89.1658,23.9263],[89.2308,23.921],[89.3005,23.8704],[89.4091,23.8972],[89.4459,23.8246],[89.5025,23.7776],[89.5358,23.7952],[89.5966,23.7975],[89.6398,23.7767],[89.7122,23.7743],[89.8616,23.6574],[89.9469,23.6368],[90.0257,23.5559],[90.0181,23.5824],[90.0821,23.5733],[90.1264,23.5446],[90.1588,23.4856],[90.1562,23.428],[90.2071,23.3348],[90.1684,23.3476],[90.1638,23.3638],[90.1866,23.3599],[90.1614,23.368],[90.1684,23.3354],[90.125,23.3055],[90.1203,23.3352],[90.1446,23.3643],[90.1449,23.3779],[90.1267,23.3505],[90.0998,23.3596],[90.1209,23.3472],[90.1142,23.3259],[90.1195,23.306],[90.0939,23.3014],[90.0855,23.2752],[90.123,23.27],[90.1268,23.2424],[90.2019,23.2261],[90.1984,23.2094],[90.1668,23.2018],[90.1744,23.1684],[90.2213,23.1822],[90.2484,23.1625],[90.2337,23.1423],[90.2416,23.1261],[90.3157,23.1044],[90.3175,23.0681],[90.2677,23.0426],[90.2728,23.0252],[90.3101,23.0183],[90.3208,22.9871],[90.2739,22.9683],[90.3545,22.9193],[90.3487,22.8879],[90.3183,22.8619],[90.3641,22.7893],[90.3684,22.7364],[90.4201,22.7321],[90.4175,22.714],[90.396,22.7289],[90.3834,22.7049],[90.4002,22.7233],[90.4204,22.7086],[90.4295,22.7322],[90.4179,22.7456],[90.3775,22.7402],[90.3764,22.7528],[90.4243,22.7652],[90.4828,22.7127],[90.4768,22.6561],[90.4981,22.6715],[90.5193,22.6313],[90.5048,22.586],[90.5234,22.5967],[90.5795,22.5268],[90.6131,22.3376],[90.5923,22.2586],[90.5637,22.2441],[90.5262,22.1864],[90.5046,22.1844],[90.5039,22.1614],[90.4383,22.0669],[90.4217,22.1092],[90.4417,22.1527],[90.4267,22.1512],[90.4184,22.0897],[90.3886,22.0898],[90.3839,22.1122],[90.4058,22.1442],[90.4029,22.1674],[90.4258,22.1787],[90.3997,22.22],[90.4167,22.2617],[90.4037,22.2844],[90.4191,22.2895],[90.3788,22.293],[90.4151,22.3386],[90.3643,22.2954],[90.4081,22.2679],[90.395,22.2041],[90.4177,22.1832],[90.3983,22.1719],[90.3965,22.1447],[90.3812,22.1367],[90.3408,22.162],[90.3877,22.196],[90.388,22.2108],[90.3568,22.1796],[90.3435,22.1957],[90.3497,22.1787],[90.334,22.1623],[90.3783,22.1311],[90.3752,22.1055],[90.3318,22.1085],[90.3266,22.0884],[90.2617,22.041],[90.2751,22.0357],[90.278,21.9953],[90.2572,21.956],[90.2111,21.9824],[90.214,22.002],[90.1956,21.9792],[90.2323,21.9679],[90.218,21.9505],[90.2686,21.946],[90.241,21.9017],[90.2611,21.8838],[90.2561,21.8674],[90.2241,21.8543],[90.2042,21.8874],[90.2396,21.9347],[90.1967,21.8919],[90.2208,21.8523],[90.263,21.8586],[90.2488,21.8381],[90.2164,21.8353],[90.2601,21.8324],[90.1737,21.7887],[90.1108,21.799],[90.0817,21.8342],[90.0991,21.8516],[90.1222,21.8484],[90.1013,21.8537],[90.1017,21.8737],[90.1361,21.8902],[90.1625,21.8731],[90.1532,21.8596],[90.1672,21.8636],[90.1521,21.8964],[90.1886,21.9227],[90.1548,21.9088],[90.1442,21.8906],[90.116,21.8991],[90.1164,21.916],[90.15,21.9227],[90.1377,21.9517],[90.1686,21.9802],[90.1406,21.9702],[90.1279,21.9913],[90.1418,21.9247],[90.1118,21.9223],[90.1084,21.8936],[90.0966,21.8957],[90.0998,21.9391],[90.0731,22.0039],[90.1582,22.1118],[90.213,22.114],[90.2284,22.1642],[90.2539,22.1637],[90.273,22.1789],[90.2772,22.2099],[90.259,22.1723],[90.2289,22.1726],[90.2398,22.1973],[90.22,22.2208],[90.2072,22.3078],[90.228,22.3386],[90.2736,22.3376],[90.2908,22.3515],[90.2968,22.372],[90.2657,22.3668],[90.2816,22.4082],[90.3161,22.4663],[90.3412,22.4588],[90.3628,22.4889],[90.3405,22.4664],[90.3119,22.4712],[90.2587,22.3756],[90.2551,22.3447],[90.2232,22.3427],[90.2031,22.3166],[90.2095,22.2151],[90.2298,22.1917],[90.2017,22.1217],[90.1588,22.1233],[90.0911,22.0598],[90.0527,21.971],[90.0307,21.9969],[90.0278,21.9783],[90.0031,21.9851],[89.9927,22.0353],[90.0301,22.0613],[90.037,22.1279],[90.0708,22.1531],[90.1401,22.1555],[90.0819,22.1581],[90.0257,22.1888],[90.0791,22.2174],[90.1125,22.2894],[90.1019,22.3432],[90.177,22.4226],[90.2021,22.4865],[90.2065,22.5107],[90.1867,22.5273],[90.2029,22.5717],[90.1852,22.6246],[90.2531,22.6214],[90.2843,22.6309],[90.2954,22.6527],[90.2502,22.6281],[90.1805,22.6272],[90.1974,22.5693],[90.1817,22.5257],[90.1995,22.5074],[90.1947,22.4824],[90.1725,22.4559],[90.1706,22.4245],[90.0934,22.3465],[90.1045,22.3006],[90.0717,22.2222],[90.021,22.186],[90.0262,22.1703],[90.0631,22.1609],[90.0176,22.1253],[90.0201,22.0696],[89.9798,22.0376],[89.9895,21.9907],[89.958,21.9789],[89.9095,22.0721],[89.9174,22.1364],[89.8785,22.2662],[89.9244,22.38],[89.9825,22.4356],[89.9994,22.4864],[90.0253,22.4905],[90.0297,22.5646],[90.0657,22.6095],[90.0563,22.6225],[90.0254,22.6002],[90.0334,22.6501],[90.0057,22.68],[90.0278,22.6508],[90.0132,22.5992],[90.0307,22.5811],[90.0183,22.4952],[89.9547,22.5058],[89.9855,22.4868],[89.9866,22.4645],[89.9078,22.387],[89.886,22.3999],[89.8817,22.4295],[89.8785,22.4008],[89.8982,22.3673],[89.846,22.2606],[89.8906,22.1227],[89.8536,22.0684],[89.8187,22.0659],[89.857,22.0425],[89.8854,21.9064],[89.8617,21.8794],[89.844,21.8853],[89.8429,21.8578],[89.7723,21.8307],[89.7907,21.8785],[89.7531,21.8562],[89.7339,21.8911],[89.749,21.8344],[89.7157,21.8336],[89.7041,21.8497],[89.6776,21.8369],[89.6581,21.8903],[89.6795,21.9051],[89.6551,21.9136],[89.6351,21.8637],[89.712,21.7854],[89.7131,21.7681],[89.6594,21.7511],[89.6544,21.7653],[89.6101,21.7564],[89.6135,21.8117],[89.5629,21.8603],[89.5901,21.9401],[89.5643,21.9628],[89.5594,21.9924],[89.5276,21.9958],[89.5145,21.9885],[89.5251,21.9558],[89.5135,21.9011],[89.4937,21.9067],[89.4633,21.8539],[89.4337,21.8481],[89.4625,21.8463],[89.4712,21.8206],[89.4585,21.812],[89.4842,21.7855],[89.4191,21.7108],[89.3842,21.7123],[89.3556,21.8018],[89.387,21.9036],[89.3679,21.9052],[89.3208,21.8654],[89.3074,21.8211],[89.2868,21.8065],[89.2918,21.756],[89.2305,21.7684],[89.2179,21.7574],[89.1973,21.8046],[89.163,21.7898],[89.1063,21.8122],[89.1109,21.8628],[89.0872,21.914],[89.0958,21.9368],[89.0835,21.9385],[89.0863,21.9745],[89.0489,22.0864],[89.0508,22.1752],[88.9674,22.3698],[88.9544,22.514],[88.9267,22.5594],[88.9545,22.5887],[88.9601,22.6283],[88.8786,22.8462],[88.8608,23.1789],[88.8287,23.2316],[88.7308,23.2548],[88.703,23.2975],[88.7106,23.3146],[88.728,23.3049],[88.732,23.3228],[88.7492,23.3158],[88.7364,23.3506],[88.769,23.3724],[88.7618,23.4266],[88.7174,23.5033],[88.6625,23.5536],[88.6526,23.6049],[88.5961,23.6022],[88.6045,23.6371],[88.5704,23.6464],[88.5859,23.6748],[88.5912,23.7607],[88.5747,23.7859],[88.6135,23.8069],[88.5958,23.8598],[88.62,23.8747],[88.665,23.8643],[88.6873,23.9053],[88.6793,24.0057],[88.6382,24.1506],[88.573,24.2688],[88.4632,24.359],[88.394,24.3858],[88.3419,24.4381],[88.2068,24.4735],[88.1207,24.5218],[88.0873,24.6185],[88.0284,24.688],[88.0717,24.7422],[88.072,24.771],[88.1052,24.7844],[88.1125,24.8173],[88.1242,24.8267],[88.1329,24.8134],[88.1466,24.8484],[88.168,24.8591],[88.1407,24.9336],[88.2269,24.9591],[88.2626,24.9192],[88.2567,24.8839],[88.273,24.8979],[88.2998,24.8772],[88.3395,24.9395],[88.3911,24.9597],[88.4447,25.0382],[88.4317,25.0545],[88.4467,25.0784],[88.4366,25.1273],[88.4591,25.1491],[88.4411,25.2002],[88.4949,25.2137],[88.566,25.1766],[88.7146,25.2378],[88.7538,25.3077],[88.7343,25.379],[88.6096,25.5129],[88.5355,25.5135],[88.5314,25.5422],[88.4465,25.6008],[88.4385,25.6448],[88.3659,25.6742],[88.2856,25.7377],[88.2457,25.8112],[88.2051,25.7885],[88.1864,25.8036],[88.1441,25.7801],[88.1066,25.8209],[88.1125,25.8667],[88.0895,25.877],[88.0864,25.9313],[88.1211,25.9506],[88.1093,25.9624],[88.1282,25.9948],[88.1853,26.026],[88.193,26.0448],[88.0535,26.2598],[88.0228,26.359],[88.1273,26.5452],[88.1539,26.677],[88.1568,26.7987],[88.1158,26.9789],[88.0029,27.1053],[87.987,27.1558],[88.0812,27.3741],[88.0379,27.5167],[88.1067,27.6237],[88.1507,27.7822],[88.1888,27.8365],[88.3433,27.8817],[88.4864,27.9026],[88.6045,27.8877],[88.6925,27.8488],[88.7637,27.7791],[88.7947,27.7029],[88.7929,27.6262],[88.7423,27.4995],[88.7545,27.3828],[88.8117,27.3303],[88.8678,27.2373],[89.2022,27.1422],[89.6715,27.0978],[91.4912,27.0812],[91.8356,27.0411],[91.9567,27.0439],[92.0172,27.0772],[92.0308,27.1664],[92.0516,27.1823],[92.0793,27.2544],[92.1238,27.2829],[92.0102,27.4766],[91.9492,27.4443],[91.896,27.4469],[91.7855,27.4183],[91.7722,27.4264],[91.776,27.4509],[91.6655,27.5093],[91.6151,27.5945],[91.6018,27.653],[91.6524,27.7019],[91.6755,27.7556],[91.8257,27.7671],[91.8949,27.7208],[91.9217,27.7383],[91.9907,27.7243],[92.0386,27.7424],[92.0978,27.7975],[92.2626,27.8736],[92.2828,27.8706],[92.3237,27.7973],[92.3467,27.8069],[92.3683,27.8476],[92.3939,27.8038],[92.4233,27.8533],[92.4554,27.8258],[92.5501,27.8584],[92.5896,27.9049],[92.6311,27.9064],[92.7212,27.9639],[92.7193,28.0323],[92.6693,28.065],[92.6921,28.1235],[92.7649,28.1697],[92.871,28.1868],[92.9545,28.2613],[93.0154,28.2621],[93.0349,28.3298],[93.0691,28.3121],[93.1056,28.357],[93.1974,28.3473],[93.227,28.3613],[93.2454,28.4539],[93.2223,28.5442],[93.3085,28.6431],[93.3449,28.6608],[93.382,28.6494],[93.4367,28.6728],[93.5578,28.6855],[93.6722,28.6741],[93.6949,28.7035],[93.7471,28.6941],[93.834,28.7672],[93.9357,28.769],[93.9526,28.7929],[93.9334,28.8317],[94.0024,28.8407],[94.057,28.8769],[94.0403,28.9784],[94.082,28.9868],[94.1357,28.9551],[94.219,29.0736],[94.2853,29.1362],[94.3617,29.1467],[94.4246,29.2143],[94.4947,29.2311],[94.5462,29.2248],[94.6241,29.2943],[94.7008,29.3077],[94.7539,29.2305],[94.7935,29.2148],[94.8037,29.1675],[94.8764,29.1802],[94.912,29.1588],[94.966,29.1589],[95.0162,29.1284],[95.0066,29.168],[95.0966,29.142],[95.112,29.0925],[95.2131,29.1086],[95.2624,29.0729],[95.2929,29.1373],[95.4064,29.1277],[95.4176,29.1765],[95.4369,29.1919],[95.458,29.1834],[95.4571,29.1421],[95.5031,29.1316],[95.5133,29.1549],[95.5023,29.1878],[95.5747,29.1787],[95.6053,29.1961],[95.5947,29.2251],[95.6061,29.2342],[95.6473,29.2148],[95.6925,29.2266],[95.7098,29.2066],[95.7413,29.2177],[95.7283,29.2414],[95.7464,29.3119],[95.8231,29.3482],[95.8454,29.3177],[95.8755,29.3141],[95.9448,29.3608],[96.0007,29.3679],[96.0518,29.4418],[96.0858,29.4534],[96.1098,29.4459],[96.181,29.3538],[96.1908,29.3044],[96.2472,29.238],[96.2968,29.2373],[96.3688,29.2851],[96.3967,29.2516],[96.3524,29.1768],[96.2566,29.1657],[96.2228,29.1465],[96.2014,29.0954],[96.1248,29.0776],[96.1543,29.0582],[96.1921,28.9906],[96.187,28.9712],[96.1548,28.9529],[96.1723,28.9033],[96.2308,28.9258],[96.3518,29.0362],[96.4446,29.039],[96.5154,29.0752],[96.4824,28.9765],[96.4974,28.9599],[96.5183,28.9651],[96.546,28.8698],[96.6227,28.7797],[96.5918,28.7179],[96.565,28.7058],[96.532,28.7142],[96.5007,28.684],[96.4734,28.6799],[96.4944,28.6451],[96.4881,28.628],[96.4325,28.5817],[96.4108,28.5849],[96.4135,28.5637],[96.3344,28.531],[96.369,28.4808],[96.2724,28.4061],[96.3055,28.4031],[96.3263,28.3809],[96.3732,28.3879],[96.4047,28.3409],[96.4286,28.3485],[96.4369,28.3892],[96.4632,28.4149],[96.5228,28.4179],[96.5923,28.46],[96.6695,28.4525],[96.744,28.4144],[96.7732,28.3628],[96.8465,28.3551],[96.8965,28.3733],[96.9342,28.3378],[97.003,28.3187],[97.0913,28.3687],[97.138,28.3691],[97.1564,28.3369],[97.1848,28.3338],[97.2037,28.3089],[97.2315,28.3094],[97.2487,28.2701],[97.3592,28.2011],[97.3181,28.1079],[97.3229,28.0778],[97.4019,28.0247],[97.4793,28.1012],[97.569,28.1318],[98.0,28.1011],[98.0,14.4823]],[[94.093,19.1796],[94.0929,19.1818],[94.0927,19.1822],[94.093,19.1796]],[[92.3606,20.7829],[92.3628,20.7897],[92.3614,20.7861],[92.3606,20.7829]],[[92.363,20.7901],[92.3897,20.8134],[92.3831,20.826],[92.3656,20.8031],[92.363,20.7901]]]]}}