{"type":"Feature","properties":{"speciesId":962,"category":"LC","source":"IUCN Red List","simplifyTol":0.01,"clippedToSubcontinent":true},"geometry":{"type":"MultiPolygon","coordinates":[[[[97.9994,17.5768],[97.8838,17.7212],[97.827,17.8567],[97.8271,17.9492],[97.8716,18.1755],[97.8611,18.2632],[97.8141,18.3138],[97.6512,18.3878],[97.6251,18.4323],[97.6484,18.4911],[97.7754,18.6434],[97.815,18.7166],[97.8401,18.8325],[97.8936,19.3659],[97.929,19.4535],[98.0,19.5241],[97.9994,17.5768]]],[[[94.4053,26.4561],[94.3788,26.4871],[94.4096,26.5133],[94.436,26.4825],[94.4053,26.4561]]],[[[94.2318,28.4031],[94.0806,28.4327],[93.9565,28.5097],[93.8976,28.6027],[93.9,28.6619],[93.924,28.707],[94.0285,28.7646],[94.2374,28.8128],[94.3405,28.8087],[94.4201,28.7576],[94.498,28.6331],[94.508,28.5739],[94.4951,28.5271],[94.4523,28.4732],[94.3929,28.4314],[94.2318,28.4031]]]]}}