{"type":"Feature","properties":{"speciesId":963,"category":"LC","source":"IUCN Red List","simplifyTol":0.01,"clippedToSubcontinent":true},"geometry":{"type":"MultiPolygon","coordinates":[[[[74.7216,13.2208],[74.7182,13.2215],[74.7197,13.2235],[74.7216,13.2208]]],[[[74.7261,13.2238],[74.7244,13.2246],[74.7253,13.2255],[74.7261,13.2238]]],[[[74.7134,13.2367],[74.711,13.2363],[74.7123,13.2378],[74.7134,13.2367]]],[[[74.6867,13.2604],[74.6851,13.2614],[74.6863,13.2627],[74.6867,13.2604]]],[[[74.6834,13.2647],[74.681,13.2652],[74.6825,13.2664],[74.6834,13.2647]]],[[[74.6964,13.2769],[74.6922,13.277],[74.6943,13.2792],[74.6964,13.2769]]],[[[74.6932,13.2825],[74.6915,13.2812],[74.6919,13.283],[74.6932,13.2825]]],[[[74.6866,13.3263],[74.6851,13.3259],[74.6855,13.3271],[74.6866,13.3263]]],[[[74.6793,13.3395],[74.6773,13.3385],[74.6773,13.34],[74.6793,13.3395]]],[[[74.6737,13.3604],[74.672,13.3602],[74.6723,13.3617],[74.6737,13.3604]]],[[[74.6678,13.3757],[74.665,13.374],[74.6652,13.3758],[74.6678,13.3757]]],[[[74.4766,14.0102],[74.4729,14.0111],[74.4764,14.0124],[74.4766,14.0102]]],[[[74.4834,14.0237],[74.4801,14.025],[74.4832,14.0256],[74.4834,14.0237]]],[[[74.4668,14.0853],[74.4633,14.0854],[74.4651,14.0868],[74.4668,14.0853]]],[[[74.4786,14.0952],[74.4747,14.0933],[74.4751,14.0961],[74.4786,14.0952]]],[[[74.4708,14.1058],[74.4667,14.1078],[74.4689,14.1094],[74.4708,14.1058]]],[[[74.3996,14.3127],[74.3924,14.3097],[74.3923,14.3121],[74.3996,14.3127]]],[[[76.6565,11.1236],[76.7521,10.2186],[76.814,10.1765],[76.9483,10.1636],[77.374,10.1749],[77.4301,10.1521],[77.4134,10.0675],[77.2716,9.8197],[77.2383,9.7344],[77.2571,9.6902],[77.3842,9.6909],[77.41,9.6643],[77.2868,9.3945],[77.272,9.2587],[77.2776,9.1241],[77.3138,8.9458],[77.3602,8.837],[77.4093,8.7835],[77.539,8.7155],[77.5915,8.6367],[77.6922,8.3223],[77.694,8.2577],[77.6682,8.2262],[77.5783,8.2161],[77.4889,8.2369],[77.3404,8.4345],[77.1104,8.5383],[77.052,8.5874],[77.0367,8.6569],[77.0657,8.8316],[77.0648,8.9484],[77.0286,9.1546],[76.982,9.2259],[76.8044,9.3761],[76.7416,9.4638],[76.6433,9.7177],[76.5979,9.9715],[76.5627,10.0615],[76.5227,10.1001],[76.4421,10.1261],[76.3837,10.1647],[76.3057,10.2371],[76.2557,10.3134],[76.1324,10.6596],[75.9624,10.9568],[75.9243,11.111],[75.9028,11.323],[75.827,11.524],[75.7682,11.6137],[75.4074,12.0477],[75.2335,12.2135],[75.0577,12.3481],[75.0296,12.3922],[75.0384,12.4113],[75.0231,12.3995],[75.0061,12.4323],[75.0153,12.4447],[74.9961,12.4475],[74.9673,12.5007],[74.8119,12.8754],[74.7774,13.0932],[74.7691,13.0774],[74.6895,13.3544],[74.6657,13.6378],[74.6392,13.6826],[74.6045,13.8431],[74.617,13.8574],[74.5965,13.8729],[74.5675,13.9452],[74.5448,13.9485],[74.5081,13.9917],[74.4657,14.1827],[74.4414,14.2076],[74.4122,14.2949],[74.3953,14.4189],[74.3764,14.4166],[74.3533,14.513],[74.3298,14.5193],[74.3562,14.591],[74.4352,14.6579],[74.5313,14.6874],[74.6335,14.6779],[74.8026,14.5843],[74.9439,14.4778],[75.197,14.2141],[75.5844,13.6688],[75.6556,13.5077],[75.6961,13.3584],[75.7196,12.8191],[75.7716,12.5963],[75.8423,12.469],[75.9357,12.3509],[76.0285,12.2648],[76.1847,12.1638],[76.2961,12.0319],[76.3877,11.853],[76.4569,11.5985],[76.6156,11.3037],[76.6565,11.1236]]]]}}