{"type":"Feature","properties":{"speciesId":964,"category":"LC","source":"IUCN Red List","simplifyTol":0.01,"clippedToSubcontinent":true},"geometry":{"type":"Polygon","coordinates":[[[75.8262,13.0474],[75.8833,12.9141],[76.0399,12.3772],[76.1879,12.0166],[76.3028,11.8277],[76.4105,11.741],[76.5135,11.599],[76.7627,11.1599],[76.8675,10.8664],[77.032,10.5544],[77.0534,10.4626],[77.0539,10.3271],[76.9903,10.2131],[76.9793,10.1323],[77.0014,9.779],[77.0643,9.7375],[77.214,9.7198],[77.4281,9.7588],[77.5218,9.7277],[77.562,9.6854],[77.5526,9.5642],[77.5118,9.5309],[77.446,9.5166],[77.2017,9.544],[77.0819,9.5209],[77.0453,9.4863],[77.0606,9.2193],[76.9999,8.9565],[77.0284,8.8101],[77.1029,8.6351],[77.2209,8.4822],[77.4758,8.3883],[77.4686,8.2975],[77.4213,8.2453],[77.3649,8.2358],[77.3027,8.247],[77.1437,8.3356],[76.8966,8.5832],[76.8123,8.7422],[76.7748,8.9127],[76.7136,9.4033],[76.5771,9.6856],[76.4892,10.1146],[76.5922,10.7398],[76.5884,10.9],[76.3723,11.2054],[76.1833,11.5895],[75.9523,11.8261],[75.8829,11.9313],[75.8008,12.1666],[75.7179,12.654],[75.6706,12.768],[75.5833,12.8988],[75.4789,12.9912],[75.3289,13.0437],[75.1628,13.0329],[74.9642,12.9668],[74.9155,12.9738],[74.8738,13.0058],[74.8711,13.0357],[74.8935,13.0747],[75.0249,13.2108],[75.1384,13.3023],[75.1621,13.3705],[75.0589,13.6],[74.9321,13.7655],[74.753,13.923],[74.7627,13.9745],[74.82,14.0078],[74.928,14.0126],[75.0406,13.9887],[75.1154,13.9482],[75.1635,13.876],[75.1978,13.7172],[75.2388,13.6133],[75.3664,13.4041],[75.5224,13.25],[75.5899,13.2048],[75.7569,13.1325],[75.8262,13.0474]]]}}