{"type":"Feature","properties":{"speciesId":966,"category":"LC","source":"IUCN Red List","simplifyTol":0.01,"clippedToSubcontinent":true},"geometry":{"type":"MultiPolygon","coordinates":[[[[88.4934,22.8124],[88.4641,22.8418],[88.4937,22.8714],[88.5232,22.8418],[88.4934,22.8124]]],[[[80.4187,29.731],[80.6065,29.4426],[80.7645,29.262],[80.9816,29.0515],[81.213,28.8635],[81.6972,28.5631],[82.3536,28.2425],[82.7113,28.1142],[83.0402,28.0375],[84.3625,27.9275],[84.6845,27.8736],[85.0666,27.7363],[85.963,27.3244],[86.2193,27.2431],[87.6882,27.0533],[88.4643,27.0364],[89.205,26.879],[90.0054,26.7839],[90.9874,26.7549],[91.274,26.7595],[91.7644,26.8375],[91.8797,26.9207],[92.0047,26.9491],[92.0871,26.942],[92.2071,26.8926],[92.7681,26.9742],[92.987,26.98],[93.1649,26.971],[93.2871,26.9393],[93.3718,26.877],[93.4241,26.787],[93.3694,26.7445],[93.1937,26.6977],[92.7503,26.6355],[92.4291,26.5554],[92.1096,26.4203],[91.8447,26.22],[91.7264,26.182],[91.569,26.1606],[91.1192,26.1356],[90.4546,26.1744],[89.2824,26.1908],[88.9985,26.2229],[88.5139,26.3604],[88.3165,26.3654],[88.1459,26.3046],[87.9738,26.1967],[87.7637,25.9482],[87.5747,25.783],[87.4618,25.7309],[87.3423,25.7289],[87.2494,25.7585],[87.1729,25.8127],[86.8632,26.2263],[86.7082,26.367],[86.577,26.443],[86.0912,26.5279],[85.6321,26.649],[85.2492,26.7791],[84.6446,27.031],[83.6055,27.3095],[82.1443,27.8008],[81.8439,27.9231],[81.2294,28.215],[80.7234,28.3835],[80.4842,28.4927],[80.3211,28.5873],[80.1761,28.6957],[80.0773,28.7898],[79.9867,28.9166],[79.9271,28.9502],[79.8253,28.9606],[79.5687,28.9453],[78.8119,28.7744],[78.6044,28.7735],[78.4517,28.8059],[78.258,28.9031],[78.0942,29.0453],[77.9734,29.243],[77.9169,29.4163],[77.9235,29.4726],[77.953,29.5106],[78.1441,29.5763],[78.3495,29.6038],[78.8013,29.6112],[78.9961,29.6294],[79.1876,29.6739],[79.6378,29.8153],[79.8612,29.8544],[80.119,29.8443],[80.2937,29.8005],[80.4187,29.731]]]]}}