{"type":"Feature","properties":{"speciesId":967,"category":"LC","source":"IUCN Red List","simplifyTol":0.01,"clippedToSubcontinent":true},"geometry":{"type":"Polygon","coordinates":[[[92.219,20.9619],[92.0474,21.1766],[92.0496,21.2642],[92.0289,21.3402],[91.9673,21.4245],[92.0632,21.6136],[92.0753,21.6893],[91.9736,21.8946],[91.9588,21.9548],[91.9714,21.9988],[92.0515,22.1045],[92.09,22.2109],[92.1025,22.3451],[92.076,22.4553],[91.9326,22.6252],[91.8481,22.6854],[91.7957,22.6972],[91.7706,22.6117],[91.7692,22.2946],[91.7588,22.267],[91.7359,22.2741],[91.6278,22.4332],[91.5361,22.6558],[91.5271,22.7453],[91.554,22.9544],[91.5348,23.0272],[91.4566,23.0663],[91.2045,23.0776],[91.112,23.1015],[91.0203,23.2045],[90.9714,23.3247],[90.979,23.3497],[91.0053,23.3602],[91.2074,23.3589],[91.2506,23.3978],[91.2555,23.4773],[91.2057,23.7562],[91.2705,24.0231],[91.3178,24.1191],[91.3762,24.193],[91.5869,24.3063],[91.6364,24.3837],[91.635,24.6368],[91.5946,24.8731],[91.612,24.9502],[91.6925,24.9856],[92.1769,25.0121],[92.2727,25.0367],[92.2544,25.0699],[92.1809,25.1236],[92.031,25.1828],[91.9538,25.1747],[91.6054,25.0729],[91.5099,25.0587],[91.4377,25.0726],[91.3011,25.1686],[91.2382,25.183],[91.1716,25.1567],[91.0132,25.0291],[90.9362,24.9916],[90.8394,24.9899],[90.6111,25.0304],[90.5466,25.0202],[90.524,24.9576],[90.5505,24.8308],[90.6016,24.6753],[90.7292,24.447],[90.7436,24.3803],[90.6971,24.3711],[90.4911,24.4345],[90.4262,24.425],[90.3774,24.3665],[90.2698,24.1155],[90.2164,24.0734],[90.0601,23.9961],[90.0266,23.9524],[90.058,23.8895],[90.1823,23.7711],[90.4462,23.6402],[90.5099,23.5919],[90.5186,23.5267],[90.4473,23.4193],[90.3995,23.3965],[90.3333,23.4097],[90.1073,23.5553],[90.0364,23.6492],[89.9064,23.9148],[89.8113,23.9998],[89.7074,24.0139],[89.1912,24.0037],[89.0573,23.9875],[89.054,23.974],[89.0921,23.955],[89.4264,23.8539],[89.668,23.7594],[89.8797,23.6449],[89.9661,23.5793],[90.0105,23.496],[90.0158,23.3507],[89.988,23.1682],[89.9357,23.0616],[89.8772,23.038],[89.7658,23.0799],[89.6651,23.0881],[89.583,23.0763],[89.5192,23.0479],[89.4577,22.9934],[89.4164,22.9297],[89.4274,22.7074],[89.3626,22.5821],[89.3133,22.5356],[89.2468,22.5057],[89.1558,22.4885],[89.0725,22.4926],[89.0277,22.5102],[88.9996,22.5426],[88.9534,22.7031],[88.9527,22.7951],[89.0004,23.0607],[88.9869,23.1261],[88.9348,23.2196],[88.8412,23.3221],[88.7364,23.3778],[88.5817,23.4034],[88.4605,23.3777],[88.3257,23.2878],[88.2866,23.2421],[88.2818,23.2115],[88.3498,23.1755],[88.5997,23.1117],[88.6378,23.0839],[88.6055,23.0591],[88.4306,22.9982],[88.3838,22.9559],[88.3828,22.8836],[88.4605,22.6403],[88.4472,22.5897],[88.3822,22.5038],[88.3227,22.4587],[88.2742,22.4562],[88.2122,22.4976],[88.1246,22.5932],[88.0883,22.6794],[88.0576,22.905],[88.0154,22.9698],[87.958,22.9839],[87.8656,22.978],[87.7049,22.9229],[87.5687,22.8169],[87.5087,22.7035],[87.5043,22.3466],[87.5316,22.0699],[87.5215,21.9959],[87.4932,21.9375],[87.4056,21.8562],[87.2572,21.7682],[87.0322,21.6835],[86.8107,21.569],[86.7564,21.5624],[86.716,21.5871],[86.6703,21.7286],[86.6495,22.07],[86.5758,22.6817],[86.5751,23.0342],[86.6128,23.4608],[86.6644,23.8035],[86.7684,24.3114],[87.1403,25.8734],[87.225,26.4871],[87.3258,26.7677],[87.3864,26.8519],[87.4807,26.9318],[87.9503,27.2124],[88.2908,27.3479],[88.6073,27.4048],[89.1104,27.4229],[89.8271,27.408],[90.378,27.4299],[90.5588,27.4073],[90.9741,27.3059],[91.1781,27.275],[91.9049,27.2416],[92.418,27.182],[92.6893,27.2015],[92.963,27.2757],[93.2655,27.3983],[94.3259,28.0527],[94.5644,28.1758],[94.8181,28.2779],[95.2688,28.417],[95.5086,28.4647],[95.7938,28.4666],[95.9974,28.3964],[96.1133,28.3205],[96.2176,28.2265],[96.2971,28.1287],[96.355,28.0218],[96.3998,27.8865],[96.4199,27.7466],[96.4124,27.6214],[96.3782,27.5175],[96.2516,27.3398],[96.0127,27.1137],[95.8489,27.0174],[95.4653,26.86],[95.3127,26.7812],[95.1863,26.6814],[95.0255,26.4989],[94.8574,26.2606],[94.7042,25.9645],[94.3497,25.1329],[94.3227,25.0355],[94.3174,24.9346],[94.3866,24.5497],[94.506,24.2623],[94.7269,23.9361],[95.3435,23.2312],[95.5843,22.8997],[95.8528,22.4213],[96.0326,22.0569],[96.1667,21.7172],[96.2802,21.3424],[96.3929,20.8407],[96.4985,20.2046],[96.6605,19.0691],[96.716,18.4194],[96.7135,17.9431],[96.6601,17.4205],[96.5675,16.9964],[96.5224,16.8961],[96.4598,16.8184],[96.3875,16.7582],[96.3089,16.7245],[96.2053,16.7083],[96.0894,16.714],[95.9051,16.7753],[95.7388,16.9218],[95.6766,17.0626],[95.6492,17.4173],[95.595,17.6195],[95.4725,17.924],[95.302,18.2417],[95.0625,18.6046],[94.7292,19.0438],[94.2001,19.6988],[93.8413,20.0892],[93.5645,20.337],[93.2918,20.5307],[93.0802,20.6262],[92.5816,20.7722],[92.3837,20.8506],[92.219,20.9619]]]}}