{"type":"Feature","properties":{"speciesId":969,"category":"LC","source":"IUCN Red List","simplifyTol":0.01,"clippedToSubcontinent":true},"geometry":{"type":"MultiPolygon","coordinates":[[[[74.4768,14.0108],[74.4728,14.0107],[74.4763,14.0124],[74.4768,14.0108]]],[[[74.4836,14.0249],[74.4799,14.0239],[74.4815,14.0259],[74.4836,14.0249]]],[[[74.4662,14.0864],[74.4645,14.0834],[74.4634,14.086],[74.4662,14.0864]]],[[[74.4779,14.096],[74.475,14.0929],[74.4746,14.0957],[74.4779,14.096]]],[[[74.4708,14.1059],[74.4667,14.1078],[74.4689,14.1095],[74.4708,14.1059]]],[[[74.3972,14.3137],[74.3964,14.3082],[74.3919,14.3111],[74.3972,14.3137]]],[[[74.2485,14.7015],[74.2461,14.6997],[74.246,14.702],[74.2485,14.7015]]],[[[74.235,14.7102],[74.232,14.7076],[74.2317,14.7098],[74.235,14.7102]]],[[[74.1433,14.7234],[74.1435,14.7199],[74.142,14.7207],[74.1433,14.7234]]],[[[74.1517,14.7394],[74.1494,14.7347],[74.1487,14.7388],[74.1517,14.7394]]],[[[74.1149,14.7549],[74.1045,14.7528],[74.1049,14.7619],[74.1149,14.7549]]],[[[74.0833,14.7936],[74.082,14.7907],[74.0815,14.7938],[74.0833,14.7936]]],[[[74.0567,14.8189],[74.0495,14.8143],[74.0506,14.8179],[74.0567,14.8189]]],[[[74.0975,14.8414],[74.0919,14.8413],[74.0917,14.8454],[74.0975,14.8414]]],[[[74.1004,14.8639],[74.0988,14.8624],[74.0992,14.8645],[74.1004,14.8639]]],[[[74.0912,14.8776],[74.0892,14.8747],[74.0887,14.8772],[74.0912,14.8776]]],[[[73.7605,15.3574],[73.7575,15.3543],[73.7568,15.3572],[73.7605,15.3574]]],[[[73.7748,15.3585],[73.7687,15.3526],[73.7667,15.3558],[73.7748,15.3585]]],[[[73.791,15.3735],[73.7859,15.3764],[73.7904,15.3776],[73.791,15.3735]]],[[[73.4448,15.8907],[73.4442,15.889],[73.4433,15.8897],[73.4448,15.8907]]],[[[73.4541,15.8933],[73.4558,15.8923],[73.4551,15.8914],[73.4541,15.8933]]],[[[73.5395,15.9267],[73.5394,15.9241],[73.5379,15.9248],[73.5395,15.9267]]],[[[73.4573,15.9328],[73.4558,15.9312],[73.4559,15.9337],[73.4573,15.9328]]],[[[73.471,15.9736],[73.4688,15.9731],[73.4701,15.9747],[73.471,15.9736]]],[[[73.4517,15.9897],[73.4501,15.9899],[73.4512,15.9917],[73.4517,15.9897]]],[[[73.4979,15.973],[73.4864,15.981],[73.4829,15.9997],[73.4876,16.0001],[73.4979,15.973]]],[[[74.0444,18.3925],[74.0568,18.3047],[74.0441,18.0989],[74.0522,17.9004],[74.1063,17.3891],[74.1825,16.9525],[74.3935,15.999],[74.4689,15.8127],[74.5777,15.6035],[75.0056,14.959],[75.0614,14.7919],[75.126,14.4742],[75.1644,14.3828],[75.3111,14.1764],[75.6179,13.83],[75.6803,13.7246],[75.689,13.6568],[75.6128,13.5889],[75.1424,13.5816],[74.6655,13.6065],[74.6047,13.8416],[74.617,13.8574],[74.5965,13.8728],[74.5675,13.9452],[74.5447,13.9485],[74.5078,13.9926],[74.4659,14.1823],[74.4407,14.2092],[74.4034,14.3294],[74.3952,14.419],[74.3762,14.417],[74.3515,14.5157],[74.3054,14.5193],[74.2912,14.5934],[74.2635,14.6241],[74.2946,14.64],[74.2743,14.6485],[74.2767,14.6754],[74.2537,14.7068],[74.2633,14.7093],[74.265,14.7197],[74.2217,14.7473],[74.1961,14.7185],[74.1708,14.7485],[74.1476,14.7464],[74.1385,14.7759],[74.1045,14.7835],[74.0914,14.8037],[74.118,14.8041],[74.1251,14.84],[74.1076,14.8454],[74.0928,14.8922],[74.0754,14.9084],[74.0377,14.9167],[74.0487,14.9568],[74.0297,14.9813],[74.0471,14.9859],[73.9852,15.023],[73.9808,15.0479],[73.9501,15.0728],[73.9052,15.0869],[73.946,15.1422],[73.8868,15.3344],[73.865,15.3686],[73.8344,15.3615],[73.7794,15.4082],[73.874,15.398],[73.8895,15.4205],[73.8746,15.4342],[73.8584,15.4258],[73.8456,15.4489],[73.7826,15.4562],[73.8199,15.5017],[73.7579,15.493],[73.731,15.618],[73.6866,15.7177],[73.6499,15.7398],[73.6549,15.7739],[73.6207,15.8501],[73.5844,15.9073],[73.5415,15.9326],[73.503,15.9413],[73.5095,15.9918],[73.4953,15.9853],[73.4818,16.0342],[73.4564,16.0574],[73.4839,16.0695],[73.4591,16.0769],[73.4724,16.1102],[73.4617,16.1155],[73.4576,16.0962],[73.4374,16.1916],[73.4523,16.225],[73.4277,16.2047],[73.4104,16.2654],[73.4396,16.289],[73.4057,16.2811],[73.3868,16.362],[73.37,16.363],[73.3708,16.3888],[73.3965,16.3907],[73.4085,16.4086],[73.3679,16.4008],[73.3578,16.4336],[73.3817,16.448],[73.3479,16.4526],[73.3116,16.5393],[73.3392,16.5597],[73.3591,16.5171],[73.349,16.5086],[73.3714,16.5137],[73.352,16.537],[73.3562,16.5663],[73.3168,16.5976],[73.3479,16.5967],[73.3593,16.6254],[73.3365,16.621],[73.3215,16.6383],[73.327,16.6786],[73.343,16.6907],[73.3167,16.6952],[73.3004,16.7516],[73.3179,16.8011],[73.2946,16.8134],[73.2847,16.8773],[73.3047,16.8852],[73.2761,16.8895],[73.2818,16.9474],[73.3058,16.973],[73.2682,16.9867],[73.2784,17.0048],[73.2531,17.0391],[73.2701,17.0396],[73.2896,17.0061],[73.2815,17.0367],[73.3264,17.0304],[73.2796,17.0447],[73.2914,17.0702],[73.2682,17.148],[73.2315,17.1953],[73.244,17.2156],[73.1893,17.3025],[73.2207,17.3081],[73.2573,17.2598],[73.2631,17.2879],[73.2972,17.2844],[73.2369,17.291],[73.2076,17.3815],[73.1715,17.4019],[73.1979,17.4384],[73.1903,17.4813],[73.1405,17.5551],[73.1716,17.5844],[73.135,17.6294],[73.1193,17.6889],[73.1355,17.7136],[73.1276,17.7483],[73.0559,17.925],[73.0342,17.9437],[73.0415,17.9769],[73.0062,18.0163],[73.0312,18.0228],[73.0447,18.0395],[73.025,18.0294],[73.0279,18.0458],[73.0162,18.0249],[72.9934,18.0556],[72.9978,18.0775],[72.9722,18.123],[72.9884,18.1524],[72.9805,18.1943],[72.9314,18.2183],[72.943,18.2318],[72.9378,18.2773],[72.9666,18.2716],[72.9803,18.2399],[73.0525,18.2258],[73.0698,18.1969],[73.0782,18.2298],[73.0525,18.2857],[73.0463,18.2676],[73.025,18.2652],[72.9125,18.3507],[72.9088,18.3658],[72.9275,18.3811],[72.9043,18.4087],[72.8972,18.4606],[73.0374,18.5235],[73.4859,18.6233],[73.7681,18.649],[73.8592,18.6268],[73.9512,18.5653],[74.0035,18.4978],[74.0444,18.3925]]]]}}