{"type":"Feature","properties":{"speciesId":970,"category":"LC","source":"IUCN Red List","simplifyTol":0.01,"clippedToSubcontinent":true},"geometry":{"type":"Polygon","coordinates":[[[77.2047,8.9495],[77.3344,8.8734],[77.3644,8.7852],[77.4784,8.7277],[77.51,8.6729],[77.5669,8.6409],[77.5687,8.5969],[77.5418,8.5346],[77.5764,8.4308],[77.5684,8.1566],[77.515,8.1732],[77.4183,8.2528],[77.3499,8.277],[77.3179,8.3747],[77.2628,8.4062],[77.1976,8.4117],[77.1155,8.4719],[77.038,8.591],[77.0104,8.6901],[77.0482,8.8538],[77.0839,8.8692],[77.0944,8.9194],[77.1149,8.9353],[77.2047,8.9495]]]}}