{"type":"Feature","properties":{"speciesId":973,"category":"NT","source":"IUCN Red List","simplifyTol":0.01,"clippedToSubcontinent":true},"geometry":{"type":"Polygon","coordinates":[[[77.2262,8.892],[77.287,8.8711],[77.2966,8.8189],[77.2697,8.8199],[77.3275,8.733],[77.3266,8.7051],[77.3004,8.7172],[77.2898,8.7058],[77.278,8.7348],[77.2536,8.7167],[77.3049,8.6764],[77.2918,8.6687],[77.2575,8.6905],[77.3058,8.6341],[77.2938,8.6258],[77.3093,8.6206],[77.3029,8.5998],[77.3457,8.6186],[77.3331,8.639],[77.3652,8.627],[77.3796,8.6575],[77.3903,8.6318],[77.3714,8.5871],[77.4197,8.6008],[77.5097,8.5318],[77.512,8.5062],[77.4898,8.4817],[77.4595,8.4706],[77.4015,8.4831],[77.3099,8.5461],[77.3086,8.5246],[77.2796,8.5273],[77.2874,8.4926],[77.2482,8.5013],[77.257,8.4767],[77.2117,8.4723],[77.2356,8.4936],[77.2035,8.5247],[77.2427,8.508],[77.262,8.5422],[77.223,8.5868],[77.1958,8.5655],[77.1785,8.5731],[77.179,8.5901],[77.2252,8.5971],[77.208,8.6089],[77.2026,8.6478],[77.1824,8.6521],[77.1681,8.6843],[77.1483,8.6811],[77.1516,8.7058],[77.1688,8.7021],[77.1629,8.7239],[77.1385,8.7235],[77.1196,8.7506],[77.1109,8.7281],[77.0977,8.7295],[77.0866,8.7513],[77.1038,8.7648],[77.0811,8.7927],[77.1042,8.7916],[77.131,8.7646],[77.1432,8.7638],[77.1312,8.7896],[77.1782,8.7638],[77.168,8.7879],[77.1888,8.8138],[77.1384,8.8238],[77.1654,8.8305],[77.1529,8.8526],[77.1154,8.8506],[77.1047,8.8844],[77.1519,8.8898],[77.193,8.8544],[77.2273,8.8479],[77.2151,8.8747],[77.2262,8.892]]]}}