{"type":"Feature","properties":{"speciesId":974,"category":"LC","source":"IUCN Red List","simplifyTol":0.01,"clippedToSubcontinent":true},"geometry":{"type":"MultiPolygon","coordinates":[[[[77.3876,8.321],[77.2983,8.3515],[77.1688,8.4906],[77.0953,8.6158],[77.0078,8.8293],[76.8387,9.0637],[76.7577,9.2519],[76.7259,9.4596],[76.7835,9.8346],[76.7089,9.9779],[76.5698,10.1421],[76.5254,10.326],[76.5386,10.3944],[76.5842,10.4702],[76.6442,10.5256],[76.7163,10.5591],[76.8202,10.5601],[76.9973,10.4649],[77.0766,10.3373],[77.1372,10.1761],[77.2091,9.8479],[77.1893,9.5395],[77.2406,9.3173],[77.3157,8.8477],[77.3488,8.7494],[77.4657,8.5594],[77.5008,8.4301],[77.4985,8.3885],[77.475,8.3554],[77.4355,8.3288],[77.3876,8.321]]],[[[75.9817,11.4893],[75.8941,11.5065],[75.8082,11.5831],[75.7183,11.7655],[75.5986,11.938],[75.277,12.3027],[75.0531,12.6284],[74.8587,12.8276],[74.817,12.9261],[74.8134,13.0094],[74.8393,13.0869],[74.9006,13.1483],[74.9938,13.1765],[75.0587,13.1543],[75.0971,13.0857],[75.1063,12.9092],[75.1588,12.8235],[75.3359,12.6585],[75.5824,12.4878],[75.6872,12.3974],[76.1721,11.8612],[76.2476,11.7593],[76.2765,11.6756],[76.2496,11.5992],[76.1303,11.5022],[75.9817,11.4893]]]]}}