{"type":"Feature","properties":{"speciesId":975,"category":"LC","source":"IUCN Red List","simplifyTol":0.01,"clippedToSubcontinent":true},"geometry":{"type":"MultiPolygon","coordinates":[[[[92.207,22.5588],[92.2577,22.536],[92.2775,22.4841],[92.2544,22.4328],[92.2023,22.4134],[92.1517,22.4364],[92.1321,22.4884],[92.155,22.5391],[92.207,22.5588]]],[[[97.8908,25.1451],[97.8493,25.071],[97.7748,25.0792],[97.7562,25.0965],[97.693,25.0811],[97.6248,25.1156],[97.5697,25.1692],[97.5585,25.2093],[97.5755,25.2705],[97.6681,25.3945],[97.7006,25.4048],[97.7472,25.3898],[97.8524,25.3016],[97.8816,25.2512],[97.8908,25.1451]]],[[[92.0217,25.744],[92.1298,25.6695],[92.1921,25.5545],[92.2061,25.4704],[92.1737,25.3475],[92.1369,25.2873],[92.081,25.2508],[91.7771,25.1936],[91.4877,25.1954],[91.3109,25.2251],[91.1713,25.2805],[91.1161,25.322],[91.0642,25.3908],[91.0006,25.5821],[91.0038,25.6418],[91.0303,25.6931],[91.141,25.7468],[91.8047,25.7715],[91.9596,25.7627],[92.0217,25.744]]],[[[93.3417,26.8427],[93.3054,26.8705],[93.3046,26.92],[93.3626,26.9517],[93.4345,26.944],[93.4485,26.8914],[93.433,26.8566],[93.3417,26.8427]]],[[[90.8864,27.1818],[90.9028,27.1624],[90.8836,27.1462],[90.8672,27.1652],[90.8864,27.1818]]],[[[96.4056,28.0906],[96.3419,28.055],[96.2153,28.0334],[96.0029,28.087],[95.9321,28.0892],[95.8534,28.0583],[95.6698,27.9468],[95.6004,27.936],[95.5698,27.9674],[95.5471,28.0401],[95.4914,28.3404],[95.4977,28.4365],[95.5797,28.5311],[95.7375,28.6078],[95.8816,28.6249],[96.0257,28.5972],[96.1593,28.5187],[96.277,28.3975],[96.3962,28.198],[96.4146,28.1324],[96.4056,28.0906]]]]}}