{"type":"Feature","properties":{"speciesId":976,"category":"LC","source":"IUCN Red List","simplifyTol":0.01,"clippedToSubcontinent":true},"geometry":{"type":"MultiPolygon","coordinates":[[[[77.1753,8.6349],[77.1146,8.6721],[77.0945,8.7524],[77.1466,8.848],[77.2186,8.909],[77.2521,8.88],[77.2537,8.7682],[77.2198,8.6582],[77.1753,8.6349]]],[[[77.1801,9.4027],[77.0772,9.4494],[77.0263,9.5408],[77.0302,9.609],[77.0987,9.7724],[77.0723,9.8998],[77.0267,9.953],[76.9047,10.0436],[76.5875,10.253],[76.5721,10.3368],[76.5927,10.3767],[76.6307,10.4059],[76.687,10.4251],[76.7694,10.4277],[76.8808,10.3791],[76.9371,10.3184],[77.0164,10.1626],[77.1986,9.9511],[77.2367,9.8163],[77.2064,9.7166],[77.2041,9.641],[77.2655,9.5593],[77.2771,9.4981],[77.2503,9.4377],[77.1801,9.4027]]],[[[75.5288,12.4421],[75.6939,12.4702],[75.7241,12.46],[75.7553,12.4126],[75.7287,12.3482],[75.7303,12.2997],[75.7719,12.2094],[75.9081,12.1259],[76.0409,11.99],[76.3175,11.8414],[76.3905,11.7793],[76.4619,11.6306],[76.5135,11.4092],[76.5863,11.2219],[76.7425,10.9913],[76.746,10.9356],[76.7093,10.8781],[76.6705,10.8738],[76.6037,10.9004],[76.5803,10.9255],[76.545,11.0244],[76.445,11.057],[76.3076,11.185],[76.0686,11.3011],[75.8957,11.5084],[75.852,11.5937],[75.791,11.8939],[75.7081,12.0671],[75.5793,12.1992],[75.3854,12.2981],[75.2908,12.3867],[75.3112,12.4464],[75.3412,12.4695],[75.5288,12.4421]]]]}}