{"type":"Feature","properties":{"speciesId":977,"category":"LC","source":"IUCN Red List","simplifyTol":0.01,"clippedToSubcontinent":true},"geometry":{"type":"MultiPolygon","coordinates":[[[[94.1028,25.6363],[94.0465,25.6079],[94.0248,25.6178],[94.0979,25.658],[94.1028,25.6363]]],[[[89.2486,26.8907],[89.2753,26.86],[89.2448,26.8336],[89.2183,26.8641],[89.2486,26.8907]]],[[[88.6921,27.2733],[88.4096,27.0305],[88.3552,27.0124],[88.3377,27.0224],[88.3424,27.0626],[88.416,27.1377],[88.5538,27.2363],[88.6897,27.2977],[88.6921,27.2733]]],[[[86.6681,27.5966],[86.7845,27.562],[86.8949,27.4745],[86.8873,27.4506],[86.7612,27.4118],[86.8845,27.3382],[86.8772,27.2122],[86.9082,27.1073],[86.9587,27.1693],[87.0089,27.2969],[86.9852,27.5028],[87.0209,27.5486],[87.0895,27.591],[87.3202,27.6753],[87.4001,27.6795],[87.3795,27.5449],[87.4267,27.3537],[87.4618,27.2776],[87.5238,27.21],[87.5332,27.2454],[87.5167,27.4933],[87.5301,27.5382],[87.5908,27.5717],[87.6494,27.5772],[87.6796,27.4709],[87.7793,27.5449],[87.8198,27.5465],[87.8953,27.4729],[87.9601,27.3418],[87.9672,27.2126],[87.9336,27.0777],[87.8861,26.992],[87.8242,26.9299],[87.6324,26.8621],[86.6926,26.8886],[86.4806,26.9308],[86.3068,27.0073],[86.0957,27.1549],[86.0013,27.2405],[85.9624,27.3004],[85.9432,27.4315],[85.978,27.5939],[86.0799,27.8018],[86.1762,27.8937],[86.2682,27.894],[86.3029,27.8359],[86.2942,27.7379],[86.2154,27.6543],[86.2156,27.6198],[86.2935,27.5641],[86.423,27.6219],[86.4196,27.4757],[86.4592,27.4309],[86.5399,27.3988],[86.5933,27.4021],[86.645,27.5678],[86.6681,27.5966]]],[[[94.407,28.4388],[94.3286,28.4112],[94.2267,28.4032],[94.0477,28.4472],[93.9697,28.4976],[93.9114,28.5647],[93.8958,28.6224],[93.9082,28.6847],[93.9836,28.7462],[94.1267,28.7948],[94.2779,28.8155],[94.3623,28.8],[94.4576,28.7132],[94.5069,28.5946],[94.4889,28.5166],[94.407,28.4388]]],[[[96.0105,28.6366],[95.9503,28.6058],[95.9019,28.6054],[95.7119,28.6718],[95.6092,28.7431],[95.5693,28.8274],[95.5514,28.9935],[95.5549,29.0786],[95.5827,29.1287],[95.8191,29.2164],[95.9073,29.2219],[95.9479,29.2018],[95.9729,29.142],[96.0437,28.741],[96.0401,28.6769],[96.0105,28.6366]]]]}}