{"type":"Feature","properties":{"speciesId":978,"category":"NT","source":"IUCN Red List","simplifyTol":0.01,"clippedToSubcontinent":true},"geometry":{"type":"Polygon","coordinates":[[[77.2687,8.5989],[77.2513,8.5009],[77.2162,8.4917],[77.1505,8.5156],[77.1444,8.6402],[77.0932,8.7264],[77.0823,8.8434],[77.053,8.9152],[77.0566,9.1349],[77.1028,9.1992],[77.1935,9.2492],[77.2341,9.2452],[77.2575,9.2255],[77.2617,9.1425],[77.1591,9.0276],[77.153,9.0004],[77.2331,8.8669],[77.1957,8.7155],[77.234,8.6585],[77.3018,8.6345],[77.2687,8.5989]]]}}