{"type":"Feature","properties":{"speciesId":980,"category":"LC","source":"IUCN Red List","simplifyTol":0.01,"clippedToSubcontinent":true},"geometry":{"type":"MultiPolygon","coordinates":[[[[77.162,8.8901],[77.2076,8.9108],[77.2706,8.8887],[77.3345,8.8291],[77.4475,8.6722],[77.3552,8.5138],[77.2784,8.5163],[77.164,8.5749],[77.1401,8.659],[77.162,8.8901]]],[[[77.4771,9.5799],[77.4939,9.5563],[77.4919,9.4659],[77.3831,9.3573],[77.3075,9.127],[77.2726,9.092],[77.2437,9.0907],[77.228,9.1156],[77.2053,9.2854],[77.2555,9.4329],[77.2538,9.4772],[77.2206,9.5596],[77.2287,9.5994],[77.2752,9.6465],[77.3853,9.6933],[77.4043,9.6658],[77.4008,9.5943],[77.4771,9.5799]]],[[[77.1441,10.3898],[77.2101,10.4042],[77.2563,10.356],[77.3241,10.3247],[77.3451,10.2578],[77.3191,10.0866],[77.2402,9.9924],[77.2378,9.8552],[77.2127,9.8264],[77.1636,9.8139],[77.1144,9.8309],[77.0816,9.8921],[77.0786,10.0468],[76.9567,10.1108],[76.9151,10.1866],[76.9166,10.4107],[76.9687,10.4283],[77.0045,10.3996],[77.079,10.43],[77.1441,10.3898]]]]}}