{"type":"Feature","properties":{"speciesId":982,"category":"NT","source":"IUCN Red List","simplifyTol":0.01,"clippedToSubcontinent":true},"geometry":{"type":"Polygon","coordinates":[[[77.1213,8.8067],[77.196,8.8896],[77.2797,8.893],[77.3113,8.8535],[77.3318,8.7791],[77.428,8.6491],[77.4666,8.6199],[77.5228,8.6157],[77.5482,8.5978],[77.5584,8.5603],[77.5246,8.5431],[77.5155,8.5153],[77.5466,8.4608],[77.528,8.4441],[77.5541,8.3925],[77.5503,8.2659],[77.5024,8.2681],[77.3755,8.3276],[77.3441,8.3873],[77.2927,8.3991],[77.2454,8.4628],[77.2045,8.4894],[77.2009,8.5202],[77.2358,8.5365],[77.2306,8.5763],[77.1666,8.5877],[77.1071,8.7145],[77.1213,8.8067]]]}}