{"type":"Feature","properties":{"speciesId":983,"category":"LC","source":"IUCN Red List","simplifyTol":0.01,"clippedToSubcontinent":true},"geometry":{"type":"Polygon","coordinates":[[[74.7463,15.8099],[74.7676,15.7515],[74.7786,15.6271],[74.7709,15.4084],[74.7304,15.2851],[74.6605,15.1913],[74.5676,15.1434],[74.3761,15.095],[74.1101,15.0726],[73.9975,15.0457],[73.9053,15.0868],[73.946,15.1422],[73.8868,15.3344],[73.865,15.3686],[73.8344,15.3615],[73.7794,15.4082],[73.874,15.398],[73.8896,15.4203],[73.8746,15.4342],[73.8584,15.4258],[73.8456,15.4489],[73.7827,15.456],[73.8202,15.5012],[73.7577,15.4933],[73.731,15.618],[73.6866,15.7177],[73.6499,15.7398],[73.6549,15.7739],[73.6204,15.8507],[73.5846,15.9071],[73.5003,15.9454],[73.5095,15.9918],[73.4953,15.9853],[73.4818,16.0342],[73.4562,16.0582],[73.4839,16.0695],[73.4591,16.0769],[73.4724,16.1102],[73.4617,16.1155],[73.4576,16.0962],[73.4374,16.1916],[73.4522,16.2251],[73.4279,16.2045],[73.411,16.2607],[73.4396,16.289],[73.4057,16.2811],[73.3868,16.362],[73.3701,16.3623],[73.3708,16.3888],[73.3965,16.3907],[73.4085,16.4087],[73.3682,16.4005],[73.3578,16.4336],[73.3816,16.4481],[73.352,16.4476],[73.3154,16.5182],[73.3155,16.5517],[73.3376,16.56],[73.3591,16.5173],[73.3491,16.5085],[73.3714,16.5137],[73.352,16.537],[73.3562,16.5663],[73.3168,16.5979],[73.3478,16.5966],[73.3593,16.6255],[73.3365,16.621],[73.3215,16.6383],[73.327,16.6786],[73.343,16.6907],[73.3167,16.6952],[73.3004,16.7516],[73.3179,16.8011],[73.2946,16.8134],[73.2847,16.8773],[73.3047,16.8852],[73.2761,16.8895],[73.2818,16.9474],[73.3058,16.9731],[73.2683,16.9866],[73.2784,17.0048],[73.2531,17.0391],[73.2701,17.0396],[73.2896,17.0061],[73.2815,17.0367],[73.3265,17.0301],[73.2796,17.0447],[73.2914,17.0702],[73.2682,17.148],[73.2315,17.1953],[73.244,17.2156],[73.1893,17.3025],[73.2207,17.3081],[73.2573,17.2598],[73.2631,17.2879],[73.2972,17.2841],[73.2892,17.2951],[73.2369,17.291],[73.2076,17.3815],[73.1714,17.4022],[73.1979,17.4384],[73.1903,17.4813],[73.1405,17.5551],[73.1716,17.5844],[73.135,17.6294],[73.1193,17.6889],[73.1355,17.7136],[73.1276,17.7483],[73.0559,17.925],[73.0342,17.9437],[73.0415,17.9769],[73.0062,18.0163],[73.0312,18.0228],[73.0447,18.0395],[73.025,18.0294],[73.0279,18.0458],[73.0162,18.0249],[72.9934,18.0556],[72.9978,18.0775],[72.9722,18.123],[72.9884,18.1524],[72.9805,18.1943],[72.9314,18.2183],[72.943,18.2318],[72.9378,18.2773],[72.9666,18.2716],[72.9803,18.2399],[73.0525,18.2258],[73.0698,18.1969],[73.0782,18.2298],[73.0525,18.2857],[73.046,18.2674],[73.0248,18.2653],[72.9099,18.3553],[72.9275,18.3803],[72.8896,18.4594],[72.9069,18.4942],[72.9046,18.5381],[72.9214,18.5286],[72.962,18.5412],[72.9119,18.5587],[72.8839,18.6307],[72.8976,18.6326],[72.8596,18.6587],[72.8657,18.7135],[73.0397,18.7127],[73.1273,18.6963],[73.2173,18.6516],[73.2732,18.5791],[73.3078,18.2501],[73.4081,17.9586],[73.5058,17.4642],[73.6306,17.0768],[73.6842,16.7941],[73.708,16.517],[73.7493,16.3602],[73.8017,16.2521],[73.9267,16.11],[74.082,16.0083],[74.3033,15.9361],[74.5805,15.9185],[74.6766,15.8742],[74.7463,15.8099]]]}}