{"type":"Feature","properties":{"speciesId":985,"category":"LC","source":"IUCN Red List","simplifyTol":0.01,"clippedToSubcontinent":true},"geometry":{"type":"MultiPolygon","coordinates":[[[[78.3365,11.4543],[78.4748,11.4145],[78.4846,11.3898],[78.4227,11.2256],[78.3739,11.1866],[78.2922,11.1978],[78.293,11.2292],[78.3586,11.2851],[78.3751,11.3273],[78.3654,11.35],[78.2878,11.3442],[78.2776,11.3763],[78.2886,11.4056],[78.3365,11.4543]]],[[[78.1067,11.7996],[78.1917,11.9237],[78.2337,11.9436],[78.3147,11.9232],[78.326,11.8989],[78.3635,11.8826],[78.3408,11.8084],[78.2212,11.7227],[78.1846,11.7255],[78.1815,11.7433],[78.195,11.7646],[78.2435,11.7824],[78.2463,11.7986],[78.1625,11.7807],[78.1162,11.7854],[78.1067,11.7996]]],[[[75.9781,13.6447],[76.1277,13.1411],[76.3317,12.2498],[76.2696,12.1094],[76.1982,11.8832],[76.3384,11.9044],[76.4591,11.8902],[76.6762,11.5333],[76.5528,11.5213],[76.4971,11.4843],[76.5107,11.4629],[76.4979,11.4287],[76.4345,11.3944],[76.4473,11.37],[76.5715,11.3936],[76.583,11.3815],[76.5135,11.3158],[76.5108,11.2791],[76.4396,11.2537],[76.4388,11.2189],[76.4045,11.2078],[76.4783,11.1011],[76.4995,11.1002],[76.4887,11.125],[76.5093,11.1747],[76.5498,11.1527],[76.5633,11.1907],[76.6591,11.2144],[76.6426,11.2471],[76.6507,11.2606],[76.692,11.2737],[76.7442,11.2667],[76.8,11.3472],[76.8363,11.3256],[76.8469,11.2855],[76.7452,11.2279],[76.6147,11.1168],[76.6538,11.0897],[76.6985,11.1148],[76.7489,11.1092],[76.7654,11.1519],[76.8737,11.1506],[76.8961,11.1379],[76.8947,11.1025],[76.8487,11.0873],[76.868,11.0513],[76.8608,11.0292],[76.7605,11.0184],[76.7358,11.0007],[76.7244,10.9492],[76.7976,10.9045],[76.7598,10.8595],[76.6598,10.8883],[76.5746,10.8799],[76.56,10.9009],[76.58,10.9242],[76.5884,10.9938],[76.5641,11.0623],[76.4173,11.0521],[76.4025,11.0815],[76.3757,11.091],[76.3727,11.1151],[76.3997,11.1386],[76.3641,11.1993],[76.3833,11.2639],[76.474,11.3142],[76.437,11.3219],[76.4441,11.3374],[76.415,11.3513],[76.4161,11.4043],[76.3884,11.4197],[76.3899,11.4453],[76.3594,11.4343],[76.3494,11.4553],[76.3089,11.4598],[76.3044,11.4808],[76.2623,11.4713],[76.2292,11.52],[76.1909,11.5147],[76.204,11.4886],[76.1894,11.4236],[76.2112,11.4094],[76.2142,11.3779],[76.1036,11.3376],[76.0761,11.3592],[76.0617,11.4137],[76.0928,11.4488],[76.0614,11.4532],[76.0535,11.4777],[75.9942,11.5172],[75.9615,11.5124],[75.9434,11.4918],[75.9197,11.4955],[75.8589,11.6466],[75.768,11.7207],[75.7549,11.7453],[75.7748,11.7537],[75.7255,11.7952],[75.7315,11.8216],[75.786,11.8689],[75.9121,11.854],[75.8489,11.9334],[75.7956,12.0448],[75.8307,12.0744],[75.6701,12.1584],[75.6111,12.135],[75.5742,12.1449],[75.4936,12.3265],[75.4089,12.4037],[75.3477,12.4278],[75.3627,12.4429],[75.4284,12.4337],[75.4055,12.4632],[75.4223,12.478],[75.5606,12.4571],[75.606,12.4655],[75.5568,12.5565],[75.5813,12.5612],[75.6333,12.5345],[75.6614,12.5711],[75.6436,12.6783],[75.6599,12.7098],[75.586,12.8034],[75.6412,12.8339],[75.5864,12.8393],[75.58,12.9234],[75.4942,12.9705],[75.4795,13.0626],[75.4085,13.0985],[75.3757,13.1499],[75.3213,13.103],[75.288,13.0938],[75.2369,13.1017],[75.1858,13.1404],[75.1011,13.3139],[75.1119,13.4796],[75.1354,13.4993],[75.1785,13.497],[75.2168,13.428],[75.2489,13.4086],[75.3614,13.4156],[75.3192,13.5672],[75.3208,13.5943],[75.3401,13.6074],[75.3897,13.6131],[75.4618,13.5793],[75.5509,13.567],[75.5702,13.5758],[75.5828,13.6336],[75.6126,13.6616],[75.7178,13.6463],[75.9392,13.6822],[75.9781,13.6447]]]]}}