{"type":"Feature","properties":{"speciesId":986,"category":"EN","source":"IUCN Red List","simplifyTol":0.01,"clippedToSubcontinent":true},"geometry":{"type":"MultiPolygon","coordinates":[[[[77.4099,9.675],[77.3773,9.5594],[77.4034,9.552],[77.437,9.5724],[77.441,9.5473],[77.418,9.5269],[77.4055,9.4632],[77.3644,9.43],[77.3403,9.3446],[77.2897,9.3],[77.2779,9.3322],[77.2883,9.6085],[77.4089,9.7225],[77.4099,9.675]]],[[[77.0004,10.1511],[77.0289,10.3735],[77.0847,10.3655],[77.2215,10.3006],[77.1981,10.1163],[77.1584,10.0187],[77.0996,10.0268],[77.0004,10.1511]]]]}}