{"type":"Feature","properties":{"speciesId":990,"category":"NT","source":"IUCN Red List","simplifyTol":0.01,"clippedToSubcontinent":true},"geometry":{"type":"Polygon","coordinates":[[[77.2894,8.8662],[77.3548,8.7851],[77.3011,8.7801],[77.3169,8.7656],[77.3053,8.7644],[77.3266,8.7359],[77.3267,8.7051],[77.3004,8.7172],[77.29,8.7057],[77.278,8.7348],[77.2536,8.717],[77.304,8.6717],[77.2606,8.6832],[77.3058,8.6341],[77.2938,8.6258],[77.3093,8.6206],[77.3029,8.5997],[77.3457,8.6186],[77.333,8.639],[77.3652,8.627],[77.3786,8.6579],[77.3903,8.6318],[77.3715,8.5869],[77.434,8.6007],[77.5114,8.5327],[77.5144,8.5032],[77.4798,8.4716],[77.3892,8.488],[77.3099,8.5461],[77.3086,8.5246],[77.2796,8.5273],[77.2874,8.4925],[77.2482,8.5013],[77.2569,8.4766],[77.2114,8.473],[77.2356,8.4936],[77.2035,8.5247],[77.2427,8.508],[77.262,8.5422],[77.223,8.5868],[77.1958,8.5655],[77.1785,8.5731],[77.179,8.5901],[77.2252,8.5971],[77.208,8.6089],[77.2026,8.6478],[77.1824,8.6521],[77.1681,8.6843],[77.1483,8.6811],[77.1516,8.7058],[77.1688,8.7021],[77.1628,8.724],[77.1385,8.7235],[77.1196,8.7506],[77.1097,8.7272],[77.0931,8.7347],[77.0867,8.7518],[77.104,8.764],[77.0811,8.7931],[77.1042,8.7916],[77.1312,8.7645],[77.1432,8.7638],[77.1312,8.7896],[77.1786,8.7645],[77.168,8.7879],[77.1888,8.8138],[77.1384,8.8238],[77.1654,8.8305],[77.1529,8.8526],[77.1153,8.8508],[77.1053,8.8849],[77.1521,8.8898],[77.1937,8.8542],[77.2186,8.8887],[77.2425,8.8938],[77.2894,8.8662]]]}}