{"type":"Feature","properties":{"speciesId":995,"category":"VU","source":"IUCN Red List","simplifyTol":0.01,"clippedToSubcontinent":true},"geometry":{"type":"Polygon","coordinates":[[[76.9985,10.3932],[76.9876,10.3481],[77.0775,10.3216],[77.0932,10.2466],[77.0639,10.2081],[76.9523,10.169],[77.0061,10.1317],[77.0054,10.1134],[76.9182,10.0797],[76.8873,10.102],[76.8896,10.1776],[76.8543,10.22],[76.8669,10.2442],[76.8903,10.2491],[76.8532,10.2595],[76.7995,10.308],[76.7686,10.2944],[76.7281,10.316],[76.6974,10.3737],[76.7183,10.3826],[76.8302,10.3547],[76.87,10.3626],[76.8943,10.383],[76.8406,10.4425],[76.8802,10.4727],[76.9684,10.43],[76.9692,10.4081],[76.9985,10.3932]]]}}